{"type":"FeatureCollection","metadata":{"generatedAt":"2026-07-14T17:30:13.856Z","source":"IGN / INSEE - Contours IRIS WFS Géoplateforme","datasetId":"STATISTICALUNITS.IRIS:contours_iris","datasetUrl":"https://geoservices.ign.fr/contoursiris","sourceFileUrl":"https://data.geopf.fr/wfs/ows?SERVICE=WFS&VERSION=2.0.0&REQUEST=GetFeature&TYPENAMES=STATISTICALUNITS.IRIS%3Acontours_iris&OUTPUTFORMAT=application%2Fjson&COUNT=1000&CQL_FILTER=code_insee%3D%2773011%27&SRSNAME=EPSG%3A4326","license":"Licence Ouverte / Open Licence 2.0","sourceYear":"2026","communeCode":"73011","communeName":"Albertville","featureCount":6,"parentCount":1,"parentContract":"technical commune group; not selectable and not displayed as a district","sourceFeatureCount":6,"humanLabelContract":"one visible plate per unique official human place name","groupingContract":"only exact source-ID groups approved by the resolved curation, or source zones sharing the same official name and parent, are merged","groupedZoneCount":0,"groupedSourceFeatureCount":0,"curationStatus":"resolved","curationRevision":1,"curationSources":[{"id":"ign-insee-contours-iris-2026","provider":"IGN / INSEE - Contours IRIS WFS Géoplateforme","datasetUrl":"https://geoservices.ign.fr/contoursiris","role":"official geometry, source identifiers and source labels","vintage":"2026","license":"Licence Ouverte / Open Licence 2.0"},{"id":"ign-geoplateforme-toponymy-2026","provider":"IGN Géoplateforme - reverse geocoding, addresses and named places","datasetUrl":"https://geoservices.ign.fr/geocodage-geoplateforme","role":"official address, street and named-place evidence","vintage":"2026","license":"Licence Ouverte / Open Licence 2.0"},{"id":"guide-alpha-editorial-recovery-2026-07-14","provider":"Meewav Guide Alpha editorial review","datasetUrl":"docs/geospatial/france-semantic-recovery.md","role":"versioned mapping of exact official IRIS identifiers to coherent human place names","vintage":"2026-07-14","license":"Project documentation"}],"sourceCorrections":[{"operationId":"albertville-730110102-accept-centre-ville","type":"accept","sourceIds":["730110102"],"expectedLabels":["Centre Ville"],"outputLabel":"Centre Ville","evidenceRefs":["ign-insee-contours-iris-2026","guide-alpha-editorial-recovery-2026-07-14"],"rationale":"This exact official IGN/INSEE label is explicitly retained because it is a real, human-qualified local sector, facility or named land-use place. The review preserves the official wording and does not infer a replacement."},{"operationId":"albertville-730110106-accept-plaine-d-albertville","type":"accept","sourceIds":["730110106"],"expectedLabels":["Plaine d'Albertville"],"outputLabel":"Plaine d'Albertville","evidenceRefs":["ign-insee-contours-iris-2026","guide-alpha-editorial-recovery-2026-07-14"],"rationale":"This exact official IGN/INSEE label is explicitly retained because it is a real, human-qualified local sector, facility or named land-use place. The review preserves the official wording and does not infer a replacement."}],"bbox":[6.35959933,45.64114925,6.46041119,45.68824084],"areaStatsM2":{"minimum":353144.8974609375,"average":2879423.210205078,"maximum":12093821.723144531}},"features":[{"type":"Feature","id":"albertville_730110101_conflans","properties":{"zoneId":"albertville_730110101_conflans","label":"Conflans","districtCode":"730110101","arrondissementCode":"73011","colorIndex":0,"parentZoneId":"albertville_parent_73011_albertville","parentCode":"73011","parentLabel":"Albertville","territoryType":"iris","source":"IGN / INSEE - Contours IRIS WFS Géoplateforme","sourceYear":"2026","officialId":"730110101","sourceCleabs":"IRIS____0000000730110101","communeCode":"73011","communeName":"Albertville","irisCode":"0101","irisType":"H","officialAreaM2":12093821.723144531,"labelLng":6.415629083333303,"labelLat":45.66867684842618,"bbox":[6.39015719,45.64114925,6.46041119,45.68824084]},"geometry":{"type":"MultiPolygon","coordinates":[[[[6.39625366,45.68310514],[6.39679356,45.68293472],[6.39696209,45.68301977],[6.39746013,45.68415663],[6.39838221,45.68583229],[6.39982148,45.68751036],[6.4003152,45.68824084],[6.40189673,45.68802723],[6.40232757,45.68781862],[6.40362455,45.68753697],[6.40435525,45.68672622],[6.40532131,45.68654288],[6.40569733,45.68584109],[6.40651265,45.68550727],[6.40641227,45.68533906],[6.40661759,45.68483081],[6.40656078,45.68457655],[6.40704734,45.68356136],[6.40741118,45.6833097],[6.40827993,45.68294631],[6.40881453,45.68252363],[6.40903703,45.68250337],[6.41000996,45.68266228],[6.41044317,45.68263924],[6.41158125,45.68228569],[6.412281,45.68233119],[6.41308008,45.68225649],[6.41819449,45.68113961],[6.41982696,45.68042304],[6.42233447,45.68034144],[6.42307746,45.68039997],[6.42762446,45.68106741],[6.42851171,45.68102597],[6.42920326,45.68116715],[6.43085975,45.68083997],[6.43171453,45.68102123],[6.43218656,45.68089868],[6.43323949,45.68091614],[6.43383344,45.68083133],[6.43425447,45.68090231],[6.43478029,45.68087996],[6.43500434,45.68102996],[6.43531029,45.68150464],[6.43603829,45.68156985],[6.43660701,45.68134789],[6.43649105,45.68182013],[6.43745956,45.68223762],[6.43826782,45.68229046],[6.43982589,45.68358586],[6.44132843,45.68330559],[6.44779123,45.68563162],[6.45048275,45.68614585],[6.45520401,45.68658333],[6.45576362,45.68650397],[6.45973862,45.68531018],[6.46041119,45.68475501],[6.46026183,45.68397092],[6.4599632,45.68374034],[6.46000404,45.683612],[6.45971553,45.68329638],[6.45941963,45.68323246],[6.4592297,45.68307425],[6.45899749,45.68306246],[6.45882282,45.68294254],[6.45884831,45.68281557],[6.45850236,45.68275319],[6.45668284,45.68184913],[6.45642252,45.68161376],[6.45600721,45.68142911],[6.45594197,45.68129051],[6.4543429,45.68049682],[6.45385576,45.68010887],[6.45329693,45.68015846],[6.45263029,45.67992293],[6.45216641,45.67988668],[6.45173329,45.67962234],[6.45157104,45.67965977],[6.45090744,45.67930786],[6.4510512,45.67905648],[6.45084194,45.67887632],[6.44673578,45.67686683],[6.43986092,45.67412073],[6.43934895,45.67376502],[6.43894887,45.6731409],[6.43811679,45.67255791],[6.4377446,45.67219613],[6.43690384,45.67259045],[6.43665653,45.67285218],[6.43625344,45.67366938],[6.4348083,45.67284099],[6.43359575,45.67198927],[6.4326858,45.67116526],[6.43210566,45.67078726],[6.43200785,45.67001871],[6.43163074,45.66903783],[6.42963589,45.66767543],[6.4293506,45.6672623],[6.42888598,45.66619576],[6.42800822,45.66534911],[6.42778515,45.66496472],[6.42766632,45.66418779],[6.42776528,45.66418748],[6.42774582,45.66406008],[6.42753682,45.66367437],[6.42694298,45.66296958],[6.42436875,45.65899015],[6.42494548,45.65881757],[6.4277949,45.65839912],[6.42876492,45.65810188],[6.42959542,45.65750332],[6.42978402,45.65729027],[6.42973477,45.65715927],[6.42986579,45.65686776],[6.42809938,45.65657096],[6.42756947,45.65617069],[6.42580408,45.6542911],[6.41921965,45.65087794],[6.41746384,45.65020752],[6.41529868,45.64887981],[6.40776854,45.64515404],[6.40685772,45.64463632],[6.40426524,45.6431429],[6.40226663,45.64114925],[6.39732113,45.65771257],[6.39651977,45.66163946],[6.39628494,45.66116434],[6.39636052,45.66099261],[6.39387263,45.66018528],[6.39306606,45.66097121],[6.39363624,45.66125596],[6.39406985,45.66180801],[6.39393012,45.66271534],[6.39296441,45.66268857],[6.39139425,45.66240512],[6.39064904,45.66209589],[6.39033223,45.66151958],[6.39015719,45.6620404],[6.39018572,45.66231715],[6.39048908,45.66290468],[6.39106364,45.66292522],[6.39194454,45.66622363],[6.39196207,45.66627898],[6.39146206,45.66634272],[6.39218308,45.66854183],[6.39129613,45.66862714],[6.39064934,45.66881337],[6.39218711,45.67305279],[6.39315616,45.67604479],[6.39381408,45.67777802],[6.3939001,45.67813234],[6.3939991,45.67928485],[6.39408949,45.67962642],[6.39491165,45.6810176],[6.39498725,45.68136954],[6.39490404,45.6818155],[6.3949324,45.68196336],[6.39506531,45.68207562],[6.39521853,45.68209984],[6.39531544,45.68204464],[6.39551126,45.68202973],[6.39568833,45.68210731],[6.39572891,45.68218179],[6.39568903,45.68232811],[6.39625366,45.68310514]]]]}},{"type":"Feature","id":"albertville_730110102_centre_ville","properties":{"zoneId":"albertville_730110102_centre_ville","label":"Centre Ville","districtCode":"730110102","arrondissementCode":"73011","colorIndex":1,"parentZoneId":"albertville_parent_73011_albertville","parentCode":"73011","parentLabel":"Albertville","territoryType":"iris","source":"IGN / INSEE - Contours IRIS WFS Géoplateforme","sourceYear":"2026","officialId":"730110102","sourceCleabs":"IRIS____0000000730110102","communeCode":"73011","communeName":"Albertville","irisCode":"0102","irisType":"H","officialAreaM2":557368.3103027344,"labelLng":6.390106201903977,"labelLat":45.67532688357323,"bbox":[6.38335755,45.66881337,6.39625366,45.68355151],"curationOperationId":"albertville-730110102-accept-centre-ville","curationRevision":1,"curationEvidenceRefs":["ign-insee-contours-iris-2026","guide-alpha-editorial-recovery-2026-07-14"],"curationRationale":"This exact official IGN/INSEE label is explicitly retained because it is a real, human-qualified local sector, facility or named land-use place. The review preserves the official wording and does not infer a replacement.","semanticLabelReviewed":true,"semanticLabelAccepted":true,"semanticResolution":"accept"},"geometry":{"type":"MultiPolygon","coordinates":[[[[6.3924009,45.6817179],[6.39283752,45.68177144],[6.39399515,45.68135799],[6.39419536,45.68162415],[6.39446646,45.68254253],[6.3950137,45.68240796],[6.3951449,45.68265998],[6.39605213,45.68340414],[6.39612676,45.68355151],[6.39618049,45.68312807],[6.39625366,45.68310514],[6.39568903,45.68232811],[6.39572891,45.68218179],[6.39568833,45.68210731],[6.39551126,45.68202973],[6.39531544,45.68204464],[6.39521853,45.68209984],[6.39506531,45.68207562],[6.3949324,45.68196336],[6.39490404,45.6818155],[6.39498725,45.68136954],[6.39491165,45.6810176],[6.39408949,45.67962642],[6.3939991,45.67928485],[6.3939001,45.67813234],[6.39381408,45.67777802],[6.39315616,45.67604479],[6.39218711,45.67305279],[6.39064934,45.66881337],[6.39023964,45.66900868],[6.38385308,45.67281512],[6.38387174,45.67291009],[6.38382065,45.6729576],[6.38368774,45.6729706],[6.3836294,45.67294171],[6.38357356,45.67299567],[6.38354066,45.67304623],[6.38358284,45.67310535],[6.38335755,45.67335277],[6.38535546,45.67406693],[6.38634859,45.67458055],[6.38689806,45.67500836],[6.38743096,45.67558539],[6.38770751,45.67598627],[6.38862074,45.67781819],[6.38939179,45.67881887],[6.3892449,45.67885574],[6.38915423,45.67892877],[6.38914157,45.67905804],[6.38919519,45.67913574],[6.3901877,45.67976292],[6.39160759,45.68041867],[6.39166168,45.6810074],[6.39173124,45.6811351],[6.3924009,45.6817179]]]]}},{"type":"Feature","id":"albertville_730110103_saint_sigismond","properties":{"zoneId":"albertville_730110103_saint_sigismond","label":"Saint-Sigismond","districtCode":"730110103","arrondissementCode":"73011","colorIndex":2,"parentZoneId":"albertville_parent_73011_albertville","parentCode":"73011","parentLabel":"Albertville","territoryType":"iris","source":"IGN / INSEE - Contours IRIS WFS Géoplateforme","sourceYear":"2026","officialId":"730110103","sourceCleabs":"IRIS____0000000730110103","communeCode":"73011","communeName":"Albertville","irisCode":"0103","irisType":"H","officialAreaM2":1629559.5969238281,"labelLng":6.374837758233959,"labelLat":45.67267881177344,"bbox":[6.35959933,45.66216575,6.3924009,45.6817179]},"geometry":{"type":"MultiPolygon","coordinates":[[[[6.37520304,45.67744795],[6.37481368,45.67700897],[6.374798,45.67645694],[6.37448838,45.67612373],[6.37474749,45.67558689],[6.37546196,45.67598098],[6.37597288,45.67611527],[6.37670719,45.67666558],[6.37713877,45.6772484],[6.37765313,45.67764937],[6.37774801,45.6775609],[6.3779949,45.67764542],[6.37796147,45.67770862],[6.37866208,45.67800125],[6.37862314,45.67822684],[6.37964585,45.67838271],[6.38075243,45.67866945],[6.38153866,45.67897392],[6.38214512,45.67938743],[6.38276955,45.67948493],[6.38273029,45.67913731],[6.38363297,45.67907503],[6.38565586,45.67945856],[6.38742776,45.68000553],[6.39049945,45.6814507],[6.3912012,45.68148725],[6.3924009,45.6817179],[6.39173124,45.6811351],[6.39166168,45.6810074],[6.39160759,45.68041867],[6.3901877,45.67976292],[6.38919519,45.67913574],[6.38914157,45.67905804],[6.38915423,45.67892877],[6.3892449,45.67885574],[6.38939179,45.67881887],[6.38862074,45.67781819],[6.38770751,45.67598627],[6.38743096,45.67558539],[6.38689806,45.67500836],[6.38634859,45.67458055],[6.38535546,45.67406693],[6.38335755,45.67335277],[6.38358284,45.67310535],[6.38354066,45.67304623],[6.38357356,45.67299567],[6.3836294,45.67294171],[6.38368774,45.6729706],[6.38382065,45.6729576],[6.38387174,45.67291009],[6.38385308,45.67281512],[6.38379954,45.67278067],[6.3836595,45.67278218],[6.38031027,45.67124423],[6.37848456,45.6703788],[6.37788193,45.67017336],[6.37789512,45.67009455],[6.37779461,45.67000654],[6.37763375,45.67002489],[6.37743604,45.66994519],[6.37435432,45.66852974],[6.37464234,45.66931065],[6.37510433,45.66992951],[6.37546607,45.67027468],[6.37575637,45.67048139],[6.37694083,45.6710993],[6.37432146,45.67016209],[6.37358803,45.66983526],[6.37268451,45.669354],[6.37167768,45.66854866],[6.3713308,45.66817239],[6.37095223,45.66769793],[6.37037465,45.66672108],[6.36866052,45.66593058],[6.36840769,45.6658318],[6.36804619,45.66578493],[6.368018,45.66570195],[6.36794234,45.66566276],[6.3677941,45.66567711],[6.36747125,45.66539925],[6.36034236,45.66216575],[6.35959933,45.66290537],[6.36131365,45.664253],[6.36141152,45.66419239],[6.36240614,45.66484316],[6.36439163,45.66654677],[6.3632261,45.667336],[6.3633736,45.66752086],[6.36144,45.66870255],[6.36159981,45.66898439],[6.36078569,45.66971892],[6.36172447,45.67016858],[6.36212406,45.67029184],[6.36227393,45.67024049],[6.36291257,45.67042601],[6.36347703,45.67091387],[6.36454785,45.67141995],[6.36480638,45.67161231],[6.36482914,45.67175403],[6.36532809,45.67190405],[6.36682758,45.67286236],[6.36742104,45.67346651],[6.36810877,45.67380285],[6.36777593,45.67416432],[6.36898312,45.67416335],[6.36949286,45.6743635],[6.37034528,45.67484902],[6.37198682,45.67535056],[6.37264185,45.67616194],[6.37290876,45.67697593],[6.37317002,45.67723309],[6.37357237,45.67794839],[6.37366541,45.6783566],[6.37418028,45.67796532],[6.3749454,45.67790363],[6.37520304,45.67744795]]]]}},{"type":"Feature","id":"albertville_730110104_jean_jaures_jean_moulin_ripaille","properties":{"zoneId":"albertville_730110104_jean_jaures_jean_moulin_ripaille","label":"Jean Jaurès-Jean Moulin-Ripaille","districtCode":"730110104","arrondissementCode":"73011","colorIndex":3,"parentZoneId":"albertville_parent_73011_albertville","parentCode":"73011","parentLabel":"Albertville","territoryType":"iris","source":"IGN / INSEE - Contours IRIS WFS Géoplateforme","sourceYear":"2026","officialId":"730110104","sourceCleabs":"IRIS____0000000730110104","communeCode":"73011","communeName":"Albertville","irisCode":"0104","irisType":"H","officialAreaM2":353144.8974609375,"labelLng":6.386376032725565,"labelLat":45.66899139529121,"bbox":[6.38031027,45.66545029,6.39218308,45.67281512]},"geometry":{"type":"MultiPolygon","coordinates":[[[[6.39064934,45.66881337],[6.39129613,45.66862714],[6.39218308,45.66854183],[6.39146206,45.66634272],[6.39196207,45.66627898],[6.39194454,45.66622363],[6.38794366,45.66613322],[6.38665933,45.66606822],[6.3855602,45.66587867],[6.38413024,45.66545029],[6.3843887,45.66585081],[6.38442187,45.66601475],[6.38451493,45.66606513],[6.38450555,45.66614292],[6.38537591,45.66713162],[6.38376553,45.66844098],[6.38380067,45.66851113],[6.38376704,45.66857073],[6.38360039,45.66857844],[6.38060547,45.67104699],[6.38031027,45.67124423],[6.3836595,45.67278218],[6.38379954,45.67278067],[6.38385308,45.67281512],[6.39023964,45.66900868],[6.39064934,45.66881337]]]]}},{"type":"Feature","id":"albertville_730110105_val_des_roses","properties":{"zoneId":"albertville_730110105_val_des_roses","label":"Val des Roses","districtCode":"730110105","arrondissementCode":"73011","colorIndex":4,"parentZoneId":"albertville_parent_73011_albertville","parentCode":"73011","parentLabel":"Albertville","territoryType":"iris","source":"IGN / INSEE - Contours IRIS WFS Géoplateforme","sourceYear":"2026","officialId":"730110105","sourceCleabs":"IRIS____0000000730110105","communeCode":"73011","communeName":"Albertville","irisCode":"0105","irisType":"H","officialAreaM2":424860.89013671875,"labelLng":6.379579754115518,"labelLat":45.667392400279184,"bbox":[6.37427711,45.66432696,6.38537591,45.67124423]},"geometry":{"type":"MultiPolygon","coordinates":[[[[6.37435432,45.66852974],[6.37743604,45.66994519],[6.37763375,45.67002489],[6.37779461,45.67000654],[6.37789512,45.67009455],[6.37788193,45.67017336],[6.37848456,45.6703788],[6.38031027,45.67124423],[6.38060547,45.67104699],[6.38360039,45.66857844],[6.38376704,45.66857073],[6.38380067,45.66851113],[6.38376553,45.66844098],[6.38537591,45.66713162],[6.38450555,45.66614292],[6.38451493,45.66606513],[6.38442187,45.66601475],[6.3843887,45.66585081],[6.38413024,45.66545029],[6.38116946,45.66456135],[6.38038688,45.66439739],[6.37949047,45.66432696],[6.37867604,45.66435682],[6.37784427,45.66448184],[6.37710033,45.66469794],[6.37647488,45.66496006],[6.37564723,45.66546889],[6.37519425,45.66590338],[6.37473983,45.66644067],[6.37453541,45.66677758],[6.37434432,45.66729074],[6.37427711,45.6680859],[6.37435432,45.66852974]]]]}},{"type":"Feature","id":"albertville_730110106_plaine_d_albertville","properties":{"zoneId":"albertville_730110106_plaine_d_albertville","label":"Plaine d'Albertville","districtCode":"730110106","arrondissementCode":"73011","colorIndex":5,"parentZoneId":"albertville_parent_73011_albertville","parentCode":"73011","parentLabel":"Albertville","territoryType":"iris","source":"IGN / INSEE - Contours IRIS WFS Géoplateforme","sourceYear":"2026","officialId":"730110106","sourceCleabs":"IRIS____0000000730110106","communeCode":"73011","communeName":"Albertville","irisCode":"0106","irisType":"H","officialAreaM2":2217783.8432617188,"labelLng":6.375583794120168,"labelLat":45.66130984631432,"bbox":[6.36034236,45.65420297,6.39194454,45.6710993],"curationOperationId":"albertville-730110106-accept-plaine-d-albertville","curationRevision":1,"curationEvidenceRefs":["ign-insee-contours-iris-2026","guide-alpha-editorial-recovery-2026-07-14"],"curationRationale":"This exact official IGN/INSEE label is explicitly retained because it is a real, human-qualified local sector, facility or named land-use place. The review preserves the official wording and does not infer a replacement.","semanticLabelReviewed":true,"semanticLabelAccepted":true,"semanticResolution":"accept"},"geometry":{"type":"MultiPolygon","coordinates":[[[[6.39033223,45.66151958],[6.39021866,45.66128145],[6.38983193,45.66090643],[6.38904195,45.66030652],[6.38837427,45.65956231],[6.38806539,45.65936701],[6.38734359,45.65922921],[6.38485346,45.65775118],[6.38395347,45.65762051],[6.38164136,45.6567184],[6.37604894,45.65580926],[6.37382757,45.65586506],[6.3717183,45.65556686],[6.37016258,45.65521959],[6.3696558,45.65491751],[6.36696235,45.6544168],[6.3655536,45.65420297],[6.3651866,45.65556499],[6.36472266,45.65672802],[6.36431083,45.65767048],[6.36381648,45.65843964],[6.36311966,45.65936718],[6.36034236,45.66216575],[6.36747125,45.66539925],[6.3677941,45.66567711],[6.36794234,45.66566276],[6.368018,45.66570195],[6.36804619,45.66578493],[6.36840769,45.6658318],[6.36866052,45.66593058],[6.37037465,45.66672108],[6.37095223,45.66769793],[6.3713308,45.66817239],[6.37167768,45.66854866],[6.37268451,45.669354],[6.37358803,45.66983526],[6.37432146,45.67016209],[6.37694083,45.6710993],[6.37575637,45.67048139],[6.37546607,45.67027468],[6.37510433,45.66992951],[6.37464234,45.66931065],[6.37435432,45.66852974],[6.37427711,45.6680859],[6.37434432,45.66729074],[6.37453541,45.66677758],[6.37473983,45.66644067],[6.37519425,45.66590338],[6.37564723,45.66546889],[6.37647488,45.66496006],[6.37710033,45.66469794],[6.37784427,45.66448184],[6.37867604,45.66435682],[6.37949047,45.66432696],[6.38038688,45.66439739],[6.38116946,45.66456135],[6.38413024,45.66545029],[6.3855602,45.66587867],[6.38665933,45.66606822],[6.38794366,45.66613322],[6.39194454,45.66622363],[6.39106364,45.66292522],[6.39048908,45.66290468],[6.39018572,45.66231715],[6.39015719,45.6620404],[6.39033223,45.66151958]]]]}}]}
