{"type":"FeatureCollection","metadata":{"generatedAt":"2026-07-14T18:56:03.503Z","source":"IGN / INSEE - Contours IRIS WFS Géoplateforme","datasetId":"STATISTICALUNITS.IRIS:contours_iris","datasetUrl":"https://geoservices.ign.fr/contoursiris","sourceFileUrl":"https://data.geopf.fr/wfs/ows?SERVICE=WFS&VERSION=2.0.0&REQUEST=GetFeature&TYPENAMES=STATISTICALUNITS.IRIS%3Acontours_iris&OUTPUTFORMAT=application%2Fjson&COUNT=1000&CQL_FILTER=code_insee%3D%2759014%27&SRSNAME=EPSG%3A4326","license":"Licence Ouverte / Open Licence 2.0","sourceYear":"2026","communeCode":"59014","communeName":"Anzin","featureCount":6,"parentCount":1,"parentContract":"technical commune group; not selectable and not displayed as a district","sourceFeatureCount":6,"humanLabelContract":"one visible plate per unique official human place name","groupingContract":"only exact source-ID groups approved by the resolved curation, or source zones sharing the same official name and parent, are merged","groupedZoneCount":0,"groupedSourceFeatureCount":0,"curationStatus":"resolved","curationRevision":1,"curationSources":[{"id":"ign-insee-contours-iris-2026","provider":"IGN / INSEE - Contours IRIS WFS Géoplateforme","datasetUrl":"https://geoservices.ign.fr/contoursiris","role":"official geometry, source identifiers and source labels","vintage":"2026","license":"Licence Ouverte / Open Licence 2.0"},{"id":"ign-geoplateforme-toponymy-2026","provider":"IGN Géoplateforme - reverse geocoding, addresses and named places","datasetUrl":"https://geoservices.ign.fr/geocodage-geoplateforme","role":"official address, street and named-place evidence","vintage":"2026","license":"Licence Ouverte / Open Licence 2.0"},{"id":"guide-alpha-editorial-recovery-2026-07-14","provider":"Meewav Guide Alpha editorial review","datasetUrl":"docs/geospatial/france-semantic-recovery.md","role":"versioned mapping of exact official IRIS identifiers to coherent human place names","vintage":"2026-07-14","license":"Project documentation"}],"sourceCorrections":[{"operationId":"anzin-590140101-rename-cite-talabot","type":"rename","sourceIds":["590140101"],"expectedLabels":["Nord-Est"],"outputLabel":"Cité Talabot","evidenceRefs":["ign-insee-contours-iris-2026","ign-geoplateforme-toponymy-2026","guide-alpha-editorial-recovery-2026-07-14"],"rationale":"The exact official IGN BD TOPO habitation toponym has a deterministic evidence point strictly inside this exact IRIS. The 1:1 label is emitted without nearest assignment, invented geometry, split or dropped source cell."},{"operationId":"anzin-590140102-rename-cite-du-moulin","type":"rename","sourceIds":["590140102"],"expectedLabels":["Centre 1"],"outputLabel":"Cite du Moulin","evidenceRefs":["ign-insee-contours-iris-2026","ign-geoplateforme-toponymy-2026","guide-alpha-editorial-recovery-2026-07-14"],"rationale":"The exact official IGN BD TOPO named road has a deterministic evidence point strictly inside this exact IRIS. The 1:1 label is emitted without nearest assignment, invented geometry, split or dropped source cell."},{"operationId":"anzin-590140103-rename-cite-carpeaux","type":"rename","sourceIds":["590140103"],"expectedLabels":["Nord-Ouest"],"outputLabel":"Cité Carpeaux","evidenceRefs":["ign-insee-contours-iris-2026","ign-geoplateforme-toponymy-2026","guide-alpha-editorial-recovery-2026-07-14"],"rationale":"The exact official IGN BD TOPO habitation toponym has a deterministic evidence point strictly inside this exact IRIS. The 1:1 label is emitted without nearest assignment, invented geometry, split or dropped source cell."},{"operationId":"anzin-590140104-rename-rue-jules-ferry","type":"rename","sourceIds":["590140104"],"expectedLabels":["Centre 2"],"outputLabel":"Rue Jules Ferry","evidenceRefs":["ign-insee-contours-iris-2026","ign-geoplateforme-toponymy-2026","guide-alpha-editorial-recovery-2026-07-14"],"rationale":"The exact official IGN BD TOPO named road has a deterministic evidence point strictly inside this exact IRIS. The 1:1 label is emitted without nearest assignment, invented geometry, split or dropped source cell."},{"operationId":"anzin-590140105-rename-place-roger-salengro","type":"rename","sourceIds":["590140105"],"expectedLabels":["Sud-Ouest"],"outputLabel":"Place Roger Salengro","evidenceRefs":["ign-insee-contours-iris-2026","ign-geoplateforme-toponymy-2026","guide-alpha-editorial-recovery-2026-07-14"],"rationale":"The exact official IGN BD TOPO named road has a deterministic evidence point strictly inside this exact IRIS. The 1:1 label is emitted without nearest assignment, invented geometry, split or dropped source cell."},{"operationId":"anzin-590140106-rename-rue-gustave-thietard","type":"rename","sourceIds":["590140106"],"expectedLabels":["Sud"],"outputLabel":"Rue Gustave Thietard","evidenceRefs":["ign-insee-contours-iris-2026","ign-geoplateforme-toponymy-2026","guide-alpha-editorial-recovery-2026-07-14"],"rationale":"The exact official IGN BD TOPO named road has a deterministic evidence point strictly inside this exact IRIS. The 1:1 label is emitted without nearest assignment, invented geometry, split or dropped source cell."}],"bbox":[3.48991662,50.36336858,3.53244478,50.38860792],"areaStatsM2":{"minimum":199709.6123046875,"average":603848.2883300781,"maximum":1183725.8663330078}},"features":[{"type":"Feature","id":"anzin_590140101_nord_est","properties":{"zoneId":"anzin_590140101_nord_est","label":"Cité Talabot","districtCode":"590140101","arrondissementCode":"59014","colorIndex":0,"parentZoneId":"anzin_parent_59014_anzin","parentCode":"59014","parentLabel":"Anzin","territoryType":"iris","source":"IGN / INSEE - Contours IRIS WFS Géoplateforme","sourceYear":"2026","officialId":"590140101","sourceCleabs":"IRIS____0000000590140101","communeCode":"59014","communeName":"Anzin","irisCode":"0101","irisType":"H","officialAreaM2":1183725.8663330078,"labelLng":3.5225032502418627,"labelLat":50.3804729589995,"bbox":[3.51381765,50.37140799,3.53244478,50.38860792],"curationOperationId":"anzin-590140101-rename-cite-talabot","curationRevision":1,"curationEvidenceRefs":["ign-insee-contours-iris-2026","ign-geoplateforme-toponymy-2026","guide-alpha-editorial-recovery-2026-07-14"],"curationRationale":"The exact official IGN BD TOPO habitation toponym has a deterministic evidence point strictly inside this exact IRIS. The 1:1 label is emitted without nearest assignment, invented geometry, split or dropped source cell.","semanticLabelReviewed":true,"semanticLabelAccepted":false,"semanticResolution":"rename"},"geometry":{"type":"MultiPolygon","coordinates":[[[[3.51381765,50.382626],[3.51406825,50.38352003],[3.5142654,50.38385228],[3.51523816,50.38437522],[3.51580222,50.38502375],[3.51607025,50.3855568],[3.51600774,50.38603557],[3.51665229,50.38672505],[3.51663102,50.38684185],[3.51754869,50.38800959],[3.51768098,50.38803866],[3.51830468,50.38860792],[3.51885582,50.38826356],[3.51973022,50.38794925],[3.52314985,50.38689969],[3.52470116,50.38632842],[3.52495288,50.38636416],[3.52556075,50.38675569],[3.52597283,50.38681858],[3.5260513,50.38612876],[3.52537869,50.38423823],[3.5253288,50.3834924],[3.52647081,50.38353781],[3.5270067,50.3836271],[3.52782006,50.38379869],[3.52897104,50.38416364],[3.52926345,50.38433117],[3.52994799,50.38506979],[3.53114506,50.38554136],[3.53164001,50.38533993],[3.5320403,50.38495037],[3.532331,50.38428836],[3.53230844,50.3837471],[3.53244478,50.38362711],[3.52398749,50.37411904],[3.52293716,50.37246619],[3.52208834,50.37237641],[3.52074616,50.37140799],[3.51518713,50.37276901],[3.51959548,50.37867766],[3.52074182,50.38010748],[3.5210623,50.3802794],[3.52097469,50.38036146],[3.52098696,50.38046196],[3.52165876,50.38134343],[3.51952455,50.38201768],[3.51708631,50.3830361],[3.51646759,50.38239679],[3.51631898,50.3822807],[3.51619218,50.38223904],[3.51601802,50.38223348],[3.51381765,50.382626]]]]}},{"type":"Feature","id":"anzin_590140102_centre_1","properties":{"zoneId":"anzin_590140102_centre_1","label":"Cite du Moulin","districtCode":"590140102","arrondissementCode":"59014","colorIndex":1,"parentZoneId":"anzin_parent_59014_anzin","parentCode":"59014","parentLabel":"Anzin","territoryType":"iris","source":"IGN / INSEE - Contours IRIS WFS Géoplateforme","sourceYear":"2026","officialId":"590140102","sourceCleabs":"IRIS____0000000590140102","communeCode":"59014","communeName":"Anzin","irisCode":"0102","irisType":"H","officialAreaM2":869830.6102294922,"labelLng":3.5130171953819707,"labelLat":50.375172723182544,"bbox":[3.50375373,50.36690072,3.52165876,50.3830361],"curationOperationId":"anzin-590140102-rename-cite-du-moulin","curationRevision":1,"curationEvidenceRefs":["ign-insee-contours-iris-2026","ign-geoplateforme-toponymy-2026","guide-alpha-editorial-recovery-2026-07-14"],"curationRationale":"The exact official IGN BD TOPO named road has a deterministic evidence point strictly inside this exact IRIS. The 1:1 label is emitted without nearest assignment, invented geometry, split or dropped source cell.","semanticLabelReviewed":true,"semanticLabelAccepted":false,"semanticResolution":"rename"},"geometry":{"type":"MultiPolygon","coordinates":[[[[3.5112794,50.3760011],[3.51179976,50.37678539],[3.51209236,50.37753472],[3.51205304,50.37822617],[3.51145659,50.3794963],[3.51287598,50.38115129],[3.51381765,50.382626],[3.51601802,50.38223348],[3.51619218,50.38223904],[3.51631898,50.3822807],[3.51646759,50.38239679],[3.51708631,50.3830361],[3.51952455,50.38201768],[3.52165876,50.38134343],[3.52098696,50.38046196],[3.52097469,50.38036146],[3.5210623,50.3802794],[3.52074182,50.38010748],[3.51959548,50.37867766],[3.51518713,50.37276901],[3.5107367,50.36690072],[3.50728616,50.36853635],[3.50679562,50.36875024],[3.50556177,50.36917008],[3.50397832,50.37014616],[3.5038873,50.37016808],[3.5038236,50.37025632],[3.50388301,50.37030097],[3.50375373,50.37042808],[3.50396307,50.37058704],[3.50511192,50.37177011],[3.50603186,50.37237773],[3.50666645,50.37252506],[3.50745506,50.37291235],[3.51004026,50.37479961],[3.5112794,50.3760011]]]]}},{"type":"Feature","id":"anzin_590140103_nord_ouest","properties":{"zoneId":"anzin_590140103_nord_ouest","label":"Cité Carpeaux","districtCode":"590140103","arrondissementCode":"59014","colorIndex":2,"parentZoneId":"anzin_parent_59014_anzin","parentCode":"59014","parentLabel":"Anzin","territoryType":"iris","source":"IGN / INSEE - Contours IRIS WFS Géoplateforme","sourceYear":"2026","officialId":"590140103","sourceCleabs":"IRIS____0000000590140103","communeCode":"59014","communeName":"Anzin","irisCode":"0103","irisType":"H","officialAreaM2":199709.6123046875,"labelLng":3.50031787490277,"labelLat":50.37872310459597,"bbox":[3.49620802,50.37600302,3.50543148,50.38151853],"curationOperationId":"anzin-590140103-rename-cite-carpeaux","curationRevision":1,"curationEvidenceRefs":["ign-insee-contours-iris-2026","ign-geoplateforme-toponymy-2026","guide-alpha-editorial-recovery-2026-07-14"],"curationRationale":"The exact official IGN BD TOPO habitation toponym has a deterministic evidence point strictly inside this exact IRIS. The 1:1 label is emitted without nearest assignment, invented geometry, split or dropped source cell.","semanticLabelReviewed":true,"semanticLabelAccepted":false,"semanticResolution":"rename"},"geometry":{"type":"MultiPolygon","coordinates":[[[[3.49816823,50.37625669],[3.49674393,50.37774914],[3.49761629,50.37808678],[3.49620802,50.379361],[3.49829339,50.38083034],[3.49883652,50.38151853],[3.50154758,50.38051551],[3.50198097,50.38061161],[3.5039301,50.37839695],[3.50405187,50.37807774],[3.50543148,50.37761064],[3.50482985,50.37697389],[3.5042614,50.37600302],[3.50219325,50.37795693],[3.49816823,50.37625669]]]]}},{"type":"Feature","id":"anzin_590140104_centre_2","properties":{"zoneId":"anzin_590140104_centre_2","label":"Rue Jules Ferry","districtCode":"590140104","arrondissementCode":"59014","colorIndex":3,"parentZoneId":"anzin_parent_59014_anzin","parentCode":"59014","parentLabel":"Anzin","territoryType":"iris","source":"IGN / INSEE - Contours IRIS WFS Géoplateforme","sourceYear":"2026","officialId":"590140104","sourceCleabs":"IRIS____0000000590140104","communeCode":"59014","communeName":"Anzin","irisCode":"0104","irisType":"H","officialAreaM2":387067.8942871094,"labelLng":3.504500200346558,"labelLat":50.37481181488858,"bbox":[3.49816823,50.37042808,3.5112794,50.37795693],"curationOperationId":"anzin-590140104-rename-rue-jules-ferry","curationRevision":1,"curationEvidenceRefs":["ign-insee-contours-iris-2026","ign-geoplateforme-toponymy-2026","guide-alpha-editorial-recovery-2026-07-14"],"curationRationale":"The exact official IGN BD TOPO named road has a deterministic evidence point strictly inside this exact IRIS. The 1:1 label is emitted without nearest assignment, invented geometry, split or dropped source cell.","semanticLabelReviewed":true,"semanticLabelAccepted":false,"semanticResolution":"rename"},"geometry":{"type":"MultiPolygon","coordinates":[[[[3.49869064,50.37570424],[3.49816823,50.37625669],[3.50219325,50.37795693],[3.5042614,50.37600302],[3.50482985,50.37697389],[3.50543148,50.37761064],[3.50679808,50.37710857],[3.50699982,50.37734565],[3.5073393,50.37731912],[3.50776285,50.37741524],[3.50773749,50.37712806],[3.50848784,50.37705404],[3.5112794,50.3760011],[3.51004026,50.37479961],[3.50745506,50.37291235],[3.50666645,50.37252506],[3.50603186,50.37237773],[3.50511192,50.37177011],[3.50396307,50.37058704],[3.50375373,50.37042808],[3.5035051,50.37069305],[3.50311647,50.37099539],[3.50300508,50.37122747],[3.50220424,50.37200372],[3.49869064,50.37570424]]]]}},{"type":"Feature","id":"anzin_590140105_sud_ouest","properties":{"zoneId":"anzin_590140105_sud_ouest","label":"Place Roger Salengro","districtCode":"590140105","arrondissementCode":"59014","colorIndex":4,"parentZoneId":"anzin_parent_59014_anzin","parentCode":"59014","parentLabel":"Anzin","territoryType":"iris","source":"IGN / INSEE - Contours IRIS WFS Géoplateforme","sourceYear":"2026","officialId":"590140105","sourceCleabs":"IRIS____0000000590140105","communeCode":"59014","communeName":"Anzin","irisCode":"0105","irisType":"H","officialAreaM2":523083.3731689453,"labelLng":3.4969645881955174,"labelLat":50.37053823399553,"bbox":[3.48991662,50.36588335,3.50388301,50.37570424],"curationOperationId":"anzin-590140105-rename-place-roger-salengro","curationRevision":1,"curationEvidenceRefs":["ign-insee-contours-iris-2026","ign-geoplateforme-toponymy-2026","guide-alpha-editorial-recovery-2026-07-14"],"curationRationale":"The exact official IGN BD TOPO named road has a deterministic evidence point strictly inside this exact IRIS. The 1:1 label is emitted without nearest assignment, invented geometry, split or dropped source cell.","semanticLabelReviewed":true,"semanticLabelAccepted":false,"semanticResolution":"rename"},"geometry":{"type":"MultiPolygon","coordinates":[[[[3.48991662,50.36906886],[3.49128055,50.36959852],[3.49178089,50.36966296],[3.49282381,50.36994699],[3.49379053,50.37033277],[3.49359238,50.37117119],[3.4942042,50.37157993],[3.4944766,50.37201696],[3.49383549,50.37248996],[3.49375737,50.37282784],[3.49396392,50.37313405],[3.49473974,50.37308426],[3.49525561,50.37386955],[3.49551833,50.37389004],[3.49548514,50.37394134],[3.49531262,50.37438554],[3.49551355,50.37440448],[3.49630071,50.3749355],[3.49869064,50.37570424],[3.50220424,50.37200372],[3.50300508,50.37122747],[3.50311647,50.37099539],[3.5035051,50.37069305],[3.50375373,50.37042808],[3.50388301,50.37030097],[3.5038236,50.37025632],[3.50379999,50.37028156],[3.50266097,50.36993876],[3.5019412,50.36983126],[3.50120094,50.36963945],[3.50117539,50.36918617],[3.50098579,50.36917616],[3.50079565,50.3691114],[3.49981736,50.36855245],[3.49993151,50.36831497],[3.49862013,50.36756883],[3.49602929,50.36588335],[3.49443859,50.36713137],[3.49402535,50.36692922],[3.49330645,50.36747975],[3.49316319,50.36718315],[3.49260525,50.36696812],[3.49267089,50.36664645],[3.49247786,50.36657091],[3.49187613,50.36675825],[3.49069246,50.36729355],[3.49030664,50.36789032],[3.49085367,50.36813863],[3.48991662,50.36906886]]]]}},{"type":"Feature","id":"anzin_590140106_sud","properties":{"zoneId":"anzin_590140106_sud","label":"Rue Gustave Thietard","districtCode":"590140106","arrondissementCode":"59014","colorIndex":5,"parentZoneId":"anzin_parent_59014_anzin","parentCode":"59014","parentLabel":"Anzin","territoryType":"iris","source":"IGN / INSEE - Contours IRIS WFS Géoplateforme","sourceYear":"2026","officialId":"590140106","sourceCleabs":"IRIS____0000000590140106","communeCode":"59014","communeName":"Anzin","irisCode":"0106","irisType":"H","officialAreaM2":459672.37365722656,"labelLng":3.50345881738615,"labelLat":50.36656166188764,"bbox":[3.49602929,50.36336858,3.5107367,50.37028156],"curationOperationId":"anzin-590140106-rename-rue-gustave-thietard","curationRevision":1,"curationEvidenceRefs":["ign-insee-contours-iris-2026","ign-geoplateforme-toponymy-2026","guide-alpha-editorial-recovery-2026-07-14"],"curationRationale":"The exact official IGN BD TOPO named road has a deterministic evidence point strictly inside this exact IRIS. The 1:1 label is emitted without nearest assignment, invented geometry, split or dropped source cell.","semanticLabelReviewed":true,"semanticLabelAccepted":false,"semanticResolution":"rename"},"geometry":{"type":"MultiPolygon","coordinates":[[[[3.5107367,50.36690072],[3.50872931,50.36367607],[3.50569603,50.36505497],[3.50425365,50.36454284],[3.50240462,50.36406647],[3.50028427,50.36339994],[3.49982641,50.36336858],[3.49699038,50.36513162],[3.49602929,50.36588335],[3.49862013,50.36756883],[3.49993151,50.36831497],[3.49981736,50.36855245],[3.50079565,50.3691114],[3.50098579,50.36917616],[3.50117539,50.36918617],[3.50120094,50.36963945],[3.5019412,50.36983126],[3.50266097,50.36993876],[3.50379999,50.37028156],[3.5038236,50.37025632],[3.5038873,50.37016808],[3.50397832,50.37014616],[3.50556177,50.36917008],[3.50679562,50.36875024],[3.50728616,50.36853635],[3.5107367,50.36690072]]]]}}]}
