{"type":"FeatureCollection","metadata":{"generatedAt":"2026-07-14T19:00:28.525Z","source":"IGN / INSEE - Contours IRIS WFS Géoplateforme","datasetId":"STATISTICALUNITS.IRIS:contours_iris","datasetUrl":"https://geoservices.ign.fr/contoursiris","sourceFileUrl":"https://data.geopf.fr/wfs/ows?SERVICE=WFS&VERSION=2.0.0&REQUEST=GetFeature&TYPENAMES=STATISTICALUNITS.IRIS%3Acontours_iris&OUTPUTFORMAT=application%2Fjson&COUNT=1000&CQL_FILTER=code_insee%3D%2777014%27&SRSNAME=EPSG%3A4326","license":"Licence Ouverte / Open Licence 2.0","sourceYear":"2026","communeCode":"77014","communeName":"Avon","featureCount":5,"parentCount":1,"parentContract":"technical commune group; not selectable and not displayed as a district","sourceFeatureCount":5,"humanLabelContract":"one visible plate per unique official human place name","groupingContract":"only exact source-ID groups approved by the resolved curation, or source zones sharing the same official name and parent, are merged","groupedZoneCount":0,"groupedSourceFeatureCount":0,"curationStatus":"resolved","curationRevision":1,"curationSources":[{"id":"ign-insee-contours-iris-2026","provider":"IGN / INSEE - Contours IRIS WFS Géoplateforme","datasetUrl":"https://geoservices.ign.fr/contoursiris","role":"official geometry, source identifiers and source labels","vintage":"2026","license":"Licence Ouverte / Open Licence 2.0"},{"id":"ign-geoplateforme-toponymy-2026","provider":"IGN Géoplateforme - reverse geocoding, addresses and named places","datasetUrl":"https://geoservices.ign.fr/geocodage-geoplateforme","role":"official address, street and named-place evidence","vintage":"2026","license":"Licence Ouverte / Open Licence 2.0"},{"id":"guide-alpha-editorial-recovery-2026-07-14","provider":"Meewav Guide Alpha editorial review","datasetUrl":"docs/geospatial/france-semantic-recovery.md","role":"versioned mapping of exact official IRIS identifiers to coherent human place names","vintage":"2026-07-14","license":"Project documentation"}],"sourceCorrections":[{"operationId":"avon-770140101-rename-les-terrasses","type":"rename","sourceIds":["770140101"],"expectedLabels":["Avon Nord"],"outputLabel":"les Terrasses","evidenceRefs":["ign-insee-contours-iris-2026","ign-geoplateforme-toponymy-2026","guide-alpha-editorial-recovery-2026-07-14"],"rationale":"The exact official IGN BD TOPO habitation toponym has a deterministic evidence point strictly inside this exact IRIS. The 1:1 label is emitted without nearest assignment, invented geometry, split or dropped source cell."},{"operationId":"avon-770140102-rename-rue-du-montceau","type":"rename","sourceIds":["770140102"],"expectedLabels":["Avon Centre"],"outputLabel":"Rue du Montceau","evidenceRefs":["ign-insee-contours-iris-2026","ign-geoplateforme-toponymy-2026","guide-alpha-editorial-recovery-2026-07-14"],"rationale":"The exact official IGN BD TOPO named road has a deterministic evidence point strictly inside this exact IRIS. The 1:1 label is emitted without nearest assignment, invented geometry, split or dropped source cell."},{"operationId":"avon-770140103-rename-place-de-la-gare","type":"rename","sourceIds":["770140103"],"expectedLabels":["Avon Ouest"],"outputLabel":"Place de la Gare","evidenceRefs":["ign-insee-contours-iris-2026","ign-geoplateforme-toponymy-2026","guide-alpha-editorial-recovery-2026-07-14"],"rationale":"The exact official IGN BD TOPO named road has a deterministic evidence point strictly inside this exact IRIS. The 1:1 label is emitted without nearest assignment, invented geometry, split or dropped source cell."},{"operationId":"avon-770140104-rename-rue-des-acacias","type":"rename","sourceIds":["770140104"],"expectedLabels":["Avon Est"],"outputLabel":"Rue des Acacias","evidenceRefs":["ign-insee-contours-iris-2026","ign-geoplateforme-toponymy-2026","guide-alpha-editorial-recovery-2026-07-14"],"rationale":"The exact official IGN BD TOPO named road has a deterministic evidence point strictly inside this exact IRIS. The 1:1 label is emitted without nearest assignment, invented geometry, split or dropped source cell."},{"operationId":"avon-770140105-rename-rue-gambetta","type":"rename","sourceIds":["770140105"],"expectedLabels":["Avon Sud"],"outputLabel":"Rue Gambetta","evidenceRefs":["ign-insee-contours-iris-2026","ign-geoplateforme-toponymy-2026","guide-alpha-editorial-recovery-2026-07-14"],"rationale":"The exact official IGN BD TOPO named road has a deterministic evidence point strictly inside this exact IRIS. The 1:1 label is emitted without nearest assignment, invented geometry, split or dropped source cell."}],"bbox":[2.71292881,48.39869397,2.75441699,48.42602116],"areaStatsM2":{"minimum":239366.1258544922,"average":756288.4003784179,"maximum":1458428.4404907227}},"features":[{"type":"Feature","id":"avon_770140101_avon_nord","properties":{"zoneId":"avon_770140101_avon_nord","label":"les Terrasses","districtCode":"770140101","arrondissementCode":"77014","colorIndex":0,"parentZoneId":"avon_parent_77014_avon","parentCode":"77014","parentLabel":"Avon","territoryType":"iris","source":"IGN / INSEE - Contours IRIS WFS Géoplateforme","sourceYear":"2026","officialId":"770140101","sourceCleabs":"IRIS____0000000770140101","communeCode":"77014","communeName":"Avon","irisCode":"0101","irisType":"H","officialAreaM2":239366.1258544922,"labelLng":2.7320320897406045,"labelLat":48.42075381921313,"bbox":[2.72531752,48.41693384,2.73623706,48.42441653],"curationOperationId":"avon-770140101-rename-les-terrasses","curationRevision":1,"curationEvidenceRefs":["ign-insee-contours-iris-2026","ign-geoplateforme-toponymy-2026","guide-alpha-editorial-recovery-2026-07-14"],"curationRationale":"The exact official IGN BD TOPO habitation toponym has a deterministic evidence point strictly inside this exact IRIS. The 1:1 label is emitted without nearest assignment, invented geometry, split or dropped source cell.","semanticLabelReviewed":true,"semanticLabelAccepted":false,"semanticResolution":"rename"},"geometry":{"type":"MultiPolygon","coordinates":[[[[2.72531752,48.41712786],[2.72567959,48.41715299],[2.72700887,48.41752762],[2.72689332,48.4179169],[2.72765793,48.41902793],[2.73345982,48.42441653],[2.73463866,48.42438138],[2.7348956,48.42409047],[2.73510667,48.42404776],[2.73498606,48.42384147],[2.73501436,48.42305434],[2.73555853,48.42155224],[2.73623706,48.42019977],[2.73468808,48.41967992],[2.7291242,48.41800928],[2.72728087,48.41745987],[2.72698381,48.4174088],[2.72544693,48.41693384],[2.72531752,48.41712786]]]]}},{"type":"Feature","id":"avon_770140102_avon_centre","properties":{"zoneId":"avon_770140102_avon_centre","label":"Rue du Montceau","districtCode":"770140102","arrondissementCode":"77014","colorIndex":1,"parentZoneId":"avon_parent_77014_avon","parentCode":"77014","parentLabel":"Avon","territoryType":"iris","source":"IGN / INSEE - Contours IRIS WFS Géoplateforme","sourceYear":"2026","officialId":"770140102","sourceCleabs":"IRIS____0000000770140102","communeCode":"77014","communeName":"Avon","irisCode":"0102","irisType":"H","officialAreaM2":824699.0325927734,"labelLng":2.7288938494919166,"labelLat":48.41389056145182,"bbox":[2.71741154,48.40708343,2.73941904,48.42019977],"curationOperationId":"avon-770140102-rename-rue-du-montceau","curationRevision":1,"curationEvidenceRefs":["ign-insee-contours-iris-2026","ign-geoplateforme-toponymy-2026","guide-alpha-editorial-recovery-2026-07-14"],"curationRationale":"The exact official IGN BD TOPO named road has a deterministic evidence point strictly inside this exact IRIS. The 1:1 label is emitted without nearest assignment, invented geometry, split or dropped source cell.","semanticLabelReviewed":true,"semanticLabelAccepted":false,"semanticResolution":"rename"},"geometry":{"type":"MultiPolygon","coordinates":[[[[2.72118386,48.40708343],[2.71741154,48.41204962],[2.71744086,48.41212526],[2.71757874,48.41211839],[2.71785527,48.41221082],[2.72052832,48.41321936],[2.72103753,48.41327094],[2.72195132,48.41322451],[2.72229665,48.41334317],[2.72255081,48.41332397],[2.72291664,48.4131431],[2.72303429,48.41312898],[2.72518359,48.41327522],[2.72518902,48.41275434],[2.7254725,48.41255527],[2.72581068,48.41249127],[2.72587443,48.41244644],[2.72646512,48.41293902],[2.72648621,48.41303983],[2.72625566,48.41319763],[2.72621594,48.4132992],[2.72627212,48.41392909],[2.72661542,48.41418089],[2.72680348,48.41439994],[2.7270445,48.41483143],[2.72718679,48.41527619],[2.72752342,48.41577537],[2.72857444,48.41637965],[2.72931779,48.41663325],[2.72996108,48.41690012],[2.73026971,48.41706905],[2.72993244,48.41721313],[2.72934493,48.41766252],[2.7291242,48.41800928],[2.73468808,48.41967992],[2.73623706,48.42019977],[2.73632237,48.42016847],[2.73679628,48.41918801],[2.73706877,48.41875138],[2.73941904,48.41603691],[2.73934876,48.41603676],[2.73933559,48.41596745],[2.73841522,48.41542833],[2.73785185,48.41484861],[2.7365416,48.41364287],[2.735729,48.41318583],[2.73545575,48.4132374],[2.73371188,48.41388485],[2.73332225,48.41396855],[2.73327118,48.41391085],[2.73280466,48.41370108],[2.73093514,48.41248322],[2.72808554,48.41082854],[2.72776063,48.41068116],[2.72776756,48.41064698],[2.72608094,48.40964178],[2.72568003,48.40955808],[2.7253339,48.40933777],[2.72398584,48.40872107],[2.7213241,48.40764875],[2.72118386,48.40708343]]]]}},{"type":"Feature","id":"avon_770140103_avon_ouest","properties":{"zoneId":"avon_770140103_avon_ouest","label":"Place de la Gare","districtCode":"770140103","arrondissementCode":"77014","colorIndex":2,"parentZoneId":"avon_parent_77014_avon","parentCode":"77014","parentLabel":"Avon","territoryType":"iris","source":"IGN / INSEE - Contours IRIS WFS Géoplateforme","sourceYear":"2026","officialId":"770140103","sourceCleabs":"IRIS____0000000770140103","communeCode":"77014","communeName":"Avon","irisCode":"0103","irisType":"H","officialAreaM2":373945.10974121094,"labelLng":2.7217926810623387,"labelLat":48.4147940052403,"bbox":[2.71292881,48.41204962,2.73026971,48.41800928],"curationOperationId":"avon-770140103-rename-place-de-la-gare","curationRevision":1,"curationEvidenceRefs":["ign-insee-contours-iris-2026","ign-geoplateforme-toponymy-2026","guide-alpha-editorial-recovery-2026-07-14"],"curationRationale":"The exact official IGN BD TOPO named road has a deterministic evidence point strictly inside this exact IRIS. The 1:1 label is emitted without nearest assignment, invented geometry, split or dropped source cell.","semanticLabelReviewed":true,"semanticLabelAccepted":false,"semanticResolution":"rename"},"geometry":{"type":"MultiPolygon","coordinates":[[[[2.71741154,48.41204962],[2.71732731,48.41213129],[2.71523349,48.41273265],[2.71448761,48.41321487],[2.71359578,48.41319743],[2.7132493,48.41329376],[2.71304738,48.41339673],[2.71292881,48.41357907],[2.71457895,48.41456098],[2.71538367,48.41494617],[2.71611619,48.41518903],[2.71866485,48.4154722],[2.72178134,48.41648716],[2.72232973,48.41680243],[2.72273386,48.41679528],[2.72390112,48.41713357],[2.72531752,48.41712786],[2.72544693,48.41693384],[2.72698381,48.4174088],[2.72728087,48.41745987],[2.7291242,48.41800928],[2.72934493,48.41766252],[2.72993244,48.41721313],[2.73026971,48.41706905],[2.72996108,48.41690012],[2.72931779,48.41663325],[2.72857444,48.41637965],[2.72752342,48.41577537],[2.72718679,48.41527619],[2.7270445,48.41483143],[2.72680348,48.41439994],[2.72661542,48.41418089],[2.72627212,48.41392909],[2.72621594,48.4132992],[2.72625566,48.41319763],[2.72648621,48.41303983],[2.72646512,48.41293902],[2.72587443,48.41244644],[2.72581068,48.41249127],[2.7254725,48.41255527],[2.72518902,48.41275434],[2.72518359,48.41327522],[2.72303429,48.41312898],[2.72291664,48.4131431],[2.72255081,48.41332397],[2.72229665,48.41334317],[2.72195132,48.41322451],[2.72103753,48.41327094],[2.72052832,48.41321936],[2.71785527,48.41221082],[2.71757874,48.41211839],[2.71744086,48.41212526],[2.71741154,48.41204962]]]]}},{"type":"Feature","id":"avon_770140104_avon_est","properties":{"zoneId":"avon_770140104_avon_est","label":"Rue des Acacias","districtCode":"770140104","arrondissementCode":"77014","colorIndex":3,"parentZoneId":"avon_parent_77014_avon","parentCode":"77014","parentLabel":"Avon","territoryType":"iris","source":"IGN / INSEE - Contours IRIS WFS Géoplateforme","sourceYear":"2026","officialId":"770140104","sourceCleabs":"IRIS____0000000770140104","communeCode":"77014","communeName":"Avon","irisCode":"0104","irisType":"H","officialAreaM2":1458428.4404907227,"labelLng":2.742683749697598,"labelLat":48.41568887713663,"bbox":[2.73208414,48.40693392,2.75441699,48.42602116],"curationOperationId":"avon-770140104-rename-rue-des-acacias","curationRevision":1,"curationEvidenceRefs":["ign-insee-contours-iris-2026","ign-geoplateforme-toponymy-2026","guide-alpha-editorial-recovery-2026-07-14"],"curationRationale":"The exact official IGN BD TOPO named road has a deterministic evidence point strictly inside this exact IRIS. The 1:1 label is emitted without nearest assignment, invented geometry, split or dropped source cell.","semanticLabelReviewed":true,"semanticLabelAccepted":false,"semanticResolution":"rename"},"geometry":{"type":"MultiPolygon","coordinates":[[[[2.75441699,48.41154274],[2.7531456,48.40976777],[2.75261279,48.40985213],[2.74903827,48.40736786],[2.74586457,48.40952748],[2.74279019,48.41232509],[2.73924025,48.41093996],[2.73680493,48.40963188],[2.7363669,48.40913519],[2.73524425,48.40693392],[2.73208414,48.40791195],[2.73214531,48.40889992],[2.73223343,48.40937514],[2.73237103,48.40942043],[2.73244173,48.40960142],[2.73342544,48.41067423],[2.73401004,48.4110453],[2.73438672,48.41138082],[2.73448299,48.41158436],[2.7345265,48.41206667],[2.73465843,48.41243493],[2.73497706,48.41276042],[2.73555245,48.41308918],[2.73545575,48.4132374],[2.735729,48.41318583],[2.7365416,48.41364287],[2.73785185,48.41484861],[2.73841522,48.41542833],[2.73933559,48.41596745],[2.73934876,48.41603676],[2.73941904,48.41603691],[2.73706877,48.41875138],[2.73679628,48.41918801],[2.73632237,48.42016847],[2.73681657,48.42107282],[2.73837392,48.42291245],[2.73943364,48.42399617],[2.7406222,48.42500188],[2.74292909,48.42592454],[2.74434252,48.42602116],[2.74454292,48.42511744],[2.74601889,48.42513411],[2.74601342,48.42207079],[2.74635758,48.41993485],[2.74645701,48.41949604],[2.74656539,48.41944229],[2.74679577,48.41791247],[2.74716395,48.41667083],[2.74782768,48.4152301],[2.74887088,48.41384145],[2.74989117,48.41299343],[2.75112816,48.41232308],[2.75223259,48.41196014],[2.75441699,48.41154274]]]]}},{"type":"Feature","id":"avon_770140105_avon_sud","properties":{"zoneId":"avon_770140105_avon_sud","label":"Rue Gambetta","districtCode":"770140105","arrondissementCode":"77014","colorIndex":4,"parentZoneId":"avon_parent_77014_avon","parentCode":"77014","parentLabel":"Avon","territoryType":"iris","source":"IGN / INSEE - Contours IRIS WFS Géoplateforme","sourceYear":"2026","officialId":"770140105","sourceCleabs":"IRIS____0000000770140105","communeCode":"77014","communeName":"Avon","irisCode":"0105","irisType":"H","officialAreaM2":885003.2932128906,"labelLng":2.7256018891297966,"labelLat":48.40589050718844,"bbox":[2.71723454,48.39869397,2.73555245,48.41396855],"curationOperationId":"avon-770140105-rename-rue-gambetta","curationRevision":1,"curationEvidenceRefs":["ign-insee-contours-iris-2026","ign-geoplateforme-toponymy-2026","guide-alpha-editorial-recovery-2026-07-14"],"curationRationale":"The exact official IGN BD TOPO named road has a deterministic evidence point strictly inside this exact IRIS. The 1:1 label is emitted without nearest assignment, invented geometry, split or dropped source cell.","semanticLabelReviewed":true,"semanticLabelAccepted":false,"semanticResolution":"rename"},"geometry":{"type":"MultiPolygon","coordinates":[[[[2.73208414,48.40791195],[2.73106351,48.40825961],[2.72802334,48.40587307],[2.7291312,48.40406279],[2.72920229,48.40390191],[2.72903641,48.40384035],[2.73020578,48.40266536],[2.72954808,48.40234538],[2.72908988,48.40264032],[2.72650399,48.40157188],[2.7267501,48.40127016],[2.72339881,48.40009822],[2.72461266,48.39869397],[2.72259327,48.39887729],[2.72070954,48.40022327],[2.71925193,48.39993554],[2.71889528,48.40094052],[2.71911553,48.40093564],[2.71780136,48.40412813],[2.71755141,48.40437674],[2.71762951,48.40442731],[2.71723454,48.40500935],[2.71986916,48.40606011],[2.71980896,48.40645222],[2.72111993,48.40690964],[2.72125461,48.40699273],[2.72118386,48.40708343],[2.7213241,48.40764875],[2.72398584,48.40872107],[2.7253339,48.40933777],[2.72568003,48.40955808],[2.72608094,48.40964178],[2.72776756,48.41064698],[2.72776063,48.41068116],[2.72808554,48.41082854],[2.73093514,48.41248322],[2.73280466,48.41370108],[2.73327118,48.41391085],[2.73332225,48.41396855],[2.73371188,48.41388485],[2.73545575,48.4132374],[2.73555245,48.41308918],[2.73497706,48.41276042],[2.73465843,48.41243493],[2.7345265,48.41206667],[2.73448299,48.41158436],[2.73438672,48.41138082],[2.73401004,48.4110453],[2.73342544,48.41067423],[2.73244173,48.40960142],[2.73237103,48.40942043],[2.73223343,48.40937514],[2.73214531,48.40889992],[2.73208414,48.40791195]]]]}}]}
