{"type":"FeatureCollection","metadata":{"generatedAt":"2026-07-14T18:44:44.282Z","source":"IGN / INSEE - Contours IRIS WFS Géoplateforme","datasetId":"STATISTICALUNITS.IRIS:contours_iris","datasetUrl":"https://geoservices.ign.fr/contoursiris","sourceFileUrl":"https://data.geopf.fr/wfs/ows?SERVICE=WFS&VERSION=2.0.0&REQUEST=GetFeature&TYPENAMES=STATISTICALUNITS.IRIS%3Acontours_iris&OUTPUTFORMAT=application%2Fjson&COUNT=1000&CQL_FILTER=code_insee%3D%2730032%27&SRSNAME=EPSG%3A4326","license":"Licence Ouverte / Open Licence 2.0","sourceYear":"2026","communeCode":"30032","communeName":"Beaucaire","featureCount":5,"parentCount":1,"parentContract":"technical commune group; not selectable and not displayed as a district","bbox":[4.52707431,43.72431487,4.6552575,43.83872212],"areaStatsM2":{"minimum":197743.701171875,"average":17177070.928149413,"maximum":49188770.661865234}},"features":[{"type":"Feature","id":"beaucaire_300320101_la_plaine","properties":{"zoneId":"beaucaire_300320101_la_plaine","label":"La Plaine","districtCode":"300320101","arrondissementCode":"30032","colorIndex":0,"parentZoneId":"beaucaire_parent_30032_beaucaire","parentCode":"30032","parentLabel":"Beaucaire","territoryType":"iris","source":"IGN / INSEE - Contours IRIS WFS Géoplateforme","sourceYear":"2026","officialId":"300320101","sourceCleabs":"IRIS____0000000300320101","communeCode":"30032","communeName":"Beaucaire","irisCode":"0101","irisType":"H","officialAreaM2":49188770.661865234,"labelLng":4.597755883267827,"labelLat":43.76189459115266,"bbox":[4.53234513,43.72431487,4.655002,43.8085417]},"geometry":{"type":"MultiPolygon","coordinates":[[[[4.6283043,43.75787872],[4.62823888,43.75723796],[4.62792935,43.75600412],[4.62649764,43.75233441],[4.6263561,43.75167949],[4.62596791,43.75068984],[4.6256242,43.74877427],[4.62483664,43.74709845],[4.6236895,43.74482405],[4.62033514,43.73961058],[4.61995282,43.73926075],[4.61873882,43.73777035],[4.61601469,43.73405407],[4.61419813,43.73121531],[4.61270833,43.72701625],[4.61230168,43.7247398],[4.6088044,43.72482844],[4.60785263,43.72487671],[4.60744225,43.72497997],[4.60699509,43.72487767],[4.60538025,43.72473679],[4.60242034,43.72464809],[4.59686824,43.72479357],[4.59538544,43.72471361],[4.59505563,43.72481384],[4.5877381,43.7244447],[4.58675435,43.72436904],[4.58670444,43.72431487],[4.55815927,43.7271797],[4.53293228,43.72993455],[4.53427402,43.73086336],[4.5325941,43.73176724],[4.53234513,43.73197144],[4.53266388,43.73265817],[4.53401457,43.73461378],[4.53544859,43.73569248],[4.53635936,43.73651305],[4.54430073,43.74257305],[4.54879004,43.75983663],[4.5521383,43.76255208],[4.5513688,43.76339287],[4.55216123,43.7639009],[4.55208748,43.76397486],[4.56110971,43.769662],[4.56324512,43.77094904],[4.56550351,43.77223337],[4.57080563,43.77516412],[4.57116262,43.77540828],[4.57232826,43.7760143],[4.57403115,43.77700407],[4.57438445,43.77715827],[4.58149243,43.78116587],[4.58684687,43.78413111],[4.58720399,43.78437523],[4.58748188,43.78449539],[4.58946145,43.7855871],[4.59943974,43.7911709],[4.59987046,43.79137789],[4.60012633,43.79155235],[4.60804906,43.79599097],[4.60837724,43.79612834],[4.60959988,43.79687625],[4.61896875,43.80203892],[4.61930078,43.80226621],[4.62316156,43.80439687],[4.62438056,43.80509067],[4.62471263,43.80531794],[4.62501452,43.80540165],[4.62564949,43.80574771],[4.62718849,43.80637281],[4.62541514,43.80712202],[4.62422966,43.80756633],[4.62326623,43.8078651],[4.62328676,43.8079314],[4.62314623,43.8079722],[4.62324794,43.80831541],[4.62334389,43.8084553],[4.62345881,43.80851929],[4.62370677,43.8085417],[4.62706976,43.80783451],[4.62787246,43.80782792],[4.63017006,43.807943],[4.63098632,43.80806311],[4.63207089,43.80800367],[4.63399226,43.80760856],[4.63568335,43.80720246],[4.63779238,43.80706909],[4.6380416,43.80700504],[4.63821411,43.80690974],[4.63811456,43.80629828],[4.64224959,43.80569692],[4.64515078,43.80528054],[4.64666792,43.8048805],[4.64733906,43.80496757],[4.64864179,43.80467516],[4.65436405,43.80468927],[4.65453813,43.80460652],[4.65451902,43.80411807],[4.65463615,43.80408569],[4.65496954,43.80349557],[4.655002,43.80268501],[4.65463498,43.80103893],[4.65465586,43.80038606],[4.6547562,43.80033233],[4.65463683,43.79839717],[4.65413217,43.79761906],[4.65394916,43.79756423],[4.65388837,43.79675148],[4.65358458,43.79625835],[4.65354648,43.79519864],[4.65346005,43.79495963],[4.65332042,43.79494374],[4.65351396,43.79467528],[4.65347545,43.79398821],[4.65312666,43.78905749],[4.65291726,43.78903456],[4.65252057,43.78730254],[4.65234033,43.78704155],[4.65196341,43.78586367],[4.65200023,43.78429969],[4.65156745,43.78286434],[4.65157175,43.78249704],[4.65125257,43.78211305],[4.6509935,43.78204677],[4.65011153,43.78118796],[4.64932505,43.7803223],[4.64926294,43.78002082],[4.64883947,43.77950879],[4.64792799,43.77870082],[4.64762613,43.77826975],[4.64566673,43.77683045],[4.64419474,43.77557728],[4.64345808,43.77488365],[4.64304172,43.77418338],[4.64275994,43.77393021],[4.64141393,43.77338346],[4.6397205,43.77241529],[4.63961006,43.77176891],[4.6394166,43.77138929],[4.63705329,43.76927459],[4.63652683,43.76867226],[4.63422755,43.76679145],[4.63357427,43.76596509],[4.63356543,43.76569881],[4.63309687,43.7650776],[4.63288814,43.76455239],[4.63253702,43.76412923],[4.6315084,43.7635083],[4.63051423,43.76274464],[4.62997277,43.76213441],[4.62943452,43.76072038],[4.62907674,43.76006149],[4.6283043,43.75787872]]]]}},{"type":"Feature","id":"beaucaire_300320102_le_plateau","properties":{"zoneId":"beaucaire_300320102_le_plateau","label":"Le Plateau","districtCode":"300320102","arrondissementCode":"30032","colorIndex":1,"parentZoneId":"beaucaire_parent_30032_beaucaire","parentCode":"30032","parentLabel":"Beaucaire","territoryType":"iris","source":"IGN / INSEE - Contours IRIS WFS Géoplateforme","sourceYear":"2026","officialId":"300320102","sourceCleabs":"IRIS____0000000300320102","communeCode":"30032","communeName":"Beaucaire","irisCode":"0102","irisType":"H","officialAreaM2":34000891.8840332,"labelLng":4.584641339288297,"labelLat":43.80306562374764,"bbox":[4.52707431,43.76397486,4.65215364,43.83872212]},"geometry":{"type":"MultiPolygon","coordinates":[[[[4.55208748,43.76397486],[4.55089372,43.7651547],[4.55068042,43.76525764],[4.53879623,43.77013964],[4.53839911,43.77042876],[4.53658531,43.77249294],[4.5292826,43.77609412],[4.52913346,43.77641663],[4.53099132,43.78067203],[4.52707431,43.78429295],[4.52730104,43.78775944],[4.5401051,43.7991539],[4.53635395,43.80670788],[4.5353727,43.80825631],[4.54309203,43.80890247],[4.5434156,43.80877998],[4.54398582,43.80881691],[4.5459439,43.80920589],[4.5470155,43.80903138],[4.54774331,43.80905885],[4.5488859,43.80934864],[4.54950819,43.80942621],[4.55012286,43.80931396],[4.55131113,43.80876783],[4.55319565,43.80868879],[4.55502266,43.80882656],[4.55603967,43.80874814],[4.55665506,43.80852604],[4.55722318,43.808166],[4.55832971,43.80777037],[4.5604882,43.80734887],[4.56517191,43.80678489],[4.56920107,43.80673777],[4.57078408,43.80649895],[4.57684609,43.80603251],[4.57773482,43.80590175],[4.58071234,43.80521867],[4.58130339,43.80632348],[4.58276711,43.80828778],[4.58383521,43.81050354],[4.58429442,43.81124213],[4.58543687,43.81232541],[4.58636977,43.813067],[4.58657419,43.81335655],[4.58686251,43.81438473],[4.58686805,43.81525592],[4.58669468,43.81608561],[4.5868171,43.81704781],[4.58708403,43.81743906],[4.58830445,43.81854818],[4.58807783,43.81933995],[4.58808239,43.81986193],[4.58911118,43.82136447],[4.58938794,43.82201839],[4.58959693,43.82349867],[4.58950553,43.82356481],[4.58951218,43.82402735],[4.58979179,43.82576673],[4.5902549,43.8271299],[4.5910684,43.82848436],[4.59094891,43.82856891],[4.59115985,43.82908968],[4.59129762,43.83042069],[4.59151183,43.83119253],[4.59175814,43.83142026],[4.59218173,43.8316292],[4.59582768,43.83240039],[4.59608231,43.83252447],[4.59594436,43.83399633],[4.59637218,43.83573534],[4.59620331,43.8367234],[4.59570871,43.83829319],[4.59674307,43.83828436],[4.59754329,43.83812953],[4.59812745,43.83811917],[4.59825747,43.83872212],[4.5983883,43.8386869],[4.59866161,43.83836607],[4.59984521,43.83818039],[4.60064429,43.83771863],[4.60235568,43.83737577],[4.60288149,43.83719162],[4.60373751,43.83707643],[4.60405869,43.83664597],[4.60462462,43.83678436],[4.60564833,43.83723824],[4.60686765,43.8374399],[4.60760563,43.83741643],[4.60828124,43.83751898],[4.60874179,43.83735827],[4.60921949,43.83679137],[4.60952283,43.83674459],[4.60992386,43.83654605],[4.6109714,43.83652068],[4.61312504,43.83735564],[4.6143315,43.83828919],[4.62108061,43.83743121],[4.62183503,43.83732999],[4.62612737,43.83596725],[4.63455106,43.83632918],[4.63674531,43.83539978],[4.63738468,43.83427947],[4.63895317,43.83273655],[4.63946587,43.8323607],[4.64055505,43.83201309],[4.64104899,43.83193725],[4.64295204,43.83226324],[4.64233193,43.83106375],[4.64238212,43.83030061],[4.643724,43.8273713],[4.64446601,43.82541861],[4.64479789,43.82550271],[4.64560791,43.82548239],[4.64617689,43.82555391],[4.64677608,43.82550886],[4.64717639,43.82430029],[4.64790181,43.82328663],[4.64807563,43.82194197],[4.64913158,43.8209251],[4.64923817,43.82069847],[4.6514805,43.81823518],[4.65215364,43.81649322],[4.65146664,43.81633531],[4.64442605,43.81577565],[4.64468845,43.81543416],[4.64398422,43.81519456],[4.64261577,43.81554462],[4.64248674,43.81581299],[4.64182703,43.81582472],[4.64167186,43.81600528],[4.64130145,43.81613596],[4.64079752,43.81611835],[4.64056278,43.81616868],[4.64036953,43.81571525],[4.63985068,43.81569785],[4.63508193,43.81642023],[4.63146449,43.81602257],[4.63083095,43.81612386],[4.63038885,43.81600806],[4.63112273,43.81471807],[4.63231921,43.81330593],[4.63295848,43.81275361],[4.6352278,43.81143788],[4.63524609,43.8113386],[4.63509404,43.81128057],[4.63499114,43.81133342],[4.63498075,43.81140468],[4.63487215,43.8113451],[4.63467884,43.8113219],[4.63411597,43.81132854],[4.63238351,43.81172712],[4.63204008,43.81175747],[4.63196169,43.81184145],[4.63182979,43.81179302],[4.63130662,43.81197096],[4.6279614,43.81278513],[4.62795196,43.81284648],[4.62787966,43.81288266],[4.62775776,43.81283588],[4.62716184,43.81303559],[4.62522431,43.81356943],[4.62315064,43.81421328],[4.62239309,43.81449998],[4.62143103,43.81476361],[4.62119374,43.81476804],[4.62010165,43.81496159],[4.61955711,43.81500208],[4.61848977,43.81470921],[4.6175316,43.81418878],[4.61688596,43.8135548],[4.6164528,43.81274215],[4.61633059,43.81193659],[4.61636505,43.81139693],[4.61652269,43.81086175],[4.61678162,43.81039257],[4.61725159,43.80987076],[4.61761096,43.8095693],[4.61808374,43.80927876],[4.61845821,43.80911569],[4.6190517,43.80891876],[4.62184135,43.80832735],[4.62314623,43.8079722],[4.62328676,43.8079314],[4.62326623,43.8078651],[4.62422966,43.80756633],[4.62541514,43.80712202],[4.62718849,43.80637281],[4.62564949,43.80574771],[4.62501452,43.80540165],[4.62471263,43.80531794],[4.62438056,43.80509067],[4.62316156,43.80439687],[4.61930078,43.80226621],[4.61896875,43.80203892],[4.60959988,43.79687625],[4.60837724,43.79612834],[4.60804906,43.79599097],[4.60012633,43.79155235],[4.59987046,43.79137789],[4.59943974,43.7911709],[4.58946145,43.7855871],[4.58748188,43.78449539],[4.58720399,43.78437523],[4.58684687,43.78413111],[4.58149243,43.78116587],[4.57438445,43.77715827],[4.57403115,43.77700407],[4.57232826,43.7760143],[4.57116262,43.77540828],[4.57080563,43.77516412],[4.56550351,43.77223337],[4.56324512,43.77094904],[4.56110971,43.769662],[4.55208748,43.76397486]]]]}},{"type":"Feature","id":"beaucaire_300320103_les_cariatides","properties":{"zoneId":"beaucaire_300320103_les_cariatides","label":"Les Cariatides","districtCode":"300320103","arrondissementCode":"30032","colorIndex":2,"parentZoneId":"beaucaire_parent_30032_beaucaire","parentCode":"30032","parentLabel":"Beaucaire","territoryType":"iris","source":"IGN / INSEE - Contours IRIS WFS Géoplateforme","sourceYear":"2026","officialId":"300320103","sourceCleabs":"IRIS____0000000300320103","communeCode":"30032","communeName":"Beaucaire","irisCode":"0103","irisType":"H","officialAreaM2":197743.701171875,"labelLng":4.645331441829634,"labelLat":43.80710672259324,"bbox":[4.64224959,43.80467516,4.64870034,43.80987592]},"geometry":{"type":"MultiPolygon","coordinates":[[[[4.64224959,43.80569692],[4.64227062,43.80599633],[4.64237666,43.80639977],[4.6423823,43.8065959],[4.64231645,43.8066833],[4.64239494,43.80746879],[4.64289475,43.80885909],[4.64308654,43.80956456],[4.64377021,43.80952365],[4.64449606,43.80926428],[4.64469936,43.8090731],[4.64504914,43.80930725],[4.6452833,43.80923801],[4.64563064,43.80943078],[4.64532694,43.80963158],[4.64571679,43.80987592],[4.64646611,43.80952528],[4.64656087,43.80880198],[4.64666633,43.80840705],[4.64737751,43.80841611],[4.64746821,43.80845794],[4.64761058,43.80835228],[4.64803385,43.80734139],[4.64781629,43.80729607],[4.64812491,43.80661995],[4.64868318,43.80516237],[4.64870034,43.80493889],[4.64864179,43.80467516],[4.64733906,43.80496757],[4.64666792,43.8048805],[4.64515078,43.80528054],[4.64224959,43.80569692]]]]}},{"type":"Feature","id":"beaucaire_300320104_les_fontetes","properties":{"zoneId":"beaucaire_300320104_les_fontetes","label":"Les Fontêtes","districtCode":"300320104","arrondissementCode":"30032","colorIndex":3,"parentZoneId":"beaucaire_parent_30032_beaucaire","parentCode":"30032","parentLabel":"Beaucaire","territoryType":"iris","source":"IGN / INSEE - Contours IRIS WFS Géoplateforme","sourceYear":"2026","officialId":"300320104","sourceCleabs":"IRIS____0000000300320104","communeCode":"30032","communeName":"Beaucaire","irisCode":"0104","irisType":"H","officialAreaM2":219055.42932128906,"labelLng":4.6389912489189475,"labelLat":43.80797595290333,"bbox":[4.63207089,43.80569692,4.64311167,43.80971273]},"geometry":{"type":"MultiPolygon","coordinates":[[[[4.64308654,43.80956456],[4.64289475,43.80885909],[4.64239494,43.80746879],[4.64231645,43.8066833],[4.6423823,43.8065959],[4.64237666,43.80639977],[4.64227062,43.80599633],[4.64224959,43.80569692],[4.63811456,43.80629828],[4.63821411,43.80690974],[4.6380416,43.80700504],[4.63779238,43.80706909],[4.63568335,43.80720246],[4.63399226,43.80760856],[4.63207089,43.80800367],[4.63464036,43.80862853],[4.63746962,43.80942585],[4.63836035,43.80954118],[4.63842557,43.80964821],[4.63851336,43.80967569],[4.63861104,43.80965802],[4.63866294,43.80960414],[4.64046048,43.80970132],[4.64293046,43.80971273],[4.64311167,43.8097037],[4.64308654,43.80956456]]]]}},{"type":"Feature","id":"beaucaire_300320105_le_sizen","properties":{"zoneId":"beaucaire_300320105_le_sizen","label":"Le Sizen","districtCode":"300320105","arrondissementCode":"30032","colorIndex":4,"parentZoneId":"beaucaire_parent_30032_beaucaire","parentCode":"30032","parentLabel":"Beaucaire","territoryType":"iris","source":"IGN / INSEE - Contours IRIS WFS Géoplateforme","sourceYear":"2026","officialId":"300320105","sourceCleabs":"IRIS____0000000300320105","communeCode":"30032","communeName":"Beaucaire","irisCode":"0105","irisType":"H","officialAreaM2":2278892.9643554688,"labelLng":4.6377741751464105,"labelLat":43.81146410973275,"bbox":[4.61633059,43.80467516,4.6552575,43.81649322]},"geometry":{"type":"MultiPolygon","coordinates":[[[[4.65215364,43.81649322],[4.65223902,43.81613549],[4.65229587,43.81582319],[4.65305035,43.81431671],[4.6535341,43.81294934],[4.65449777,43.80896714],[4.65463671,43.80852849],[4.65511268,43.8077967],[4.6552575,43.80730396],[4.65488459,43.8070873],[4.6545672,43.80634144],[4.65452179,43.80515852],[4.65437947,43.80500767],[4.65436405,43.80468927],[4.64864179,43.80467516],[4.64870034,43.80493889],[4.64868318,43.80516237],[4.64812491,43.80661995],[4.64781629,43.80729607],[4.64803385,43.80734139],[4.64761058,43.80835228],[4.64746821,43.80845794],[4.64737751,43.80841611],[4.64666633,43.80840705],[4.64656087,43.80880198],[4.64646611,43.80952528],[4.64571679,43.80987592],[4.64532694,43.80963158],[4.64563064,43.80943078],[4.6452833,43.80923801],[4.64504914,43.80930725],[4.64469936,43.8090731],[4.64449606,43.80926428],[4.64377021,43.80952365],[4.64308654,43.80956456],[4.64311167,43.8097037],[4.64293046,43.80971273],[4.64046048,43.80970132],[4.63866294,43.80960414],[4.63861104,43.80965802],[4.63851336,43.80967569],[4.63842557,43.80964821],[4.63836035,43.80954118],[4.63746962,43.80942585],[4.63464036,43.80862853],[4.63207089,43.80800367],[4.63098632,43.80806311],[4.63017006,43.807943],[4.62787246,43.80782792],[4.62706976,43.80783451],[4.62370677,43.8085417],[4.62345881,43.80851929],[4.62334389,43.8084553],[4.62324794,43.80831541],[4.62314623,43.8079722],[4.62184135,43.80832735],[4.6190517,43.80891876],[4.61845821,43.80911569],[4.61808374,43.80927876],[4.61761096,43.8095693],[4.61725159,43.80987076],[4.61678162,43.81039257],[4.61652269,43.81086175],[4.61636505,43.81139693],[4.61633059,43.81193659],[4.6164528,43.81274215],[4.61688596,43.8135548],[4.6175316,43.81418878],[4.61848977,43.81470921],[4.61955711,43.81500208],[4.62010165,43.81496159],[4.62119374,43.81476804],[4.62143103,43.81476361],[4.62239309,43.81449998],[4.62315064,43.81421328],[4.62522431,43.81356943],[4.62716184,43.81303559],[4.62775776,43.81283588],[4.62787966,43.81288266],[4.62795196,43.81284648],[4.6279614,43.81278513],[4.63130662,43.81197096],[4.63182979,43.81179302],[4.63196169,43.81184145],[4.63204008,43.81175747],[4.63238351,43.81172712],[4.63411597,43.81132854],[4.63467884,43.8113219],[4.63487215,43.8113451],[4.63498075,43.81140468],[4.63499114,43.81133342],[4.63509404,43.81128057],[4.63524609,43.8113386],[4.6352278,43.81143788],[4.63295848,43.81275361],[4.63231921,43.81330593],[4.63112273,43.81471807],[4.63038885,43.81600806],[4.63083095,43.81612386],[4.63146449,43.81602257],[4.63508193,43.81642023],[4.63985068,43.81569785],[4.64036953,43.81571525],[4.64056278,43.81616868],[4.64079752,43.81611835],[4.64130145,43.81613596],[4.64167186,43.81600528],[4.64182703,43.81582472],[4.64248674,43.81581299],[4.64261577,43.81554462],[4.64398422,43.81519456],[4.64468845,43.81543416],[4.64442605,43.81577565],[4.65146664,43.81633531],[4.65215364,43.81649322]]]]}}]}
