{"type":"FeatureCollection","metadata":{"generatedAt":"2026-07-14T18:47:36.695Z","source":"IGN / INSEE - Contours IRIS WFS Géoplateforme","datasetId":"STATISTICALUNITS.IRIS:contours_iris","datasetUrl":"https://geoservices.ign.fr/contoursiris","sourceFileUrl":"https://data.geopf.fr/wfs/ows?SERVICE=WFS&VERSION=2.0.0&REQUEST=GetFeature&TYPENAMES=STATISTICALUNITS.IRIS%3Acontours_iris&OUTPUTFORMAT=application%2Fjson&COUNT=1000&CQL_FILTER=code_insee%3D%2722004%27&SRSNAME=EPSG%3A4326","license":"Licence Ouverte / Open Licence 2.0","sourceYear":"2026","communeCode":"22004","communeName":"Bégard","featureCount":2,"parentCount":1,"parentContract":"technical commune group; not selectable and not displayed as a district","bbox":[-3.34253867,48.60039373,-3.24175801,48.67260792],"areaStatsM2":{"minimum":15083573.512084961,"average":18039929.43597412,"maximum":20996285.35986328}},"features":[{"type":"Feature","id":"begard_220040101_l_etang","properties":{"zoneId":"begard_220040101_l_etang","label":"L'Étang","districtCode":"220040101","arrondissementCode":"22004","colorIndex":0,"parentZoneId":"begard_parent_22004_begard","parentCode":"22004","parentLabel":"Bégard","territoryType":"iris","source":"IGN / INSEE - Contours IRIS WFS Géoplateforme","sourceYear":"2026","officialId":"220040101","sourceCleabs":"IRIS____0000000220040101","communeCode":"22004","communeName":"Bégard","irisCode":"0101","irisType":"H","officialAreaM2":20996285.35986328,"labelLng":-3.304175262211798,"labelLat":48.639705374002276,"bbox":[-3.34253867,48.60039373,-3.25094708,48.67260792]},"geometry":{"type":"MultiPolygon","coordinates":[[[[-3.30707873,48.61276185],[-3.30749055,48.61258839],[-3.31032458,48.60932648],[-3.31044732,48.60905827],[-3.31053591,48.60825946],[-3.31137807,48.60725548],[-3.31441358,48.60539498],[-3.31383754,48.60499696],[-3.31356015,48.60440167],[-3.31372188,48.60424238],[-3.31429589,48.60400432],[-3.31485019,48.60343432],[-3.31494695,48.6029852],[-3.31392414,48.60265063],[-3.3144722,48.60225422],[-3.31490748,48.60155518],[-3.31490794,48.60117615],[-3.31526511,48.60039373],[-3.31653217,48.60089218],[-3.31857048,48.60126477],[-3.31858217,48.6016991],[-3.31875316,48.60186417],[-3.31901238,48.60197131],[-3.31939797,48.60200945],[-3.31968192,48.60232102],[-3.31976749,48.60290484],[-3.32080262,48.60328473],[-3.32142226,48.60361543],[-3.321817,48.60287431],[-3.3220793,48.60261309],[-3.32347495,48.60361087],[-3.32408196,48.60340981],[-3.32425758,48.60387152],[-3.32467116,48.60382604],[-3.32868567,48.60263946],[-3.3292642,48.60265286],[-3.32915066,48.6030298],[-3.32920074,48.60326356],[-3.32904486,48.60331338],[-3.32900086,48.60370286],[-3.3292838,48.604028],[-3.32917394,48.60441286],[-3.32938323,48.60463544],[-3.32919175,48.60478461],[-3.32894821,48.60531286],[-3.32895813,48.60568683],[-3.32880175,48.6061933],[-3.32886405,48.60641558],[-3.32922855,48.60671742],[-3.33020462,48.60701285],[-3.33118448,48.60749667],[-3.33132834,48.60779673],[-3.33167018,48.60795629],[-3.33157976,48.6087823],[-3.33169691,48.60918756],[-3.33178419,48.60926774],[-3.33247729,48.60937248],[-3.33279162,48.60954072],[-3.33289831,48.60989329],[-3.33347282,48.60999623],[-3.33368545,48.61013379],[-3.33405874,48.61085568],[-3.33415711,48.6112854],[-3.33464208,48.6116936],[-3.33506636,48.61235321],[-3.33623375,48.61295695],[-3.33665727,48.61304897],[-3.33699927,48.61338899],[-3.3374183,48.61363466],[-3.33770117,48.61368906],[-3.33854824,48.61420969],[-3.33888675,48.61463291],[-3.33946764,48.61512442],[-3.33937564,48.61521867],[-3.33978829,48.61535548],[-3.33953875,48.61572164],[-3.33955301,48.61594016],[-3.3396362,48.61608733],[-3.34016173,48.6164365],[-3.34067191,48.61708519],[-3.34127292,48.61728234],[-3.34186295,48.61770296],[-3.34182001,48.61860496],[-3.34105657,48.61973852],[-3.34110172,48.62008805],[-3.34172559,48.62124685],[-3.34170751,48.62168097],[-3.34182018,48.622026],[-3.34246303,48.62304932],[-3.34244021,48.62335465],[-3.34253867,48.62349288],[-3.34235079,48.62379529],[-3.34242841,48.62406458],[-3.34230537,48.62427328],[-3.34210503,48.62432729],[-3.3415987,48.62426046],[-3.3407853,48.6236487],[-3.33963297,48.62301442],[-3.33876951,48.6228087],[-3.33815141,48.62368271],[-3.33625786,48.62386128],[-3.33579732,48.62422784],[-3.33348085,48.62443252],[-3.33315726,48.62775887],[-3.33318548,48.62830602],[-3.33304836,48.62865714],[-3.33278427,48.63098135],[-3.33243211,48.63622859],[-3.33284992,48.63874205],[-3.33325888,48.64343887],[-3.33403915,48.64494309],[-3.33133268,48.64649857],[-3.33077167,48.64686954],[-3.32991581,48.64762798],[-3.32838341,48.64861373],[-3.32775402,48.64928611],[-3.32729415,48.64949196],[-3.32713439,48.64991555],[-3.32609061,48.65104581],[-3.32590034,48.65153239],[-3.32615416,48.65169395],[-3.32718159,48.65195692],[-3.32733368,48.65190823],[-3.32808513,48.65197292],[-3.32828044,48.65325834],[-3.32870164,48.65395782],[-3.32776718,48.65409147],[-3.32626944,48.6541513],[-3.32538631,48.6544726],[-3.32477249,48.65455487],[-3.32276666,48.65447925],[-3.3206514,48.65412968],[-3.32024622,48.65412414],[-3.31987262,48.65433439],[-3.31960123,48.65462404],[-3.31951433,48.65490749],[-3.31921384,48.65508047],[-3.31908464,48.65529578],[-3.31911506,48.65565962],[-3.31872362,48.65603775],[-3.31858839,48.65638332],[-3.31818364,48.65659523],[-3.31702149,48.65574828],[-3.31333988,48.65571367],[-3.31199686,48.65582556],[-3.31209999,48.65653205],[-3.31101236,48.65677385],[-3.31078893,48.65660433],[-3.31037864,48.65657918],[-3.30954303,48.65702416],[-3.30893359,48.65705288],[-3.30815494,48.65677475],[-3.30703138,48.65666289],[-3.3070497,48.65701744],[-3.30673271,48.65730225],[-3.30657011,48.65769257],[-3.30628206,48.65779988],[-3.30626898,48.65812001],[-3.3059636,48.65819666],[-3.30574128,48.65855495],[-3.30536532,48.658814],[-3.30524947,48.65911792],[-3.30529907,48.65928042],[-3.30492066,48.65944035],[-3.30468939,48.65971338],[-3.30434806,48.65980818],[-3.3039168,48.66013964],[-3.30376386,48.66046356],[-3.30307798,48.66088612],[-3.30276776,48.66143043],[-3.3021548,48.66147554],[-3.30141243,48.66178016],[-3.30119927,48.66201163],[-3.30053627,48.66211623],[-3.30027742,48.66226258],[-3.30007852,48.66217206],[-3.29979862,48.66217786],[-3.29964809,48.66235276],[-3.29922845,48.66245349],[-3.29868904,48.6631534],[-3.2981502,48.66340661],[-3.29791422,48.66370876],[-3.29796027,48.66394364],[-3.29767537,48.66397586],[-3.29749922,48.66424326],[-3.29693513,48.66458082],[-3.29685083,48.66501119],[-3.29655639,48.6650773],[-3.29648813,48.66534711],[-3.29625537,48.66539372],[-3.29604087,48.66561441],[-3.29574946,48.66568307],[-3.29571433,48.66600165],[-3.29537809,48.66606005],[-3.29510169,48.66599347],[-3.29493724,48.66610955],[-3.29499255,48.666602],[-3.29467134,48.66709002],[-3.29454872,48.66759821],[-3.29407629,48.66792819],[-3.2941926,48.66820357],[-3.29368323,48.66830631],[-3.29372279,48.66844228],[-3.29413793,48.66874425],[-3.29415624,48.6695626],[-3.29373066,48.67003267],[-3.29310202,48.67051348],[-3.29067371,48.6714919],[-3.29024352,48.67201454],[-3.28936272,48.67260792],[-3.28837022,48.67139261],[-3.28802725,48.67154248],[-3.28790015,48.67194622],[-3.28772051,48.672027],[-3.28733003,48.67203139],[-3.28719628,48.6718598],[-3.28699501,48.67182893],[-3.28650024,48.67184966],[-3.2856852,48.6711456],[-3.28377501,48.67020523],[-3.28352748,48.66999363],[-3.28323022,48.66925589],[-3.28218448,48.66739278],[-3.28089925,48.66562171],[-3.2805304,48.66418664],[-3.27988612,48.66394905],[-3.27939881,48.66366889],[-3.27892936,48.66307287],[-3.27758348,48.66283441],[-3.27537373,48.6629447],[-3.27408653,48.66286552],[-3.27207896,48.66337744],[-3.2713684,48.66366484],[-3.26974066,48.66406195],[-3.26878376,48.66316044],[-3.26840681,48.66303864],[-3.2682941,48.66292818],[-3.26777948,48.66217028],[-3.26700605,48.6613782],[-3.2664668,48.66102764],[-3.26584936,48.66078586],[-3.26570957,48.66005243],[-3.26538522,48.66006229],[-3.26512027,48.66021521],[-3.26452034,48.66083421],[-3.26434777,48.6611555],[-3.2630051,48.66210054],[-3.2620527,48.66241596],[-3.26102366,48.66180874],[-3.26029764,48.66091126],[-3.25963389,48.65802271],[-3.25813963,48.65803277],[-3.25692175,48.65815549],[-3.25540369,48.65789878],[-3.25508209,48.65777223],[-3.25528989,48.65761963],[-3.25491749,48.65716009],[-3.25483045,48.65685428],[-3.25498042,48.65666232],[-3.25489576,48.65654677],[-3.25545854,48.65600376],[-3.25544111,48.65559683],[-3.25398787,48.65564167],[-3.25393186,48.65493541],[-3.25347457,48.65502893],[-3.25294626,48.6547797],[-3.25168882,48.65440097],[-3.25168318,48.65413779],[-3.25138837,48.65398455],[-3.25149742,48.65379204],[-3.25147825,48.65358642],[-3.25101384,48.65225557],[-3.25094708,48.65190267],[-3.25098322,48.65170407],[-3.25119969,48.65147613],[-3.25156687,48.65134675],[-3.25295201,48.65113227],[-3.25367028,48.6509781],[-3.25416712,48.6508058],[-3.25498418,48.65033964],[-3.25528546,48.65021732],[-3.25757403,48.64971254],[-3.25780686,48.64949636],[-3.25826024,48.64923429],[-3.25900233,48.64864302],[-3.25944563,48.64836523],[-3.25989677,48.64817546],[-3.26096792,48.64788717],[-3.26167696,48.64762245],[-3.26334518,48.6467947],[-3.26482597,48.64610762],[-3.26533205,48.64592215],[-3.26601251,48.64581682],[-3.26669356,48.64586394],[-3.26726184,48.64603791],[-3.26856967,48.6465988],[-3.26912036,48.64671685],[-3.26978287,48.64673425],[-3.27051763,48.64661611],[-3.2774707,48.64505456],[-3.27817785,48.64496759],[-3.2786859,48.64494618],[-3.27978962,48.6450431],[-3.28026108,48.64503444],[-3.28086697,48.64493206],[-3.28135821,48.6447482],[-3.28416825,48.64303596],[-3.28543043,48.64243596],[-3.28564268,48.64228758],[-3.28577895,48.64197178],[-3.28575044,48.6416331],[-3.28526294,48.64068253],[-3.28522849,48.64048674],[-3.28506475,48.64026891],[-3.28531787,48.64023387],[-3.28556433,48.64003045],[-3.28626298,48.63970386],[-3.28683086,48.63925243],[-3.28793847,48.63812728],[-3.28812574,48.63781689],[-3.28825118,48.63743398],[-3.28840308,48.63724818],[-3.29104058,48.634832],[-3.29148602,48.63463067],[-3.29746277,48.63281358],[-3.29784665,48.63258751],[-3.3000277,48.63076015],[-3.30014577,48.6305653],[-3.30083106,48.62701515],[-3.3010257,48.62651845],[-3.30136088,48.6261262],[-3.30137084,48.62605077],[-3.30146904,48.62604106],[-3.30175341,48.62584821],[-3.30194195,48.62584273],[-3.30313966,48.62608964],[-3.30344989,48.62611109],[-3.30365261,48.6260877],[-3.30508707,48.62554419],[-3.30610482,48.62524745],[-3.30645787,48.62505998],[-3.30722581,48.62453195],[-3.30808927,48.62407373],[-3.31060347,48.62317325],[-3.31087142,48.62314909],[-3.31146603,48.62316986],[-3.31184522,48.62321018],[-3.31241139,48.62333352],[-3.31264651,48.62334178],[-3.31371051,48.62318059],[-3.3133101,48.62251424],[-3.31295223,48.62214342],[-3.31288631,48.62198088],[-3.31285877,48.6216629],[-3.31275006,48.62151798],[-3.31226276,48.62125871],[-3.31199291,48.62118821],[-3.31175575,48.62123059],[-3.31100097,48.62150619],[-3.31086388,48.62149813],[-3.31076704,48.62141755],[-3.31057427,48.62088094],[-3.30876533,48.62044096],[-3.3081195,48.62018738],[-3.30796244,48.62000261],[-3.30727842,48.61874489],[-3.30714463,48.61861754],[-3.30698315,48.61855392],[-3.30621971,48.61848705],[-3.30578154,48.6183975],[-3.30611793,48.61781296],[-3.30639315,48.61667669],[-3.30658517,48.6164409],[-3.30719892,48.61589939],[-3.30732867,48.61565517],[-3.30690338,48.61371054],[-3.30694782,48.6133346],[-3.30718524,48.61295653],[-3.30718291,48.61281317],[-3.30707873,48.61276185]]]]}},{"type":"Feature","id":"begard_220040102_le_menhir","properties":{"zoneId":"begard_220040102_le_menhir","label":"Le Menhir","districtCode":"220040102","arrondissementCode":"22004","colorIndex":1,"parentZoneId":"begard_parent_22004_begard","parentCode":"22004","parentLabel":"Bégard","territoryType":"iris","source":"IGN / INSEE - Contours IRIS WFS Géoplateforme","sourceYear":"2026","officialId":"220040102","sourceCleabs":"IRIS____0000000220040102","communeCode":"22004","communeName":"Bégard","irisCode":"0102","irisType":"H","officialAreaM2":15083573.512084961,"labelLng":-3.2739362146275983,"labelLat":48.627929129899286,"bbox":[-3.31371051,48.60154405,-3.24175801,48.65501417]},"geometry":{"type":"MultiPolygon","coordinates":[[[[-3.24522313,48.64200734],[-3.2462229,48.6418285],[-3.24607078,48.64167228],[-3.24601553,48.64132418],[-3.24617296,48.64112642],[-3.24630819,48.64053823],[-3.24616827,48.64011969],[-3.24641269,48.63935162],[-3.24721343,48.63927345],[-3.24785581,48.63883907],[-3.24804893,48.63860966],[-3.24821412,48.63796485],[-3.24862625,48.63756331],[-3.24859456,48.63743505],[-3.24835304,48.63733946],[-3.24837365,48.63719311],[-3.24947617,48.63666776],[-3.25004467,48.63599181],[-3.25023741,48.63537262],[-3.249544,48.63439035],[-3.24953464,48.63407323],[-3.24994934,48.63312474],[-3.25029757,48.63288356],[-3.25041523,48.63237659],[-3.25074856,48.63224988],[-3.25085349,48.63196645],[-3.25109672,48.63179214],[-3.2510837,48.63155823],[-3.25077189,48.63133009],[-3.25071037,48.63095255],[-3.2504488,48.63059815],[-3.24828965,48.63055105],[-3.24728536,48.63030336],[-3.24715544,48.63011619],[-3.24729228,48.62961001],[-3.24719319,48.62922542],[-3.24728401,48.62904018],[-3.24808882,48.62839423],[-3.24850341,48.62829845],[-3.24844591,48.62793152],[-3.24864453,48.62730479],[-3.24835426,48.62700604],[-3.24847585,48.62672534],[-3.24808387,48.62632727],[-3.24815909,48.62620511],[-3.2484619,48.62625596],[-3.24891403,48.62595067],[-3.24919686,48.62524282],[-3.24885882,48.6246813],[-3.24913975,48.62449238],[-3.24918446,48.62436551],[-3.24881979,48.62403638],[-3.24868405,48.62347054],[-3.24812851,48.62310453],[-3.24802166,48.62249566],[-3.24809665,48.62222373],[-3.24821901,48.62213157],[-3.24810032,48.62132121],[-3.24829347,48.62083101],[-3.24789813,48.62012001],[-3.24802827,48.61993361],[-3.24802191,48.61934562],[-3.24818399,48.61877766],[-3.24800341,48.61838291],[-3.2470913,48.61794811],[-3.2468872,48.61775491],[-3.24680363,48.61754545],[-3.24686124,48.6172988],[-3.24697421,48.61717375],[-3.24777263,48.61697658],[-3.24920397,48.61698524],[-3.25036184,48.61660763],[-3.25133757,48.61719877],[-3.25209456,48.61740619],[-3.25254628,48.61787149],[-3.25353837,48.61825782],[-3.25420188,48.61833209],[-3.25581144,48.61835115],[-3.25585736,48.61740489],[-3.25620884,48.61658962],[-3.25594777,48.61548898],[-3.25617819,48.61429929],[-3.2580498,48.6141439],[-3.25927547,48.61395843],[-3.25977859,48.61482976],[-3.26061996,48.61517345],[-3.26137144,48.61559586],[-3.26274761,48.61612069],[-3.26292357,48.61626031],[-3.26634987,48.61742509],[-3.26679056,48.61767256],[-3.26715918,48.61801135],[-3.2686205,48.6178269],[-3.26813059,48.6139591],[-3.26799141,48.61357031],[-3.26840191,48.61265894],[-3.26847282,48.61259204],[-3.26947855,48.61289902],[-3.27064391,48.61150836],[-3.27147736,48.61077678],[-3.27229313,48.61080501],[-3.27285758,48.61071205],[-3.2739809,48.61089909],[-3.27637151,48.61044348],[-3.2745214,48.60777365],[-3.27571699,48.60681807],[-3.27640983,48.6061065],[-3.27758443,48.60557703],[-3.27785335,48.60474618],[-3.27783735,48.60429584],[-3.27796087,48.60385166],[-3.27867249,48.60319503],[-3.27870359,48.60329536],[-3.27981983,48.60258666],[-3.28103877,48.60154405],[-3.28150265,48.60178121],[-3.28195905,48.60219383],[-3.28262712,48.60262413],[-3.28356249,48.6025503],[-3.28390151,48.60267674],[-3.28491368,48.60317365],[-3.28654352,48.60429209],[-3.28799829,48.60496137],[-3.28741524,48.60513661],[-3.28692915,48.6055296],[-3.28657143,48.60560989],[-3.2878204,48.60626479],[-3.28786873,48.60615756],[-3.28805212,48.60615507],[-3.28927849,48.60650887],[-3.29118215,48.60691612],[-3.2919335,48.60749447],[-3.29211365,48.60748763],[-3.29220371,48.60719591],[-3.29239356,48.60707757],[-3.29268016,48.60726542],[-3.29350909,48.60757255],[-3.29463831,48.60779698],[-3.29477283,48.60772759],[-3.29521154,48.6078],[-3.297268,48.60841293],[-3.29762271,48.60858994],[-3.29766592,48.6086436],[-3.29743091,48.60873727],[-3.29601265,48.6091409],[-3.29487321,48.60964524],[-3.29344188,48.6114094],[-3.29339118,48.61151947],[-3.29456717,48.61166834],[-3.29530901,48.61291222],[-3.29503948,48.61355545],[-3.29709979,48.6140969],[-3.29834854,48.61386649],[-3.29889747,48.61416406],[-3.30042819,48.61384558],[-3.30276747,48.61360783],[-3.3043128,48.61324161],[-3.30635817,48.61294809],[-3.30707873,48.61276185],[-3.30718291,48.61281317],[-3.30718524,48.61295653],[-3.30694782,48.6133346],[-3.30690338,48.61371054],[-3.30732867,48.61565517],[-3.30719892,48.61589939],[-3.30658517,48.6164409],[-3.30639315,48.61667669],[-3.30611793,48.61781296],[-3.30578154,48.6183975],[-3.30621971,48.61848705],[-3.30698315,48.61855392],[-3.30714463,48.61861754],[-3.30727842,48.61874489],[-3.30796244,48.62000261],[-3.3081195,48.62018738],[-3.30876533,48.62044096],[-3.31057427,48.62088094],[-3.31076704,48.62141755],[-3.31086388,48.62149813],[-3.31100097,48.62150619],[-3.31175575,48.62123059],[-3.31199291,48.62118821],[-3.31226276,48.62125871],[-3.31275006,48.62151798],[-3.31285877,48.6216629],[-3.31288631,48.62198088],[-3.31295223,48.62214342],[-3.3133101,48.62251424],[-3.31371051,48.62318059],[-3.31264651,48.62334178],[-3.31241139,48.62333352],[-3.31184522,48.62321018],[-3.31146603,48.62316986],[-3.31087142,48.62314909],[-3.31060347,48.62317325],[-3.30808927,48.62407373],[-3.30722581,48.62453195],[-3.30645787,48.62505998],[-3.30610482,48.62524745],[-3.30508707,48.62554419],[-3.30365261,48.6260877],[-3.30344989,48.62611109],[-3.30313966,48.62608964],[-3.30194195,48.62584273],[-3.30175341,48.62584821],[-3.30146904,48.62604106],[-3.30137084,48.62605077],[-3.30136088,48.6261262],[-3.3010257,48.62651845],[-3.30083106,48.62701515],[-3.30014577,48.6305653],[-3.3000277,48.63076015],[-3.29784665,48.63258751],[-3.29746277,48.63281358],[-3.29148602,48.63463067],[-3.29104058,48.634832],[-3.28840308,48.63724818],[-3.28825118,48.63743398],[-3.28812574,48.63781689],[-3.28793847,48.63812728],[-3.28683086,48.63925243],[-3.28626298,48.63970386],[-3.28556433,48.64003045],[-3.28531787,48.64023387],[-3.28506475,48.64026891],[-3.28522849,48.64048674],[-3.28526294,48.64068253],[-3.28575044,48.6416331],[-3.28577895,48.64197178],[-3.28564268,48.64228758],[-3.28543043,48.64243596],[-3.28416825,48.64303596],[-3.28135821,48.6447482],[-3.28086697,48.64493206],[-3.28026108,48.64503444],[-3.27978962,48.6450431],[-3.2786859,48.64494618],[-3.27817785,48.64496759],[-3.2774707,48.64505456],[-3.27051763,48.64661611],[-3.26978287,48.64673425],[-3.26912036,48.64671685],[-3.26856967,48.6465988],[-3.26726184,48.64603791],[-3.26669356,48.64586394],[-3.26601251,48.64581682],[-3.26533205,48.64592215],[-3.26482597,48.64610762],[-3.26334518,48.6467947],[-3.26167696,48.64762245],[-3.26096792,48.64788717],[-3.25989677,48.64817546],[-3.25944563,48.64836523],[-3.25900233,48.64864302],[-3.25826024,48.64923429],[-3.25780686,48.64949636],[-3.25757403,48.64971254],[-3.25528546,48.65021732],[-3.25498418,48.65033964],[-3.25416712,48.6508058],[-3.25367028,48.6509781],[-3.25295201,48.65113227],[-3.25156687,48.65134675],[-3.25119969,48.65147613],[-3.25098322,48.65170407],[-3.25094708,48.65190267],[-3.25101384,48.65225557],[-3.25147825,48.65358642],[-3.25149742,48.65379204],[-3.25138837,48.65398455],[-3.25079357,48.65431719],[-3.25005962,48.65487549],[-3.24934352,48.65501417],[-3.24894129,48.65498749],[-3.24866491,48.65486305],[-3.24773045,48.65423542],[-3.2464798,48.65393568],[-3.24508404,48.65391424],[-3.24322103,48.65366376],[-3.24244693,48.65377297],[-3.24183011,48.65404716],[-3.24175801,48.65381996],[-3.24227108,48.65311089],[-3.2423535,48.65243345],[-3.24232029,48.65213292],[-3.24197018,48.6519952],[-3.24183338,48.65178493],[-3.24198279,48.65075659],[-3.2421284,48.65061901],[-3.24250264,48.65066253],[-3.24263859,48.65044425],[-3.24320819,48.6501969],[-3.24334001,48.6498074],[-3.24328196,48.64954969],[-3.24348608,48.64953716],[-3.24369652,48.64963439],[-3.24346359,48.6493263],[-3.24382862,48.64875764],[-3.24372734,48.64867363],[-3.24337235,48.64865437],[-3.24328739,48.64850183],[-3.24380752,48.64822819],[-3.24418159,48.6478377],[-3.24435252,48.64750209],[-3.24429044,48.6474043],[-3.24361721,48.6471491],[-3.24340448,48.64683905],[-3.24349222,48.64674151],[-3.24396575,48.64669319],[-3.24397951,48.64658058],[-3.24360423,48.6465281],[-3.24352974,48.64639486],[-3.24417299,48.6455454],[-3.24395629,48.64535015],[-3.24433214,48.6450886],[-3.24419309,48.64485949],[-3.24427027,48.64457121],[-3.24383897,48.6443349],[-3.24372905,48.64400772],[-3.24381026,48.64388977],[-3.24421611,48.64369702],[-3.24468151,48.64359227],[-3.24495342,48.6429969],[-3.2453185,48.64281622],[-3.24537295,48.64237213],[-3.2449543,48.64241216],[-3.24480728,48.64234409],[-3.24486793,48.64221368],[-3.24522313,48.64200734]]]]}}]}
