{"type":"FeatureCollection","metadata":{"generatedAt":"2026-07-14T18:44:55.586Z","source":"IGN / INSEE - Contours IRIS WFS Géoplateforme","datasetId":"STATISTICALUNITS.IRIS:contours_iris","datasetUrl":"https://geoservices.ign.fr/contoursiris","sourceFileUrl":"https://data.geopf.fr/wfs/ows?SERVICE=WFS&VERSION=2.0.0&REQUEST=GetFeature&TYPENAMES=STATISTICALUNITS.IRIS%3Acontours_iris&OUTPUTFORMAT=application%2Fjson&COUNT=1000&CQL_FILTER=code_insee%3D%2703023%27&SRSNAME=EPSG%3A4326","license":"Licence Ouverte / Open Licence 2.0","sourceYear":"2026","communeCode":"03023","communeName":"Bellerive-sur-Allier","featureCount":4,"parentCount":1,"parentContract":"technical commune group; not selectable and not displayed as a district","bbox":[3.36845614,46.09070177,3.43661085,46.14977011],"areaStatsM2":{"minimum":992858.3988037109,"average":4671496.319732666,"maximum":9702134.036499023}},"features":[{"type":"Feature","id":"bellerive_sur_allier_030230101_centre_ville_haut","properties":{"zoneId":"bellerive_sur_allier_030230101_centre_ville_haut","label":"Centre Ville Haut","districtCode":"030230101","arrondissementCode":"03023","colorIndex":0,"parentZoneId":"bellerive_sur_allier_parent_03023_bellerive_sur_allier","parentCode":"03023","parentLabel":"Bellerive-sur-Allier","territoryType":"iris","source":"IGN / INSEE - Contours IRIS WFS Géoplateforme","sourceYear":"2026","officialId":"030230101","sourceCleabs":"IRIS____0000000030230101","communeCode":"03023","communeName":"Bellerive-sur-Allier","irisCode":"0101","irisType":"H","officialAreaM2":2293778.910522461,"labelLng":3.3931309904744063,"labelLat":46.11601461451928,"bbox":[3.37334055,46.10677559,3.40510439,46.12607337]},"geometry":{"type":"MultiPolygon","coordinates":[[[[3.38228599,46.10997125],[3.37993847,46.10881839],[3.37538635,46.10729998],[3.37356769,46.10677559],[3.37334055,46.10726171],[3.37388714,46.10863047],[3.37408572,46.10965368],[3.37405927,46.10976183],[3.37425366,46.11016911],[3.37451896,46.11034113],[3.37524491,46.11066382],[3.37583986,46.1107618],[3.37602081,46.11090528],[3.37707308,46.11123228],[3.37815088,46.11169155],[3.37980991,46.11250637],[3.38110457,46.11323683],[3.38117377,46.11331945],[3.38111069,46.11355919],[3.3811177,46.11363661],[3.38118018,46.11368413],[3.38306529,46.11459539],[3.38359703,46.11490427],[3.38396806,46.11500657],[3.38409389,46.11522407],[3.38512365,46.11620032],[3.38598993,46.1173077],[3.38664976,46.11796372],[3.38730845,46.11845675],[3.38816982,46.11922553],[3.38857029,46.11963929],[3.38881626,46.11999505],[3.38899812,46.12044107],[3.38920981,46.121258],[3.38936395,46.12144568],[3.38942906,46.12167868],[3.38956662,46.12190244],[3.3895753,46.12203118],[3.38954274,46.12236988],[3.38946147,46.12259708],[3.38893226,46.12339133],[3.38997353,46.12376597],[3.39084249,46.12394579],[3.39279962,46.12453516],[3.39340934,46.12467983],[3.39377941,46.12481633],[3.39450315,46.1249696],[3.39533475,46.12535302],[3.39627142,46.12557849],[3.39698464,46.12570657],[3.39712837,46.12570246],[3.39729499,46.12564065],[3.39777164,46.12564978],[3.39794753,46.12561585],[3.39843211,46.12564657],[3.40003764,46.1259507],[3.40049052,46.12607337],[3.40133263,46.12522933],[3.40086366,46.12485368],[3.40079233,46.12466212],[3.40144531,46.12239686],[3.40151312,46.12175276],[3.4016373,46.12137862],[3.40170764,46.1212586],[3.40190208,46.12110843],[3.40259767,46.12078088],[3.40293407,46.12056447],[3.40307843,46.12029651],[3.40318328,46.11993684],[3.40321024,46.11884804],[3.40391979,46.11813412],[3.40408179,46.11815336],[3.40424734,46.11812665],[3.40444123,46.11772794],[3.40510336,46.11726002],[3.40510439,46.1172249],[3.40474547,46.11719196],[3.40400477,46.1170127],[3.40414623,46.11687982],[3.40416118,46.11679962],[3.4040174,46.11661733],[3.40395655,46.11644195],[3.40394236,46.11556942],[3.40382009,46.11496652],[3.40367198,46.11454561],[3.40323141,46.11361876],[3.40300507,46.11294689],[3.40291405,46.11289408],[3.4029768,46.11280021],[3.40257371,46.11044773],[3.40266437,46.11045101],[3.40273241,46.11037243],[3.4026865,46.11029154],[3.40258794,46.11026938],[3.40250794,46.11030568],[3.40129153,46.10968324],[3.40044866,46.10932512],[3.39821103,46.10819926],[3.39760866,46.10797264],[3.39590312,46.10754816],[3.39449048,46.10752517],[3.39366637,46.10760637],[3.39357712,46.10924289],[3.39350012,46.10970061],[3.39335112,46.11004602],[3.39271138,46.11093072],[3.39262413,46.11122279],[3.39260588,46.11138674],[3.39271276,46.11202933],[3.39273546,46.1130306],[3.39272998,46.11516031],[3.39266329,46.11525059],[3.39004299,46.11403764],[3.38681064,46.11230983],[3.38260982,46.11017908],[3.38222599,46.11009392],[3.38228599,46.10997125]]]]}},{"type":"Feature","id":"bellerive_sur_allier_030230102_centre_ville_bas","properties":{"zoneId":"bellerive_sur_allier_030230102_centre_ville_bas","label":"Centre Ville Bas","districtCode":"030230102","arrondissementCode":"03023","colorIndex":1,"parentZoneId":"bellerive_sur_allier_parent_03023_bellerive_sur_allier","parentCode":"03023","parentLabel":"Bellerive-sur-Allier","territoryType":"iris","source":"IGN / INSEE - Contours IRIS WFS Géoplateforme","sourceYear":"2026","officialId":"030230102","sourceCleabs":"IRIS____0000000030230102","communeCode":"03023","communeName":"Bellerive-sur-Allier","irisCode":"0102","irisType":"H","officialAreaM2":992858.3988037109,"labelLng":3.4076342217840185,"labelLat":46.115566241012885,"bbox":[3.40079233,46.10703852,3.41712967,46.12522933]},"geometry":{"type":"MultiPolygon","coordinates":[[[[3.41525124,46.12049758],[3.41712967,46.1192309],[3.41501586,46.11762495],[3.41443101,46.11733982],[3.41399276,46.11726398],[3.413868,46.1172041],[3.41377585,46.11700272],[3.41325027,46.11650576],[3.41279925,46.11593558],[3.41256188,46.11570772],[3.41153954,46.1144039],[3.41135574,46.11406778],[3.41117831,46.11336963],[3.41123404,46.11199437],[3.41099826,46.11145762],[3.40986555,46.11009566],[3.40840363,46.10815494],[3.40765767,46.10725172],[3.40717892,46.10711296],[3.40432497,46.10703852],[3.40439989,46.10719133],[3.40421799,46.10745403],[3.40423552,46.10790151],[3.4049974,46.10833644],[3.40510166,46.10842972],[3.40522518,46.10867602],[3.40530977,46.10873515],[3.40549809,46.10881462],[3.40584532,46.1086747],[3.40616244,46.10866366],[3.40624838,46.10872999],[3.40628049,46.10887036],[3.40637313,46.10896728],[3.40655296,46.10912512],[3.406731,46.10921544],[3.40627457,46.10964571],[3.40544687,46.10924344],[3.4046584,46.10994594],[3.40374862,46.10947192],[3.40292823,46.11023846],[3.40273241,46.11037243],[3.40266437,46.11045101],[3.40257371,46.11044773],[3.4029768,46.11280021],[3.40291405,46.11289408],[3.40300507,46.11294689],[3.40323141,46.11361876],[3.40367198,46.11454561],[3.40382009,46.11496652],[3.40394236,46.11556942],[3.40395655,46.11644195],[3.4040174,46.11661733],[3.40416118,46.11679962],[3.40414623,46.11687982],[3.40400477,46.1170127],[3.40474547,46.11719196],[3.40510439,46.1172249],[3.40510336,46.11726002],[3.40444123,46.11772794],[3.40424734,46.11812665],[3.40408179,46.11815336],[3.40391979,46.11813412],[3.40321024,46.11884804],[3.40318328,46.11993684],[3.40307843,46.12029651],[3.40293407,46.12056447],[3.40259767,46.12078088],[3.40190208,46.12110843],[3.40170764,46.1212586],[3.4016373,46.12137862],[3.40151312,46.12175276],[3.40144531,46.12239686],[3.40079233,46.12466212],[3.40086366,46.12485368],[3.40133263,46.12522933],[3.40658287,46.11998595],[3.40706427,46.1202922],[3.40868377,46.12039984],[3.40870344,46.1200855],[3.40982176,46.12018863],[3.4104901,46.12020873],[3.41080076,46.1198456],[3.41066751,46.1196885],[3.41108375,46.11872616],[3.4118429,46.11911602],[3.41219423,46.11882389],[3.41263732,46.11902759],[3.41239433,46.1192608],[3.41414289,46.12017205],[3.41458202,46.12036225],[3.41525124,46.12049758]]]]}},{"type":"Feature","id":"bellerive_sur_allier_030230103_exterieur_haut","properties":{"zoneId":"bellerive_sur_allier_030230103_exterieur_haut","label":"Extérieur Haut","districtCode":"030230103","arrondissementCode":"03023","colorIndex":2,"parentZoneId":"bellerive_sur_allier_parent_03023_bellerive_sur_allier","parentCode":"03023","parentLabel":"Bellerive-sur-Allier","territoryType":"iris","source":"IGN / INSEE - Contours IRIS WFS Géoplateforme","sourceYear":"2026","officialId":"030230103","sourceCleabs":"IRIS____0000000030230103","communeCode":"03023","communeName":"Bellerive-sur-Allier","irisCode":"0103","irisType":"H","officialAreaM2":9702134.036499023,"labelLng":3.390362060682871,"labelLat":46.13295790792661,"bbox":[3.36845614,46.10965368,3.41525124,46.14977011]},"geometry":{"type":"MultiPolygon","coordinates":[[[[3.4135559,46.13232914],[3.41405433,46.13040926],[3.41401061,46.12907668],[3.41397752,46.12881115],[3.41209853,46.12746814],[3.41177894,46.12681823],[3.41162224,46.12561033],[3.41184794,46.12479456],[3.41245375,46.12337768],[3.41309935,46.12209121],[3.41367313,46.12158755],[3.41525124,46.12049758],[3.41458202,46.12036225],[3.41414289,46.12017205],[3.41239433,46.1192608],[3.41263732,46.11902759],[3.41219423,46.11882389],[3.4118429,46.11911602],[3.41108375,46.11872616],[3.41066751,46.1196885],[3.41080076,46.1198456],[3.4104901,46.12020873],[3.40982176,46.12018863],[3.40870344,46.1200855],[3.40868377,46.12039984],[3.40706427,46.1202922],[3.40658287,46.11998595],[3.40133263,46.12522933],[3.40049052,46.12607337],[3.40003764,46.1259507],[3.39843211,46.12564657],[3.39794753,46.12561585],[3.39777164,46.12564978],[3.39729499,46.12564065],[3.39712837,46.12570246],[3.39698464,46.12570657],[3.39627142,46.12557849],[3.39533475,46.12535302],[3.39450315,46.1249696],[3.39377941,46.12481633],[3.39340934,46.12467983],[3.39279962,46.12453516],[3.39084249,46.12394579],[3.38997353,46.12376597],[3.38893226,46.12339133],[3.38946147,46.12259708],[3.38954274,46.12236988],[3.3895753,46.12203118],[3.38956662,46.12190244],[3.38942906,46.12167868],[3.38936395,46.12144568],[3.38920981,46.121258],[3.38899812,46.12044107],[3.38881626,46.11999505],[3.38857029,46.11963929],[3.38816982,46.11922553],[3.38730845,46.11845675],[3.38664976,46.11796372],[3.38598993,46.1173077],[3.38512365,46.11620032],[3.38409389,46.11522407],[3.38396806,46.11500657],[3.38359703,46.11490427],[3.38306529,46.11459539],[3.38118018,46.11368413],[3.3811177,46.11363661],[3.38111069,46.11355919],[3.38117377,46.11331945],[3.38110457,46.11323683],[3.37980991,46.11250637],[3.37815088,46.11169155],[3.37707308,46.11123228],[3.37602081,46.11090528],[3.37583986,46.1107618],[3.37524491,46.11066382],[3.37451896,46.11034113],[3.37425366,46.11016911],[3.37405927,46.10976183],[3.37408572,46.10965368],[3.37298004,46.10984282],[3.37253837,46.11000816],[3.37121256,46.11076982],[3.37122473,46.11199626],[3.37149522,46.11274459],[3.37133693,46.11461184],[3.37102989,46.11573577],[3.37064928,46.11632234],[3.37044096,46.11692185],[3.37009198,46.11720754],[3.36991834,46.11757371],[3.37014207,46.11791517],[3.37029818,46.11859814],[3.37004161,46.11876467],[3.37084728,46.11937438],[3.37147783,46.12012784],[3.37273252,46.12106475],[3.3734359,46.12185757],[3.37434365,46.122611],[3.37521414,46.12302596],[3.37568122,46.1235323],[3.37576322,46.12397057],[3.37609204,46.12433148],[3.37616236,46.12457799],[3.37714253,46.12549324],[3.37780539,46.12546132],[3.37862748,46.12560807],[3.37980093,46.12562396],[3.3797982,46.12710079],[3.37915342,46.12787827],[3.37830256,46.12826022],[3.37827795,46.1284476],[3.37569067,46.12869933],[3.37489301,46.12928999],[3.37396178,46.12966947],[3.37260248,46.13071671],[3.37133367,46.13212834],[3.37001527,46.13291968],[3.36985324,46.1330922],[3.36978291,46.13342021],[3.37019019,46.13484888],[3.37052012,46.13537009],[3.37123458,46.13605484],[3.37025119,46.13640294],[3.36963973,46.13677863],[3.36905311,46.13699576],[3.3688511,46.13719903],[3.36921202,46.13751213],[3.37010294,46.13785322],[3.37038529,46.1380396],[3.37136139,46.13948081],[3.37143413,46.1398939],[3.37113569,46.14077827],[3.37047829,46.14164759],[3.36927522,46.14247727],[3.36845614,46.1426204],[3.36918388,46.14315023],[3.37118412,46.14391724],[3.37165367,46.14400215],[3.37315277,46.14384055],[3.37367394,46.14389557],[3.37391283,46.14416043],[3.37412864,46.1448423],[3.37469442,46.14573733],[3.37485799,46.14635453],[3.37518205,46.14694689],[3.37517426,46.14713422],[3.37482819,46.14749286],[3.38417366,46.1488367],[3.38534819,46.14912088],[3.38572379,46.1492862],[3.38612992,46.14955407],[3.38619989,46.14973933],[3.39251218,46.1497231],[3.39255903,46.14957166],[3.39410036,46.14968338],[3.39712373,46.14977011],[3.3976196,46.14972065],[3.40072198,46.14802672],[3.4049352,46.14520402],[3.40960457,46.14280456],[3.41091632,46.1420353],[3.41111474,46.14171761],[3.41193263,46.13832607],[3.41234886,46.13700172],[3.4135559,46.13232914]]]]}},{"type":"Feature","id":"bellerive_sur_allier_030230104_exterieur_bas","properties":{"zoneId":"bellerive_sur_allier_030230104_exterieur_bas","label":"Extérieur Bas","districtCode":"030230104","arrondissementCode":"03023","colorIndex":3,"parentZoneId":"bellerive_sur_allier_parent_03023_bellerive_sur_allier","parentCode":"03023","parentLabel":"Bellerive-sur-Allier","territoryType":"iris","source":"IGN / INSEE - Contours IRIS WFS Géoplateforme","sourceYear":"2026","officialId":"030230104","sourceCleabs":"IRIS____0000000030230104","communeCode":"03023","communeName":"Bellerive-sur-Allier","irisCode":"0104","irisType":"H","officialAreaM2":5697213.933105469,"labelLng":3.4083350011947138,"labelLat":46.105479858863575,"bbox":[3.38222599,46.09070177,3.43661085,46.1192309]},"geometry":{"type":"MultiPolygon","coordinates":[[[[3.41712967,46.1192309],[3.4181877,46.11872993],[3.41992968,46.11809315],[3.42083293,46.11784667],[3.4241746,46.11728403],[3.42646456,46.11702781],[3.43068965,46.11668498],[3.43277898,46.11611693],[3.4343951,46.11515172],[3.43661085,46.11307027],[3.43500206,46.11265951],[3.42875777,46.11138654],[3.42686828,46.11082814],[3.42547566,46.11022643],[3.42431074,46.10993363],[3.42358045,46.10925287],[3.42320733,46.10871667],[3.42280989,46.10855155],[3.42263713,46.10814247],[3.42235092,46.10779324],[3.4223697,46.10703675],[3.42248518,46.10656536],[3.4228298,46.10592472],[3.42355618,46.10509895],[3.42413367,46.10460872],[3.42407467,46.10451259],[3.42474993,46.10293869],[3.4234038,46.10262944],[3.42300899,46.10212753],[3.42154207,46.10108751],[3.42079758,46.10089846],[3.42017071,46.10085576],[3.42006572,46.10066884],[3.42006497,46.09972422],[3.41997654,46.09950212],[3.4196808,46.09925288],[3.4192833,46.09907064],[3.41821063,46.09878734],[3.41708427,46.09808009],[3.41661022,46.09804311],[3.41542248,46.098115],[3.41512113,46.09797743],[3.4145143,46.09784007],[3.41411686,46.09766142],[3.41351502,46.09715483],[3.41233015,46.09519334],[3.41214002,46.09434936],[3.41205583,46.09416867],[3.41171191,46.09387365],[3.41160387,46.09327341],[3.41133662,46.09267284],[3.41043302,46.09143612],[3.41023102,46.09125045],[3.4096346,46.09110942],[3.40882806,46.09073322],[3.40780796,46.09070177],[3.40784203,46.09110777],[3.40823618,46.0915485],[3.40827842,46.09183471],[3.40718972,46.09163151],[3.40661879,46.09161104],[3.40352445,46.0916491],[3.4014837,46.09187066],[3.40102517,46.09182275],[3.39923979,46.0924576],[3.39809594,46.09321533],[3.39741374,46.09391741],[3.39689587,46.09479451],[3.3964417,46.09499421],[3.39681095,46.09522345],[3.39576408,46.09615912],[3.39581835,46.09650472],[3.39557871,46.09719984],[3.39555058,46.09760697],[3.39566134,46.09824774],[3.39536134,46.09937081],[3.39481824,46.10053074],[3.3942913,46.10087927],[3.39399346,46.10158629],[3.39348472,46.10194916],[3.3928538,46.1020612],[3.39286794,46.10150465],[3.39267425,46.10121085],[3.39177528,46.10094651],[3.39114381,46.1006173],[3.39069175,46.10076024],[3.38974859,46.10083372],[3.38913401,46.10051255],[3.38792999,46.10104166],[3.3881379,46.10133632],[3.3880383,46.10189677],[3.38753455,46.10223798],[3.38706475,46.1029888],[3.38640473,46.10356917],[3.38621352,46.10417585],[3.38599058,46.10432069],[3.38460324,46.10475494],[3.38508893,46.10515491],[3.38524376,46.10618816],[3.38519676,46.1066863],[3.38507588,46.10698658],[3.38449187,46.10770805],[3.38387912,46.1080253],[3.38360483,46.10805144],[3.38439528,46.10833603],[3.38534943,46.10833279],[3.38282376,46.10985328],[3.38228599,46.10997125],[3.38222599,46.11009392],[3.38260982,46.11017908],[3.38681064,46.11230983],[3.39004299,46.11403764],[3.39266329,46.11525059],[3.39272998,46.11516031],[3.39273546,46.1130306],[3.39271276,46.11202933],[3.39260588,46.11138674],[3.39262413,46.11122279],[3.39271138,46.11093072],[3.39335112,46.11004602],[3.39350012,46.10970061],[3.39357712,46.10924289],[3.39366637,46.10760637],[3.39449048,46.10752517],[3.39590312,46.10754816],[3.39760866,46.10797264],[3.39821103,46.10819926],[3.40044866,46.10932512],[3.40129153,46.10968324],[3.40250794,46.11030568],[3.40258794,46.11026938],[3.4026865,46.11029154],[3.40273241,46.11037243],[3.40292823,46.11023846],[3.40374862,46.10947192],[3.4046584,46.10994594],[3.40544687,46.10924344],[3.40627457,46.10964571],[3.406731,46.10921544],[3.40655296,46.10912512],[3.40637313,46.10896728],[3.40628049,46.10887036],[3.40624838,46.10872999],[3.40616244,46.10866366],[3.40584532,46.1086747],[3.40549809,46.10881462],[3.40530977,46.10873515],[3.40522518,46.10867602],[3.40510166,46.10842972],[3.4049974,46.10833644],[3.40423552,46.10790151],[3.40421799,46.10745403],[3.40439989,46.10719133],[3.40432497,46.10703852],[3.40717892,46.10711296],[3.40765767,46.10725172],[3.40840363,46.10815494],[3.40986555,46.11009566],[3.41099826,46.11145762],[3.41123404,46.11199437],[3.41117831,46.11336963],[3.41135574,46.11406778],[3.41153954,46.1144039],[3.41256188,46.11570772],[3.41279925,46.11593558],[3.41325027,46.11650576],[3.41377585,46.11700272],[3.413868,46.1172041],[3.41399276,46.11726398],[3.41443101,46.11733982],[3.41501586,46.11762495],[3.41712967,46.1192309]]]]}}]}
