{"type":"FeatureCollection","metadata":{"generatedAt":"2026-07-14T18:56:03.503Z","source":"IGN / INSEE - Contours IRIS WFS Géoplateforme","datasetId":"STATISTICALUNITS.IRIS:contours_iris","datasetUrl":"https://geoservices.ign.fr/contoursiris","sourceFileUrl":"https://data.geopf.fr/wfs/ows?SERVICE=WFS&VERSION=2.0.0&REQUEST=GetFeature&TYPENAMES=STATISTICALUNITS.IRIS%3Acontours_iris&OUTPUTFORMAT=application%2Fjson&COUNT=1000&CQL_FILTER=code_insee%3D%2734031%27&SRSNAME=EPSG%3A4326","license":"Licence Ouverte / Open Licence 2.0","sourceYear":"2026","communeCode":"34031","communeName":"Bessan","featureCount":2,"parentCount":1,"parentContract":"technical commune group; not selectable and not displayed as a district","sourceFeatureCount":2,"humanLabelContract":"one visible plate per unique official human place name","groupingContract":"only exact source-ID groups approved by the resolved curation, or source zones sharing the same official name and parent, are merged","groupedZoneCount":0,"groupedSourceFeatureCount":0,"curationStatus":"resolved","curationRevision":1,"curationSources":[{"id":"ign-insee-contours-iris-2026","provider":"IGN / INSEE - Contours IRIS WFS Géoplateforme","datasetUrl":"https://geoservices.ign.fr/contoursiris","role":"official geometry, source identifiers and source labels","vintage":"2026","license":"Licence Ouverte / Open Licence 2.0"},{"id":"ign-geoplateforme-toponymy-2026","provider":"IGN Géoplateforme - reverse geocoding, addresses and named places","datasetUrl":"https://geoservices.ign.fr/geocodage-geoplateforme","role":"official address, street and named-place evidence","vintage":"2026","license":"Licence Ouverte / Open Licence 2.0"},{"id":"guide-alpha-editorial-recovery-2026-07-14","provider":"Meewav Guide Alpha editorial review","datasetUrl":"docs/geospatial/france-semantic-recovery.md","role":"versioned mapping of exact official IRIS identifiers to coherent human place names","vintage":"2026-07-14","license":"Project documentation"}],"sourceCorrections":[{"operationId":"bessan-340310101-rename-route-d-agde","type":"rename","sourceIds":["340310101"],"expectedLabels":["Est"],"outputLabel":"Route d'Agde","evidenceRefs":["ign-insee-contours-iris-2026","ign-geoplateforme-toponymy-2026","guide-alpha-editorial-recovery-2026-07-14"],"rationale":"The exact official IGN BD TOPO named road has a deterministic evidence point strictly inside this exact IRIS. The 1:1 label is emitted without nearest assignment, invented geometry, split or dropped source cell."},{"operationId":"bessan-340310102-rename-route-de-montblanc","type":"rename","sourceIds":["340310102"],"expectedLabels":["Ouest"],"outputLabel":"Route de Montblanc","evidenceRefs":["ign-insee-contours-iris-2026","ign-geoplateforme-toponymy-2026","guide-alpha-editorial-recovery-2026-07-14"],"rationale":"The exact official IGN BD TOPO named road has a deterministic evidence point strictly inside this exact IRIS. The 1:1 label is emitted without nearest assignment, invented geometry, split or dropped source cell."}],"bbox":[3.36813189,43.32780298,3.45999818,43.38549056],"areaStatsM2":{"minimum":12704638.52331543,"average":13842840.125671387,"maximum":14981041.728027344}},"features":[{"type":"Feature","id":"bessan_340310101_est","properties":{"zoneId":"bessan_340310101_est","label":"Route d'Agde","districtCode":"340310101","arrondissementCode":"34031","colorIndex":0,"parentZoneId":"bessan_parent_34031_bessan","parentCode":"34031","parentLabel":"Bessan","territoryType":"iris","source":"IGN / INSEE - Contours IRIS WFS Géoplateforme","sourceYear":"2026","officialId":"340310101","sourceCleabs":"IRIS____0000000340310101","communeCode":"34031","communeName":"Bessan","irisCode":"0101","irisType":"H","officialAreaM2":12704638.52331543,"labelLng":3.43238932962984,"labelLat":43.34837062626292,"bbox":[3.40230944,43.32780298,3.45999818,43.37738979],"curationOperationId":"bessan-340310101-rename-route-d-agde","curationRevision":1,"curationEvidenceRefs":["ign-insee-contours-iris-2026","ign-geoplateforme-toponymy-2026","guide-alpha-editorial-recovery-2026-07-14"],"curationRationale":"The exact official IGN BD TOPO named road has a deterministic evidence point strictly inside this exact IRIS. The 1:1 label is emitted without nearest assignment, invented geometry, split or dropped source cell.","semanticLabelReviewed":true,"semanticLabelAccepted":false,"semanticResolution":"rename"},"geometry":{"type":"MultiPolygon","coordinates":[[[[3.43780216,43.37738979],[3.43807558,43.37669147],[3.4386243,43.37586788],[3.4412154,43.37344544],[3.44388433,43.37138787],[3.44477615,43.37045759],[3.44496456,43.37010326],[3.44506872,43.36985813],[3.44510474,43.36925344],[3.44490998,43.36750716],[3.44498631,43.36621498],[3.44511897,43.3653508],[3.44553138,43.36398797],[3.44501978,43.36336483],[3.44489958,43.36312693],[3.44493312,43.36283981],[3.44511534,43.36264564],[3.44576048,43.3623623],[3.44786786,43.36159072],[3.4490095,43.36125943],[3.44950207,43.36102168],[3.45013948,43.36054313],[3.45039651,43.36014263],[3.4503775,43.35976127],[3.44969083,43.35866748],[3.44905976,43.35711016],[3.44877895,43.35667231],[3.44822329,43.3562446],[3.44743179,43.35592851],[3.44621377,43.35609457],[3.44568399,43.3555039],[3.44570754,43.35328805],[3.44561053,43.35301856],[3.44554496,43.35123579],[3.44561077,43.35018117],[3.44701839,43.34904455],[3.44673535,43.34879023],[3.44679292,43.34858308],[3.44750719,43.34801607],[3.45002074,43.34660405],[3.45130669,43.34506575],[3.45392354,43.34318091],[3.45560495,43.34179654],[3.45623067,43.34112009],[3.45753527,43.33994779],[3.45999818,43.3379789],[3.45838958,43.33671458],[3.45805897,43.3362104],[3.45681507,43.33647655],[3.45387107,43.33683259],[3.45377693,43.33661528],[3.45127516,43.33521517],[3.45299595,43.33368764],[3.45172981,43.33284101],[3.45095482,43.33207598],[3.44959391,43.3321851],[3.449138,43.33187663],[3.44795082,43.33150552],[3.44723672,43.33222636],[3.44506958,43.33182508],[3.44372252,43.33133223],[3.44264892,43.33082116],[3.44150041,43.33001981],[3.4398732,43.32865635],[3.43929311,43.32805058],[3.43890059,43.32780298],[3.43842355,43.32810718],[3.43756061,43.32887264],[3.4373022,43.32892226],[3.43701565,43.32916091],[3.43623362,43.32955],[3.43502268,43.32911497],[3.43534467,43.32851004],[3.43322766,43.32802556],[3.43283455,43.32851562],[3.43168342,43.32832861],[3.43159431,43.32844051],[3.43118976,43.32855817],[3.42919852,43.32890704],[3.42808261,43.32897983],[3.42596481,43.32938402],[3.42445266,43.32986945],[3.42402676,43.32993499],[3.42294687,43.33038722],[3.42235603,43.33081504],[3.42212355,43.33121087],[3.42175571,43.3314651],[3.42050823,43.33141867],[3.42020169,43.33163037],[3.41866829,43.33209062],[3.41617595,43.33236112],[3.41398262,43.33240012],[3.41297083,43.33257042],[3.41344452,43.33418069],[3.41292933,43.33400274],[3.4125103,43.33451711],[3.41239309,43.33501594],[3.41213336,43.33540376],[3.41209879,43.33556762],[3.41220625,43.33577232],[3.41200256,43.33624359],[3.41112313,43.33718252],[3.41056816,43.33765152],[3.40948112,43.33817291],[3.40866466,43.33913678],[3.40865451,43.33927086],[3.40857551,43.33925317],[3.40722485,43.34032519],[3.40664554,43.34067192],[3.4061535,43.34115956],[3.40548447,43.3415453],[3.40399298,43.34170741],[3.4035953,43.34177007],[3.40350322,43.34182259],[3.40320799,43.34243452],[3.40230944,43.34508361],[3.40435912,43.34523071],[3.40487125,43.34531425],[3.40614641,43.34750002],[3.40667823,43.34879707],[3.40684572,43.3491248],[3.40695478,43.34920625],[3.40809234,43.34899775],[3.40902793,43.34899062],[3.41251974,43.34823429],[3.41457207,43.34753194],[3.41502033,43.34747085],[3.41524538,43.34756804],[3.41612015,43.34818901],[3.41687483,43.3489076],[3.41746838,43.3491626],[3.41793931,43.34984628],[3.41889655,43.35078178],[3.41894828,43.35094441],[3.41889793,43.35130985],[3.41874041,43.3516874],[3.41806218,43.35250867],[3.41724726,43.35318473],[3.41669159,43.3535701],[3.41667234,43.35363585],[3.41703769,43.35386744],[3.41720127,43.35415469],[3.41739522,43.35437884],[3.4178623,43.35486553],[3.41806184,43.3550114],[3.42012857,43.35558365],[3.42073564,43.35582059],[3.42079807,43.35643479],[3.42072981,43.35924366],[3.4209158,43.35938688],[3.42107161,43.35945014],[3.4219714,43.35941425],[3.42255265,43.35948665],[3.42258172,43.36025661],[3.42346342,43.36077675],[3.42370965,43.36173298],[3.4239205,43.36223774],[3.42395039,43.36227721],[3.4244084,43.36218725],[3.42322024,43.36678088],[3.42379489,43.36728692],[3.42442528,43.3676578],[3.42813645,43.36941275],[3.42893443,43.36992687],[3.42969846,43.3705158],[3.43011336,43.37091988],[3.43070847,43.3716741],[3.43363274,43.37679752],[3.43617188,43.3770878],[3.43780216,43.37738979]]]]}},{"type":"Feature","id":"bessan_340310102_ouest","properties":{"zoneId":"bessan_340310102_ouest","label":"Route de Montblanc","districtCode":"340310102","arrondissementCode":"34031","colorIndex":1,"parentZoneId":"bessan_parent_34031_bessan","parentCode":"34031","parentLabel":"Bessan","territoryType":"iris","source":"IGN / INSEE - Contours IRIS WFS Géoplateforme","sourceYear":"2026","officialId":"340310102","sourceCleabs":"IRIS____0000000340310102","communeCode":"34031","communeName":"Bessan","irisCode":"0102","irisType":"H","officialAreaM2":14981041.728027344,"labelLng":3.402138466923619,"labelLat":43.36448836555708,"bbox":[3.36813189,43.34036512,3.43882567,43.38549056],"curationOperationId":"bessan-340310102-rename-route-de-montblanc","curationRevision":1,"curationEvidenceRefs":["ign-insee-contours-iris-2026","ign-geoplateforme-toponymy-2026","guide-alpha-editorial-recovery-2026-07-14"],"curationRationale":"The exact official IGN BD TOPO named road has a deterministic evidence point strictly inside this exact IRIS. The 1:1 label is emitted without nearest assignment, invented geometry, split or dropped source cell.","semanticLabelReviewed":true,"semanticLabelAccepted":false,"semanticResolution":"rename"},"geometry":{"type":"MultiPolygon","coordinates":[[[[3.40664554,43.34067192],[3.40569468,43.34059003],[3.40309139,43.34056647],[3.39909574,43.340781],[3.39299141,43.34084743],[3.39240933,43.34080186],[3.391805,43.34056386],[3.39056636,43.34039111],[3.38904031,43.34036512],[3.38883014,43.34301162],[3.38874665,43.3430596],[3.39020187,43.34444695],[3.39066156,43.34497966],[3.39118489,43.34580901],[3.39006039,43.34685392],[3.3891342,43.34733495],[3.38823921,43.34769171],[3.38791844,43.34765148],[3.3875474,43.34783453],[3.38752835,43.3492173],[3.38742314,43.34988698],[3.3831493,43.35323347],[3.38278094,43.35345788],[3.38196546,43.35373964],[3.38071312,43.35451772],[3.37907089,43.35506595],[3.37720911,43.35635711],[3.37589646,43.35773539],[3.37540341,43.35813023],[3.37483418,43.35856762],[3.37396934,43.35905101],[3.37361987,43.35953711],[3.37234019,43.36069933],[3.37006877,43.36410948],[3.36914884,43.36525064],[3.36890303,43.36537653],[3.36813189,43.3654961],[3.36850567,43.36706197],[3.3694592,43.36942293],[3.36952134,43.36988332],[3.36988783,43.37087976],[3.37032207,43.37148012],[3.37059093,43.37205856],[3.37112176,43.372144],[3.37156727,43.3744878],[3.37352051,43.37501996],[3.37430335,43.37516569],[3.37598664,43.37533349],[3.376335,43.37485457],[3.37733772,43.37561847],[3.37857956,43.37673237],[3.3789175,43.37692191],[3.38029064,43.37624417],[3.38322347,43.3760647],[3.38388372,43.37594361],[3.38482737,43.37560199],[3.38585712,43.37559563],[3.38603922,43.37534668],[3.38630286,43.37457026],[3.3874175,43.37453569],[3.38916551,43.37423974],[3.38979994,43.37468277],[3.39400991,43.37714691],[3.39439535,43.37742079],[3.3946987,43.37777414],[3.39732987,43.37605432],[3.39751236,43.37622728],[3.39832801,43.37611183],[3.39895237,43.37686882],[3.39997921,43.37679486],[3.40005808,43.37873957],[3.4005577,43.37786778],[3.4012086,43.37711597],[3.40224798,43.37618909],[3.40335836,43.37659969],[3.4054025,43.37702658],[3.40677901,43.37774382],[3.40410178,43.37919775],[3.40423069,43.37946536],[3.40474221,43.37994476],[3.40463832,43.38025552],[3.40518992,43.38011941],[3.40599969,43.38003901],[3.4090442,43.38028484],[3.41068497,43.38102712],[3.41171475,43.38135698],[3.41419414,43.38173166],[3.41644257,43.38171764],[3.42009179,43.38266615],[3.42220682,43.3829584],[3.42552745,43.38315142],[3.42932677,43.3831886],[3.43004334,43.38351052],[3.43150219,43.38395993],[3.43148988,43.38412731],[3.43198842,43.38415591],[3.43202063,43.38433931],[3.43249809,43.3843536],[3.43281092,43.38478237],[3.43299387,43.38549056],[3.43471143,43.38539641],[3.43487616,43.38532288],[3.43708017,43.38366407],[3.43831616,43.38269916],[3.43790046,43.38172113],[3.4382293,43.38084806],[3.43882567,43.38028337],[3.43800602,43.37938345],[3.43782151,43.37896137],[3.43767984,43.37817207],[3.43780216,43.37738979],[3.43617188,43.3770878],[3.43363274,43.37679752],[3.43070847,43.3716741],[3.43011336,43.37091988],[3.42969846,43.3705158],[3.42893443,43.36992687],[3.42813645,43.36941275],[3.42442528,43.3676578],[3.42379489,43.36728692],[3.42322024,43.36678088],[3.4244084,43.36218725],[3.42395039,43.36227721],[3.4239205,43.36223774],[3.42370965,43.36173298],[3.42346342,43.36077675],[3.42258172,43.36025661],[3.42255265,43.35948665],[3.4219714,43.35941425],[3.42107161,43.35945014],[3.4209158,43.35938688],[3.42072981,43.35924366],[3.42079807,43.35643479],[3.42073564,43.35582059],[3.42012857,43.35558365],[3.41806184,43.3550114],[3.4178623,43.35486553],[3.41739522,43.35437884],[3.41720127,43.35415469],[3.41703769,43.35386744],[3.41667234,43.35363585],[3.41669159,43.3535701],[3.41724726,43.35318473],[3.41806218,43.35250867],[3.41874041,43.3516874],[3.41889793,43.35130985],[3.41894828,43.35094441],[3.41889655,43.35078178],[3.41793931,43.34984628],[3.41746838,43.3491626],[3.41687483,43.3489076],[3.41612015,43.34818901],[3.41524538,43.34756804],[3.41502033,43.34747085],[3.41457207,43.34753194],[3.41251974,43.34823429],[3.40902793,43.34899062],[3.40809234,43.34899775],[3.40695478,43.34920625],[3.40684572,43.3491248],[3.40667823,43.34879707],[3.40614641,43.34750002],[3.40487125,43.34531425],[3.40435912,43.34523071],[3.40230944,43.34508361],[3.40320799,43.34243452],[3.40350322,43.34182259],[3.4035953,43.34177007],[3.40399298,43.34170741],[3.40548447,43.3415453],[3.4061535,43.34115956],[3.40664554,43.34067192]]]]}}]}
