{"type":"FeatureCollection","metadata":{"generatedAt":"2026-07-14T17:30:22.354Z","source":"IGN / INSEE - Contours IRIS WFS Géoplateforme","datasetId":"STATISTICALUNITS.IRIS:contours_iris","datasetUrl":"https://geoservices.ign.fr/contoursiris","sourceFileUrl":"https://data.geopf.fr/wfs/ows?SERVICE=WFS&VERSION=2.0.0&REQUEST=GetFeature&TYPENAMES=STATISTICALUNITS.IRIS%3Acontours_iris&OUTPUTFORMAT=application%2Fjson&COUNT=1000&CQL_FILTER=code_insee%3D%2778073%27&SRSNAME=EPSG%3A4326","license":"Licence Ouverte / Open Licence 2.0","sourceYear":"2026","communeCode":"78073","communeName":"Bois-d'Arcy","featureCount":6,"parentCount":1,"parentContract":"technical commune group; not selectable and not displayed as a district","bbox":[1.99291889,48.79670311,2.05164362,48.81526538],"areaStatsM2":{"minimum":216609.65576171875,"average":925495.0454101562,"maximum":3250804.803527832}},"features":[{"type":"Feature","id":"bois_d_arcy_780730103_l_eglise","properties":{"zoneId":"bois_d_arcy_780730103_l_eglise","label":"L'Église","districtCode":"780730103","arrondissementCode":"78073","colorIndex":0,"parentZoneId":"bois_d_arcy_parent_78073_bois_d_arcy","parentCode":"78073","parentLabel":"Bois-d'Arcy","territoryType":"iris","source":"IGN / INSEE - Contours IRIS WFS Géoplateforme","sourceYear":"2026","officialId":"780730103","sourceCleabs":"IRIS____0000000780730103","communeCode":"78073","communeName":"Bois-d'Arcy","irisCode":"0103","irisType":"H","officialAreaM2":216609.65576171875,"labelLng":2.0208967466970384,"labelLat":48.80288945074019,"bbox":[2.01617993,48.80020686,2.02486466,48.80526854]},"geometry":{"type":"MultiPolygon","coordinates":[[[[2.02408144,48.80098588],[2.0219775,48.80020686],[2.02139762,48.80056279],[2.01990091,48.80109108],[2.01892444,48.80161104],[2.01872986,48.8016769],[2.01881784,48.80184941],[2.01883541,48.80207352],[2.01829237,48.80213382],[2.01782467,48.80224241],[2.01775469,48.80234347],[2.01774156,48.80260689],[2.01766429,48.80266112],[2.0177029,48.80270731],[2.0169766,48.80346046],[2.01617993,48.80397288],[2.01634279,48.80407316],[2.01669732,48.80462383],[2.01728927,48.8047879],[2.01744088,48.80526854],[2.01906101,48.80506418],[2.02146265,48.80457209],[2.02299817,48.80430223],[2.02387007,48.80405931],[2.02444143,48.80379595],[2.02461063,48.80363093],[2.0246396,48.80346567],[2.02461983,48.80168284],[2.02486466,48.8012594],[2.02408144,48.80098588]]]]}},{"type":"Feature","id":"bois_d_arcy_780730104_les_communes","properties":{"zoneId":"bois_d_arcy_780730104_les_communes","label":"Les Communes","districtCode":"780730104","arrondissementCode":"78073","colorIndex":1,"parentZoneId":"bois_d_arcy_parent_78073_bois_d_arcy","parentCode":"78073","parentLabel":"Bois-d'Arcy","territoryType":"iris","source":"IGN / INSEE - Contours IRIS WFS Géoplateforme","sourceYear":"2026","officialId":"780730104","sourceCleabs":"IRIS____0000000780730104","communeCode":"78073","communeName":"Bois-d'Arcy","irisCode":"0104","irisType":"H","officialAreaM2":436259.9437866211,"labelLng":2.0250526272062492,"labelLat":48.803195606202294,"bbox":[2.01479542,48.79842368,2.03290994,48.80905549]},"geometry":{"type":"MultiPolygon","coordinates":[[[[2.03290994,48.80199754],[2.03199343,48.80098006],[2.03169446,48.80028957],[2.03161152,48.79999029],[2.03158204,48.79945129],[2.03168161,48.79870826],[2.03180802,48.79842597],[2.03133145,48.79850215],[2.02965888,48.79890502],[2.02953033,48.79842368],[2.02799793,48.79861],[2.02734184,48.79896714],[2.02764672,48.79926464],[2.02602172,48.79952303],[2.02603403,48.79995756],[2.0255695,48.79997086],[2.02552371,48.80001726],[2.02553176,48.80089787],[2.02402703,48.80083793],[2.02408144,48.80098588],[2.02486466,48.8012594],[2.02461983,48.80168284],[2.0246396,48.80346567],[2.02461063,48.80363093],[2.02444143,48.80379595],[2.02387007,48.80405931],[2.02299817,48.80430223],[2.02146265,48.80457209],[2.01906101,48.80506418],[2.01744088,48.80526854],[2.01588025,48.80549495],[2.01607137,48.80604608],[2.01610155,48.80661207],[2.01605386,48.80683024],[2.01553964,48.80788553],[2.01532246,48.80813738],[2.01489777,48.80848916],[2.01479542,48.80857286],[2.01529696,48.80905549],[2.01796455,48.80782993],[2.0250751,48.80500635],[2.02686012,48.80420871],[2.02738133,48.80407804],[2.02759161,48.80397362],[2.02780987,48.80395201],[2.02882402,48.80359958],[2.02944846,48.80348233],[2.03290994,48.80199754]]]]}},{"type":"Feature","id":"bois_d_arcy_780730105_la_chapelle_saint_jean","properties":{"zoneId":"bois_d_arcy_780730105_la_chapelle_saint_jean","label":"La Chapelle Saint-Jean","districtCode":"780730105","arrondissementCode":"78073","colorIndex":2,"parentZoneId":"bois_d_arcy_parent_78073_bois_d_arcy","parentCode":"78073","parentLabel":"Bois-d'Arcy","territoryType":"iris","source":"IGN / INSEE - Contours IRIS WFS Géoplateforme","sourceYear":"2026","officialId":"780730105","sourceCleabs":"IRIS____0000000780730105","communeCode":"78073","communeName":"Bois-d'Arcy","irisCode":"0105","irisType":"H","officialAreaM2":873197.8891601562,"labelLng":2.04049011666895,"labelLat":48.80127785018092,"bbox":[2.03158204,48.79695349,2.05164362,48.80637417]},"geometry":{"type":"MultiPolygon","coordinates":[[[[2.04837546,48.80321538],[2.05164362,48.80109981],[2.05011879,48.79832825],[2.04382747,48.79907138],[2.04231897,48.7990701],[2.04121399,48.79889214],[2.03268488,48.79695349],[2.03180802,48.79842597],[2.03168161,48.79870826],[2.03158204,48.79945129],[2.03161152,48.79999029],[2.03169446,48.80028957],[2.03199343,48.80098006],[2.03290994,48.80199754],[2.03475619,48.80494191],[2.03497388,48.80524588],[2.03532031,48.80550951],[2.03523872,48.80557721],[2.03522481,48.80573989],[2.03538542,48.80625926],[2.03556269,48.80631915],[2.0355821,48.80637417],[2.03627462,48.80633119],[2.03638065,48.80589852],[2.04052784,48.80481209],[2.04087938,48.80524304],[2.04143028,48.80497763],[2.04121758,48.8045487],[2.04211043,48.80412413],[2.04262465,48.80377927],[2.04286265,48.8034232],[2.04317295,48.80328268],[2.04417772,48.80336177],[2.04579646,48.80314895],[2.04630735,48.80410102],[2.04738674,48.80389737],[2.04837546,48.80321538]]]]}},{"type":"Feature","id":"bois_d_arcy_780730106_la_butte_du_moulin","properties":{"zoneId":"bois_d_arcy_780730106_la_butte_du_moulin","label":"La Butte du Moulin","districtCode":"780730106","arrondissementCode":"78073","colorIndex":3,"parentZoneId":"bois_d_arcy_parent_78073_bois_d_arcy","parentCode":"78073","parentLabel":"Bois-d'Arcy","territoryType":"iris","source":"IGN / INSEE - Contours IRIS WFS Géoplateforme","sourceYear":"2026","officialId":"780730106","sourceCleabs":"IRIS____0000000780730106","communeCode":"78073","communeName":"Bois-d'Arcy","irisCode":"0106","irisType":"H","officialAreaM2":330351.8724975586,"labelLng":2.023969329576447,"labelLat":48.79827738958969,"bbox":[2.01276557,48.79670311,2.03268488,48.80098588]},"geometry":{"type":"MultiPolygon","coordinates":[[[[2.03268488,48.79695349],[2.03152814,48.79678133],[2.02975838,48.79670311],[2.02311725,48.79692694],[2.02310426,48.7968207],[2.01587863,48.79742611],[2.01577198,48.79737846],[2.01518867,48.79741053],[2.01276557,48.7976118],[2.01323173,48.79779914],[2.01411593,48.79783881],[2.01452875,48.79796724],[2.01458386,48.79786066],[2.01477101,48.79782713],[2.01512244,48.79796224],[2.01695406,48.79837127],[2.0219775,48.80020686],[2.02408144,48.80098588],[2.02402703,48.80083793],[2.02553176,48.80089787],[2.02552371,48.80001726],[2.0255695,48.79997086],[2.02603403,48.79995756],[2.02602172,48.79952303],[2.02764672,48.79926464],[2.02734184,48.79896714],[2.02799793,48.79861],[2.02953033,48.79842368],[2.02965888,48.79890502],[2.03133145,48.79850215],[2.03180802,48.79842597],[2.03268488,48.79695349]]]]}},{"type":"Feature","id":"bois_d_arcy_780730107_bois_de_la_couronne","properties":{"zoneId":"bois_d_arcy_780730107_bois_de_la_couronne","label":"Bois de la Couronne","districtCode":"780730107","arrondissementCode":"78073","colorIndex":4,"parentZoneId":"bois_d_arcy_parent_78073_bois_d_arcy","parentCode":"78073","parentLabel":"Bois-d'Arcy","territoryType":"iris","source":"IGN / INSEE - Contours IRIS WFS Géoplateforme","sourceYear":"2026","officialId":"780730107","sourceCleabs":"IRIS____0000000780730107","communeCode":"78073","communeName":"Bois-d'Arcy","irisCode":"0107","irisType":"D","officialAreaM2":3250804.803527832,"labelLng":2.010558647358471,"labelLat":48.80681071863526,"bbox":[1.99291889,48.79788911,2.03647557,48.81526538]},"geometry":{"type":"MultiPolygon","coordinates":[[[[2.00921237,48.79788911],[2.00138553,48.79851923],[1.99879676,48.79890502],[1.99526305,48.79922165],[1.99454555,48.79922101],[1.99439367,48.799119],[1.99291889,48.79997994],[1.99295397,48.80020779],[1.99476435,48.80595334],[1.9950213,48.80646908],[1.99506153,48.80692543],[1.99694931,48.81298996],[2.00029306,48.81382206],[2.00239888,48.81423],[2.00754624,48.81297227],[2.01193765,48.8147985],[2.01255467,48.81508242],[2.01260023,48.81526538],[2.01928512,48.81262482],[2.02011205,48.81210184],[2.02088917,48.81147501],[2.02171842,48.81140715],[2.02214462,48.81191791],[2.02274179,48.81173571],[2.02280616,48.81135308],[2.02344342,48.81135649],[2.02384851,48.81117722],[2.02412718,48.81149519],[2.0244219,48.81161002],[2.02465428,48.81185477],[2.02590033,48.81141791],[2.02602247,48.81078481],[2.02697716,48.81034287],[2.0270608,48.81038493],[2.02759784,48.81021211],[2.02846038,48.81032975],[2.02827468,48.80969864],[2.02897886,48.80954427],[2.02991816,48.80963464],[2.02978367,48.80947075],[2.03069152,48.80949431],[2.03062109,48.80932734],[2.03197385,48.80907837],[2.03175564,48.80887603],[2.03450233,48.80835769],[2.03642831,48.80788844],[2.03647557,48.8077629],[2.0355821,48.80637417],[2.03556269,48.80631915],[2.03538542,48.80625926],[2.03522481,48.80573989],[2.03523872,48.80557721],[2.03532031,48.80550951],[2.03497388,48.80524588],[2.03475619,48.80494191],[2.03290994,48.80199754],[2.02944846,48.80348233],[2.02882402,48.80359958],[2.02780987,48.80395201],[2.02759161,48.80397362],[2.02738133,48.80407804],[2.02686012,48.80420871],[2.0250751,48.80500635],[2.01796455,48.80782993],[2.01529696,48.80905549],[2.01479542,48.80857286],[2.01489777,48.80848916],[2.014592,48.8083841],[2.01476482,48.80817416],[2.0138909,48.8079421],[2.01390801,48.80746914],[2.01432202,48.80746626],[2.01431709,48.80707856],[2.013779,48.80687445],[2.01380801,48.8067083],[2.01440063,48.8066934],[2.01455916,48.80586992],[2.01340198,48.80600159],[2.01281006,48.8050451],[2.01421522,48.80461598],[2.01123906,48.80078949],[2.00921237,48.79788911]]]]}},{"type":"Feature","id":"bois_d_arcy_780730108_la_croix_blanche_les_langots","properties":{"zoneId":"bois_d_arcy_780730108_la_croix_blanche_les_langots","label":"La Croix Blanche-Les Langots","districtCode":"780730108","arrondissementCode":"78073","colorIndex":5,"parentZoneId":"bois_d_arcy_parent_78073_bois_d_arcy","parentCode":"78073","parentLabel":"Bois-d'Arcy","territoryType":"iris","source":"IGN / INSEE - Contours IRIS WFS Géoplateforme","sourceYear":"2026","officialId":"780730108","sourceCleabs":"IRIS____0000000780730108","communeCode":"78073","communeName":"Bois-d'Arcy","irisCode":"0108","irisType":"H","officialAreaM2":445746.1077270508,"labelLng":2.0150881595251344,"labelLat":48.80145814958217,"bbox":[2.00921237,48.7976118,2.0219775,48.80848916]},"geometry":{"type":"MultiPolygon","coordinates":[[[[2.01276557,48.7976118],[2.00921237,48.79788911],[2.01123906,48.80078949],[2.01421522,48.80461598],[2.01281006,48.8050451],[2.01340198,48.80600159],[2.01455916,48.80586992],[2.01440063,48.8066934],[2.01380801,48.8067083],[2.013779,48.80687445],[2.01431709,48.80707856],[2.01432202,48.80746626],[2.01390801,48.80746914],[2.0138909,48.8079421],[2.01476482,48.80817416],[2.014592,48.8083841],[2.01489777,48.80848916],[2.01532246,48.80813738],[2.01553964,48.80788553],[2.01605386,48.80683024],[2.01610155,48.80661207],[2.01607137,48.80604608],[2.01588025,48.80549495],[2.01744088,48.80526854],[2.01728927,48.8047879],[2.01669732,48.80462383],[2.01634279,48.80407316],[2.01617993,48.80397288],[2.0169766,48.80346046],[2.0177029,48.80270731],[2.01766429,48.80266112],[2.01774156,48.80260689],[2.01775469,48.80234347],[2.01782467,48.80224241],[2.01829237,48.80213382],[2.01883541,48.80207352],[2.01881784,48.80184941],[2.01872986,48.8016769],[2.01892444,48.80161104],[2.01990091,48.80109108],[2.02139762,48.80056279],[2.0219775,48.80020686],[2.01695406,48.79837127],[2.01512244,48.79796224],[2.01477101,48.79782713],[2.01458386,48.79786066],[2.01452875,48.79796724],[2.01411593,48.79783881],[2.01323173,48.79779914],[2.01276557,48.7976118]]]]}}]}
