{"type":"FeatureCollection","metadata":{"generatedAt":"2026-07-14T18:44:55.388Z","source":"IGN / INSEE - Contours IRIS WFS Géoplateforme","datasetId":"STATISTICALUNITS.IRIS:contours_iris","datasetUrl":"https://geoservices.ign.fr/contoursiris","sourceFileUrl":"https://data.geopf.fr/wfs/ows?SERVICE=WFS&VERSION=2.0.0&REQUEST=GetFeature&TYPENAMES=STATISTICALUNITS.IRIS%3Acontours_iris&OUTPUTFORMAT=application%2Fjson&COUNT=1000&CQL_FILTER=code_insee%3D%2764140%27&SRSNAME=EPSG%3A4326","license":"Licence Ouverte / Open Licence 2.0","sourceYear":"2026","communeCode":"64140","communeName":"Boucau","featureCount":3,"parentCount":1,"parentContract":"technical commune group; not selectable and not displayed as a district","bbox":[-1.5017597,43.51194852,-1.46096932,43.53976174],"areaStatsM2":{"minimum":1635475.060913086,"average":1914982.745300293,"maximum":2426767.088256836}},"features":[{"type":"Feature","id":"boucau_641400101_couronne_boisee","properties":{"zoneId":"boucau_641400101_couronne_boisee","label":"Couronne Boisée","districtCode":"641400101","arrondissementCode":"64140","colorIndex":0,"parentZoneId":"boucau_parent_64140_boucau","parentCode":"64140","parentLabel":"Boucau","territoryType":"iris","source":"IGN / INSEE - Contours IRIS WFS Géoplateforme","sourceYear":"2026","officialId":"641400101","sourceCleabs":"IRIS____0000000641400101","communeCode":"64140","communeName":"Boucau","irisCode":"0101","irisType":"H","officialAreaM2":1682706.086730957,"labelLng":-1.4754918211815935,"labelLat":43.53257437529063,"bbox":[-1.48823503,43.52708154,-1.46096932,43.53976174]},"geometry":{"type":"MultiPolygon","coordinates":[[[[-1.48823503,43.53370864],[-1.48630063,43.53605877],[-1.48525651,43.5366625],[-1.48302496,43.53747934],[-1.48225062,43.53785831],[-1.48098371,43.53868749],[-1.47912054,43.53916279],[-1.47821218,43.53976174],[-1.47820902,43.53967356],[-1.47797694,43.53955698],[-1.47761092,43.53947026],[-1.47732192,43.53952906],[-1.47696897,43.53949857],[-1.47637565,43.53927705],[-1.47575969,43.53866985],[-1.47582928,43.53843448],[-1.47563509,43.53827938],[-1.4753683,43.53773347],[-1.47496871,43.53740661],[-1.4747781,43.53734509],[-1.47421955,43.53744204],[-1.4739263,43.53741449],[-1.47369395,43.53694465],[-1.47362859,43.53656705],[-1.47370211,43.53620716],[-1.47361336,43.53600625],[-1.47383561,43.53564743],[-1.47373957,43.53543241],[-1.47361397,43.53539434],[-1.47365393,43.53528725],[-1.47389388,43.53523499],[-1.47394771,43.53487681],[-1.47383475,43.53481028],[-1.47361811,43.53489131],[-1.47327953,43.53482237],[-1.47274669,43.53450191],[-1.47249327,43.53444478],[-1.47235337,43.53420724],[-1.47174095,43.53383508],[-1.47138298,43.53377145],[-1.47109934,43.5341373],[-1.47041392,43.53370237],[-1.46957996,43.53355471],[-1.46936468,43.53386007],[-1.46896665,43.53393415],[-1.46878823,43.53429927],[-1.46854525,43.53434443],[-1.46816442,43.53422585],[-1.46792025,43.53388987],[-1.46775282,43.53380755],[-1.46746295,43.5338231],[-1.46724796,43.53400498],[-1.466368,43.53374385],[-1.46613996,43.53358293],[-1.46575173,43.53351241],[-1.46544326,43.53357558],[-1.46539425,43.53345504],[-1.46528648,43.53345497],[-1.46493217,43.53359753],[-1.46480947,43.53351697],[-1.46492008,43.5333466],[-1.46448613,43.53324552],[-1.4644855,43.53309415],[-1.46329839,43.53288079],[-1.46191513,43.53272505],[-1.46194026,43.53314396],[-1.46096932,43.53312985],[-1.46098703,43.5323379],[-1.4612332,43.53142571],[-1.4616619,43.53066281],[-1.46232046,43.52981385],[-1.46358408,43.52820913],[-1.46396206,43.52708154],[-1.46410371,43.52718295],[-1.46412625,43.52726582],[-1.46456883,43.52743053],[-1.46523971,43.52780752],[-1.46553722,43.52792233],[-1.46612296,43.52795317],[-1.46825748,43.5279283],[-1.46835881,43.527989],[-1.46845296,43.52797341],[-1.46847409,43.52792658],[-1.46977756,43.52790168],[-1.47172144,43.527735],[-1.47248967,43.52773936],[-1.47284756,43.52777055],[-1.47346491,43.5279208],[-1.47433828,43.52805057],[-1.4758072,43.52836843],[-1.4766913,43.52850855],[-1.47881261,43.52877419],[-1.47911828,43.52878679],[-1.47917334,43.52877821],[-1.47919962,43.52870232],[-1.47932795,43.52869612],[-1.47937755,43.52874454],[-1.47935795,43.52879491],[-1.48006512,43.52890537],[-1.48160695,43.52902999],[-1.48199625,43.52897154],[-1.48303724,43.52867797],[-1.48412816,43.52850038],[-1.48446207,43.52835139],[-1.48465548,43.52860743],[-1.4849969,43.52882401],[-1.48548024,43.52930326],[-1.48555507,43.52945246],[-1.48541364,43.52949706],[-1.48510393,43.5294486],[-1.48502543,43.53039357],[-1.48482424,43.53135353],[-1.48695619,43.53176908],[-1.48665115,43.53230348],[-1.48658163,43.53266593],[-1.48663922,43.53302221],[-1.48657344,43.53328988],[-1.48823503,43.53370864]]]]}},{"type":"Feature","id":"boucau_641400102_haut_boucau","properties":{"zoneId":"boucau_641400102_haut_boucau","label":"Haut Boucau","districtCode":"641400102","arrondissementCode":"64140","colorIndex":1,"parentZoneId":"boucau_parent_64140_boucau","parentCode":"64140","parentLabel":"Boucau","territoryType":"iris","source":"IGN / INSEE - Contours IRIS WFS Géoplateforme","sourceYear":"2026","officialId":"641400102","sourceCleabs":"IRIS____0000000641400102","communeCode":"64140","communeName":"Boucau","irisCode":"0102","irisType":"H","officialAreaM2":2426767.088256836,"labelLng":-1.4753437465326547,"labelLat":43.52117832864046,"bbox":[-1.48726679,43.51194852,-1.46396206,43.52878679]},"geometry":{"type":"MultiPolygon","coordinates":[[[[-1.46396206,43.52708154],[-1.46464767,43.52223482],[-1.46460388,43.52149678],[-1.46420988,43.52030005],[-1.46422051,43.51952913],[-1.46441259,43.51898954],[-1.46577771,43.51632176],[-1.46848661,43.51688868],[-1.4691198,43.51652825],[-1.46928327,43.51633767],[-1.4692362,43.51600348],[-1.46934602,43.51588721],[-1.46967782,43.51585461],[-1.47019283,43.51612354],[-1.47026829,43.51596362],[-1.47038861,43.51602985],[-1.47063992,43.51601318],[-1.47072405,43.51586913],[-1.47099842,43.51591008],[-1.47110977,43.51576581],[-1.47121817,43.51593345],[-1.47132372,43.51593721],[-1.47118535,43.51568699],[-1.47123917,43.5156307],[-1.47135047,43.51567657],[-1.47142228,43.51559701],[-1.47139232,43.51546668],[-1.47148242,43.51546296],[-1.47132909,43.5152431],[-1.47142021,43.51518888],[-1.47155575,43.51521212],[-1.47174577,43.51547373],[-1.47193446,43.51549568],[-1.4720065,43.51533951],[-1.4718576,43.51524022],[-1.47199722,43.5151092],[-1.47215317,43.51520369],[-1.47214375,43.51492382],[-1.47232525,43.51499654],[-1.47242986,43.51514722],[-1.47317418,43.51467223],[-1.47362798,43.51469586],[-1.47395029,43.51452575],[-1.47418545,43.51461968],[-1.47434461,43.5145329],[-1.47446113,43.51458216],[-1.47523942,43.51392372],[-1.47651067,43.51368018],[-1.47681785,43.51374499],[-1.47775471,43.51358013],[-1.48299411,43.51326891],[-1.48313239,43.51332718],[-1.48313581,43.51367218],[-1.48370748,43.51373054],[-1.48429535,43.51410723],[-1.48485151,43.51423652],[-1.48547123,43.51397477],[-1.48580422,43.51370415],[-1.48604545,43.51335263],[-1.48594244,43.51308023],[-1.48650126,43.51267321],[-1.4867251,43.51211513],[-1.48726679,43.51194852],[-1.48708104,43.51312051],[-1.48687724,43.51334883],[-1.48539545,43.51565136],[-1.4848818,43.51733437],[-1.48479217,43.51872316],[-1.48515398,43.52008878],[-1.48560007,43.52254853],[-1.48573253,43.52359381],[-1.4856969,43.52494434],[-1.48562145,43.52513581],[-1.48540775,43.52533299],[-1.48462758,43.52573025],[-1.48357387,43.52605049],[-1.48227584,43.52657278],[-1.4817204,43.52700938],[-1.48053587,43.52770088],[-1.47997333,43.52796744],[-1.47974015,43.52839162],[-1.47932795,43.52869612],[-1.47919962,43.52870232],[-1.47917334,43.52877821],[-1.47911828,43.52878679],[-1.47881261,43.52877419],[-1.4766913,43.52850855],[-1.4758072,43.52836843],[-1.47433828,43.52805057],[-1.47346491,43.5279208],[-1.47284756,43.52777055],[-1.47248967,43.52773936],[-1.47172144,43.527735],[-1.46977756,43.52790168],[-1.46847409,43.52792658],[-1.46845296,43.52797341],[-1.46835881,43.527989],[-1.46825748,43.5279283],[-1.46612296,43.52795317],[-1.46553722,43.52792233],[-1.46523971,43.52780752],[-1.46456883,43.52743053],[-1.46412625,43.52726582],[-1.46410371,43.52718295],[-1.46396206,43.52708154]]]]}},{"type":"Feature","id":"boucau_641400103_bas_boucau","properties":{"zoneId":"boucau_641400103_bas_boucau","label":"Bas Boucau","districtCode":"641400103","arrondissementCode":"64140","colorIndex":2,"parentZoneId":"boucau_parent_64140_boucau","parentCode":"64140","parentLabel":"Boucau","territoryType":"iris","source":"IGN / INSEE - Contours IRIS WFS Géoplateforme","sourceYear":"2026","officialId":"641400103","sourceCleabs":"IRIS____0000000641400103","communeCode":"64140","communeName":"Boucau","irisCode":"0103","irisType":"H","officialAreaM2":1635475.060913086,"labelLng":-1.4898620676564733,"labelLat":43.524039006170376,"bbox":[-1.5017597,43.51194852,-1.47932795,43.53370864]},"geometry":{"type":"MultiPolygon","coordinates":[[[[-1.49205127,43.51194947],[-1.49089204,43.51658355],[-1.49138478,43.52114018],[-1.49513243,43.52372079],[-1.49685688,43.5248181],[-1.5017597,43.52711898],[-1.50092887,43.52848002],[-1.50083896,43.52908664],[-1.49625034,43.52905897],[-1.49404975,43.52849416],[-1.49272088,43.53018848],[-1.4902763,43.53141263],[-1.49133542,43.53217351],[-1.49038165,43.53351882],[-1.48859824,43.53322139],[-1.48823503,43.53370864],[-1.48657344,43.53328988],[-1.48663922,43.53302221],[-1.48658163,43.53266593],[-1.48665115,43.53230348],[-1.48695619,43.53176908],[-1.48482424,43.53135353],[-1.48502543,43.53039357],[-1.48510393,43.5294486],[-1.48541364,43.52949706],[-1.48555507,43.52945246],[-1.48548024,43.52930326],[-1.4849969,43.52882401],[-1.48465548,43.52860743],[-1.48446207,43.52835139],[-1.48412816,43.52850038],[-1.48303724,43.52867797],[-1.48199625,43.52897154],[-1.48160695,43.52902999],[-1.48006512,43.52890537],[-1.47935795,43.52879491],[-1.47937755,43.52874454],[-1.47932795,43.52869612],[-1.47974015,43.52839162],[-1.47997333,43.52796744],[-1.48053587,43.52770088],[-1.4817204,43.52700938],[-1.48227584,43.52657278],[-1.48357387,43.52605049],[-1.48462758,43.52573025],[-1.48540775,43.52533299],[-1.48562145,43.52513581],[-1.4856969,43.52494434],[-1.48573253,43.52359381],[-1.48560007,43.52254853],[-1.48515398,43.52008878],[-1.48479217,43.51872316],[-1.4848818,43.51733437],[-1.48539545,43.51565136],[-1.48687724,43.51334883],[-1.48708104,43.51312051],[-1.48726679,43.51194852],[-1.49205127,43.51194947]]]]}}]}
