{"type":"FeatureCollection","metadata":{"generatedAt":"2026-07-14T19:00:28.525Z","source":"IGN / INSEE - Contours IRIS WFS Géoplateforme","datasetId":"STATISTICALUNITS.IRIS:contours_iris","datasetUrl":"https://geoservices.ign.fr/contoursiris","sourceFileUrl":"https://data.geopf.fr/wfs/ows?SERVICE=WFS&VERSION=2.0.0&REQUEST=GetFeature&TYPENAMES=STATISTICALUNITS.IRIS%3Acontours_iris&OUTPUTFORMAT=application%2Fjson&COUNT=1000&CQL_FILTER=code_insee%3D%2795091%27&SRSNAME=EPSG%3A4326","license":"Licence Ouverte / Open Licence 2.0","sourceYear":"2026","communeCode":"95091","communeName":"Bouffémont","featureCount":3,"parentCount":1,"parentContract":"technical commune group; not selectable and not displayed as a district","sourceFeatureCount":3,"humanLabelContract":"one visible plate per unique official human place name","groupingContract":"only exact source-ID groups approved by the resolved curation, or source zones sharing the same official name and parent, are merged","groupedZoneCount":0,"groupedSourceFeatureCount":0,"curationStatus":"resolved","curationRevision":1,"curationSources":[{"id":"ign-insee-contours-iris-2026","provider":"IGN / INSEE - Contours IRIS WFS Géoplateforme","datasetUrl":"https://geoservices.ign.fr/contoursiris","role":"official geometry, source identifiers and source labels","vintage":"2026","license":"Licence Ouverte / Open Licence 2.0"},{"id":"ign-geoplateforme-toponymy-2026","provider":"IGN Géoplateforme - reverse geocoding, addresses and named places","datasetUrl":"https://geoservices.ign.fr/geocodage-geoplateforme","role":"official address, street and named-place evidence","vintage":"2026","license":"Licence Ouverte / Open Licence 2.0"},{"id":"guide-alpha-editorial-recovery-2026-07-14","provider":"Meewav Guide Alpha editorial review","datasetUrl":"docs/geospatial/france-semantic-recovery.md","role":"versioned mapping of exact official IRIS identifiers to coherent human place names","vintage":"2026-07-14","license":"Project documentation"}],"sourceCorrections":[{"operationId":"bouffemont-950910101-rename-clairiere","type":"rename","sourceIds":["950910101"],"expectedLabels":["Village"],"outputLabel":"Clairière","evidenceRefs":["ign-insee-contours-iris-2026","ign-geoplateforme-toponymy-2026","guide-alpha-editorial-recovery-2026-07-14"],"rationale":"The exact official IGN BD TOPO habitation toponym has a deterministic evidence point strictly inside this exact IRIS. The 1:1 label is emitted without nearest assignment, invented geometry, split or dropped source cell."}],"bbox":[2.27461975,49.03040779,2.32440324,49.05087483],"areaStatsM2":{"minimum":440723.55584716797,"average":1508488.9249064128,"maximum":3543136.7287597656}},"features":[{"type":"Feature","id":"bouffemont_950910101_village","properties":{"zoneId":"bouffemont_950910101_village","label":"Clairière","districtCode":"950910101","arrondissementCode":"95091","colorIndex":0,"parentZoneId":"bouffemont_parent_95091_bouffemont","parentCode":"95091","parentLabel":"Bouffémont","territoryType":"iris","source":"IGN / INSEE - Contours IRIS WFS Géoplateforme","sourceYear":"2026","officialId":"950910101","sourceCleabs":"IRIS____0000000950910101","communeCode":"95091","communeName":"Bouffémont","irisCode":"0101","irisType":"H","officialAreaM2":3543136.7287597656,"labelLng":2.2931605128807737,"labelLat":49.04056535514824,"bbox":[2.27461975,49.03040779,2.31469118,49.05029948],"curationOperationId":"bouffemont-950910101-rename-clairiere","curationRevision":1,"curationEvidenceRefs":["ign-insee-contours-iris-2026","ign-geoplateforme-toponymy-2026","guide-alpha-editorial-recovery-2026-07-14"],"curationRationale":"The exact official IGN BD TOPO habitation toponym has a deterministic evidence point strictly inside this exact IRIS. The 1:1 label is emitted without nearest assignment, invented geometry, split or dropped source cell.","semanticLabelReviewed":true,"semanticLabelAccepted":false,"semanticResolution":"rename"},"geometry":{"type":"MultiPolygon","coordinates":[[[[2.31469118,49.0390036],[2.31225969,49.03743048],[2.31106776,49.03882101],[2.31027007,49.03997731],[2.30835869,49.03858694],[2.3076132,49.03828591],[2.30691734,49.03877555],[2.30611809,49.03819905],[2.3057082,49.03724712],[2.30152881,49.03682274],[2.30113392,49.034255],[2.30097393,49.03405085],[2.2991955,49.03510515],[2.2983706,49.0341094],[2.29821457,49.03310677],[2.29731201,49.03239652],[2.29555736,49.03199958],[2.29368907,49.03040779],[2.28663397,49.03260872],[2.28542525,49.0330907],[2.28342684,49.03311836],[2.28326243,49.03353641],[2.28290776,49.03376809],[2.27728144,49.03553997],[2.27585171,49.0361671],[2.27538675,49.0361643],[2.27461975,49.03634131],[2.2751985,49.03985171],[2.27666352,49.04180372],[2.2780547,49.04218796],[2.27938755,49.04293331],[2.28010666,49.04315703],[2.28119891,49.04369859],[2.28192958,49.04437377],[2.28370508,49.04566213],[2.2846216,49.0465533],[2.28446149,49.04844336],[2.28455356,49.04871097],[2.28481616,49.04901287],[2.28619471,49.05023408],[2.29026633,49.04630534],[2.2937028,49.0479954],[2.29482062,49.04868626],[2.29511306,49.04850724],[2.29651459,49.0493625],[2.2974552,49.04980951],[2.2985169,49.05010435],[2.29990417,49.05029948],[2.30076157,49.04890442],[2.30077801,49.0486995],[2.30060313,49.04847998],[2.30368586,49.04730735],[2.30429623,49.04698179],[2.30680145,49.04694232],[2.30746533,49.04670426],[2.30784801,49.04662734],[2.30883173,49.04661412],[2.30943426,49.04656543],[2.31071019,49.04638573],[2.31123456,49.04635097],[2.31269986,49.04633149],[2.31411151,49.04623165],[2.31012568,49.04487262],[2.30990588,49.04432554],[2.3098254,49.04379456],[2.30966818,49.04358234],[2.30951365,49.04347714],[2.30920058,49.04356706],[2.30808573,49.04367394],[2.30792592,49.04365684],[2.30707548,49.04260527],[2.30727767,49.04231599],[2.30665274,49.04209928],[2.30653345,49.04201856],[2.30658494,49.04195321],[2.30654326,49.04189902],[2.30674983,49.0416916],[2.3073233,49.04135681],[2.30925994,49.0406486],[2.30984212,49.04037679],[2.31082081,49.04114493],[2.31097891,49.0410847],[2.31128571,49.04105318],[2.31300521,49.04114126],[2.31301113,49.04007394],[2.31469118,49.0390036]]]]}},{"type":"Feature","id":"bouffemont_950910102_trait_d_union","properties":{"zoneId":"bouffemont_950910102_trait_d_union","label":"Trait d'Union","districtCode":"950910102","arrondissementCode":"95091","colorIndex":1,"parentZoneId":"bouffemont_parent_95091_bouffemont","parentCode":"95091","parentLabel":"Bouffémont","territoryType":"iris","source":"IGN / INSEE - Contours IRIS WFS Géoplateforme","sourceYear":"2026","officialId":"950910102","sourceCleabs":"IRIS____0000000950910102","communeCode":"95091","communeName":"Bouffémont","irisCode":"0102","irisType":"H","officialAreaM2":440723.55584716797,"labelLng":2.31371665821877,"labelLat":49.04281760439506,"bbox":[2.30653345,49.0390036,2.32033702,49.04623519]},"geometry":{"type":"MultiPolygon","coordinates":[[[[2.32033702,49.04225212],[2.31898014,49.04121036],[2.31702695,49.0404826],[2.31469118,49.0390036],[2.31301113,49.04007394],[2.31300521,49.04114126],[2.31128571,49.04105318],[2.31097891,49.0410847],[2.31082081,49.04114493],[2.30984212,49.04037679],[2.30925994,49.0406486],[2.3073233,49.04135681],[2.30674983,49.0416916],[2.30654326,49.04189902],[2.30658494,49.04195321],[2.30653345,49.04201856],[2.30665274,49.04209928],[2.30727767,49.04231599],[2.30707548,49.04260527],[2.30792592,49.04365684],[2.30808573,49.04367394],[2.30920058,49.04356706],[2.30951365,49.04347714],[2.30966818,49.04358234],[2.3098254,49.04379456],[2.30990588,49.04432554],[2.31012568,49.04487262],[2.31411151,49.04623165],[2.3144165,49.04623519],[2.31554578,49.04607528],[2.31827207,49.04555127],[2.31785656,49.0451092],[2.31768102,49.04503987],[2.31775503,49.04450796],[2.31784579,49.04447161],[2.31832575,49.04448423],[2.31836783,49.04440444],[2.3182643,49.04416376],[2.31799118,49.04402553],[2.31785609,49.04400049],[2.31795861,49.04390126],[2.31794209,49.04370154],[2.31799005,49.04359032],[2.31827012,49.04319986],[2.31867478,49.04311223],[2.31892789,49.04258674],[2.31989831,49.04305982],[2.31993674,49.0423191],[2.3201109,49.04228501],[2.3201418,49.04222314],[2.32033702,49.04225212]]]]}},{"type":"Feature","id":"bouffemont_950910103_hauts_champs","properties":{"zoneId":"bouffemont_950910103_hauts_champs","label":"Hauts Champs","districtCode":"950910103","arrondissementCode":"95091","colorIndex":2,"parentZoneId":"bouffemont_parent_95091_bouffemont","parentCode":"95091","parentLabel":"Bouffémont","territoryType":"iris","source":"IGN / INSEE - Contours IRIS WFS Géoplateforme","sourceYear":"2026","officialId":"950910103","sourceCleabs":"IRIS____0000000950910103","communeCode":"95091","communeName":"Bouffémont","irisCode":"0103","irisType":"H","officialAreaM2":541606.4901123047,"labelLng":2.317665235635845,"labelLat":49.04704700083074,"bbox":[2.30673768,49.04222314,2.32440324,49.05087483]},"geometry":{"type":"MultiPolygon","coordinates":[[[[2.32182607,49.05087483],[2.32440324,49.0445851],[2.32277366,49.04399055],[2.32178648,49.04353988],[2.32134453,49.04302753],[2.32033702,49.04225212],[2.3201418,49.04222314],[2.3201109,49.04228501],[2.31993674,49.0423191],[2.31989831,49.04305982],[2.31892789,49.04258674],[2.31867478,49.04311223],[2.31827012,49.04319986],[2.31799005,49.04359032],[2.31794209,49.04370154],[2.31795861,49.04390126],[2.31785609,49.04400049],[2.31799118,49.04402553],[2.3182643,49.04416376],[2.31836783,49.04440444],[2.31832575,49.04448423],[2.31784579,49.04447161],[2.31775503,49.04450796],[2.31768102,49.04503987],[2.31785656,49.0451092],[2.31827207,49.04555127],[2.31554578,49.04607528],[2.3144165,49.04623519],[2.31411151,49.04623165],[2.31269986,49.04633149],[2.31123456,49.04635097],[2.31071019,49.04638573],[2.30943426,49.04656543],[2.30883173,49.04661412],[2.30784801,49.04662734],[2.30746533,49.04670426],[2.30680145,49.04694232],[2.30673768,49.04720991],[2.30866791,49.0478217],[2.31255525,49.04940051],[2.31698227,49.0493871],[2.3171241,49.04942117],[2.31723481,49.04963671],[2.31761276,49.04991941],[2.32047605,49.0506478],[2.32182607,49.05087483]]]]}}]}
