{"type":"FeatureCollection","metadata":{"generatedAt":"2026-07-14T16:01:40.796Z","source":"IGN / INSEE - Contours IRIS WFS Géoplateforme","datasetId":"STATISTICALUNITS.IRIS:contours_iris","datasetUrl":"https://geoservices.ign.fr/contoursiris","sourceFileUrl":"https://data.geopf.fr/wfs/ows?SERVICE=WFS&VERSION=2.0.0&REQUEST=GetFeature&TYPENAMES=STATISTICALUNITS.IRIS%3Acontours_iris&OUTPUTFORMAT=application%2Fjson&COUNT=1000&CQL_FILTER=code_insee%3D%2762193%27&SRSNAME=EPSG%3A4326","license":"Licence Ouverte / Open Licence 2.0","sourceYear":"2026","communeCode":"62193","communeName":"Calais","featureCount":31,"parentCount":1,"parentContract":"technical commune group; not selectable and not displayed as a district","bbox":[1.80586847,50.92189849,1.93209457,50.98270268],"areaStatsM2":{"minimum":58341.781982421875,"average":1178678.5201435704,"maximum":10128361.540222168}},"features":[{"type":"Feature","id":"calais_621930101_petit_courgain_mivoix","properties":{"zoneId":"calais_621930101_petit_courgain_mivoix","label":"Petit Courgain Mivoix","districtCode":"621930101","arrondissementCode":"62193","colorIndex":0,"parentZoneId":"calais_parent_62193_calais","parentCode":"62193","parentLabel":"Calais","territoryType":"iris","source":"IGN / INSEE - Contours IRIS WFS Géoplateforme","sourceYear":"2026","officialId":"621930101","sourceCleabs":"IRIS____0000000621930101","communeCode":"62193","communeName":"Calais","irisCode":"0101","irisType":"A","officialAreaM2":10128361.540222168,"labelLng":1.8889585893306853,"labelLat":50.96728010019248,"bbox":[1.85552419,50.95165917,1.92066035,50.98270268]},"geometry":{"type":"MultiPolygon","coordinates":[[[[1.91813489,50.96662352],[1.91828622,50.96632701],[1.91822852,50.96610584],[1.91849968,50.96500032],[1.91851818,50.96408189],[1.91805148,50.96398636],[1.91781499,50.96382104],[1.91791303,50.96342719],[1.91827818,50.96316213],[1.91860575,50.96305731],[1.9190625,50.96269437],[1.91907941,50.96197956],[1.92066035,50.96139129],[1.92056511,50.96106663],[1.92060435,50.95984427],[1.91968634,50.95855264],[1.91965036,50.9583774],[1.91729003,50.95803494],[1.90340047,50.95582908],[1.8912119,50.95395344],[1.87783865,50.95187488],[1.87738312,50.95166984],[1.87709364,50.95165917],[1.87703286,50.95183535],[1.87768462,50.95196679],[1.87746133,50.95299015],[1.87719713,50.95381219],[1.87690567,50.95445637],[1.87606566,50.95511445],[1.87535892,50.95773473],[1.87524679,50.95798311],[1.87522164,50.95815332],[1.87528292,50.95833329],[1.87545824,50.95855824],[1.87585436,50.95881747],[1.87594092,50.95894742],[1.87590758,50.95985944],[1.87535456,50.96095069],[1.87519402,50.96114122],[1.87476423,50.96149169],[1.87463764,50.96168791],[1.87416507,50.96336655],[1.86991837,50.96258457],[1.86939732,50.96244709],[1.8690402,50.96228419],[1.86862532,50.96197543],[1.86813082,50.96129456],[1.86780842,50.96104226],[1.86740253,50.96083854],[1.86560836,50.96015754],[1.8649435,50.95978729],[1.86457545,50.95941974],[1.86441352,50.95898319],[1.8648267,50.95799209],[1.8647834,50.95746063],[1.86468204,50.95710895],[1.86395878,50.95575048],[1.86397001,50.95569407],[1.86255073,50.95539948],[1.85959699,50.95463248],[1.85749361,50.95425803],[1.85667321,50.95404958],[1.85621302,50.95436025],[1.85827917,50.9559885],[1.85907456,50.95648467],[1.86130307,50.95803988],[1.86145263,50.9582081],[1.8614861,50.95842191],[1.86142121,50.95865097],[1.85972519,50.96262927],[1.8596165,50.96278527],[1.85947371,50.96287995],[1.85652079,50.96354642],[1.85552419,50.96382884],[1.86013088,50.97073255],[1.86160957,50.97286128],[1.86406495,50.98270268],[1.87356779,50.98219657],[1.87491355,50.98188126],[1.88005817,50.97952337],[1.88078074,50.97904902],[1.88151771,50.97818548],[1.88313074,50.97532038],[1.88344688,50.97516174],[1.88376758,50.97511706],[1.88460392,50.97514156],[1.8849152,50.97494609],[1.88485227,50.97490068],[1.88521682,50.97461059],[1.88522585,50.97446087],[1.88502487,50.97448957],[1.8849358,50.97434256],[1.88440358,50.97431629],[1.88423438,50.97419457],[1.88495505,50.97335508],[1.88535599,50.97302495],[1.88579275,50.97274538],[1.88612781,50.97269275],[1.88822992,50.97272222],[1.88946799,50.97288841],[1.89211795,50.9735838],[1.893896,50.97426066],[1.89540358,50.97502661],[1.89565779,50.975289],[1.89846154,50.97700734],[1.89882178,50.9771666],[1.89912686,50.97718543],[1.89960779,50.97741303],[1.90000839,50.97748203],[1.90174759,50.97819163],[1.90206776,50.97817112],[1.90211462,50.97823701],[1.90189637,50.97827546],[1.9025978,50.9786216],[1.90298369,50.97910131],[1.9033245,50.97975734],[1.90408043,50.98059911],[1.90443408,50.98086593],[1.90569425,50.98146094],[1.90785474,50.98221539],[1.90829982,50.9823323],[1.90912816,50.98240321],[1.90970137,50.98237951],[1.91020539,50.98220539],[1.91110555,50.98087575],[1.91235177,50.98002993],[1.91317286,50.98043176],[1.91300008,50.98060069],[1.91373942,50.98045103],[1.91576587,50.97698453],[1.91732081,50.97408441],[1.9178883,50.97412341],[1.91751521,50.97246064],[1.91763655,50.97243389],[1.91762215,50.97237725],[1.91773319,50.97190905],[1.91785024,50.96965848],[1.91803741,50.96895502],[1.91794318,50.9686492],[1.91813489,50.96662352]]]]}},{"type":"Feature","id":"calais_621930201_petit_courgain_voltaire","properties":{"zoneId":"calais_621930201_petit_courgain_voltaire","label":"Petit Courgain Voltaire","districtCode":"621930201","arrondissementCode":"62193","colorIndex":1,"parentZoneId":"calais_parent_62193_calais","parentCode":"62193","parentLabel":"Calais","territoryType":"iris","source":"IGN / INSEE - Contours IRIS WFS Géoplateforme","sourceYear":"2026","officialId":"621930201","sourceCleabs":"IRIS____0000000621930201","communeCode":"62193","communeName":"Calais","irisCode":"0201","irisType":"H","officialAreaM2":425135.1987915039,"labelLng":1.8658124459874939,"labelLat":50.95445129571371,"bbox":[1.85644469,50.94922656,1.87541977,50.95794372]},"geometry":{"type":"MultiPolygon","coordinates":[[[[1.85644469,50.95398111],[1.85667321,50.95404958],[1.85749361,50.95425803],[1.85959699,50.95463248],[1.86255073,50.95539948],[1.86397001,50.95569407],[1.869426,50.9567967],[1.87420742,50.95784188],[1.87485707,50.95794372],[1.87541977,50.95579221],[1.87048065,50.95469362],[1.87094726,50.95378192],[1.85961311,50.95125691],[1.86156437,50.94933161],[1.86135801,50.94922656],[1.85803995,50.95247962],[1.8575086,50.95279772],[1.85725862,50.95310852],[1.85673582,50.95361059],[1.85644469,50.95398111]]]]}},{"type":"Feature","id":"calais_621930202_petit_courgain_mollien","properties":{"zoneId":"calais_621930202_petit_courgain_mollien","label":"Petit Courgain Mollien","districtCode":"621930202","arrondissementCode":"62193","colorIndex":2,"parentZoneId":"calais_parent_62193_calais","parentCode":"62193","parentLabel":"Calais","territoryType":"iris","source":"IGN / INSEE - Contours IRIS WFS Géoplateforme","sourceYear":"2026","officialId":"621930202","sourceCleabs":"IRIS____0000000621930202","communeCode":"62193","communeName":"Calais","irisCode":"0202","irisType":"H","officialAreaM2":420914.2671508789,"labelLng":1.870201753689762,"labelLat":50.959478982767,"bbox":[1.86395878,50.95569407,1.87594092,50.96336655]},"geometry":{"type":"MultiPolygon","coordinates":[[[[1.87485707,50.95794372],[1.87420742,50.95784188],[1.869426,50.9567967],[1.86397001,50.95569407],[1.86395878,50.95575048],[1.86468204,50.95710895],[1.8647834,50.95746063],[1.8648267,50.95799209],[1.86441352,50.95898319],[1.86457545,50.95941974],[1.8649435,50.95978729],[1.86560836,50.96015754],[1.86740253,50.96083854],[1.86780842,50.96104226],[1.86813082,50.96129456],[1.86862532,50.96197543],[1.8690402,50.96228419],[1.86939732,50.96244709],[1.86991837,50.96258457],[1.87416507,50.96336655],[1.87463764,50.96168791],[1.87476423,50.96149169],[1.87519402,50.96114122],[1.87535456,50.96095069],[1.87590758,50.95985944],[1.87594092,50.95894742],[1.87585436,50.95881747],[1.87545824,50.95855824],[1.87528292,50.95833329],[1.87522164,50.95815332],[1.87524679,50.95798311],[1.87485707,50.95794372]]]]}},{"type":"Feature","id":"calais_621930203_petit_courgain_anatole_france","properties":{"zoneId":"calais_621930203_petit_courgain_anatole_france","label":"Petit Courgain Anatole France","districtCode":"621930203","arrondissementCode":"62193","colorIndex":3,"parentZoneId":"calais_parent_62193_calais","parentCode":"62193","parentLabel":"Calais","territoryType":"iris","source":"IGN / INSEE - Contours IRIS WFS Géoplateforme","sourceYear":"2026","officialId":"621930203","sourceCleabs":"IRIS____0000000621930203","communeCode":"62193","communeName":"Calais","irisCode":"0203","irisType":"H","officialAreaM2":422701.4215698242,"labelLng":1.8699325045284627,"labelLat":50.952339176916546,"bbox":[1.85961311,50.94933161,1.87768462,50.95798311]},"geometry":{"type":"MultiPolygon","coordinates":[[[[1.87709364,50.95165917],[1.87664188,50.95160218],[1.87241427,50.95096038],[1.86195571,50.94935849],[1.86180995,50.94939843],[1.86156437,50.94933161],[1.85961311,50.95125691],[1.87094726,50.95378192],[1.87048065,50.95469362],[1.87541977,50.95579221],[1.87485707,50.95794372],[1.87524679,50.95798311],[1.87535892,50.95773473],[1.87606566,50.95511445],[1.87690567,50.95445637],[1.87719713,50.95381219],[1.87746133,50.95299015],[1.87768462,50.95196679],[1.87703286,50.95183535],[1.87709364,50.95165917]]]]}},{"type":"Feature","id":"calais_621930301_matisse_andrique","properties":{"zoneId":"calais_621930301_matisse_andrique","label":"Matisse Andrique","districtCode":"621930301","arrondissementCode":"62193","colorIndex":4,"parentZoneId":"calais_parent_62193_calais","parentCode":"62193","parentLabel":"Calais","territoryType":"iris","source":"IGN / INSEE - Contours IRIS WFS Géoplateforme","sourceYear":"2026","officialId":"621930301","sourceCleabs":"IRIS____0000000621930301","communeCode":"62193","communeName":"Calais","irisCode":"0301","irisType":"H","officialAreaM2":58341.781982421875,"labelLng":1.8990583394766516,"labelLat":50.94850507523141,"bbox":[1.89650769,50.94745311,1.90166353,50.94979596]},"geometry":{"type":"MultiPolygon","coordinates":[[[[1.89650769,50.94876943],[1.89962667,50.94952267],[1.90122256,50.94979596],[1.90166353,50.94956929],[1.90121083,50.9491679],[1.90075564,50.94855747],[1.9005358,50.94809444],[1.90040458,50.94747609],[1.89708354,50.94745311],[1.89702332,50.94792893],[1.89650769,50.94876943]]]]}},{"type":"Feature","id":"calais_621930302_matisse_toulouse_lautrec","properties":{"zoneId":"calais_621930302_matisse_toulouse_lautrec","label":"Matisse Toulouse-Lautrec","districtCode":"621930302","arrondissementCode":"62193","colorIndex":5,"parentZoneId":"calais_parent_62193_calais","parentCode":"62193","parentLabel":"Calais","territoryType":"iris","source":"IGN / INSEE - Contours IRIS WFS Géoplateforme","sourceYear":"2026","officialId":"621930302","sourceCleabs":"IRIS____0000000621930302","communeCode":"62193","communeName":"Calais","irisCode":"0302","irisType":"H","officialAreaM2":257935.2169189453,"labelLng":1.9029194286744362,"labelLat":50.948602115,"bbox":[1.89326224,50.94630403,1.90584233,50.9509002]},"geometry":{"type":"MultiPolygon","coordinates":[[[[1.89336889,50.94635364],[1.89329005,50.94638703],[1.89326224,50.94648816],[1.89340269,50.94655848],[1.89381643,50.94820022],[1.89382874,50.94847752],[1.89375256,50.94871099],[1.89382031,50.94872953],[1.89409911,50.94883696],[1.8962364,50.94934924],[1.89935279,50.95009259],[1.90089054,50.95036269],[1.90256993,50.95058557],[1.90387098,50.9509002],[1.90584233,50.95089325],[1.90484212,50.94800127],[1.9046901,50.94722845],[1.90465168,50.9465858],[1.89429443,50.94630442],[1.89394653,50.94630403],[1.89360007,50.94636645],[1.89336889,50.94635364]],[[1.89650769,50.94876943],[1.89702332,50.94792893],[1.89708354,50.94745311],[1.90040458,50.94747609],[1.9005358,50.94809444],[1.90075564,50.94855747],[1.90121083,50.9491679],[1.90166353,50.94956929],[1.90122256,50.94979596],[1.89962667,50.94952267],[1.89650769,50.94876943]]]]}},{"type":"Feature","id":"calais_621930401_mouchotte","properties":{"zoneId":"calais_621930401_mouchotte","label":"Mouchotte","districtCode":"621930401","arrondissementCode":"62193","colorIndex":6,"parentZoneId":"calais_parent_62193_calais","parentCode":"62193","parentLabel":"Calais","territoryType":"iris","source":"IGN / INSEE - Contours IRIS WFS Géoplateforme","sourceYear":"2026","officialId":"621930401","sourceCleabs":"IRIS____0000000621930401","communeCode":"62193","communeName":"Calais","irisCode":"0401","irisType":"H","officialAreaM2":164232.0697631836,"labelLng":1.8948397706787694,"labelLat":50.95238433165241,"bbox":[1.89162805,50.94872953,1.89937515,50.95498315]},"geometry":{"type":"MultiPolygon","coordinates":[[[[1.89382031,50.94872953],[1.89330977,50.94959428],[1.89299329,50.95022482],[1.89162805,50.95376067],[1.89180862,50.95387979],[1.89891109,50.95498315],[1.89937515,50.95384168],[1.89725073,50.95350808],[1.8970819,50.95343572],[1.89690837,50.95325478],[1.89622722,50.95207449],[1.89610035,50.95196751],[1.89576787,50.95184616],[1.8957681,50.95170712],[1.89558681,50.95142832],[1.89431738,50.95109863],[1.89419018,50.9510069],[1.89445045,50.95054093],[1.89522961,50.95069225],[1.89524577,50.95041161],[1.89532318,50.95025082],[1.89549212,50.95012492],[1.89591436,50.94997615],[1.8962364,50.94934924],[1.89409911,50.94883696],[1.89382031,50.94872953]]]]}},{"type":"Feature","id":"calais_621930501_normandie_niemen","properties":{"zoneId":"calais_621930501_normandie_niemen","label":"Normandie-Niémen","districtCode":"621930501","arrondissementCode":"62193","colorIndex":7,"parentZoneId":"calais_parent_62193_calais","parentCode":"62193","parentLabel":"Calais","territoryType":"iris","source":"IGN / INSEE - Contours IRIS WFS Géoplateforme","sourceYear":"2026","officialId":"621930501","sourceCleabs":"IRIS____0000000621930501","communeCode":"62193","communeName":"Calais","irisCode":"0501","irisType":"H","officialAreaM2":1585362.3649902344,"labelLng":1.9102815008747323,"labelLat":50.952009631441335,"bbox":[1.8912119,50.9465858,1.92190368,50.9583774]},"geometry":{"type":"MultiPolygon","coordinates":[[[[1.91965036,50.9583774],[1.9189588,50.95771477],[1.91867383,50.95729786],[1.91866847,50.95616931],[1.919009,50.95539898],[1.91996295,50.95417554],[1.92038234,50.95336911],[1.92084441,50.95341168],[1.92100849,50.95206389],[1.92083711,50.95204268],[1.92094201,50.9509357],[1.92190368,50.94718075],[1.92140311,50.94708224],[1.91850639,50.94700787],[1.91850328,50.94695492],[1.91257523,50.94679404],[1.911689,50.94679978],[1.91079843,50.94674358],[1.90465168,50.9465858],[1.9046901,50.94722845],[1.90484212,50.94800127],[1.90584233,50.95089325],[1.90387098,50.9509002],[1.90256993,50.95058557],[1.90089054,50.95036269],[1.89935279,50.95009259],[1.8962364,50.94934924],[1.89591436,50.94997615],[1.89549212,50.95012492],[1.89532318,50.95025082],[1.89524577,50.95041161],[1.89522961,50.95069225],[1.89445045,50.95054093],[1.89419018,50.9510069],[1.89431738,50.95109863],[1.89558681,50.95142832],[1.8957681,50.95170712],[1.89576787,50.95184616],[1.89610035,50.95196751],[1.89622722,50.95207449],[1.89690837,50.95325478],[1.8970819,50.95343572],[1.89725073,50.95350808],[1.89937515,50.95384168],[1.89891109,50.95498315],[1.89180862,50.95387979],[1.89162805,50.95376067],[1.89134758,50.95379137],[1.8912119,50.95395344],[1.90340047,50.95582908],[1.91729003,50.95803494],[1.91965036,50.9583774]]]]}},{"type":"Feature","id":"calais_621930601_greuze","properties":{"zoneId":"calais_621930601_greuze","label":"Greuze","districtCode":"621930601","arrondissementCode":"62193","colorIndex":0,"parentZoneId":"calais_parent_62193_calais","parentCode":"62193","parentLabel":"Calais","territoryType":"iris","source":"IGN / INSEE - Contours IRIS WFS Géoplateforme","sourceYear":"2026","officialId":"621930601","sourceCleabs":"IRIS____0000000621930601","communeCode":"62193","communeName":"Calais","irisCode":"0601","irisType":"H","officialAreaM2":251818.39025878906,"labelLng":1.887471289029929,"labelLat":50.947309824979264,"bbox":[1.87856924,50.94579467,1.89382874,50.94959428]},"geometry":{"type":"MultiPolygon","coordinates":[[[[1.89330977,50.94959428],[1.89382031,50.94872953],[1.89375256,50.94871099],[1.89382874,50.94847752],[1.89381643,50.94820022],[1.89340269,50.94655848],[1.89326224,50.94648816],[1.89329005,50.94638703],[1.89336889,50.94635364],[1.8927888,50.9462579],[1.88163543,50.94595855],[1.88135612,50.945939],[1.88107128,50.94584943],[1.8807852,50.94581547],[1.87976467,50.94579467],[1.87916533,50.94592476],[1.87889148,50.94591512],[1.87856924,50.94698425],[1.87880661,50.94703752],[1.88047977,50.94721309],[1.88623354,50.94818222],[1.89038583,50.94907855],[1.89097921,50.94921659],[1.89330977,50.94959428]]]]}},{"type":"Feature","id":"calais_621930701_rodin","properties":{"zoneId":"calais_621930701_rodin","label":"Rodin","districtCode":"621930701","arrondissementCode":"62193","colorIndex":1,"parentZoneId":"calais_parent_62193_calais","parentCode":"62193","parentLabel":"Calais","territoryType":"iris","source":"IGN / INSEE - Contours IRIS WFS Géoplateforme","sourceYear":"2026","officialId":"621930701","sourceCleabs":"IRIS____0000000621930701","communeCode":"62193","communeName":"Calais","irisCode":"0701","irisType":"H","officialAreaM2":230875.78344726562,"labelLng":1.8883144101130473,"labelLat":50.951748065969774,"bbox":[1.87738312,50.94907855,1.89330977,50.95395344]},"geometry":{"type":"MultiPolygon","coordinates":[[[[1.8912119,50.95395344],[1.89134758,50.95379137],[1.89162805,50.95376067],[1.89299329,50.95022482],[1.89330977,50.94959428],[1.89097921,50.94921659],[1.89038583,50.94907855],[1.88989279,50.95023859],[1.88970364,50.95044234],[1.88942261,50.95062644],[1.88912035,50.95048829],[1.88769079,50.95020914],[1.88724604,50.95022044],[1.88694526,50.95033438],[1.88557395,50.95113581],[1.8848762,50.95134579],[1.88405411,50.95127386],[1.88326961,50.95142564],[1.88249919,50.95132904],[1.88246301,50.9515494],[1.88221056,50.95216793],[1.88191911,50.95230795],[1.88180792,50.9523267],[1.87796135,50.95172348],[1.87738312,50.95166984],[1.87783865,50.95187488],[1.8912119,50.95395344]]]]}},{"type":"Feature","id":"calais_621930801_tournesol","properties":{"zoneId":"calais_621930801_tournesol","label":"Tournesol","districtCode":"621930801","arrondissementCode":"62193","colorIndex":2,"parentZoneId":"calais_parent_62193_calais","parentCode":"62193","parentLabel":"Calais","territoryType":"iris","source":"IGN / INSEE - Contours IRIS WFS Géoplateforme","sourceYear":"2026","officialId":"621930801","sourceCleabs":"IRIS____0000000621930801","communeCode":"62193","communeName":"Calais","irisCode":"0801","irisType":"H","officialAreaM2":346209.23205566406,"labelLng":1.8824003383957815,"labelLat":50.94959443287684,"bbox":[1.87664188,50.94590344,1.89038583,50.9523267]},"geometry":{"type":"MultiPolygon","coordinates":[[[[1.87709364,50.95165917],[1.87738312,50.95166984],[1.87796135,50.95172348],[1.88180792,50.9523267],[1.88191911,50.95230795],[1.88221056,50.95216793],[1.88246301,50.9515494],[1.88249919,50.95132904],[1.88326961,50.95142564],[1.88405411,50.95127386],[1.8848762,50.95134579],[1.88557395,50.95113581],[1.88694526,50.95033438],[1.88724604,50.95022044],[1.88769079,50.95020914],[1.88912035,50.95048829],[1.88942261,50.95062644],[1.88970364,50.95044234],[1.88989279,50.95023859],[1.89038583,50.94907855],[1.88623354,50.94818222],[1.88047977,50.94721309],[1.87880661,50.94703752],[1.87856924,50.94698425],[1.87889148,50.94591512],[1.87858928,50.94590344],[1.87844748,50.94602058],[1.87839436,50.94617261],[1.87664188,50.95160218],[1.87709364,50.95165917]]]]}},{"type":"Feature","id":"calais_621930901_pont_du_leu","properties":{"zoneId":"calais_621930901_pont_du_leu","label":"Pont du Leu","districtCode":"621930901","arrondissementCode":"62193","colorIndex":3,"parentZoneId":"calais_parent_62193_calais","parentCode":"62193","parentLabel":"Calais","territoryType":"iris","source":"IGN / INSEE - Contours IRIS WFS Géoplateforme","sourceYear":"2026","officialId":"621930901","sourceCleabs":"IRIS____0000000621930901","communeCode":"62193","communeName":"Calais","irisCode":"0901","irisType":"H","officialAreaM2":1149631.7258300781,"labelLng":1.8591496720563445,"labelLat":50.93321562516042,"bbox":[1.84146996,50.92760024,1.87184848,50.93872836]},"geometry":{"type":"MultiPolygon","coordinates":[[[[1.86997856,50.9337904],[1.86949465,50.93334285],[1.86933828,50.93278792],[1.86932171,50.93220375],[1.86968896,50.92990419],[1.86960936,50.92852999],[1.86945042,50.92790146],[1.86903664,50.92805741],[1.868728,50.92808422],[1.86716092,50.92808078],[1.8670966,50.92760024],[1.86570742,50.92807657],[1.85905818,50.92988471],[1.85849357,50.9302402],[1.85805603,50.93087405],[1.85759359,50.93116856],[1.85679355,50.93151291],[1.85659319,50.93170754],[1.85617875,50.93257036],[1.85070003,50.93171896],[1.84585532,50.93120601],[1.84377644,50.93116885],[1.84146996,50.93109007],[1.84238928,50.93160546],[1.84314343,50.93195873],[1.84375473,50.93204423],[1.84506523,50.93246633],[1.84618359,50.93297187],[1.84687632,50.93334339],[1.84792885,50.93424214],[1.84893627,50.9351898],[1.84933075,50.93569133],[1.8492523,50.93576866],[1.84966086,50.9363986],[1.850111,50.93744249],[1.85027989,50.93849276],[1.85024322,50.93872836],[1.85104134,50.93835084],[1.85154541,50.93797959],[1.85188642,50.93765977],[1.8521048,50.93736304],[1.85249785,50.93743483],[1.85440109,50.93765145],[1.85454639,50.93756845],[1.85468416,50.93756612],[1.85485568,50.93764036],[1.85488353,50.93772584],[1.85549661,50.93773774],[1.85768416,50.93793987],[1.85756846,50.93679231],[1.85785394,50.93678774],[1.85989132,50.93647711],[1.86208995,50.93600464],[1.86354854,50.93573353],[1.86490953,50.93557007],[1.86677648,50.93550807],[1.86827107,50.935588],[1.87184848,50.93591639],[1.87178585,50.93554712],[1.87156768,50.93514952],[1.87097911,50.9345575],[1.86997856,50.9337904]]]]}},{"type":"Feature","id":"calais_621931001_petit_pays_delaroche","properties":{"zoneId":"calais_621931001_petit_pays_delaroche","label":"Petit Pays Delaroche","districtCode":"621931001","arrondissementCode":"62193","colorIndex":4,"parentZoneId":"calais_parent_62193_calais","parentCode":"62193","parentLabel":"Calais","territoryType":"iris","source":"IGN / INSEE - Contours IRIS WFS Géoplateforme","sourceYear":"2026","officialId":"621931001","sourceCleabs":"IRIS____0000000621931001","communeCode":"62193","communeName":"Calais","irisCode":"1001","irisType":"H","officialAreaM2":203575.96942138672,"labelLng":1.8752625581864613,"labelLat":50.94847915018056,"bbox":[1.87241427,50.94576939,1.87858928,50.95160218]},"geometry":{"type":"MultiPolygon","coordinates":[[[[1.87326009,50.94576939],[1.87241427,50.95096038],[1.87664188,50.95160218],[1.87839436,50.94617261],[1.87844748,50.94602058],[1.87858928,50.94590344],[1.87326009,50.94576939]]]]}},{"type":"Feature","id":"calais_621931002_petit_pays_michel_ange","properties":{"zoneId":"calais_621931002_petit_pays_michel_ange","label":"Petit Pays Michel Ange","districtCode":"621931002","arrondissementCode":"62193","colorIndex":5,"parentZoneId":"calais_parent_62193_calais","parentCode":"62193","parentLabel":"Calais","territoryType":"iris","source":"IGN / INSEE - Contours IRIS WFS Géoplateforme","sourceYear":"2026","officialId":"621931002","sourceCleabs":"IRIS____0000000621931002","communeCode":"62193","communeName":"Calais","irisCode":"1002","irisType":"H","officialAreaM2":351895.3963623047,"labelLng":1.8681562948819832,"labelLat":50.94801682718291,"bbox":[1.86135801,50.94518744,1.87326009,50.95096038]},"geometry":{"type":"MultiPolygon","coordinates":[[[[1.86135801,50.94922656],[1.86156437,50.94933161],[1.86180995,50.94939843],[1.86195571,50.94935849],[1.87241427,50.95096038],[1.87326009,50.94576939],[1.86777403,50.94560319],[1.86652107,50.94543753],[1.86565203,50.94518744],[1.86549241,50.9452129],[1.8627974,50.94788327],[1.86135801,50.94922656]]]]}},{"type":"Feature","id":"calais_621931101_nouvelle_france","properties":{"zoneId":"calais_621931101_nouvelle_france","label":"Nouvelle France","districtCode":"621931101","arrondissementCode":"62193","colorIndex":6,"parentZoneId":"calais_parent_62193_calais","parentCode":"62193","parentLabel":"Calais","territoryType":"iris","source":"IGN / INSEE - Contours IRIS WFS Géoplateforme","sourceYear":"2026","officialId":"621931101","sourceCleabs":"IRIS____0000000621931101","communeCode":"62193","communeName":"Calais","irisCode":"1101","irisType":"H","officialAreaM2":453478.0424194336,"labelLng":1.8735440643760282,"labelLat":50.943393910797276,"bbox":[1.86565203,50.93980075,1.87994284,50.94590344]},"geometry":{"type":"MultiPolygon","coordinates":[[[[1.87781634,50.93980075],[1.8776494,50.93983693],[1.87754077,50.93993194],[1.87748694,50.94024186],[1.87719502,50.94053169],[1.87503307,50.94157889],[1.87412319,50.94081176],[1.87219694,50.94122768],[1.87073201,50.94008052],[1.87030269,50.93997796],[1.86787738,50.9430519],[1.86565203,50.94518744],[1.86652107,50.94543753],[1.86777403,50.94560319],[1.87326009,50.94576939],[1.87858928,50.94590344],[1.87874164,50.94544281],[1.87922191,50.94530268],[1.87974826,50.94488128],[1.87992697,50.94387904],[1.87994284,50.94317227],[1.87907747,50.94231497],[1.87835116,50.9398845],[1.87781634,50.93980075]]]]}},{"type":"Feature","id":"calais_621931201_beau_marais","properties":{"zoneId":"calais_621931201_beau_marais","label":"Beau Marais","districtCode":"621931201","arrondissementCode":"62193","colorIndex":7,"parentZoneId":"calais_parent_62193_calais","parentCode":"62193","parentLabel":"Calais","territoryType":"iris","source":"IGN / INSEE - Contours IRIS WFS Géoplateforme","sourceYear":"2026","officialId":"621931201","sourceCleabs":"IRIS____0000000621931201","communeCode":"62193","communeName":"Calais","irisCode":"1201","irisType":"H","officialAreaM2":6216511.153137207,"labelLng":1.9075496612010776,"labelLat":50.936664782567,"bbox":[1.87889148,50.92189849,1.93209457,50.94718075]},"geometry":{"type":"MultiPolygon","coordinates":[[[[1.92190368,50.94718075],[1.92192442,50.94707508],[1.92253827,50.94515075],[1.92536779,50.94049591],[1.92736272,50.93686278],[1.93209457,50.92944393],[1.92779159,50.92820406],[1.91896521,50.92616512],[1.91824453,50.92608083],[1.91702145,50.92514262],[1.91562393,50.92433028],[1.91442356,50.92346131],[1.91249672,50.9227134],[1.91120949,50.92257749],[1.90867487,50.92210682],[1.90793427,50.92189849],[1.90774703,50.92228262],[1.90774172,50.92291414],[1.90264416,50.92739541],[1.90194205,50.92788714],[1.90060709,50.92862359],[1.8933799,50.93254384],[1.892452,50.93290254],[1.89147917,50.93336668],[1.8912071,50.93340733],[1.89098782,50.93337309],[1.89072491,50.93338511],[1.89039746,50.93349075],[1.89021688,50.93363089],[1.89010216,50.93381019],[1.89008771,50.93394911],[1.89017292,50.93413916],[1.89012213,50.93425264],[1.88973788,50.93454976],[1.88578162,50.93643613],[1.88650642,50.93684898],[1.8869987,50.9371844],[1.88735389,50.93749168],[1.88731502,50.93751555],[1.88524481,50.93809457],[1.88432313,50.93823168],[1.88364841,50.93856296],[1.88281495,50.93786654],[1.88055458,50.93894436],[1.8820339,50.93964747],[1.88272534,50.94212157],[1.88333942,50.94272542],[1.8833935,50.94284701],[1.88345691,50.94362984],[1.88093085,50.94356418],[1.88072537,50.94360899],[1.88032333,50.94355426],[1.88041019,50.94392284],[1.87985733,50.9452097],[1.87965184,50.945381],[1.87893884,50.94576663],[1.87889148,50.94591512],[1.87916533,50.94592476],[1.87976467,50.94579467],[1.8807852,50.94581547],[1.88107128,50.94584943],[1.88135612,50.945939],[1.88163543,50.94595855],[1.8927888,50.9462579],[1.89336889,50.94635364],[1.89360007,50.94636645],[1.89394653,50.94630403],[1.89429443,50.94630442],[1.90465168,50.9465858],[1.91079843,50.94674358],[1.911689,50.94679978],[1.91257523,50.94679404],[1.91850328,50.94695492],[1.91850639,50.94700787],[1.92140311,50.94708224],[1.92190368,50.94718075]]]]}},{"type":"Feature","id":"calais_621931301_virval","properties":{"zoneId":"calais_621931301_virval","label":"Virval","districtCode":"621931301","arrondissementCode":"62193","colorIndex":0,"parentZoneId":"calais_parent_62193_calais","parentCode":"62193","parentLabel":"Calais","territoryType":"iris","source":"IGN / INSEE - Contours IRIS WFS Géoplateforme","sourceYear":"2026","officialId":"621931301","sourceCleabs":"IRIS____0000000621931301","communeCode":"62193","communeName":"Calais","irisCode":"1301","irisType":"H","officialAreaM2":949206.0845947266,"labelLng":1.8828264947364315,"labelLat":50.93562811545883,"bbox":[1.86997856,50.92835405,1.90060709,50.94591512]},"geometry":{"type":"MultiPolygon","coordinates":[[[[1.90060709,50.92862359],[1.90045972,50.92835405],[1.89853253,50.92910231],[1.89650629,50.92970434],[1.89190744,50.9305751],[1.88766086,50.93149278],[1.88653108,50.9318003],[1.88284825,50.93244833],[1.87295762,50.93451974],[1.87268152,50.93429836],[1.87151507,50.93389759],[1.87056933,50.93371949],[1.86997856,50.9337904],[1.87097911,50.9345575],[1.87156768,50.93514952],[1.87178585,50.93554712],[1.87184848,50.93591639],[1.87188559,50.93615895],[1.87162681,50.93718021],[1.87754843,50.93801401],[1.87770811,50.93861561],[1.87785525,50.93964859],[1.87781634,50.93980075],[1.87835116,50.9398845],[1.87907747,50.94231497],[1.87994284,50.94317227],[1.87992697,50.94387904],[1.87974826,50.94488128],[1.87922191,50.94530268],[1.87874164,50.94544281],[1.87858928,50.94590344],[1.87889148,50.94591512],[1.87893884,50.94576663],[1.87965184,50.945381],[1.87985733,50.9452097],[1.88041019,50.94392284],[1.88032333,50.94355426],[1.88072537,50.94360899],[1.88093085,50.94356418],[1.88345691,50.94362984],[1.8833935,50.94284701],[1.88333942,50.94272542],[1.88272534,50.94212157],[1.8820339,50.93964747],[1.88055458,50.93894436],[1.88281495,50.93786654],[1.88364841,50.93856296],[1.88432313,50.93823168],[1.88524481,50.93809457],[1.88731502,50.93751555],[1.88735389,50.93749168],[1.8869987,50.9371844],[1.88650642,50.93684898],[1.88578162,50.93643613],[1.88973788,50.93454976],[1.89012213,50.93425264],[1.89017292,50.93413916],[1.89008771,50.93394911],[1.89010216,50.93381019],[1.89021688,50.93363089],[1.89039746,50.93349075],[1.89072491,50.93338511],[1.89098782,50.93337309],[1.8912071,50.93340733],[1.89147917,50.93336668],[1.892452,50.93290254],[1.8933799,50.93254384],[1.90060709,50.92862359]]]]}},{"type":"Feature","id":"calais_621931401_fort_nieulay_tunis","properties":{"zoneId":"calais_621931401_fort_nieulay_tunis","label":"Fort Nieulay-Tunis","districtCode":"621931401","arrondissementCode":"62193","colorIndex":1,"parentZoneId":"calais_parent_62193_calais","parentCode":"62193","parentLabel":"Calais","territoryType":"iris","source":"IGN / INSEE - Contours IRIS WFS Géoplateforme","sourceYear":"2026","officialId":"621931401","sourceCleabs":"IRIS____0000000621931401","communeCode":"62193","communeName":"Calais","irisCode":"1401","irisType":"H","officialAreaM2":3329251.7069091797,"labelLng":1.8249122511653382,"labelLat":50.94228807902278,"bbox":[1.80586847,50.93145791,1.83924964,50.95667546]},"geometry":{"type":"MultiPolygon","coordinates":[[[[1.83924964,50.93145791],[1.83837953,50.93163553],[1.8363294,50.93188648],[1.83553347,50.93186561],[1.83165079,50.93222768],[1.82709231,50.93349477],[1.8262372,50.93363476],[1.82602761,50.93361216],[1.82515736,50.93379237],[1.82440591,50.93417196],[1.8224102,50.93433528],[1.82154401,50.93476311],[1.82056928,50.93545726],[1.8203739,50.93591473],[1.81861741,50.9354451],[1.81406838,50.93831852],[1.81418593,50.93803256],[1.8140718,50.93799559],[1.81173863,50.93980084],[1.81129172,50.94002446],[1.8106946,50.94047361],[1.80834344,50.94272448],[1.80824206,50.94268853],[1.80685975,50.94432063],[1.80690127,50.94472203],[1.8065051,50.94466173],[1.80586847,50.94545227],[1.80693451,50.94546963],[1.80687762,50.94588893],[1.80932994,50.9460119],[1.80982675,50.94679442],[1.80990182,50.9475765],[1.81038648,50.9476188],[1.81125692,50.94786032],[1.81281641,50.94791103],[1.81335367,50.94824985],[1.81400638,50.94934781],[1.81445037,50.94942917],[1.81636865,50.94914414],[1.81649265,50.95008277],[1.8189245,50.9519798],[1.82622691,50.95422761],[1.82650594,50.95468236],[1.82496984,50.95555874],[1.82508735,50.9556953],[1.8259636,50.95563895],[1.82638257,50.95594161],[1.82698117,50.95603514],[1.82695196,50.95637127],[1.82737634,50.95644433],[1.82791632,50.95667546],[1.828178,50.95593602],[1.82872808,50.95513201],[1.82921517,50.95465125],[1.83121419,50.95292602],[1.83181088,50.95231171],[1.82517781,50.94956455],[1.82530284,50.94877808],[1.8252898,50.94866851],[1.82548896,50.94799039],[1.82322526,50.947752],[1.82195907,50.94724846],[1.82230849,50.94688394],[1.822596,50.94583346],[1.82308195,50.9458811],[1.82321041,50.94537186],[1.82607307,50.94567867],[1.82630129,50.94479089],[1.82974765,50.94515424],[1.83304378,50.94550712],[1.83310901,50.94787875],[1.83520859,50.94772789],[1.83536696,50.94781818],[1.83554193,50.94780545],[1.83566134,50.94767828],[1.83590072,50.94764373],[1.83624983,50.94753215],[1.83674906,50.94725511],[1.83713237,50.94683346],[1.83734391,50.9463483],[1.83766672,50.94614587],[1.8378316,50.94620033],[1.83810356,50.94616877],[1.83825057,50.94601494],[1.83818334,50.94585284],[1.83835823,50.94511167],[1.83852258,50.94250533],[1.83846519,50.94204279],[1.83822476,50.94145295],[1.83837783,50.94122113],[1.83887383,50.94107951],[1.83890815,50.93997101],[1.83900132,50.93914026],[1.83900564,50.93779553],[1.83924964,50.93145791]]]]}},{"type":"Feature","id":"calais_621931402_fort_nieulay_porte_de_paris","properties":{"zoneId":"calais_621931402_fort_nieulay_porte_de_paris","label":"Fort Nieulay-Porte de Paris","districtCode":"621931402","arrondissementCode":"62193","colorIndex":2,"parentZoneId":"calais_parent_62193_calais","parentCode":"62193","parentLabel":"Calais","territoryType":"iris","source":"IGN / INSEE - Contours IRIS WFS Géoplateforme","sourceYear":"2026","officialId":"621931402","sourceCleabs":"IRIS____0000000621931402","communeCode":"62193","communeName":"Calais","irisCode":"1402","irisType":"H","officialAreaM2":156800.982421875,"labelLng":1.8261746638921048,"labelLat":50.94675190059033,"bbox":[1.82195907,50.94479089,1.82974765,50.94928785]},"geometry":{"type":"MultiPolygon","coordinates":[[[[1.82530284,50.94877808],[1.82545021,50.94891223],[1.82637724,50.94928785],[1.8278668,50.94790506],[1.82816258,50.94788809],[1.82890236,50.94819466],[1.82974765,50.94515424],[1.82630129,50.94479089],[1.82607307,50.94567867],[1.82321041,50.94537186],[1.82308195,50.9458811],[1.822596,50.94583346],[1.82230849,50.94688394],[1.82195907,50.94724846],[1.82322526,50.947752],[1.82548896,50.94799039],[1.8252898,50.94866851],[1.82530284,50.94877808]]]]}},{"type":"Feature","id":"calais_621931403_fort_nieulay_vauban","properties":{"zoneId":"calais_621931403_fort_nieulay_vauban","label":"Fort Nieulay-Vauban","districtCode":"621931403","arrondissementCode":"62193","colorIndex":3,"parentZoneId":"calais_parent_62193_calais","parentCode":"62193","parentLabel":"Calais","territoryType":"iris","source":"IGN / INSEE - Contours IRIS WFS Géoplateforme","sourceYear":"2026","officialId":"621931403","sourceCleabs":"IRIS____0000000621931403","communeCode":"62193","communeName":"Calais","irisCode":"1403","irisType":"H","officialAreaM2":360931.19873046875,"labelLng":1.8319568276928144,"labelLat":50.94882840101552,"bbox":[1.82517781,50.94515424,1.83813063,50.95231171]},"geometry":{"type":"MultiPolygon","coordinates":[[[[1.83181088,50.95231171],[1.8320226,50.9521253],[1.83190429,50.95196182],[1.83202155,50.95180593],[1.83256211,50.95170781],[1.83538283,50.95048358],[1.83733755,50.94942348],[1.83773685,50.94910872],[1.83793343,50.94883873],[1.83803677,50.94854814],[1.83813063,50.94683556],[1.8380927,50.94651315],[1.8378316,50.94620033],[1.83766672,50.94614587],[1.83734391,50.9463483],[1.83713237,50.94683346],[1.83674906,50.94725511],[1.83624983,50.94753215],[1.83590072,50.94764373],[1.83566134,50.94767828],[1.83554193,50.94780545],[1.83536696,50.94781818],[1.83520859,50.94772789],[1.83310901,50.94787875],[1.83304378,50.94550712],[1.82974765,50.94515424],[1.82890236,50.94819466],[1.82816258,50.94788809],[1.8278668,50.94790506],[1.82637724,50.94928785],[1.82545021,50.94891223],[1.82530284,50.94877808],[1.82517781,50.94956455],[1.83181088,50.95231171]]]]}},{"type":"Feature","id":"calais_621931501_fontinettes_fleurs","properties":{"zoneId":"calais_621931501_fontinettes_fleurs","label":"Fontinettes Fleurs","districtCode":"621931501","arrondissementCode":"62193","colorIndex":4,"parentZoneId":"calais_parent_62193_calais","parentCode":"62193","parentLabel":"Calais","territoryType":"iris","source":"IGN / INSEE - Contours IRIS WFS Géoplateforme","sourceYear":"2026","officialId":"621931501","sourceCleabs":"IRIS____0000000621931501","communeCode":"62193","communeName":"Calais","irisCode":"1501","irisType":"H","officialAreaM2":243279.43768310547,"labelLng":1.8549628630738533,"labelLat":50.94416375699546,"bbox":[1.8502651,50.94147549,1.85851113,50.94765995]},"geometry":{"type":"MultiPolygon","coordinates":[[[[1.85406187,50.94765995],[1.85851113,50.94647524],[1.85817238,50.94278688],[1.85810654,50.94225161],[1.8502651,50.94147549],[1.85026689,50.94238337],[1.85043627,50.94273569],[1.85374688,50.945609],[1.85368938,50.94570087],[1.85374072,50.94575337],[1.85384113,50.94577134],[1.85406187,50.94765995]]]]}},{"type":"Feature","id":"calais_621931502_fontinettes_einstein","properties":{"zoneId":"calais_621931502_fontinettes_einstein","label":"Fontinettes Einstein","districtCode":"621931502","arrondissementCode":"62193","colorIndex":5,"parentZoneId":"calais_parent_62193_calais","parentCode":"62193","parentLabel":"Calais","territoryType":"iris","source":"IGN / INSEE - Contours IRIS WFS Géoplateforme","sourceYear":"2026","officialId":"621931502","sourceCleabs":"IRIS____0000000621931502","communeCode":"62193","communeName":"Calais","irisCode":"1502","irisType":"H","officialAreaM2":222397.35717773438,"labelLng":1.8544875961476806,"labelLat":50.93992255351714,"bbox":[1.8502651,50.93743483,1.85810654,50.94225161]},"geometry":{"type":"MultiPolygon","coordinates":[[[[1.85810654,50.94225161],[1.85768416,50.93793987],[1.85549661,50.93773774],[1.85488353,50.93772584],[1.85485568,50.93764036],[1.85468416,50.93756612],[1.85454639,50.93756845],[1.85440109,50.93765145],[1.85249785,50.93743483],[1.8524319,50.93770963],[1.85225802,50.93798524],[1.85125376,50.93905343],[1.85045339,50.94032893],[1.85028808,50.94072483],[1.8502651,50.94147549],[1.85810654,50.94225161]]]]}},{"type":"Feature","id":"calais_621931601_van_grutten","properties":{"zoneId":"calais_621931601_van_grutten","label":"Van Grutten","districtCode":"621931601","arrondissementCode":"62193","colorIndex":6,"parentZoneId":"calais_parent_62193_calais","parentCode":"62193","parentLabel":"Calais","territoryType":"iris","source":"IGN / INSEE - Contours IRIS WFS Géoplateforme","sourceYear":"2026","officialId":"621931601","sourceCleabs":"IRIS____0000000621931601","communeCode":"62193","communeName":"Calais","irisCode":"1601","irisType":"H","officialAreaM2":353066.84997558594,"labelLng":1.8479617343943238,"labelLat":50.945075409112576,"bbox":[1.8403882,50.94147549,1.85406187,50.94765995]},"geometry":{"type":"MultiPolygon","coordinates":[[[[1.8502651,50.94147549],[1.8477772,50.94265289],[1.84768203,50.94259281],[1.84752332,50.94270169],[1.84718441,50.94249761],[1.84693896,50.94261197],[1.84690294,50.94257306],[1.84541007,50.94296297],[1.84485865,50.9430449],[1.84458953,50.9431384],[1.84039258,50.94598998],[1.8403882,50.94623933],[1.85406187,50.94765995],[1.85384113,50.94577134],[1.85374072,50.94575337],[1.85368938,50.94570087],[1.85374688,50.945609],[1.85043627,50.94273569],[1.85026689,50.94238337],[1.8502651,50.94147549]]]]}},{"type":"Feature","id":"calais_621931701_crevecoeur_curie","properties":{"zoneId":"calais_621931701_crevecoeur_curie","label":"Crèvecœur Curie","districtCode":"621931701","arrondissementCode":"62193","colorIndex":7,"parentZoneId":"calais_parent_62193_calais","parentCode":"62193","parentLabel":"Calais","territoryType":"iris","source":"IGN / INSEE - Contours IRIS WFS Géoplateforme","sourceYear":"2026","officialId":"621931701","sourceCleabs":"IRIS____0000000621931701","communeCode":"62193","communeName":"Calais","irisCode":"1701","irisType":"H","officialAreaM2":709217.748840332,"labelLng":1.8664328256337335,"labelLat":50.93876741449876,"bbox":[1.85756846,50.93550807,1.87785525,50.94278688]},"geometry":{"type":"MultiPolygon","coordinates":[[[[1.85810654,50.94225161],[1.85817238,50.94278688],[1.86201818,50.94269905],[1.86297427,50.94261625],[1.86284676,50.94198084],[1.8628676,50.9408175],[1.86588388,50.94067356],[1.86574236,50.93940378],[1.86589588,50.9392715],[1.86655854,50.93928918],[1.87030269,50.93997796],[1.87073201,50.94008052],[1.87219694,50.94122768],[1.87412319,50.94081176],[1.87503307,50.94157889],[1.87719502,50.94053169],[1.87748694,50.94024186],[1.87754077,50.93993194],[1.8776494,50.93983693],[1.87781634,50.93980075],[1.87785525,50.93964859],[1.87770811,50.93861561],[1.87754843,50.93801401],[1.87162681,50.93718021],[1.87188559,50.93615895],[1.87184848,50.93591639],[1.86827107,50.935588],[1.86677648,50.93550807],[1.86490953,50.93557007],[1.86354854,50.93573353],[1.86208995,50.93600464],[1.85989132,50.93647711],[1.85785394,50.93678774],[1.85756846,50.93679231],[1.85768416,50.93793987],[1.85810654,50.94225161]]]]}},{"type":"Feature","id":"calais_621931702_crevecoeur_massena","properties":{"zoneId":"calais_621931702_crevecoeur_massena","label":"Crèvecœur Massena","districtCode":"621931702","arrondissementCode":"62193","colorIndex":0,"parentZoneId":"calais_parent_62193_calais","parentCode":"62193","parentLabel":"Calais","territoryType":"iris","source":"IGN / INSEE - Contours IRIS WFS Géoplateforme","sourceYear":"2026","officialId":"621931702","sourceCleabs":"IRIS____0000000621931702","communeCode":"62193","communeName":"Calais","irisCode":"1702","irisType":"H","officialAreaM2":319748.39837646484,"labelLng":1.8640091635742464,"labelLat":50.94292048700379,"bbox":[1.85817238,50.9392715,1.87030269,50.94647524]},"geometry":{"type":"MultiPolygon","coordinates":[[[[1.85851113,50.94647524],[1.8623135,50.94543967],[1.86343858,50.94517181],[1.86399679,50.94510332],[1.86456951,50.94508341],[1.86537935,50.94512665],[1.86565203,50.94518744],[1.86787738,50.9430519],[1.87030269,50.93997796],[1.86655854,50.93928918],[1.86589588,50.9392715],[1.86574236,50.93940378],[1.86588388,50.94067356],[1.8628676,50.9408175],[1.86284676,50.94198084],[1.86297427,50.94261625],[1.86201818,50.94269905],[1.85817238,50.94278688],[1.85851113,50.94647524]]]]}},{"type":"Feature","id":"calais_621931801_hotel_de_ville_lafayette","properties":{"zoneId":"calais_621931801_hotel_de_ville_lafayette","label":"Hôtel de Ville Lafayette","districtCode":"621931801","arrondissementCode":"62193","colorIndex":1,"parentZoneId":"calais_parent_62193_calais","parentCode":"62193","parentLabel":"Calais","territoryType":"iris","source":"IGN / INSEE - Contours IRIS WFS Géoplateforme","sourceYear":"2026","officialId":"621931801","sourceCleabs":"IRIS____0000000621931801","communeCode":"62193","communeName":"Calais","irisCode":"1801","irisType":"H","officialAreaM2":443108.28271484375,"labelLng":1.8575381800743263,"labelLat":50.94976642445846,"bbox":[1.85044898,50.94508341,1.86565203,50.95480396]},"geometry":{"type":"MultiPolygon","coordinates":[[[[1.85851113,50.94647524],[1.85406187,50.94765995],[1.85399906,50.94773563],[1.85399181,50.94792754],[1.85406388,50.94961203],[1.85412691,50.94971219],[1.85412193,50.95036163],[1.8536482,50.95144725],[1.85344082,50.95181943],[1.85229294,50.9527607],[1.85210195,50.95272845],[1.85194731,50.95278265],[1.85189687,50.95287638],[1.85195977,50.95298192],[1.85116827,50.95361696],[1.85095705,50.95384646],[1.85075904,50.95418015],[1.85053876,50.9546177],[1.85044898,50.95469222],[1.85059785,50.95470346],[1.8506978,50.95480396],[1.85151392,50.95476571],[1.85476982,50.95473996],[1.854939,50.95460874],[1.85419651,50.95410047],[1.85435142,50.95384891],[1.85595378,50.95383578],[1.85644469,50.95398111],[1.85673582,50.95361059],[1.85725862,50.95310852],[1.8575086,50.95279772],[1.85803995,50.95247962],[1.86135801,50.94922656],[1.8627974,50.94788327],[1.86549241,50.9452129],[1.86565203,50.94518744],[1.86537935,50.94512665],[1.86456951,50.94508341],[1.86399679,50.94510332],[1.86343858,50.94517181],[1.8623135,50.94543967],[1.85851113,50.94647524]]]]}},{"type":"Feature","id":"calais_621931802_quartier_vauxhall","properties":{"zoneId":"calais_621931802_quartier_vauxhall","label":"Quartier Vauxhall","districtCode":"621931802","arrondissementCode":"62193","colorIndex":2,"parentZoneId":"calais_parent_62193_calais","parentCode":"62193","parentLabel":"Calais","territoryType":"iris","source":"IGN / INSEE - Contours IRIS WFS Géoplateforme","sourceYear":"2026","officialId":"621931802","sourceCleabs":"IRIS____0000000621931802","communeCode":"62193","communeName":"Calais","irisCode":"1802","irisType":"H","officialAreaM2":879201.4801635742,"labelLng":1.8446180514534232,"labelLat":50.950155509819034,"bbox":[1.83190429,50.94601494,1.85412691,50.95418015]},"geometry":{"type":"MultiPolygon","coordinates":[[[[1.8403882,50.94623933],[1.83825057,50.94601494],[1.83810356,50.94616877],[1.8378316,50.94620033],[1.8380927,50.94651315],[1.83813063,50.94683556],[1.83803677,50.94854814],[1.83793343,50.94883873],[1.83773685,50.94910872],[1.83733755,50.94942348],[1.83538283,50.95048358],[1.83256211,50.95170781],[1.83202155,50.95180593],[1.83190429,50.95196182],[1.8320226,50.9521253],[1.83223848,50.95218563],[1.83244391,50.95214628],[1.83254496,50.95207636],[1.83281098,50.95211831],[1.83483882,50.95267548],[1.8364413,50.95302143],[1.83831137,50.95334294],[1.83852668,50.95300136],[1.8387996,50.95280833],[1.83900631,50.95283626],[1.84050508,50.95263487],[1.84112285,50.95263612],[1.84341824,50.95305209],[1.84721054,50.95359398],[1.84782541,50.95372165],[1.84808747,50.95368997],[1.85032638,50.95397253],[1.85056654,50.95402857],[1.85075904,50.95418015],[1.85095705,50.95384646],[1.85116827,50.95361696],[1.85195977,50.95298192],[1.85189687,50.95287638],[1.85194731,50.95278265],[1.85210195,50.95272845],[1.85229294,50.9527607],[1.85344082,50.95181943],[1.8536482,50.95144725],[1.85412193,50.95036163],[1.85412691,50.94971219],[1.85406388,50.94961203],[1.85399181,50.94792754],[1.85399906,50.94773563],[1.85406187,50.94765995],[1.8403882,50.94623933]]]]}},{"type":"Feature","id":"calais_621931901_calais_nord_notre_dame","properties":{"zoneId":"calais_621931901_calais_nord_notre_dame","label":"Calais Nord Notre-Dame","districtCode":"621931901","arrondissementCode":"62193","colorIndex":3,"parentZoneId":"calais_parent_62193_calais","parentCode":"62193","parentLabel":"Calais","territoryType":"iris","source":"IGN / INSEE - Contours IRIS WFS Géoplateforme","sourceYear":"2026","officialId":"621931901","sourceCleabs":"IRIS____0000000621931901","communeCode":"62193","communeName":"Calais","irisCode":"1901","irisType":"H","officialAreaM2":3029826.191345215,"labelLng":1.8529407423061501,"labelLat":50.96964605329904,"bbox":[1.84001336,50.95383578,1.86406495,50.98270268]},"geometry":{"type":"MultiPolygon","coordinates":[[[[1.84170135,50.96857621],[1.84001336,50.97078349],[1.84060651,50.97289169],[1.84055197,50.97297641],[1.8408534,50.97315054],[1.84083669,50.97325803],[1.84101927,50.97334943],[1.84489175,50.97736458],[1.84490268,50.97756742],[1.84529941,50.97786173],[1.84594808,50.97819872],[1.85047543,50.98003989],[1.85318452,50.98112327],[1.85418,50.98139972],[1.86343908,50.98266649],[1.86406495,50.98270268],[1.86160957,50.97286128],[1.86013088,50.97073255],[1.85552419,50.96382884],[1.85652079,50.96354642],[1.85947371,50.96287995],[1.8596165,50.96278527],[1.85972519,50.96262927],[1.86142121,50.95865097],[1.8614861,50.95842191],[1.86145263,50.9582081],[1.86130307,50.95803988],[1.85907456,50.95648467],[1.85827917,50.9559885],[1.85621302,50.95436025],[1.85667321,50.95404958],[1.85644469,50.95398111],[1.85595378,50.95383578],[1.85435142,50.95384891],[1.85419651,50.95410047],[1.854939,50.95460874],[1.85476982,50.95473996],[1.85151392,50.95476571],[1.8506978,50.95480396],[1.85059785,50.95470346],[1.85044898,50.95469222],[1.85030049,50.95478774],[1.85037989,50.95491676],[1.84975838,50.95618489],[1.8497893,50.95626053],[1.84955979,50.95678949],[1.8494698,50.95718069],[1.84927489,50.95891832],[1.8489411,50.95953334],[1.84814945,50.96047605],[1.84805345,50.96051194],[1.84809201,50.96056433],[1.84690527,50.96304994],[1.84792575,50.96321095],[1.84822456,50.96331238],[1.848299,50.96341085],[1.84823832,50.96406964],[1.84662914,50.96540758],[1.84580706,50.96600193],[1.84576254,50.96608405],[1.84514469,50.96644703],[1.84444384,50.96695817],[1.84282474,50.968531],[1.84264201,50.96881367],[1.84170135,50.96857621]]]]}},{"type":"Feature","id":"calais_621931902_calais_nord_esplanade","properties":{"zoneId":"calais_621931902_calais_nord_esplanade","label":"Calais Nord Esplanade","districtCode":"621931902","arrondissementCode":"62193","colorIndex":4,"parentZoneId":"calais_parent_62193_calais","parentCode":"62193","parentLabel":"Calais","territoryType":"iris","source":"IGN / INSEE - Contours IRIS WFS Géoplateforme","sourceYear":"2026","officialId":"621931902","sourceCleabs":"IRIS____0000000621931902","communeCode":"62193","communeName":"Calais","irisCode":"1902","irisType":"H","officialAreaM2":681373.1168212891,"labelLng":1.8426403047323145,"labelLat":50.95622212743595,"bbox":[1.83451635,50.95263487,1.85075904,50.96010942]},"geometry":{"type":"MultiPolygon","coordinates":[[[[1.85044898,50.95469222],[1.85053876,50.9546177],[1.85075904,50.95418015],[1.85056654,50.95402857],[1.85032638,50.95397253],[1.84808747,50.95368997],[1.84782541,50.95372165],[1.84721054,50.95359398],[1.84341824,50.95305209],[1.84112285,50.95263612],[1.84050508,50.95263487],[1.83900631,50.95283626],[1.8387996,50.95280833],[1.83852668,50.95300136],[1.83831137,50.95334294],[1.8364413,50.95302143],[1.83482439,50.95608965],[1.83452288,50.9567749],[1.83451724,50.95689506],[1.83463112,50.95700556],[1.83459122,50.95713258],[1.83451635,50.95717584],[1.83554438,50.95798023],[1.83582678,50.95811294],[1.83621884,50.95823321],[1.84400028,50.96010942],[1.84429525,50.96006909],[1.8443581,50.95993152],[1.84456677,50.95993704],[1.84474768,50.95979249],[1.84506761,50.9596555],[1.8454259,50.95951797],[1.84569833,50.95946935],[1.84839568,50.9594709],[1.8489411,50.95953334],[1.84927489,50.95891832],[1.8494698,50.95718069],[1.84955979,50.95678949],[1.8497893,50.95626053],[1.84975838,50.95618489],[1.85037989,50.95491676],[1.85030049,50.95478774],[1.85044898,50.95469222]]]]}},{"type":"Feature","id":"calais_621932001_front_de_mer","properties":{"zoneId":"calais_621932001_front_de_mer","label":"Front de Mer","districtCode":"621932001","arrondissementCode":"62193","colorIndex":5,"parentZoneId":"calais_parent_62193_calais","parentCode":"62193","parentLabel":"Calais","territoryType":"iris","source":"IGN / INSEE - Contours IRIS WFS Géoplateforme","sourceYear":"2026","officialId":"621932001","sourceCleabs":"IRIS____0000000621932001","communeCode":"62193","communeName":"Calais","irisCode":"2001","irisType":"H","officialAreaM2":1210982.2055664062,"labelLng":1.8373298893006593,"labelLat":50.96060762164777,"bbox":[1.82788783,50.95207636,1.8489411,50.96881367]},"geometry":{"type":"MultiPolygon","coordinates":[[[[1.82791632,50.95667546],[1.82788783,50.95909641],[1.82871324,50.95933201],[1.82855466,50.9596732],[1.82915066,50.95981873],[1.82885044,50.96038467],[1.82904823,50.96043048],[1.82870109,50.96105877],[1.82906105,50.96163896],[1.82895317,50.9626032],[1.83081766,50.96311583],[1.83136015,50.9631828],[1.83385137,50.9638071],[1.83441645,50.96400255],[1.83472795,50.96392472],[1.83548981,50.96420991],[1.8362823,50.96440029],[1.83848827,50.96526135],[1.83951159,50.96578936],[1.83997173,50.96585642],[1.83998201,50.96590317],[1.84002712,50.96591794],[1.84006969,50.96592013],[1.84038375,50.96603787],[1.84043091,50.96608674],[1.8401496,50.96602672],[1.84009302,50.96607733],[1.84028631,50.96619574],[1.84057677,50.96622894],[1.84056082,50.96636514],[1.84067513,50.9663366],[1.84067033,50.96635988],[1.84085426,50.96645308],[1.84083551,50.96652647],[1.84085324,50.96655803],[1.84090441,50.96655671],[1.84089222,50.96659248],[1.84095352,50.96658318],[1.84097654,50.96663184],[1.84101015,50.96671378],[1.84105105,50.96672672],[1.84111039,50.96674073],[1.84116812,50.96676279],[1.84131411,50.9668996],[1.84147471,50.9668966],[1.84145469,50.9670247],[1.84163236,50.96714296],[1.84165716,50.96723738],[1.84169758,50.96727095],[1.84173464,50.96732691],[1.84189169,50.96735438],[1.84182183,50.9674264],[1.8421296,50.96738708],[1.84199668,50.96754374],[1.84214387,50.96750653],[1.84217761,50.96758309],[1.84237525,50.96757595],[1.84170135,50.96857621],[1.84264201,50.96881367],[1.84282474,50.968531],[1.84444384,50.96695817],[1.84514469,50.96644703],[1.84576254,50.96608405],[1.84580706,50.96600193],[1.84662914,50.96540758],[1.84823832,50.96406964],[1.848299,50.96341085],[1.84822456,50.96331238],[1.84792575,50.96321095],[1.84690527,50.96304994],[1.84809201,50.96056433],[1.84805345,50.96051194],[1.84814945,50.96047605],[1.8489411,50.95953334],[1.84839568,50.9594709],[1.84569833,50.95946935],[1.8454259,50.95951797],[1.84506761,50.9596555],[1.84474768,50.95979249],[1.84456677,50.95993704],[1.8443581,50.95993152],[1.84429525,50.96006909],[1.84400028,50.96010942],[1.83621884,50.95823321],[1.83582678,50.95811294],[1.83554438,50.95798023],[1.83451635,50.95717584],[1.83459122,50.95713258],[1.83463112,50.95700556],[1.83451724,50.95689506],[1.83452288,50.9567749],[1.83482439,50.95608965],[1.8364413,50.95302143],[1.83483882,50.95267548],[1.83281098,50.95211831],[1.83254496,50.95207636],[1.83244391,50.95214628],[1.83223848,50.95218563],[1.8320226,50.9521253],[1.83181088,50.95231171],[1.83121419,50.95292602],[1.82921517,50.95465125],[1.82872808,50.95513201],[1.828178,50.95593602],[1.82791632,50.95667546]]]]}},{"type":"Feature","id":"calais_621932101_cailloux","properties":{"zoneId":"calais_621932101_cailloux","label":"Cailloux","districtCode":"621932101","arrondissementCode":"62193","colorIndex":6,"parentZoneId":"calais_parent_62193_calais","parentCode":"62193","parentLabel":"Calais","territoryType":"iris","source":"IGN / INSEE - Contours IRIS WFS Géoplateforme","sourceYear":"2026","officialId":"621932101","sourceCleabs":"IRIS____0000000621932101","communeCode":"62193","communeName":"Calais","irisCode":"2101","irisType":"H","officialAreaM2":983663.5288085938,"labelLng":1.8437589012580327,"labelLat":50.9384120073142,"bbox":[1.83818334,50.93109007,1.85249785,50.94623933]},"geometry":{"type":"MultiPolygon","coordinates":[[[[1.84146996,50.93109007],[1.83998363,50.93115074],[1.83944415,50.931091],[1.83926986,50.93125984],[1.83924964,50.93145791],[1.83900564,50.93779553],[1.83900132,50.93914026],[1.83890815,50.93997101],[1.83887383,50.94107951],[1.83837783,50.94122113],[1.83822476,50.94145295],[1.83846519,50.94204279],[1.83852258,50.94250533],[1.83835823,50.94511167],[1.83818334,50.94585284],[1.83825057,50.94601494],[1.8403882,50.94623933],[1.84039258,50.94598998],[1.84458953,50.9431384],[1.84485865,50.9430449],[1.84541007,50.94296297],[1.84690294,50.94257306],[1.84693896,50.94261197],[1.84718441,50.94249761],[1.84752332,50.94270169],[1.84768203,50.94259281],[1.8477772,50.94265289],[1.8502651,50.94147549],[1.85028808,50.94072483],[1.85045339,50.94032893],[1.85125376,50.93905343],[1.85225802,50.93798524],[1.8524319,50.93770963],[1.85249785,50.93743483],[1.8521048,50.93736304],[1.85188642,50.93765977],[1.85154541,50.93797959],[1.85104134,50.93835084],[1.85024322,50.93872836],[1.85027989,50.93849276],[1.850111,50.93744249],[1.84966086,50.9363986],[1.8492523,50.93576866],[1.84933075,50.93569133],[1.84893627,50.9351898],[1.84792885,50.93424214],[1.84687632,50.93334339],[1.84618359,50.93297187],[1.84506523,50.93246633],[1.84375473,50.93204423],[1.84314343,50.93195873],[1.84238928,50.93160546],[1.84146996,50.93109007]]]]}}]}
