{"type":"FeatureCollection","metadata":{"generatedAt":"2026-07-14T18:56:03.503Z","source":"IGN / INSEE - Contours IRIS WFS Géoplateforme","datasetId":"STATISTICALUNITS.IRIS:contours_iris","datasetUrl":"https://geoservices.ign.fr/contoursiris","sourceFileUrl":"https://data.geopf.fr/wfs/ows?SERVICE=WFS&VERSION=2.0.0&REQUEST=GetFeature&TYPENAMES=STATISTICALUNITS.IRIS%3Acontours_iris&OUTPUTFORMAT=application%2Fjson&COUNT=1000&CQL_FILTER=code_insee%3D%2776178%27&SRSNAME=EPSG%3A4326","license":"Licence Ouverte / Open Licence 2.0","sourceYear":"2026","communeCode":"76178","communeName":"Cléon","featureCount":2,"parentCount":1,"parentContract":"technical commune group; not selectable and not displayed as a district","sourceFeatureCount":2,"humanLabelContract":"one visible plate per unique official human place name","groupingContract":"only exact source-ID groups approved by the resolved curation, or source zones sharing the same official name and parent, are merged","groupedZoneCount":0,"groupedSourceFeatureCount":0,"curationStatus":"resolved","curationRevision":1,"curationSources":[{"id":"ign-insee-contours-iris-2026","provider":"IGN / INSEE - Contours IRIS WFS Géoplateforme","datasetUrl":"https://geoservices.ign.fr/contoursiris","role":"official geometry, source identifiers and source labels","vintage":"2026","license":"Licence Ouverte / Open Licence 2.0"},{"id":"ign-geoplateforme-toponymy-2026","provider":"IGN Géoplateforme - reverse geocoding, addresses and named places","datasetUrl":"https://geoservices.ign.fr/geocodage-geoplateforme","role":"official address, street and named-place evidence","vintage":"2026","license":"Licence Ouverte / Open Licence 2.0"},{"id":"guide-alpha-editorial-recovery-2026-07-14","provider":"Meewav Guide Alpha editorial review","datasetUrl":"docs/geospatial/france-semantic-recovery.md","role":"versioned mapping of exact official IRIS identifiers to coherent human place names","vintage":"2026-07-14","license":"Project documentation"}],"sourceCorrections":[{"operationId":"cleon-761780101-rename-rue-charles-perrault","type":"rename","sourceIds":["761780101"],"expectedLabels":["Sud"],"outputLabel":"Rue Charles Perrault","evidenceRefs":["ign-insee-contours-iris-2026","ign-geoplateforme-toponymy-2026","guide-alpha-editorial-recovery-2026-07-14"],"rationale":"The exact official IGN BD TOPO named road has a deterministic evidence point strictly inside this exact IRIS. The 1:1 label is emitted without nearest assignment, invented geometry, split or dropped source cell."},{"operationId":"cleon-761780102-rename-rue-de-la-resistance","type":"rename","sourceIds":["761780102"],"expectedLabels":["Nord"],"outputLabel":"Rue de la Résistance","evidenceRefs":["ign-insee-contours-iris-2026","ign-geoplateforme-toponymy-2026","guide-alpha-editorial-recovery-2026-07-14"],"rationale":"The exact official IGN BD TOPO named road has a deterministic evidence point strictly inside this exact IRIS. The 1:1 label is emitted without nearest assignment, invented geometry, split or dropped source cell."}],"bbox":[1.01332837,49.30263082,1.06522217,49.32843991],"areaStatsM2":{"minimum":312066.28091430664,"average":3234365.365463257,"maximum":6156664.450012207}},"features":[{"type":"Feature","id":"cleon_761780101_sud","properties":{"zoneId":"cleon_761780101_sud","label":"Rue Charles Perrault","districtCode":"761780101","arrondissementCode":"76178","colorIndex":0,"parentZoneId":"cleon_parent_76178_cleon","parentCode":"76178","parentLabel":"Cléon","territoryType":"iris","source":"IGN / INSEE - Contours IRIS WFS Géoplateforme","sourceYear":"2026","officialId":"761780101","sourceCleabs":"IRIS____0000000761780101","communeCode":"76178","communeName":"Cléon","irisCode":"0101","irisType":"H","officialAreaM2":312066.28091430664,"labelLng":1.0287702501831402,"labelLat":49.30612992958517,"bbox":[1.02088528,49.30263082,1.03914124,49.30864374],"curationOperationId":"cleon-761780101-rename-rue-charles-perrault","curationRevision":1,"curationEvidenceRefs":["ign-insee-contours-iris-2026","ign-geoplateforme-toponymy-2026","guide-alpha-editorial-recovery-2026-07-14"],"curationRationale":"The exact official IGN BD TOPO named road has a deterministic evidence point strictly inside this exact IRIS. The 1:1 label is emitted without nearest assignment, invented geometry, split or dropped source cell.","semanticLabelReviewed":true,"semanticLabelAccepted":false,"semanticResolution":"rename"},"geometry":{"type":"MultiPolygon","coordinates":[[[[1.03914124,49.30715916],[1.03549058,49.30588139],[1.03494421,49.30582034],[1.03432086,49.30608356],[1.03427401,49.30659174],[1.03415748,49.30669056],[1.02895027,49.30541331],[1.02836571,49.30620856],[1.02637342,49.30558792],[1.02656555,49.30466308],[1.02717711,49.30326941],[1.02584997,49.30320185],[1.02364967,49.30263082],[1.02182603,49.30504231],[1.02088528,49.30651689],[1.02229963,49.30743298],[1.02361918,49.30813259],[1.02364918,49.30806744],[1.02405002,49.30787078],[1.02536906,49.30639158],[1.02559985,49.30607434],[1.03153916,49.3076631],[1.03273509,49.30789301],[1.03288156,49.30787471],[1.03831058,49.30864374],[1.03914124,49.30715916]]]]}},{"type":"Feature","id":"cleon_761780102_nord","properties":{"zoneId":"cleon_761780102_nord","label":"Rue de la Résistance","districtCode":"761780102","arrondissementCode":"76178","colorIndex":1,"parentZoneId":"cleon_parent_76178_cleon","parentCode":"76178","parentLabel":"Cléon","territoryType":"iris","source":"IGN / INSEE - Contours IRIS WFS Géoplateforme","sourceYear":"2026","officialId":"761780102","sourceCleabs":"IRIS____0000000761780102","communeCode":"76178","communeName":"Cléon","irisCode":"0102","irisType":"H","officialAreaM2":6156664.450012207,"labelLng":1.0403755621879638,"labelLat":49.31657456179501,"bbox":[1.01332837,49.30607434,1.06522217,49.32843991],"curationOperationId":"cleon-761780102-rename-rue-de-la-resistance","curationRevision":1,"curationEvidenceRefs":["ign-insee-contours-iris-2026","ign-geoplateforme-toponymy-2026","guide-alpha-editorial-recovery-2026-07-14"],"curationRationale":"The exact official IGN BD TOPO named road has a deterministic evidence point strictly inside this exact IRIS. The 1:1 label is emitted without nearest assignment, invented geometry, split or dropped source cell.","semanticLabelReviewed":true,"semanticLabelAccepted":false,"semanticResolution":"rename"},"geometry":{"type":"MultiPolygon","coordinates":[[[[1.01332837,49.31845743],[1.01828849,49.31992549],[1.01878062,49.32014848],[1.02143672,49.32072524],[1.02540799,49.3218396],[1.0268569,49.32236863],[1.02622341,49.3240056],[1.02642839,49.32400535],[1.02631882,49.32420858],[1.02896327,49.32477329],[1.03027976,49.32477409],[1.03240896,49.32492748],[1.03405344,49.32484096],[1.03514843,49.3249505],[1.03977676,49.32497175],[1.04098504,49.32503272],[1.04106289,49.32515627],[1.0433371,49.32525968],[1.04409103,49.32460469],[1.04483606,49.32483795],[1.04634648,49.32549362],[1.04820481,49.32597236],[1.051249,49.32656102],[1.05590019,49.32733014],[1.06088953,49.32843991],[1.06214853,49.32689644],[1.063109,49.32527804],[1.06522217,49.32211891],[1.06467649,49.32126404],[1.05990582,49.32115962],[1.05990652,49.32059225],[1.05921363,49.32058201],[1.05950446,49.31932243],[1.06044436,49.31656623],[1.06048061,49.31615049],[1.06014569,49.31609565],[1.06083393,49.31447108],[1.06116151,49.3131833],[1.06331886,49.30986303],[1.06018513,49.30904481],[1.05863378,49.30871775],[1.05849688,49.30892056],[1.05811006,49.30882083],[1.05775902,49.30872076],[1.05805508,49.3083083],[1.0545009,49.30741213],[1.05424785,49.30774076],[1.05431336,49.30790007],[1.05397182,49.30878837],[1.0538034,49.3099726],[1.05122851,49.30907233],[1.04879633,49.30810957],[1.04850606,49.30793044],[1.04427506,49.30729908],[1.04305441,49.30768394],[1.04213667,49.30740649],[1.0417782,49.30808317],[1.03914124,49.30715916],[1.03831058,49.30864374],[1.03288156,49.30787471],[1.03273509,49.30789301],[1.03153916,49.3076631],[1.02559985,49.30607434],[1.02536906,49.30639158],[1.02405002,49.30787078],[1.02364918,49.30806744],[1.02361918,49.30813259],[1.02229963,49.30743298],[1.02088528,49.30651689],[1.01773512,49.30972934],[1.01626227,49.31148108],[1.01711316,49.31188622],[1.01519711,49.3153967],[1.01332837,49.31845743]]]]}}]}
