{"type":"FeatureCollection","metadata":{"generatedAt":"2026-07-14T18:56:03.503Z","source":"IGN / INSEE - Contours IRIS WFS Géoplateforme","datasetId":"STATISTICALUNITS.IRIS:contours_iris","datasetUrl":"https://geoservices.ign.fr/contoursiris","sourceFileUrl":"https://data.geopf.fr/wfs/ows?SERVICE=WFS&VERSION=2.0.0&REQUEST=GetFeature&TYPENAMES=STATISTICALUNITS.IRIS%3Acontours_iris&OUTPUTFORMAT=application%2Fjson&COUNT=1000&CQL_FILTER=code_insee%3D%2733138%27&SRSNAME=EPSG%3A4326","license":"Licence Ouverte / Open Licence 2.0","sourceYear":"2026","communeCode":"33138","communeName":"Coutras","featureCount":3,"parentCount":1,"parentContract":"technical commune group; not selectable and not displayed as a district","sourceFeatureCount":3,"humanLabelContract":"one visible plate per unique official human place name","groupingContract":"only exact source-ID groups approved by the resolved curation, or source zones sharing the same official name and parent, are merged","groupedZoneCount":0,"groupedSourceFeatureCount":0,"curationStatus":"resolved","curationRevision":1,"curationSources":[{"id":"ign-insee-contours-iris-2026","provider":"IGN / INSEE - Contours IRIS WFS Géoplateforme","datasetUrl":"https://geoservices.ign.fr/contoursiris","role":"official geometry, source identifiers and source labels","vintage":"2026","license":"Licence Ouverte / Open Licence 2.0"},{"id":"ign-geoplateforme-toponymy-2026","provider":"IGN Géoplateforme - reverse geocoding, addresses and named places","datasetUrl":"https://geoservices.ign.fr/geocodage-geoplateforme","role":"official address, street and named-place evidence","vintage":"2026","license":"Licence Ouverte / Open Licence 2.0"},{"id":"guide-alpha-editorial-recovery-2026-07-14","provider":"Meewav Guide Alpha editorial review","datasetUrl":"docs/geospatial/france-semantic-recovery.md","role":"versioned mapping of exact official IRIS identifiers to coherent human place names","vintage":"2026-07-14","license":"Project documentation"}],"sourceCorrections":[{"operationId":"coutras-331380102-rename-lieu-dit-audebeau","type":"rename","sourceIds":["331380102"],"expectedLabels":["Centre"],"outputLabel":"Lieu Dit Audebeau","evidenceRefs":["ign-insee-contours-iris-2026","ign-geoplateforme-toponymy-2026","guide-alpha-editorial-recovery-2026-07-14"],"rationale":"The exact official IGN BD TOPO named road has a deterministic evidence point strictly inside this exact IRIS. The 1:1 label is emitted without nearest assignment, invented geometry, split or dropped source cell."},{"operationId":"coutras-331380103-rename-chemin-de-troquereau-sur-l-isle","type":"rename","sourceIds":["331380103"],"expectedLabels":["Est"],"outputLabel":"Chemin de Troquereau sur l'Isle","evidenceRefs":["ign-insee-contours-iris-2026","ign-geoplateforme-toponymy-2026","guide-alpha-editorial-recovery-2026-07-14"],"rationale":"The exact official IGN BD TOPO named road has a deterministic evidence point strictly inside this exact IRIS. The 1:1 label is emitted without nearest assignment, invented geometry, split or dropped source cell."}],"bbox":[-0.17730015,45.01236578,-0.02329268,45.06926978],"areaStatsM2":{"minimum":4039569.296808243,"average":11185337.10178121,"maximum":19499307.08403206}},"features":[{"type":"Feature","id":"coutras_331380101_dronne","properties":{"zoneId":"coutras_331380101_dronne","label":"Dronne","districtCode":"331380101","arrondissementCode":"33138","colorIndex":0,"parentZoneId":"coutras_parent_33138_coutras","parentCode":"33138","parentLabel":"Coutras","territoryType":"iris","source":"IGN / INSEE - Contours IRIS WFS Géoplateforme","sourceYear":"2026","officialId":"331380101","sourceCleabs":"IRIS____0000000331380101","communeCode":"33138","communeName":"Coutras","irisCode":"0101","irisType":"H","officialAreaM2":10017134.924503326,"labelLng":-0.14128257900604688,"labelLat":45.04675826545778,"bbox":[-0.17730015,45.02203216,-0.10927661,45.06926978]},"geometry":{"type":"MultiPolygon","coordinates":[[[[-0.1258493,45.02203216],[-0.12641999,45.02258201],[-0.12707565,45.02358362],[-0.1278033,45.02437235],[-0.12861142,45.02491822],[-0.13148701,45.02539872],[-0.13490717,45.02527899],[-0.13659943,45.02529799],[-0.13854678,45.02547016],[-0.14148503,45.02584231],[-0.14286357,45.02620257],[-0.14352257,45.0267147],[-0.14397625,45.02732635],[-0.14390205,45.02801868],[-0.1433961,45.02932695],[-0.14326513,45.03013983],[-0.14328574,45.03116289],[-0.14317165,45.03157521],[-0.14292769,45.03202815],[-0.14219148,45.03269952],[-0.14200448,45.03303551],[-0.14201542,45.03329832],[-0.14225745,45.03351225],[-0.14255391,45.03360931],[-0.14387912,45.03392151],[-0.14464028,45.03401085],[-0.14486451,45.03397567],[-0.14534529,45.03368906],[-0.14597749,45.03299897],[-0.14635309,45.03278561],[-0.14672367,45.03279946],[-0.14712955,45.0329664],[-0.1473733,45.03330102],[-0.14738718,45.03375118],[-0.14693004,45.03382538],[-0.14639876,45.03445675],[-0.14602781,45.03522777],[-0.14603385,45.03601335],[-0.14653434,45.03682281],[-0.14675829,45.03700841],[-0.14719535,45.03720962],[-0.1485941,45.03758456],[-0.14985011,45.03707145],[-0.15308807,45.03544249],[-0.154988,45.03463082],[-0.15599473,45.03440945],[-0.15647597,45.03440211],[-0.15899944,45.03459724],[-0.15878968,45.0362396],[-0.15949741,45.03659708],[-0.16038482,45.03689538],[-0.16062741,45.03729759],[-0.1606689,45.03764965],[-0.16039316,45.03861806],[-0.16014783,45.03906747],[-0.15917833,45.0403322],[-0.15921271,45.04078358],[-0.15950559,45.0408834],[-0.16011783,45.0407642],[-0.16060973,45.04087729],[-0.16110955,45.04083787],[-0.16175376,45.04065467],[-0.16311279,45.040571],[-0.16429353,45.04018871],[-0.16434659,45.03998085],[-0.16630383,45.03867716],[-0.16783071,45.03931405],[-0.16994698,45.04001164],[-0.17130055,45.04108776],[-0.17209892,45.04196522],[-0.17239312,45.04213256],[-0.17304691,45.04234281],[-0.17443203,45.04231503],[-0.17730015,45.04259545],[-0.17644502,45.04380933],[-0.17374783,45.04481801],[-0.17335186,45.04471665],[-0.17270804,45.04593799],[-0.17220448,45.04633802],[-0.17094584,45.04687219],[-0.16943708,45.04725487],[-0.16998693,45.04758164],[-0.17029935,45.04766646],[-0.17024274,45.04785641],[-0.16959345,45.04801817],[-0.16937047,45.04814346],[-0.16921583,45.0485777],[-0.16844656,45.04940429],[-0.16768544,45.04974674],[-0.16731255,45.05025566],[-0.16680298,45.05068557],[-0.16608026,45.05067369],[-0.16582182,45.05077926],[-0.16561491,45.05089688],[-0.16519768,45.05140886],[-0.16464118,45.05157156],[-0.16436058,45.05186969],[-0.16360286,45.05229582],[-0.16223343,45.05388734],[-0.16104951,45.05376867],[-0.15926825,45.0538778],[-0.15773986,45.05333183],[-0.15733883,45.05325399],[-0.15688957,45.05326763],[-0.15603019,45.05344789],[-0.15509073,45.05412421],[-0.15479068,45.05421382],[-0.1501481,45.05489404],[-0.14857997,45.05499606],[-0.14678892,45.0555423],[-0.14527629,45.05624735],[-0.14456586,45.05634221],[-0.14332691,45.05596809],[-0.14311056,45.05619046],[-0.13684748,45.05556871],[-0.13443447,45.05552222],[-0.13394665,45.05541521],[-0.13445167,45.0569635],[-0.13439377,45.05865288],[-0.1347,45.06196211],[-0.1344695,45.06227317],[-0.13371766,45.06233398],[-0.13306317,45.06249837],[-0.13232287,45.06285621],[-0.1318748,45.06321033],[-0.1318906,45.06365142],[-0.13247878,45.0639827],[-0.13294869,45.06444977],[-0.13302728,45.06496749],[-0.13266969,45.06650582],[-0.13231678,45.06726546],[-0.13180463,45.06786107],[-0.13137595,45.06813084],[-0.13086629,45.0682488],[-0.12947176,45.06830151],[-0.12939106,45.0684047],[-0.12834413,45.06846565],[-0.12734034,45.06868397],[-0.12613115,45.06854941],[-0.12406554,45.06810727],[-0.1214712,45.06810162],[-0.12074359,45.06839324],[-0.11899351,45.06868286],[-0.11717986,45.06926978],[-0.11566193,45.06815796],[-0.11591228,45.06692276],[-0.11641613,45.06581023],[-0.11582033,45.06552324],[-0.11544352,45.06581222],[-0.11370553,45.06458218],[-0.1144889,45.06399078],[-0.11677759,45.06255348],[-0.11829646,45.06151796],[-0.12015283,45.06033419],[-0.12169638,45.05958357],[-0.12320933,45.05864996],[-0.12343599,45.0584742],[-0.12428176,45.05738718],[-0.12442157,45.05681737],[-0.12434453,45.0560527],[-0.12440512,45.05531661],[-0.12501383,45.0538785],[-0.12712939,45.05144833],[-0.12766171,45.05062419],[-0.12853232,45.04950761],[-0.1289511,45.04856321],[-0.12903642,45.04808864],[-0.12900694,45.04797052],[-0.12889433,45.04797999],[-0.1281153,45.04827852],[-0.12698742,45.04890853],[-0.12568839,45.04934239],[-0.12509149,45.04969345],[-0.1248847,45.04990561],[-0.12467054,45.05030449],[-0.12451625,45.05163884],[-0.12415921,45.05180114],[-0.12280152,45.05070746],[-0.12271468,45.04974392],[-0.12222793,45.04769588],[-0.12215902,45.04757706],[-0.12206745,45.0475535],[-0.12169119,45.04771273],[-0.12014565,45.04858146],[-0.11763086,45.05014681],[-0.11698709,45.05043336],[-0.1142696,45.05142041],[-0.1125601,45.05243057],[-0.11206243,45.05267066],[-0.11195088,45.05267648],[-0.11180952,45.05276333],[-0.11139701,45.05266042],[-0.11041283,45.05249599],[-0.10927661,45.0523403],[-0.11494125,45.04871187],[-0.1210288,45.04479375],[-0.12410607,45.04238172],[-0.12608419,45.04236674],[-0.12635614,45.04229783],[-0.12680414,45.04203564],[-0.12980722,45.04316682],[-0.12989621,45.04305349],[-0.13035226,45.04173137],[-0.13042004,45.04103473],[-0.13022691,45.04049049],[-0.13042381,45.0399434],[-0.13079439,45.03918417],[-0.13120765,45.03873371],[-0.13070912,45.03818275],[-0.13037547,45.03794343],[-0.13019157,45.03774586],[-0.12968661,45.03742034],[-0.12963195,45.03730654],[-0.12963065,45.03685153],[-0.1293902,45.03648343],[-0.1295684,45.0363748],[-0.13246311,45.03337203],[-0.13317771,45.03224447],[-0.13513043,45.03067115],[-0.13277983,45.02974523],[-0.13142302,45.02909228],[-0.12978599,45.02838141],[-0.12786485,45.02742891],[-0.12751045,45.02729469],[-0.1269554,45.02613888],[-0.12669891,45.02505036],[-0.12653438,45.02472068],[-0.12628851,45.02436806],[-0.12552206,45.02368043],[-0.12524943,45.0231213],[-0.1252205,45.02278511],[-0.12533611,45.02246648],[-0.1258493,45.02203216]]]]}},{"type":"Feature","id":"coutras_331380102_centre","properties":{"zoneId":"coutras_331380102_centre","label":"Lieu Dit Audebeau","districtCode":"331380102","arrondissementCode":"33138","colorIndex":1,"parentZoneId":"coutras_parent_33138_coutras","parentCode":"33138","parentLabel":"Coutras","territoryType":"iris","source":"IGN / INSEE - Contours IRIS WFS Géoplateforme","sourceYear":"2026","officialId":"331380102","sourceCleabs":"IRIS____0000000331380102","communeCode":"33138","communeName":"Coutras","irisCode":"0102","irisType":"H","officialAreaM2":4039569.296808243,"labelLng":-0.11329936062845226,"labelLat":45.036245327921286,"bbox":[-0.13120765,45.0248162,-0.08623524,45.04871187],"curationOperationId":"coutras-331380102-rename-lieu-dit-audebeau","curationRevision":1,"curationEvidenceRefs":["ign-insee-contours-iris-2026","ign-geoplateforme-toponymy-2026","guide-alpha-editorial-recovery-2026-07-14"],"curationRationale":"The exact official IGN BD TOPO named road has a deterministic evidence point strictly inside this exact IRIS. The 1:1 label is emitted without nearest assignment, invented geometry, split or dropped source cell.","semanticLabelReviewed":true,"semanticLabelAccepted":false,"semanticResolution":"rename"},"geometry":{"type":"MultiPolygon","coordinates":[[[[-0.1293902,45.03648343],[-0.12963065,45.03685153],[-0.12963195,45.03730654],[-0.12968661,45.03742034],[-0.13019157,45.03774586],[-0.13037547,45.03794343],[-0.13070912,45.03818275],[-0.13120765,45.03873371],[-0.13079439,45.03918417],[-0.13042381,45.0399434],[-0.13022691,45.04049049],[-0.13042004,45.04103473],[-0.13035226,45.04173137],[-0.12989621,45.04305349],[-0.12980722,45.04316682],[-0.12680414,45.04203564],[-0.12635614,45.04229783],[-0.12608419,45.04236674],[-0.12410607,45.04238172],[-0.1210288,45.04479375],[-0.11494125,45.04871187],[-0.10984276,45.04770642],[-0.10832395,45.04727487],[-0.10825202,45.0472156],[-0.10822247,45.04716416],[-0.10839238,45.04651605],[-0.108408,45.04617951],[-0.10808695,45.04323742],[-0.10811678,45.04313386],[-0.10791431,45.04173112],[-0.1077139,45.03965612],[-0.10683274,45.03951131],[-0.10606398,45.03933093],[-0.10382124,45.03862847],[-0.10358227,45.03858197],[-0.10334177,45.03859948],[-0.10323251,45.03853134],[-0.10320249,45.03844838],[-0.1027914,45.03825439],[-0.10138524,45.03776285],[-0.0944049,45.03561342],[-0.09333815,45.03539707],[-0.08623524,45.03421651],[-0.08673872,45.03286175],[-0.10098322,45.03504919],[-0.10119072,45.03466585],[-0.10230512,45.03324263],[-0.10241635,45.03320889],[-0.10242581,45.03312753],[-0.10446132,45.03060272],[-0.10460199,45.03050419],[-0.10475555,45.03045485],[-0.10467897,45.03040292],[-0.10461023,45.03026337],[-0.10361238,45.0297073],[-0.10252502,45.02916363],[-0.10210956,45.02868322],[-0.10063413,45.02787733],[-0.09933644,45.02709079],[-0.09901896,45.02704827],[-0.09677785,45.02716832],[-0.09662255,45.02714021],[-0.09658526,45.02708628],[-0.09658925,45.02672213],[-0.09666126,45.0257731],[-0.09703532,45.02571313],[-0.09800423,45.02542756],[-0.09863551,45.0249189],[-0.09881538,45.02484],[-0.09899067,45.0248162],[-0.10019743,45.02499434],[-0.10248452,45.02545322],[-0.10377617,45.02555778],[-0.10628446,45.02606358],[-0.1068839,45.02608109],[-0.10804463,45.02590991],[-0.10845167,45.02600938],[-0.10913845,45.0262497],[-0.10982036,45.02631085],[-0.11033231,45.02633168],[-0.11148271,45.02620311],[-0.11287372,45.02583171],[-0.11364898,45.02558385],[-0.11420291,45.02631354],[-0.11459082,45.02663969],[-0.11504872,45.02694496],[-0.11681393,45.02790835],[-0.11844343,45.0286016],[-0.11935534,45.02923203],[-0.12040776,45.03014867],[-0.12185894,45.03092345],[-0.12378514,45.03219401],[-0.12467876,45.03263118],[-0.12629136,45.03329055],[-0.12739752,45.03400557],[-0.12773728,45.03424112],[-0.12803055,45.03450862],[-0.12856931,45.03537113],[-0.1293902,45.03648343]]]]}},{"type":"Feature","id":"coutras_331380103_est","properties":{"zoneId":"coutras_331380103_est","label":"Chemin de Troquereau sur l'Isle","districtCode":"331380103","arrondissementCode":"33138","colorIndex":2,"parentZoneId":"coutras_parent_33138_coutras","parentCode":"33138","parentLabel":"Coutras","territoryType":"iris","source":"IGN / INSEE - Contours IRIS WFS Géoplateforme","sourceYear":"2026","officialId":"331380103","sourceCleabs":"IRIS____0000000331380103","communeCode":"33138","communeName":"Coutras","irisCode":"0103","irisType":"H","officialAreaM2":19499307.08403206,"labelLng":-0.08560826351862892,"labelLat":45.036007988885764,"bbox":[-0.13513043,45.01236578,-0.02329268,45.06458218],"curationOperationId":"coutras-331380103-rename-chemin-de-troquereau-sur-l-isle","curationRevision":1,"curationEvidenceRefs":["ign-insee-contours-iris-2026","ign-geoplateforme-toponymy-2026","guide-alpha-editorial-recovery-2026-07-14"],"curationRationale":"The exact official IGN BD TOPO named road has a deterministic evidence point strictly inside this exact IRIS. The 1:1 label is emitted without nearest assignment, invented geometry, split or dropped source cell.","semanticLabelReviewed":true,"semanticLabelAccepted":false,"semanticResolution":"rename"},"geometry":{"type":"MultiPolygon","coordinates":[[[[-0.04246557,45.02095875],[-0.04252004,45.02032473],[-0.04278272,45.0198517],[-0.04332519,45.01964134],[-0.04378753,45.01961608],[-0.0459973,45.0198818],[-0.0477971,45.02062094],[-0.04837273,45.02076285],[-0.04964124,45.02089028],[-0.05098898,45.02079297],[-0.05359997,45.02021406],[-0.05586691,45.02010588],[-0.05684408,45.02020248],[-0.0584296,45.0205743],[-0.05925311,45.02095084],[-0.05967348,45.02136638],[-0.06061391,45.02313722],[-0.06087764,45.02345255],[-0.06132612,45.02370783],[-0.06194441,45.02386202],[-0.06322675,45.02391503],[-0.06690779,45.02347935],[-0.06802469,45.02324943],[-0.06940429,45.02278249],[-0.06998235,45.02231871],[-0.07043172,45.02182515],[-0.07127498,45.0200358],[-0.07158914,45.0195793],[-0.07245742,45.01921923],[-0.07319178,45.01917372],[-0.074106,45.01965036],[-0.07454034,45.02015647],[-0.07486184,45.02038908],[-0.07591458,45.02068076],[-0.07758319,45.02080493],[-0.07798005,45.02092911],[-0.07826609,45.02114015],[-0.07884775,45.02166741],[-0.0792348,45.02232889],[-0.07936067,45.02300031],[-0.07937183,45.02428852],[-0.07954637,45.02485136],[-0.08017404,45.02554403],[-0.08104048,45.02611926],[-0.08186502,45.02639468],[-0.08270579,45.02657233],[-0.08468074,45.02681046],[-0.08818573,45.02682138],[-0.09028997,45.02709907],[-0.09112526,45.02708488],[-0.09171963,45.02671155],[-0.09205567,45.0263544],[-0.0926627,45.02554369],[-0.09295959,45.02480016],[-0.09270023,45.0220609],[-0.09258531,45.02156761],[-0.09208221,45.02069403],[-0.08974698,45.01846027],[-0.08939128,45.01797726],[-0.08942233,45.0176421],[-0.08975959,45.01712363],[-0.09043434,45.01678141],[-0.09134416,45.0165552],[-0.0937172,45.01533588],[-0.09436074,45.015418],[-0.09601074,45.01626416],[-0.09671324,45.0164014],[-0.09827612,45.01654442],[-0.10178001,45.0171199],[-0.10254782,45.0171057],[-0.10548541,45.01679218],[-0.10856307,45.0157529],[-0.10913598,45.01568373],[-0.11035768,45.01569914],[-0.11229732,45.01585486],[-0.11323671,45.01570513],[-0.11389876,45.0154343],[-0.11439323,45.01482305],[-0.11476423,45.01397916],[-0.1150965,45.01348959],[-0.11587765,45.01264323],[-0.11648593,45.01236578],[-0.11720744,45.01259336],[-0.1182383,45.0130835],[-0.11882056,45.01345644],[-0.1195455,45.01442911],[-0.12013764,45.01579927],[-0.12072922,45.01627017],[-0.12160978,45.01645542],[-0.12248647,45.01675341],[-0.12309683,45.01717331],[-0.12338964,45.01775349],[-0.12318599,45.01909011],[-0.1233956,45.01984114],[-0.12388265,45.02069161],[-0.12558341,45.02177561],[-0.1258493,45.02203216],[-0.12533611,45.02246648],[-0.1252205,45.02278511],[-0.12524943,45.0231213],[-0.12552206,45.02368043],[-0.12628851,45.02436806],[-0.12653438,45.02472068],[-0.12669891,45.02505036],[-0.1269554,45.02613888],[-0.12751045,45.02729469],[-0.12786485,45.02742891],[-0.12978599,45.02838141],[-0.13142302,45.02909228],[-0.13277983,45.02974523],[-0.13513043,45.03067115],[-0.13317771,45.03224447],[-0.13246311,45.03337203],[-0.1295684,45.0363748],[-0.1293902,45.03648343],[-0.12856931,45.03537113],[-0.12803055,45.03450862],[-0.12773728,45.03424112],[-0.12739752,45.03400557],[-0.12629136,45.03329055],[-0.12467876,45.03263118],[-0.12378514,45.03219401],[-0.12185894,45.03092345],[-0.12040776,45.03014867],[-0.11935534,45.02923203],[-0.11844343,45.0286016],[-0.11681393,45.02790835],[-0.11504872,45.02694496],[-0.11459082,45.02663969],[-0.11420291,45.02631354],[-0.11364898,45.02558385],[-0.11287372,45.02583171],[-0.11148271,45.02620311],[-0.11033231,45.02633168],[-0.10982036,45.02631085],[-0.10913845,45.0262497],[-0.10845167,45.02600938],[-0.10804463,45.02590991],[-0.1068839,45.02608109],[-0.10628446,45.02606358],[-0.10377617,45.02555778],[-0.10248452,45.02545322],[-0.10019743,45.02499434],[-0.09899067,45.0248162],[-0.09881538,45.02484],[-0.09863551,45.0249189],[-0.09800423,45.02542756],[-0.09703532,45.02571313],[-0.09666126,45.0257731],[-0.09658925,45.02672213],[-0.09658526,45.02708628],[-0.09662255,45.02714021],[-0.09677785,45.02716832],[-0.09901896,45.02704827],[-0.09933644,45.02709079],[-0.10063413,45.02787733],[-0.10210956,45.02868322],[-0.10252502,45.02916363],[-0.10361238,45.0297073],[-0.10461023,45.03026337],[-0.10467897,45.03040292],[-0.10475555,45.03045485],[-0.10460199,45.03050419],[-0.10446132,45.03060272],[-0.10242581,45.03312753],[-0.10241635,45.03320889],[-0.10230512,45.03324263],[-0.10119072,45.03466585],[-0.10098322,45.03504919],[-0.08673872,45.03286175],[-0.08623524,45.03421651],[-0.09333815,45.03539707],[-0.0944049,45.03561342],[-0.10138524,45.03776285],[-0.1027914,45.03825439],[-0.10320249,45.03844838],[-0.10323251,45.03853134],[-0.10334177,45.03859948],[-0.10358227,45.03858197],[-0.10382124,45.03862847],[-0.10606398,45.03933093],[-0.10683274,45.03951131],[-0.1077139,45.03965612],[-0.10791431,45.04173112],[-0.10811678,45.04313386],[-0.10808695,45.04323742],[-0.108408,45.04617951],[-0.10839238,45.04651605],[-0.10822247,45.04716416],[-0.10825202,45.0472156],[-0.10832395,45.04727487],[-0.10984276,45.04770642],[-0.11494125,45.04871187],[-0.10927661,45.0523403],[-0.11041283,45.05249599],[-0.11139701,45.05266042],[-0.11180952,45.05276333],[-0.11195088,45.05267648],[-0.11206243,45.05267066],[-0.1125601,45.05243057],[-0.1142696,45.05142041],[-0.11698709,45.05043336],[-0.11763086,45.05014681],[-0.12014565,45.04858146],[-0.12169119,45.04771273],[-0.12206745,45.0475535],[-0.12215902,45.04757706],[-0.12222793,45.04769588],[-0.12271468,45.04974392],[-0.12280152,45.05070746],[-0.12415921,45.05180114],[-0.12451625,45.05163884],[-0.12467054,45.05030449],[-0.1248847,45.04990561],[-0.12509149,45.04969345],[-0.12568839,45.04934239],[-0.12698742,45.04890853],[-0.1281153,45.04827852],[-0.12889433,45.04797999],[-0.12900694,45.04797052],[-0.12903642,45.04808864],[-0.1289511,45.04856321],[-0.12853232,45.04950761],[-0.12766171,45.05062419],[-0.12712939,45.05144833],[-0.12501383,45.0538785],[-0.12440512,45.05531661],[-0.12434453,45.0560527],[-0.12442157,45.05681737],[-0.12428176,45.05738718],[-0.12343599,45.0584742],[-0.12320933,45.05864996],[-0.12169638,45.05958357],[-0.12015283,45.06033419],[-0.11829646,45.06151796],[-0.11677759,45.06255348],[-0.1144889,45.06399078],[-0.11370553,45.06458218],[-0.10989166,45.06312986],[-0.11030433,45.0625939],[-0.10961753,45.06238421],[-0.10941244,45.0621944],[-0.1091418,45.06219745],[-0.108895,45.06203493],[-0.10849423,45.06196142],[-0.10714119,45.06136211],[-0.10683337,45.06142837],[-0.10555874,45.06084398],[-0.10442981,45.06075381],[-0.10361878,45.06057277],[-0.10319302,45.06036928],[-0.10287625,45.05997622],[-0.10243657,45.05993441],[-0.10202165,45.05976575],[-0.09994553,45.05937663],[-0.09848627,45.05931272],[-0.0983173,45.05915432],[-0.09847331,45.05907879],[-0.09634136,45.05848391],[-0.0925941,45.05681743],[-0.09138785,45.05590118],[-0.09020422,45.05537087],[-0.08968428,45.05527897],[-0.08851364,45.05461491],[-0.08792133,45.05397175],[-0.08722721,45.05351073],[-0.08592535,45.0516879],[-0.08669272,45.05119626],[-0.08617123,45.04978522],[-0.08762952,45.04956007],[-0.08644776,45.047724],[-0.08583789,45.04699122],[-0.08810929,45.04560906],[-0.08848907,45.04542011],[-0.08883639,45.04537984],[-0.08871137,45.04511839],[-0.08634548,45.04292051],[-0.08451344,45.04362547],[-0.08416014,45.0436722],[-0.08291025,45.04375548],[-0.08287772,45.04367258],[-0.07625978,45.0435601],[-0.06895752,45.04415541],[-0.06769092,45.04699444],[-0.06772837,45.04786294],[-0.06760773,45.04867632],[-0.06767101,45.04888002],[-0.06753099,45.04910824],[-0.0673124,45.04894667],[-0.06497661,45.04830636],[-0.06302298,45.04744825],[-0.05978942,45.04661268],[-0.05407456,45.04523509],[-0.05289716,45.04513403],[-0.0512122,45.0446522],[-0.0509811,45.04544876],[-0.05063808,45.045405],[-0.04957278,45.04516838],[-0.04754408,45.04430215],[-0.0461737,45.04387741],[-0.04727732,45.04124766],[-0.04737995,45.04093849],[-0.04732776,45.04068042],[-0.04969555,45.03499209],[-0.04981599,45.03302809],[-0.04973872,45.03142363],[-0.04986757,45.03129305],[-0.05055957,45.03114343],[-0.05082396,45.03039912],[-0.03607076,45.03312815],[-0.02889136,45.0344005],[-0.02635045,45.03476425],[-0.02628339,45.03483996],[-0.02600074,45.03410158],[-0.02617776,45.03314527],[-0.02656562,45.03268059],[-0.02657277,45.03253083],[-0.026085,45.03225215],[-0.02551068,45.0312658],[-0.02480947,45.03070549],[-0.02410486,45.0304345],[-0.02387641,45.03003975],[-0.02387757,45.02961442],[-0.02464275,45.02931341],[-0.02481957,45.02868238],[-0.02480649,45.02818175],[-0.02461087,45.02813571],[-0.02415738,45.0282084],[-0.02329821,45.02792179],[-0.02329268,45.02777236],[-0.02347537,45.02755565],[-0.02382274,45.02742368],[-0.02403805,45.02708174],[-0.02405569,45.0262559],[-0.02481123,45.02537758],[-0.025309,45.0250667],[-0.02558795,45.02458607],[-0.0265644,45.02473973],[-0.02692674,45.02453255],[-0.02715937,45.02465237],[-0.02733109,45.02496126],[-0.02757989,45.02498062],[-0.02778095,45.02515085],[-0.02826512,45.02534042],[-0.02837879,45.02553916],[-0.02829947,45.02574045],[-0.02845684,45.02613623],[-0.02880978,45.02615455],[-0.02885839,45.02646589],[-0.02908739,45.02644795],[-0.02919893,45.02658367],[-0.02956749,45.0265385],[-0.02973304,45.0267097],[-0.03038282,45.02669561],[-0.03084798,45.02747226],[-0.03125658,45.02783777],[-0.03170804,45.02805614],[-0.0329633,45.02838236],[-0.03612128,45.02890626],[-0.03834335,45.02957998],[-0.03888718,45.02964983],[-0.04011799,45.02961802],[-0.04135316,45.0292689],[-0.04216464,45.02890973],[-0.04288237,45.02855582],[-0.04318254,45.02825748],[-0.04350304,45.02756211],[-0.0435769,45.02707442],[-0.04365048,45.02503964],[-0.04355833,45.02448982],[-0.04255313,45.02158799],[-0.04246557,45.02095875]]]]}}]}
