{"type":"FeatureCollection","metadata":{"generatedAt":"2026-07-14T18:56:03.503Z","source":"IGN / INSEE - Contours IRIS WFS Géoplateforme","datasetId":"STATISTICALUNITS.IRIS:contours_iris","datasetUrl":"https://geoservices.ign.fr/contoursiris","sourceFileUrl":"https://data.geopf.fr/wfs/ows?SERVICE=WFS&VERSION=2.0.0&REQUEST=GetFeature&TYPENAMES=STATISTICALUNITS.IRIS%3Acontours_iris&OUTPUTFORMAT=application%2Fjson&COUNT=1000&CQL_FILTER=code_insee%3D%2753084%27&SRSNAME=EPSG%3A4326","license":"Licence Ouverte / Open Licence 2.0","sourceYear":"2026","communeCode":"53084","communeName":"Craon","featureCount":2,"parentCount":1,"parentContract":"technical commune group; not selectable and not displayed as a district","sourceFeatureCount":2,"humanLabelContract":"one visible plate per unique official human place name","groupingContract":"only exact source-ID groups approved by the resolved curation, or source zones sharing the same official name and parent, are merged","groupedZoneCount":0,"groupedSourceFeatureCount":0,"curationStatus":"resolved","curationRevision":1,"curationSources":[{"id":"ign-insee-contours-iris-2026","provider":"IGN / INSEE - Contours IRIS WFS Géoplateforme","datasetUrl":"https://geoservices.ign.fr/contoursiris","role":"official geometry, source identifiers and source labels","vintage":"2026","license":"Licence Ouverte / Open Licence 2.0"},{"id":"ign-geoplateforme-toponymy-2026","provider":"IGN Géoplateforme - reverse geocoding, addresses and named places","datasetUrl":"https://geoservices.ign.fr/geocodage-geoplateforme","role":"official address, street and named-place evidence","vintage":"2026","license":"Licence Ouverte / Open Licence 2.0"},{"id":"guide-alpha-editorial-recovery-2026-07-14","provider":"Meewav Guide Alpha editorial review","datasetUrl":"docs/geospatial/france-semantic-recovery.md","role":"versioned mapping of exact official IRIS identifiers to coherent human place names","vintage":"2026-07-14","license":"Project documentation"}],"sourceCorrections":[{"operationId":"craon-530840101-rename-la-blanche-bardiere","type":"rename","sourceIds":["530840101"],"expectedLabels":["Ouest"],"outputLabel":"la Blanche Bardière","evidenceRefs":["ign-insee-contours-iris-2026","ign-geoplateforme-toponymy-2026","guide-alpha-editorial-recovery-2026-07-14"],"rationale":"The exact official IGN BD TOPO habitation toponym has a deterministic evidence point strictly inside this exact IRIS. The 1:1 label is emitted without nearest assignment, invented geometry, split or dropped source cell."},{"operationId":"craon-530840102-rename-la-goupillere","type":"rename","sourceIds":["530840102"],"expectedLabels":["Est"],"outputLabel":"la Goupillère","evidenceRefs":["ign-insee-contours-iris-2026","ign-geoplateforme-toponymy-2026","guide-alpha-editorial-recovery-2026-07-14"],"rationale":"The exact official IGN BD TOPO habitation toponym has a deterministic evidence point strictly inside this exact IRIS. The 1:1 label is emitted without nearest assignment, invented geometry, split or dropped source cell."}],"bbox":[-0.99103633,47.8145328,-0.88822854,47.87169898],"areaStatsM2":{"minimum":11642520.465332031,"average":12076117.903884888,"maximum":12509715.342437744}},"features":[{"type":"Feature","id":"craon_530840101_ouest","properties":{"zoneId":"craon_530840101_ouest","label":"la Blanche Bardière","districtCode":"530840101","arrondissementCode":"53084","colorIndex":0,"parentZoneId":"craon_parent_53084_craon","parentCode":"53084","parentLabel":"Craon","territoryType":"iris","source":"IGN / INSEE - Contours IRIS WFS Géoplateforme","sourceYear":"2026","officialId":"530840101","sourceCleabs":"IRIS____0000000530840101","communeCode":"53084","communeName":"Craon","irisCode":"0101","irisType":"H","officialAreaM2":12509715.342437744,"labelLng":-0.9494000107973449,"labelLat":47.8512741292118,"bbox":[-0.99103633,47.82508149,-0.88822854,47.87169898],"curationOperationId":"craon-530840101-rename-la-blanche-bardiere","curationRevision":1,"curationEvidenceRefs":["ign-insee-contours-iris-2026","ign-geoplateforme-toponymy-2026","guide-alpha-editorial-recovery-2026-07-14"],"curationRationale":"The exact official IGN BD TOPO habitation toponym has a deterministic evidence point strictly inside this exact IRIS. The 1:1 label is emitted without nearest assignment, invented geometry, split or dropped source cell.","semanticLabelReviewed":true,"semanticLabelAccepted":false,"semanticResolution":"rename"},"geometry":{"type":"MultiPolygon","coordinates":[[[[-0.97199397,47.82773856],[-0.9724573,47.8277607],[-0.97295636,47.82756265],[-0.97290923,47.82703978],[-0.97445861,47.82628524],[-0.97533749,47.82603103],[-0.97551535,47.8260295],[-0.97584279,47.82616708],[-0.97638124,47.82615601],[-0.97677017,47.82554175],[-0.97710043,47.82537734],[-0.97721477,47.82508149],[-0.97785168,47.82511664],[-0.97871003,47.82578588],[-0.97912936,47.8258996],[-0.97938938,47.82590519],[-0.97994666,47.82569882],[-0.98110639,47.82571078],[-0.98158173,47.82621459],[-0.98173433,47.82626888],[-0.98257199,47.82626834],[-0.98319361,47.82656351],[-0.98410671,47.82667665],[-0.98585417,47.82719125],[-0.98591992,47.82728273],[-0.98567959,47.82764686],[-0.98606031,47.82767356],[-0.98620447,47.8280967],[-0.98614066,47.82826288],[-0.98558598,47.82846829],[-0.98515596,47.82908669],[-0.98451057,47.82929608],[-0.98422831,47.82956521],[-0.98441209,47.83032043],[-0.98427098,47.83040183],[-0.98359972,47.83021288],[-0.9833874,47.83048684],[-0.98338569,47.83107085],[-0.98392912,47.83176788],[-0.98434631,47.83197718],[-0.98457199,47.83198843],[-0.98504334,47.83188499],[-0.98532692,47.83166898],[-0.98640014,47.83123957],[-0.98785431,47.83128561],[-0.98835654,47.83139738],[-0.9900324,47.83255958],[-0.99081887,47.8329275],[-0.99103633,47.83314989],[-0.98895268,47.83359752],[-0.98402552,47.8356053],[-0.98429675,47.83625932],[-0.98252618,47.83801096],[-0.98178866,47.83895699],[-0.98285582,47.83931903],[-0.98269302,47.84066456],[-0.98250695,47.84102143],[-0.98256479,47.8414358],[-0.98288335,47.84141776],[-0.98285382,47.84175579],[-0.98234538,47.84241919],[-0.98218585,47.84368351],[-0.98138436,47.84367019],[-0.98147357,47.84427092],[-0.98184997,47.84493489],[-0.98187665,47.84538005],[-0.98071132,47.84572782],[-0.97956672,47.85156912],[-0.9802432,47.85239592],[-0.98080252,47.85351686],[-0.98138868,47.85558489],[-0.98184917,47.85663709],[-0.98150975,47.8565567],[-0.98081133,47.8560812],[-0.97929178,47.85531456],[-0.97771622,47.85472913],[-0.97642882,47.8544511],[-0.97556035,47.85447515],[-0.97486611,47.85475192],[-0.97302554,47.8552045],[-0.9737245,47.8562072],[-0.97348531,47.85633876],[-0.97305989,47.85637931],[-0.97241309,47.85627057],[-0.97190047,47.85634471],[-0.97098807,47.85656936],[-0.97099228,47.8567152],[-0.97130718,47.85693342],[-0.9711302,47.85703764],[-0.9699176,47.85711566],[-0.96959512,47.85695717],[-0.96856168,47.85730034],[-0.96802161,47.85754481],[-0.96749006,47.8580467],[-0.96721763,47.8589165],[-0.96616953,47.85981704],[-0.96463465,47.86029609],[-0.96226163,47.86081246],[-0.96327712,47.86096286],[-0.96333787,47.86109508],[-0.96322097,47.86159194],[-0.96345192,47.8617977],[-0.96421468,47.8618449],[-0.96494483,47.86217255],[-0.96507025,47.86340375],[-0.96487653,47.86328414],[-0.96432813,47.86361538],[-0.964047,47.86390333],[-0.9635641,47.8640359],[-0.96324072,47.86404503],[-0.96348575,47.86515684],[-0.96281408,47.86541563],[-0.96192776,47.86428765],[-0.96080226,47.86433289],[-0.96079478,47.86521984],[-0.95822353,47.86491288],[-0.95794549,47.86601532],[-0.95547901,47.86567684],[-0.9531869,47.86510804],[-0.94970843,47.86462964],[-0.94769228,47.86447497],[-0.94400405,47.8640377],[-0.94338093,47.86404965],[-0.9433969,47.86366975],[-0.94313823,47.86361267],[-0.94037701,47.86341354],[-0.93943554,47.86382725],[-0.9405308,47.86445726],[-0.94072703,47.86524274],[-0.93982658,47.86599298],[-0.93918476,47.86634886],[-0.93797112,47.86728262],[-0.93749152,47.86753301],[-0.93721086,47.86752261],[-0.93718288,47.867073],[-0.93699337,47.86673875],[-0.93726261,47.86529515],[-0.93566761,47.86572716],[-0.93347593,47.86596832],[-0.93135009,47.8651277],[-0.93049002,47.86521331],[-0.93014988,47.86517695],[-0.92959044,47.86498214],[-0.92771763,47.86473672],[-0.92728632,47.86531435],[-0.92499387,47.86508024],[-0.92424831,47.86492137],[-0.9232056,47.86427503],[-0.92250755,47.86407041],[-0.92198636,47.86433835],[-0.92112323,47.86456366],[-0.9190181,47.86461692],[-0.91750667,47.86451335],[-0.91748934,47.86353444],[-0.91733048,47.86335953],[-0.9161851,47.86271746],[-0.91458355,47.86277095],[-0.91344951,47.86246369],[-0.91340193,47.86261756],[-0.9126692,47.86310428],[-0.91130278,47.86305976],[-0.91092166,47.86343021],[-0.91013821,47.8635924],[-0.9092697,47.86361776],[-0.908213,47.8634151],[-0.90753366,47.86368194],[-0.90714286,47.86363009],[-0.90683213,47.86386571],[-0.90655657,47.86432454],[-0.90545016,47.86541206],[-0.90513389,47.86606417],[-0.90550037,47.86786044],[-0.90547483,47.86844159],[-0.90527046,47.86904942],[-0.9054152,47.86994298],[-0.90424759,47.87060091],[-0.90328374,47.87169898],[-0.90130654,47.8714557],[-0.90128284,47.87111498],[-0.90005262,47.87099461],[-0.89962203,47.87007361],[-0.89939958,47.86979807],[-0.89992707,47.86930385],[-0.8989121,47.86895915],[-0.89940132,47.86721461],[-0.89749249,47.86706091],[-0.89679798,47.86662985],[-0.89625488,47.86651004],[-0.89545634,47.86657712],[-0.89519563,47.86667408],[-0.89445868,47.86664991],[-0.89389449,47.86658935],[-0.89399717,47.86629129],[-0.89321308,47.86611728],[-0.89286528,47.86628652],[-0.89195483,47.86617888],[-0.89229556,47.86580353],[-0.89263828,47.86558311],[-0.89282226,47.86553555],[-0.89305161,47.86561354],[-0.89382761,47.86376038],[-0.89145665,47.86404093],[-0.89095644,47.86474326],[-0.88968781,47.8638221],[-0.8905711,47.86334045],[-0.89090798,47.86293099],[-0.89184835,47.8629178],[-0.89205383,47.86287133],[-0.89221185,47.86272552],[-0.89267331,47.8626273],[-0.89280752,47.86210202],[-0.89274039,47.86191682],[-0.8924605,47.86177023],[-0.89196753,47.86167576],[-0.89210696,47.86122149],[-0.89199045,47.86105686],[-0.89142808,47.86083764],[-0.89055875,47.85973654],[-0.88910073,47.85995702],[-0.8885748,47.86010692],[-0.88827776,47.86009155],[-0.88822854,47.85909028],[-0.88831382,47.85859095],[-0.88917488,47.85866602],[-0.88951681,47.85878263],[-0.88991032,47.85874434],[-0.88958159,47.85710807],[-0.88929321,47.85649769],[-0.89044837,47.8566585],[-0.89238977,47.85751767],[-0.89274768,47.85761481],[-0.89558625,47.8579999],[-0.89772052,47.85809206],[-0.89896322,47.85794891],[-0.90373155,47.85753702],[-0.90738535,47.85606275],[-0.90800176,47.85588812],[-0.90996992,47.8557432],[-0.91180314,47.85574782],[-0.91469847,47.85550338],[-0.91656321,47.85549967],[-0.91795095,47.85540013],[-0.92535261,47.85556973],[-0.92832005,47.85575778],[-0.93187265,47.85578375],[-0.93225732,47.85566271],[-0.93339077,47.85543816],[-0.93718442,47.85495937],[-0.93766616,47.85484767],[-0.93875031,47.85448234],[-0.94064345,47.85370684],[-0.94229082,47.85293957],[-0.94241215,47.85293278],[-0.94308777,47.85267397],[-0.94518945,47.85204005],[-0.94855933,47.85020545],[-0.94842767,47.84847072],[-0.94850205,47.84839072],[-0.95178993,47.84815736],[-0.95214047,47.84824466],[-0.9537484,47.84884014],[-0.95377891,47.84880037],[-0.95374008,47.8485845],[-0.95355528,47.84827805],[-0.95314283,47.84807839],[-0.95358721,47.84674686],[-0.95381106,47.84626532],[-0.95399298,47.84536437],[-0.95134676,47.84516976],[-0.95118164,47.84503745],[-0.95122319,47.84467831],[-0.95113859,47.84460276],[-0.95078988,47.84448566],[-0.95023446,47.84497296],[-0.94987529,47.84520134],[-0.94955451,47.84162568],[-0.94942085,47.84159233],[-0.94936256,47.84149247],[-0.94941483,47.84138528],[-0.94955602,47.84133997],[-0.94937499,47.84003944],[-0.94920009,47.83925325],[-0.94928026,47.83917936],[-0.95103448,47.83919051],[-0.95173648,47.83910917],[-0.95219267,47.83896222],[-0.95246768,47.83877272],[-0.95247784,47.83842364],[-0.9526033,47.83814907],[-0.95270322,47.83807091],[-0.95306629,47.83800369],[-0.95472305,47.83785678],[-0.95503732,47.83779931],[-0.95636276,47.83731932],[-0.95783056,47.83709764],[-0.95969386,47.83688511],[-0.95990972,47.83681834],[-0.96113707,47.83602891],[-0.96318965,47.83433566],[-0.964593,47.83341319],[-0.96527109,47.83267204],[-0.96564262,47.83236028],[-0.96698321,47.83163815],[-0.96909917,47.83036797],[-0.96952406,47.8300544],[-0.97164377,47.82826318],[-0.97200405,47.82787339],[-0.97199397,47.82773856]]]]}},{"type":"Feature","id":"craon_530840102_est","properties":{"zoneId":"craon_530840102_est","label":"la Goupillère","districtCode":"530840102","arrondissementCode":"53084","colorIndex":1,"parentZoneId":"craon_parent_53084_craon","parentCode":"53084","parentLabel":"Craon","territoryType":"iris","source":"IGN / INSEE - Contours IRIS WFS Géoplateforme","sourceYear":"2026","officialId":"530840102","sourceCleabs":"IRIS____0000000530840102","communeCode":"53084","communeName":"Craon","irisCode":"0102","irisType":"H","officialAreaM2":11642520.465332031,"labelLng":-0.9356807326824339,"labelLat":47.83914478425926,"bbox":[-0.97200405,47.8145328,-0.88929321,47.85809206],"curationOperationId":"craon-530840102-rename-la-goupillere","curationRevision":1,"curationEvidenceRefs":["ign-insee-contours-iris-2026","ign-geoplateforme-toponymy-2026","guide-alpha-editorial-recovery-2026-07-14"],"curationRationale":"The exact official IGN BD TOPO habitation toponym has a deterministic evidence point strictly inside this exact IRIS. The 1:1 label is emitted without nearest assignment, invented geometry, split or dropped source cell.","semanticLabelReviewed":true,"semanticLabelAccepted":false,"semanticResolution":"rename"},"geometry":{"type":"MultiPolygon","coordinates":[[[[-0.94767124,47.81562035],[-0.94997222,47.81531208],[-0.95029604,47.81470101],[-0.95025779,47.8145464],[-0.95071433,47.8145328],[-0.95201773,47.81545486],[-0.95271981,47.81579252],[-0.95281605,47.81591724],[-0.95277857,47.81606088],[-0.95226129,47.81646312],[-0.95201557,47.8167751],[-0.95187777,47.81823238],[-0.95198342,47.81884339],[-0.95276122,47.82007243],[-0.95296031,47.82024865],[-0.95351947,47.82033701],[-0.95388582,47.82022552],[-0.95459369,47.81972312],[-0.95505332,47.81960668],[-0.95527561,47.81964513],[-0.95543579,47.81976588],[-0.95584969,47.82056293],[-0.9561728,47.82082326],[-0.95651027,47.82082718],[-0.95695232,47.82056444],[-0.95712961,47.82019619],[-0.95770675,47.82007667],[-0.95799004,47.82014369],[-0.95891243,47.82068926],[-0.96016239,47.82087229],[-0.96046508,47.82082241],[-0.96095118,47.8204329],[-0.96174442,47.82019701],[-0.96209331,47.82001309],[-0.96255314,47.82036611],[-0.96306304,47.82094181],[-0.964229,47.82111052],[-0.96627489,47.82202532],[-0.96714833,47.82207505],[-0.96766938,47.82202856],[-0.96778533,47.82211205],[-0.96786029,47.82245284],[-0.96779745,47.82313444],[-0.96789226,47.82368723],[-0.9681186,47.82376157],[-0.96842489,47.82368811],[-0.96855311,47.82373874],[-0.96893418,47.82434402],[-0.96904548,47.82472323],[-0.9691563,47.82538272],[-0.9690885,47.82554992],[-0.96863011,47.82595204],[-0.96856024,47.82625269],[-0.96892793,47.82689356],[-0.96936811,47.8272328],[-0.96956516,47.82757757],[-0.96993433,47.82777232],[-0.97013044,47.82781794],[-0.97074096,47.82775039],[-0.97128299,47.82791225],[-0.97164616,47.82770439],[-0.97199397,47.82773856],[-0.97200405,47.82787339],[-0.97164377,47.82826318],[-0.96952406,47.8300544],[-0.96909917,47.83036797],[-0.96698321,47.83163815],[-0.96564262,47.83236028],[-0.96527109,47.83267204],[-0.964593,47.83341319],[-0.96318965,47.83433566],[-0.96113707,47.83602891],[-0.95990972,47.83681834],[-0.95969386,47.83688511],[-0.95783056,47.83709764],[-0.95636276,47.83731932],[-0.95503732,47.83779931],[-0.95472305,47.83785678],[-0.95306629,47.83800369],[-0.95270322,47.83807091],[-0.9526033,47.83814907],[-0.95247784,47.83842364],[-0.95246768,47.83877272],[-0.95219267,47.83896222],[-0.95173648,47.83910917],[-0.95103448,47.83919051],[-0.94928026,47.83917936],[-0.94920009,47.83925325],[-0.94937499,47.84003944],[-0.94955602,47.84133997],[-0.94941483,47.84138528],[-0.94936256,47.84149247],[-0.94942085,47.84159233],[-0.94955451,47.84162568],[-0.94987529,47.84520134],[-0.95023446,47.84497296],[-0.95078988,47.84448566],[-0.95113859,47.84460276],[-0.95122319,47.84467831],[-0.95118164,47.84503745],[-0.95134676,47.84516976],[-0.95399298,47.84536437],[-0.95381106,47.84626532],[-0.95358721,47.84674686],[-0.95314283,47.84807839],[-0.95355528,47.84827805],[-0.95374008,47.8485845],[-0.95377891,47.84880037],[-0.9537484,47.84884014],[-0.95214047,47.84824466],[-0.95178993,47.84815736],[-0.94850205,47.84839072],[-0.94842767,47.84847072],[-0.94855933,47.85020545],[-0.94518945,47.85204005],[-0.94308777,47.85267397],[-0.94241215,47.85293278],[-0.94229082,47.85293957],[-0.94064345,47.85370684],[-0.93875031,47.85448234],[-0.93766616,47.85484767],[-0.93718442,47.85495937],[-0.93339077,47.85543816],[-0.93225732,47.85566271],[-0.93187265,47.85578375],[-0.92832005,47.85575778],[-0.92535261,47.85556973],[-0.91795095,47.85540013],[-0.91656321,47.85549967],[-0.91469847,47.85550338],[-0.91180314,47.85574782],[-0.90996992,47.8557432],[-0.90800176,47.85588812],[-0.90738535,47.85606275],[-0.90373155,47.85753702],[-0.89896322,47.85794891],[-0.89772052,47.85809206],[-0.89558625,47.8579999],[-0.89274768,47.85761481],[-0.89238977,47.85751767],[-0.89044837,47.8566585],[-0.88929321,47.85649769],[-0.88942369,47.85566527],[-0.89155024,47.85422865],[-0.89172,47.85427978],[-0.89177626,47.8545176],[-0.89205574,47.85462276],[-0.89338877,47.85490919],[-0.89424591,47.85491316],[-0.89457612,47.85483371],[-0.89483567,47.85463045],[-0.89526492,47.85447742],[-0.89559689,47.85444026],[-0.89620837,47.8546362],[-0.89805832,47.85472338],[-0.89802312,47.85449927],[-0.89754755,47.85389334],[-0.89764982,47.8504712],[-0.89876321,47.85062971],[-0.90059488,47.85068862],[-0.90103662,47.85087036],[-0.90269485,47.85099177],[-0.9031249,47.85110541],[-0.90371533,47.85139752],[-0.90427341,47.85148617],[-0.90482449,47.8514615],[-0.90644778,47.85192645],[-0.90707897,47.85184413],[-0.90806312,47.85155542],[-0.90933754,47.84964495],[-0.91018836,47.84885514],[-0.91085564,47.84855444],[-0.91181702,47.84835745],[-0.9122627,47.84833807],[-0.91270836,47.84793663],[-0.91419489,47.84580184],[-0.91533766,47.8458691],[-0.91542521,47.84558594],[-0.91582146,47.84522307],[-0.91589271,47.84470075],[-0.91596705,47.84452886],[-0.91622824,47.84436785],[-0.91635948,47.84378766],[-0.9162655,47.84362049],[-0.91488825,47.84353134],[-0.91494808,47.8429265],[-0.9151811,47.84251051],[-0.91535639,47.84243708],[-0.91550721,47.84181388],[-0.91548637,47.84147666],[-0.9147049,47.84133426],[-0.91525898,47.83884582],[-0.91134201,47.83821789],[-0.91135881,47.83708284],[-0.91038573,47.83720903],[-0.91007259,47.83659141],[-0.91040599,47.83622976],[-0.91049694,47.83566533],[-0.90950352,47.83549663],[-0.90958775,47.83480448],[-0.90987514,47.83465432],[-0.91075707,47.83441763],[-0.91244296,47.83412166],[-0.91258464,47.83406466],[-0.91270679,47.83385153],[-0.91332954,47.83365772],[-0.91442931,47.83365343],[-0.91465874,47.83362504],[-0.91483189,47.83350481],[-0.91660994,47.83340664],[-0.91721955,47.83354306],[-0.91793352,47.83219095],[-0.92033353,47.83210707],[-0.91985235,47.83082737],[-0.91577934,47.82994531],[-0.91500301,47.8298523],[-0.91563998,47.8285992],[-0.91773641,47.82904635],[-0.91986586,47.82990418],[-0.92106446,47.82991634],[-0.9228851,47.82979863],[-0.92328383,47.82996099],[-0.92474671,47.8302355],[-0.92609727,47.83067415],[-0.92634122,47.83089667],[-0.92652608,47.83095355],[-0.92841916,47.8306567],[-0.92989021,47.83071551],[-0.93179813,47.83099933],[-0.93330571,47.83106318],[-0.9328775,47.83034043],[-0.93190441,47.83037399],[-0.93149945,47.82989287],[-0.93149818,47.82965862],[-0.93604926,47.8277234],[-0.93567448,47.82707186],[-0.93567472,47.82604547],[-0.94047495,47.82567145],[-0.94016718,47.82377682],[-0.94066357,47.82379437],[-0.94181434,47.82442609],[-0.94349647,47.82426585],[-0.94354446,47.82401102],[-0.94684741,47.82380247],[-0.94707368,47.82133656],[-0.94690938,47.81779162],[-0.94711618,47.81657713],[-0.94767124,47.81562035]]]]}}]}
