{"type":"FeatureCollection","metadata":{"generatedAt":"2026-07-14T18:56:03.503Z","source":"IGN / INSEE - Contours IRIS WFS Géoplateforme","datasetId":"STATISTICALUNITS.IRIS:contours_iris","datasetUrl":"https://geoservices.ign.fr/contoursiris","sourceFileUrl":"https://data.geopf.fr/wfs/ows?SERVICE=WFS&VERSION=2.0.0&REQUEST=GetFeature&TYPENAMES=STATISTICALUNITS.IRIS%3Acontours_iris&OUTPUTFORMAT=application%2Fjson&COUNT=1000&CQL_FILTER=code_insee%3D%2762268%27&SRSNAME=EPSG%3A4326","license":"Licence Ouverte / Open Licence 2.0","sourceYear":"2026","communeCode":"62268","communeName":"Desvres","featureCount":2,"parentCount":1,"parentContract":"technical commune group; not selectable and not displayed as a district","sourceFeatureCount":2,"humanLabelContract":"one visible plate per unique official human place name","groupingContract":"only exact source-ID groups approved by the resolved curation, or source zones sharing the same official name and parent, are merged","groupedZoneCount":0,"groupedSourceFeatureCount":0,"curationStatus":"resolved","curationRevision":1,"curationSources":[{"id":"ign-insee-contours-iris-2026","provider":"IGN / INSEE - Contours IRIS WFS Géoplateforme","datasetUrl":"https://geoservices.ign.fr/contoursiris","role":"official geometry, source identifiers and source labels","vintage":"2026","license":"Licence Ouverte / Open Licence 2.0"},{"id":"ign-geoplateforme-toponymy-2026","provider":"IGN Géoplateforme - reverse geocoding, addresses and named places","datasetUrl":"https://geoservices.ign.fr/geocodage-geoplateforme","role":"official address, street and named-place evidence","vintage":"2026","license":"Licence Ouverte / Open Licence 2.0"},{"id":"guide-alpha-editorial-recovery-2026-07-14","provider":"Meewav Guide Alpha editorial review","datasetUrl":"docs/geospatial/france-semantic-recovery.md","role":"versioned mapping of exact official IRIS identifiers to coherent human place names","vintage":"2026-07-14","license":"Project documentation"}],"sourceCorrections":[{"operationId":"desvres-622680101-rename-le-pendant","type":"rename","sourceIds":["622680101"],"expectedLabels":["Nord-Ouest"],"outputLabel":"Le Pendant","evidenceRefs":["ign-insee-contours-iris-2026","ign-geoplateforme-toponymy-2026","guide-alpha-editorial-recovery-2026-07-14"],"rationale":"The exact official IGN BD TOPO named road has a deterministic evidence point strictly inside this exact IRIS. The 1:1 label is emitted without nearest assignment, invented geometry, split or dropped source cell."},{"operationId":"desvres-622680102-rename-lieu-dit-les-courteaux","type":"rename","sourceIds":["622680102"],"expectedLabels":["Centre"],"outputLabel":"Lieu Dit les Courteaux","evidenceRefs":["ign-insee-contours-iris-2026","ign-geoplateforme-toponymy-2026","guide-alpha-editorial-recovery-2026-07-14"],"rationale":"The exact official IGN BD TOPO named road has a deterministic evidence point strictly inside this exact IRIS. The 1:1 label is emitted without nearest assignment, invented geometry, split or dropped source cell."}],"bbox":[1.79385841,50.65391062,1.87070427,50.69900995],"areaStatsM2":{"minimum":4412877.314575195,"average":4671488.559020996,"maximum":4930099.803466797}},"features":[{"type":"Feature","id":"desvres_622680101_nord_ouest","properties":{"zoneId":"desvres_622680101_nord_ouest","label":"Le Pendant","districtCode":"622680101","arrondissementCode":"62268","colorIndex":0,"parentZoneId":"desvres_parent_62268_desvres","parentCode":"62268","parentLabel":"Desvres","territoryType":"iris","source":"IGN / INSEE - Contours IRIS WFS Géoplateforme","sourceYear":"2026","officialId":"622680101","sourceCleabs":"IRIS____0000000622680101","communeCode":"62268","communeName":"Desvres","irisCode":"0101","irisType":"H","officialAreaM2":4930099.803466797,"labelLng":1.816926767213054,"labelLat":50.67861603083712,"bbox":[1.79385841,50.66428034,1.83481859,50.69413364],"curationOperationId":"desvres-622680101-rename-le-pendant","curationRevision":1,"curationEvidenceRefs":["ign-insee-contours-iris-2026","ign-geoplateforme-toponymy-2026","guide-alpha-editorial-recovery-2026-07-14"],"curationRationale":"The exact official IGN BD TOPO named road has a deterministic evidence point strictly inside this exact IRIS. The 1:1 label is emitted without nearest assignment, invented geometry, split or dropped source cell.","semanticLabelReviewed":true,"semanticLabelAccepted":false,"semanticResolution":"rename"},"geometry":{"type":"MultiPolygon","coordinates":[[[[1.831327,50.66428034],[1.82679856,50.66651188],[1.82510926,50.66743289],[1.82340685,50.66818771],[1.82273917,50.66865705],[1.82258074,50.66854785],[1.82177798,50.66881577],[1.82182912,50.66886292],[1.8212937,50.66923209],[1.82027817,50.66965863],[1.82055164,50.66980034],[1.81019566,50.67480645],[1.80841342,50.67307429],[1.81252287,50.67201781],[1.81310693,50.67222353],[1.81349464,50.67207287],[1.81508795,50.67170395],[1.81547521,50.67067465],[1.81377763,50.67031831],[1.81336729,50.67041132],[1.81233582,50.66995631],[1.81178981,50.66927798],[1.8117248,50.66862399],[1.81191311,50.66818603],[1.81247017,50.66803878],[1.81138998,50.66773498],[1.8113987,50.66766506],[1.80988344,50.66748631],[1.80773476,50.66638962],[1.80687567,50.66540132],[1.8056314,50.66618095],[1.80486576,50.6663109],[1.80223071,50.66648835],[1.80090229,50.66694403],[1.79836317,50.6675953],[1.79815973,50.66801156],[1.7986019,50.66906679],[1.80127019,50.67022339],[1.80121114,50.67044899],[1.79934538,50.6704561],[1.79871415,50.67033602],[1.79689813,50.67038935],[1.7965141,50.67026716],[1.79534515,50.67030968],[1.79515883,50.67036442],[1.79477158,50.67096467],[1.79385841,50.67293834],[1.79522785,50.67325408],[1.79555203,50.67339902],[1.79672458,50.67356295],[1.79785551,50.67345992],[1.79965198,50.67310663],[1.80008976,50.67358114],[1.80106543,50.67406442],[1.80098344,50.67471789],[1.80142309,50.67493753],[1.80177471,50.67494002],[1.80181047,50.67533526],[1.80213122,50.67592081],[1.8033884,50.67709964],[1.80427754,50.67695114],[1.80469808,50.67744072],[1.80476946,50.67740909],[1.80498329,50.67768219],[1.80562752,50.67815058],[1.80607308,50.67859911],[1.80645645,50.67922743],[1.80752372,50.68014322],[1.81006358,50.67960126],[1.81033529,50.68017555],[1.81060666,50.68010905],[1.81072528,50.68040814],[1.8106458,50.68066226],[1.8104007,50.68087172],[1.80945387,50.68100894],[1.80889977,50.68126299],[1.80788368,50.68193622],[1.80768357,50.68221341],[1.80950337,50.68308973],[1.8088792,50.68373531],[1.80786515,50.68455843],[1.80679173,50.6857974],[1.80606295,50.68620592],[1.80665888,50.68686858],[1.80728886,50.68788248],[1.80657154,50.68858009],[1.80608202,50.68890655],[1.80635042,50.68926363],[1.80626287,50.68961818],[1.80717526,50.68962963],[1.80729454,50.68978244],[1.80773498,50.68985667],[1.80808989,50.68972546],[1.80840789,50.68977966],[1.80927623,50.69027799],[1.80954477,50.69057134],[1.81065398,50.69116081],[1.81102451,50.69174142],[1.81146548,50.69191346],[1.81177725,50.69223145],[1.812656,50.69259164],[1.81292151,50.69253674],[1.81306483,50.69262965],[1.81338044,50.69266677],[1.81360159,50.69287439],[1.81402361,50.69289278],[1.81415549,50.69311122],[1.81432366,50.69316937],[1.81422323,50.69329405],[1.81448697,50.69361247],[1.81499154,50.69396459],[1.81559943,50.69389051],[1.815928,50.69403723],[1.81653327,50.69413364],[1.81799297,50.69388727],[1.81838225,50.69409648],[1.81850603,50.69399984],[1.81872465,50.69401628],[1.8189728,50.6936785],[1.81936739,50.69372174],[1.82021425,50.69363914],[1.82030702,50.6935395],[1.82066072,50.69351953],[1.82138596,50.69332089],[1.82147892,50.69309292],[1.8216039,50.69306539],[1.82236121,50.69312551],[1.8227483,50.69324764],[1.82380178,50.69321005],[1.82436847,50.69338593],[1.82481486,50.69332912],[1.82500309,50.69337577],[1.83043442,50.68088777],[1.83073486,50.68005775],[1.83112672,50.67863806],[1.83117105,50.67800845],[1.8314026,50.67758792],[1.83234018,50.67420161],[1.83233364,50.67387577],[1.83132489,50.6705555],[1.83096507,50.66951194],[1.83077115,50.66910715],[1.83078143,50.66866569],[1.830876,50.66818284],[1.83098952,50.66797749],[1.83117458,50.66785358],[1.83182193,50.66752581],[1.8330335,50.66704268],[1.83382373,50.66688496],[1.83481859,50.66697597],[1.83460218,50.66656559],[1.83398381,50.66601232],[1.83356833,50.66572212],[1.83256239,50.66513739],[1.831327,50.66428034]]]]}},{"type":"Feature","id":"desvres_622680102_centre","properties":{"zoneId":"desvres_622680102_centre","label":"Lieu Dit les Courteaux","districtCode":"622680102","arrondissementCode":"62268","colorIndex":1,"parentZoneId":"desvres_parent_62268_desvres","parentCode":"62268","parentLabel":"Desvres","territoryType":"iris","source":"IGN / INSEE - Contours IRIS WFS Géoplateforme","sourceYear":"2026","officialId":"622680102","sourceCleabs":"IRIS____0000000622680102","communeCode":"62268","communeName":"Desvres","irisCode":"0102","irisType":"H","officialAreaM2":4412877.314575195,"labelLng":1.842961170378253,"labelLat":50.67026404372525,"bbox":[1.82258238,50.65391062,1.87070427,50.69900995],"curationOperationId":"desvres-622680102-rename-lieu-dit-les-courteaux","curationRevision":1,"curationEvidenceRefs":["ign-insee-contours-iris-2026","ign-geoplateforme-toponymy-2026","guide-alpha-editorial-recovery-2026-07-14"],"curationRationale":"The exact official IGN BD TOPO named road has a deterministic evidence point strictly inside this exact IRIS. The 1:1 label is emitted without nearest assignment, invented geometry, split or dropped source cell.","semanticLabelReviewed":true,"semanticLabelAccepted":false,"semanticResolution":"rename"},"geometry":{"type":"MultiPolygon","coordinates":[[[[1.83896648,50.67763908],[1.83863733,50.6772142],[1.83865556,50.67660947],[1.83906044,50.67644723],[1.83981077,50.67631064],[1.84019911,50.67606926],[1.84111121,50.67577711],[1.84133079,50.67538158],[1.84206169,50.67510659],[1.84235876,50.67447395],[1.84313772,50.67358374],[1.84389456,50.67322372],[1.84428966,50.67293212],[1.84519102,50.67261203],[1.84609367,50.67211245],[1.8465165,50.67141276],[1.84728476,50.67085986],[1.84737213,50.67056092],[1.84768398,50.67020303],[1.84857424,50.66974818],[1.84926926,50.66924665],[1.84951637,50.66832364],[1.85107436,50.66713634],[1.85119511,50.66716707],[1.85189642,50.66533821],[1.85252429,50.66499041],[1.85305623,50.6645762],[1.8535749,50.66400031],[1.85463018,50.66447494],[1.85495503,50.66428588],[1.8556498,50.66422228],[1.85608325,50.66304787],[1.85679833,50.663146],[1.85658126,50.66269526],[1.85711873,50.66259341],[1.85764315,50.66238283],[1.85829568,50.66187817],[1.8583414,50.6617305],[1.85920228,50.66212253],[1.86030894,50.66238668],[1.86226535,50.66235256],[1.86421919,50.66043546],[1.86563489,50.65995748],[1.86859262,50.65971969],[1.8697129,50.65705898],[1.86987329,50.65633167],[1.8700411,50.65634038],[1.8705394,50.65490085],[1.87070427,50.65391062],[1.8557181,50.65552985],[1.85558081,50.65560667],[1.85530299,50.65540756],[1.85412702,50.6556516],[1.85193652,50.65580818],[1.85193665,50.65604961],[1.85117242,50.65625345],[1.85056762,50.65621465],[1.84825678,50.65663032],[1.84450659,50.6578089],[1.84308097,50.65797602],[1.84193841,50.65829655],[1.84177719,50.65836954],[1.84093321,50.65933275],[1.83883973,50.66010837],[1.83620937,50.6617477],[1.83471517,50.6625513],[1.83430279,50.66291899],[1.83339497,50.66327844],[1.831327,50.66428034],[1.83256239,50.66513739],[1.83356833,50.66572212],[1.83398381,50.66601232],[1.83460218,50.66656559],[1.83481859,50.66697597],[1.83382373,50.66688496],[1.8330335,50.66704268],[1.83182193,50.66752581],[1.83117458,50.66785358],[1.83098952,50.66797749],[1.830876,50.66818284],[1.83078143,50.66866569],[1.83077115,50.66910715],[1.83096507,50.66951194],[1.83132489,50.6705555],[1.83233364,50.67387577],[1.83234018,50.67420161],[1.8314026,50.67758792],[1.83117105,50.67800845],[1.83112672,50.67863806],[1.83073486,50.68005775],[1.83043442,50.68088777],[1.82500309,50.69337577],[1.82258238,50.69893048],[1.82320367,50.69900995],[1.82350418,50.69884946],[1.82462754,50.6986088],[1.8253909,50.69829384],[1.82602127,50.69792466],[1.82630091,50.69756833],[1.82716535,50.69715917],[1.82853201,50.69666321],[1.82880208,50.69635255],[1.83090082,50.69505935],[1.83133487,50.69341033],[1.83178692,50.69280701],[1.83214651,50.69259411],[1.83250021,50.69214871],[1.83348924,50.69038553],[1.83349546,50.69017918],[1.83307819,50.68959282],[1.83973418,50.67998863],[1.83973017,50.6794905],[1.83983577,50.6793829],[1.83957991,50.67902511],[1.83932467,50.67821321],[1.83896648,50.67763908]]]]}}]}
