{"type":"FeatureCollection","metadata":{"generatedAt":"2026-07-14T18:56:03.503Z","source":"IGN / INSEE - Contours IRIS WFS Géoplateforme","datasetId":"STATISTICALUNITS.IRIS:contours_iris","datasetUrl":"https://geoservices.ign.fr/contoursiris","sourceFileUrl":"https://data.geopf.fr/wfs/ows?SERVICE=WFS&VERSION=2.0.0&REQUEST=GetFeature&TYPENAMES=STATISTICALUNITS.IRIS%3Acontours_iris&OUTPUTFORMAT=application%2Fjson&COUNT=1000&CQL_FILTER=code_insee%3D%2738150%27&SRSNAME=EPSG%3A4326","license":"Licence Ouverte / Open Licence 2.0","sourceYear":"2026","communeCode":"38150","communeName":"Domène","featureCount":2,"parentCount":1,"parentContract":"technical commune group; not selectable and not displayed as a district","sourceFeatureCount":2,"humanLabelContract":"one visible plate per unique official human place name","groupingContract":"only exact source-ID groups approved by the resolved curation, or source zones sharing the same official name and parent, are merged","groupedZoneCount":0,"groupedSourceFeatureCount":0,"curationStatus":"resolved","curationRevision":1,"curationSources":[{"id":"ign-insee-contours-iris-2026","provider":"IGN / INSEE - Contours IRIS WFS Géoplateforme","datasetUrl":"https://geoservices.ign.fr/contoursiris","role":"official geometry, source identifiers and source labels","vintage":"2026","license":"Licence Ouverte / Open Licence 2.0"},{"id":"ign-geoplateforme-toponymy-2026","provider":"IGN Géoplateforme - reverse geocoding, addresses and named places","datasetUrl":"https://geoservices.ign.fr/geocodage-geoplateforme","role":"official address, street and named-place evidence","vintage":"2026","license":"Licence Ouverte / Open Licence 2.0"},{"id":"guide-alpha-editorial-recovery-2026-07-14","provider":"Meewav Guide Alpha editorial review","datasetUrl":"docs/geospatial/france-semantic-recovery.md","role":"versioned mapping of exact official IRIS identifiers to coherent human place names","vintage":"2026-07-14","license":"Project documentation"}],"sourceCorrections":[{"operationId":"domene-381500102-rename-chenevieres","type":"rename","sourceIds":["381500102"],"expectedLabels":["Le Bourg-Les Chenevières-Chantavot-Zone Industrielle"],"outputLabel":"Chenevières","evidenceRefs":["ign-insee-contours-iris-2026","ign-geoplateforme-toponymy-2026","guide-alpha-editorial-recovery-2026-07-14"],"rationale":"The exact official IGN BD TOPO habitation toponym has a deterministic evidence point strictly inside this exact IRIS. The 1:1 label is emitted without nearest assignment, invented geometry, split or dropped source cell."}],"bbox":[5.81349492,45.19084375,5.85999686,45.21984382],"areaStatsM2":{"minimum":2129218.953857422,"average":2684143.8232421875,"maximum":3239068.692626953}},"features":[{"type":"Feature","id":"domene_381500101_les_mortes_l_oratoire_les_contamines","properties":{"zoneId":"domene_381500101_les_mortes_l_oratoire_les_contamines","label":"Les Mortes-L'Oratoire-Les Contamines","districtCode":"381500101","arrondissementCode":"38150","colorIndex":0,"parentZoneId":"domene_parent_38150_domene","parentCode":"38150","parentLabel":"Domène","territoryType":"iris","source":"IGN / INSEE - Contours IRIS WFS Géoplateforme","sourceYear":"2026","officialId":"381500101","sourceCleabs":"IRIS____0000000381500101","communeCode":"38150","communeName":"Domène","irisCode":"0101","irisType":"H","officialAreaM2":2129218.953857422,"labelLng":5.840557437442383,"labelLat":45.19947315485842,"bbox":[5.82057132,45.19084375,5.85999686,45.20853873]},"geometry":{"type":"MultiPolygon","coordinates":[[[[5.85115479,45.20853873],[5.85167506,45.20796952],[5.85231035,45.20765596],[5.85327325,45.20744305],[5.85463905,45.20745679],[5.85540986,45.20667843],[5.85619394,45.20660792],[5.85698937,45.20578837],[5.85797805,45.20538284],[5.85956677,45.20445016],[5.85999686,45.20401387],[5.85851495,45.20379683],[5.85824283,45.2035353],[5.85804964,45.2034961],[5.85762193,45.20378005],[5.85692563,45.20384652],[5.85660167,45.20376742],[5.85561648,45.20329436],[5.85453387,45.2032833],[5.8538872,45.20312414],[5.8529684,45.20270252],[5.85270086,45.20230571],[5.85282615,45.20126635],[5.85259549,45.20064334],[5.85167448,45.20017762],[5.85067939,45.19953359],[5.85027376,45.19917723],[5.85009274,45.1983277],[5.84967948,45.19787153],[5.84914159,45.19799428],[5.84814528,45.19844858],[5.84803666,45.19796841],[5.84834794,45.19727571],[5.84883156,45.1966642],[5.84924827,45.19638957],[5.8475969,45.19489459],[5.8475337,45.19467996],[5.84679152,45.19424479],[5.84596225,45.19422539],[5.84558416,45.19428278],[5.84490197,45.19457407],[5.84411783,45.1952653],[5.84392698,45.19527106],[5.84358322,45.19487707],[5.84345728,45.19488118],[5.84279313,45.19647755],[5.84226384,45.19716949],[5.84152285,45.19773346],[5.84095387,45.19779659],[5.83936988,45.19672055],[5.83861422,45.19584417],[5.83807691,45.19540193],[5.836233,45.19442436],[5.83554913,45.19368038],[5.83539401,45.19323563],[5.83416789,45.19277842],[5.83415621,45.19259852],[5.83458171,45.19227057],[5.83422636,45.19169664],[5.83405724,45.19102609],[5.83297136,45.19097076],[5.8322246,45.19084375],[5.83145278,45.19142826],[5.83063519,45.19166343],[5.82940601,45.19262713],[5.82877762,45.19297552],[5.82781995,45.19333856],[5.82594924,45.19454461],[5.82270757,45.19608354],[5.82251745,45.19615412],[5.82057132,45.1961997],[5.82685723,45.20019339],[5.82737761,45.19987478],[5.82887044,45.19910535],[5.82922116,45.19878382],[5.82947839,45.19898092],[5.83071962,45.19973423],[5.83090057,45.19988461],[5.83098898,45.19989408],[5.83148034,45.20015913],[5.83210502,45.20081633],[5.83257316,45.20089996],[5.83270863,45.20095779],[5.83293479,45.20117009],[5.83344412,45.20178877],[5.83433763,45.20159039],[5.83488933,45.20151241],[5.83686059,45.2013308],[5.83734314,45.20137169],[5.83772707,45.20150339],[5.83826157,45.20151323],[5.83844184,45.20147441],[5.83788532,45.20128223],[5.83847838,45.20081485],[5.83856669,45.2008973],[5.83887793,45.20102814],[5.83969406,45.20123804],[5.83998673,45.20140449],[5.84089349,45.20259327],[5.84804769,45.20672411],[5.84869128,45.20729695],[5.84935982,45.20748442],[5.85115479,45.20853873]]]]}},{"type":"Feature","id":"domene_381500102_le_bourg_les_chenevieres_chantavot_zone_industrielle","properties":{"zoneId":"domene_381500102_le_bourg_les_chenevieres_chantavot_zone_industrielle","label":"Chenevières","districtCode":"381500102","arrondissementCode":"38150","colorIndex":1,"parentZoneId":"domene_parent_38150_domene","parentCode":"38150","parentLabel":"Domène","territoryType":"iris","source":"IGN / INSEE - Contours IRIS WFS Géoplateforme","sourceYear":"2026","officialId":"381500102","sourceCleabs":"IRIS____0000000381500102","communeCode":"38150","communeName":"Domène","irisCode":"0102","irisType":"H","officialAreaM2":3239068.692626953,"labelLng":5.834682156118657,"labelLat":45.20724450642428,"bbox":[5.81349492,45.1961997,5.85243819,45.21984382],"curationOperationId":"domene-381500102-rename-chenevieres","curationRevision":1,"curationEvidenceRefs":["ign-insee-contours-iris-2026","ign-geoplateforme-toponymy-2026","guide-alpha-editorial-recovery-2026-07-14"],"curationRationale":"The exact official IGN BD TOPO habitation toponym has a deterministic evidence point strictly inside this exact IRIS. The 1:1 label is emitted without nearest assignment, invented geometry, split or dropped source cell.","semanticLabelReviewed":true,"semanticLabelAccepted":false,"semanticResolution":"rename"},"geometry":{"type":"MultiPolygon","coordinates":[[[[5.83669703,45.2165646],[5.8390261,45.2178425],[5.84059114,45.2189605],[5.84160503,45.21984382],[5.84221259,45.21855704],[5.84291901,45.21763445],[5.84310224,45.21750274],[5.84380914,45.21761539],[5.84435618,45.2171933],[5.84456793,45.21529579],[5.84536816,45.21486454],[5.84551495,45.2143184],[5.84645357,45.21427646],[5.84699114,45.21436907],[5.84781095,45.21467163],[5.8488026,45.21489411],[5.84920823,45.21514866],[5.84965414,45.21514359],[5.85114057,45.21374783],[5.85158856,45.21350933],[5.85215926,45.21342718],[5.85243819,45.21324796],[5.85199406,45.21286376],[5.85024997,45.21208477],[5.85045448,45.21169662],[5.84999272,45.21144081],[5.85011055,45.2110774],[5.84875058,45.21038049],[5.84952141,45.20974993],[5.85109417,45.20867453],[5.85115479,45.20853873],[5.84935982,45.20748442],[5.84869128,45.20729695],[5.84804769,45.20672411],[5.84089349,45.20259327],[5.83998673,45.20140449],[5.83969406,45.20123804],[5.83887793,45.20102814],[5.83856669,45.2008973],[5.83847838,45.20081485],[5.83788532,45.20128223],[5.83844184,45.20147441],[5.83826157,45.20151323],[5.83772707,45.20150339],[5.83734314,45.20137169],[5.83686059,45.2013308],[5.83488933,45.20151241],[5.83433763,45.20159039],[5.83344412,45.20178877],[5.83293479,45.20117009],[5.83270863,45.20095779],[5.83257316,45.20089996],[5.83210502,45.20081633],[5.83148034,45.20015913],[5.83098898,45.19989408],[5.83090057,45.19988461],[5.83071962,45.19973423],[5.82947839,45.19898092],[5.82922116,45.19878382],[5.82887044,45.19910535],[5.82737761,45.19987478],[5.82685723,45.20019339],[5.82057132,45.1961997],[5.81675814,45.19626715],[5.81652805,45.19642973],[5.81457047,45.19624845],[5.81438542,45.19634411],[5.81354693,45.19740589],[5.81349492,45.1975874],[5.81422474,45.19806005],[5.81639807,45.19920716],[5.81673588,45.19951219],[5.81708307,45.20123964],[5.817596,45.20140329],[5.81778019,45.20159326],[5.8177865,45.20247517],[5.81846242,45.20268606],[5.81861475,45.20295161],[5.81952351,45.20285208],[5.82047343,45.20318848],[5.82141018,45.20359189],[5.82205713,45.20401072],[5.82289305,45.20476354],[5.82472701,45.20687685],[5.82591271,45.20796588],[5.82707825,45.20865628],[5.83047353,45.21226887],[5.83318873,45.21470569],[5.83454979,45.21555143],[5.83669703,45.2165646]]]]}}]}
