{"type":"FeatureCollection","metadata":{"generatedAt":"2026-07-14T18:56:03.503Z","source":"IGN / INSEE - Contours IRIS WFS Géoplateforme","datasetId":"STATISTICALUNITS.IRIS:contours_iris","datasetUrl":"https://geoservices.ign.fr/contoursiris","sourceFileUrl":"https://data.geopf.fr/wfs/ows?SERVICE=WFS&VERSION=2.0.0&REQUEST=GetFeature&TYPENAMES=STATISTICALUNITS.IRIS%3Acontours_iris&OUTPUTFORMAT=application%2Fjson&COUNT=1000&CQL_FILTER=code_insee%3D%2759179%27&SRSNAME=EPSG%3A4326","license":"Licence Ouverte / Open Licence 2.0","sourceYear":"2026","communeCode":"59179","communeName":"Douchy-les-Mines","featureCount":4,"parentCount":1,"parentContract":"technical commune group; not selectable and not displayed as a district","sourceFeatureCount":4,"humanLabelContract":"one visible plate per unique official human place name","groupingContract":"only exact source-ID groups approved by the resolved curation, or source zones sharing the same official name and parent, are merged","groupedZoneCount":0,"groupedSourceFeatureCount":0,"curationStatus":"resolved","curationRevision":1,"curationSources":[{"id":"ign-insee-contours-iris-2026","provider":"IGN / INSEE - Contours IRIS WFS Géoplateforme","datasetUrl":"https://geoservices.ign.fr/contoursiris","role":"official geometry, source identifiers and source labels","vintage":"2026","license":"Licence Ouverte / Open Licence 2.0"},{"id":"ign-geoplateforme-toponymy-2026","provider":"IGN Géoplateforme - reverse geocoding, addresses and named places","datasetUrl":"https://geoservices.ign.fr/geocodage-geoplateforme","role":"official address, street and named-place evidence","vintage":"2026","license":"Licence Ouverte / Open Licence 2.0"},{"id":"guide-alpha-editorial-recovery-2026-07-14","provider":"Meewav Guide Alpha editorial review","datasetUrl":"docs/geospatial/france-semantic-recovery.md","role":"versioned mapping of exact official IRIS identifiers to coherent human place names","vintage":"2026-07-14","license":"Project documentation"}],"sourceCorrections":[{"operationId":"douchy_les_mines-591790101-rename-ruelle-cauchies","type":"rename","sourceIds":["591790101"],"expectedLabels":["Nord"],"outputLabel":"Ruelle Cauchies","evidenceRefs":["ign-insee-contours-iris-2026","ign-geoplateforme-toponymy-2026","guide-alpha-editorial-recovery-2026-07-14"],"rationale":"The exact official IGN BD TOPO named road has a deterministic evidence point strictly inside this exact IRIS. The 1:1 label is emitted without nearest assignment, invented geometry, split or dropped source cell."},{"operationId":"douchy_les_mines-591790102-rename-cite-barbusse","type":"rename","sourceIds":["591790102"],"expectedLabels":["Sud"],"outputLabel":"Cité Barbusse","evidenceRefs":["ign-insee-contours-iris-2026","ign-geoplateforme-toponymy-2026","guide-alpha-editorial-recovery-2026-07-14"],"rationale":"The exact official IGN BD TOPO habitation toponym has a deterministic evidence point strictly inside this exact IRIS. The 1:1 label is emitted without nearest assignment, invented geometry, split or dropped source cell."},{"operationId":"douchy_les_mines-591790104-rename-rue-gagarine","type":"rename","sourceIds":["591790104"],"expectedLabels":["Centre"],"outputLabel":"Rue Gagarine","evidenceRefs":["ign-insee-contours-iris-2026","ign-geoplateforme-toponymy-2026","guide-alpha-editorial-recovery-2026-07-14"],"rationale":"The exact official IGN BD TOPO named road has a deterministic evidence point strictly inside this exact IRIS. The 1:1 label is emitted without nearest assignment, invented geometry, split or dropped source cell."}],"bbox":[3.35954398,50.28380049,3.41788332,50.31720637],"areaStatsM2":{"minimum":259786.21520996094,"average":2280718.2463378906,"maximum":4273432.400512695}},"features":[{"type":"Feature","id":"douchy_les_mines_591790101_nord","properties":{"zoneId":"douchy_les_mines_591790101_nord","label":"Ruelle Cauchies","districtCode":"591790101","arrondissementCode":"59179","colorIndex":0,"parentZoneId":"douchy_les_mines_parent_59179_douchy_les_mines","parentCode":"59179","parentLabel":"Douchy-les-Mines","territoryType":"iris","source":"IGN / INSEE - Contours IRIS WFS Géoplateforme","sourceYear":"2026","officialId":"591790101","sourceCleabs":"IRIS____0000000591790101","communeCode":"59179","communeName":"Douchy-les-Mines","irisCode":"0101","irisType":"H","officialAreaM2":4194939.456420898,"labelLng":3.398610179623244,"labelLat":50.29504148872153,"bbox":[3.37202184,50.28380049,3.41788332,50.30980376],"curationOperationId":"douchy_les_mines-591790101-rename-ruelle-cauchies","curationRevision":1,"curationEvidenceRefs":["ign-insee-contours-iris-2026","ign-geoplateforme-toponymy-2026","guide-alpha-editorial-recovery-2026-07-14"],"curationRationale":"The exact official IGN BD TOPO named road has a deterministic evidence point strictly inside this exact IRIS. The 1:1 label is emitted without nearest assignment, invented geometry, split or dropped source cell.","semanticLabelReviewed":true,"semanticLabelAccepted":false,"semanticResolution":"rename"},"geometry":{"type":"MultiPolygon","coordinates":[[[[3.41280007,50.29700595],[3.41266053,50.29536511],[3.41309276,50.29508622],[3.41379519,50.29442752],[3.41428523,50.29436303],[3.41455664,50.29224942],[3.41500962,50.29194172],[3.41463386,50.29141054],[3.41645752,50.29093301],[3.41659197,50.29041179],[3.41788332,50.28861435],[3.41605113,50.28770112],[3.4131314,50.28711834],[3.41210818,50.2879541],[3.41144979,50.28678278],[3.40882311,50.28637939],[3.40641527,50.28564929],[3.40587112,50.28559721],[3.39964519,50.28599467],[3.3994791,50.2851934],[3.39826322,50.2852557],[3.39821967,50.28488591],[3.39873802,50.28380049],[3.39642346,50.28403153],[3.39645659,50.28414635],[3.39529845,50.28460171],[3.39397936,50.28472625],[3.39407746,50.28544694],[3.39300917,50.28538839],[3.39121746,50.28546952],[3.39094404,50.2856311],[3.39088447,50.2862643],[3.3918887,50.28763846],[3.39244538,50.28858305],[3.39262067,50.29040339],[3.39238693,50.29152647],[3.39119078,50.29434331],[3.38989577,50.29398916],[3.39020015,50.29365599],[3.38874138,50.29332748],[3.38835724,50.29276663],[3.38754678,50.29290206],[3.38731181,50.29333378],[3.38693547,50.29323889],[3.38738216,50.29263591],[3.38750711,50.29229882],[3.38743746,50.29125661],[3.38758636,50.29020293],[3.38658365,50.29011899],[3.38649137,50.28978078],[3.38491539,50.28987011],[3.38508758,50.2894772],[3.38154848,50.28849605],[3.38148912,50.28880151],[3.38103092,50.28918363],[3.37676739,50.29159317],[3.37466566,50.29261507],[3.37202184,50.29369244],[3.37753665,50.29588712],[3.37840575,50.29627234],[3.38183068,50.29840498],[3.38371387,50.29960317],[3.38390995,50.29976597],[3.38463292,50.30101264],[3.38457823,50.3015632],[3.38473784,50.30172073],[3.38891805,50.30299874],[3.38969678,50.30327192],[3.39265952,50.29992158],[3.39202404,50.29967938],[3.39175378,50.29953389],[3.39552924,50.29530186],[3.3956464,50.29522786],[3.39607599,50.29513669],[3.39627414,50.29502472],[3.3964554,50.29490292],[3.39663258,50.29461952],[3.40095674,50.29658713],[3.40070435,50.29745978],[3.40069007,50.29884254],[3.40035302,50.29893971],[3.3998808,50.29896009],[3.39879838,50.29856944],[3.39654621,50.30112305],[3.39636887,50.30121071],[3.39637397,50.30132562],[3.3962495,50.30136193],[3.39658376,50.30233594],[3.39894749,50.30343447],[3.39927286,50.30309583],[3.39951816,50.30291546],[3.40139656,50.30379016],[3.40152876,50.30401958],[3.40103429,50.30442253],[3.40120755,50.30452792],[3.40131267,50.30470086],[3.40197331,50.30597995],[3.40372844,50.30684693],[3.40398253,50.3068892],[3.40445317,50.30929031],[3.40435302,50.30956538],[3.40439836,50.30962449],[3.40476572,50.30980376],[3.4102995,50.30789638],[3.40863923,50.30629473],[3.41053199,50.30562134],[3.41000233,50.30530885],[3.4117438,50.30293449],[3.41317615,50.30237752],[3.41285585,50.30092046],[3.41353566,50.30091369],[3.41340866,50.29823848],[3.41298396,50.2982408],[3.41280007,50.29700595]]]]}},{"type":"Feature","id":"douchy_les_mines_591790102_sud","properties":{"zoneId":"douchy_les_mines_591790102_sud","label":"Cité Barbusse","districtCode":"591790102","arrondissementCode":"59179","colorIndex":1,"parentZoneId":"douchy_les_mines_parent_59179_douchy_les_mines","parentCode":"59179","parentLabel":"Douchy-les-Mines","territoryType":"iris","source":"IGN / INSEE - Contours IRIS WFS Géoplateforme","sourceYear":"2026","officialId":"591790102","sourceCleabs":"IRIS____0000000591790102","communeCode":"59179","communeName":"Douchy-les-Mines","irisCode":"0102","irisType":"H","officialAreaM2":4273432.400512695,"labelLng":3.3794635167668887,"labelLat":50.303668213518165,"bbox":[3.35954398,50.28496752,3.40439836,50.31720637],"curationOperationId":"douchy_les_mines-591790102-rename-cite-barbusse","curationRevision":1,"curationEvidenceRefs":["ign-insee-contours-iris-2026","ign-geoplateforme-toponymy-2026","guide-alpha-editorial-recovery-2026-07-14"],"curationRationale":"The exact official IGN BD TOPO habitation toponym has a deterministic evidence point strictly inside this exact IRIS. The 1:1 label is emitted without nearest assignment, invented geometry, split or dropped source cell.","semanticLabelReviewed":true,"semanticLabelAccepted":false,"semanticResolution":"rename"},"geometry":{"type":"MultiPolygon","coordinates":[[[[3.37466566,50.29261507],[3.37237075,50.29063413],[3.37104589,50.28923744],[3.36944933,50.28727768],[3.36701794,50.28496752],[3.36339522,50.28668962],[3.36507851,50.28846693],[3.36397563,50.28886436],[3.36416955,50.28913045],[3.36368419,50.28926208],[3.36380709,50.28939819],[3.36196437,50.29001417],[3.36244469,50.29074363],[3.36208538,50.2908659],[3.36231726,50.29114895],[3.36179297,50.29132826],[3.36329776,50.29302261],[3.36086167,50.29378488],[3.36106244,50.2940303],[3.35954398,50.294349],[3.35977723,50.29482508],[3.36025761,50.2947725],[3.36062039,50.29552565],[3.36090022,50.2954557],[3.36108047,50.29596695],[3.36178287,50.2957943],[3.36213044,50.29657263],[3.36359141,50.2962433],[3.36428662,50.29779814],[3.36252334,50.29839324],[3.36330717,50.29940642],[3.36382084,50.29988436],[3.36721911,50.30438064],[3.36742891,50.30431447],[3.3672421,50.30310651],[3.36871819,50.30290727],[3.37076686,50.30566293],[3.37219656,50.30981838],[3.37235329,50.31053978],[3.37255439,50.31081212],[3.37281058,50.31094961],[3.37383166,50.31118984],[3.37755486,50.31278654],[3.37789024,50.31469882],[3.37861026,50.31535563],[3.37906215,50.31559397],[3.37921741,50.31516881],[3.37963148,50.31466564],[3.37983623,50.31411014],[3.38023003,50.31389614],[3.38067287,50.3140501],[3.38127669,50.31398359],[3.38190861,50.31373742],[3.3824768,50.31415136],[3.38199613,50.31474363],[3.38231553,50.3152607],[3.3835744,50.31559169],[3.38416347,50.31598041],[3.38538675,50.31605291],[3.38586129,50.3163154],[3.38606877,50.3170429],[3.38661969,50.31720637],[3.38739632,50.31699564],[3.39060411,50.31529488],[3.39301996,50.31690242],[3.39543192,50.31440768],[3.39612235,50.31358484],[3.3967115,50.31379573],[3.3975045,50.31300487],[3.3978512,50.31305223],[3.39825522,50.31236677],[3.39953561,50.31222256],[3.39937107,50.31162782],[3.40072655,50.31158482],[3.40059486,50.31089031],[3.40101545,50.31088625],[3.40235714,50.31052364],[3.40228464,50.31004532],[3.40431109,50.30958168],[3.40439836,50.30962449],[3.40435302,50.30956538],[3.40421503,50.30949221],[3.40400757,50.30949738],[3.40210997,50.30853211],[3.39486593,50.30513379],[3.38969678,50.30327192],[3.38891805,50.30299874],[3.38473784,50.30172073],[3.38457823,50.3015632],[3.38463292,50.30101264],[3.38390995,50.29976597],[3.38371387,50.29960317],[3.38183068,50.29840498],[3.37840575,50.29627234],[3.37753665,50.29588712],[3.37202184,50.29369244],[3.37466566,50.29261507]]]]}},{"type":"Feature","id":"douchy_les_mines_591790103_pitegnie","properties":{"zoneId":"douchy_les_mines_591790103_pitegnie","label":"Pitegnie","districtCode":"591790103","arrondissementCode":"59179","colorIndex":2,"parentZoneId":"douchy_les_mines_parent_59179_douchy_les_mines","parentCode":"59179","parentLabel":"Douchy-les-Mines","territoryType":"iris","source":"IGN / INSEE - Contours IRIS WFS Géoplateforme","sourceYear":"2026","officialId":"591790103","sourceCleabs":"IRIS____0000000591790103","communeCode":"59179","communeName":"Douchy-les-Mines","irisCode":"0103","irisType":"H","officialAreaM2":259786.21520996094,"labelLng":3.3965531010738275,"labelLat":50.297968334097575,"bbox":[3.39175378,50.29461952,3.40095674,50.30121071]},"geometry":{"type":"MultiPolygon","coordinates":[[[[3.39265952,50.29992158],[3.39613599,50.30118811],[3.39626065,50.30117514],[3.39636887,50.30121071],[3.39654621,50.30112305],[3.39879838,50.29856944],[3.3998808,50.29896009],[3.40035302,50.29893971],[3.40069007,50.29884254],[3.40070435,50.29745978],[3.40095674,50.29658713],[3.39663258,50.29461952],[3.3964554,50.29490292],[3.39627414,50.29502472],[3.39607599,50.29513669],[3.3956464,50.29522786],[3.39552924,50.29530186],[3.39175378,50.29953389],[3.39202404,50.29967938],[3.39265952,50.29992158]]]]}},{"type":"Feature","id":"douchy_les_mines_591790104_centre","properties":{"zoneId":"douchy_les_mines_591790104_centre","label":"Rue Gagarine","districtCode":"591790104","arrondissementCode":"59179","colorIndex":3,"parentZoneId":"douchy_les_mines_parent_59179_douchy_les_mines","parentCode":"59179","parentLabel":"Douchy-les-Mines","territoryType":"iris","source":"IGN / INSEE - Contours IRIS WFS Géoplateforme","sourceYear":"2026","officialId":"591790104","sourceCleabs":"IRIS____0000000591790104","communeCode":"59179","communeName":"Douchy-les-Mines","irisCode":"0104","irisType":"H","officialAreaM2":394714.9132080078,"labelLng":3.3971280403153283,"labelLat":50.30437410395593,"bbox":[3.38969678,50.29992158,3.40445317,50.30956538],"curationOperationId":"douchy_les_mines-591790104-rename-rue-gagarine","curationRevision":1,"curationEvidenceRefs":["ign-insee-contours-iris-2026","ign-geoplateforme-toponymy-2026","guide-alpha-editorial-recovery-2026-07-14"],"curationRationale":"The exact official IGN BD TOPO named road has a deterministic evidence point strictly inside this exact IRIS. The 1:1 label is emitted without nearest assignment, invented geometry, split or dropped source cell.","semanticLabelReviewed":true,"semanticLabelAccepted":false,"semanticResolution":"rename"},"geometry":{"type":"MultiPolygon","coordinates":[[[[3.38969678,50.30327192],[3.39486593,50.30513379],[3.40210997,50.30853211],[3.40400757,50.30949738],[3.40421503,50.30949221],[3.40435302,50.30956538],[3.40445317,50.30929031],[3.40398253,50.3068892],[3.40372844,50.30684693],[3.40197331,50.30597995],[3.40131267,50.30470086],[3.40120755,50.30452792],[3.40103429,50.30442253],[3.40152876,50.30401958],[3.40139656,50.30379016],[3.39951816,50.30291546],[3.39927286,50.30309583],[3.39894749,50.30343447],[3.39658376,50.30233594],[3.3962495,50.30136193],[3.39637397,50.30132562],[3.39636887,50.30121071],[3.39626065,50.30117514],[3.39613599,50.30118811],[3.39265952,50.29992158],[3.38969678,50.30327192]]]]}}]}
