{"type":"FeatureCollection","metadata":{"generatedAt":"2026-07-14T18:56:03.503Z","source":"IGN / INSEE - Contours IRIS WFS Géoplateforme","datasetId":"STATISTICALUNITS.IRIS:contours_iris","datasetUrl":"https://geoservices.ign.fr/contoursiris","sourceFileUrl":"https://data.geopf.fr/wfs/ows?SERVICE=WFS&VERSION=2.0.0&REQUEST=GetFeature&TYPENAMES=STATISTICALUNITS.IRIS%3Acontours_iris&OUTPUTFORMAT=application%2Fjson&COUNT=1000&CQL_FILTER=code_insee%3D%2772124%27&SRSNAME=EPSG%3A4326","license":"Licence Ouverte / Open Licence 2.0","sourceYear":"2026","communeCode":"72124","communeName":"Écommoy","featureCount":2,"parentCount":1,"parentContract":"technical commune group; not selectable and not displayed as a district","sourceFeatureCount":2,"humanLabelContract":"one visible plate per unique official human place name","groupingContract":"only exact source-ID groups approved by the resolved curation, or source zones sharing the same official name and parent, are merged","groupedZoneCount":0,"groupedSourceFeatureCount":0,"curationStatus":"resolved","curationRevision":1,"curationSources":[{"id":"ign-insee-contours-iris-2026","provider":"IGN / INSEE - Contours IRIS WFS Géoplateforme","datasetUrl":"https://geoservices.ign.fr/contoursiris","role":"official geometry, source identifiers and source labels","vintage":"2026","license":"Licence Ouverte / Open Licence 2.0"},{"id":"ign-geoplateforme-toponymy-2026","provider":"IGN Géoplateforme - reverse geocoding, addresses and named places","datasetUrl":"https://geoservices.ign.fr/geocodage-geoplateforme","role":"official address, street and named-place evidence","vintage":"2026","license":"Licence Ouverte / Open Licence 2.0"},{"id":"guide-alpha-editorial-recovery-2026-07-14","provider":"Meewav Guide Alpha editorial review","datasetUrl":"docs/geospatial/france-semantic-recovery.md","role":"versioned mapping of exact official IRIS identifiers to coherent human place names","vintage":"2026-07-14","license":"Project documentation"}],"sourceCorrections":[{"operationId":"ecommoy-721240101-rename-la-butterie","type":"rename","sourceIds":["721240101"],"expectedLabels":["Ouest D338"],"outputLabel":"la Butterie","evidenceRefs":["ign-insee-contours-iris-2026","ign-geoplateforme-toponymy-2026","guide-alpha-editorial-recovery-2026-07-14"],"rationale":"The exact official IGN BD TOPO habitation toponym has a deterministic evidence point strictly inside this exact IRIS. The 1:1 label is emitted without nearest assignment, invented geometry, split or dropped source cell."},{"operationId":"ecommoy-721240102-rename-la-fosse","type":"rename","sourceIds":["721240102"],"expectedLabels":["Est D338"],"outputLabel":"la Fosse","evidenceRefs":["ign-insee-contours-iris-2026","ign-geoplateforme-toponymy-2026","guide-alpha-editorial-recovery-2026-07-14"],"rationale":"The exact official IGN BD TOPO habitation toponym has a deterministic evidence point strictly inside this exact IRIS. The 1:1 label is emitted without nearest assignment, invented geometry, split or dropped source cell."}],"bbox":[0.24843827,47.78859471,0.32657129,47.85772501],"areaStatsM2":{"minimum":7305374.323310852,"average":14223971.022094727,"maximum":21142567.7208786}},"features":[{"type":"Feature","id":"ecommoy_721240101_ouest_d338","properties":{"zoneId":"ecommoy_721240101_ouest_d338","label":"la Butterie","districtCode":"721240101","arrondissementCode":"72124","colorIndex":0,"parentZoneId":"ecommoy_parent_72124_ecommoy","parentCode":"72124","parentLabel":"Écommoy","territoryType":"iris","source":"IGN / INSEE - Contours IRIS WFS Géoplateforme","sourceYear":"2026","officialId":"721240101","sourceCleabs":"IRIS____0000000721240101","communeCode":"72124","communeName":"Écommoy","irisCode":"0101","irisType":"H","officialAreaM2":7305374.323310852,"labelLng":0.26972012855091515,"labelLat":47.84098048806294,"bbox":[0.25220307,47.81730298,0.28989351,47.85772501],"curationOperationId":"ecommoy-721240101-rename-la-butterie","curationRevision":1,"curationEvidenceRefs":["ign-insee-contours-iris-2026","ign-geoplateforme-toponymy-2026","guide-alpha-editorial-recovery-2026-07-14"],"curationRationale":"The exact official IGN BD TOPO habitation toponym has a deterministic evidence point strictly inside this exact IRIS. The 1:1 label is emitted without nearest assignment, invented geometry, split or dropped source cell.","semanticLabelReviewed":true,"semanticLabelAccepted":false,"semanticResolution":"rename"},"geometry":{"type":"MultiPolygon","coordinates":[[[[0.25411488,47.82411435],[0.25312179,47.82516634],[0.25403045,47.82525697],[0.25472854,47.82450516],[0.25606324,47.82452831],[0.25612671,47.82461985],[0.25535813,47.82567531],[0.25586464,47.82596634],[0.25603652,47.82597847],[0.256207,47.8263805],[0.25671228,47.82687682],[0.2567294,47.82703752],[0.25619308,47.82817857],[0.25517614,47.82943264],[0.25330388,47.83080354],[0.25220307,47.83189262],[0.25294341,47.83252504],[0.2529265,47.83292989],[0.25226676,47.83353221],[0.25316032,47.83378819],[0.25355455,47.83397574],[0.25292614,47.83503266],[0.25467857,47.83562214],[0.25751786,47.83627485],[0.25662057,47.8391473],[0.25684566,47.84004681],[0.25670165,47.84107456],[0.25647929,47.84157276],[0.25581656,47.84243888],[0.25518137,47.8442476],[0.25495568,47.84724382],[0.25502235,47.8474552],[0.25490404,47.84754429],[0.25483378,47.84794608],[0.25465044,47.84815432],[0.25449031,47.84931136],[0.25458954,47.85080858],[0.25358451,47.85259962],[0.2548647,47.85327708],[0.25702337,47.85362927],[0.25838269,47.8542266],[0.25923261,47.85427258],[0.26010279,47.8541074],[0.26061035,47.85420211],[0.26147988,47.85475013],[0.2622483,47.85505354],[0.26458004,47.85578875],[0.26587336,47.85603323],[0.26615173,47.85691594],[0.26641448,47.85701032],[0.26795019,47.8570434],[0.26850656,47.85660609],[0.26969019,47.85593935],[0.27126031,47.85556255],[0.27422729,47.85599356],[0.2755456,47.8560386],[0.27753341,47.85625676],[0.2817205,47.85721569],[0.28382129,47.85739764],[0.28547577,47.85772501],[0.28568734,47.85730306],[0.2862534,47.85431562],[0.28810783,47.85428918],[0.28989351,47.85364336],[0.28912079,47.85239899],[0.28638991,47.84870942],[0.28574044,47.84764798],[0.28548253,47.8471188],[0.28520441,47.8459903],[0.28503358,47.8443591],[0.28511723,47.84387385],[0.28545854,47.84279661],[0.28552898,47.84215076],[0.2854794,47.84173357],[0.28524233,47.84079693],[0.28512176,47.84040781],[0.28494877,47.84007602],[0.28292139,47.83755619],[0.28244184,47.83709931],[0.28203311,47.83680076],[0.28136715,47.83645843],[0.28090122,47.83628463],[0.27724379,47.83533162],[0.27697487,47.83522902],[0.27659428,47.83495632],[0.27476562,47.83292814],[0.27379654,47.83075332],[0.27380042,47.83062553],[0.27658629,47.82976183],[0.27757384,47.8293327],[0.27869135,47.82861121],[0.27983149,47.82770831],[0.27942792,47.82770255],[0.27743075,47.82781828],[0.27642104,47.8279236],[0.27548189,47.82701744],[0.27526667,47.82685934],[0.27696686,47.8253094],[0.27712175,47.82523555],[0.27711217,47.82516149],[0.27783444,47.82450556],[0.27793208,47.82450512],[0.27840839,47.82408212],[0.27842009,47.82398424],[0.27907697,47.82337722],[0.27919036,47.82333032],[0.28184352,47.82089468],[0.27976361,47.81876527],[0.27873938,47.81790398],[0.2781043,47.81730298],[0.27806953,47.81740754],[0.27798613,47.81731284],[0.27774925,47.81750006],[0.27766308,47.81834727],[0.27755002,47.81870126],[0.2774062,47.81892485],[0.27710889,47.81922143],[0.27582147,47.82028747],[0.27534738,47.82074564],[0.2733017,47.82327181],[0.27326294,47.82353207],[0.27182056,47.82297619],[0.27121035,47.8234798],[0.26910226,47.82565324],[0.2677193,47.8265945],[0.2667951,47.82612898],[0.26623273,47.82577906],[0.26551771,47.82551113],[0.26420982,47.8248106],[0.26270244,47.82432333],[0.26189492,47.82411265],[0.26108109,47.8240243],[0.2595113,47.82410017],[0.25641806,47.82394945],[0.25540074,47.82404721],[0.25411488,47.82411435]]]]}},{"type":"Feature","id":"ecommoy_721240102_est_d338","properties":{"zoneId":"ecommoy_721240102_est_d338","label":"la Fosse","districtCode":"721240102","arrondissementCode":"72124","colorIndex":1,"parentZoneId":"ecommoy_parent_72124_ecommoy","parentCode":"72124","parentLabel":"Écommoy","territoryType":"iris","source":"IGN / INSEE - Contours IRIS WFS Géoplateforme","sourceYear":"2026","officialId":"721240102","sourceCleabs":"IRIS____0000000721240102","communeCode":"72124","communeName":"Écommoy","irisCode":"0102","irisType":"H","officialAreaM2":21142567.7208786,"labelLng":0.2906603777964309,"labelLat":47.81996117640447,"bbox":[0.24843827,47.78859471,0.32657129,47.85364336],"curationOperationId":"ecommoy-721240102-rename-la-fosse","curationRevision":1,"curationEvidenceRefs":["ign-insee-contours-iris-2026","ign-geoplateforme-toponymy-2026","guide-alpha-editorial-recovery-2026-07-14"],"curationRationale":"The exact official IGN BD TOPO habitation toponym has a deterministic evidence point strictly inside this exact IRIS. The 1:1 label is emitted without nearest assignment, invented geometry, split or dropped source cell.","semanticLabelReviewed":true,"semanticLabelAccepted":false,"semanticResolution":"rename"},"geometry":{"type":"MultiPolygon","coordinates":[[[[0.25258895,47.78859471],[0.25149632,47.79124917],[0.25103352,47.79286023],[0.25029006,47.7947808],[0.24969779,47.79744698],[0.25434011,47.8014247],[0.25466967,47.80115145],[0.25549648,47.80157698],[0.25628979,47.80177117],[0.2577231,47.80269628],[0.25732581,47.80430889],[0.25805279,47.80555697],[0.25883499,47.80661632],[0.25960337,47.80727009],[0.26113058,47.80803705],[0.26229247,47.80876033],[0.26117187,47.81009038],[0.26026944,47.81097344],[0.26012365,47.81128613],[0.25866907,47.81260924],[0.25844525,47.81319027],[0.25837146,47.81436196],[0.25914165,47.81474921],[0.2598759,47.81495189],[0.25968195,47.81573174],[0.25769517,47.81529082],[0.25536022,47.81524966],[0.25430285,47.81496103],[0.25186881,47.81401783],[0.25053542,47.81394872],[0.25046533,47.81403714],[0.2502886,47.81455891],[0.25193351,47.8147578],[0.25388713,47.81527009],[0.25399733,47.81595799],[0.25389632,47.81612763],[0.25320517,47.81641042],[0.25206855,47.81638737],[0.25196505,47.81644978],[0.25284081,47.81712232],[0.25215845,47.81710542],[0.25232842,47.81730933],[0.25261863,47.81738548],[0.25274002,47.81806374],[0.25384348,47.81916936],[0.25584112,47.82067145],[0.25661127,47.82100918],[0.25415747,47.82372991],[0.25289857,47.82348248],[0.25132455,47.82273504],[0.25060527,47.82262901],[0.25051638,47.8228998],[0.24864331,47.82245419],[0.24843827,47.82359939],[0.25175741,47.8243977],[0.25234791,47.82438273],[0.25343037,47.82416315],[0.25411488,47.82411435],[0.25540074,47.82404721],[0.25641806,47.82394945],[0.2595113,47.82410017],[0.26108109,47.8240243],[0.26189492,47.82411265],[0.26270244,47.82432333],[0.26420982,47.8248106],[0.26551771,47.82551113],[0.26623273,47.82577906],[0.2667951,47.82612898],[0.2677193,47.8265945],[0.26910226,47.82565324],[0.27121035,47.8234798],[0.27182056,47.82297619],[0.27326294,47.82353207],[0.2733017,47.82327181],[0.27534738,47.82074564],[0.27582147,47.82028747],[0.27710889,47.81922143],[0.2774062,47.81892485],[0.27755002,47.81870126],[0.27766308,47.81834727],[0.27774925,47.81750006],[0.27798613,47.81731284],[0.27806953,47.81740754],[0.2781043,47.81730298],[0.27873938,47.81790398],[0.27976361,47.81876527],[0.28184352,47.82089468],[0.27919036,47.82333032],[0.27907697,47.82337722],[0.27842009,47.82398424],[0.27840839,47.82408212],[0.27793208,47.82450512],[0.27783444,47.82450556],[0.27711217,47.82516149],[0.27712175,47.82523555],[0.27696686,47.8253094],[0.27526667,47.82685934],[0.27548189,47.82701744],[0.27642104,47.8279236],[0.27743075,47.82781828],[0.27942792,47.82770255],[0.27983149,47.82770831],[0.27869135,47.82861121],[0.27757384,47.8293327],[0.27658629,47.82976183],[0.27380042,47.83062553],[0.27379654,47.83075332],[0.27476562,47.83292814],[0.27659428,47.83495632],[0.27697487,47.83522902],[0.27724379,47.83533162],[0.28090122,47.83628463],[0.28136715,47.83645843],[0.28203311,47.83680076],[0.28244184,47.83709931],[0.28292139,47.83755619],[0.28494877,47.84007602],[0.28512176,47.84040781],[0.28524233,47.84079693],[0.2854794,47.84173357],[0.28552898,47.84215076],[0.28545854,47.84279661],[0.28511723,47.84387385],[0.28503358,47.8443591],[0.28520441,47.8459903],[0.28548253,47.8471188],[0.28574044,47.84764798],[0.28638991,47.84870942],[0.28912079,47.85239899],[0.28989351,47.85364336],[0.29311507,47.85267586],[0.29259846,47.85252165],[0.29309226,47.85152177],[0.29404311,47.85166078],[0.29465457,47.84982072],[0.29574061,47.84961613],[0.29569114,47.84924758],[0.2961101,47.84916449],[0.29693568,47.84958245],[0.29759875,47.84961845],[0.29745529,47.84930896],[0.29867171,47.84898669],[0.29923214,47.84801533],[0.30020143,47.8474217],[0.30061566,47.84764196],[0.30115141,47.84705004],[0.3012276,47.84678794],[0.30164916,47.84694263],[0.30185221,47.84599995],[0.30258068,47.84635441],[0.30189609,47.84748051],[0.30240076,47.84757948],[0.30296975,47.84736023],[0.30387892,47.84715961],[0.30478172,47.84761171],[0.30504836,47.84723422],[0.30806976,47.84415721],[0.30832763,47.84366154],[0.30948607,47.84403123],[0.31047129,47.84446717],[0.31191807,47.84479662],[0.31519042,47.84500217],[0.31965275,47.84479538],[0.3198923,47.84410386],[0.3200022,47.84165967],[0.32058064,47.83873001],[0.32068277,47.83728791],[0.31949916,47.83436929],[0.31860749,47.8327973],[0.31800839,47.83083487],[0.3171823,47.82974074],[0.31643491,47.82920763],[0.31714471,47.82897533],[0.31850646,47.82827887],[0.31836342,47.82801264],[0.31849979,47.82793382],[0.31997943,47.82739132],[0.32037578,47.82716895],[0.32133427,47.82656499],[0.32288887,47.82535599],[0.32350493,47.8250981],[0.32508052,47.82477206],[0.32568913,47.82447617],[0.32657129,47.82387223],[0.32539838,47.82339791],[0.32450655,47.82321096],[0.32298349,47.82302579],[0.32233257,47.82272816],[0.32254501,47.8225457],[0.32248251,47.82243261],[0.32313151,47.81998],[0.32358948,47.81924932],[0.3230779,47.81870813],[0.32376644,47.81820425],[0.32499011,47.81764054],[0.32549157,47.81761237],[0.3260648,47.81602431],[0.3245926,47.81578899],[0.32249653,47.81647325],[0.3212697,47.81712601],[0.3209357,47.81712108],[0.32042737,47.81643676],[0.31998035,47.81612756],[0.32054509,47.81553352],[0.32085067,47.81554501],[0.32124157,47.81524326],[0.31906883,47.81476943],[0.31929543,47.81374891],[0.31926776,47.81286575],[0.31937114,47.81251241],[0.31914325,47.81130499],[0.31931551,47.81053987],[0.31958503,47.81015251],[0.31974939,47.81007432],[0.31865737,47.80916951],[0.31872076,47.80878734],[0.31704397,47.80675607],[0.32134224,47.80485973],[0.32177281,47.80453818],[0.32000743,47.80468962],[0.31913935,47.80467427],[0.31796243,47.80402416],[0.31716566,47.80392037],[0.31604912,47.80345173],[0.3146807,47.80299532],[0.31440224,47.80215684],[0.31396718,47.80193164],[0.31339722,47.80188975],[0.31282131,47.80154244],[0.31238949,47.80154424],[0.31192169,47.80172893],[0.31164387,47.80175137],[0.31000881,47.801151],[0.30897733,47.80124889],[0.3078587,47.80116735],[0.30738544,47.80106372],[0.30622354,47.80027965],[0.30432393,47.7993102],[0.3028475,47.79779842],[0.30240919,47.79700666],[0.30046211,47.7981082],[0.29962409,47.79826629],[0.29891293,47.79829492],[0.29869539,47.79820976],[0.29704001,47.79896046],[0.29426136,47.80082438],[0.2935838,47.80145262],[0.29304007,47.80131579],[0.29267246,47.80110647],[0.29193944,47.80114356],[0.2910581,47.80141586],[0.29040191,47.80144031],[0.29017062,47.80162498],[0.29010655,47.80191167],[0.28988367,47.80201008],[0.2896994,47.80187523],[0.28933998,47.80184621],[0.28948568,47.80161003],[0.2892122,47.80146862],[0.28836974,47.80150226],[0.28782009,47.80161291],[0.28674945,47.80150797],[0.28607985,47.8009044],[0.28236149,47.80079749],[0.28201492,47.80059583],[0.28111058,47.80034971],[0.28008031,47.80021412],[0.27917434,47.80028765],[0.27664791,47.79927435],[0.2760288,47.79912308],[0.27476768,47.7991892],[0.27379822,47.79901535],[0.27318607,47.79880659],[0.27256135,47.79876503],[0.27040381,47.79832843],[0.26967195,47.79784849],[0.26951736,47.79765757],[0.26851734,47.7973767],[0.26815051,47.7971286],[0.26736572,47.79702924],[0.26451559,47.79553443],[0.26375325,47.79525907],[0.2635795,47.79453186],[0.26318722,47.79425973],[0.26320281,47.79413852],[0.26307127,47.79409762],[0.26303379,47.79396886],[0.26296342,47.7939339],[0.26280957,47.79401496],[0.26266881,47.79384146],[0.26242162,47.7938663],[0.26238399,47.7936628],[0.26127519,47.79362787],[0.2608856,47.79332968],[0.26080388,47.79297025],[0.2603179,47.79272743],[0.2596444,47.7927522],[0.25922099,47.79246222],[0.25799223,47.79242176],[0.2567513,47.79220268],[0.25522772,47.79145284],[0.25484464,47.79027853],[0.25522744,47.78954183],[0.25480579,47.78955536],[0.25455975,47.78942892],[0.25446087,47.78924739],[0.25449324,47.78900859],[0.25415414,47.78897633],[0.25404434,47.78874771],[0.25348454,47.78882284],[0.25314954,47.7886853],[0.25274292,47.78866676],[0.25258895,47.78859471]]]]}}]}
