{"type":"FeatureCollection","metadata":{"generatedAt":"2026-07-14T18:44:50.809Z","source":"IGN / INSEE - Contours IRIS WFS Géoplateforme","datasetId":"STATISTICALUNITS.IRIS:contours_iris","datasetUrl":"https://geoservices.ign.fr/contoursiris","sourceFileUrl":"https://data.geopf.fr/wfs/ows?SERVICE=WFS&VERSION=2.0.0&REQUEST=GetFeature&TYPENAMES=STATISTICALUNITS.IRIS%3Acontours_iris&OUTPUTFORMAT=application%2Fjson&COUNT=1000&CQL_FILTER=code_insee%3D%2795210%27&SRSNAME=EPSG%3A4326","license":"Licence Ouverte / Open Licence 2.0","sourceYear":"2026","communeCode":"95210","communeName":"Enghien-les-Bains","featureCount":5,"parentCount":1,"parentContract":"technical commune group; not selectable and not displayed as a district","bbox":[2.29292686,48.96174531,2.31700025,48.97947062],"areaStatsM2":{"minimum":172459.53088378906,"average":347242.48006591795,"maximum":811732.5630493164}},"features":[{"type":"Feature","id":"enghien_les_bains_952100101_quartier_nord_residentiel","properties":{"zoneId":"enghien_les_bains_952100101_quartier_nord_residentiel","label":"Quartier Nord Résidentiel","districtCode":"952100101","arrondissementCode":"95210","colorIndex":0,"parentZoneId":"enghien_les_bains_parent_95210_enghien_les_bains","parentCode":"95210","parentLabel":"Enghien-les-Bains","territoryType":"iris","source":"IGN / INSEE - Contours IRIS WFS Géoplateforme","sourceYear":"2026","officialId":"952100101","sourceCleabs":"IRIS____0000000952100101","communeCode":"95210","communeName":"Enghien-les-Bains","irisCode":"0101","irisType":"H","officialAreaM2":242175.5689086914,"labelLng":2.3058529067633464,"labelLat":48.975582761493826,"bbox":[2.30101542,48.97071897,2.31067333,48.97947062]},"geometry":{"type":"MultiPolygon","coordinates":[[[[2.30105525,48.97660745],[2.30101542,48.97702897],[2.30296488,48.97865628],[2.30413842,48.97947062],[2.30699315,48.97735951],[2.30801727,48.97554713],[2.30845768,48.97489051],[2.30950166,48.97373469],[2.31016735,48.97277451],[2.31067333,48.97190784],[2.30978805,48.97119862],[2.30972748,48.97071897],[2.30859044,48.9715847],[2.30828402,48.97172142],[2.30869989,48.97198281],[2.30728388,48.97297102],[2.30718508,48.97310713],[2.30693004,48.97328192],[2.30681113,48.97328662],[2.30668307,48.97336322],[2.30400562,48.97510486],[2.30364872,48.97523409],[2.30105525,48.97660745]]]]}},{"type":"Feature","id":"enghien_les_bains_952100201_centre_ville_commerce","properties":{"zoneId":"enghien_les_bains_952100201_centre_ville_commerce","label":"Centre Ville-Commerce","districtCode":"952100201","arrondissementCode":"95210","colorIndex":1,"parentZoneId":"enghien_les_bains_parent_95210_enghien_les_bains","parentCode":"95210","parentLabel":"Enghien-les-Bains","territoryType":"iris","source":"IGN / INSEE - Contours IRIS WFS Géoplateforme","sourceYear":"2026","officialId":"952100201","sourceCleabs":"IRIS____0000000952100201","communeCode":"95210","communeName":"Enghien-les-Bains","irisCode":"0201","irisType":"H","officialAreaM2":215454.29693603516,"labelLng":2.3057534020013657,"labelLat":48.97164758989885,"bbox":[2.30100555,48.96830135,2.30984368,48.97660745]},"geometry":{"type":"MultiPolygon","coordinates":[[[[2.30141843,48.97540187],[2.30100555,48.97613775],[2.30111039,48.97616354],[2.30105525,48.97660745],[2.30364872,48.97523409],[2.30400562,48.97510486],[2.30668307,48.97336322],[2.30681113,48.97328662],[2.30693004,48.97328192],[2.30718508,48.97310713],[2.30728388,48.97297102],[2.30869989,48.97198281],[2.30828402,48.97172142],[2.30859044,48.9715847],[2.30972748,48.97071897],[2.30984368,48.97060903],[2.30971505,48.97052376],[2.30984319,48.97043997],[2.30975205,48.97041156],[2.30972267,48.97025852],[2.30969905,48.96956865],[2.30870137,48.9698174],[2.30654024,48.96830135],[2.303863,48.96973995],[2.30344058,48.97017454],[2.30328174,48.97040743],[2.3032178,48.9705923],[2.30325525,48.97065097],[2.30312256,48.970768],[2.30307161,48.9708999],[2.30299529,48.97139675],[2.30303783,48.97168746],[2.30387757,48.97242613],[2.30443427,48.9729824],[2.30460185,48.9733215],[2.30459917,48.97362363],[2.30453354,48.97383278],[2.30429354,48.97410746],[2.30403588,48.97427323],[2.30226906,48.97492482],[2.30141843,48.97540187]]]]}},{"type":"Feature","id":"enghien_les_bains_952100301_residentiel_place_verdun","properties":{"zoneId":"enghien_les_bains_952100301_residentiel_place_verdun","label":"Residentiel-Place Verdun","districtCode":"952100301","arrondissementCode":"95210","colorIndex":2,"parentZoneId":"enghien_les_bains_parent_95210_enghien_les_bains","parentCode":"95210","parentLabel":"Enghien-les-Bains","territoryType":"iris","source":"IGN / INSEE - Contours IRIS WFS Géoplateforme","sourceYear":"2026","officialId":"952100301","sourceCleabs":"IRIS____0000000952100301","communeCode":"95210","communeName":"Enghien-les-Bains","irisCode":"0301","irisType":"H","officialAreaM2":172459.53088378906,"labelLng":2.3108072108658417,"labelLat":48.967844070777375,"bbox":[2.30654024,48.96523082,2.3152757,48.97071897]},"geometry":{"type":"MultiPolygon","coordinates":[[[[2.30972748,48.97071897],[2.3152757,48.96710337],[2.31441789,48.96700494],[2.31440497,48.96694911],[2.31177118,48.96523082],[2.30948875,48.96658279],[2.30654024,48.96830135],[2.30870137,48.9698174],[2.30969905,48.96956865],[2.30972267,48.97025852],[2.30975205,48.97041156],[2.30984319,48.97043997],[2.30971505,48.97052376],[2.30984368,48.97060903],[2.30972748,48.97071897]]]]}},{"type":"Feature","id":"enghien_les_bains_952100401_residentiel_barre_d_ormesson","properties":{"zoneId":"enghien_les_bains_952100401_residentiel_barre_d_ormesson","label":"Residentiel-Barre d'Ormesson","districtCode":"952100401","arrondissementCode":"95210","colorIndex":3,"parentZoneId":"enghien_les_bains_parent_95210_enghien_les_bains","parentCode":"95210","parentLabel":"Enghien-les-Bains","territoryType":"iris","source":"IGN / INSEE - Contours IRIS WFS Géoplateforme","sourceYear":"2026","officialId":"952100401","sourceCleabs":"IRIS____0000000952100401","communeCode":"95210","communeName":"Enghien-les-Bains","irisCode":"0401","irisType":"H","officialAreaM2":294390.4405517578,"labelLng":2.3108269196688163,"labelLat":48.964528516379396,"bbox":[2.30356385,48.96174531,2.31700025,48.96710337]},"geometry":{"type":"MultiPolygon","coordinates":[[[[2.3152757,48.96710337],[2.31700025,48.9658938],[2.31675061,48.96535102],[2.31623037,48.96471857],[2.31591435,48.96413584],[2.31300487,48.9624106],[2.31097881,48.96215528],[2.31078925,48.96192847],[2.31037105,48.96174531],[2.30935049,48.96269986],[2.30893958,48.96350863],[2.30713612,48.96274014],[2.30676668,48.96299699],[2.30356385,48.96525538],[2.30533258,48.96647875],[2.30626682,48.96586366],[2.30793818,48.96507118],[2.30969575,48.96601115],[2.3094167,48.96645468],[2.30948875,48.96658279],[2.31177118,48.96523082],[2.31440497,48.96694911],[2.31441789,48.96700494],[2.3152757,48.96710337]]]]}},{"type":"Feature","id":"enghien_les_bains_952100501_centre_ville_tour_du_lac","properties":{"zoneId":"enghien_les_bains_952100501_centre_ville_tour_du_lac","label":"Centre Ville-Tour du Lac","districtCode":"952100501","arrondissementCode":"95210","colorIndex":4,"parentZoneId":"enghien_les_bains_parent_95210_enghien_les_bains","parentCode":"95210","parentLabel":"Enghien-les-Bains","territoryType":"iris","source":"IGN / INSEE - Contours IRIS WFS Géoplateforme","sourceYear":"2026","officialId":"952100501","sourceCleabs":"IRIS____0000000952100501","communeCode":"95210","communeName":"Enghien-les-Bains","irisCode":"0501","irisType":"H","officialAreaM2":811732.5630493164,"labelLng":2.3006395416618997,"labelLat":48.96965146254647,"bbox":[2.29292686,48.96222198,2.30969575,48.97540187]},"geometry":{"type":"MultiPolygon","coordinates":[[[[2.30676668,48.96299699],[2.3050849,48.96222198],[2.30353999,48.96367163],[2.30150272,48.96526677],[2.30115437,48.96547517],[2.30046028,48.96569864],[2.29887596,48.96630539],[2.29652669,48.96742111],[2.29306364,48.96877302],[2.29292686,48.96898804],[2.2930245,48.96914059],[2.29407837,48.96948582],[2.2949803,48.96955497],[2.29414856,48.96995025],[2.2934069,48.97055109],[2.29298424,48.97109625],[2.29303187,48.97141037],[2.293461,48.97169617],[2.29500351,48.97217376],[2.29539204,48.97243233],[2.29564899,48.97302646],[2.29559161,48.97423652],[2.2958578,48.97455283],[2.2976385,48.9750021],[2.29880374,48.97520406],[2.30141843,48.97540187],[2.30226906,48.97492482],[2.30403588,48.97427323],[2.30429354,48.97410746],[2.30453354,48.97383278],[2.30459917,48.97362363],[2.30460185,48.9733215],[2.30443427,48.9729824],[2.30387757,48.97242613],[2.30303783,48.97168746],[2.30299529,48.97139675],[2.30307161,48.9708999],[2.30312256,48.970768],[2.30325525,48.97065097],[2.3032178,48.9705923],[2.30328174,48.97040743],[2.30344058,48.97017454],[2.303863,48.96973995],[2.30654024,48.96830135],[2.30948875,48.96658279],[2.3094167,48.96645468],[2.30969575,48.96601115],[2.30793818,48.96507118],[2.30626682,48.96586366],[2.30533258,48.96647875],[2.30356385,48.96525538],[2.30676668,48.96299699]]]]}}]}
