{"type":"FeatureCollection","metadata":{"generatedAt":"2026-07-14T16:01:43.465Z","source":"IGN / INSEE - Contours IRIS WFS Géoplateforme","datasetId":"STATISTICALUNITS.IRIS:contours_iris","datasetUrl":"https://geoservices.ign.fr/contoursiris","sourceFileUrl":"https://data.geopf.fr/wfs/ows?SERVICE=WFS&VERSION=2.0.0&REQUEST=GetFeature&TYPENAMES=STATISTICALUNITS.IRIS%3Acontours_iris&OUTPUTFORMAT=application%2Fjson&COUNT=1000&CQL_FILTER=code_insee%3D%2705061%27&SRSNAME=EPSG%3A4326","license":"Licence Ouverte / Open Licence 2.0","sourceYear":"2026","communeCode":"05061","communeName":"Gap","featureCount":21,"parentCount":1,"parentContract":"technical commune group; not selectable and not displayed as a district","bbox":[5.98210738,44.4947721,6.14108379,44.66456654],"areaStatsM2":{"minimum":172092.81909179688,"average":5143947.285377139,"maximum":19579200.650390625}},"features":[{"type":"Feature","id":"gap_050610101_gap_centre","properties":{"zoneId":"gap_050610101_gap_centre","label":"Gap Centre","districtCode":"050610101","arrondissementCode":"05061","colorIndex":0,"parentZoneId":"gap_parent_05061_gap","parentCode":"05061","parentLabel":"Gap","territoryType":"iris","source":"IGN / INSEE - Contours IRIS WFS Géoplateforme","sourceYear":"2026","officialId":"050610101","sourceCleabs":"IRIS____0000000050610101","communeCode":"05061","communeName":"Gap","irisCode":"0101","irisType":"H","officialAreaM2":172092.81909179688,"labelLng":6.077866772973512,"labelLat":44.558816323034065,"bbox":[6.07442146,44.55645662,6.08118051,44.56138888]},"geometry":{"type":"MultiPolygon","coordinates":[[[[6.07586569,44.5569157],[6.07501614,44.55732676],[6.07473715,44.55750211],[6.07460813,44.55763183],[6.07442146,44.55816046],[6.07445154,44.55827314],[6.07581597,44.55965588],[6.07587635,44.55976952],[6.07585122,44.55988644],[6.07603124,44.55988322],[6.07610998,44.55996391],[6.07608908,44.56004288],[6.07689006,44.56033497],[6.07931441,44.56111785],[6.07953093,44.56118298],[6.07977921,44.56120668],[6.07990506,44.56129597],[6.08038521,44.56138888],[6.0803521,44.56119791],[6.08020852,44.56096857],[6.08021422,44.56088823],[6.08067365,44.56025558],[6.08069527,44.56023605],[6.08118051,44.56035314],[6.0810088,44.56016244],[6.08061468,44.55864457],[6.07952265,44.55756781],[6.07873705,44.55704917],[6.07716616,44.55654791],[6.07687624,44.55652266],[6.07665969,44.55645662],[6.0764273,44.55663157],[6.07586569,44.5569157]]]]}},{"type":"Feature","id":"gap_050610102_couronne","properties":{"zoneId":"gap_050610102_couronne","label":"Couronne","districtCode":"050610102","arrondissementCode":"05061","colorIndex":1,"parentZoneId":"gap_parent_05061_gap","parentCode":"05061","parentLabel":"Gap","territoryType":"iris","source":"IGN / INSEE - Contours IRIS WFS Géoplateforme","sourceYear":"2026","officialId":"050610102","sourceCleabs":"IRIS____0000000050610102","communeCode":"05061","communeName":"Gap","irisCode":"0102","irisType":"H","officialAreaM2":502387.31982421875,"labelLng":6.0730848668997535,"labelLat":44.559040275,"bbox":[6.06819346,44.55486698,6.08459696,44.56321357]},"geometry":{"type":"MultiPolygon","coordinates":[[[[6.07006426,44.55489698],[6.06987327,44.55497617],[6.069697,44.55500179],[6.06906975,44.55486698],[6.06843682,44.55511431],[6.06819346,44.55524991],[6.06860951,44.55550952],[6.06886175,44.55572233],[6.06923813,44.55613259],[6.07022004,44.55792244],[6.06912354,44.55784842],[6.06898951,44.55795576],[6.06966778,44.55821708],[6.07054427,44.55871704],[6.07177831,44.55967372],[6.07204494,44.56010414],[6.07252223,44.56030708],[6.07451194,44.56185622],[6.07548504,44.56243904],[6.07604007,44.56268034],[6.07670574,44.5628708],[6.07827446,44.56321357],[6.07820623,44.56291006],[6.08133277,44.56270301],[6.08216632,44.5627365],[6.08272444,44.56282632],[6.08392725,44.56313688],[6.08404481,44.56208312],[6.08393635,44.56201227],[6.08393741,44.56189332],[6.0844825,44.56103032],[6.08459696,44.56058837],[6.08455378,44.56023641],[6.08445584,44.55996617],[6.08408527,44.55943417],[6.08302617,44.55843129],[6.08265545,44.55814975],[6.07932722,44.55641107],[6.07898141,44.55614683],[6.07871973,44.55585413],[6.07865791,44.55594504],[6.07853864,44.55595287],[6.07843016,44.55590455],[6.07741305,44.55629237],[6.07716616,44.55654791],[6.07873705,44.55704917],[6.07952265,44.55756781],[6.08061468,44.55864457],[6.0810088,44.56016244],[6.08118051,44.56035314],[6.08069527,44.56023605],[6.08067365,44.56025558],[6.08021422,44.56088823],[6.08020852,44.56096857],[6.0803521,44.56119791],[6.08038521,44.56138888],[6.07990506,44.56129597],[6.07977921,44.56120668],[6.07953093,44.56118298],[6.07931441,44.56111785],[6.07689006,44.56033497],[6.07608908,44.56004288],[6.07610998,44.55996391],[6.07603124,44.55988322],[6.07585122,44.55988644],[6.07587635,44.55976952],[6.07581597,44.55965588],[6.07445154,44.55827314],[6.07442146,44.55816046],[6.07460813,44.55763183],[6.07473715,44.55750211],[6.07501614,44.55732676],[6.07586569,44.5569157],[6.07515511,44.55620034],[6.07493162,44.55616873],[6.07373804,44.55618576],[6.07310101,44.55614944],[6.07290592,44.55610712],[6.07259158,44.55595731],[6.07228177,44.55570557],[6.07127318,44.55599581],[6.07107792,44.55599673],[6.07019457,44.55513841],[6.07006426,44.55489698]]]]}},{"type":"Feature","id":"gap_050610103_puymaure_chabanas","properties":{"zoneId":"gap_050610103_puymaure_chabanas","label":"Puymaure Chabanas","districtCode":"050610103","arrondissementCode":"05061","colorIndex":2,"parentZoneId":"gap_parent_05061_gap","parentCode":"05061","parentLabel":"Gap","territoryType":"iris","source":"IGN / INSEE - Contours IRIS WFS Géoplateforme","sourceYear":"2026","officialId":"050610103","sourceCleabs":"IRIS____0000000050610103","communeCode":"05061","communeName":"Gap","irisCode":"0103","irisType":"H","officialAreaM2":1820558.0197753906,"labelLng":6.065579387441889,"labelLat":44.560122199421535,"bbox":[6.05492974,44.55004953,6.08067964,44.56737556]},"geometry":{"type":"MultiPolygon","coordinates":[[[[6.07985251,44.56709759],[6.08008692,44.56668203],[6.08067964,44.56592763],[6.07966449,44.56630822],[6.07964797,44.56616723],[6.07952809,44.56597958],[6.07945072,44.56569344],[6.07913339,44.56495903],[6.07871302,44.56416082],[6.07834673,44.56329083],[6.07827446,44.56321357],[6.07670574,44.5628708],[6.07604007,44.56268034],[6.07548504,44.56243904],[6.07451194,44.56185622],[6.07252223,44.56030708],[6.07204494,44.56010414],[6.07177831,44.55967372],[6.07054427,44.55871704],[6.06966778,44.55821708],[6.06898951,44.55795576],[6.06912354,44.55784842],[6.07022004,44.55792244],[6.06923813,44.55613259],[6.06886175,44.55572233],[6.06860951,44.55550952],[6.06819346,44.55524991],[6.06774728,44.55503888],[6.06721916,44.55484995],[6.05841758,44.55191036],[6.05765524,44.55151346],[6.05628875,44.55052247],[6.05573841,44.55024761],[6.0551809,44.55004953],[6.05513088,44.55091759],[6.05492974,44.55260155],[6.05493322,44.55371318],[6.0550231,44.5556062],[6.05527913,44.55630904],[6.05564596,44.55680069],[6.05561402,44.55707185],[6.05548892,44.5574609],[6.05547513,44.55771804],[6.05636789,44.55770684],[6.05656695,44.5577761],[6.05660217,44.55837964],[6.05671972,44.55880522],[6.05685209,44.55908534],[6.05723687,44.55962875],[6.05760195,44.56001774],[6.05780576,44.5603139],[6.05858324,44.56112751],[6.05870314,44.56131698],[6.0586971,44.56180995],[6.05857746,44.56225291],[6.05847586,44.56244762],[6.06001654,44.56292656],[6.0598683,44.56314418],[6.06002648,44.56317944],[6.05896676,44.56436648],[6.05858351,44.56510775],[6.05959717,44.56537156],[6.06259832,44.56333876],[6.06342522,44.56394645],[6.06462515,44.56325458],[6.065009,44.5627349],[6.06554974,44.56294602],[6.06521899,44.56328314],[6.06509592,44.56347665],[6.06479669,44.56413902],[6.06408263,44.56468138],[6.06405733,44.56500461],[6.06391322,44.56522843],[6.06377299,44.56566296],[6.06364664,44.565889],[6.06330081,44.56634365],[6.06323401,44.56650586],[6.06324608,44.56665868],[6.06354169,44.56653246],[6.06380829,44.56647551],[6.06436238,44.56642139],[6.06489402,44.56655709],[6.06558316,44.56662264],[6.06601729,44.56670338],[6.06664913,44.5669435],[6.06704644,44.56704237],[6.06863286,44.56717667],[6.06938597,44.56737556],[6.06952352,44.56728615],[6.07005335,44.56713358],[6.07046938,44.56678866],[6.07084081,44.56673599],[6.07156803,44.56655179],[6.07172802,44.56652752],[6.07220918,44.56663846],[6.07314446,44.56659531],[6.07366704,44.56647175],[6.07428309,44.56644469],[6.07483627,44.5663509],[6.07492143,44.56638727],[6.07535232,44.56638518],[6.07666948,44.56696651],[6.07781427,44.56715984],[6.07882691,44.56719467],[6.07960556,44.56732971],[6.07978856,44.56708045],[6.07985251,44.56709759]]]]}},{"type":"Feature","id":"gap_050610104_peripherie_nord","properties":{"zoneId":"gap_050610104_peripherie_nord","label":"Périphérie Nord","districtCode":"050610104","arrondissementCode":"05061","colorIndex":3,"parentZoneId":"gap_parent_05061_gap","parentCode":"05061","parentLabel":"Gap","territoryType":"iris","source":"IGN / INSEE - Contours IRIS WFS Géoplateforme","sourceYear":"2026","officialId":"050610104","sourceCleabs":"IRIS____0000000050610104","communeCode":"05061","communeName":"Gap","irisCode":"0104","irisType":"H","officialAreaM2":18896643.35107422,"labelLng":6.060205198550628,"labelLat":44.571095330348605,"bbox":[6.01309038,44.52747006,6.10818397,44.6009907]},"geometry":{"type":"MultiPolygon","coordinates":[[[[6.01704591,44.52747006],[6.0169682,44.52771272],[6.01747028,44.52834132],[6.01798323,44.52856062],[6.01801212,44.52867694],[6.01880977,44.52920376],[6.01943334,44.52944255],[6.01965418,44.5296392],[6.02013936,44.53101058],[6.02019635,44.53167568],[6.02028242,44.53180125],[6.02047217,44.53179335],[6.02079856,44.53236189],[6.02067719,44.53240034],[6.02072904,44.53259261],[6.02149394,44.53309419],[6.02157899,44.533036],[6.02258019,44.53348155],[6.02308374,44.53390018],[6.02353576,44.5338977],[6.02421938,44.53516183],[6.02461997,44.53530401],[6.02537869,44.53583005],[6.02628091,44.53597828],[6.02775291,44.53585321],[6.02859979,44.53680113],[6.030522,44.53741322],[6.03091638,44.53760328],[6.031978,44.5375525],[6.03249252,44.53817349],[6.03264822,44.53851606],[6.03239265,44.5395501],[6.03250394,44.5399101],[6.03277705,44.5403044],[6.03264494,44.54117469],[6.03282899,44.54178674],[6.03242266,44.54271142],[6.03136022,44.5440388],[6.03093671,44.54513691],[6.03075919,44.54527962],[6.03044462,44.54533331],[6.03025007,44.54546387],[6.0298727,44.54587333],[6.02923566,44.54595118],[6.02897606,44.54583218],[6.02869289,44.54616607],[6.02831862,44.54609346],[6.02767283,44.54680667],[6.02721592,44.54707236],[6.02680789,44.54754481],[6.02603856,44.54809293],[6.02571414,44.54815137],[6.02550152,44.54827431],[6.02485077,44.54880206],[6.02440208,44.54940985],[6.02401343,44.55026824],[6.0239097,44.55068369],[6.02391459,44.55136283],[6.02278165,44.55196864],[6.02110517,44.55115328],[6.02042446,44.55121695],[6.01887615,44.55079445],[6.01693085,44.55053413],[6.01669956,44.55011974],[6.01658693,44.55008678],[6.01539876,44.55020213],[6.01448849,44.55059096],[6.01309038,44.55076246],[6.01328632,44.55193098],[6.0141132,44.55420297],[6.01339178,44.55765777],[6.01344603,44.55876799],[6.0132464,44.55904101],[6.01372658,44.5593261],[6.015046,44.55963511],[6.01636601,44.55979004],[6.01762042,44.55973143],[6.01771343,44.55975051],[6.01784864,44.55989906],[6.0185204,44.55985457],[6.02040462,44.56009763],[6.02135541,44.56027521],[6.02254037,44.56068421],[6.02369171,44.56114728],[6.02470828,44.56168159],[6.02540124,44.56193827],[6.02615506,44.56243653],[6.02610868,44.56281708],[6.02619508,44.56299489],[6.02635008,44.56306542],[6.02691276,44.56319504],[6.02734065,44.56341934],[6.02778386,44.56381169],[6.02786839,44.56395442],[6.02825669,44.56421584],[6.02863806,44.56455943],[6.02885355,44.56479406],[6.02900049,44.56511346],[6.02911934,44.56526155],[6.02918949,44.56551187],[6.0294455,44.56563278],[6.02993984,44.56615525],[6.0300221,44.5662557],[6.03000219,44.56644813],[6.03024737,44.5665315],[6.03040139,44.56691195],[6.03102091,44.56737153],[6.03165413,44.56806225],[6.0320869,44.56839992],[6.03266591,44.56850384],[6.03277723,44.56855844],[6.03343604,44.56913854],[6.03360654,44.56945007],[6.03410696,44.56975614],[6.03451493,44.57024133],[6.0351518,44.57053013],[6.03558331,44.57082007],[6.03559115,44.57127031],[6.03548282,44.57152915],[6.03523287,44.57175584],[6.03517647,44.5721601],[6.03596768,44.57236537],[6.03604716,44.57241364],[6.03630042,44.57278686],[6.03687101,44.57313153],[6.03697165,44.57310444],[6.03706182,44.57297673],[6.03721157,44.57259783],[6.03758805,44.57233342],[6.03775547,44.57209548],[6.0379077,44.57206697],[6.03802455,44.572107],[6.03812315,44.57215924],[6.03842627,44.57252207],[6.03883545,44.57291172],[6.03923069,44.57318282],[6.03948096,44.57342999],[6.03980437,44.573631],[6.04037624,44.57383508],[6.04184057,44.57448484],[6.04262882,44.57498475],[6.04383936,44.57529824],[6.04515614,44.57603852],[6.04563278,44.5764389],[6.04584041,44.57678272],[6.04594474,44.57684741],[6.04670915,44.57706777],[6.04699721,44.57796704],[6.04738692,44.5780644],[6.04744125,44.57811335],[6.04746657,44.57834869],[6.04781012,44.57854822],[6.04832967,44.57908885],[6.04945057,44.57956061],[6.04978716,44.57991078],[6.05041647,44.58019611],[6.05058723,44.58044004],[6.05106807,44.58070694],[6.05121457,44.5808984],[6.05144981,44.58109911],[6.05263676,44.58190506],[6.0536687,44.58247834],[6.05416774,44.5829177],[6.05463972,44.58306682],[6.05576792,44.58355453],[6.05642682,44.58405883],[6.05666718,44.58414408],[6.05704003,44.58444097],[6.05768732,44.58480054],[6.05796043,44.58504794],[6.05801247,44.5851474],[6.05801928,44.58534271],[6.05792102,44.58553012],[6.05793857,44.5855981],[6.05807315,44.58568537],[6.05841053,44.5858391],[6.0590092,44.5859991],[6.05958803,44.5866065],[6.05980454,44.58671672],[6.06034373,44.58689548],[6.06097948,44.58773825],[6.06140396,44.5878472],[6.06278649,44.5884188],[6.06324388,44.58848359],[6.06393346,44.58890051],[6.0640477,44.58903068],[6.06479114,44.58927853],[6.06514361,44.58952371],[6.06532995,44.58975098],[6.06525217,44.59008288],[6.06493566,44.59056915],[6.06445902,44.59084635],[6.06440242,44.59094162],[6.06443324,44.5913696],[6.06458772,44.59149775],[6.06463571,44.59161535],[6.06509189,44.59172701],[6.06528319,44.59188297],[6.06542911,44.59194649],[6.06608621,44.59190393],[6.06683285,44.59190842],[6.06822171,44.59208337],[6.06837969,44.59213664],[6.06838153,44.59247174],[6.0682164,44.59312139],[6.06846402,44.5936866],[6.06857126,44.59373408],[6.06976175,44.59482716],[6.06993385,44.59483859],[6.07025978,44.59443312],[6.07034159,44.594384],[6.07192046,44.59378693],[6.07216015,44.59378927],[6.07250194,44.59397617],[6.07290875,44.59412972],[6.07306163,44.59436692],[6.07334385,44.59540415],[6.07342626,44.59552799],[6.07368651,44.59569913],[6.0739053,44.59615072],[6.07392142,44.59656199],[6.0740945,44.59721576],[6.07403349,44.59808596],[6.0741358,44.59820474],[6.07431209,44.59822326],[6.07494523,44.59817951],[6.0751878,44.59825744],[6.07569025,44.59856869],[6.07581594,44.59860753],[6.07643252,44.59856063],[6.07683274,44.59859273],[6.07773031,44.59909658],[6.07933412,44.59904737],[6.0806137,44.59885673],[6.08077843,44.59877916],[6.08139571,44.59828355],[6.08172236,44.59812308],[6.08264969,44.59804044],[6.08306683,44.59803601],[6.0834549,44.59807653],[6.08366726,44.5979706],[6.08388987,44.59791393],[6.08479214,44.5978572],[6.08547524,44.59792011],[6.08595471,44.59804096],[6.08623844,44.59804114],[6.08668855,44.5979709],[6.08788141,44.59764836],[6.08931465,44.59747855],[6.09265175,44.59758157],[6.09287193,44.59761865],[6.09379972,44.5980044],[6.09394354,44.59864905],[6.09386746,44.59935392],[6.09390484,44.59943756],[6.09453242,44.59977496],[6.09492061,44.60013887],[6.09494458,44.600231],[6.09486825,44.60054036],[6.0948997,44.60060795],[6.09538045,44.60084314],[6.09583748,44.6009907],[6.09575699,44.60071907],[6.09553872,44.60044139],[6.09553976,44.60036838],[6.09569275,44.59996227],[6.09576942,44.59929162],[6.09605519,44.5988926],[6.09621146,44.59856929],[6.0963634,44.59724875],[6.09683229,44.59687793],[6.0968295,44.59632213],[6.09695228,44.59598624],[6.09720483,44.5957404],[6.09758687,44.59557923],[6.09777131,44.59540198],[6.09799895,44.59509288],[6.09820418,44.59458259],[6.09843261,44.59437978],[6.09877486,44.5938161],[6.09883187,44.59366044],[6.0988398,44.59334579],[6.09897035,44.59292228],[6.09926001,44.59270964],[6.0992362,44.59259769],[6.09946193,44.59236882],[6.09947352,44.59230453],[6.09937349,44.59213616],[6.0989778,44.59184184],[6.09889318,44.59172439],[6.09891516,44.59159674],[6.09908617,44.59129013],[6.09903281,44.59093845],[6.09913027,44.59080779],[6.0996256,44.59046054],[6.09975604,44.59024155],[6.10001655,44.5900036],[6.10017396,44.5895415],[6.10042153,44.58925165],[6.10038259,44.58877254],[6.1007117,44.58840653],[6.10073953,44.58811024],[6.10067266,44.5878112],[6.1008736,44.58752176],[6.10071277,44.58727942],[6.10042297,44.58700736],[6.100362,44.58670095],[6.10006626,44.58638942],[6.10006518,44.585957],[6.09982122,44.58557824],[6.09995173,44.58517727],[6.09980354,44.58488952],[6.0998699,44.58458314],[6.09984498,44.58429013],[6.09977951,44.58410818],[6.09949435,44.58389725],[6.09946416,44.58382963],[6.0994744,44.58376357],[6.09971067,44.58352089],[6.09974714,44.58285407],[6.10011356,44.58245638],[6.10026813,44.58214933],[6.10035022,44.58167043],[6.10069051,44.5812104],[6.10096219,44.58058022],[6.10119483,44.58027188],[6.10122253,44.57995036],[6.10101737,44.57919933],[6.10099807,44.57891698],[6.10108174,44.57876508],[6.10142507,44.57856714],[6.10161496,44.57830684],[6.10190974,44.57745528],[6.10199696,44.57736814],[6.10246702,44.5771369],[6.10267248,44.57686175],[6.10311786,44.5765258],[6.10337386,44.57613841],[6.103871,44.57578117],[6.10403273,44.57542166],[6.10454839,44.57517202],[6.10457409,44.57492894],[6.10466529,44.57477682],[6.10492704,44.57463162],[6.10522702,44.57467724],[6.10544073,44.57459825],[6.10583749,44.57427266],[6.1071259,44.57343007],[6.10764814,44.57298022],[6.10818397,44.57259395],[6.10664021,44.57136257],[6.10541661,44.57067984],[6.10506201,44.57044296],[6.10439716,44.56981298],[6.10341456,44.56972979],[6.10235838,44.56947748],[6.10234817,44.56988769],[6.10233774,44.57052314],[6.10222515,44.57097407],[6.10197116,44.57103076],[6.10154186,44.57106264],[6.10145784,44.57127672],[6.10107859,44.57180631],[6.10004685,44.5731002],[6.10049013,44.57334543],[6.10100825,44.57375972],[6.10008056,44.57396596],[6.09946938,44.57399123],[6.09924695,44.57342988],[6.09846435,44.57278966],[6.09818905,44.57294063],[6.09820258,44.57339342],[6.09771764,44.57342234],[6.09769781,44.5730382],[6.09710536,44.57248633],[6.09595138,44.57304754],[6.09520748,44.57366302],[6.09503422,44.5738823],[6.0947447,44.57377419],[6.09386573,44.57355917],[6.09153394,44.57309924],[6.09074304,44.57297273],[6.08850122,44.57270482],[6.08782814,44.57252004],[6.08761694,44.57303677],[6.08651377,44.57310005],[6.08641695,44.5731505],[6.08628947,44.5733775],[6.08591567,44.57336452],[6.08538415,44.57364785],[6.08520519,44.57353303],[6.08483058,44.57341286],[6.08493775,44.57369006],[6.08273751,44.57323708],[6.08238666,44.57311354],[6.08215747,44.57288659],[6.08185142,44.57289063],[6.08151201,44.57283794],[6.07918941,44.572382],[6.07842597,44.57229608],[6.07770774,44.57234583],[6.07732512,44.57242497],[6.07665697,44.5726535],[6.076313,44.57284057],[6.07626241,44.57255999],[6.07630325,44.5724075],[6.07732209,44.57160701],[6.0755791,44.57086907],[6.07600867,44.57058773],[6.07655768,44.57043999],[6.07685265,44.57011735],[6.07735634,44.56980871],[6.07752511,44.56966797],[6.07761575,44.5695276],[6.07784747,44.56936257],[6.07820382,44.56919498],[6.07843067,44.56898685],[6.07880786,44.56880875],[6.07890004,44.56858095],[6.07923338,44.56815363],[6.07923589,44.5678995],[6.07928411,44.56779004],[6.07961401,44.56748443],[6.07985251,44.56709759],[6.07978856,44.56708045],[6.07960556,44.56732971],[6.07882691,44.56719467],[6.07781427,44.56715984],[6.07666948,44.56696651],[6.07535232,44.56638518],[6.07492143,44.56638727],[6.07483627,44.5663509],[6.07428309,44.56644469],[6.07366704,44.56647175],[6.07314446,44.56659531],[6.07220918,44.56663846],[6.07172802,44.56652752],[6.07156803,44.56655179],[6.07084081,44.56673599],[6.07046938,44.56678866],[6.07005335,44.56713358],[6.06952352,44.56728615],[6.06938597,44.56737556],[6.06863286,44.56717667],[6.06704644,44.56704237],[6.06664913,44.5669435],[6.06601729,44.56670338],[6.06558316,44.56662264],[6.06489402,44.56655709],[6.06436238,44.56642139],[6.06380829,44.56647551],[6.06354169,44.56653246],[6.06324608,44.56665868],[6.06323401,44.56650586],[6.06330081,44.56634365],[6.06364664,44.565889],[6.06377299,44.56566296],[6.06391322,44.56522843],[6.06405733,44.56500461],[6.06408263,44.56468138],[6.06479669,44.56413902],[6.06509592,44.56347665],[6.06521899,44.56328314],[6.06554974,44.56294602],[6.065009,44.5627349],[6.06462515,44.56325458],[6.06342522,44.56394645],[6.06259832,44.56333876],[6.05959717,44.56537156],[6.05858351,44.56510775],[6.05896676,44.56436648],[6.06002648,44.56317944],[6.0598683,44.56314418],[6.06001654,44.56292656],[6.05847586,44.56244762],[6.05857746,44.56225291],[6.0586971,44.56180995],[6.05870314,44.56131698],[6.05858324,44.56112751],[6.05780576,44.5603139],[6.05760195,44.56001774],[6.05723687,44.55962875],[6.05685209,44.55908534],[6.05671972,44.55880522],[6.05660217,44.55837964],[6.05656695,44.5577761],[6.05636789,44.55770684],[6.05547513,44.55771804],[6.05548892,44.5574609],[6.05561402,44.55707185],[6.05564596,44.55680069],[6.05527913,44.55630904],[6.0550231,44.5556062],[6.05493322,44.55371318],[6.05492974,44.55260155],[6.05513088,44.55091759],[6.0551809,44.55004953],[6.05437049,44.54988097],[6.0538816,44.54983323],[6.05303676,44.54984309],[6.05219965,44.54997255],[6.04993536,44.55061984],[6.04922591,44.55071061],[6.04880811,44.55071945],[6.04814744,44.55066382],[6.04773262,44.55058789],[6.047316,44.55047867],[6.04655798,44.55015996],[6.04622637,44.54996821],[6.04575217,44.5495858],[6.04531913,44.54900856],[6.04475535,44.548016],[6.04434381,44.54743996],[6.0425008,44.54529168],[6.04177888,44.54456564],[6.04113963,44.54411118],[6.04047946,44.5437591],[6.03656936,44.54212172],[6.03581404,44.5416389],[6.03532005,44.54114348],[6.03490102,44.54047213],[6.03473645,44.53973071],[6.03475431,44.53914914],[6.03487304,44.53812426],[6.03476947,44.53746315],[6.03445036,44.5368458],[6.0342117,44.53655327],[6.03374273,44.53614725],[6.0331095,44.53577817],[6.03267725,44.53560987],[6.03068469,44.53511778],[6.03027915,44.53497757],[6.02981514,44.53475698],[6.02928203,44.53439865],[6.02810681,44.53319939],[6.02756304,44.5328062],[6.02719013,44.53261644],[6.02669447,44.53243905],[6.02492973,44.53201177],[6.02407182,44.53170196],[6.02339924,44.53127806],[6.0224341,44.53040001],[6.02192353,44.530014],[6.0205426,44.52924912],[6.0190667,44.52819134],[6.0186381,44.52794812],[6.01808051,44.52771833],[6.01751648,44.52755629],[6.01704591,44.52747006]]]]}},{"type":"Feature","id":"gap_050610105_la_gare","properties":{"zoneId":"gap_050610105_la_gare","label":"La Gare","districtCode":"050610105","arrondissementCode":"05061","colorIndex":4,"parentZoneId":"gap_parent_05061_gap","parentCode":"05061","parentLabel":"Gap","territoryType":"iris","source":"IGN / INSEE - Contours IRIS WFS Géoplateforme","sourceYear":"2026","officialId":"050610105","sourceCleabs":"IRIS____0000000050610105","communeCode":"05061","communeName":"Gap","irisCode":"0105","irisType":"H","officialAreaM2":433675.8669433594,"labelLng":6.085487817497305,"labelLat":44.56496753371618,"bbox":[6.07820623,44.56208312,6.09344611,44.56870994]},"geometry":{"type":"MultiPolygon","coordinates":[[[[6.08927944,44.56870994],[6.08973325,44.56866571],[6.09057177,44.56745391],[6.09074161,44.56731041],[6.09071261,44.56714906],[6.09115125,44.56646018],[6.0912534,44.56600145],[6.09119546,44.5658409],[6.0909517,44.56537113],[6.0904734,44.56494487],[6.09040546,44.56480893],[6.09046604,44.56469552],[6.09259262,44.56555672],[6.09270873,44.56551383],[6.0928409,44.56512002],[6.09344611,44.56427511],[6.09326596,44.56425313],[6.0930563,44.56415269],[6.0927934,44.56395464],[6.09249085,44.56379194],[6.09174009,44.56361387],[6.09090394,44.56351025],[6.09023334,44.56373714],[6.08999592,44.56375099],[6.08979961,44.56373306],[6.08932863,44.56360119],[6.08895638,44.56407559],[6.0846868,44.5622778],[6.08415704,44.56208449],[6.08404481,44.56208312],[6.08392725,44.56313688],[6.08272444,44.56282632],[6.08216632,44.5627365],[6.08133277,44.56270301],[6.07820623,44.56291006],[6.07827446,44.56321357],[6.07834673,44.56329083],[6.07871302,44.56416082],[6.07913339,44.56495903],[6.07945072,44.56569344],[6.07952809,44.56597958],[6.07964797,44.56616723],[6.07966449,44.56630822],[6.08067964,44.56592763],[6.08008692,44.56668203],[6.07985251,44.56709759],[6.08013591,44.56718698],[6.08040299,44.56732368],[6.08056931,44.56734607],[6.0811987,44.56758617],[6.08126485,44.56757441],[6.08157569,44.56705851],[6.08185913,44.56613346],[6.08356624,44.56623895],[6.08357227,44.5661649],[6.08500699,44.56626717],[6.08497745,44.56657971],[6.08600029,44.56670879],[6.08699102,44.56602071],[6.08708527,44.56599285],[6.08842302,44.56791496],[6.08862983,44.56817044],[6.08927944,44.56870994]]]]}},{"type":"Feature","id":"gap_050610106_rochasson_bonneval","properties":{"zoneId":"gap_050610106_rochasson_bonneval","label":"Rochasson Bonneval","districtCode":"050610106","arrondissementCode":"05061","colorIndex":5,"parentZoneId":"gap_parent_05061_gap","parentCode":"05061","parentLabel":"Gap","territoryType":"iris","source":"IGN / INSEE - Contours IRIS WFS Géoplateforme","sourceYear":"2026","officialId":"050610106","sourceCleabs":"IRIS____0000000050610106","communeCode":"05061","communeName":"Gap","irisCode":"0106","irisType":"H","officialAreaM2":526192.3972167969,"labelLng":6.083051085107486,"labelLat":44.56960072121155,"bbox":[6.0755791,44.56599285,6.08976872,44.57289063]},"geometry":{"type":"MultiPolygon","coordinates":[[[[6.08927944,44.56870994],[6.08862983,44.56817044],[6.08842302,44.56791496],[6.08708527,44.56599285],[6.08699102,44.56602071],[6.08600029,44.56670879],[6.08497745,44.56657971],[6.08500699,44.56626717],[6.08357227,44.5661649],[6.08356624,44.56623895],[6.08185913,44.56613346],[6.08157569,44.56705851],[6.08126485,44.56757441],[6.0811987,44.56758617],[6.08056931,44.56734607],[6.08040299,44.56732368],[6.08013591,44.56718698],[6.07985251,44.56709759],[6.07961401,44.56748443],[6.07928411,44.56779004],[6.07923589,44.5678995],[6.07923338,44.56815363],[6.07890004,44.56858095],[6.07880786,44.56880875],[6.07843067,44.56898685],[6.07820382,44.56919498],[6.07784747,44.56936257],[6.07761575,44.5695276],[6.07752511,44.56966797],[6.07735634,44.56980871],[6.07685265,44.57011735],[6.07655768,44.57043999],[6.07600867,44.57058773],[6.0755791,44.57086907],[6.07732209,44.57160701],[6.07630325,44.5724075],[6.07626241,44.57255999],[6.076313,44.57284057],[6.07665697,44.5726535],[6.07732512,44.57242497],[6.07770774,44.57234583],[6.07842597,44.57229608],[6.07918941,44.572382],[6.08151201,44.57283794],[6.08185142,44.57289063],[6.08215747,44.57288659],[6.08239208,44.57282058],[6.08267241,44.57266861],[6.08288112,44.57242854],[6.08337259,44.57228869],[6.08367246,44.57212535],[6.08481225,44.57116465],[6.08503657,44.5714638],[6.08545961,44.57173217],[6.08567499,44.57182165],[6.08673642,44.57207847],[6.08714503,44.57222111],[6.08746892,44.57187511],[6.08753613,44.57153718],[6.08765966,44.57133011],[6.08793446,44.57139991],[6.0883811,44.57044144],[6.08821258,44.57035606],[6.08848584,44.5702367],[6.08886732,44.57020621],[6.08976872,44.56906023],[6.08927944,44.56870994]]]]}},{"type":"Feature","id":"gap_050610107_villarobert_saint_michel","properties":{"zoneId":"gap_050610107_villarobert_saint_michel","label":"Villarobert Saint-Michel","districtCode":"050610107","arrondissementCode":"05061","colorIndex":6,"parentZoneId":"gap_parent_05061_gap","parentCode":"05061","parentLabel":"Gap","territoryType":"iris","source":"IGN / INSEE - Contours IRIS WFS Géoplateforme","sourceYear":"2026","officialId":"050610107","sourceCleabs":"IRIS____0000000050610107","communeCode":"05061","communeName":"Gap","irisCode":"0107","irisType":"H","officialAreaM2":698422.1008300781,"labelLng":6.093587375146803,"labelLat":44.570446620445715,"bbox":[6.08215747,44.56469552,6.10234817,44.57399123]},"geometry":{"type":"MultiPolygon","coordinates":[[[[6.09259262,44.56555672],[6.09046604,44.56469552],[6.09040546,44.56480893],[6.0904734,44.56494487],[6.0909517,44.56537113],[6.09119546,44.5658409],[6.0912534,44.56600145],[6.09115125,44.56646018],[6.09071261,44.56714906],[6.09074161,44.56731041],[6.09057177,44.56745391],[6.08973325,44.56866571],[6.08927944,44.56870994],[6.08976872,44.56906023],[6.08886732,44.57020621],[6.08848584,44.5702367],[6.08821258,44.57035606],[6.0883811,44.57044144],[6.08793446,44.57139991],[6.08765966,44.57133011],[6.08753613,44.57153718],[6.08746892,44.57187511],[6.08714503,44.57222111],[6.08673642,44.57207847],[6.08567499,44.57182165],[6.08545961,44.57173217],[6.08503657,44.5714638],[6.08481225,44.57116465],[6.08367246,44.57212535],[6.08337259,44.57228869],[6.08288112,44.57242854],[6.08267241,44.57266861],[6.08239208,44.57282058],[6.08215747,44.57288659],[6.08238666,44.57311354],[6.08273751,44.57323708],[6.08493775,44.57369006],[6.08483058,44.57341286],[6.08520519,44.57353303],[6.08538415,44.57364785],[6.08591567,44.57336452],[6.08628947,44.5733775],[6.08641695,44.5731505],[6.08651377,44.57310005],[6.08761694,44.57303677],[6.08782814,44.57252004],[6.08850122,44.57270482],[6.09074304,44.57297273],[6.09153394,44.57309924],[6.09386573,44.57355917],[6.0947447,44.57377419],[6.09503422,44.5738823],[6.09520748,44.57366302],[6.09595138,44.57304754],[6.09710536,44.57248633],[6.09769781,44.5730382],[6.09771764,44.57342234],[6.09820258,44.57339342],[6.09818905,44.57294063],[6.09846435,44.57278966],[6.09924695,44.57342988],[6.09946938,44.57399123],[6.10008056,44.57396596],[6.10100825,44.57375972],[6.10049013,44.57334543],[6.10004685,44.5731002],[6.10107859,44.57180631],[6.10145784,44.57127672],[6.10154186,44.57106264],[6.10197116,44.57103076],[6.10222515,44.57097407],[6.10233774,44.57052314],[6.10234817,44.56988769],[6.10074679,44.5697597],[6.10017885,44.56967654],[6.09971871,44.56955973],[6.09908974,44.56935215],[6.09697177,44.56849173],[6.09681245,44.56836736],[6.09708355,44.56779577],[6.09710424,44.56764474],[6.09705906,44.56753339],[6.09687166,44.56735666],[6.0966867,44.56724743],[6.09259262,44.56555672]]]]}},{"type":"Feature","id":"gap_050610108_les_fauvins_treschatel","properties":{"zoneId":"gap_050610108_les_fauvins_treschatel","label":"Les Fauvins Treschatel","districtCode":"050610108","arrondissementCode":"05061","colorIndex":7,"parentZoneId":"gap_parent_05061_gap","parentCode":"05061","parentLabel":"Gap","territoryType":"iris","source":"IGN / INSEE - Contours IRIS WFS Géoplateforme","sourceYear":"2026","officialId":"050610108","sourceCleabs":"IRIS____0000000050610108","communeCode":"05061","communeName":"Gap","irisCode":"0108","irisType":"H","officialAreaM2":9616744.272949219,"labelLng":6.10510199362694,"labelLat":44.55420916170937,"bbox":[6.07742302,44.53196964,6.1354754,44.5754105]},"geometry":{"type":"MultiPolygon","coordinates":[[[[6.12104615,44.57534389],[6.12117418,44.57540243],[6.12174941,44.5754105],[6.12239353,44.57479586],[6.1221543,44.57400348],[6.12260568,44.57043107],[6.12308271,44.56816521],[6.12352785,44.56816974],[6.12483497,44.56796788],[6.12590157,44.56815661],[6.12684809,44.56806584],[6.12807861,44.56821027],[6.1304583,44.5686906],[6.13150464,44.56867264],[6.13389637,44.56564785],[6.13454819,44.56504013],[6.13547157,44.56473821],[6.1354754,44.56460296],[6.13164609,44.56197998],[6.12805803,44.55990593],[6.12402785,44.55874072],[6.12303915,44.5587723],[6.12305366,44.55848809],[6.12283106,44.55801779],[6.12246435,44.55792636],[6.12212568,44.55765845],[6.12153321,44.55742655],[6.11885189,44.55649419],[6.11679186,44.55665689],[6.11570388,44.55589388],[6.11493031,44.55550758],[6.11504229,44.55534496],[6.11411585,44.55497379],[6.11398748,44.55483957],[6.11431894,44.55411036],[6.11396958,44.55369318],[6.11501526,44.55305194],[6.11500083,44.55242529],[6.11373014,44.55140885],[6.11389877,44.5509257],[6.11389312,44.54981861],[6.11483832,44.54982347],[6.11514494,44.54976346],[6.11591838,44.54946414],[6.11638672,44.54911577],[6.11587025,44.54845555],[6.11365525,44.54655763],[6.11315198,44.54620425],[6.11259598,44.54599109],[6.11234097,44.5454334],[6.11242524,44.54531661],[6.11215565,44.54520258],[6.11004026,44.54270718],[6.10822875,44.54144916],[6.10810836,44.54127597],[6.10800517,44.53860132],[6.10842082,44.53823465],[6.10828816,44.5377699],[6.10838321,44.53750595],[6.10861383,44.53737062],[6.10879786,44.53712129],[6.10875835,44.53690708],[6.10856841,44.53670612],[6.10850412,44.53524122],[6.10887544,44.53514517],[6.1101242,44.53421716],[6.11010068,44.53406466],[6.11055886,44.53392202],[6.11061387,44.53357181],[6.11036204,44.53341313],[6.1097211,44.53346183],[6.10896206,44.53319583],[6.10779615,44.53308903],[6.10753538,44.53297385],[6.10637694,44.53330017],[6.10590278,44.53331262],[6.10456841,44.53309701],[6.10402028,44.53281783],[6.10335764,44.53272385],[6.10293911,44.53285455],[6.10248667,44.53262042],[6.10199576,44.53253422],[6.10191519,44.53242026],[6.100424,44.53221532],[6.09970096,44.53203023],[6.09887107,44.53205534],[6.09820135,44.53196964],[6.09803607,44.53201032],[6.09782488,44.53222436],[6.0967253,44.53236154],[6.09649289,44.53228067],[6.09635772,44.53234213],[6.09582633,44.53234442],[6.09552311,44.53248807],[6.0952945,44.5327062],[6.09528178,44.53307143],[6.09518389,44.53316967],[6.09445032,44.5330452],[6.09368931,44.53299447],[6.09328118,44.53301672],[6.09300909,44.53315408],[6.09283542,44.53336346],[6.09230787,44.53444764],[6.09206518,44.53468507],[6.0915319,44.53509011],[6.09024983,44.5368648],[6.09001641,44.53724882],[6.08997923,44.53746699],[6.09012066,44.53850899],[6.09040383,44.53903351],[6.09052469,44.53969951],[6.09063998,44.5400107],[6.09109909,44.54057353],[6.09114424,44.54073083],[6.09112726,44.5409268],[6.09037693,44.54226947],[6.09033379,44.542586],[6.09072235,44.54365442],[6.09095885,44.54392438],[6.09151548,44.54428898],[6.09153142,44.54451106],[6.0914578,44.54461583],[6.09121715,44.54470725],[6.08718195,44.54523463],[6.08696889,44.54530095],[6.08594526,44.54595662],[6.08563619,44.54611031],[6.08520388,44.54619898],[6.08468056,44.54616676],[6.08136189,44.54551441],[6.0803458,44.54540944],[6.07880465,44.54498577],[6.07832756,44.54496935],[6.07813262,44.54502163],[6.07798713,44.54512569],[6.07747651,44.54583454],[6.07742302,44.54605495],[6.07805966,44.54758768],[6.07847654,44.5481166],[6.07868707,44.54851164],[6.07861308,44.54881821],[6.07818694,44.5492283],[6.07815023,44.54943294],[6.07844703,44.55027783],[6.07863766,44.55109325],[6.0785835,44.55183261],[6.0786722,44.55216528],[6.07885321,44.55215753],[6.07881738,44.5519396],[6.07889243,44.55181408],[6.07909936,44.5517966],[6.07924122,44.55190256],[6.07971464,44.55247404],[6.0798313,44.55271854],[6.07983349,44.55292029],[6.08114498,44.55291792],[6.08114942,44.55332231],[6.08172033,44.55424783],[6.08088456,44.55472523],[6.08142313,44.55443541],[6.08169198,44.55437475],[6.08223155,44.55530295],[6.08246714,44.55539458],[6.08308139,44.55487561],[6.08491558,44.55604421],[6.08854379,44.55752838],[6.08995425,44.5576745],[6.09063971,44.55767423],[6.09193627,44.55788026],[6.0933788,44.55927773],[6.09382825,44.56005165],[6.09409569,44.56035587],[6.09411577,44.56104362],[6.0940203,44.56180758],[6.09483075,44.56160378],[6.09553794,44.56133259],[6.09596046,44.56131624],[6.09635319,44.56123945],[6.09644287,44.56115135],[6.09673815,44.56033223],[6.09719866,44.5604112],[6.0978648,44.56072405],[6.09786706,44.56154564],[6.09945321,44.56151553],[6.09995583,44.56146628],[6.09962637,44.56228187],[6.10013517,44.56229911],[6.09995725,44.56300594],[6.09962208,44.56293787],[6.09937485,44.56369078],[6.10042099,44.56385421],[6.10067946,44.56417759],[6.10159156,44.56456189],[6.10187436,44.56477738],[6.10225381,44.56549017],[6.10240688,44.56563812],[6.10384965,44.56613813],[6.10480062,44.56628888],[6.10461228,44.56721763],[6.10441596,44.56729163],[6.10476584,44.567489],[6.10492741,44.56765383],[6.10496425,44.56777352],[6.10506053,44.56782848],[6.10350861,44.5685298],[6.10325248,44.56861628],[6.10309901,44.56862149],[6.10309507,44.56884774],[6.10300669,44.56905113],[6.10280759,44.56923511],[6.1023727,44.56934824],[6.10235838,44.56947748],[6.10341456,44.56972979],[6.10439716,44.56981298],[6.10506201,44.57044296],[6.10541661,44.57067984],[6.10664021,44.57136257],[6.10818397,44.57259395],[6.1085637,44.57237154],[6.10884084,44.57197993],[6.10917306,44.57174174],[6.10918586,44.57201977],[6.10956382,44.57233707],[6.10983185,44.57290072],[6.11002501,44.57313493],[6.11037466,44.57330436],[6.11052416,44.57343259],[6.11089228,44.57386819],[6.1111052,44.57432347],[6.11128632,44.57438504],[6.1116737,44.57466693],[6.11215119,44.57482284],[6.11277856,44.57509076],[6.11348822,44.57499958],[6.1140664,44.57501571],[6.11434962,44.57494015],[6.11467216,44.57491483],[6.11495354,44.57494293],[6.11548544,44.5751937],[6.11585702,44.57523457],[6.11601173,44.57520588],[6.1162604,44.57507543],[6.11646165,44.575022],[6.11765832,44.5748711],[6.11843827,44.57502566],[6.11904956,44.5752985],[6.1191906,44.57531884],[6.11934624,44.57526129],[6.11977779,44.5749734],[6.11992827,44.57493672],[6.12031126,44.5749331],[6.12052855,44.5749648],[6.12073605,44.57504723],[6.12104615,44.57534389]]]]}},{"type":"Feature","id":"gap_050610109_sainte_marguerite_saint_jean","properties":{"zoneId":"gap_050610109_sainte_marguerite_saint_jean","label":"Sainte-Marguerite Saint-Jean","districtCode":"050610109","arrondissementCode":"05061","colorIndex":0,"parentZoneId":"gap_parent_05061_gap","parentCode":"05061","parentLabel":"Gap","territoryType":"iris","source":"IGN / INSEE - Contours IRIS WFS Géoplateforme","sourceYear":"2026","officialId":"050610109","sourceCleabs":"IRIS____0000000050610109","communeCode":"05061","communeName":"Gap","irisCode":"0109","irisType":"H","officialAreaM2":17977389.89501953,"labelLng":6.063694577061452,"labelLat":44.521625270777506,"bbox":[6.01704591,44.4947721,6.09649289,44.55015996]},"geometry":{"type":"MultiPolygon","coordinates":[[[[6.09649289,44.53228067],[6.09509859,44.53195853],[6.09432145,44.53145238],[6.09373119,44.53120767],[6.09333214,44.53077471],[6.09325803,44.53047948],[6.093111,44.53034756],[6.09324833,44.53007254],[6.09308863,44.52993917],[6.09306697,44.52961275],[6.09278502,44.52931704],[6.09247324,44.5280627],[6.09173801,44.52765357],[6.091287,44.52769683],[6.09092942,44.52758343],[6.09070289,44.52740238],[6.09045826,44.52700563],[6.09038604,44.52520312],[6.09064047,44.52465183],[6.0906836,44.52389836],[6.09043129,44.52359101],[6.09064574,44.52286157],[6.09061893,44.5220497],[6.09076389,44.52108616],[6.09016631,44.52029118],[6.09018619,44.52014828],[6.09047189,44.51993847],[6.09062065,44.51925141],[6.09035914,44.51886774],[6.08989968,44.51850223],[6.08961314,44.51802917],[6.0898157,44.51751988],[6.08972557,44.51727646],[6.08937464,44.51691511],[6.08931974,44.51644097],[6.08954373,44.5161392],[6.08952316,44.51576319],[6.08806259,44.51488877],[6.08810595,44.51450737],[6.08789335,44.51400431],[6.08785531,44.51270986],[6.08775789,44.51251709],[6.08746096,44.51231369],[6.08663298,44.51220714],[6.08562819,44.512183],[6.08534508,44.5116792],[6.08538415,44.51124207],[6.08527925,44.51105041],[6.08419305,44.51066457],[6.08292838,44.50979992],[6.08245488,44.50968252],[6.08195613,44.50965592],[6.08142226,44.50967804],[6.080971,44.50978344],[6.08021895,44.50977562],[6.0799244,44.50970727],[6.07971037,44.50954568],[6.07949464,44.50868323],[6.07993906,44.50812938],[6.08001478,44.5077633],[6.07945859,44.50684459],[6.0790932,44.50568452],[6.07919941,44.50548516],[6.07959559,44.50527049],[6.08052656,44.50516701],[6.08061661,44.50490233],[6.08062216,44.5042193],[6.08011605,44.5032028],[6.08009526,44.50259077],[6.08030792,44.50215059],[6.08085012,44.50200572],[6.08105412,44.50175317],[6.07976941,44.50134761],[6.0795233,44.50103557],[6.07912391,44.50093681],[6.07870719,44.50068178],[6.07861204,44.5003448],[6.07879486,44.50014239],[6.07866963,44.50003868],[6.07870527,44.49949174],[6.07858071,44.49926189],[6.07829091,44.49907178],[6.07769148,44.49895157],[6.07739859,44.49895885],[6.07653596,44.49918292],[6.07595319,44.49909107],[6.07532149,44.49884022],[6.07463891,44.49841781],[6.07425745,44.49756088],[6.07084401,44.49668483],[6.07062453,44.49688463],[6.07050313,44.49715198],[6.06860849,44.49686869],[6.06396708,44.49634731],[6.06216469,44.49588387],[6.06187642,44.49590629],[6.06116114,44.49513336],[6.05956663,44.49481186],[6.05794712,44.4947721],[6.05712762,44.49518851],[6.05686617,44.49510207],[6.05650016,44.49536266],[6.0566821,44.49611977],[6.05658248,44.4963955],[6.05604654,44.49663287],[6.05619699,44.49697104],[6.05369666,44.49761238],[6.05309362,44.49763358],[6.05329359,44.49774696],[6.05310537,44.49780442],[6.05277525,44.49919552],[6.05239127,44.49949714],[6.05274969,44.49972415],[6.05337647,44.50088696],[6.05334931,44.50105979],[6.05302859,44.50148398],[6.05175498,44.5017922],[6.05167999,44.5019186],[6.05112054,44.50169894],[6.05013384,44.50163255],[6.04905549,44.50180381],[6.0484077,44.50206946],[6.04829804,44.50220672],[6.04788429,44.50209744],[6.04681708,44.50224224],[6.0438298,44.50378147],[6.04352868,44.5039168],[6.04354928,44.50462613],[6.04284804,44.50436801],[6.04245034,44.50434655],[6.04194027,44.50450566],[6.0408579,44.50451029],[6.03975027,44.50477055],[6.0395622,44.50471447],[6.03879234,44.50383571],[6.03854375,44.50389481],[6.03834212,44.50414811],[6.03834325,44.50454356],[6.0385193,44.50505492],[6.03890739,44.505319],[6.03925074,44.50587439],[6.03944017,44.50597908],[6.03991107,44.50600393],[6.04000772,44.50606884],[6.04022511,44.50692679],[6.0405222,44.50741769],[6.04055823,44.50801669],[6.04100208,44.50863778],[6.04009977,44.50957976],[6.04006398,44.51006092],[6.04027389,44.51026504],[6.04030025,44.51045079],[6.04023301,44.51065174],[6.04003522,44.51078963],[6.03998046,44.51101185],[6.04006755,44.51113287],[6.04043508,44.51124797],[6.04073333,44.51147938],[6.04122222,44.51153347],[6.04137405,44.51164099],[6.04126412,44.51179717],[6.04065922,44.51220754],[6.03989121,44.51297915],[6.03983069,44.51323487],[6.03995156,44.51367928],[6.03973037,44.51410789],[6.0397071,44.5145878],[6.03916091,44.51487312],[6.03892837,44.51488043],[6.0388528,44.51495008],[6.03888382,44.51547985],[6.0395206,44.51666679],[6.03933472,44.51742415],[6.03958113,44.51788493],[6.03928027,44.51812024],[6.03888321,44.5182528],[6.03879565,44.51838044],[6.03882757,44.51855253],[6.03924598,44.5187464],[6.03925504,44.51905516],[6.03902994,44.51913073],[6.0387137,44.5195016],[6.03783035,44.52007457],[6.03696121,44.52081831],[6.03672324,44.5211699],[6.03630537,44.52140753],[6.03606386,44.52188084],[6.03523123,44.5224614],[6.03505708,44.52266529],[6.03440744,44.52280838],[6.03412515,44.5229684],[6.03318412,44.52333661],[6.03261843,44.52342514],[6.03239425,44.52377634],[6.03208579,44.52389472],[6.03175399,44.52437591],[6.03116603,44.52458936],[6.03101037,44.5248567],[6.03027962,44.52524884],[6.02952741,44.52533526],[6.0293909,44.52560747],[6.02878317,44.52589893],[6.02855761,44.52627178],[6.02829353,44.52630246],[6.02774722,44.52618952],[6.02760647,44.52628888],[6.02750211,44.5265503],[6.02725971,44.52651551],[6.02704515,44.52660068],[6.02684101,44.52655132],[6.02648098,44.52660084],[6.02586482,44.52682945],[6.02559182,44.52728107],[6.02533253,44.5273071],[6.02495983,44.52756687],[6.02454717,44.52757458],[6.02383362,44.5278662],[6.02333748,44.52791403],[6.02276051,44.52774606],[6.02262918,44.52781002],[6.02258125,44.52802034],[6.02243484,44.52806129],[6.02202402,44.52786804],[6.0209935,44.52764942],[6.02068414,44.52749303],[6.02008674,44.52746073],[6.01961984,44.52706631],[6.01923596,44.52707051],[6.01894625,44.52692799],[6.01831092,44.52696339],[6.01780415,44.5271187],[6.01718853,44.52719319],[6.01704591,44.52747006],[6.01751648,44.52755629],[6.01808051,44.52771833],[6.0186381,44.52794812],[6.0190667,44.52819134],[6.0205426,44.52924912],[6.02192353,44.530014],[6.0224341,44.53040001],[6.02339924,44.53127806],[6.02407182,44.53170196],[6.02492973,44.53201177],[6.02669447,44.53243905],[6.02719013,44.53261644],[6.02756304,44.5328062],[6.02810681,44.53319939],[6.02928203,44.53439865],[6.02981514,44.53475698],[6.03027915,44.53497757],[6.03068469,44.53511778],[6.03267725,44.53560987],[6.0331095,44.53577817],[6.03374273,44.53614725],[6.0342117,44.53655327],[6.03445036,44.5368458],[6.03476947,44.53746315],[6.03487304,44.53812426],[6.03475431,44.53914914],[6.03473645,44.53973071],[6.03490102,44.54047213],[6.03532005,44.54114348],[6.03581404,44.5416389],[6.03656936,44.54212172],[6.04047946,44.5437591],[6.04113963,44.54411118],[6.04177888,44.54456564],[6.0425008,44.54529168],[6.04434381,44.54743996],[6.04475535,44.548016],[6.04531913,44.54900856],[6.04575217,44.5495858],[6.04622637,44.54996821],[6.04655798,44.55015996],[6.04668605,44.54987174],[6.04697894,44.54827265],[6.04713414,44.54683052],[6.04712678,44.54606406],[6.0472165,44.54592915],[6.04724622,44.54556977],[6.04753793,44.5449527],[6.04781209,44.5447109],[6.04778611,44.54425305],[6.04789617,44.54400497],[6.04808196,44.54382957],[6.04817802,44.54355574],[6.04806793,44.54319662],[6.04800376,44.54312812],[6.04785117,44.54244855],[6.04773781,44.54240213],[6.04773569,44.54243282],[6.04621923,44.54246028],[6.04610674,44.54240662],[6.04606856,44.5423293],[6.04613345,44.54187435],[6.04612163,44.5417954],[6.04604557,44.54173984],[6.04480187,44.5414057],[6.04451971,44.54126573],[6.04432776,44.54135031],[6.04309295,44.54150779],[6.04241124,44.54166713],[6.04186563,44.5416173],[6.04175291,44.54165284],[6.04157412,44.54179471],[6.04131594,44.54181894],[6.04051453,44.54144012],[6.03976955,44.54126695],[6.03902578,44.54102257],[6.03842976,44.54062097],[6.03813006,44.54059949],[6.0378693,44.53919496],[6.03860463,44.53869814],[6.0388362,44.53860078],[6.03889482,44.53849646],[6.03890675,44.53825019],[6.03896335,44.53817836],[6.03978771,44.53762772],[6.04001059,44.53736933],[6.04012134,44.53640863],[6.04017768,44.53623861],[6.04038285,44.53595548],[6.04037259,44.53588189],[6.04023376,44.53582986],[6.04021208,44.5357782],[6.04010286,44.53515329],[6.04012824,44.5350634],[6.04029826,44.53487583],[6.0404868,44.53482199],[6.04055718,44.53474888],[6.0405087,44.53408265],[6.04069353,44.53356224],[6.04098169,44.53327683],[6.04115188,44.53255502],[6.04116201,44.53222862],[6.04237675,44.53252036],[6.04341679,44.53288897],[6.04365008,44.53289424],[6.04346002,44.53205535],[6.04304936,44.53097929],[6.04276856,44.53044289],[6.04222989,44.52958478],[6.040806,44.52957088],[6.04069284,44.52866229],[6.04050057,44.52801534],[6.04040151,44.52741538],[6.04056165,44.52681097],[6.04070923,44.52658168],[6.04080114,44.52672149],[6.0411703,44.52665455],[6.04143264,44.52673201],[6.04167916,44.52674953],[6.04231316,44.52664286],[6.04369084,44.52675892],[6.04402581,44.52671184],[6.04457084,44.52642653],[6.04520273,44.52618747],[6.04567209,44.52611055],[6.04586284,44.52614492],[6.04636811,44.52643007],[6.04671012,44.52653684],[6.04722631,44.52700096],[6.04749008,44.52717476],[6.04759175,44.52719177],[6.04778389,44.52713511],[6.0481637,44.52712552],[6.04861481,44.52713017],[6.04871461,44.52664633],[6.04895126,44.52643439],[6.04983424,44.52620458],[6.05026355,44.52594586],[6.05056774,44.52586538],[6.05088282,44.52582333],[6.05121794,44.52582578],[6.05204186,44.52562191],[6.05248642,44.52562222],[6.05390194,44.52580917],[6.05544708,44.52622675],[6.05591121,44.52577426],[6.05602122,44.52571265],[6.05649747,44.52587964],[6.05793571,44.52525329],[6.05816503,44.5252091],[6.05891929,44.52516116],[6.05944311,44.52504393],[6.05948167,44.52450052],[6.0595297,44.52438748],[6.05945278,44.5237815],[6.05947342,44.52339535],[6.05953133,44.52344149],[6.06219197,44.52685056],[6.06271816,44.52761253],[6.06273272,44.52781122],[6.06258991,44.52803411],[6.06209213,44.52835333],[6.06181042,44.5287089],[6.06157683,44.52939466],[6.06151331,44.52989553],[6.0616082,44.5302983],[6.06238817,44.53200008],[6.06246088,44.53273681],[6.06231886,44.53322994],[6.06204126,44.53373134],[6.06201844,44.53386801],[6.0621879,44.53441466],[6.06213483,44.53531704],[6.06233669,44.53613577],[6.06243949,44.53626625],[6.06296973,44.53779749],[6.06348364,44.53902738],[6.0636711,44.53923209],[6.06398184,44.53920184],[6.06470595,44.53896641],[6.06557031,44.53857663],[6.06644568,44.53836672],[6.06662155,44.53928527],[6.06582664,44.53946952],[6.06632515,44.540971],[6.06643941,44.54096422],[6.06649102,44.54112585],[6.06713344,44.54098638],[6.06775483,44.54231416],[6.0684281,44.54213959],[6.06979085,44.54148637],[6.0704381,44.54157467],[6.07056343,44.54163244],[6.07063737,44.54181057],[6.07041901,44.54208061],[6.07037185,44.5422558],[6.07008487,44.54232955],[6.0698158,44.54233884],[6.06963246,44.54244213],[6.06960075,44.54264662],[6.06967548,44.54302473],[6.06944035,44.54398263],[6.06945752,44.54420558],[6.06952776,44.5442694],[6.06994481,44.544456],[6.07002197,44.54453133],[6.07016851,44.54483987],[6.07022029,44.54509699],[6.07080468,44.54588164],[6.07133295,44.54686155],[6.07152917,44.54713357],[6.07185858,44.54746855],[6.07241658,44.54792961],[6.0730422,44.54840589],[6.07316769,44.5486051],[6.0731965,44.54892593],[6.07327135,44.54914367],[6.07364703,44.54954132],[6.07588933,44.54902749],[6.0755417,44.54822005],[6.07706247,44.54794522],[6.07818694,44.5492283],[6.07861308,44.54881821],[6.07868707,44.54851164],[6.07847654,44.5481166],[6.07805966,44.54758768],[6.07742302,44.54605495],[6.07747651,44.54583454],[6.07798713,44.54512569],[6.07813262,44.54502163],[6.07832756,44.54496935],[6.07880465,44.54498577],[6.0803458,44.54540944],[6.08136189,44.54551441],[6.08468056,44.54616676],[6.08520388,44.54619898],[6.08563619,44.54611031],[6.08594526,44.54595662],[6.08696889,44.54530095],[6.08718195,44.54523463],[6.09121715,44.54470725],[6.0914578,44.54461583],[6.09153142,44.54451106],[6.09151548,44.54428898],[6.09095885,44.54392438],[6.09072235,44.54365442],[6.09033379,44.542586],[6.09037693,44.54226947],[6.09112726,44.5409268],[6.09114424,44.54073083],[6.09109909,44.54057353],[6.09063998,44.5400107],[6.09052469,44.53969951],[6.09040383,44.53903351],[6.09012066,44.53850899],[6.08997923,44.53746699],[6.09001641,44.53724882],[6.09024983,44.5368648],[6.0915319,44.53509011],[6.09206518,44.53468507],[6.09230787,44.53444764],[6.09283542,44.53336346],[6.09300909,44.53315408],[6.09328118,44.53301672],[6.09368931,44.53299447],[6.09445032,44.5330452],[6.09518389,44.53316967],[6.09528178,44.53307143],[6.0952945,44.5327062],[6.09552311,44.53248807],[6.09582633,44.53234442],[6.09635772,44.53234213],[6.09649289,44.53228067]]]]}},{"type":"Feature","id":"gap_050610110_molines","properties":{"zoneId":"gap_050610110_molines","label":"Molines","districtCode":"050610110","arrondissementCode":"05061","colorIndex":1,"parentZoneId":"gap_parent_05061_gap","parentCode":"05061","parentLabel":"Gap","territoryType":"iris","source":"IGN / INSEE - Contours IRIS WFS Géoplateforme","sourceYear":"2026","officialId":"050610110","sourceCleabs":"IRIS____0000000050610110","communeCode":"05061","communeName":"Gap","irisCode":"0110","irisType":"H","officialAreaM2":555149.6918945312,"labelLng":6.087189137056829,"labelLat":44.55935901787998,"bbox":[6.07869222,44.55429212,6.09411577,44.56407559]},"geometry":{"type":"MultiPolygon","coordinates":[[[[6.07876868,44.55575816],[6.07869222,44.55581165],[6.07871973,44.55585413],[6.07898141,44.55614683],[6.07932722,44.55641107],[6.08265545,44.55814975],[6.08302617,44.55843129],[6.08408527,44.55943417],[6.08445584,44.55996617],[6.08455378,44.56023641],[6.08459696,44.56058837],[6.0844825,44.56103032],[6.08393741,44.56189332],[6.08393635,44.56201227],[6.08404481,44.56208312],[6.08415704,44.56208449],[6.0846868,44.5622778],[6.08895638,44.56407559],[6.08932863,44.56360119],[6.09040069,44.56223691],[6.09066222,44.5620422],[6.09109266,44.56200942],[6.0929523,44.56202581],[6.09390459,44.56190362],[6.0940203,44.56180758],[6.09411577,44.56104362],[6.09409569,44.56035587],[6.09382825,44.56005165],[6.0933788,44.55927773],[6.09193627,44.55788026],[6.09063971,44.55767423],[6.08995425,44.5576745],[6.08854379,44.55752838],[6.08491558,44.55604421],[6.08308139,44.55487561],[6.08246714,44.55539458],[6.08156981,44.55640614],[6.08118776,44.55633212],[6.08126131,44.55555617],[6.08090758,44.55567776],[6.08056566,44.55536928],[6.08034055,44.55549268],[6.0801067,44.5552019],[6.08029243,44.55509582],[6.08043914,44.55515209],[6.08046346,44.55506672],[6.08088456,44.55472523],[6.08055996,44.55489555],[6.08028096,44.55497812],[6.07942327,44.55429212],[6.07915474,44.55445097],[6.07892046,44.55447552],[6.07910638,44.55536585],[6.07906966,44.55550111],[6.07876868,44.55575816]]]]}},{"type":"Feature","id":"gap_050610111_beauregard","properties":{"zoneId":"gap_050610111_beauregard","label":"Beauregard","districtCode":"050610111","arrondissementCode":"05061","colorIndex":2,"parentZoneId":"gap_parent_05061_gap","parentCode":"05061","parentLabel":"Gap","territoryType":"iris","source":"IGN / INSEE - Contours IRIS WFS Géoplateforme","sourceYear":"2026","officialId":"050610111","sourceCleabs":"IRIS____0000000050610111","communeCode":"05061","communeName":"Gap","irisCode":"0111","irisType":"H","officialAreaM2":243811.23266601562,"labelLng":6.077487542698122,"labelLat":44.55173495546534,"bbox":[6.07364703,44.54794522,6.08246714,44.55640614]},"geometry":{"type":"MultiPolygon","coordinates":[[[[6.08172033,44.55424783],[6.08114942,44.55332231],[6.08114498,44.55291792],[6.07983349,44.55292029],[6.0798313,44.55271854],[6.07971464,44.55247404],[6.07924122,44.55190256],[6.07909936,44.5517966],[6.07889243,44.55181408],[6.07881738,44.5519396],[6.07885321,44.55215753],[6.0786722,44.55216528],[6.0785835,44.55183261],[6.07863766,44.55109325],[6.07844703,44.55027783],[6.07815023,44.54943294],[6.07818694,44.5492283],[6.07706247,44.54794522],[6.0755417,44.54822005],[6.07588933,44.54902749],[6.07364703,44.54954132],[6.07392028,44.54986254],[6.07401134,44.5501465],[6.07433342,44.55046186],[6.07438249,44.55055329],[6.07436455,44.55084839],[6.07447624,44.55107141],[6.07509797,44.55159103],[6.07559824,44.55214737],[6.07571542,44.55247114],[6.07555544,44.55307291],[6.07565029,44.55335676],[6.07589347,44.55347251],[6.07673807,44.55352645],[6.0771826,44.55370685],[6.07779478,44.55425826],[6.07876868,44.55575816],[6.07906966,44.55550111],[6.07910638,44.55536585],[6.07892046,44.55447552],[6.07915474,44.55445097],[6.07942327,44.55429212],[6.08028096,44.55497812],[6.08055996,44.55489555],[6.08088456,44.55472523],[6.08172033,44.55424783]]],[[[6.08223155,44.55530295],[6.08169198,44.55437475],[6.08142313,44.55443541],[6.08088456,44.55472523],[6.08046346,44.55506672],[6.08043914,44.55515209],[6.08029243,44.55509582],[6.0801067,44.5552019],[6.08034055,44.55549268],[6.08056566,44.55536928],[6.08090758,44.55567776],[6.08126131,44.55555617],[6.08118776,44.55633212],[6.08156981,44.55640614],[6.08246714,44.55539458],[6.08223155,44.55530295]]]]}},{"type":"Feature","id":"gap_050610112_villeneuve","properties":{"zoneId":"gap_050610112_villeneuve","label":"Villeneuve","districtCode":"050610112","arrondissementCode":"05061","colorIndex":3,"parentZoneId":"gap_parent_05061_gap","parentCode":"05061","parentLabel":"Gap","territoryType":"iris","source":"IGN / INSEE - Contours IRIS WFS Géoplateforme","sourceYear":"2026","officialId":"050610112","sourceCleabs":"IRIS____0000000050610112","communeCode":"05061","communeName":"Gap","irisCode":"0112","irisType":"H","officialAreaM2":352382.25390625,"labelLng":6.073515635045511,"labelLat":44.55287489144356,"bbox":[6.06886058,44.54792961,6.07876868,44.5569157]},"geometry":{"type":"MultiPolygon","coordinates":[[[[6.07871973,44.55585413],[6.07869222,44.55581165],[6.07876868,44.55575816],[6.07779478,44.55425826],[6.0771826,44.55370685],[6.07673807,44.55352645],[6.07589347,44.55347251],[6.07565029,44.55335676],[6.07555544,44.55307291],[6.07571542,44.55247114],[6.07559824,44.55214737],[6.07509797,44.55159103],[6.07447624,44.55107141],[6.07436455,44.55084839],[6.07438249,44.55055329],[6.07433342,44.55046186],[6.07401134,44.5501465],[6.07392028,44.54986254],[6.07364703,44.54954132],[6.07327135,44.54914367],[6.0731965,44.54892593],[6.07316769,44.5486051],[6.0730422,44.54840589],[6.07241658,44.54792961],[6.07096285,44.54844125],[6.07075332,44.54854978],[6.06960086,44.54931969],[6.06982578,44.54954046],[6.06886058,44.55014029],[6.07306605,44.55356388],[6.07283151,44.55362987],[6.07179032,44.55366786],[6.0714141,44.55395491],[6.07128561,44.55400173],[6.07114674,44.55415875],[6.07006426,44.55489698],[6.07019457,44.55513841],[6.07107792,44.55599673],[6.07127318,44.55599581],[6.07228177,44.55570557],[6.07259158,44.55595731],[6.07290592,44.55610712],[6.07310101,44.55614944],[6.07373804,44.55618576],[6.07493162,44.55616873],[6.07515511,44.55620034],[6.07586569,44.5569157],[6.0764273,44.55663157],[6.07665969,44.55645662],[6.07687624,44.55652266],[6.07716616,44.55654791],[6.07741305,44.55629237],[6.07843016,44.55590455],[6.07853864,44.55595287],[6.07865791,44.55594504],[6.07871973,44.55585413]]]]}},{"type":"Feature","id":"gap_050610113_serrebourges_fontreyne","properties":{"zoneId":"gap_050610113_serrebourges_fontreyne","label":"Serrebourges Fontreyne","districtCode":"050610113","arrondissementCode":"05061","colorIndex":4,"parentZoneId":"gap_parent_05061_gap","parentCode":"05061","parentLabel":"Gap","territoryType":"iris","source":"IGN / INSEE - Contours IRIS WFS Géoplateforme","sourceYear":"2026","officialId":"050610113","sourceCleabs":"IRIS____0000000050610113","communeCode":"05061","communeName":"Gap","irisCode":"0113","irisType":"H","officialAreaM2":573638.8146972656,"labelLng":6.0622325694017185,"labelLat":44.54749706155085,"bbox":[6.05333082,44.54160578,6.07306605,44.55489698]},"geometry":{"type":"MultiPolygon","coordinates":[[[[6.05835177,44.54160578],[6.05668736,44.5429483],[6.0552576,44.54371673],[6.0552899,44.5440807],[6.05442964,44.54431623],[6.05454712,44.54462469],[6.05333082,44.54486916],[6.05345329,44.54538649],[6.054004,44.54536675],[6.05506235,44.54541584],[6.05646829,44.54592826],[6.05644139,44.54605964],[6.05655934,44.54644647],[6.05659846,44.54677332],[6.05655928,44.54693386],[6.05644336,44.54707311],[6.05670625,44.54739106],[6.05691403,44.54785467],[6.05717316,44.54807993],[6.05732991,44.54829901],[6.05720996,44.54841045],[6.05629918,44.5487609],[6.05651635,44.54909543],[6.05738025,44.54885618],[6.05758795,44.54871349],[6.05765741,44.54890256],[6.05804915,44.54931964],[6.05831026,44.54927907],[6.05941672,44.54884299],[6.05964992,44.54814823],[6.05962558,44.54779215],[6.05992657,44.54734866],[6.06025276,44.54767206],[6.06033826,44.54792464],[6.06049656,44.54812566],[6.0609312,44.54856677],[6.06104159,44.54862767],[6.06165314,44.5487999],[6.06250902,44.54915634],[6.06281668,44.54923068],[6.06369437,44.54933876],[6.06518492,44.54975864],[6.06566025,44.54992742],[6.06592506,44.55011736],[6.06686378,44.55065255],[6.06783453,44.55156793],[6.0685725,44.55311411],[6.06875651,44.55327747],[6.06910337,44.55346963],[6.06907495,44.55352627],[6.06914707,44.5535549],[6.06984539,44.55448685],[6.07000395,44.55471487],[6.07006426,44.55489698],[6.07114674,44.55415875],[6.07128561,44.55400173],[6.0714141,44.55395491],[6.07179032,44.55366786],[6.07283151,44.55362987],[6.07306605,44.55356388],[6.06886058,44.55014029],[6.06366252,44.54589726],[6.06334827,44.54567805],[6.0630486,44.54558817],[6.06299866,44.54545712],[6.06270623,44.5451292],[6.05920223,44.54225969],[6.05835177,44.54160578]]]]}},{"type":"Feature","id":"gap_050610114_belleaureille_saint_roch","properties":{"zoneId":"gap_050610114_belleaureille_saint_roch","label":"Belleaureille Saint-Roch","districtCode":"050610114","arrondissementCode":"05061","colorIndex":5,"parentZoneId":"gap_parent_05061_gap","parentCode":"05061","parentLabel":"Gap","territoryType":"iris","source":"IGN / INSEE - Contours IRIS WFS Géoplateforme","sourceYear":"2026","officialId":"050610114","sourceCleabs":"IRIS____0000000050610114","communeCode":"05061","communeName":"Gap","irisCode":"0114","irisType":"H","officialAreaM2":2177963.985595703,"labelLng":6.058997539005808,"labelLat":44.53568924708567,"bbox":[6.04800062,44.52339535,6.07241658,44.55014029]},"geometry":{"type":"MultiPolygon","coordinates":[[[[6.07241658,44.54792961],[6.07185858,44.54746855],[6.07152917,44.54713357],[6.07133295,44.54686155],[6.07080468,44.54588164],[6.07022029,44.54509699],[6.07016851,44.54483987],[6.07002197,44.54453133],[6.06994481,44.544456],[6.06952776,44.5442694],[6.06945752,44.54420558],[6.06944035,44.54398263],[6.06967548,44.54302473],[6.06960075,44.54264662],[6.06963246,44.54244213],[6.0698158,44.54233884],[6.07008487,44.54232955],[6.07037185,44.5422558],[6.07041901,44.54208061],[6.07063737,44.54181057],[6.07056343,44.54163244],[6.0704381,44.54157467],[6.06979085,44.54148637],[6.0684281,44.54213959],[6.06775483,44.54231416],[6.06713344,44.54098638],[6.06649102,44.54112585],[6.06643941,44.54096422],[6.06632515,44.540971],[6.06582664,44.53946952],[6.06662155,44.53928527],[6.06644568,44.53836672],[6.06557031,44.53857663],[6.06470595,44.53896641],[6.06398184,44.53920184],[6.0636711,44.53923209],[6.06348364,44.53902738],[6.06296973,44.53779749],[6.06243949,44.53626625],[6.06233669,44.53613577],[6.06213483,44.53531704],[6.0621879,44.53441466],[6.06201844,44.53386801],[6.06204126,44.53373134],[6.06231886,44.53322994],[6.06246088,44.53273681],[6.06238817,44.53200008],[6.0616082,44.5302983],[6.06151331,44.52989553],[6.06157683,44.52939466],[6.06181042,44.5287089],[6.06209213,44.52835333],[6.06258991,44.52803411],[6.06273272,44.52781122],[6.06271816,44.52761253],[6.06219197,44.52685056],[6.05953133,44.52344149],[6.05947342,44.52339535],[6.05945278,44.5237815],[6.0595297,44.52438748],[6.05948167,44.52450052],[6.05944311,44.52504393],[6.05891929,44.52516116],[6.05816503,44.5252091],[6.05793571,44.52525329],[6.05649747,44.52587964],[6.05602122,44.52571265],[6.05591121,44.52577426],[6.05544708,44.52622675],[6.05390194,44.52580917],[6.05248642,44.52562222],[6.05204186,44.52562191],[6.05121794,44.52582578],[6.05088282,44.52582333],[6.05056774,44.52586538],[6.05026355,44.52594586],[6.04983424,44.52620458],[6.04895126,44.52643439],[6.04871461,44.52664633],[6.04861481,44.52713017],[6.0481637,44.52712552],[6.04810486,44.52916137],[6.04800062,44.53019307],[6.0480176,44.53088089],[6.04822432,44.53172383],[6.04854777,44.53234912],[6.04909198,44.53300436],[6.05011306,44.53406983],[6.05199324,44.53637099],[6.05835177,44.54160578],[6.05920223,44.54225969],[6.06270623,44.5451292],[6.06299866,44.54545712],[6.0630486,44.54558817],[6.06334827,44.54567805],[6.06366252,44.54589726],[6.06886058,44.55014029],[6.06982578,44.54954046],[6.06960086,44.54931969],[6.07075332,44.54854978],[6.07096285,44.54844125],[6.07241658,44.54792961]]]]}},{"type":"Feature","id":"gap_050610115_les_cedres_tournefave","properties":{"zoneId":"gap_050610115_les_cedres_tournefave","label":"Les Cèdres Tournefave","districtCode":"050610115","arrondissementCode":"05061","colorIndex":6,"parentZoneId":"gap_parent_05061_gap","parentCode":"05061","parentLabel":"Gap","territoryType":"iris","source":"IGN / INSEE - Contours IRIS WFS Géoplateforme","sourceYear":"2026","officialId":"050610115","sourceCleabs":"IRIS____0000000050610115","communeCode":"05061","communeName":"Gap","irisCode":"0115","irisType":"H","officialAreaM2":510253.7900390625,"labelLng":6.061591501353742,"labelLat":44.550737248846126,"bbox":[6.05343706,44.54536675,6.07006426,44.55524991]},"geometry":{"type":"MultiPolygon","coordinates":[[[[6.06819346,44.55524991],[6.06843682,44.55511431],[6.06906975,44.55486698],[6.069697,44.55500179],[6.06987327,44.55497617],[6.07006426,44.55489698],[6.07000395,44.55471487],[6.06984539,44.55448685],[6.06914707,44.5535549],[6.06907495,44.55352627],[6.06910337,44.55346963],[6.06875651,44.55327747],[6.0685725,44.55311411],[6.06783453,44.55156793],[6.06686378,44.55065255],[6.06592506,44.55011736],[6.06566025,44.54992742],[6.06518492,44.54975864],[6.06369437,44.54933876],[6.06281668,44.54923068],[6.06250902,44.54915634],[6.06165314,44.5487999],[6.06104159,44.54862767],[6.0609312,44.54856677],[6.06049656,44.54812566],[6.06033826,44.54792464],[6.06025276,44.54767206],[6.05992657,44.54734866],[6.05962558,44.54779215],[6.05964992,44.54814823],[6.05941672,44.54884299],[6.05831026,44.54927907],[6.05804915,44.54931964],[6.05765741,44.54890256],[6.05758795,44.54871349],[6.05738025,44.54885618],[6.05651635,44.54909543],[6.05629918,44.5487609],[6.05720996,44.54841045],[6.05732991,44.54829901],[6.05717316,44.54807993],[6.05691403,44.54785467],[6.05670625,44.54739106],[6.05644336,44.54707311],[6.05655928,44.54693386],[6.05659846,44.54677332],[6.05655934,44.54644647],[6.05644139,44.54605964],[6.05646829,44.54592826],[6.05506235,44.54541584],[6.054004,44.54536675],[6.05345329,44.54538649],[6.05343706,44.54653019],[6.05350377,44.54680853],[6.05377109,44.54727861],[6.05484988,44.54858931],[6.05514452,44.5495172],[6.0551809,44.55004953],[6.05573841,44.55024761],[6.05628875,44.55052247],[6.05765524,44.55151346],[6.05841758,44.55191036],[6.06721916,44.55484995],[6.06774728,44.55503888],[6.06819346,44.55524991]]]]}},{"type":"Feature","id":"gap_050610116_les_eyssagnieres","properties":{"zoneId":"gap_050610116_les_eyssagnieres","label":"Les Eyssagnières","districtCode":"050610116","arrondissementCode":"05061","colorIndex":7,"parentZoneId":"gap_parent_05061_gap","parentCode":"05061","parentLabel":"Gap","territoryType":"iris","source":"IGN / INSEE - Contours IRIS WFS Géoplateforme","sourceYear":"2026","officialId":"050610116","sourceCleabs":"IRIS____0000000050610116","communeCode":"05061","communeName":"Gap","irisCode":"0116","irisType":"H","officialAreaM2":1986050.5385742188,"labelLng":6.047665312562351,"labelLat":44.53872759636664,"bbox":[6.0378693,44.52611055,6.05835177,44.55071945]},"geometry":{"type":"MultiPolygon","coordinates":[[[[6.04655798,44.55015996],[6.047316,44.55047867],[6.04773262,44.55058789],[6.04814744,44.55066382],[6.04880811,44.55071945],[6.04922591,44.55071061],[6.04993536,44.55061984],[6.05219965,44.54997255],[6.05303676,44.54984309],[6.0538816,44.54983323],[6.05437049,44.54988097],[6.0551809,44.55004953],[6.05514452,44.5495172],[6.05484988,44.54858931],[6.05377109,44.54727861],[6.05350377,44.54680853],[6.05343706,44.54653019],[6.05345329,44.54538649],[6.05333082,44.54486916],[6.05454712,44.54462469],[6.05442964,44.54431623],[6.0552899,44.5440807],[6.0552576,44.54371673],[6.05668736,44.5429483],[6.05835177,44.54160578],[6.05199324,44.53637099],[6.05011306,44.53406983],[6.04909198,44.53300436],[6.04854777,44.53234912],[6.04822432,44.53172383],[6.0480176,44.53088089],[6.04800062,44.53019307],[6.04810486,44.52916137],[6.0481637,44.52712552],[6.04778389,44.52713511],[6.04759175,44.52719177],[6.04749008,44.52717476],[6.04722631,44.52700096],[6.04671012,44.52653684],[6.04636811,44.52643007],[6.04586284,44.52614492],[6.04567209,44.52611055],[6.04520273,44.52618747],[6.04457084,44.52642653],[6.04402581,44.52671184],[6.04369084,44.52675892],[6.04231316,44.52664286],[6.04167916,44.52674953],[6.04143264,44.52673201],[6.0411703,44.52665455],[6.04080114,44.52672149],[6.04070923,44.52658168],[6.04056165,44.52681097],[6.04040151,44.52741538],[6.04050057,44.52801534],[6.04069284,44.52866229],[6.040806,44.52957088],[6.04222989,44.52958478],[6.04276856,44.53044289],[6.04304936,44.53097929],[6.04346002,44.53205535],[6.04365008,44.53289424],[6.04341679,44.53288897],[6.04237675,44.53252036],[6.04116201,44.53222862],[6.04115188,44.53255502],[6.04098169,44.53327683],[6.04069353,44.53356224],[6.0405087,44.53408265],[6.04055718,44.53474888],[6.0404868,44.53482199],[6.04029826,44.53487583],[6.04012824,44.5350634],[6.04010286,44.53515329],[6.04021208,44.5357782],[6.04023376,44.53582986],[6.04037259,44.53588189],[6.04038285,44.53595548],[6.04017768,44.53623861],[6.04012134,44.53640863],[6.04001059,44.53736933],[6.03978771,44.53762772],[6.03896335,44.53817836],[6.03890675,44.53825019],[6.03889482,44.53849646],[6.0388362,44.53860078],[6.03860463,44.53869814],[6.0378693,44.53919496],[6.03813006,44.54059949],[6.03842976,44.54062097],[6.03902578,44.54102257],[6.03976955,44.54126695],[6.04051453,44.54144012],[6.04131594,44.54181894],[6.04157412,44.54179471],[6.04175291,44.54165284],[6.04186563,44.5416173],[6.04241124,44.54166713],[6.04309295,44.54150779],[6.04432776,44.54135031],[6.04451971,44.54126573],[6.04480187,44.5414057],[6.04604557,44.54173984],[6.04612163,44.5417954],[6.04613345,44.54187435],[6.04606856,44.5423293],[6.04610674,44.54240662],[6.04621923,44.54246028],[6.04773569,44.54243282],[6.04773781,44.54240213],[6.04785117,44.54244855],[6.04800376,44.54312812],[6.04806793,44.54319662],[6.04817802,44.54355574],[6.04808196,44.54382957],[6.04789617,44.54400497],[6.04778611,44.54425305],[6.04781209,44.5447109],[6.04753793,44.5449527],[6.04724622,44.54556977],[6.0472165,44.54592915],[6.04712678,44.54606406],[6.04713414,44.54683052],[6.04697894,44.54827265],[6.04668605,44.54987174],[6.04655798,44.55015996]]]]}},{"type":"Feature","id":"gap_050610117_les_fauvins_tokoro","properties":{"zoneId":"gap_050610117_les_fauvins_tokoro","label":"Les Fauvins Tokoro","districtCode":"050610117","arrondissementCode":"05061","colorIndex":0,"parentZoneId":"gap_parent_05061_gap","parentCode":"05061","parentLabel":"Gap","territoryType":"iris","source":"IGN / INSEE - Contours IRIS WFS Géoplateforme","sourceYear":"2026","officialId":"050610117","sourceCleabs":"IRIS____0000000050610117","communeCode":"05061","communeName":"Gap","irisCode":"0117","irisType":"A","officialAreaM2":590389.212890625,"labelLng":6.097901116114302,"labelLat":44.56522761311956,"bbox":[6.08932863,44.56033223,6.10506053,44.56988769]},"geometry":{"type":"MultiPolygon","coordinates":[[[[6.10234817,44.56988769],[6.10235838,44.56947748],[6.1023727,44.56934824],[6.10280759,44.56923511],[6.10300669,44.56905113],[6.10309507,44.56884774],[6.10309901,44.56862149],[6.10325248,44.56861628],[6.10350861,44.5685298],[6.10506053,44.56782848],[6.10496425,44.56777352],[6.10492741,44.56765383],[6.10476584,44.567489],[6.10441596,44.56729163],[6.10461228,44.56721763],[6.10480062,44.56628888],[6.10384965,44.56613813],[6.10240688,44.56563812],[6.10225381,44.56549017],[6.10187436,44.56477738],[6.10159156,44.56456189],[6.10067946,44.56417759],[6.10042099,44.56385421],[6.09937485,44.56369078],[6.09962208,44.56293787],[6.09995725,44.56300594],[6.10013517,44.56229911],[6.09962637,44.56228187],[6.09995583,44.56146628],[6.09945321,44.56151553],[6.09786706,44.56154564],[6.0978648,44.56072405],[6.09719866,44.5604112],[6.09673815,44.56033223],[6.09644287,44.56115135],[6.09635319,44.56123945],[6.09596046,44.56131624],[6.09553794,44.56133259],[6.09483075,44.56160378],[6.0940203,44.56180758],[6.09390459,44.56190362],[6.0929523,44.56202581],[6.09109266,44.56200942],[6.09066222,44.5620422],[6.09040069,44.56223691],[6.08932863,44.56360119],[6.08979961,44.56373306],[6.08999592,44.56375099],[6.09023334,44.56373714],[6.09090394,44.56351025],[6.09174009,44.56361387],[6.09249085,44.56379194],[6.0927934,44.56395464],[6.0930563,44.56415269],[6.09326596,44.56425313],[6.09344611,44.56427511],[6.0928409,44.56512002],[6.09270873,44.56551383],[6.09259262,44.56555672],[6.0966867,44.56724743],[6.09687166,44.56735666],[6.09705906,44.56753339],[6.09710424,44.56764474],[6.09708355,44.56779577],[6.09681245,44.56836736],[6.09697177,44.56849173],[6.09908974,44.56935215],[6.09971871,44.56955973],[6.10017885,44.56967654],[6.10074679,44.5697597],[6.10234817,44.56988769]]]]}},{"type":"Feature","id":"gap_050610118_chaudun","properties":{"zoneId":"gap_050610118_chaudun","label":"Chaudun","districtCode":"050610118","arrondissementCode":"05061","colorIndex":1,"parentZoneId":"gap_parent_05061_gap","parentCode":"05061","parentLabel":"Gap","territoryType":"iris","source":"IGN / INSEE - Contours IRIS WFS Géoplateforme","sourceYear":"2026","officialId":"050610118","sourceCleabs":"IRIS____0000000050610118","communeCode":"05061","communeName":"Gap","irisCode":"0118","irisType":"D","officialAreaM2":19579200.650390625,"labelLng":6.018404716568918,"labelLat":44.64165047471795,"bbox":[5.98210738,44.61509261,6.05961652,44.66456654]},"geometry":{"type":"MultiPolygon","coordinates":[[[[6.04747391,44.61509261],[6.04483594,44.61538606],[6.0438908,44.61596257],[6.0416109,44.61683889],[6.04045142,44.61713748],[6.03972094,44.61746209],[6.03554863,44.62231655],[6.03524002,44.62277009],[6.03498194,44.62301412],[6.03472415,44.623123],[6.03397074,44.62318783],[6.03015382,44.62300696],[6.02935502,44.62302526],[6.02775818,44.62279424],[6.02707706,44.62277236],[6.02630466,44.62342326],[6.02485285,44.62434321],[6.02394231,44.62479516],[6.02337434,44.62502512],[6.02239224,44.62517811],[6.02121861,44.62554715],[6.02037034,44.6256316],[6.01990336,44.62602815],[6.0195121,44.62614245],[6.01946609,44.62624911],[6.01887388,44.62659232],[6.01849804,44.62661791],[6.01828697,44.6268462],[6.01827377,44.62676457],[6.01800833,44.6268493],[6.01800192,44.62675308],[6.01758355,44.62673838],[6.01720563,44.62660725],[6.01614523,44.6266416],[6.01600606,44.62656341],[6.01570112,44.62654651],[6.01559618,44.62640072],[6.01531326,44.62644178],[6.01477663,44.62631497],[6.01428066,44.62638255],[6.01279707,44.62529686],[6.01028044,44.62374019],[6.00864883,44.6233765],[6.00619389,44.62356403],[6.00177517,44.6235454],[6.00071806,44.62359303],[5.99993682,44.62377551],[5.99946259,44.62372982],[5.99950572,44.62401874],[5.99984088,44.62417721],[6.00003162,44.6246324],[6.00024468,44.62474824],[6.00011008,44.62506361],[6.00013706,44.62523856],[5.99978259,44.62540494],[5.99932422,44.62577594],[5.99842114,44.62618243],[5.99833526,44.62629918],[5.99844479,44.62646107],[5.99823114,44.62687949],[5.99753687,44.62720373],[5.99626734,44.62750482],[5.99554759,44.62777749],[5.99430746,44.62794353],[5.99402148,44.62790353],[5.99369842,44.62813931],[5.99319788,44.62824025],[5.99276398,44.62852678],[5.99216618,44.62876819],[5.99179624,44.62909533],[5.99133181,44.62923493],[5.99106429,44.62942415],[5.99082529,44.62977026],[5.99065498,44.62977037],[5.99029872,44.62992775],[5.98946996,44.63042946],[5.98861504,44.63072375],[5.98823003,44.63100533],[5.98643781,44.63177811],[5.98653033,44.63197651],[5.98643652,44.63225382],[5.98553708,44.63330425],[5.98539489,44.63338287],[5.98454349,44.63345901],[5.98416691,44.63375747],[5.98412074,44.63421998],[5.9834938,44.6360099],[5.98347214,44.63669697],[5.98328879,44.63740463],[5.98234692,44.63884808],[5.98242748,44.63924951],[5.98263725,44.63946998],[5.98263764,44.63962042],[5.98248998,44.63988206],[5.98216966,44.64012404],[5.98210738,44.64095005],[5.98254966,44.64089037],[5.98302343,44.64042443],[5.98428591,44.6404363],[5.98492289,44.64055064],[5.98536138,44.64049105],[5.98590649,44.6401574],[5.98684998,44.64012651],[5.98758007,44.64068787],[5.98809231,44.64080556],[5.98916177,44.64077034],[5.98936322,44.64095228],[5.98958946,44.64152995],[5.9898498,44.64165625],[5.99075184,44.64160482],[5.99124023,44.64170062],[5.99271646,44.64210121],[5.99311485,44.64240304],[5.99312327,44.64253795],[5.99226565,44.64292694],[5.99165993,44.6433073],[5.99109515,44.64431629],[5.99017394,44.64488717],[5.98961431,44.6449951],[5.98919992,44.64541442],[5.98786304,44.64928485],[5.987784,44.65000771],[5.98791079,44.65099439],[5.98766927,44.65212797],[5.98830991,44.65440259],[5.98877975,44.65483674],[5.98963001,44.65530385],[5.9899707,44.65570636],[5.99027575,44.65650714],[5.9896276,44.65837425],[5.98951413,44.66049358],[5.98921381,44.66189902],[5.98891926,44.66222411],[5.98884022,44.66294698],[5.98892369,44.66325914],[5.98920462,44.66370021],[5.98951728,44.66364491],[5.99216348,44.66360217],[5.99363238,44.66387774],[5.99389283,44.66400403],[5.99407817,44.66395216],[5.9940577,44.6636383],[5.99418132,44.663589],[5.9948138,44.66361332],[5.99564975,44.66385555],[5.99644322,44.66441425],[5.99727314,44.66456654],[5.99783656,44.66450262],[6.00006413,44.6638521],[6.0004301,44.66366019],[6.00081052,44.66369221],[6.00100927,44.66382105],[6.00138369,44.66376405],[6.00262614,44.66327175],[6.00366337,44.66274267],[6.00643618,44.66076816],[6.00693051,44.66061688],[6.00912098,44.6603636],[6.01205651,44.65966744],[6.01265483,44.6592187],[6.0131795,44.65911611],[6.01339184,44.65874365],[6.01385731,44.65864357],[6.0160858,44.65865399],[6.01742821,44.65892458],[6.0184408,44.65996545],[6.01987362,44.6607678],[6.02165177,44.66250037],[6.02469125,44.66430474],[6.02598353,44.66450814],[6.02674078,44.66452796],[6.02785714,44.66422982],[6.02828232,44.66399024],[6.02891281,44.66378918],[6.03010626,44.66370423],[6.03251587,44.66294807],[6.03327195,44.66292283],[6.03395763,44.66280942],[6.03475646,44.66247667],[6.0359616,44.66162554],[6.03680743,44.66087706],[6.03732444,44.66009436],[6.03750683,44.65905237],[6.03749666,44.65792737],[6.03782379,44.6569715],[6.03846306,44.65613949],[6.03906005,44.65562396],[6.03945828,44.65498055],[6.03971101,44.65402672],[6.04017382,44.65320045],[6.04094753,44.65249896],[6.04241661,44.65181978],[6.0445062,44.65099286],[6.04546513,44.65024029],[6.04576207,44.64977984],[6.04581106,44.64860817],[6.04675681,44.64555945],[6.04702649,44.64487542],[6.04766305,44.64399837],[6.04782751,44.64363256],[6.04824762,44.64330385],[6.04815625,44.64173153],[6.04852155,44.63997003],[6.04828936,44.63971336],[6.04815222,44.63927748],[6.04758727,44.63844438],[6.04699135,44.6379716],[6.04674608,44.63765943],[6.04648742,44.6375197],[6.04589298,44.63681714],[6.04568212,44.63592742],[6.04458141,44.63519555],[6.04421454,44.63454707],[6.04376997,44.63407191],[6.04365395,44.63299849],[6.04355057,44.63278961],[6.04504571,44.63276645],[6.04513296,44.632046],[6.04551171,44.63191034],[6.04564816,44.63142368],[6.04600026,44.63074819],[6.04637864,44.63027918],[6.04728427,44.62973798],[6.05610496,44.6257213],[6.05654628,44.62597307],[6.057283,44.62620496],[6.05848086,44.62675112],[6.05884313,44.6267546],[6.05944586,44.6270046],[6.05961592,44.62665123],[6.05961652,44.62647643],[6.05935255,44.62586659],[6.0586133,44.6246816],[6.05851597,44.62444555],[6.05860546,44.62409531],[6.05893298,44.62343576],[6.05899003,44.62302246],[6.05893085,44.62272228],[6.05868602,44.62230201],[6.05861484,44.62203641],[6.05844488,44.62178705],[6.05814875,44.62160695],[6.05753728,44.62138061],[6.05725667,44.62111449],[6.0571925,44.62116402],[6.0572888,44.62152083],[6.05759215,44.62195029],[6.05761268,44.62204972],[6.05752882,44.62206196],[6.05713277,44.62180714],[6.056753,44.62168971],[6.05644227,44.62168209],[6.05598883,44.62174148],[6.05582937,44.62180174],[6.05567541,44.62194024],[6.05558135,44.62229961],[6.05557269,44.62272149],[6.05546466,44.62289295],[6.05490698,44.62317054],[6.05420541,44.62314398],[6.05391532,44.62319164],[6.05344014,44.62347866],[6.05316742,44.6235907],[6.05298985,44.62357308],[6.05265222,44.62344186],[6.05246883,44.62320007],[6.05233858,44.62314781],[6.05184588,44.62334431],[6.051578,44.62331297],[6.05128863,44.62314077],[6.05111712,44.62311848],[6.05067577,44.6231685],[6.05020925,44.62307957],[6.04960376,44.62328999],[6.04926452,44.62326872],[6.04836439,44.62337283],[6.04824313,44.62336987],[6.04808856,44.62328764],[6.04805738,44.62315426],[6.04817602,44.62271224],[6.04802237,44.62260026],[6.04760296,44.6225893],[6.04740509,44.61906941],[6.04747761,44.6183809],[6.04774404,44.61742938],[6.04782692,44.61674599],[6.04760288,44.61586836],[6.04761631,44.61567339],[6.04757789,44.61545282],[6.04746769,44.61521081],[6.04747391,44.61509261]]]]}},{"type":"Feature","id":"gap_050610119_bayard","properties":{"zoneId":"gap_050610119_bayard","label":"Bayard","districtCode":"050610119","arrondissementCode":"05061","colorIndex":2,"parentZoneId":"gap_parent_05061_gap","parentCode":"05061","parentLabel":"Gap","territoryType":"iris","source":"IGN / INSEE - Contours IRIS WFS Géoplateforme","sourceYear":"2026","officialId":"050610119","sourceCleabs":"IRIS____0000000050610119","communeCode":"05061","communeName":"Gap","irisCode":"0119","irisType":"D","officialAreaM2":13778109.124267578,"labelLng":6.0711617478585,"labelLat":44.60961289015404,"bbox":[6.04262675,44.58568537,6.10053675,44.63334958]},"geometry":{"type":"MultiPolygon","coordinates":[[[[6.09109436,44.63334958],[6.09131786,44.63303069],[6.0911267,44.63258196],[6.09106993,44.63196099],[6.09114618,44.63022272],[6.09100109,44.62976278],[6.09108144,44.62878931],[6.09094743,44.62846241],[6.09089228,44.6277558],[6.09034164,44.62657203],[6.08959412,44.62547845],[6.08969433,44.62535042],[6.08955309,44.62498318],[6.0896715,44.62442758],[6.08964606,44.62336517],[6.0897803,44.62309834],[6.08994073,44.62206677],[6.09011752,44.62167893],[6.09140966,44.62019045],[6.09270168,44.61922992],[6.09316898,44.61843572],[6.09350165,44.61806152],[6.0935294,44.61739494],[6.09533799,44.61697671],[6.09784854,44.61657029],[6.10053675,44.61625254],[6.10050859,44.61574069],[6.10038342,44.61548292],[6.10012405,44.61521631],[6.09949072,44.61438809],[6.09937091,44.61321841],[6.09926159,44.61262955],[6.09926562,44.61233573],[6.09920928,44.61215982],[6.09948981,44.61175643],[6.09920151,44.61123836],[6.09907241,44.61113838],[6.09884301,44.61104931],[6.09878332,44.61095008],[6.09875662,44.61046431],[6.09884342,44.61029971],[6.09909922,44.61004297],[6.09959458,44.60859206],[6.09950135,44.60783697],[6.09922434,44.60743211],[6.09878441,44.60700028],[6.09862078,44.60654719],[6.09832669,44.60610677],[6.09832871,44.60561569],[6.09821558,44.60523236],[6.09810417,44.60517872],[6.09757775,44.6046412],[6.09700899,44.60429677],[6.0966624,44.60388755],[6.09611903,44.60345411],[6.09592178,44.60319205],[6.09585773,44.60294429],[6.09583745,44.60213851],[6.09573558,44.601799],[6.09576779,44.60135213],[6.09588054,44.60103995],[6.09583748,44.6009907],[6.09538045,44.60084314],[6.0948997,44.60060795],[6.09486825,44.60054036],[6.09494458,44.600231],[6.09492061,44.60013887],[6.09453242,44.59977496],[6.09390484,44.59943756],[6.09386746,44.59935392],[6.09394354,44.59864905],[6.09379972,44.5980044],[6.09287193,44.59761865],[6.09265175,44.59758157],[6.08931465,44.59747855],[6.08788141,44.59764836],[6.08668855,44.5979709],[6.08623844,44.59804114],[6.08595471,44.59804096],[6.08547524,44.59792011],[6.08479214,44.5978572],[6.08388987,44.59791393],[6.08366726,44.5979706],[6.0834549,44.59807653],[6.08306683,44.59803601],[6.08264969,44.59804044],[6.08172236,44.59812308],[6.08139571,44.59828355],[6.08077843,44.59877916],[6.0806137,44.59885673],[6.07933412,44.59904737],[6.07773031,44.59909658],[6.07683274,44.59859273],[6.07643252,44.59856063],[6.07581594,44.59860753],[6.07569025,44.59856869],[6.0751878,44.59825744],[6.07494523,44.59817951],[6.07431209,44.59822326],[6.0741358,44.59820474],[6.07403349,44.59808596],[6.0740945,44.59721576],[6.07392142,44.59656199],[6.0739053,44.59615072],[6.07368651,44.59569913],[6.07342626,44.59552799],[6.07334385,44.59540415],[6.07306163,44.59436692],[6.07290875,44.59412972],[6.07250194,44.59397617],[6.07216015,44.59378927],[6.07192046,44.59378693],[6.07034159,44.594384],[6.07025978,44.59443312],[6.06993385,44.59483859],[6.06976175,44.59482716],[6.06857126,44.59373408],[6.06846402,44.5936866],[6.0682164,44.59312139],[6.06838153,44.59247174],[6.06837969,44.59213664],[6.06822171,44.59208337],[6.06683285,44.59190842],[6.06608621,44.59190393],[6.06542911,44.59194649],[6.06528319,44.59188297],[6.06509189,44.59172701],[6.06463571,44.59161535],[6.06458772,44.59149775],[6.06443324,44.5913696],[6.06440242,44.59094162],[6.06445902,44.59084635],[6.06493566,44.59056915],[6.06525217,44.59008288],[6.06532995,44.58975098],[6.06514361,44.58952371],[6.06479114,44.58927853],[6.0640477,44.58903068],[6.06393346,44.58890051],[6.06324388,44.58848359],[6.06278649,44.5884188],[6.06140396,44.5878472],[6.06097948,44.58773825],[6.06034373,44.58689548],[6.05980454,44.58671672],[6.05958803,44.5866065],[6.0590092,44.5859991],[6.05841053,44.5858391],[6.05807315,44.58568537],[6.05768976,44.58631042],[6.05746309,44.58659418],[6.05717564,44.58722197],[6.05688918,44.58754252],[6.04262675,44.5892481],[6.04316071,44.58965772],[6.04494641,44.59064726],[6.04598466,44.59135919],[6.04714539,44.59417408],[6.04819286,44.59521818],[6.04886955,44.59633016],[6.04883411,44.59677079],[6.04903095,44.59814917],[6.04898506,44.59886307],[6.04972115,44.60020945],[6.05003721,44.60162329],[6.05015589,44.60323447],[6.05031721,44.60395526],[6.05031687,44.60469493],[6.05009619,44.60532447],[6.05005397,44.60594277],[6.04963932,44.60704343],[6.04962508,44.60743303],[6.04919833,44.6082169],[6.04866473,44.61159659],[6.04823737,44.61225345],[6.04804509,44.61277949],[6.04784663,44.61337778],[6.04774884,44.61411203],[6.04780934,44.6143446],[6.04747391,44.61509261],[6.04746769,44.61521081],[6.04757789,44.61545282],[6.04761631,44.61567339],[6.04760288,44.61586836],[6.04782692,44.61674599],[6.04774404,44.61742938],[6.04747761,44.6183809],[6.04740509,44.61906941],[6.04760296,44.6225893],[6.04802237,44.62260026],[6.04817602,44.62271224],[6.04805738,44.62315426],[6.04808856,44.62328764],[6.04824313,44.62336987],[6.04836439,44.62337283],[6.04926452,44.62326872],[6.04960376,44.62328999],[6.05020925,44.62307957],[6.05067577,44.6231685],[6.05111712,44.62311848],[6.05128863,44.62314077],[6.051578,44.62331297],[6.05184588,44.62334431],[6.05233858,44.62314781],[6.05246883,44.62320007],[6.05265222,44.62344186],[6.05298985,44.62357308],[6.05316742,44.6235907],[6.05344014,44.62347866],[6.05391532,44.62319164],[6.05420541,44.62314398],[6.05490698,44.62317054],[6.05546466,44.62289295],[6.05557269,44.62272149],[6.05558135,44.62229961],[6.05567541,44.62194024],[6.05582937,44.62180174],[6.05598883,44.62174148],[6.05644227,44.62168209],[6.056753,44.62168971],[6.05713277,44.62180714],[6.05752882,44.62206196],[6.05761268,44.62204972],[6.05759215,44.62195029],[6.0572888,44.62152083],[6.0571925,44.62116402],[6.05725667,44.62111449],[6.05753728,44.62138061],[6.05814875,44.62160695],[6.05844488,44.62178705],[6.05861484,44.62203641],[6.05868602,44.62230201],[6.05893085,44.62272228],[6.05899003,44.62302246],[6.05893298,44.62343576],[6.05860546,44.62409531],[6.05851597,44.62444555],[6.0586133,44.6246816],[6.05935255,44.62586659],[6.05961652,44.62647643],[6.05961592,44.62665123],[6.05944586,44.6270046],[6.05969059,44.62712035],[6.06040746,44.62686986],[6.060913,44.62656125],[6.06185565,44.62614774],[6.06251645,44.62572491],[6.06262174,44.62554991],[6.06327912,44.62527312],[6.06395963,44.62507407],[6.06522627,44.62486596],[6.06583713,44.62480127],[6.06656077,44.62490822],[6.06746617,44.62513265],[6.07108103,44.62685487],[6.07135394,44.62714009],[6.07173034,44.62733324],[6.07183755,44.62754108],[6.07175501,44.62787853],[6.07250862,44.62846482],[6.07318188,44.62928938],[6.0740395,44.62965384],[6.07463348,44.6297184],[6.07501846,44.62967526],[6.07564129,44.62948224],[6.07641507,44.62939674],[6.07685592,44.62917545],[6.07767034,44.62895637],[6.0785763,44.62900411],[6.07937803,44.62873762],[6.08259571,44.62893082],[6.08375778,44.62948582],[6.08524207,44.62979576],[6.08585378,44.62983815],[6.08695538,44.63027858],[6.0873684,44.63054003],[6.08764444,44.63090352],[6.08807549,44.6310104],[6.08858435,44.63131692],[6.08949849,44.63222656],[6.0906154,44.63273771],[6.09109436,44.63334958]]]]}},{"type":"Feature","id":"gap_050610120_montagne_charance","properties":{"zoneId":"gap_050610120_montagne_charance","label":"Montagne Charance","districtCode":"050610120","arrondissementCode":"05061","colorIndex":3,"parentZoneId":"gap_parent_05061_gap","parentCode":"05061","parentLabel":"Gap","territoryType":"iris","source":"IGN / INSEE - Contours IRIS WFS Géoplateforme","sourceYear":"2026","officialId":"050610120","sourceCleabs":"IRIS____0000000050610120","communeCode":"05061","communeName":"Gap","irisCode":"0120","irisType":"D","officialAreaM2":4546460.797119141,"labelLng":6.032504936232353,"labelLat":44.57467302879093,"bbox":[6.01159923,44.55904101,6.05807315,44.5892481]},"geometry":{"type":"MultiPolygon","coordinates":[[[[6.0132464,44.55904101],[6.01248953,44.56048868],[6.01197144,44.56093345],[6.01176876,44.56129122],[6.01159923,44.56198684],[6.01177402,44.56235774],[6.01173567,44.56331554],[6.01186006,44.56363917],[6.01171518,44.56394672],[6.01170762,44.56430098],[6.01175706,44.56470774],[6.01203436,44.56508665],[6.0121948,44.56556606],[6.01271189,44.56614023],[6.01303026,44.56674506],[6.01356497,44.56698812],[6.01386395,44.56770158],[6.01456836,44.56836072],[6.01476795,44.56879401],[6.0155699,44.56934418],[6.01557165,44.5696126],[6.01491597,44.57076203],[6.01517131,44.57259199],[6.01494742,44.57304856],[6.01456172,44.57333116],[6.01434786,44.57336222],[6.01485339,44.57378896],[6.01610599,44.57427998],[6.01665729,44.57440726],[6.01761767,44.5743594],[6.01862169,44.57406709],[6.01896626,44.57384055],[6.01919418,44.57390729],[6.02332289,44.57371324],[6.02445214,44.57465259],[6.02470673,44.57554562],[6.02499855,44.57569888],[6.02535863,44.57632596],[6.02542333,44.57670977],[6.02578318,44.57705037],[6.02623161,44.57779664],[6.02667438,44.57820253],[6.02724033,44.57921224],[6.02809169,44.58011413],[6.02845799,44.58029238],[6.02952331,44.58123434],[6.03000208,44.58144102],[6.03081998,44.58169516],[6.0312018,44.58169279],[6.03335113,44.58199864],[6.03410907,44.58188773],[6.03473658,44.58249211],[6.03518445,44.58270954],[6.03527251,44.58287018],[6.03553999,44.58301508],[6.03612308,44.58305131],[6.03743561,44.58328999],[6.03804878,44.58355691],[6.03906729,44.58416403],[6.03941486,44.58425087],[6.03964109,44.5847996],[6.04003534,44.5849338],[6.04020427,44.5850742],[6.04153163,44.58659173],[6.04202573,44.58754841],[6.04236389,44.58888596],[6.04262675,44.5892481],[6.05688918,44.58754252],[6.05717564,44.58722197],[6.05746309,44.58659418],[6.05768976,44.58631042],[6.05807315,44.58568537],[6.05793857,44.5855981],[6.05792102,44.58553012],[6.05801928,44.58534271],[6.05801247,44.5851474],[6.05796043,44.58504794],[6.05768732,44.58480054],[6.05704003,44.58444097],[6.05666718,44.58414408],[6.05642682,44.58405883],[6.05576792,44.58355453],[6.05463972,44.58306682],[6.05416774,44.5829177],[6.0536687,44.58247834],[6.05263676,44.58190506],[6.05144981,44.58109911],[6.05121457,44.5808984],[6.05106807,44.58070694],[6.05058723,44.58044004],[6.05041647,44.58019611],[6.04978716,44.57991078],[6.04945057,44.57956061],[6.04832967,44.57908885],[6.04781012,44.57854822],[6.04746657,44.57834869],[6.04744125,44.57811335],[6.04738692,44.5780644],[6.04699721,44.57796704],[6.04670915,44.57706777],[6.04594474,44.57684741],[6.04584041,44.57678272],[6.04563278,44.5764389],[6.04515614,44.57603852],[6.04383936,44.57529824],[6.04262882,44.57498475],[6.04184057,44.57448484],[6.04037624,44.57383508],[6.03980437,44.573631],[6.03948096,44.57342999],[6.03923069,44.57318282],[6.03883545,44.57291172],[6.03842627,44.57252207],[6.03812315,44.57215924],[6.03802455,44.572107],[6.0379077,44.57206697],[6.03775547,44.57209548],[6.03758805,44.57233342],[6.03721157,44.57259783],[6.03706182,44.57297673],[6.03697165,44.57310444],[6.03687101,44.57313153],[6.03630042,44.57278686],[6.03604716,44.57241364],[6.03596768,44.57236537],[6.03517647,44.5721601],[6.03523287,44.57175584],[6.03548282,44.57152915],[6.03559115,44.57127031],[6.03558331,44.57082007],[6.0351518,44.57053013],[6.03451493,44.57024133],[6.03410696,44.56975614],[6.03360654,44.56945007],[6.03343604,44.56913854],[6.03277723,44.56855844],[6.03266591,44.56850384],[6.0320869,44.56839992],[6.03165413,44.56806225],[6.03102091,44.56737153],[6.03040139,44.56691195],[6.03024737,44.5665315],[6.03000219,44.56644813],[6.0300221,44.5662557],[6.02993984,44.56615525],[6.0294455,44.56563278],[6.02918949,44.56551187],[6.02911934,44.56526155],[6.02900049,44.56511346],[6.02885355,44.56479406],[6.02863806,44.56455943],[6.02825669,44.56421584],[6.02786839,44.56395442],[6.02778386,44.56381169],[6.02734065,44.56341934],[6.02691276,44.56319504],[6.02635008,44.56306542],[6.02619508,44.56299489],[6.02610868,44.56281708],[6.02615506,44.56243653],[6.02540124,44.56193827],[6.02470828,44.56168159],[6.02369171,44.56114728],[6.02254037,44.56068421],[6.02135541,44.56027521],[6.02040462,44.56009763],[6.0185204,44.55985457],[6.01784864,44.55989906],[6.01771343,44.55975051],[6.01762042,44.55973143],[6.01636601,44.55979004],[6.015046,44.55963511],[6.01372658,44.5593261],[6.0132464,44.55904101]]]]}},{"type":"Feature","id":"gap_050610201_romette_commune_associee","properties":{"zoneId":"gap_050610201_romette_commune_associee","label":"Romette Commune Associée","districtCode":"050610201","arrondissementCode":"05061","colorIndex":4,"parentZoneId":"gap_parent_05061_gap","parentCode":"05061","parentLabel":"Gap","territoryType":"iris","source":"IGN / INSEE - Contours IRIS WFS Géoplateforme","sourceYear":"2026","officialId":"050610201","sourceCleabs":"IRIS____0000000050610201","communeCode":"05061","communeName":"Gap","irisCode":"0201","irisType":"H","officialAreaM2":12485376.858154297,"labelLng":6.117308593200079,"labelLat":44.59723058827353,"bbox":[6.09553872,44.57174174,6.14108379,44.61718461]},"geometry":{"type":"MultiPolygon","coordinates":[[[[6.10050859,44.61574069],[6.10048049,44.61522973],[6.10221996,44.61433672],[6.10400865,44.61433874],[6.10450982,44.61407149],[6.10559351,44.61414374],[6.11248542,44.61414262],[6.11635482,44.61491109],[6.11659655,44.61508536],[6.11708741,44.61622925],[6.11876629,44.61645667],[6.11992606,44.61683116],[6.12188995,44.61698832],[6.12272326,44.61718461],[6.12322563,44.61716771],[6.12636418,44.61603293],[6.12661846,44.61606898],[6.1274001,44.61644779],[6.12783699,44.61638767],[6.13399364,44.61411396],[6.13813976,44.6127097],[6.13863753,44.61261087],[6.13958674,44.61266859],[6.14009964,44.61093947],[6.14042848,44.61020845],[6.14047018,44.60971173],[6.14030544,44.60913168],[6.14041063,44.60696727],[6.14070276,44.60664183],[6.14086782,44.60609565],[6.14108379,44.60358843],[6.1408048,44.60258728],[6.13980977,44.60186236],[6.13949751,44.60155409],[6.13932281,44.6012248],[6.13945506,44.60088228],[6.13931966,44.6004888],[6.13944536,44.60018701],[6.13935899,44.60001738],[6.13930164,44.5989874],[6.14004818,44.59733454],[6.13979955,44.59717222],[6.13902902,44.5963328],[6.13845681,44.59615626],[6.13796532,44.59582155],[6.13794509,44.5956167],[6.13741146,44.59515886],[6.13714962,44.59437345],[6.13667753,44.59436433],[6.13660872,44.59430592],[6.13670009,44.5940898],[6.13698753,44.59393027],[6.13699041,44.59361936],[6.13680201,44.5935193],[6.13657167,44.59354926],[6.13639351,44.59327052],[6.13582052,44.59312462],[6.13514812,44.59261935],[6.13527733,44.592358],[6.13511574,44.59221844],[6.13523225,44.59186466],[6.13500995,44.59156284],[6.13505723,44.59116598],[6.13489803,44.59086507],[6.13493504,44.59046489],[6.13443676,44.58955285],[6.13418777,44.58942838],[6.13389943,44.5890951],[6.13368612,44.58865968],[6.13300489,44.58847088],[6.13243775,44.58808875],[6.13223284,44.58780445],[6.13179554,44.58771685],[6.1317384,44.58723285],[6.13154685,44.58693917],[6.13175061,44.58661265],[6.13156227,44.58635401],[6.13134914,44.58623932],[6.13133143,44.58610198],[6.13091341,44.58602103],[6.13031711,44.58574873],[6.12994204,44.58526023],[6.12961127,44.58500202],[6.12818949,44.58439362],[6.12752669,44.58367181],[6.12729632,44.58315488],[6.12699414,44.58304811],[6.1269822,44.58269618],[6.12644598,44.58255189],[6.12604291,44.58210292],[6.12546897,44.58182365],[6.12517829,44.58144627],[6.124423,44.58094239],[6.12408089,44.58036465],[6.12356446,44.58009906],[6.12355242,44.57951739],[6.12343768,44.57935756],[6.12318625,44.57930161],[6.12271738,44.57884727],[6.12220267,44.57868074],[6.12199639,44.57823339],[6.12112349,44.57769858],[6.12106575,44.5763587],[6.12085555,44.57584029],[6.12104615,44.57534389],[6.12073605,44.57504723],[6.12052855,44.5749648],[6.12031126,44.5749331],[6.11992827,44.57493672],[6.11977779,44.5749734],[6.11934624,44.57526129],[6.1191906,44.57531884],[6.11904956,44.5752985],[6.11843827,44.57502566],[6.11765832,44.5748711],[6.11646165,44.575022],[6.1162604,44.57507543],[6.11601173,44.57520588],[6.11585702,44.57523457],[6.11548544,44.5751937],[6.11495354,44.57494293],[6.11467216,44.57491483],[6.11434962,44.57494015],[6.1140664,44.57501571],[6.11348822,44.57499958],[6.11277856,44.57509076],[6.11215119,44.57482284],[6.1116737,44.57466693],[6.11128632,44.57438504],[6.1111052,44.57432347],[6.11089228,44.57386819],[6.11052416,44.57343259],[6.11037466,44.57330436],[6.11002501,44.57313493],[6.10983185,44.57290072],[6.10956382,44.57233707],[6.10918586,44.57201977],[6.10917306,44.57174174],[6.10884084,44.57197993],[6.1085637,44.57237154],[6.10818397,44.57259395],[6.10764814,44.57298022],[6.1071259,44.57343007],[6.10583749,44.57427266],[6.10544073,44.57459825],[6.10522702,44.57467724],[6.10492704,44.57463162],[6.10466529,44.57477682],[6.10457409,44.57492894],[6.10454839,44.57517202],[6.10403273,44.57542166],[6.103871,44.57578117],[6.10337386,44.57613841],[6.10311786,44.5765258],[6.10267248,44.57686175],[6.10246702,44.5771369],[6.10199696,44.57736814],[6.10190974,44.57745528],[6.10161496,44.57830684],[6.10142507,44.57856714],[6.10108174,44.57876508],[6.10099807,44.57891698],[6.10101737,44.57919933],[6.10122253,44.57995036],[6.10119483,44.58027188],[6.10096219,44.58058022],[6.10069051,44.5812104],[6.10035022,44.58167043],[6.10026813,44.58214933],[6.10011356,44.58245638],[6.09974714,44.58285407],[6.09971067,44.58352089],[6.0994744,44.58376357],[6.09946416,44.58382963],[6.09949435,44.58389725],[6.09977951,44.58410818],[6.09984498,44.58429013],[6.0998699,44.58458314],[6.09980354,44.58488952],[6.09995173,44.58517727],[6.09982122,44.58557824],[6.10006518,44.585957],[6.10006626,44.58638942],[6.100362,44.58670095],[6.10042297,44.58700736],[6.10071277,44.58727942],[6.1008736,44.58752176],[6.10067266,44.5878112],[6.10073953,44.58811024],[6.1007117,44.58840653],[6.10038259,44.58877254],[6.10042153,44.58925165],[6.10017396,44.5895415],[6.10001655,44.5900036],[6.09975604,44.59024155],[6.0996256,44.59046054],[6.09913027,44.59080779],[6.09903281,44.59093845],[6.09908617,44.59129013],[6.09891516,44.59159674],[6.09889318,44.59172439],[6.0989778,44.59184184],[6.09937349,44.59213616],[6.09947352,44.59230453],[6.09946193,44.59236882],[6.0992362,44.59259769],[6.09926001,44.59270964],[6.09897035,44.59292228],[6.0988398,44.59334579],[6.09883187,44.59366044],[6.09877486,44.5938161],[6.09843261,44.59437978],[6.09820418,44.59458259],[6.09799895,44.59509288],[6.09777131,44.59540198],[6.09758687,44.59557923],[6.09720483,44.5957404],[6.09695228,44.59598624],[6.0968295,44.59632213],[6.09683229,44.59687793],[6.0963634,44.59724875],[6.09621146,44.59856929],[6.09605519,44.5988926],[6.09576942,44.59929162],[6.09569275,44.59996227],[6.09553976,44.60036838],[6.09553872,44.60044139],[6.09575699,44.60071907],[6.09583748,44.6009907],[6.09588054,44.60103995],[6.09576779,44.60135213],[6.09573558,44.601799],[6.09583745,44.60213851],[6.09585773,44.60294429],[6.09592178,44.60319205],[6.09611903,44.60345411],[6.0966624,44.60388755],[6.09700899,44.60429677],[6.09757775,44.6046412],[6.09810417,44.60517872],[6.09821558,44.60523236],[6.09832871,44.60561569],[6.09832669,44.60610677],[6.09862078,44.60654719],[6.09878441,44.60700028],[6.09922434,44.60743211],[6.09950135,44.60783697],[6.09959458,44.60859206],[6.09909922,44.61004297],[6.09884342,44.61029971],[6.09875662,44.61046431],[6.09878332,44.61095008],[6.09884301,44.61104931],[6.09907241,44.61113838],[6.09920151,44.61123836],[6.09948981,44.61175643],[6.09920928,44.61215982],[6.09926562,44.61233573],[6.09926159,44.61262955],[6.09937091,44.61321841],[6.09949072,44.61438809],[6.10012405,44.61521631],[6.10038342,44.61548292],[6.10050859,44.61574069]]]]}}]}
