{"type":"FeatureCollection","metadata":{"generatedAt":"2026-07-14T16:00:50.243Z","source":"IGN / INSEE - Contours IRIS WFS Géoplateforme","datasetId":"STATISTICALUNITS.IRIS:contours_iris","datasetUrl":"https://geoservices.ign.fr/contoursiris","sourceFileUrl":"https://data.geopf.fr/wfs/ows?SERVICE=WFS&VERSION=2.0.0&REQUEST=GetFeature&TYPENAMES=STATISTICALUNITS.IRIS%3Acontours_iris&OUTPUTFORMAT=application%2Fjson&COUNT=1000&CQL_FILTER=code_insee%3D%2795277%27&SRSNAME=EPSG%3A4326","license":"Licence Ouverte / Open Licence 2.0","sourceYear":"2026","communeCode":"95277","communeName":"Gonesse","featureCount":12,"parentCount":1,"parentContract":"technical commune group; not selectable and not displayed as a district","sourceFeatureCount":12,"humanLabelContract":"one visible plate per unique official human place name","groupingContract":"only exact source-ID groups approved by the resolved curation, or source zones sharing the same official name and parent, are merged","groupedZoneCount":0,"groupedSourceFeatureCount":0,"curationStatus":"resolved","curationRevision":1,"curationSources":[{"id":"ign-insee-contours-iris-2026","provider":"IGN / INSEE - Contours IRIS WFS Géoplateforme","datasetUrl":"https://geoservices.ign.fr/contoursiris","role":"official geometry, source identifiers and source labels","vintage":"2026","license":"Licence Ouverte / Open Licence 2.0"},{"id":"ign-geoplateforme-toponymy-2026","provider":"IGN Géoplateforme - reverse geocoding, addresses and named places","datasetUrl":"https://geoservices.ign.fr/geocodage-geoplateforme","role":"official address, street and named-place evidence","vintage":"2026","license":"Licence Ouverte / Open Licence 2.0"},{"id":"guide-alpha-editorial-recovery-2026-07-14","provider":"Meewav Guide Alpha editorial review","datasetUrl":"docs/geospatial/france-semantic-recovery.md","role":"versioned mapping of exact official IRIS identifiers to coherent human place names","vintage":"2026-07-14","license":"Project documentation"}],"sourceCorrections":[{"operationId":"gonesse-952770501-zone-industrielle","type":"accept","sourceIds":["952770501"],"expectedLabels":["Zone Industrielle"],"outputLabel":"Zone Industrielle","evidenceRefs":["ign-insee-contours-iris-2026","guide-alpha-editorial-recovery-2026-07-14"],"rationale":"Retain the exact unique industrial IRIS label after IGN/INSEE plus Guide Alpha editorial review; no safer official polygon crosswalk was found."}],"bbox":[2.41647381,48.95504902,2.50395234,49.01624],"areaStatsM2":{"minimum":75958.63232421875,"average":1679582.8178151448,"maximum":12554414.966674805}},"features":[{"type":"Feature","id":"gonesse_952770101_square_des_sports","properties":{"zoneId":"gonesse_952770101_square_des_sports","label":"Square des Sports","districtCode":"952770101","arrondissementCode":"95277","colorIndex":0,"parentZoneId":"gonesse_parent_95277_gonesse","parentCode":"95277","parentLabel":"Gonesse","territoryType":"iris","source":"IGN / INSEE - Contours IRIS WFS Géoplateforme","sourceYear":"2026","officialId":"952770101","sourceCleabs":"IRIS____0000000952770101","communeCode":"95277","communeName":"Gonesse","irisCode":"0101","irisType":"H","officialAreaM2":1498220.700012207,"labelLng":2.4311841808617047,"labelLat":49.0091351667772,"bbox":[2.42040908,49.00056284,2.44341487,49.01624]},"geometry":{"type":"MultiPolygon","coordinates":[[[[2.44291812,49.01267187],[2.44301113,49.01266691],[2.443377,49.01194744],[2.44337561,49.01131169],[2.44341487,49.01121925],[2.43855408,49.00816805],[2.42917116,49.0021224],[2.42868876,49.00236559],[2.42831989,49.00197896],[2.42757388,49.00146195],[2.42590275,49.00056284],[2.42395395,49.00116947],[2.42385254,49.0023029],[2.42341491,49.00245097],[2.42337686,49.00292378],[2.42325509,49.00293488],[2.42315657,49.00454582],[2.42040908,49.00529962],[2.42394452,49.00929209],[2.42825337,49.01212184],[2.42413028,49.01300404],[2.42490839,49.01409043],[2.42556161,49.01485249],[2.42710726,49.01452717],[2.42782524,49.01624],[2.43072709,49.01541483],[2.43092686,49.01577276],[2.43250065,49.01537377],[2.43425403,49.01505203],[2.43606591,49.01487982],[2.43625021,49.01490316],[2.43639619,49.01505672],[2.43659721,49.01505136],[2.43849325,49.01480667],[2.43879897,49.01472717],[2.43858677,49.01437549],[2.4425621,49.01260008],[2.44291812,49.01267187]]]]}},{"type":"Feature","id":"gonesse_952770102_square_du_nord","properties":{"zoneId":"gonesse_952770102_square_du_nord","label":"Square du Nord","districtCode":"952770102","arrondissementCode":"95277","colorIndex":1,"parentZoneId":"gonesse_parent_95277_gonesse","parentCode":"95277","parentLabel":"Gonesse","territoryType":"iris","source":"IGN / INSEE - Contours IRIS WFS Géoplateforme","sourceYear":"2026","officialId":"952770102","sourceCleabs":"IRIS____0000000952770102","communeCode":"95277","communeName":"Gonesse","irisCode":"0102","irisType":"H","officialAreaM2":87758.41632080078,"labelLng":2.42101866184487,"labelLat":49.0029440697162,"bbox":[2.41883906,48.9993486,2.42325509,49.00529962]},"geometry":{"type":"MultiPolygon","coordinates":[[[[2.41909852,48.99941325],[2.41930391,49.00157869],[2.41883906,49.00171581],[2.41894888,49.00301662],[2.42047531,49.0029161],[2.42040908,49.00529962],[2.42315657,49.00454582],[2.42325509,49.00293488],[2.42190432,49.00235828],[2.42191576,49.00206698],[2.41952124,49.00108786],[2.41958906,48.9999102],[2.41955976,48.99984172],[2.41942886,48.99981501],[2.4194173,48.99974841],[2.4201307,48.99950457],[2.42027841,48.9994945],[2.42034439,48.99946064],[2.42037972,48.9993565],[2.42023221,48.9993486],[2.41957374,48.99944703],[2.41956524,48.99935167],[2.41909852,48.99941325]]]]}},{"type":"Feature","id":"gonesse_952770103_square_la_garenne","properties":{"zoneId":"gonesse_952770103_square_la_garenne","label":"Square La Garenne","districtCode":"952770103","arrondissementCode":"95277","colorIndex":2,"parentZoneId":"gonesse_parent_95277_gonesse","parentCode":"95277","parentLabel":"Gonesse","territoryType":"iris","source":"IGN / INSEE - Contours IRIS WFS Géoplateforme","sourceYear":"2026","officialId":"952770103","sourceCleabs":"IRIS____0000000952770103","communeCode":"95277","communeName":"Gonesse","irisCode":"0103","irisType":"H","officialAreaM2":275492.5788574219,"labelLng":2.421918896793624,"labelLat":48.9994839833604,"bbox":[2.41647381,48.9962035,2.42941739,49.00293488]},"geometry":{"type":"MultiPolygon","coordinates":[[[[2.42050099,48.9962035],[2.41699184,48.99837432],[2.41647381,48.99862359],[2.41659907,48.99976172],[2.41909852,48.99941325],[2.41956524,48.99935167],[2.41957374,48.99944703],[2.42023221,48.9993486],[2.42037972,48.9993565],[2.42034439,48.99946064],[2.42027841,48.9994945],[2.4201307,48.99950457],[2.4194173,48.99974841],[2.41942886,48.99981501],[2.41955976,48.99984172],[2.41958906,48.9999102],[2.41952124,49.00108786],[2.42191576,49.00206698],[2.42190432,49.00235828],[2.42325509,49.00293488],[2.42337686,49.00292378],[2.42341491,49.00245097],[2.42385254,49.0023029],[2.42395395,49.00116947],[2.42590275,49.00056284],[2.42757388,49.00146195],[2.42831989,49.00197896],[2.42868876,49.00236559],[2.42917116,49.0021224],[2.42941739,49.00197789],[2.42875196,49.00158986],[2.42796136,49.00102678],[2.42501717,48.99907757],[2.42483434,48.99892652],[2.42452838,48.99854109],[2.42428851,48.99835829],[2.42102818,48.99623122],[2.42057813,48.99627041],[2.42050099,48.9962035]]]]}},{"type":"Feature","id":"gonesse_952770201_les_marronniers","properties":{"zoneId":"gonesse_952770201_les_marronniers","label":"Les Marronniers","districtCode":"952770201","arrondissementCode":"95277","colorIndex":3,"parentZoneId":"gonesse_parent_95277_gonesse","parentCode":"95277","parentLabel":"Gonesse","territoryType":"iris","source":"IGN / INSEE - Contours IRIS WFS Géoplateforme","sourceYear":"2026","officialId":"952770201","sourceCleabs":"IRIS____0000000952770201","communeCode":"95277","communeName":"Gonesse","irisCode":"0201","irisType":"H","officialAreaM2":353625.92791748047,"labelLng":2.426539276900371,"labelLat":48.99664998295221,"bbox":[2.42050099,48.99263579,2.43134,49.00102678]},"geometry":{"type":"MultiPolygon","coordinates":[[[[2.42068065,48.99602362],[2.42050099,48.9962035],[2.42057813,48.99627041],[2.42102818,48.99623122],[2.42428851,48.99835829],[2.42452838,48.99854109],[2.42483434,48.99892652],[2.42501717,48.99907757],[2.42796136,49.00102678],[2.42902714,48.99968211],[2.42917754,48.99955154],[2.42919621,48.9994689],[2.43031493,48.99802646],[2.43058979,48.99788659],[2.43056805,48.9977507],[2.43031923,48.99763442],[2.43004898,48.99722938],[2.42983578,48.99710608],[2.43114718,48.99628141],[2.43133222,48.99610604],[2.43134,48.99601975],[2.43113794,48.99500357],[2.43078273,48.99487059],[2.42820873,48.99506608],[2.42799968,48.99431872],[2.42771348,48.99263579],[2.42418377,48.99399833],[2.42088426,48.9960246],[2.42068065,48.99602362]]]]}},{"type":"Feature","id":"gonesse_952770202_la_grande_vallee_nord","properties":{"zoneId":"gonesse_952770202_la_grande_vallee_nord","label":"La Grande Vallée Nord","districtCode":"952770202","arrondissementCode":"95277","colorIndex":4,"parentZoneId":"gonesse_parent_95277_gonesse","parentCode":"95277","parentLabel":"Gonesse","territoryType":"iris","source":"IGN / INSEE - Contours IRIS WFS Géoplateforme","sourceYear":"2026","officialId":"952770202","sourceCleabs":"IRIS____0000000952770202","communeCode":"95277","communeName":"Gonesse","irisCode":"0202","irisType":"H","officialAreaM2":841439.8618164062,"labelLng":2.4347097660199415,"labelLat":48.993895917611354,"bbox":[2.42771348,48.98677944,2.44298302,49.00197789]},"geometry":{"type":"MultiPolygon","coordinates":[[[[2.42771348,48.99263579],[2.42799968,48.99431872],[2.42820873,48.99506608],[2.43078273,48.99487059],[2.43113794,48.99500357],[2.43134,48.99601975],[2.43133222,48.99610604],[2.43114718,48.99628141],[2.42983578,48.99710608],[2.43004898,48.99722938],[2.43031923,48.99763442],[2.43056805,48.9977507],[2.43058979,48.99788659],[2.43031493,48.99802646],[2.42919621,48.9994689],[2.42917754,48.99955154],[2.42902714,48.99968211],[2.42796136,49.00102678],[2.42875196,49.00158986],[2.42941739,49.00197789],[2.43040816,49.00136483],[2.44254142,48.99325593],[2.44273357,48.99330538],[2.44293379,48.99323887],[2.44298302,48.99310781],[2.44288034,48.99299852],[2.44268938,48.99296616],[2.44254128,48.99301403],[2.44162113,48.99242436],[2.44114816,48.99218656],[2.44080067,48.99209681],[2.44001291,48.99203199],[2.43999391,48.99189342],[2.44008035,48.99160697],[2.43992017,48.99049477],[2.43984927,48.98908534],[2.44019765,48.98782175],[2.43729449,48.98677944],[2.43710976,48.98680465],[2.43671318,48.98759322],[2.4354498,48.98867895],[2.43149315,48.99114035],[2.43156207,48.99121082],[2.43156923,48.99130527],[2.43145187,48.99141622],[2.43122766,48.99142685],[2.43109326,48.99134618],[2.42771348,48.99263579]]]]}},{"type":"Feature","id":"gonesse_952770301_saint_blin","properties":{"zoneId":"gonesse_952770301_saint_blin","label":"Saint-Blin","districtCode":"952770301","arrondissementCode":"95277","colorIndex":5,"parentZoneId":"gonesse_parent_95277_gonesse","parentCode":"95277","parentLabel":"Gonesse","territoryType":"iris","source":"IGN / INSEE - Contours IRIS WFS Géoplateforme","sourceYear":"2026","officialId":"952770301","sourceCleabs":"IRIS____0000000952770301","communeCode":"95277","communeName":"Gonesse","irisCode":"0301","irisType":"H","officialAreaM2":75958.63232421875,"labelLng":2.4318394239909047,"labelLat":48.986885933395726,"bbox":[2.42965361,48.98554923,2.43394092,48.98839797]},"geometry":{"type":"MultiPolygon","coordinates":[[[[2.43004318,48.98554923],[2.42965361,48.98780626],[2.42987157,48.98786664],[2.43170792,48.98799495],[2.4322946,48.98807327],[2.43279566,48.98836069],[2.43345384,48.98839797],[2.43356394,48.98832566],[2.43369246,48.98756641],[2.43367885,48.98731006],[2.43394092,48.98582936],[2.43262207,48.9857377],[2.43238905,48.98568084],[2.43215107,48.9857031],[2.43004318,48.98554923]]]]}},{"type":"Feature","id":"gonesse_952770302_les_tulipes","properties":{"zoneId":"gonesse_952770302_les_tulipes","label":"Les Tulipes","districtCode":"952770302","arrondissementCode":"95277","colorIndex":6,"parentZoneId":"gonesse_parent_95277_gonesse","parentCode":"95277","parentLabel":"Gonesse","territoryType":"iris","source":"IGN / INSEE - Contours IRIS WFS Géoplateforme","sourceYear":"2026","officialId":"952770302","sourceCleabs":"IRIS____0000000952770302","communeCode":"95277","communeName":"Gonesse","irisCode":"0302","irisType":"H","officialAreaM2":357589.39825439453,"labelLng":2.4265475693148786,"labelLat":48.99018960918296,"bbox":[2.42068065,48.98536793,2.43156923,48.9960246]},"geometry":{"type":"MultiPolygon","coordinates":[[[[2.42728525,48.98536793],[2.42688756,48.98537683],[2.426605,48.98597167],[2.42451953,48.98872954],[2.42314362,48.99254107],[2.42258031,48.99318491],[2.42180651,48.99309396],[2.42159286,48.99350478],[2.42117115,48.99431475],[2.4221897,48.99451749],[2.42068065,48.99602362],[2.42088426,48.9960246],[2.42418377,48.99399833],[2.42771348,48.99263579],[2.43109326,48.99134618],[2.43122766,48.99142685],[2.43145187,48.99141622],[2.43156923,48.99130527],[2.43156207,48.99121082],[2.43149315,48.99114035],[2.43134598,48.99110279],[2.43113499,48.99115394],[2.42940772,48.98991649],[2.42948825,48.98942679],[2.42945597,48.98925578],[2.42952275,48.98914729],[2.42950365,48.98877132],[2.4296474,48.98837185],[2.42961157,48.98815046],[2.42971974,48.98788121],[2.42965361,48.98780626],[2.43004318,48.98554923],[2.42728525,48.98536793]]]]}},{"type":"Feature","id":"gonesse_952770303_madeleine_le_vignois","properties":{"zoneId":"gonesse_952770303_madeleine_le_vignois","label":"Madeleine-Le Vignois","districtCode":"952770303","arrondissementCode":"95277","colorIndex":7,"parentZoneId":"gonesse_parent_95277_gonesse","parentCode":"95277","parentLabel":"Gonesse","territoryType":"iris","source":"IGN / INSEE - Contours IRIS WFS Géoplateforme","sourceYear":"2026","officialId":"952770303","sourceCleabs":"IRIS____0000000952770303","communeCode":"95277","communeName":"Gonesse","irisCode":"0303","irisType":"H","officialAreaM2":845765.3653564453,"labelLng":2.436002970929509,"labelLat":48.98317798583753,"bbox":[2.42728525,48.97708938,2.44436955,48.99115394]},"geometry":{"type":"MultiPolygon","coordinates":[[[[2.44059602,48.97708938],[2.43484316,48.97849941],[2.4347949,48.97853965],[2.43486797,48.97860474],[2.43464488,48.97876825],[2.43236265,48.98009285],[2.43226215,48.9804134],[2.4310723,48.98215319],[2.43062169,48.98287944],[2.43022441,48.98322645],[2.42728525,48.98536793],[2.43004318,48.98554923],[2.43215107,48.9857031],[2.43238905,48.98568084],[2.43262207,48.9857377],[2.43394092,48.98582936],[2.43367885,48.98731006],[2.43369246,48.98756641],[2.43356394,48.98832566],[2.43345384,48.98839797],[2.43279566,48.98836069],[2.4322946,48.98807327],[2.43170792,48.98799495],[2.42987157,48.98786664],[2.42965361,48.98780626],[2.42971974,48.98788121],[2.42961157,48.98815046],[2.4296474,48.98837185],[2.42950365,48.98877132],[2.42952275,48.98914729],[2.42945597,48.98925578],[2.42948825,48.98942679],[2.42940772,48.98991649],[2.43113499,48.99115394],[2.43134598,48.99110279],[2.43149315,48.99114035],[2.4354498,48.98867895],[2.43671318,48.98759322],[2.43710976,48.98680465],[2.43726582,48.98652482],[2.4374734,48.9862821],[2.43778221,48.98602727],[2.43905494,48.98520413],[2.43919864,48.98505463],[2.44024721,48.98436262],[2.44109863,48.98332437],[2.44170863,48.98275439],[2.44208873,48.9824729],[2.44283398,48.98202944],[2.4433502,48.98179354],[2.44344473,48.98189649],[2.44353187,48.98192477],[2.44384632,48.98190375],[2.44396213,48.98180537],[2.44397286,48.98169661],[2.44386635,48.98156393],[2.44355378,48.9815364],[2.44436955,48.98126682],[2.44425042,48.98116465],[2.44388819,48.98054429],[2.44366917,48.98045695],[2.44377019,48.98033602],[2.44345199,48.97994248],[2.44285536,48.97901529],[2.44271884,48.97900656],[2.44149931,48.97782288],[2.44059602,48.97708938]]]]}},{"type":"Feature","id":"gonesse_952770401_centre_nord","properties":{"zoneId":"gonesse_952770401_centre_nord","label":"Centre Nord","districtCode":"952770401","arrondissementCode":"95277","colorIndex":0,"parentZoneId":"gonesse_parent_95277_gonesse","parentCode":"95277","parentLabel":"Gonesse","territoryType":"iris","source":"IGN / INSEE - Contours IRIS WFS Géoplateforme","sourceYear":"2026","officialId":"952770401","sourceCleabs":"IRIS____0000000952770401","communeCode":"95277","communeName":"Gonesse","irisCode":"0401","irisType":"H","officialAreaM2":2555397.1484375,"labelLng":2.4444075116977677,"labelLat":48.99879453941561,"bbox":[2.42917116,48.98310465,2.45464851,49.01121925]},"geometry":{"type":"MultiPolygon","coordinates":[[[[2.44341487,49.01121925],[2.44347578,49.01102081],[2.4467299,49.01018249],[2.44402398,49.00552553],[2.45173663,49.00348561],[2.4545973,49.00257245],[2.45414444,49.00053635],[2.45400256,48.99960141],[2.45395234,48.99839802],[2.45414671,48.99693767],[2.45419843,48.99578689],[2.45408917,48.99539073],[2.45335537,48.99395762],[2.45464851,48.99313801],[2.45448561,48.99303476],[2.45444167,48.99292485],[2.45451426,48.99277861],[2.45462283,48.99271975],[2.45449731,48.99257081],[2.45305735,48.99137278],[2.45237385,48.99075009],[2.45228505,48.99061929],[2.45175101,48.98891281],[2.4511664,48.9882474],[2.45114803,48.98817538],[2.45156969,48.98667379],[2.45043967,48.98655082],[2.45074547,48.98592815],[2.4512896,48.98589647],[2.45140636,48.98583675],[2.45164899,48.98550335],[2.45213623,48.9846459],[2.4524731,48.98314661],[2.45234102,48.98310465],[2.45129196,48.98347304],[2.45083347,48.98393674],[2.45061733,48.98409132],[2.45034851,48.98405952],[2.45003939,48.98396278],[2.44863088,48.98330976],[2.44829657,48.98378482],[2.44810851,48.98425426],[2.44757588,48.98474819],[2.44718715,48.9853282],[2.4468854,48.98556601],[2.44745821,48.98592025],[2.44708267,48.9864158],[2.44684844,48.98685624],[2.44689759,48.98737353],[2.44654032,48.98833316],[2.44646244,48.98858908],[2.4463706,48.99015602],[2.44631571,48.99043363],[2.44622395,48.99058158],[2.44540556,48.99134035],[2.44288034,48.99299852],[2.44298302,48.99310781],[2.44293379,48.99323887],[2.44273357,48.99330538],[2.44254142,48.99325593],[2.43040816,49.00136483],[2.42941739,49.00197789],[2.42917116,49.0021224],[2.43855408,49.00816805],[2.44341487,49.01121925]]]]}},{"type":"Feature","id":"gonesse_952770402_centre_ville","properties":{"zoneId":"gonesse_952770402_centre_ville","label":"Centre Ville","districtCode":"952770402","arrondissementCode":"95277","colorIndex":1,"parentZoneId":"gonesse_parent_95277_gonesse","parentCode":"95277","parentLabel":"Gonesse","territoryType":"iris","source":"IGN / INSEE - Contours IRIS WFS Géoplateforme","sourceYear":"2026","officialId":"952770402","sourceCleabs":"IRIS____0000000952770402","communeCode":"95277","communeName":"Gonesse","irisCode":"0402","irisType":"H","officialAreaM2":155262.0458984375,"labelLng":2.443790153744883,"labelLat":48.98624195365845,"bbox":[2.44008824,48.9844288,2.44745821,48.98833316]},"geometry":{"type":"MultiPolygon","coordinates":[[[[2.4468854,48.98556601],[2.44607771,48.9850731],[2.44495957,48.98473701],[2.44431843,48.98464322],[2.44285421,48.98460316],[2.44132722,48.9844288],[2.44032349,48.98577927],[2.44008824,48.98618283],[2.44027945,48.98695077],[2.44084579,48.98714225],[2.44245011,48.98750221],[2.4428486,48.98754723],[2.443114,48.98764468],[2.44485479,48.98789554],[2.44562649,48.98805108],[2.44654032,48.98833316],[2.44689759,48.98737353],[2.44684844,48.98685624],[2.44708267,48.9864158],[2.44745821,48.98592025],[2.4468854,48.98556601]]]]}},{"type":"Feature","id":"gonesse_952770403_centre_est_et_sud","properties":{"zoneId":"gonesse_952770403_centre_est_et_sud","label":"Centre Est et Sud","districtCode":"952770403","arrondissementCode":"95277","colorIndex":2,"parentZoneId":"gonesse_parent_95277_gonesse","parentCode":"95277","parentLabel":"Gonesse","territoryType":"iris","source":"IGN / INSEE - Contours IRIS WFS Géoplateforme","sourceYear":"2026","officialId":"952770403","sourceCleabs":"IRIS____0000000952770403","communeCode":"95277","communeName":"Gonesse","irisCode":"0403","irisType":"H","officialAreaM2":554068.7719116211,"labelLng":2.4387394481995335,"labelLat":48.98645936,"bbox":[2.43710976,48.97990469,2.45234102,48.99301403]},"geometry":{"type":"MultiPolygon","coordinates":[[[[2.45234102,48.98310465],[2.45146472,48.98199098],[2.4497491,48.98028176],[2.45033673,48.98000659],[2.4502736,48.97990469],[2.44397286,48.98169661],[2.44396213,48.98180537],[2.44384632,48.98190375],[2.44353187,48.98192477],[2.44344473,48.98189649],[2.4433502,48.98179354],[2.44283398,48.98202944],[2.44208873,48.9824729],[2.44170863,48.98275439],[2.44109863,48.98332437],[2.44024721,48.98436262],[2.43919864,48.98505463],[2.43905494,48.98520413],[2.43778221,48.98602727],[2.4374734,48.9862821],[2.43726582,48.98652482],[2.43710976,48.98680465],[2.43729449,48.98677944],[2.44019765,48.98782175],[2.43984927,48.98908534],[2.43992017,48.99049477],[2.44008035,48.99160697],[2.43999391,48.99189342],[2.44001291,48.99203199],[2.44080067,48.99209681],[2.44114816,48.99218656],[2.44162113,48.99242436],[2.44254128,48.99301403],[2.44268938,48.99296616],[2.44288034,48.99299852],[2.44540556,48.99134035],[2.44622395,48.99058158],[2.44631571,48.99043363],[2.4463706,48.99015602],[2.44646244,48.98858908],[2.44654032,48.98833316],[2.44562649,48.98805108],[2.44485479,48.98789554],[2.443114,48.98764468],[2.4428486,48.98754723],[2.44245011,48.98750221],[2.44084579,48.98714225],[2.44027945,48.98695077],[2.44008824,48.98618283],[2.44032349,48.98577927],[2.44132722,48.9844288],[2.44285421,48.98460316],[2.44431843,48.98464322],[2.44495957,48.98473701],[2.44607771,48.9850731],[2.4468854,48.98556601],[2.44718715,48.9853282],[2.44757588,48.98474819],[2.44810851,48.98425426],[2.44829657,48.98378482],[2.44863088,48.98330976],[2.45003939,48.98396278],[2.45034851,48.98405952],[2.45061733,48.98409132],[2.45083347,48.98393674],[2.45129196,48.98347304],[2.45234102,48.98310465]]]]}},{"type":"Feature","id":"gonesse_952770501_zone_industrielle","properties":{"zoneId":"gonesse_952770501_zone_industrielle","label":"Zone Industrielle","districtCode":"952770501","arrondissementCode":"95277","colorIndex":3,"parentZoneId":"gonesse_parent_95277_gonesse","parentCode":"95277","parentLabel":"Gonesse","territoryType":"iris","source":"IGN / INSEE - Contours IRIS WFS Géoplateforme","sourceYear":"2026","officialId":"952770501","sourceCleabs":"IRIS____0000000952770501","communeCode":"95277","communeName":"Gonesse","irisCode":"0501","irisType":"H","officialAreaM2":12554414.966674805,"labelLng":2.4700204700041914,"labelLat":48.979912257943084,"bbox":[2.43714223,48.95504902,2.50395234,49.00257245],"curationOperationId":"gonesse-952770501-zone-industrielle","curationRevision":1,"curationEvidenceRefs":["ign-insee-contours-iris-2026","guide-alpha-editorial-recovery-2026-07-14"],"curationRationale":"Retain the exact unique industrial IRIS label after IGN/INSEE plus Guide Alpha editorial review; no safer official polygon crosswalk was found.","semanticLabelReviewed":true,"semanticLabelAccepted":true,"semanticResolution":"accept"},"geometry":{"type":"MultiPolygon","coordinates":[[[[2.4545973,49.00257245],[2.45608299,49.00217814],[2.45749302,49.00195882],[2.46028779,49.00171424],[2.46301663,49.00163116],[2.46456739,49.00141059],[2.46457903,49.0013423],[2.46528318,49.00131397],[2.46413051,48.99898074],[2.46300893,48.9976161],[2.4619337,48.99785138],[2.46132652,48.99723088],[2.46240666,48.99678342],[2.46369475,48.99763715],[2.46627324,48.99420911],[2.46657518,48.99421495],[2.46707213,48.9943934],[2.46703212,48.99496334],[2.46727811,48.9952288],[2.46724146,48.99627084],[2.46740249,48.99616005],[2.46945711,48.99556038],[2.47181236,48.99455374],[2.47349986,48.9941655],[2.47477397,48.99370978],[2.47578616,48.99361349],[2.47686716,48.99360472],[2.47875342,48.99396543],[2.48349876,48.99924731],[2.48370567,48.99946761],[2.48424208,48.99967493],[2.48575562,48.99933343],[2.48405721,48.99668423],[2.48618059,48.99602341],[2.48871499,48.99566646],[2.48784796,48.99046253],[2.48851363,48.99071716],[2.48864998,48.99060893],[2.49133205,48.9900736],[2.49321259,48.98989721],[2.49358005,48.98976748],[2.49533207,48.98875334],[2.49835988,48.98805384],[2.50003095,48.98748441],[2.50285135,48.98702853],[2.50395234,48.98677141],[2.50240248,48.98410687],[2.5013165,48.98180841],[2.50058429,48.98080541],[2.50001908,48.97977163],[2.50187659,48.97853482],[2.50037364,48.97770666],[2.50210991,48.97656825],[2.5002394,48.97561267],[2.500487,48.97543476],[2.49724357,48.97506061],[2.49579018,48.97505451],[2.49796136,48.97386313],[2.49617598,48.9725985],[2.49249036,48.97458558],[2.48832089,48.97129731],[2.49025751,48.97007],[2.4867722,48.96725847],[2.48382925,48.96832045],[2.48150975,48.96958288],[2.48076715,48.96981257],[2.47882483,48.96750027],[2.47853278,48.96761231],[2.47779755,48.96670266],[2.47503024,48.96766807],[2.47310082,48.9658674],[2.46949552,48.96302156],[2.4673464,48.96430606],[2.46425451,48.96124381],[2.46294663,48.9597479],[2.46114149,48.95854199],[2.4607183,48.9583962],[2.46018396,48.95698736],[2.46029905,48.95655623],[2.45948857,48.95504902],[2.45674908,48.95573087],[2.45587854,48.95566847],[2.45779411,48.95975169],[2.45474339,48.96130706],[2.45101766,48.96287814],[2.45152088,48.96346496],[2.4485659,48.96458177],[2.44788145,48.96498778],[2.44630031,48.96661623],[2.44594312,48.96822155],[2.44546474,48.97132624],[2.44482503,48.97239159],[2.44435473,48.97230219],[2.44073346,48.972949],[2.43714223,48.97371455],[2.44059602,48.97708938],[2.44149931,48.97782288],[2.44271884,48.97900656],[2.44285536,48.97901529],[2.44345199,48.97994248],[2.44377019,48.98033602],[2.44366917,48.98045695],[2.44388819,48.98054429],[2.44425042,48.98116465],[2.44436955,48.98126682],[2.44355378,48.9815364],[2.44386635,48.98156393],[2.44397286,48.98169661],[2.4502736,48.97990469],[2.45033673,48.98000659],[2.4497491,48.98028176],[2.45146472,48.98199098],[2.45234102,48.98310465],[2.4524731,48.98314661],[2.45213623,48.9846459],[2.45164899,48.98550335],[2.45140636,48.98583675],[2.4512896,48.98589647],[2.45074547,48.98592815],[2.45043967,48.98655082],[2.45156969,48.98667379],[2.45114803,48.98817538],[2.4511664,48.9882474],[2.45175101,48.98891281],[2.45228505,48.99061929],[2.45237385,48.99075009],[2.45305735,48.99137278],[2.45449731,48.99257081],[2.45462283,48.99271975],[2.45451426,48.99277861],[2.45444167,48.99292485],[2.45448561,48.99303476],[2.45464851,48.99313801],[2.45335537,48.99395762],[2.45408917,48.99539073],[2.45419843,48.99578689],[2.45414671,48.99693767],[2.45395234,48.99839802],[2.45400256,48.99960141],[2.45414444,49.00053635],[2.4545973,49.00257245]]]]}}]}
