{"type":"FeatureCollection","metadata":{"generatedAt":"2026-07-14T17:30:13.032Z","source":"IGN / INSEE - Contours IRIS WFS Géoplateforme","datasetId":"STATISTICALUNITS.IRIS:contours_iris","datasetUrl":"https://geoservices.ign.fr/contoursiris","sourceFileUrl":"https://data.geopf.fr/wfs/ows?SERVICE=WFS&VERSION=2.0.0&REQUEST=GetFeature&TYPENAMES=STATISTICALUNITS.IRIS%3Acontours_iris&OUTPUTFORMAT=application%2Fjson&COUNT=1000&CQL_FILTER=code_insee%3D%2759271%27&SRSNAME=EPSG%3A4326","license":"Licence Ouverte / Open Licence 2.0","sourceYear":"2026","communeCode":"59271","communeName":"Grande-Synthe","featureCount":10,"parentCount":1,"parentContract":"technical commune group; not selectable and not displayed as a district","sourceFeatureCount":10,"humanLabelContract":"one visible plate per unique official human place name","groupingContract":"only exact source-ID groups approved by the resolved curation, or source zones sharing the same official name and parent, are merged","groupedZoneCount":0,"groupedSourceFeatureCount":0,"curationStatus":"resolved","curationRevision":1,"curationSources":[{"id":"ign-insee-contours-iris-2026","provider":"IGN / INSEE - Contours IRIS WFS Géoplateforme","datasetUrl":"https://geoservices.ign.fr/contoursiris","role":"official geometry, source identifiers and source labels","vintage":"2026","license":"Licence Ouverte / Open Licence 2.0"},{"id":"ign-geoplateforme-toponymy-2026","provider":"IGN Géoplateforme - reverse geocoding, addresses and named places","datasetUrl":"https://geoservices.ign.fr/geocodage-geoplateforme","role":"official address, street and named-place evidence","vintage":"2026","license":"Licence Ouverte / Open Licence 2.0"},{"id":"guide-alpha-editorial-recovery-2026-07-14","provider":"Meewav Guide Alpha editorial review","datasetUrl":"docs/geospatial/france-semantic-recovery.md","role":"versioned mapping of exact official IRIS identifiers to coherent human place names","vintage":"2026-07-14","license":"Project documentation"}],"sourceCorrections":[{"operationId":"grande_synthe-592710101-rename-anciens-jardiniers","type":"rename","sourceIds":["592710101"],"expectedLabels":["Écarts"],"outputLabel":"Anciens Jardiniers","evidenceRefs":["ign-insee-contours-iris-2026","ign-geoplateforme-toponymy-2026","guide-alpha-editorial-recovery-2026-07-14"],"rationale":"The cited official IGN BD TOPO name has a verified point strictly inside this exact IRIS. The concise human label is derived only from that contained name; no nearest-point assignment, invented polygon, merge, split or dropped source cell is used."},{"operationId":"grande_synthe-592710201-accept-saint-jacques-centre","type":"accept","sourceIds":["592710201"],"expectedLabels":["Saint-Jacques Centre"],"outputLabel":"Saint-Jacques Centre","evidenceRefs":["ign-insee-contours-iris-2026","guide-alpha-editorial-recovery-2026-07-14"],"rationale":"This exact official IGN/INSEE label is explicitly retained because it is a real, human-qualified local sector, facility or named land-use place. The review preserves the official wording and does not infer a replacement."},{"operationId":"grande_synthe-592710202-accept-saint-jacques-exterieur","type":"accept","sourceIds":["592710202"],"expectedLabels":["Saint-Jacques Extérieur"],"outputLabel":"Saint-Jacques Extérieur","evidenceRefs":["ign-insee-contours-iris-2026","guide-alpha-editorial-recovery-2026-07-14"],"rationale":"This exact official IGN/INSEE label is explicitly retained because it is a real, human-qualified local sector, facility or named land-use place. The review preserves the official wording and does not infer a replacement."},{"operationId":"grande_synthe-592710401-accept-albeck-sud","type":"accept","sourceIds":["592710401"],"expectedLabels":["Albeck Sud"],"outputLabel":"Albeck Sud","evidenceRefs":["ign-insee-contours-iris-2026","guide-alpha-editorial-recovery-2026-07-14"],"rationale":"This exact official IGN/INSEE label is explicitly retained because it is a real, human-qualified local sector, facility or named land-use place. The review preserves the official wording and does not infer a replacement."},{"operationId":"grande_synthe-592710402-accept-albeck-nord","type":"accept","sourceIds":["592710402"],"expectedLabels":["Albeck Nord"],"outputLabel":"Albeck Nord","evidenceRefs":["ign-insee-contours-iris-2026","guide-alpha-editorial-recovery-2026-07-14"],"rationale":"This exact official IGN/INSEE label is explicitly retained because it is a real, human-qualified local sector, facility or named land-use place. The review preserves the official wording and does not infer a replacement."},{"operationId":"grande_synthe-592710501-accept-courghain-centre","type":"accept","sourceIds":["592710501"],"expectedLabels":["Courghain Centre"],"outputLabel":"Courghain Centre","evidenceRefs":["ign-insee-contours-iris-2026","guide-alpha-editorial-recovery-2026-07-14"],"rationale":"This exact official IGN/INSEE label is explicitly retained because it is a real, human-qualified local sector, facility or named land-use place. The review preserves the official wording and does not infer a replacement."},{"operationId":"grande_synthe-592710502-accept-courghain-exterieur","type":"accept","sourceIds":["592710502"],"expectedLabels":["Courghain Extérieur"],"outputLabel":"Courghain Extérieur","evidenceRefs":["ign-insee-contours-iris-2026","guide-alpha-editorial-recovery-2026-07-14"],"rationale":"This exact official IGN/INSEE label is explicitly retained because it is a real, human-qualified local sector, facility or named land-use place. The review preserves the official wording and does not infer a replacement."}],"bbox":[2.26197296,50.98015329,2.32558133,51.05134666],"areaStatsM2":{"minimum":246226.63916015625,"average":2085485.044921875,"maximum":15781860.07055664}},"features":[{"type":"Feature","id":"grande_synthe_592710101_ecarts","properties":{"zoneId":"grande_synthe_592710101_ecarts","label":"Anciens Jardiniers","districtCode":"592710101","arrondissementCode":"59271","colorIndex":0,"parentZoneId":"grande_synthe_parent_59271_grande_synthe","parentCode":"59271","parentLabel":"Grande-Synthe","territoryType":"iris","source":"IGN / INSEE - Contours IRIS WFS Géoplateforme","sourceYear":"2026","officialId":"592710101","sourceCleabs":"IRIS____0000000592710101","communeCode":"59271","communeName":"Grande-Synthe","irisCode":"0101","irisType":"A","officialAreaM2":15781860.07055664,"labelLng":2.2864997649183185,"labelLat":51.01832184468612,"bbox":[2.26197296,50.98015329,2.32558133,51.05134666],"curationOperationId":"grande_synthe-592710101-rename-anciens-jardiniers","curationRevision":1,"curationEvidenceRefs":["ign-insee-contours-iris-2026","ign-geoplateforme-toponymy-2026","guide-alpha-editorial-recovery-2026-07-14"],"curationRationale":"The cited official IGN BD TOPO name has a verified point strictly inside this exact IRIS. The concise human label is derived only from that contained name; no nearest-point assignment, invented polygon, merge, split or dropped source cell is used.","semanticLabelReviewed":true,"semanticLabelAccepted":false,"semanticResolution":"rename"},"geometry":{"type":"MultiPolygon","coordinates":[[[[2.31719064,50.99733624],[2.31797078,50.99672876],[2.31441434,50.99477548],[2.31190424,50.99354183],[2.30867708,50.99175612],[2.30621425,50.99051723],[2.30495215,50.98970653],[2.30310462,50.98868896],[2.3015983,50.98797105],[2.29826835,50.98667423],[2.29709972,50.98610436],[2.29115519,50.98231516],[2.28812953,50.98015329],[2.28400897,50.98380561],[2.27472591,50.99451315],[2.26624036,51.00456435],[2.2662016,51.00478298],[2.26831986,51.00526449],[2.27206548,51.00626491],[2.27491085,51.0069066],[2.27318536,51.0089228],[2.27175259,51.01035765],[2.26916623,51.01288631],[2.26616418,51.01562325],[2.26249426,51.01926566],[2.26199759,51.02025116],[2.26197296,51.02037748],[2.26437415,51.02061674],[2.26370585,51.02109267],[2.26370708,51.02158689],[2.26446121,51.03330511],[2.2644855,51.04466007],[2.26833133,51.04533105],[2.26825619,51.04560326],[2.26845333,51.04574254],[2.26858635,51.04569488],[2.26868589,51.04540845],[2.26881389,51.04541189],[2.30296295,51.05134666],[2.30746082,51.03570646],[2.30758784,51.03526768],[2.30740257,51.03508817],[2.30208326,51.03513308],[2.29504253,51.0351923],[2.29781274,51.02667643],[2.3032084,51.0267003],[2.3037527,51.02439107],[2.30429466,51.0223473],[2.30435412,51.02226511],[2.29757659,51.02002621],[2.29686365,51.01985897],[2.29569484,51.01944878],[2.2875093,51.01678342],[2.28606854,51.01621014],[2.28560267,51.01597518],[2.28481934,51.01546842],[2.28424992,51.01491983],[2.28382273,51.01427069],[2.28356557,51.01356423],[2.28341004,51.01291036],[2.28320537,51.01112697],[2.28313717,51.00954258],[2.2830353,51.00911325],[2.28295473,51.00898184],[2.28311962,51.00868769],[2.28332324,51.00856687],[2.28370632,51.00862198],[2.28401245,51.00799677],[2.28594636,51.0056892],[2.28613413,51.0056813],[2.28627452,51.00560676],[2.28632581,51.00549942],[2.2862424,51.00536799],[2.28952349,51.00148402],[2.28974624,51.00131486],[2.29045613,51.0005771],[2.2907427,51.00041817],[2.29109534,51.00031074],[2.29141713,51.0002731],[2.29265098,51.0002738],[2.29362868,51.00039413],[2.29488017,51.00075549],[2.29964633,51.00238422],[2.30098819,51.00279535],[2.30270635,51.00323816],[2.30440618,51.00357052],[2.30578494,51.00378717],[2.31026029,51.00439045],[2.30940296,51.00552574],[2.30938734,51.00562701],[2.30957933,51.00593034],[2.30937185,51.00623147],[2.31058117,51.00657718],[2.31080467,51.00624744],[2.3108425,51.00608171],[2.311012,51.00605843],[2.31107967,51.00599691],[2.31192555,51.00630563],[2.31258765,51.00581953],[2.31395057,51.00533549],[2.31451207,51.00523541],[2.31546578,51.0052505],[2.31689555,51.00548614],[2.31788336,51.00571038],[2.31982258,51.00622412],[2.32174083,51.00681844],[2.32482636,51.00793657],[2.32558133,51.00593777],[2.31871588,51.0039847],[2.31410137,51.00243647],[2.31375437,51.00223993],[2.31383124,51.00202598],[2.31546173,51.00006161],[2.31575216,50.99899403],[2.31547471,50.99839245],[2.31546953,50.99814845],[2.3167019,50.99763136],[2.31719064,50.99733624]]]]}},{"type":"Feature","id":"grande_synthe_592710201_saint_jacques_centre","properties":{"zoneId":"grande_synthe_592710201_saint_jacques_centre","label":"Saint-Jacques Centre","districtCode":"592710201","arrondissementCode":"59271","colorIndex":1,"parentZoneId":"grande_synthe_parent_59271_grande_synthe","parentCode":"59271","parentLabel":"Grande-Synthe","territoryType":"iris","source":"IGN / INSEE - Contours IRIS WFS Géoplateforme","sourceYear":"2026","officialId":"592710201","sourceCleabs":"IRIS____0000000592710201","communeCode":"59271","communeName":"Grande-Synthe","irisCode":"0201","irisType":"H","officialAreaM2":450567.62561035156,"labelLng":2.29524953346509,"labelLat":51.01481676486081,"bbox":[2.28637645,51.01141287,2.30164443,51.01879188],"curationOperationId":"grande_synthe-592710201-accept-saint-jacques-centre","curationRevision":1,"curationEvidenceRefs":["ign-insee-contours-iris-2026","guide-alpha-editorial-recovery-2026-07-14"],"curationRationale":"This exact official IGN/INSEE label is explicitly retained because it is a real, human-qualified local sector, facility or named land-use place. The review preserves the official wording and does not infer a replacement.","semanticLabelReviewed":true,"semanticLabelAccepted":true,"semanticResolution":"accept"},"geometry":{"type":"MultiPolygon","coordinates":[[[[2.30082285,51.01265276],[2.29713873,51.01175402],[2.29532789,51.01141287],[2.29435712,51.01279496],[2.29299716,51.01244107],[2.29283556,51.01270745],[2.29418552,51.01306487],[2.29372739,51.01378701],[2.29238732,51.01343323],[2.29212298,51.0133241],[2.29194272,51.01310154],[2.2919577,51.01294824],[2.29211977,51.01264958],[2.29016237,51.01211648],[2.2890506,51.01380269],[2.28865651,51.01371973],[2.28757721,51.01372615],[2.28733481,51.01407188],[2.28732767,51.01427276],[2.28637645,51.01427093],[2.28637844,51.01462792],[2.2865611,51.01497966],[2.28686209,51.0152101],[2.28732487,51.01536252],[2.28925751,51.01574394],[2.28954461,51.01575365],[2.28988452,51.01564884],[2.29002921,51.01557342],[2.29047917,51.01513019],[2.29192813,51.01552857],[2.29141242,51.01629611],[2.29136832,51.01649768],[2.29141996,51.01686571],[2.29436411,51.01711913],[2.29496776,51.01726784],[2.29507909,51.01703795],[2.29519141,51.01693813],[2.2950202,51.01657749],[2.29529353,51.01655481],[2.29549691,51.01645192],[2.29769505,51.0181801],[2.2982632,51.01842815],[2.29963033,51.01879188],[2.3010035,51.0168012],[2.30118936,51.01672958],[2.3015624,51.01679624],[2.30164443,51.01662539],[2.30163944,51.01647378],[2.30115427,51.01578492],[2.30113308,51.01567358],[2.30100392,51.01565671],[2.30092947,51.01569307],[2.30062445,51.01564383],[2.29960317,51.01536366],[2.30109329,51.01313861],[2.30110666,51.01299607],[2.30098142,51.01270028],[2.30082285,51.01265276]]]]}},{"type":"Feature","id":"grande_synthe_592710202_saint_jacques_exterieur","properties":{"zoneId":"grande_synthe_592710202_saint_jacques_exterieur","label":"Saint-Jacques Extérieur","districtCode":"592710202","arrondissementCode":"59271","colorIndex":2,"parentZoneId":"grande_synthe_parent_59271_grande_synthe","parentCode":"59271","parentLabel":"Grande-Synthe","territoryType":"iris","source":"IGN / INSEE - Contours IRIS WFS Géoplateforme","sourceYear":"2026","officialId":"592710202","sourceCleabs":"IRIS____0000000592710202","communeCode":"59271","communeName":"Grande-Synthe","irisCode":"0202","irisType":"H","officialAreaM2":526628.1347045898,"labelLng":2.285108167142637,"labelLat":51.014296540000004,"bbox":[2.28295473,51.00856687,2.29963033,51.02002621],"curationOperationId":"grande_synthe-592710202-accept-saint-jacques-exterieur","curationRevision":1,"curationEvidenceRefs":["ign-insee-contours-iris-2026","guide-alpha-editorial-recovery-2026-07-14"],"curationRationale":"This exact official IGN/INSEE label is explicitly retained because it is a real, human-qualified local sector, facility or named land-use place. The review preserves the official wording and does not infer a replacement.","semanticLabelReviewed":true,"semanticLabelAccepted":true,"semanticResolution":"accept"},"geometry":{"type":"MultiPolygon","coordinates":[[[[2.29757659,51.02002621],[2.2978532,51.01987349],[2.29898438,51.01942329],[2.29930774,51.01918114],[2.29963033,51.01879188],[2.2982632,51.01842815],[2.29769505,51.0181801],[2.29549691,51.01645192],[2.29529353,51.01655481],[2.2950202,51.01657749],[2.29519141,51.01693813],[2.29507909,51.01703795],[2.29496776,51.01726784],[2.29436411,51.01711913],[2.29141996,51.01686571],[2.29136832,51.01649768],[2.29141242,51.01629611],[2.29192813,51.01552857],[2.29047917,51.01513019],[2.29002921,51.01557342],[2.28988452,51.01564884],[2.28954461,51.01575365],[2.28925751,51.01574394],[2.28732487,51.01536252],[2.28686209,51.0152101],[2.2865611,51.01497966],[2.28637844,51.01462792],[2.28637645,51.01427093],[2.28732767,51.01427276],[2.28733481,51.01407188],[2.28757721,51.01372615],[2.28865651,51.01371973],[2.2890506,51.01380269],[2.29016237,51.01211648],[2.29211977,51.01264958],[2.2919577,51.01294824],[2.29194272,51.01310154],[2.29212298,51.0133241],[2.29238732,51.01343323],[2.29372739,51.01378701],[2.29418552,51.01306487],[2.29283556,51.01270745],[2.29299716,51.01244107],[2.29435712,51.01279496],[2.29532789,51.01141287],[2.28916811,51.00995279],[2.28711861,51.00950702],[2.28575379,51.00920504],[2.28382058,51.00868452],[2.28370632,51.00862198],[2.28332324,51.00856687],[2.28311962,51.00868769],[2.28295473,51.00898184],[2.2830353,51.00911325],[2.28313717,51.00954258],[2.28320537,51.01112697],[2.28341004,51.01291036],[2.28356557,51.01356423],[2.28382273,51.01427069],[2.28424992,51.01491983],[2.28481934,51.01546842],[2.28560267,51.01597518],[2.28606854,51.01621014],[2.2875093,51.01678342],[2.29569484,51.01944878],[2.29686365,51.01985897],[2.29757659,51.02002621]]]]}},{"type":"Feature","id":"grande_synthe_592710301_europe","properties":{"zoneId":"grande_synthe_592710301_europe","label":"Europe","districtCode":"592710301","arrondissementCode":"59271","colorIndex":3,"parentZoneId":"grande_synthe_parent_59271_grande_synthe","parentCode":"59271","parentLabel":"Grande-Synthe","territoryType":"iris","source":"IGN / INSEE - Contours IRIS WFS Géoplateforme","sourceYear":"2026","officialId":"592710301","sourceCleabs":"IRIS____0000000592710301","communeCode":"59271","communeName":"Grande-Synthe","irisCode":"0301","irisType":"H","officialAreaM2":358293.2696533203,"labelLng":2.302909025852282,"labelLat":51.01759247127319,"bbox":[2.29757659,51.01270028,2.30756581,51.02226511]},"geometry":{"type":"MultiPolygon","coordinates":[[[[2.30756581,51.01506622],[2.30534401,51.01450947],[2.30465019,51.01450472],[2.30351252,51.01461769],[2.30322277,51.01459455],[2.30356725,51.01405921],[2.30340135,51.01372103],[2.30300505,51.01318425],[2.30240185,51.01300509],[2.30098142,51.01270028],[2.30110666,51.01299607],[2.30109329,51.01313861],[2.29960317,51.01536366],[2.30062445,51.01564383],[2.30092947,51.01569307],[2.30100392,51.01565671],[2.30113308,51.01567358],[2.30115427,51.01578492],[2.30163944,51.01647378],[2.30164443,51.01662539],[2.3015624,51.01679624],[2.30118936,51.01672958],[2.3010035,51.0168012],[2.29963033,51.01879188],[2.29930774,51.01918114],[2.29898438,51.01942329],[2.2978532,51.01987349],[2.29757659,51.02002621],[2.30435412,51.02226511],[2.30517589,51.02013948],[2.3052303,51.01909396],[2.30554185,51.01847322],[2.30587723,51.01797818],[2.30713355,51.01608813],[2.30756581,51.01506622]]]]}},{"type":"Feature","id":"grande_synthe_592710401_albeck_sud","properties":{"zoneId":"grande_synthe_592710401_albeck_sud","label":"Albeck Sud","districtCode":"592710401","arrondissementCode":"59271","colorIndex":4,"parentZoneId":"grande_synthe_parent_59271_grande_synthe","parentCode":"59271","parentLabel":"Grande-Synthe","territoryType":"iris","source":"IGN / INSEE - Contours IRIS WFS Géoplateforme","sourceYear":"2026","officialId":"592710401","sourceCleabs":"IRIS____0000000592710401","communeCode":"59271","communeName":"Grande-Synthe","irisCode":"0401","irisType":"H","officialAreaM2":419672.3557128906,"labelLng":2.3132709465596846,"labelLat":51.01844468987301,"bbox":[2.30587723,51.01441406,2.32032865,51.02356066],"curationOperationId":"grande_synthe-592710401-accept-albeck-sud","curationRevision":1,"curationEvidenceRefs":["ign-insee-contours-iris-2026","guide-alpha-editorial-recovery-2026-07-14"],"curationRationale":"This exact official IGN/INSEE label is explicitly retained because it is a real, human-qualified local sector, facility or named land-use place. The review preserves the official wording and does not infer a replacement.","semanticLabelReviewed":true,"semanticLabelAccepted":true,"semanticResolution":"accept"},"geometry":{"type":"MultiPolygon","coordinates":[[[[2.31729612,51.02356066],[2.31756458,51.02327331],[2.31753135,51.02268834],[2.31773521,51.02171808],[2.31830702,51.02015068],[2.31899529,51.01900725],[2.32032865,51.01748075],[2.31995001,51.0173011],[2.31917214,51.0172009],[2.3183512,51.01702692],[2.31574919,51.01639204],[2.31510534,51.01616339],[2.31498289,51.01617528],[2.31480605,51.01610973],[2.31429379,51.01603248],[2.30985741,51.0148986],[2.30831952,51.01454748],[2.30803557,51.01441406],[2.30799354,51.01457348],[2.30756581,51.01506622],[2.30713355,51.01608813],[2.30587723,51.01797818],[2.30839773,51.0186433],[2.30848258,51.01857471],[2.30856517,51.01856619],[2.30984054,51.01888716],[2.31036458,51.01893669],[2.31126281,51.01835504],[2.31175222,51.01874879],[2.31201229,51.01886323],[2.31438857,51.01947721],[2.31459999,51.01951066],[2.31486901,51.0194924],[2.3155131,51.01939547],[2.31580981,51.01943207],[2.31663858,51.01965903],[2.31642484,51.02010543],[2.31678779,51.02101421],[2.31680766,51.02153543],[2.31659801,51.02189036],[2.31639371,51.02206236],[2.31570502,51.02240122],[2.31533835,51.02248711],[2.31480946,51.02247704],[2.31433179,51.02236231],[2.31407436,51.02226045],[2.31391705,51.02211787],[2.31383704,51.02193805],[2.31358635,51.021142],[2.31342706,51.02124606],[2.31297611,51.02197817],[2.3127426,51.02210246],[2.31242858,51.0220828],[2.31069866,51.02161496],[2.31121784,51.02232638],[2.3117373,51.02291583],[2.31182694,51.02322127],[2.31203635,51.02329866],[2.3120817,51.02341282],[2.31398348,51.02348963],[2.31729612,51.02356066]]]]}},{"type":"Feature","id":"grande_synthe_592710402_albeck_nord","properties":{"zoneId":"grande_synthe_592710402_albeck_nord","label":"Albeck Nord","districtCode":"592710402","arrondissementCode":"59271","colorIndex":5,"parentZoneId":"grande_synthe_parent_59271_grande_synthe","parentCode":"59271","parentLabel":"Grande-Synthe","territoryType":"iris","source":"IGN / INSEE - Contours IRIS WFS Géoplateforme","sourceYear":"2026","officialId":"592710402","sourceCleabs":"IRIS____0000000592710402","communeCode":"59271","communeName":"Grande-Synthe","irisCode":"0402","irisType":"H","officialAreaM2":401287.3321533203,"labelLng":2.309751557706719,"labelLat":51.02118561425156,"bbox":[2.3037527,51.01797818,2.31729612,51.02439107],"curationOperationId":"grande_synthe-592710402-accept-albeck-nord","curationRevision":1,"curationEvidenceRefs":["ign-insee-contours-iris-2026","guide-alpha-editorial-recovery-2026-07-14"],"curationRationale":"This exact official IGN/INSEE label is explicitly retained because it is a real, human-qualified local sector, facility or named land-use place. The review preserves the official wording and does not infer a replacement.","semanticLabelReviewed":true,"semanticLabelAccepted":true,"semanticResolution":"accept"},"geometry":{"type":"MultiPolygon","coordinates":[[[[2.3037527,51.02439107],[2.30571273,51.02416785],[2.30568553,51.02407891],[2.30628232,51.02401405],[2.30631198,51.02413081],[2.30693865,51.02406522],[2.30789402,51.02408934],[2.30795793,51.02337933],[2.31041112,51.02358571],[2.31667058,51.02375277],[2.3171691,51.02369719],[2.31729612,51.02356066],[2.31398348,51.02348963],[2.3120817,51.02341282],[2.31203635,51.02329866],[2.31182694,51.02322127],[2.3117373,51.02291583],[2.31121784,51.02232638],[2.31069866,51.02161496],[2.31242858,51.0220828],[2.3127426,51.02210246],[2.31297611,51.02197817],[2.31342706,51.02124606],[2.31358635,51.021142],[2.31383704,51.02193805],[2.31391705,51.02211787],[2.31407436,51.02226045],[2.31433179,51.02236231],[2.31480946,51.02247704],[2.31533835,51.02248711],[2.31570502,51.02240122],[2.31639371,51.02206236],[2.31659801,51.02189036],[2.31680766,51.02153543],[2.31678779,51.02101421],[2.31642484,51.02010543],[2.31663858,51.01965903],[2.31580981,51.01943207],[2.3155131,51.01939547],[2.31486901,51.0194924],[2.31459999,51.01951066],[2.31438857,51.01947721],[2.31201229,51.01886323],[2.31175222,51.01874879],[2.31126281,51.01835504],[2.31036458,51.01893669],[2.30984054,51.01888716],[2.30856517,51.01856619],[2.30848258,51.01857471],[2.30839773,51.0186433],[2.30587723,51.01797818],[2.30554185,51.01847322],[2.3052303,51.01909396],[2.30517589,51.02013948],[2.30435412,51.02226511],[2.30429466,51.0223473],[2.3037527,51.02439107]]]]}},{"type":"Feature","id":"grande_synthe_592710501_courghain_centre","properties":{"zoneId":"grande_synthe_592710501_courghain_centre","label":"Courghain Centre","districtCode":"592710501","arrondissementCode":"59271","colorIndex":6,"parentZoneId":"grande_synthe_parent_59271_grande_synthe","parentCode":"59271","parentLabel":"Grande-Synthe","territoryType":"iris","source":"IGN / INSEE - Contours IRIS WFS Géoplateforme","sourceYear":"2026","officialId":"592710501","sourceCleabs":"IRIS____0000000592710501","communeCode":"59271","communeName":"Grande-Synthe","irisCode":"0501","irisType":"H","officialAreaM2":656656.927734375,"labelLng":2.2954983115641214,"labelLat":51.008119213892805,"bbox":[2.28711861,51.00356203,2.30380938,51.01265276],"curationOperationId":"grande_synthe-592710501-accept-courghain-centre","curationRevision":1,"curationEvidenceRefs":["ign-insee-contours-iris-2026","guide-alpha-editorial-recovery-2026-07-14"],"curationRationale":"This exact official IGN/INSEE label is explicitly retained because it is a real, human-qualified local sector, facility or named land-use place. The review preserves the official wording and does not infer a replacement.","semanticLabelReviewed":true,"semanticLabelAccepted":true,"semanticResolution":"accept"},"geometry":{"type":"MultiPolygon","coordinates":[[[[2.29532789,51.01141287],[2.29713873,51.01175402],[2.30082285,51.01265276],[2.30109405,51.01227397],[2.30137259,51.01208089],[2.30145657,51.01197283],[2.30149826,51.01102768],[2.3015559,51.01087194],[2.30380938,51.00924847],[2.30238681,51.00849519],[2.30202334,51.00825727],[2.30189604,51.00820991],[2.30159639,51.00828807],[2.30144443,51.00827646],[2.30097704,51.00814917],[2.30138284,51.00800434],[2.30128896,51.00790695],[2.2997552,51.00748309],[2.29946264,51.00725901],[2.29901474,51.00736503],[2.29852599,51.00774619],[2.29814315,51.00757272],[2.29845131,51.0072946],[2.29850337,51.00713165],[2.29817347,51.006632],[2.29851787,51.00650566],[2.30045653,51.00603485],[2.30051977,51.00588452],[2.30027272,51.00545709],[2.29984209,51.00504388],[2.29911077,51.00448009],[2.29864059,51.00465594],[2.29828458,51.0046988],[2.29781897,51.00465044],[2.29730665,51.00448701],[2.29711945,51.00435411],[2.29700397,51.00417586],[2.29702806,51.00367729],[2.29551144,51.00356203],[2.29496696,51.00356255],[2.29431496,51.00362704],[2.29342216,51.0038301],[2.29217182,51.00428407],[2.29161021,51.00458944],[2.28976823,51.00625361],[2.28985207,51.00635633],[2.28978957,51.00645195],[2.28963974,51.00649146],[2.28953058,51.00646932],[2.28872665,51.0072146],[2.28844797,51.00761485],[2.2880438,51.00843864],[2.28711861,51.00950702],[2.28916811,51.00995279],[2.29532789,51.01141287]]]]}},{"type":"Feature","id":"grande_synthe_592710502_courghain_exterieur","properties":{"zoneId":"grande_synthe_592710502_courghain_exterieur","label":"Courghain Extérieur","districtCode":"592710502","arrondissementCode":"59271","colorIndex":7,"parentZoneId":"grande_synthe_parent_59271_grande_synthe","parentCode":"59271","parentLabel":"Grande-Synthe","territoryType":"iris","source":"IGN / INSEE - Contours IRIS WFS Géoplateforme","sourceYear":"2026","officialId":"592710502","sourceCleabs":"IRIS____0000000592710502","communeCode":"59271","communeName":"Grande-Synthe","irisCode":"0502","irisType":"H","officialAreaM2":780505.9528808594,"labelLng":2.3047627825078267,"labelLat":51.00489006,"bbox":[2.28370632,51.0002731,2.31026029,51.00950702],"curationOperationId":"grande_synthe-592710502-accept-courghain-exterieur","curationRevision":1,"curationEvidenceRefs":["ign-insee-contours-iris-2026","guide-alpha-editorial-recovery-2026-07-14"],"curationRationale":"This exact official IGN/INSEE label is explicitly retained because it is a real, human-qualified local sector, facility or named land-use place. The review preserves the official wording and does not infer a replacement.","semanticLabelReviewed":true,"semanticLabelAccepted":true,"semanticResolution":"accept"},"geometry":{"type":"MultiPolygon","coordinates":[[[[2.30380938,51.00924847],[2.30515578,51.00822895],[2.30535871,51.00815384],[2.30616496,51.00804171],[2.30633871,51.008327],[2.30650607,51.00835573],[2.30661799,51.00848641],[2.30677182,51.00856799],[2.3069163,51.00850421],[2.30714527,51.00860145],[2.30749522,51.00827959],[2.30751176,51.0082151],[2.3075066,51.00787064],[2.3074569,51.00776363],[2.3068291,51.00741483],[2.30740555,51.00695789],[2.30762011,51.006864],[2.30878393,51.00679958],[2.30899797,51.00674335],[2.30937185,51.00623147],[2.30957933,51.00593034],[2.30938734,51.00562701],[2.30940296,51.00552574],[2.31026029,51.00439045],[2.30578494,51.00378717],[2.30440618,51.00357052],[2.30270635,51.00323816],[2.30098819,51.00279535],[2.29964633,51.00238422],[2.29488017,51.00075549],[2.29362868,51.00039413],[2.29265098,51.0002738],[2.29141713,51.0002731],[2.29109534,51.00031074],[2.2907427,51.00041817],[2.29045613,51.0005771],[2.28974624,51.00131486],[2.28952349,51.00148402],[2.2862424,51.00536799],[2.28632581,51.00549942],[2.28627452,51.00560676],[2.28613413,51.0056813],[2.28594636,51.0056892],[2.28401245,51.00799677],[2.28370632,51.00862198],[2.28382058,51.00868452],[2.28575379,51.00920504],[2.28711861,51.00950702],[2.2880438,51.00843864],[2.28844797,51.00761485],[2.28872665,51.0072146],[2.28953058,51.00646932],[2.28963974,51.00649146],[2.28978957,51.00645195],[2.28985207,51.00635633],[2.28976823,51.00625361],[2.29161021,51.00458944],[2.29217182,51.00428407],[2.29342216,51.0038301],[2.29431496,51.00362704],[2.29496696,51.00356255],[2.29551144,51.00356203],[2.29702806,51.00367729],[2.29700397,51.00417586],[2.29711945,51.00435411],[2.29730665,51.00448701],[2.29781897,51.00465044],[2.29828458,51.0046988],[2.29864059,51.00465594],[2.29911077,51.00448009],[2.29984209,51.00504388],[2.30027272,51.00545709],[2.30051977,51.00588452],[2.30045653,51.00603485],[2.29851787,51.00650566],[2.29817347,51.006632],[2.29850337,51.00713165],[2.29845131,51.0072946],[2.29814315,51.00757272],[2.29852599,51.00774619],[2.29901474,51.00736503],[2.29946264,51.00725901],[2.2997552,51.00748309],[2.30128896,51.00790695],[2.30138284,51.00800434],[2.30097704,51.00814917],[2.30144443,51.00827646],[2.30159639,51.00828807],[2.30189604,51.00820991],[2.30202334,51.00825727],[2.30238681,51.00849519],[2.30380938,51.00924847]]]]}},{"type":"Feature","id":"grande_synthe_592710601_moulin","properties":{"zoneId":"grande_synthe_592710601_moulin","label":"Moulin","districtCode":"592710601","arrondissementCode":"59271","colorIndex":0,"parentZoneId":"grande_synthe_parent_59271_grande_synthe","parentCode":"59271","parentLabel":"Grande-Synthe","territoryType":"iris","source":"IGN / INSEE - Contours IRIS WFS Géoplateforme","sourceYear":"2026","officialId":"592710601","sourceCleabs":"IRIS____0000000592710601","communeCode":"59271","communeName":"Grande-Synthe","irisCode":"0601","irisType":"H","officialAreaM2":246226.63916015625,"labelLng":2.3050550852325746,"labelLat":51.01171969164261,"bbox":[2.30082285,51.00804171,2.30836145,51.01506622]},"geometry":{"type":"MultiPolygon","coordinates":[[[[2.30098142,51.01270028],[2.30240185,51.01300509],[2.30300505,51.01318425],[2.30340135,51.01372103],[2.30356725,51.01405921],[2.30322277,51.01459455],[2.30351252,51.01461769],[2.30465019,51.01450472],[2.30534401,51.01450947],[2.30756581,51.01506622],[2.30799354,51.01457348],[2.30803557,51.01441406],[2.3079439,51.01435974],[2.30785071,51.01410808],[2.30785194,51.01217788],[2.30836145,51.01152772],[2.30741415,51.01124802],[2.30754529,51.01101913],[2.30713792,51.00882295],[2.30697365,51.00867405],[2.30677182,51.00856799],[2.30661799,51.00848641],[2.30650607,51.00835573],[2.30633871,51.008327],[2.30616496,51.00804171],[2.30535871,51.00815384],[2.30515578,51.00822895],[2.30380938,51.00924847],[2.3015559,51.01087194],[2.30149826,51.01102768],[2.30145657,51.01197283],[2.30137259,51.01208089],[2.30109405,51.01227397],[2.30082285,51.01265276],[2.30098142,51.01270028]]]]}},{"type":"Feature","id":"grande_synthe_592710602_basroch","properties":{"zoneId":"grande_synthe_592710602_basroch","label":"Basroch","districtCode":"592710602","arrondissementCode":"59271","colorIndex":1,"parentZoneId":"grande_synthe_parent_59271_grande_synthe","parentCode":"59271","parentLabel":"Grande-Synthe","territoryType":"iris","source":"IGN / INSEE - Contours IRIS WFS Géoplateforme","sourceYear":"2026","officialId":"592710602","sourceCleabs":"IRIS____0000000592710602","communeCode":"59271","communeName":"Grande-Synthe","irisCode":"0602","irisType":"H","officialAreaM2":1233152.141052246,"labelLng":2.315901101753727,"labelLat":51.01099018393198,"bbox":[2.30677182,51.00523541,2.32482636,51.01748075]},"geometry":{"type":"MultiPolygon","coordinates":[[[[2.32032865,51.01748075],[2.32062455,51.01715857],[2.32124663,51.01690004],[2.32152252,51.01668896],[2.32258042,51.01533315],[2.32359089,51.01285769],[2.32427192,51.00940188],[2.32482636,51.00793657],[2.32174083,51.00681844],[2.31982258,51.00622412],[2.31788336,51.00571038],[2.31689555,51.00548614],[2.31546578,51.0052505],[2.31451207,51.00523541],[2.31395057,51.00533549],[2.31258765,51.00581953],[2.31192555,51.00630563],[2.31107967,51.00599691],[2.311012,51.00605843],[2.3108425,51.00608171],[2.31080467,51.00624744],[2.31058117,51.00657718],[2.30937185,51.00623147],[2.30899797,51.00674335],[2.30878393,51.00679958],[2.30762011,51.006864],[2.30740555,51.00695789],[2.3068291,51.00741483],[2.3074569,51.00776363],[2.3075066,51.00787064],[2.30751176,51.0082151],[2.30749522,51.00827959],[2.30714527,51.00860145],[2.3069163,51.00850421],[2.30677182,51.00856799],[2.30697365,51.00867405],[2.30713792,51.00882295],[2.30754529,51.01101913],[2.30741415,51.01124802],[2.30836145,51.01152772],[2.30785194,51.01217788],[2.30785071,51.01410808],[2.3079439,51.01435974],[2.30803557,51.01441406],[2.30831952,51.01454748],[2.30985741,51.0148986],[2.31429379,51.01603248],[2.31480605,51.01610973],[2.31498289,51.01617528],[2.31510534,51.01616339],[2.31574919,51.01639204],[2.3183512,51.01702692],[2.31917214,51.0172009],[2.31995001,51.0173011],[2.32032865,51.01748075]]]]}}]}
