{"type":"FeatureCollection","metadata":{"generatedAt":"2026-07-14T18:47:32.156Z","source":"IGN / INSEE - Contours IRIS WFS Géoplateforme","datasetId":"STATISTICALUNITS.IRIS:contours_iris","datasetUrl":"https://geoservices.ign.fr/contoursiris","sourceFileUrl":"https://data.geopf.fr/wfs/ows?SERVICE=WFS&VERSION=2.0.0&REQUEST=GetFeature&TYPENAMES=STATISTICALUNITS.IRIS%3Acontours_iris&OUTPUTFORMAT=application%2Fjson&COUNT=1000&CQL_FILTER=code_insee%3D%2701194%27&SRSNAME=EPSG%3A4326","license":"Licence Ouverte / Open Licence 2.0","sourceYear":"2026","communeCode":"01194","communeName":"Jassans-Riottier","featureCount":3,"parentCount":1,"parentContract":"technical commune group; not selectable and not displayed as a district","bbox":[4.74865377,45.95695004,4.77650742,45.99721765],"areaStatsM2":{"minimum":718263.9237060547,"average":1661993.9899495442,"maximum":2855403.3966064453}},"features":[{"type":"Feature","id":"jassans_riottier_011940103_jassans_nord","properties":{"zoneId":"jassans_riottier_011940103_jassans_nord","label":"Jassans nord","districtCode":"011940103","arrondissementCode":"01194","colorIndex":0,"parentZoneId":"jassans_riottier_parent_01194_jassans_riottier","parentCode":"01194","parentLabel":"Jassans-Riottier","territoryType":"iris","source":"IGN / INSEE - Contours IRIS WFS Géoplateforme","sourceYear":"2026","officialId":"011940103","sourceCleabs":"IRIS____0000000011940103","communeCode":"01194","communeName":"Jassans-Riottier","irisCode":"0103","irisType":"H","officialAreaM2":1412314.6495361328,"labelLng":4.757075644356913,"labelLat":45.991142990536,"bbox":[4.74942393,45.98439627,4.76644249,45.99721765]},"geometry":{"type":"MultiPolygon","coordinates":[[[[4.74957267,45.98439627],[4.74944143,45.98575477],[4.74970229,45.9872135],[4.74990815,45.98974582],[4.74971298,45.99181688],[4.74977716,45.99338853],[4.7496987,45.99457869],[4.74942393,45.99609793],[4.75159955,45.99656421],[4.7556844,45.99712336],[4.75581923,45.99721765],[4.75602189,45.99708841],[4.75609927,45.99684041],[4.75672329,45.99638939],[4.75997543,45.99701444],[4.76015582,45.99679547],[4.76256112,45.99708503],[4.76309975,45.99699558],[4.76357697,45.9957965],[4.76409195,45.9938006],[4.76489112,45.9929712],[4.76512618,45.99067071],[4.76533712,45.99031794],[4.76586055,45.9888308],[4.76644249,45.98791921],[4.7656258,45.98763561],[4.76553224,45.98778028],[4.76454931,45.986785],[4.76296142,45.98678901],[4.76231245,45.98689999],[4.76225253,45.98631996],[4.7621197,45.9860455],[4.76141933,45.98608432],[4.75864789,45.98608776],[4.75838135,45.98603605],[4.75518585,45.98574785],[4.7534219,45.98541579],[4.75327333,45.98533523],[4.75293468,45.98529093],[4.7527868,45.98531303],[4.75248362,45.98524657],[4.74957267,45.98439627]]]]}},{"type":"Feature","id":"jassans_riottier_011940104_jassans_centre_ville","properties":{"zoneId":"jassans_riottier_011940104_jassans_centre_ville","label":"Jassans centre-ville","districtCode":"011940104","arrondissementCode":"01194","colorIndex":1,"parentZoneId":"jassans_riottier_parent_01194_jassans_riottier","parentCode":"01194","parentLabel":"Jassans-Riottier","territoryType":"iris","source":"IGN / INSEE - Contours IRIS WFS Géoplateforme","sourceYear":"2026","officialId":"011940104","sourceCleabs":"IRIS____0000000011940104","communeCode":"01194","communeName":"Jassans-Riottier","irisCode":"0104","irisType":"H","officialAreaM2":718263.9237060547,"labelLng":4.757072269048428,"labelLat":45.98248341207536,"bbox":[4.74957267,45.97527713,4.76578557,45.98689999]},"geometry":{"type":"MultiPolygon","coordinates":[[[[4.75424998,45.97527713],[4.75373694,45.97742067],[4.75149953,45.9812419],[4.75048701,45.98263565],[4.74957267,45.98439627],[4.75248362,45.98524657],[4.7527868,45.98531303],[4.75293468,45.98529093],[4.75327333,45.98533523],[4.7534219,45.98541579],[4.75518585,45.98574785],[4.75838135,45.98603605],[4.75864789,45.98608776],[4.76141933,45.98608432],[4.7621197,45.9860455],[4.76225253,45.98631996],[4.76231245,45.98689999],[4.76296142,45.98678901],[4.76454931,45.986785],[4.76447527,45.98669247],[4.76458581,45.98663401],[4.76492403,45.98601985],[4.76508957,45.98602448],[4.76525238,45.98574272],[4.76534447,45.9853909],[4.76540567,45.98504317],[4.76539671,45.98415971],[4.76545044,45.98378057],[4.76560354,45.98319632],[4.76578557,45.98274853],[4.76495813,45.98257047],[4.7641604,45.98255318],[4.7639946,45.98249992],[4.76394756,45.982443],[4.76298675,45.98245706],[4.76272507,45.98235485],[4.76205984,45.98256156],[4.76113679,45.98274616],[4.76054967,45.98281023],[4.76019138,45.98279778],[4.75989356,45.98164589],[4.75967577,45.98214827],[4.75935378,45.98262435],[4.75864101,45.98279935],[4.75826037,45.98208739],[4.75825448,45.98081117],[4.75718366,45.97932089],[4.75682996,45.97864184],[4.75668906,45.97774871],[4.75673352,45.97606549],[4.75686622,45.97577069],[4.75678552,45.97563053],[4.75424998,45.97527713]]]]}},{"type":"Feature","id":"jassans_riottier_011940105_jassans_sud","properties":{"zoneId":"jassans_riottier_011940105_jassans_sud","label":"Jassans sud","districtCode":"011940105","arrondissementCode":"01194","colorIndex":2,"parentZoneId":"jassans_riottier_parent_01194_jassans_riottier","parentCode":"01194","parentLabel":"Jassans-Riottier","territoryType":"iris","source":"IGN / INSEE - Contours IRIS WFS Géoplateforme","sourceYear":"2026","officialId":"011940105","sourceCleabs":"IRIS____0000000011940105","communeCode":"01194","communeName":"Jassans-Riottier","irisCode":"0105","irisType":"H","officialAreaM2":2855403.3966064453,"labelLng":4.760935585707963,"labelLat":45.970889191327366,"bbox":[4.74865377,45.95695004,4.77650742,45.98603554]},"geometry":{"type":"MultiPolygon","coordinates":[[[[4.74865377,45.96263211],[4.7502555,45.96462946],[4.75230392,45.96718462],[4.75320327,45.96857491],[4.75366456,45.96971528],[4.75410808,45.97102706],[4.75460241,45.9730406],[4.75463538,45.97366969],[4.75424998,45.97527713],[4.75678552,45.97563053],[4.75686622,45.97577069],[4.75673352,45.97606549],[4.75668906,45.97774871],[4.75682996,45.97864184],[4.75718366,45.97932089],[4.75825448,45.98081117],[4.75826037,45.98208739],[4.75864101,45.98279935],[4.75935378,45.98262435],[4.75967577,45.98214827],[4.75989356,45.98164589],[4.76019138,45.98279778],[4.76054967,45.98281023],[4.76113679,45.98274616],[4.76205984,45.98256156],[4.76272507,45.98235485],[4.76298675,45.98245706],[4.76394756,45.982443],[4.7639946,45.98249992],[4.7641604,45.98255318],[4.76495813,45.98257047],[4.76578557,45.98274853],[4.76560354,45.98319632],[4.76545044,45.98378057],[4.76539671,45.98415971],[4.76540567,45.98504317],[4.76534447,45.9853909],[4.76525238,45.98574272],[4.76508957,45.98602448],[4.76570884,45.98603554],[4.76589408,45.9859696],[4.76698736,45.9850086],[4.76686682,45.98435295],[4.76696498,45.98378847],[4.76717426,45.98346545],[4.76785297,45.98279373],[4.7681842,45.98144109],[4.7685108,45.98111083],[4.76851649,45.9808054],[4.76867841,45.98053716],[4.76910511,45.98026658],[4.76927256,45.97996943],[4.76917671,45.97899725],[4.76886672,45.97835628],[4.76882064,45.97804805],[4.76875423,45.97714747],[4.76888967,45.97649774],[4.77014436,45.97501987],[4.7706642,45.97423262],[4.77650742,45.97332053],[4.77421287,45.97114704],[4.77386951,45.9708741],[4.77327768,45.97058704],[4.77161949,45.97031846],[4.7683713,45.97009362],[4.76792933,45.9692025],[4.76777722,45.96864914],[4.7670079,45.96778024],[4.76552574,45.96667387],[4.76385088,45.96503364],[4.76177997,45.96328337],[4.75931033,45.95960002],[4.75748775,45.958579],[4.75497162,45.95775695],[4.7539377,45.95728659],[4.75345173,45.95695004],[4.75267403,45.95767185],[4.75137504,45.95865212],[4.75099,45.95913365],[4.75052103,45.95941292],[4.75002253,45.9602664],[4.74980519,45.96041747],[4.75000739,45.96088722],[4.75071177,45.9614717],[4.74865377,45.96263211]]]]}}]}
