{"type":"FeatureCollection","metadata":{"generatedAt":"2026-07-14T18:44:55.080Z","source":"IGN / INSEE - Contours IRIS WFS Géoplateforme","datasetId":"STATISTICALUNITS.IRIS:contours_iris","datasetUrl":"https://geoservices.ign.fr/contoursiris","sourceFileUrl":"https://data.geopf.fr/wfs/ows?SERVICE=WFS&VERSION=2.0.0&REQUEST=GetFeature&TYPENAMES=STATISTICALUNITS.IRIS%3Acontours_iris&OUTPUTFORMAT=application%2Fjson&COUNT=1000&CQL_FILTER=code_insee%3D%2789206%27&SRSNAME=EPSG%3A4326","license":"Licence Ouverte / Open Licence 2.0","sourceYear":"2026","communeCode":"89206","communeName":"Joigny","featureCount":4,"parentCount":1,"parentContract":"technical commune group; not selectable and not displayed as a district","bbox":[3.35762974,47.95853441,3.46081121,48.06008703],"areaStatsM2":{"minimum":420033.8356933594,"average":11716722.979034424,"maximum":37014635.75524902}},"features":[{"type":"Feature","id":"joigny_892060101_vieille_ville","properties":{"zoneId":"joigny_892060101_vieille_ville","label":"Vieille Ville","districtCode":"892060101","arrondissementCode":"89206","colorIndex":0,"parentZoneId":"joigny_parent_89206_joigny","parentCode":"89206","parentLabel":"Joigny","territoryType":"iris","source":"IGN / INSEE - Contours IRIS WFS Géoplateforme","sourceYear":"2026","officialId":"892060101","sourceCleabs":"IRIS____0000000892060101","communeCode":"89206","communeName":"Joigny","irisCode":"0101","irisType":"H","officialAreaM2":420033.8356933594,"labelLng":3.395885228941476,"labelLat":47.98251031179754,"bbox":[3.38491231,47.97873085,3.40270787,47.98516833]},"geometry":{"type":"MultiPolygon","coordinates":[[[[3.40047072,47.97873085],[3.39937431,47.97908465],[3.39861152,47.97942291],[3.39785192,47.97983046],[3.39661411,47.98063738],[3.39617727,47.98083324],[3.39582943,47.9809217],[3.38962312,47.98215283],[3.38804989,47.98239292],[3.38704106,47.98246194],[3.38491383,47.98246442],[3.38491231,47.98354704],[3.38753176,47.98320996],[3.38765176,47.98330586],[3.38851049,47.98342092],[3.38951608,47.98345629],[3.39098764,47.98342171],[3.39133283,47.98387953],[3.39169156,47.98417261],[3.3930848,47.98478171],[3.39310674,47.98484824],[3.39394538,47.98514151],[3.3942673,47.98516833],[3.39621713,47.98491069],[3.39643885,47.98480465],[3.39665311,47.98477513],[3.39805842,47.98466059],[3.39862616,47.98457768],[3.4005318,47.98397725],[3.40245572,47.98349552],[3.40264685,47.98342197],[3.40269565,47.98331651],[3.40270787,47.98316168],[3.40252762,47.98254854],[3.40222102,47.98188904],[3.40173774,47.98143803],[3.40091202,47.98054811],[3.40132535,47.98043601],[3.40047072,47.97873085]]]]}},{"type":"Feature","id":"joigny_892060102_rive_gauche","properties":{"zoneId":"joigny_892060102_rive_gauche","label":"Rive Gauche","districtCode":"892060102","arrondissementCode":"89206","colorIndex":1,"parentZoneId":"joigny_parent_89206_joigny","parentCode":"89206","parentLabel":"Joigny","territoryType":"iris","source":"IGN / INSEE - Contours IRIS WFS Géoplateforme","sourceYear":"2026","officialId":"892060102","sourceCleabs":"IRIS____0000000892060102","communeCode":"89206","communeName":"Joigny","irisCode":"0102","irisType":"H","officialAreaM2":7762019.806152344,"labelLng":3.3927963720075787,"labelLat":47.97096151442213,"bbox":[3.35762974,47.95853441,3.43516158,47.98246442]},"geometry":{"type":"MultiPolygon","coordinates":[[[[3.43516158,47.96865877],[3.43475231,47.96859279],[3.42848121,47.96649285],[3.42434858,47.96414818],[3.41696725,47.96336194],[3.41615672,47.96320823],[3.41504339,47.96340025],[3.39353606,47.96015882],[3.39264516,47.95908726],[3.39243584,47.95868479],[3.39219222,47.95853441],[3.38596956,47.96121974],[3.3790513,47.96434705],[3.37890295,47.96440062],[3.3787941,47.96435598],[3.37773114,47.96543302],[3.37755079,47.96532201],[3.3771581,47.96531247],[3.37607738,47.9657821],[3.37570575,47.9657176],[3.37563672,47.96618849],[3.37355729,47.96660638],[3.37355936,47.96689976],[3.37332751,47.96689689],[3.37082417,47.96744748],[3.3708563,47.96782625],[3.36728931,47.96959953],[3.36028507,47.97262248],[3.35762974,47.97354942],[3.35807451,47.97372176],[3.35828903,47.97393259],[3.3581454,47.97409772],[3.35882805,47.97436741],[3.35888269,47.97452024],[3.35988831,47.97557369],[3.3599736,47.9758974],[3.36257045,47.9775786],[3.36317694,47.97748133],[3.36392583,47.97743402],[3.36449058,47.97750427],[3.36484368,47.97759137],[3.36581203,47.97788084],[3.36624342,47.97804778],[3.36756134,47.97868442],[3.36861972,47.97900148],[3.37253241,47.98037415],[3.3737989,47.9807319],[3.37536968,47.98108957],[3.3761411,47.98137689],[3.37695055,47.98154528],[3.3783526,47.98173157],[3.38027051,47.98207635],[3.38118422,47.98220029],[3.38491383,47.98246442],[3.38704106,47.98246194],[3.38804989,47.98239292],[3.38962312,47.98215283],[3.39582943,47.9809217],[3.39617727,47.98083324],[3.39661411,47.98063738],[3.39785192,47.97983046],[3.39861152,47.97942291],[3.39937431,47.97908465],[3.40047072,47.97873085],[3.40275965,47.97797879],[3.40358658,47.97762228],[3.40436824,47.97712913],[3.40598778,47.97579074],[3.40717561,47.97496589],[3.40777458,47.97460204],[3.40857025,47.97419881],[3.40963231,47.97375774],[3.41031666,47.97352047],[3.41081009,47.97337836],[3.41148725,47.9732518],[3.41248141,47.97321862],[3.41497448,47.97325845],[3.41594792,47.97314701],[3.41647654,47.97305065],[3.41812847,47.97264521],[3.41973006,47.97214634],[3.42267604,47.97117555],[3.42447013,47.97046174],[3.42644996,47.96985251],[3.4275136,47.96963627],[3.42902207,47.96941119],[3.43516158,47.96865877]]]]}},{"type":"Feature","id":"joigny_892060103_le_paradis","properties":{"zoneId":"joigny_892060103_le_paradis","label":"Le Paradis","districtCode":"892060103","arrondissementCode":"89206","colorIndex":2,"parentZoneId":"joigny_parent_89206_joigny","parentCode":"89206","parentLabel":"Joigny","territoryType":"iris","source":"IGN / INSEE - Contours IRIS WFS Géoplateforme","sourceYear":"2026","officialId":"892060103","sourceCleabs":"IRIS____0000000892060103","communeCode":"89206","communeName":"Joigny","irisCode":"0103","irisType":"H","officialAreaM2":37014635.75524902,"labelLng":3.4130702567525,"labelLat":48.01876799731478,"bbox":[3.36257045,47.96865877,3.46081121,48.06008703]},"geometry":{"type":"MultiPolygon","coordinates":[[[[3.4536206,48.02561469],[3.45240238,48.02450169],[3.45160111,48.0241394],[3.44595968,48.02248708],[3.4449963,48.02214156],[3.44029248,48.01882147],[3.43919039,48.01774929],[3.43827018,48.01709218],[3.43777217,48.0163966],[3.43694604,48.01559605],[3.43507772,48.01413251],[3.43459046,48.0131039],[3.43451679,48.01197118],[3.43336969,48.01159474],[3.43186744,48.01026029],[3.4310538,48.00981781],[3.43011436,48.00973666],[3.4293723,48.00951889],[3.42794589,48.00858817],[3.4280088,48.00840705],[3.42900626,48.00803805],[3.43067833,48.00784296],[3.430603,48.00748417],[3.430012,48.00687439],[3.42915875,48.00517575],[3.42920179,48.00452945],[3.42837499,48.00426969],[3.42825326,48.00380847],[3.42781811,48.00339339],[3.42773693,48.00313721],[3.42702869,48.00311008],[3.42420323,48.00259745],[3.42338941,48.00210992],[3.42178849,48.00145333],[3.42192057,48.00103259],[3.42260742,48.00023009],[3.42309978,47.99942379],[3.42470054,47.9985595],[3.42522009,47.99813826],[3.42558504,47.99700033],[3.42598008,47.99627176],[3.42637574,47.99628833],[3.42663,47.99589504],[3.4267474,47.9948228],[3.42693903,47.99447743],[3.42655202,47.99420256],[3.42663575,47.99261208],[3.42564273,47.9923304],[3.42601237,47.99144803],[3.42704858,47.9899369],[3.42783503,47.98921139],[3.42811758,47.98867491],[3.4288161,47.98802171],[3.42934492,47.9877687],[3.4297817,47.98773831],[3.43011965,47.98758949],[3.43175803,47.98613549],[3.43206645,47.9856538],[3.43286097,47.98379971],[3.43385273,47.98263065],[3.43467002,47.98111484],[3.43506255,47.9809262],[3.43567826,47.98082043],[3.43672239,47.98114233],[3.43570595,47.98043875],[3.43482499,47.97941699],[3.43456992,47.97920465],[3.43432365,47.97908406],[3.43007852,47.97772816],[3.42932544,47.97758422],[3.4284815,47.97747481],[3.427668,47.97748227],[3.42679268,47.97763574],[3.42611602,47.97782628],[3.42580741,47.97795069],[3.42535896,47.9781872],[3.42450699,47.97874823],[3.42402333,47.97894077],[3.42402971,47.97906853],[3.42390184,47.97916799],[3.42375981,47.9791748],[3.42362412,47.97913479],[3.42327331,47.97934754],[3.42212768,47.97973053],[3.41997252,47.98008562],[3.41890146,47.98041072],[3.41979064,47.98216872],[3.41980446,47.98255924],[3.41572152,47.98324329],[3.4131371,47.98375366],[3.41284774,47.98377627],[3.41293228,47.98361669],[3.41309358,47.98350093],[3.41232945,47.98159666],[3.41286609,47.98148588],[3.41418522,47.98099348],[3.41388882,47.98028447],[3.41362997,47.98026469],[3.41017493,47.97962703],[3.40969418,47.97950992],[3.40943837,47.97936142],[3.40871249,47.97874299],[3.40837423,47.9783293],[3.41571623,47.97607353],[3.41966746,47.97490488],[3.42030866,47.974638],[3.42044476,47.97439273],[3.4206381,47.97426875],[3.42084824,47.9742338],[3.4211383,47.97430566],[3.42148007,47.97430803],[3.42278803,47.97395956],[3.43074285,47.97156745],[3.43396152,47.97054048],[3.4377341,47.96941957],[3.43515712,47.96876858],[3.43516158,47.96865877],[3.42902207,47.96941119],[3.4275136,47.96963627],[3.42644996,47.96985251],[3.42447013,47.97046174],[3.42267604,47.97117555],[3.41973006,47.97214634],[3.41812847,47.97264521],[3.41647654,47.97305065],[3.41594792,47.97314701],[3.41497448,47.97325845],[3.41248141,47.97321862],[3.41148725,47.9732518],[3.41081009,47.97337836],[3.41031666,47.97352047],[3.40963231,47.97375774],[3.40857025,47.97419881],[3.40777458,47.97460204],[3.40717561,47.97496589],[3.40598778,47.97579074],[3.40436824,47.97712913],[3.40358658,47.97762228],[3.40275965,47.97797879],[3.40047072,47.97873085],[3.40132535,47.98043601],[3.40091202,47.98054811],[3.40173774,47.98143803],[3.40222102,47.98188904],[3.40252762,47.98254854],[3.40270787,47.98316168],[3.40269565,47.98331651],[3.40264685,47.98342197],[3.40245572,47.98349552],[3.4005318,47.98397725],[3.39862616,47.98457768],[3.39805842,47.98466059],[3.39665311,47.98477513],[3.39643885,47.98480465],[3.39621713,47.98491069],[3.3942673,47.98516833],[3.39394538,47.98514151],[3.39310674,47.98484824],[3.3930848,47.98478171],[3.39169156,47.98417261],[3.39133283,47.98387953],[3.39098764,47.98342171],[3.38951608,47.98345629],[3.38851049,47.98342092],[3.38765176,47.98330586],[3.38753176,47.98320996],[3.38491231,47.98354704],[3.38491383,47.98246442],[3.38118422,47.98220029],[3.38027051,47.98207635],[3.3783526,47.98173157],[3.37695055,47.98154528],[3.3761411,47.98137689],[3.37536968,47.98108957],[3.3737989,47.9807319],[3.37253241,47.98037415],[3.36861972,47.97900148],[3.36756134,47.97868442],[3.36624342,47.97804778],[3.36581203,47.97788084],[3.36484368,47.97759137],[3.36449058,47.97750427],[3.36392583,47.97743402],[3.36317694,47.97748133],[3.36257045,47.9775786],[3.37037961,47.98265148],[3.37095883,47.983249],[3.37224984,47.98422675],[3.37293447,47.98494002],[3.37349582,47.98527572],[3.3752418,47.98707362],[3.37570601,47.98845172],[3.37549965,47.98884205],[3.37565394,47.98980538],[3.37537434,47.99026704],[3.37456007,47.99076279],[3.37388596,47.99136609],[3.37279827,47.99359235],[3.37193914,47.99401174],[3.37208361,47.99530177],[3.37194391,47.99564688],[3.37288984,47.99631793],[3.37302652,47.99649658],[3.3727643,47.99676829],[3.37399621,47.99806117],[3.37530244,47.99980376],[3.37593086,47.99974056],[3.37592194,48.00037413],[3.37619106,48.00069544],[3.37705465,48.00032731],[3.37765769,48.00027768],[3.37799716,48.00049887],[3.37868847,48.00154325],[3.37904932,48.00175087],[3.37989043,48.00142689],[3.38031747,48.0026368],[3.38095283,48.00334928],[3.38259517,48.00404679],[3.383267,48.00423268],[3.38365601,48.00425032],[3.38419187,48.00454734],[3.38484775,48.00438231],[3.38516952,48.00437316],[3.38681477,48.00545846],[3.38690414,48.00631129],[3.38737444,48.00772441],[3.38742267,48.00863407],[3.38758995,48.00913567],[3.38762583,48.01202339],[3.38728468,48.0121397],[3.38579742,48.01307509],[3.38551301,48.01343239],[3.38113544,48.01661884],[3.37925998,48.01694617],[3.37745727,48.01732183],[3.37029643,48.01852616],[3.37252989,48.02579487],[3.37653579,48.02732186],[3.37686119,48.02968937],[3.37703977,48.03027553],[3.37723381,48.0303946],[3.38160102,48.03023474],[3.3827443,48.03044971],[3.38515775,48.03042834],[3.38729609,48.02911196],[3.38718325,48.0331304],[3.38972501,48.03247858],[3.39068083,48.03237013],[3.39220508,48.03401368],[3.39302775,48.03512411],[3.39310086,48.03539294],[3.39130365,48.03603876],[3.39144249,48.03630737],[3.39178427,48.0366185],[3.39068038,48.0381286],[3.39097557,48.03849028],[3.39232405,48.03884305],[3.39291662,48.03913354],[3.39418192,48.04020649],[3.39329393,48.04097438],[3.39300658,48.04113012],[3.39139606,48.0418257],[3.39025939,48.04218134],[3.39097239,48.04296638],[3.39024639,48.04351233],[3.39032972,48.04425897],[3.39021948,48.04514213],[3.39026028,48.04539756],[3.3908758,48.046425],[3.39086404,48.04774069],[3.39123687,48.04879413],[3.39127874,48.04937532],[3.39142835,48.04964209],[3.3919434,48.05014252],[3.39452826,48.04976943],[3.39452501,48.0484331],[3.39507667,48.04754125],[3.39674893,48.04629378],[3.3970966,48.04612522],[3.39779331,48.04597259],[3.3987442,48.04589198],[3.39892717,48.04506166],[3.40033619,48.04575969],[3.40206215,48.04754281],[3.40266459,48.04752275],[3.40381931,48.04882544],[3.40486173,48.05052896],[3.40526447,48.05089114],[3.40546031,48.05122702],[3.40571185,48.05129905],[3.4058804,48.05192659],[3.40581865,48.05227506],[3.40520656,48.05261913],[3.40471786,48.05312745],[3.4046768,48.05337596],[3.40434766,48.05368845],[3.40326488,48.05409262],[3.40242021,48.05474523],[3.40073532,48.05540789],[3.40007268,48.05582139],[3.39957353,48.05602286],[3.39777086,48.05602447],[3.3967173,48.0562224],[3.39674744,48.05773591],[3.39622219,48.05857997],[3.39618691,48.05888785],[3.39625719,48.05931056],[3.39677507,48.0594519],[3.39754323,48.05949521],[3.39897936,48.05982421],[3.40072968,48.05998115],[3.40240175,48.06008703],[3.40403259,48.06006525],[3.40639743,48.05965757],[3.40745712,48.05938124],[3.4084638,48.0590196],[3.41071526,48.05906126],[3.41160437,48.05894837],[3.41210761,48.05875764],[3.41285714,48.05795951],[3.41348788,48.05776742],[3.41447618,48.05764066],[3.41620016,48.05769577],[3.41914243,48.05700232],[3.42024119,48.05692732],[3.4224144,48.05692854],[3.42349369,48.05660251],[3.42436364,48.05611703],[3.42465118,48.05581903],[3.42511092,48.054733],[3.4257295,48.05420793],[3.42690928,48.05353594],[3.42843311,48.05325414],[3.42953346,48.05272459],[3.43157853,48.05234006],[3.43323954,48.05160775],[3.43505663,48.05125369],[3.43562297,48.051248],[3.43713577,48.05143137],[3.43736637,48.05140082],[3.43979459,48.05062056],[3.4446303,48.05636623],[3.44496585,48.05636316],[3.44589278,48.05581432],[3.44688146,48.05495028],[3.44774373,48.05453755],[3.44941299,48.05416224],[3.45047368,48.05356785],[3.45433161,48.05204661],[3.4557927,48.05135884],[3.45697898,48.05040305],[3.45769898,48.04954176],[3.45823155,48.04935701],[3.4590329,48.0492144],[3.45870882,48.04883231],[3.4551537,48.04634888],[3.45290079,48.04451098],[3.45293621,48.04425887],[3.45409931,48.04374145],[3.45741103,48.04386451],[3.45776602,48.04379114],[3.45868009,48.04334663],[3.45978102,48.04294188],[3.46079447,48.04235659],[3.46081121,48.04212165],[3.45942581,48.04005098],[3.45848674,48.03821974],[3.45867962,48.03554627],[3.45853558,48.03471802],[3.45807933,48.03393508],[3.45807595,48.03276881],[3.45775241,48.03228142],[3.45653965,48.03151761],[3.4553708,48.02977182],[3.4545013,48.02928833],[3.45352138,48.02844079],[3.45350561,48.02769663],[3.4537739,48.0265977],[3.45376007,48.02592282],[3.45348903,48.02576008],[3.4536206,48.02561469]]]]}},{"type":"Feature","id":"joigny_892060104_madeleine","properties":{"zoneId":"joigny_892060104_madeleine","label":"Madeleine","districtCode":"892060104","arrondissementCode":"89206","colorIndex":3,"parentZoneId":"joigny_parent_89206_joigny","parentCode":"89206","parentLabel":"Joigny","territoryType":"iris","source":"IGN / INSEE - Contours IRIS WFS Géoplateforme","sourceYear":"2026","officialId":"892060104","sourceCleabs":"IRIS____0000000892060104","communeCode":"89206","communeName":"Joigny","irisCode":"0104","irisType":"H","officialAreaM2":1670202.5190429688,"labelLng":3.4270351624647835,"labelLat":47.976621406642266,"bbox":[3.40837423,47.96941957,3.44048967,47.98377627]},"geometry":{"type":"MultiPolygon","coordinates":[[[[3.43672239,47.98114233],[3.43713784,47.98129558],[3.43731717,47.98126161],[3.43901494,47.98168546],[3.43995247,47.97933312],[3.44048967,47.97623443],[3.44039502,47.97419822],[3.43847239,47.97054085],[3.4377341,47.96941957],[3.43396152,47.97054048],[3.43074285,47.97156745],[3.42278803,47.97395956],[3.42148007,47.97430803],[3.4211383,47.97430566],[3.42084824,47.9742338],[3.4206381,47.97426875],[3.42044476,47.97439273],[3.42030866,47.974638],[3.41966746,47.97490488],[3.41571623,47.97607353],[3.40837423,47.9783293],[3.40871249,47.97874299],[3.40943837,47.97936142],[3.40969418,47.97950992],[3.41017493,47.97962703],[3.41362997,47.98026469],[3.41388882,47.98028447],[3.41418522,47.98099348],[3.41286609,47.98148588],[3.41232945,47.98159666],[3.41309358,47.98350093],[3.41293228,47.98361669],[3.41284774,47.98377627],[3.4131371,47.98375366],[3.41572152,47.98324329],[3.41980446,47.98255924],[3.41979064,47.98216872],[3.41890146,47.98041072],[3.41997252,47.98008562],[3.42212768,47.97973053],[3.42327331,47.97934754],[3.42362412,47.97913479],[3.42375981,47.9791748],[3.42390184,47.97916799],[3.42402971,47.97906853],[3.42402333,47.97894077],[3.42450699,47.97874823],[3.42535896,47.9781872],[3.42580741,47.97795069],[3.42611602,47.97782628],[3.42679268,47.97763574],[3.427668,47.97748227],[3.4284815,47.97747481],[3.42932544,47.97758422],[3.43007852,47.97772816],[3.43432365,47.97908406],[3.43456992,47.97920465],[3.43482499,47.97941699],[3.43570595,47.98043875],[3.43672239,47.98114233]]]]}}]}
