{"type":"FeatureCollection","metadata":{"generatedAt":"2026-07-14T18:56:03.503Z","source":"IGN / INSEE - Contours IRIS WFS Géoplateforme","datasetId":"STATISTICALUNITS.IRIS:contours_iris","datasetUrl":"https://geoservices.ign.fr/contoursiris","sourceFileUrl":"https://data.geopf.fr/wfs/ows?SERVICE=WFS&VERSION=2.0.0&REQUEST=GetFeature&TYPENAMES=STATISTICALUNITS.IRIS%3Acontours_iris&OUTPUTFORMAT=application%2Fjson&COUNT=1000&CQL_FILTER=code_insee%3D%2768166%27&SRSNAME=EPSG%3A4326","license":"Licence Ouverte / Open Licence 2.0","sourceYear":"2026","communeCode":"68166","communeName":"Kingersheim","featureCount":6,"parentCount":1,"parentContract":"technical commune group; not selectable and not displayed as a district","sourceFeatureCount":6,"humanLabelContract":"one visible plate per unique official human place name","groupingContract":"only exact source-ID groups approved by the resolved curation, or source zones sharing the same official name and parent, are merged","groupedZoneCount":0,"groupedSourceFeatureCount":0,"curationStatus":"resolved","curationRevision":1,"curationSources":[{"id":"ign-insee-contours-iris-2026","provider":"IGN / INSEE - Contours IRIS WFS Géoplateforme","datasetUrl":"https://geoservices.ign.fr/contoursiris","role":"official geometry, source identifiers and source labels","vintage":"2026","license":"Licence Ouverte / Open Licence 2.0"},{"id":"ign-geoplateforme-toponymy-2026","provider":"IGN Géoplateforme - reverse geocoding, addresses and named places","datasetUrl":"https://geoservices.ign.fr/geocodage-geoplateforme","role":"official address, street and named-place evidence","vintage":"2026","license":"Licence Ouverte / Open Licence 2.0"},{"id":"guide-alpha-editorial-recovery-2026-07-14","provider":"Meewav Guide Alpha editorial review","datasetUrl":"docs/geospatial/france-semantic-recovery.md","role":"versioned mapping of exact official IRIS identifiers to coherent human place names","vintage":"2026-07-14","license":"Project documentation"}],"sourceCorrections":[{"operationId":"kingersheim-681660101-rename-rue-de-la-griotte","type":"rename","sourceIds":["681660101"],"expectedLabels":["Ouest"],"outputLabel":"Rue de la Griotte","evidenceRefs":["ign-insee-contours-iris-2026","ign-geoplateforme-toponymy-2026","guide-alpha-editorial-recovery-2026-07-14"],"rationale":"The exact official IGN BD TOPO named road has a deterministic evidence point strictly inside this exact IRIS. The 1:1 label is emitted without nearest assignment, invented geometry, split or dropped source cell."},{"operationId":"kingersheim-681660102-rename-strueth","type":"rename","sourceIds":["681660102"],"expectedLabels":["Sud"],"outputLabel":"Strueth","evidenceRefs":["ign-insee-contours-iris-2026","ign-geoplateforme-toponymy-2026","guide-alpha-editorial-recovery-2026-07-14"],"rationale":"The exact official IGN BD TOPO habitation toponym has a deterministic evidence point strictly inside this exact IRIS. The 1:1 label is emitted without nearest assignment, invented geometry, split or dropped source cell."},{"operationId":"kingersheim-681660103-rename-rue-du-marechal-de-lattre-de-tassigny","type":"rename","sourceIds":["681660103"],"expectedLabels":["Sud-Est"],"outputLabel":"Rue du Maréchal de Lattre de Tassigny","evidenceRefs":["ign-insee-contours-iris-2026","ign-geoplateforme-toponymy-2026","guide-alpha-editorial-recovery-2026-07-14"],"rationale":"The exact official IGN BD TOPO named road has a deterministic evidence point strictly inside this exact IRIS. The 1:1 label is emitted without nearest assignment, invented geometry, split or dropped source cell."},{"operationId":"kingersheim-681660104-rename-rue-du-dahlia","type":"rename","sourceIds":["681660104"],"expectedLabels":["Centre"],"outputLabel":"Rue du Dahlia","evidenceRefs":["ign-insee-contours-iris-2026","ign-geoplateforme-toponymy-2026","guide-alpha-editorial-recovery-2026-07-14"],"rationale":"The exact official IGN BD TOPO named road has a deterministic evidence point strictly inside this exact IRIS. The 1:1 label is emitted without nearest assignment, invented geometry, split or dropped source cell."},{"operationId":"kingersheim-681660105-rename-croix-marie","type":"rename","sourceIds":["681660105"],"expectedLabels":["Nord"],"outputLabel":"Croix Marie","evidenceRefs":["ign-insee-contours-iris-2026","ign-geoplateforme-toponymy-2026","guide-alpha-editorial-recovery-2026-07-14"],"rationale":"The exact official IGN BD TOPO habitation toponym has a deterministic evidence point strictly inside this exact IRIS. The 1:1 label is emitted without nearest assignment, invented geometry, split or dropped source cell."},{"operationId":"kingersheim-681660106-rename-rue-de-colmar","type":"rename","sourceIds":["681660106"],"expectedLabels":["Est"],"outputLabel":"Rue de Colmar","evidenceRefs":["ign-insee-contours-iris-2026","ign-geoplateforme-toponymy-2026","guide-alpha-editorial-recovery-2026-07-14"],"rationale":"The exact official IGN BD TOPO named road has a deterministic evidence point strictly inside this exact IRIS. The 1:1 label is emitted without nearest assignment, invented geometry, split or dropped source cell."}],"bbox":[7.27484781,47.77665647,7.34860469,47.80098872],"areaStatsM2":{"minimum":631455.5390625,"average":1106373.4173177083,"maximum":1639451.4353027344}},"features":[{"type":"Feature","id":"kingersheim_681660101_ouest","properties":{"zoneId":"kingersheim_681660101_ouest","label":"Rue de la Griotte","districtCode":"681660101","arrondissementCode":"68166","colorIndex":0,"parentZoneId":"kingersheim_parent_68166_kingersheim","parentCode":"68166","parentLabel":"Kingersheim","territoryType":"iris","source":"IGN / INSEE - Contours IRIS WFS Géoplateforme","sourceYear":"2026","officialId":"681660101","sourceCleabs":"IRIS____0000000681660101","communeCode":"68166","communeName":"Kingersheim","irisCode":"0101","irisType":"H","officialAreaM2":1639451.4353027344,"labelLng":7.30378040493042,"labelLat":47.79082856714685,"bbox":[7.27484781,47.78488307,7.31907853,47.79526849],"curationOperationId":"kingersheim-681660101-rename-rue-de-la-griotte","curationRevision":1,"curationEvidenceRefs":["ign-insee-contours-iris-2026","ign-geoplateforme-toponymy-2026","guide-alpha-editorial-recovery-2026-07-14"],"curationRationale":"The exact official IGN BD TOPO named road has a deterministic evidence point strictly inside this exact IRIS. The 1:1 label is emitted without nearest assignment, invented geometry, split or dropped source cell.","semanticLabelReviewed":true,"semanticLabelAccepted":false,"semanticResolution":"rename"},"geometry":{"type":"MultiPolygon","coordinates":[[[[7.30892831,47.78493937],[7.30561323,47.78494419],[7.3040821,47.78502935],[7.30458766,47.78681348],[7.30495994,47.7889829],[7.30316115,47.78913376],[7.30339807,47.79002822],[7.30129444,47.79004875],[7.30095023,47.79151439],[7.29923031,47.79110346],[7.29891042,47.79232483],[7.29752293,47.79213781],[7.2939459,47.7919518],[7.2941984,47.79082215],[7.28481907,47.7903357],[7.28118401,47.79063905],[7.27484781,47.7913339],[7.27600733,47.79184768],[7.28334172,47.79363012],[7.28447665,47.79360481],[7.28537189,47.79342692],[7.28705137,47.79257405],[7.28899721,47.7925199],[7.2890246,47.79244498],[7.29154993,47.79300771],[7.29276414,47.7935004],[7.29390205,47.79377685],[7.29448704,47.79378243],[7.30003523,47.79470456],[7.30736924,47.79476575],[7.30728012,47.79470593],[7.30767021,47.79469969],[7.31013042,47.79476868],[7.31137298,47.79483289],[7.31486489,47.79526849],[7.31510756,47.7948963],[7.31524187,47.79455694],[7.31540496,47.79371536],[7.31711798,47.79375856],[7.31813567,47.79382108],[7.31815171,47.79354106],[7.31795419,47.79323377],[7.31798514,47.79275851],[7.31816739,47.7919063],[7.31840602,47.79110609],[7.31907853,47.78981846],[7.31904933,47.78977177],[7.31872624,47.78971338],[7.31692183,47.78963031],[7.31597173,47.78955898],[7.31581126,47.78950992],[7.31570248,47.78947156],[7.31562312,47.78936723],[7.31545737,47.78926968],[7.31512165,47.78925321],[7.31529363,47.78916395],[7.31570693,47.78875211],[7.31613607,47.78799175],[7.31620539,47.78729694],[7.31648825,47.78583891],[7.31650228,47.78533633],[7.31537982,47.78513435],[7.31385788,47.78498674],[7.31297979,47.78497763],[7.31104489,47.78488307],[7.30987604,47.78488375],[7.30892831,47.78493937]]]]}},{"type":"Feature","id":"kingersheim_681660102_sud","properties":{"zoneId":"kingersheim_681660102_sud","label":"Strueth","districtCode":"681660102","arrondissementCode":"68166","colorIndex":1,"parentZoneId":"kingersheim_parent_68166_kingersheim","parentCode":"68166","parentLabel":"Kingersheim","territoryType":"iris","source":"IGN / INSEE - Contours IRIS WFS Géoplateforme","sourceYear":"2026","officialId":"681660102","sourceCleabs":"IRIS____0000000681660102","communeCode":"68166","communeName":"Kingersheim","irisCode":"0102","irisType":"H","officialAreaM2":1320276.5856933594,"labelLng":7.31820120948193,"labelLat":47.78115066541108,"bbox":[7.30643612,47.77665647,7.33186201,47.78875211],"curationOperationId":"kingersheim-681660102-rename-strueth","curationRevision":1,"curationEvidenceRefs":["ign-insee-contours-iris-2026","ign-geoplateforme-toponymy-2026","guide-alpha-editorial-recovery-2026-07-14"],"curationRationale":"The exact official IGN BD TOPO habitation toponym has a deterministic evidence point strictly inside this exact IRIS. The 1:1 label is emitted without nearest assignment, invented geometry, split or dropped source cell.","semanticLabelReviewed":true,"semanticLabelAccepted":false,"semanticResolution":"rename"},"geometry":{"type":"MultiPolygon","coordinates":[[[[7.30858756,47.77787977],[7.30875604,47.77944736],[7.30708591,47.77977925],[7.30750487,47.77981701],[7.30869338,47.78057187],[7.31025029,47.78186209],[7.3081626,47.78237252],[7.3078154,47.78196616],[7.30643612,47.78210886],[7.30773193,47.78460033],[7.30880646,47.78455807],[7.30892831,47.78493937],[7.30987604,47.78488375],[7.31104489,47.78488307],[7.31297979,47.78497763],[7.31385788,47.78498674],[7.31537982,47.78513435],[7.31650228,47.78533633],[7.31648825,47.78583891],[7.31620539,47.78729694],[7.31613607,47.78799175],[7.31570693,47.78875211],[7.31653031,47.78788888],[7.31712467,47.78733515],[7.31810737,47.78668867],[7.32098274,47.78533686],[7.3295451,47.78142844],[7.33016905,47.78107635],[7.33054678,47.78080458],[7.33186201,47.7795156],[7.33014267,47.77881486],[7.32873882,47.77842421],[7.32707793,47.77799708],[7.32161353,47.77713717],[7.31937033,47.77686575],[7.31912928,47.77696027],[7.31619212,47.77668916],[7.31209089,47.77665647],[7.31182688,47.77780373],[7.30925674,47.77793625],[7.30858756,47.77787977]]]]}},{"type":"Feature","id":"kingersheim_681660103_sud_est","properties":{"zoneId":"kingersheim_681660103_sud_est","label":"Rue du Maréchal de Lattre de Tassigny","districtCode":"681660103","arrondissementCode":"68166","colorIndex":2,"parentZoneId":"kingersheim_parent_68166_kingersheim","parentCode":"68166","parentLabel":"Kingersheim","territoryType":"iris","source":"IGN / INSEE - Contours IRIS WFS Géoplateforme","sourceYear":"2026","officialId":"681660103","sourceCleabs":"IRIS____0000000681660103","communeCode":"68166","communeName":"Kingersheim","irisCode":"0103","irisType":"H","officialAreaM2":1258234.4809570312,"labelLng":7.328608352255609,"labelLat":47.78627620717543,"bbox":[7.31512165,47.7795156,7.33936534,47.79143594],"curationOperationId":"kingersheim-681660103-rename-rue-du-marechal-de-lattre-de-tassigny","curationRevision":1,"curationEvidenceRefs":["ign-insee-contours-iris-2026","ign-geoplateforme-toponymy-2026","guide-alpha-editorial-recovery-2026-07-14"],"curationRationale":"The exact official IGN BD TOPO named road has a deterministic evidence point strictly inside this exact IRIS. The 1:1 label is emitted without nearest assignment, invented geometry, split or dropped source cell.","semanticLabelReviewed":true,"semanticLabelAccepted":false,"semanticResolution":"rename"},"geometry":{"type":"MultiPolygon","coordinates":[[[[7.33936534,47.78336239],[7.339294,47.78309461],[7.33393289,47.78034482],[7.33186201,47.7795156],[7.33054678,47.78080458],[7.33016905,47.78107635],[7.3295451,47.78142844],[7.32098274,47.78533686],[7.31810737,47.78668867],[7.31712467,47.78733515],[7.31653031,47.78788888],[7.31570693,47.78875211],[7.31529363,47.78916395],[7.31512165,47.78925321],[7.31545737,47.78926968],[7.31562312,47.78936723],[7.31570248,47.78947156],[7.31581126,47.78950992],[7.31597173,47.78955898],[7.31692183,47.78963031],[7.31872624,47.78971338],[7.31904933,47.78977177],[7.31907853,47.78981846],[7.31915975,47.78979744],[7.31938223,47.78985232],[7.32013109,47.79014648],[7.32145061,47.79091171],[7.32158581,47.79104463],[7.32184003,47.79114431],[7.32395039,47.79143594],[7.32497558,47.7896512],[7.32822995,47.79026013],[7.32914415,47.79039939],[7.33500337,47.79116145],[7.3357331,47.79117048],[7.33578894,47.79034635],[7.33576562,47.78930611],[7.33561212,47.78863757],[7.33603087,47.78867163],[7.33580801,47.78853026],[7.33540166,47.78812346],[7.3352044,47.78785314],[7.33536426,47.78777962],[7.33624397,47.78639766],[7.33645094,47.78614752],[7.33707956,47.78572131],[7.33785118,47.78452361],[7.33911003,47.78360982],[7.33936534,47.78336239]]]]}},{"type":"Feature","id":"kingersheim_681660104_centre","properties":{"zoneId":"kingersheim_681660104_centre","label":"Rue du Dahlia","districtCode":"681660104","arrondissementCode":"68166","colorIndex":3,"parentZoneId":"kingersheim_parent_68166_kingersheim","parentCode":"68166","parentLabel":"Kingersheim","territoryType":"iris","source":"IGN / INSEE - Contours IRIS WFS Géoplateforme","sourceYear":"2026","officialId":"681660104","sourceCleabs":"IRIS____0000000681660104","communeCode":"68166","communeName":"Kingersheim","irisCode":"0104","irisType":"H","officialAreaM2":631455.5390625,"labelLng":7.327742859305127,"labelLat":47.79282436966779,"bbox":[7.31795419,47.7896512,7.33611295,47.79597174],"curationOperationId":"kingersheim-681660104-rename-rue-du-dahlia","curationRevision":1,"curationEvidenceRefs":["ign-insee-contours-iris-2026","ign-geoplateforme-toponymy-2026","guide-alpha-editorial-recovery-2026-07-14"],"curationRationale":"The exact official IGN BD TOPO named road has a deterministic evidence point strictly inside this exact IRIS. The 1:1 label is emitted without nearest assignment, invented geometry, split or dropped source cell.","semanticLabelReviewed":true,"semanticLabelAccepted":false,"semanticResolution":"rename"},"geometry":{"type":"MultiPolygon","coordinates":[[[[7.33610869,47.79597174],[7.33606366,47.79586254],[7.33611295,47.79576156],[7.33579387,47.79512979],[7.3356629,47.79434413],[7.33566489,47.79367974],[7.33574298,47.79307924],[7.33569164,47.79282695],[7.3357331,47.79117048],[7.33500337,47.79116145],[7.32914415,47.79039939],[7.32822995,47.79026013],[7.32497558,47.7896512],[7.32395039,47.79143594],[7.32184003,47.79114431],[7.32158581,47.79104463],[7.32145061,47.79091171],[7.32013109,47.79014648],[7.31938223,47.78985232],[7.31915975,47.78979744],[7.31907853,47.78981846],[7.31840602,47.79110609],[7.31816739,47.7919063],[7.31798514,47.79275851],[7.31795419,47.79323377],[7.31815171,47.79354106],[7.31813567,47.79382108],[7.32005068,47.79391357],[7.32145832,47.79382016],[7.32224379,47.79383983],[7.32301897,47.79397976],[7.32337494,47.79414599],[7.32351106,47.79425724],[7.32371928,47.79423513],[7.32410476,47.79430382],[7.32535677,47.79468121],[7.32657423,47.79494629],[7.32843726,47.79543448],[7.32952872,47.79563028],[7.333258,47.79590603],[7.33423367,47.79594473],[7.33555775,47.79587587],[7.33610869,47.79597174]]]]}},{"type":"Feature","id":"kingersheim_681660105_nord","properties":{"zoneId":"kingersheim_681660105_nord","label":"Croix Marie","districtCode":"681660105","arrondissementCode":"68166","colorIndex":4,"parentZoneId":"kingersheim_parent_68166_kingersheim","parentCode":"68166","parentLabel":"Kingersheim","territoryType":"iris","source":"IGN / INSEE - Contours IRIS WFS Géoplateforme","sourceYear":"2026","officialId":"681660105","sourceCleabs":"IRIS____0000000681660105","communeCode":"68166","communeName":"Kingersheim","irisCode":"0105","irisType":"H","officialAreaM2":961093.7438964844,"labelLng":7.330069217356148,"labelLat":47.79738220974954,"bbox":[7.31439507,47.79371536,7.34451396,47.80098872],"curationOperationId":"kingersheim-681660105-rename-croix-marie","curationRevision":1,"curationEvidenceRefs":["ign-insee-contours-iris-2026","ign-geoplateforme-toponymy-2026","guide-alpha-editorial-recovery-2026-07-14"],"curationRationale":"The exact official IGN BD TOPO habitation toponym has a deterministic evidence point strictly inside this exact IRIS. The 1:1 label is emitted without nearest assignment, invented geometry, split or dropped source cell.","semanticLabelReviewed":true,"semanticLabelAccepted":false,"semanticResolution":"rename"},"geometry":{"type":"MultiPolygon","coordinates":[[[[7.31486489,47.79526849],[7.31439507,47.7962043],[7.31774105,47.79676869],[7.32470871,47.79850444],[7.32442703,47.79930084],[7.32454709,47.79934598],[7.32871771,47.8002744],[7.33006167,47.80044824],[7.33046067,47.79925359],[7.33153985,47.79936329],[7.33148183,47.79975123],[7.3334002,47.7999146],[7.33333237,47.80026414],[7.33501558,47.8005128],[7.33688015,47.80037705],[7.33692368,47.80051695],[7.34207752,47.80047375],[7.34213431,47.80082499],[7.34282331,47.80098872],[7.34295825,47.80087194],[7.34291427,47.80033365],[7.34442063,47.80018582],[7.34451396,47.79753049],[7.34436795,47.79706989],[7.34265899,47.79706209],[7.34164132,47.79696823],[7.34035654,47.79678151],[7.33834193,47.79637214],[7.33716227,47.79606341],[7.33685126,47.79594063],[7.33679418,47.79606082],[7.33651005,47.79613625],[7.33641114,47.79621923],[7.33620743,47.79616548],[7.33619717,47.79603967],[7.33610869,47.79597174],[7.33555775,47.79587587],[7.33423367,47.79594473],[7.333258,47.79590603],[7.32952872,47.79563028],[7.32843726,47.79543448],[7.32657423,47.79494629],[7.32535677,47.79468121],[7.32410476,47.79430382],[7.32371928,47.79423513],[7.32351106,47.79425724],[7.32337494,47.79414599],[7.32301897,47.79397976],[7.32224379,47.79383983],[7.32145832,47.79382016],[7.32005068,47.79391357],[7.31813567,47.79382108],[7.31711798,47.79375856],[7.31540496,47.79371536],[7.31524187,47.79455694],[7.31510756,47.7948963],[7.31486489,47.79526849]]]]}},{"type":"Feature","id":"kingersheim_681660106_est","properties":{"zoneId":"kingersheim_681660106_est","label":"Rue de Colmar","districtCode":"681660106","arrondissementCode":"68166","colorIndex":5,"parentZoneId":"kingersheim_parent_68166_kingersheim","parentCode":"68166","parentLabel":"Kingersheim","territoryType":"iris","source":"IGN / INSEE - Contours IRIS WFS Géoplateforme","sourceYear":"2026","officialId":"681660106","sourceCleabs":"IRIS____0000000681660106","communeCode":"68166","communeName":"Kingersheim","irisCode":"0106","irisType":"H","officialAreaM2":827728.7189941406,"labelLng":7.340570376122789,"labelLat":47.79199175636381,"bbox":[7.3352044,47.78336239,7.34860469,47.79865397],"curationOperationId":"kingersheim-681660106-rename-rue-de-colmar","curationRevision":1,"curationEvidenceRefs":["ign-insee-contours-iris-2026","ign-geoplateforme-toponymy-2026","guide-alpha-editorial-recovery-2026-07-14"],"curationRationale":"The exact official IGN BD TOPO named road has a deterministic evidence point strictly inside this exact IRIS. The 1:1 label is emitted without nearest assignment, invented geometry, split or dropped source cell.","semanticLabelReviewed":true,"semanticLabelAccepted":false,"semanticResolution":"rename"},"geometry":{"type":"MultiPolygon","coordinates":[[[[7.34451396,47.79753049],[7.34505047,47.79816949],[7.34637436,47.79865397],[7.34752685,47.79807305],[7.34776732,47.79836338],[7.34860469,47.79810062],[7.34756828,47.79566841],[7.34725585,47.79598649],[7.34630137,47.7951602],[7.3457134,47.79449698],[7.34539837,47.79460332],[7.34500246,47.79424394],[7.34474971,47.79377017],[7.34404657,47.79320316],[7.34383163,47.79270095],[7.34411557,47.79172322],[7.34505159,47.79042654],[7.3439891,47.78997923],[7.34377886,47.78976348],[7.34387352,47.78917046],[7.34328001,47.78871656],[7.34311703,47.78881725],[7.34298023,47.78858346],[7.3428732,47.78866495],[7.34270537,47.78860808],[7.34220961,47.7887121],[7.34190614,47.78866477],[7.34290691,47.78755499],[7.34027616,47.78636088],[7.3403376,47.7862288],[7.33992904,47.78579506],[7.33954881,47.78411906],[7.33920813,47.78412358],[7.33944302,47.78339646],[7.33936534,47.78336239],[7.33911003,47.78360982],[7.33785118,47.78452361],[7.33707956,47.78572131],[7.33645094,47.78614752],[7.33624397,47.78639766],[7.33536426,47.78777962],[7.3352044,47.78785314],[7.33540166,47.78812346],[7.33580801,47.78853026],[7.33603087,47.78867163],[7.33561212,47.78863757],[7.33576562,47.78930611],[7.33578894,47.79034635],[7.3357331,47.79117048],[7.33569164,47.79282695],[7.33574298,47.79307924],[7.33566489,47.79367974],[7.3356629,47.79434413],[7.33579387,47.79512979],[7.33611295,47.79576156],[7.33606366,47.79586254],[7.33610869,47.79597174],[7.33619717,47.79603967],[7.33620743,47.79616548],[7.33641114,47.79621923],[7.33651005,47.79613625],[7.33679418,47.79606082],[7.33685126,47.79594063],[7.33716227,47.79606341],[7.33834193,47.79637214],[7.34035654,47.79678151],[7.34164132,47.79696823],[7.34265899,47.79706209],[7.34436795,47.79706989],[7.34451396,47.79753049]]]]}}]}
