{"type":"FeatureCollection","metadata":{"generatedAt":"2026-07-14T18:56:03.503Z","source":"IGN / INSEE - Contours IRIS WFS Géoplateforme","datasetId":"STATISTICALUNITS.IRIS:contours_iris","datasetUrl":"https://geoservices.ign.fr/contoursiris","sourceFileUrl":"https://data.geopf.fr/wfs/ows?SERVICE=WFS&VERSION=2.0.0&REQUEST=GetFeature&TYPENAMES=STATISTICALUNITS.IRIS%3Acontours_iris&OUTPUTFORMAT=application%2Fjson&COUNT=1000&CQL_FILTER=code_insee%3D%2773179%27&SRSNAME=EPSG%3A4326","license":"Licence Ouverte / Open Licence 2.0","sourceYear":"2026","communeCode":"73179","communeName":"La Motte-Servolex","featureCount":4,"parentCount":1,"parentContract":"technical commune group; not selectable and not displayed as a district","sourceFeatureCount":4,"humanLabelContract":"one visible plate per unique official human place name","groupingContract":"only exact source-ID groups approved by the resolved curation, or source zones sharing the same official name and parent, are merged","groupedZoneCount":0,"groupedSourceFeatureCount":0,"curationStatus":"resolved","curationRevision":1,"curationSources":[{"id":"ign-insee-contours-iris-2026","provider":"IGN / INSEE - Contours IRIS WFS Géoplateforme","datasetUrl":"https://geoservices.ign.fr/contoursiris","role":"official geometry, source identifiers and source labels","vintage":"2026","license":"Licence Ouverte / Open Licence 2.0"},{"id":"ign-geoplateforme-toponymy-2026","provider":"IGN Géoplateforme - reverse geocoding, addresses and named places","datasetUrl":"https://geoservices.ign.fr/geocodage-geoplateforme","role":"official address, street and named-place evidence","vintage":"2026","license":"Licence Ouverte / Open Licence 2.0"},{"id":"guide-alpha-editorial-recovery-2026-07-14","provider":"Meewav Guide Alpha editorial review","datasetUrl":"docs/geospatial/france-semantic-recovery.md","role":"versioned mapping of exact official IRIS identifiers to coherent human place names","vintage":"2026-07-14","license":"Project documentation"}],"sourceCorrections":[{"operationId":"la_motte_servolex-731790102-rename-avenue-charles-albert","type":"rename","sourceIds":["731790102"],"expectedLabels":["Nord-Ouest"],"outputLabel":"Avenue charles albert","evidenceRefs":["ign-insee-contours-iris-2026","ign-geoplateforme-toponymy-2026","guide-alpha-editorial-recovery-2026-07-14"],"rationale":"The exact official IGN BD TOPO named road has a deterministic evidence point strictly inside this exact IRIS. The 1:1 label is emitted without nearest assignment, invented geometry, split or dropped source cell."},{"operationId":"la_motte_servolex-731790103-rename-rue-pierre-et-marie-curie","type":"rename","sourceIds":["731790103"],"expectedLabels":["Sud-Ouest"],"outputLabel":"Rue pierre et marie curie","evidenceRefs":["ign-insee-contours-iris-2026","ign-geoplateforme-toponymy-2026","guide-alpha-editorial-recovery-2026-07-14"],"rationale":"The exact official IGN BD TOPO named road has a deterministic evidence point strictly inside this exact IRIS. The 1:1 label is emitted without nearest assignment, invented geometry, split or dropped source cell."}],"bbox":[5.81483872,45.56504021,5.89324496,45.64243605],"areaStatsM2":{"minimum":1193332.1098632812,"average":7365287.408935547,"maximum":24277179.342285156}},"features":[{"type":"Feature","id":"la_motte_servolex_731790101_centre_est","properties":{"zoneId":"la_motte_servolex_731790101_centre_est","label":"Centre-Est","districtCode":"731790101","arrondissementCode":"73179","colorIndex":0,"parentZoneId":"la_motte_servolex_parent_73179_la_motte_servolex","parentCode":"73179","parentLabel":"La Motte-Servolex","territoryType":"iris","source":"IGN / INSEE - Contours IRIS WFS Géoplateforme","sourceYear":"2026","officialId":"731790101","sourceCleabs":"IRIS____0000000731790101","communeCode":"73179","communeName":"La Motte-Servolex","irisCode":"0101","irisType":"H","officialAreaM2":2208841.1350097656,"labelLng":5.8825674818932345,"labelLat":45.59686497129648,"bbox":[5.8672293,45.58551148,5.89324496,45.60688335]},"geometry":{"type":"MultiPolygon","coordinates":[[[[5.88896492,45.60688335],[5.89149701,45.60271024],[5.89170492,45.6027094],[5.89324496,45.60021884],[5.89139054,45.59951414],[5.89243665,45.5971282],[5.88822695,45.59684085],[5.88790792,45.59638409],[5.88787681,45.59618124],[5.88803411,45.59570233],[5.88833277,45.59532522],[5.88874872,45.59421882],[5.88892597,45.59392592],[5.89074184,45.59207528],[5.88950374,45.5906807],[5.88857298,45.59018289],[5.88870013,45.58998769],[5.88741093,45.58958109],[5.88314852,45.5877757],[5.88357726,45.58716098],[5.88321831,45.5870945],[5.88330699,45.58675162],[5.88130319,45.5858037],[5.88008899,45.58552845],[5.87920392,45.58551148],[5.87879594,45.58588416],[5.8785617,45.58616769],[5.87858557,45.58623196],[5.87850808,45.58627179],[5.87828095,45.58674165],[5.87755851,45.58783063],[5.87655451,45.58898447],[5.8764726,45.5891866],[5.87648531,45.58930792],[5.87629892,45.589401],[5.87571337,45.59003772],[5.87566118,45.59016971],[5.87580971,45.59028665],[5.87623168,45.59020738],[5.87641525,45.59020809],[5.87678047,45.59044473],[5.87710832,45.59053006],[5.87784456,45.59054635],[5.87878669,45.5904988],[5.87900523,45.59050582],[5.87917471,45.59055645],[5.87919924,45.59080632],[5.8791183,45.59147158],[5.87868178,45.59233338],[5.87868704,45.59245939],[5.87895782,45.59292822],[5.87903331,45.59322004],[5.87893531,45.59335952],[5.8752575,45.59302563],[5.87499849,45.59303045],[5.87436497,45.59313946],[5.87432801,45.5932188],[5.87416677,45.59325265],[5.87429868,45.59364305],[5.87496724,45.59472887],[5.87523482,45.59530953],[5.87493148,45.59594443],[5.87507966,45.59664799],[5.87502899,45.59698268],[5.87484371,45.59734514],[5.87395895,45.59889689],[5.87330293,45.59993457],[5.87306877,45.60061726],[5.87306678,45.6007768],[5.87316433,45.6008509],[5.87315431,45.60095478],[5.87301884,45.60101591],[5.872802,45.60096829],[5.87244061,45.60095499],[5.87186473,45.60106341],[5.87126886,45.60123181],[5.8704416,45.60161697],[5.86948892,45.60230718],[5.8689364,45.6025943],[5.86888335,45.60271009],[5.86878482,45.60276577],[5.86858556,45.60303307],[5.86828797,45.60321096],[5.86768697,45.60367773],[5.8672293,45.60433456],[5.86837344,45.6040684],[5.87092392,45.60329507],[5.87218238,45.60300613],[5.8733662,45.60281279],[5.87464509,45.6026954],[5.87606663,45.60265544],[5.87713562,45.60269838],[5.87829628,45.60280113],[5.87948396,45.60297887],[5.88124276,45.60337625],[5.88305471,45.60398038],[5.88397854,45.60434145],[5.88540432,45.60497347],[5.88698661,45.60577537],[5.88896492,45.60688335]]]]}},{"type":"Feature","id":"la_motte_servolex_731790102_nord_ouest","properties":{"zoneId":"la_motte_servolex_731790102_nord_ouest","label":"Avenue charles albert","districtCode":"731790102","arrondissementCode":"73179","colorIndex":1,"parentZoneId":"la_motte_servolex_parent_73179_la_motte_servolex","parentCode":"73179","parentLabel":"La Motte-Servolex","territoryType":"iris","source":"IGN / INSEE - Contours IRIS WFS Géoplateforme","sourceYear":"2026","officialId":"731790102","sourceCleabs":"IRIS____0000000731790102","communeCode":"73179","communeName":"La Motte-Servolex","irisCode":"0102","irisType":"H","officialAreaM2":1193332.1098632812,"labelLng":5.864078128963584,"labelLat":45.59898097673361,"bbox":[5.85599455,45.59376406,5.87484371,45.60452107],"curationOperationId":"la_motte_servolex-731790102-rename-avenue-charles-albert","curationRevision":1,"curationEvidenceRefs":["ign-insee-contours-iris-2026","ign-geoplateforme-toponymy-2026","guide-alpha-editorial-recovery-2026-07-14"],"curationRationale":"The exact official IGN BD TOPO named road has a deterministic evidence point strictly inside this exact IRIS. The 1:1 label is emitted without nearest assignment, invented geometry, split or dropped source cell.","semanticLabelReviewed":true,"semanticLabelAccepted":false,"semanticResolution":"rename"},"geometry":{"type":"MultiPolygon","coordinates":[[[[5.85628466,45.593885],[5.85605597,45.59562356],[5.85599455,45.59694699],[5.8560493,45.5979593],[5.85623169,45.59918192],[5.85647938,45.59997757],[5.85682345,45.60065094],[5.85729766,45.60133361],[5.8579473,45.60203255],[5.85868718,45.60263908],[5.8595311,45.60317178],[5.85998631,45.6034107],[5.86089342,45.60379942],[5.86193209,45.6041253],[5.86301846,45.60435535],[5.86442148,45.60450254],[5.86525045,45.60452107],[5.86611921,45.60448992],[5.8672293,45.60433456],[5.86768697,45.60367773],[5.86828797,45.60321096],[5.86858556,45.60303307],[5.86878482,45.60276577],[5.86888335,45.60271009],[5.8689364,45.6025943],[5.86948892,45.60230718],[5.8704416,45.60161697],[5.87126886,45.60123181],[5.87186473,45.60106341],[5.87244061,45.60095499],[5.872802,45.60096829],[5.87301884,45.60101591],[5.87315431,45.60095478],[5.87316433,45.6008509],[5.87306678,45.6007768],[5.87306877,45.60061726],[5.87330293,45.59993457],[5.87395895,45.59889689],[5.87484371,45.59734514],[5.87368797,45.5969638],[5.87331702,45.59688948],[5.87272482,45.59683073],[5.87266308,45.59690259],[5.87251033,45.59692722],[5.87241063,45.59688561],[5.87237298,45.59677844],[5.87179726,45.59671566],[5.87071875,45.5964864],[5.86904749,45.59633623],[5.86834437,45.5962172],[5.86743856,45.59587718],[5.86747135,45.59579164],[5.86741855,45.59571369],[5.86729125,45.5956845],[5.86717115,45.59572],[5.86687534,45.59553472],[5.86465499,45.59439559],[5.86406308,45.59414306],[5.86376883,45.59406225],[5.86075777,45.59376406],[5.86018994,45.59377851],[5.8585095,45.59402038],[5.85628466,45.593885]]]]}},{"type":"Feature","id":"la_motte_servolex_731790103_sud_ouest","properties":{"zoneId":"la_motte_servolex_731790103_sud_ouest","label":"Rue pierre et marie curie","districtCode":"731790103","arrondissementCode":"73179","colorIndex":2,"parentZoneId":"la_motte_servolex_parent_73179_la_motte_servolex","parentCode":"73179","parentLabel":"La Motte-Servolex","territoryType":"iris","source":"IGN / INSEE - Contours IRIS WFS Géoplateforme","sourceYear":"2026","officialId":"731790103","sourceCleabs":"IRIS____0000000731790103","communeCode":"73179","communeName":"La Motte-Servolex","irisCode":"0103","irisType":"H","officialAreaM2":1781797.0485839844,"labelLng":5.866823959640162,"labelLat":45.59012752743192,"bbox":[5.8539636,45.58260499,5.87920392,45.59734514],"curationOperationId":"la_motte_servolex-731790103-rename-rue-pierre-et-marie-curie","curationRevision":1,"curationEvidenceRefs":["ign-insee-contours-iris-2026","ign-geoplateforme-toponymy-2026","guide-alpha-editorial-recovery-2026-07-14"],"curationRationale":"The exact official IGN BD TOPO named road has a deterministic evidence point strictly inside this exact IRIS. The 1:1 label is emitted without nearest assignment, invented geometry, split or dropped source cell.","semanticLabelReviewed":true,"semanticLabelAccepted":false,"semanticResolution":"rename"},"geometry":{"type":"MultiPolygon","coordinates":[[[[5.87920392,45.58551148],[5.87795926,45.58524239],[5.87784208,45.58528414],[5.8772386,45.58592043],[5.87683816,45.58616676],[5.87664877,45.58622657],[5.87606089,45.58629838],[5.87520313,45.58651135],[5.87447317,45.58659039],[5.87378102,45.58658196],[5.87328384,45.58649735],[5.87294225,45.58636912],[5.87224869,45.58598677],[5.87089733,45.58568879],[5.87024252,45.58536041],[5.87010863,45.58535211],[5.86974619,45.5853911],[5.86876675,45.58538546],[5.86818199,45.58541841],[5.86650661,45.5859261],[5.86602954,45.58600674],[5.86582795,45.58600467],[5.86577533,45.586079],[5.86571309,45.5860914],[5.86560227,45.58603295],[5.86528074,45.58606908],[5.86473975,45.58600538],[5.8643266,45.58605645],[5.86407699,45.58604389],[5.86354054,45.58589447],[5.86217027,45.58522923],[5.86078592,45.58508606],[5.86052628,45.58500347],[5.86003316,45.58467361],[5.85911588,45.5841563],[5.85877418,45.58387575],[5.85849699,45.58375124],[5.85510967,45.58271371],[5.85467162,45.58260499],[5.85440525,45.58261536],[5.8539636,45.58281039],[5.85472352,45.58366242],[5.85537941,45.58468649],[5.85577074,45.58555689],[5.85599912,45.58620346],[5.85631997,45.58732435],[5.85649554,45.58824077],[5.85666687,45.59004576],[5.85664057,45.5909547],[5.85653774,45.59207194],[5.85628466,45.593885],[5.8585095,45.59402038],[5.86018994,45.59377851],[5.86075777,45.59376406],[5.86376883,45.59406225],[5.86406308,45.59414306],[5.86465499,45.59439559],[5.86687534,45.59553472],[5.86717115,45.59572],[5.86729125,45.5956845],[5.86741855,45.59571369],[5.86747135,45.59579164],[5.86743856,45.59587718],[5.86834437,45.5962172],[5.86904749,45.59633623],[5.87071875,45.5964864],[5.87179726,45.59671566],[5.87237298,45.59677844],[5.87241063,45.59688561],[5.87251033,45.59692722],[5.87266308,45.59690259],[5.87272482,45.59683073],[5.87331702,45.59688948],[5.87368797,45.5969638],[5.87484371,45.59734514],[5.87502899,45.59698268],[5.87507966,45.59664799],[5.87493148,45.59594443],[5.87523482,45.59530953],[5.87496724,45.59472887],[5.87429868,45.59364305],[5.87416677,45.59325265],[5.87432801,45.5932188],[5.87436497,45.59313946],[5.87499849,45.59303045],[5.8752575,45.59302563],[5.87893531,45.59335952],[5.87903331,45.59322004],[5.87895782,45.59292822],[5.87868704,45.59245939],[5.87868178,45.59233338],[5.8791183,45.59147158],[5.87919924,45.59080632],[5.87917471,45.59055645],[5.87900523,45.59050582],[5.87878669,45.5904988],[5.87784456,45.59054635],[5.87710832,45.59053006],[5.87678047,45.59044473],[5.87641525,45.59020809],[5.87623168,45.59020738],[5.87580971,45.59028665],[5.87566118,45.59016971],[5.87571337,45.59003772],[5.87629892,45.589401],[5.87648531,45.58930792],[5.8764726,45.5891866],[5.87655451,45.58898447],[5.87755851,45.58783063],[5.87828095,45.58674165],[5.87850808,45.58627179],[5.87858557,45.58623196],[5.8785617,45.58616769],[5.87879594,45.58588416],[5.87920392,45.58551148]]]]}},{"type":"Feature","id":"la_motte_servolex_731790104_hameaux","properties":{"zoneId":"la_motte_servolex_731790104_hameaux","label":"Hameaux","districtCode":"731790104","arrondissementCode":"73179","colorIndex":3,"parentZoneId":"la_motte_servolex_parent_73179_la_motte_servolex","parentCode":"73179","parentLabel":"La Motte-Servolex","territoryType":"iris","source":"IGN / INSEE - Contours IRIS WFS Géoplateforme","sourceYear":"2026","officialId":"731790104","sourceCleabs":"IRIS____0000000731790104","communeCode":"73179","communeName":"La Motte-Servolex","irisCode":"0104","irisType":"H","officialAreaM2":24277179.342285156,"labelLng":5.850540043336745,"labelLat":45.60231964061689,"bbox":[5.81483872,45.56504021,5.88896492,45.64243605]},"geometry":{"type":"MultiPolygon","coordinates":[[[[5.87795926,45.58524239],[5.87788009,45.58512638],[5.87669573,45.58468363],[5.87483578,45.58417976],[5.87417559,45.58332711],[5.87504802,45.5832246],[5.87440799,45.58142441],[5.87449954,45.58024526],[5.87403157,45.57713502],[5.87392426,45.57677283],[5.87310278,45.57523227],[5.87145954,45.5724404],[5.87125998,45.57153542],[5.87134982,45.57081767],[5.87089942,45.57074178],[5.8691958,45.57114121],[5.86776453,45.57132462],[5.86625766,45.57098912],[5.86571693,45.57075421],[5.86472039,45.57056156],[5.86293483,45.57039351],[5.8610239,45.57010788],[5.8602961,45.56950377],[5.859789,45.56932295],[5.85931509,45.56891511],[5.85776094,45.56865549],[5.85670322,45.56789666],[5.85602813,45.56719387],[5.85577559,45.56642537],[5.85572606,45.5656382],[5.85371518,45.56535049],[5.85303412,45.56545248],[5.85212847,45.56515379],[5.85104017,45.56514447],[5.85035492,45.56504021],[5.85035444,45.56590434],[5.8505215,45.56591001],[5.85054429,45.56742592],[5.84993609,45.56744856],[5.84906597,45.57545492],[5.84811642,45.57730094],[5.84740833,45.57907775],[5.84710529,45.57949811],[5.84678493,45.57943144],[5.8460875,45.57891838],[5.84475797,45.57843933],[5.84429827,45.57808243],[5.8440164,45.57799045],[5.84253117,45.57795233],[5.84202286,45.57787328],[5.84105597,45.57803468],[5.8400485,45.57797995],[5.83969812,45.57752746],[5.83929582,45.57733849],[5.83884915,45.57723534],[5.83827823,45.5768605],[5.83727572,45.57637582],[5.83713823,45.57619637],[5.83713198,45.575573],[5.83662085,45.57488668],[5.83642079,45.57481334],[5.83514649,45.57478332],[5.83443904,45.57479846],[5.8335896,45.57507308],[5.83247777,45.57508399],[5.83240478,45.57491102],[5.83180734,45.57476929],[5.83129505,45.57571659],[5.83072205,45.57600314],[5.82324762,45.57483146],[5.8239556,45.57898194],[5.81878148,45.5795254],[5.81700659,45.57911487],[5.81920239,45.58439493],[5.81835616,45.58970802],[5.8153384,45.60647018],[5.81500972,45.60722718],[5.81483872,45.60798023],[5.81491481,45.61339364],[5.81493083,45.61408795],[5.81554122,45.61457816],[5.81541888,45.61487407],[5.81588649,45.61520746],[5.81634103,45.61621788],[5.81635155,45.61647531],[5.81678395,45.61702494],[5.81695325,45.61747573],[5.81701146,45.61755987],[5.81771439,45.61752064],[5.81955537,45.61748982],[5.82382787,45.61712403],[5.8283868,45.61683648],[5.83259035,45.61642974],[5.83621583,45.61616897],[5.84032942,45.61541189],[5.84258259,45.6153829],[5.84276891,45.61543586],[5.84283078,45.61554062],[5.84348351,45.61559981],[5.84373419,45.61505554],[5.84436511,45.61509004],[5.84507811,45.61554777],[5.84573109,45.61563668],[5.84644546,45.61597091],[5.84653115,45.61606426],[5.84643491,45.61649019],[5.84657685,45.61650372],[5.84736641,45.61650176],[5.84733695,45.61585374],[5.84836018,45.61590171],[5.84827713,45.61526046],[5.84901495,45.61522645],[5.84905587,45.61502358],[5.84920027,45.61493522],[5.84917973,45.61523489],[5.84926295,45.6153301],[5.84998404,45.61551998],[5.85013584,45.61565039],[5.85016557,45.61582895],[5.84996368,45.6161224],[5.8502223,45.61603295],[5.85032929,45.61581669],[5.85067903,45.61562671],[5.85085006,45.61590621],[5.85128994,45.61589596],[5.85124525,45.61542674],[5.85205214,45.61563695],[5.8517424,45.61600523],[5.85173132,45.6161641],[5.85251952,45.6168091],[5.85264474,45.61719609],[5.85254802,45.61766169],[5.85282991,45.61832313],[5.85301295,45.61866089],[5.85393123,45.619736],[5.85398754,45.62020583],[5.85434354,45.62110867],[5.85425959,45.62147303],[5.85440743,45.6218252],[5.85489083,45.6220355],[5.85489099,45.62248693],[5.85510519,45.62273109],[5.85547359,45.62364984],[5.85581921,45.6237528],[5.85613456,45.62421515],[5.85659377,45.62445398],[5.85677907,45.62520798],[5.85649058,45.62554059],[5.85673644,45.62597497],[5.85685937,45.62649086],[5.85734225,45.62693905],[5.85736709,45.62714656],[5.85828053,45.62857138],[5.85850446,45.62917751],[5.85896448,45.62950553],[5.85895933,45.63074914],[5.85874968,45.63141495],[5.85879149,45.63165267],[5.85946479,45.63399636],[5.86009844,45.63499937],[5.86010218,45.63626528],[5.85995692,45.63715833],[5.86014133,45.63771951],[5.85974505,45.63837836],[5.85970081,45.64045645],[5.85997835,45.64102969],[5.86023221,45.64119444],[5.86077874,45.64137968],[5.86073515,45.64177907],[5.86084624,45.64223849],[5.86077127,45.64235393],[5.8609438,45.64243605],[5.86114871,45.64160365],[5.86159565,45.64162653],[5.86174594,45.6412785],[5.86195254,45.64134893],[5.86302352,45.64084502],[5.86304666,45.64176443],[5.86401841,45.64162706],[5.86430936,45.64201162],[5.86880487,45.63952096],[5.86933139,45.63860106],[5.87220497,45.63914768],[5.87319772,45.63904484],[5.87380121,45.64005485],[5.87587865,45.63936832],[5.87792233,45.63929353],[5.87961036,45.63907373],[5.87997747,45.63914273],[5.88218669,45.63916366],[5.88492667,45.64007652],[5.88584857,45.63863908],[5.88605408,45.63789942],[5.88642215,45.63751873],[5.88675454,45.63665057],[5.88402655,45.63611321],[5.88417971,45.63592186],[5.88464936,45.63574041],[5.88464768,45.63154141],[5.88298229,45.63154986],[5.88293031,45.63124213],[5.88103122,45.63135025],[5.88052081,45.63020453],[5.87911553,45.63017562],[5.87881422,45.62892543],[5.87860048,45.62842089],[5.87784467,45.62865558],[5.87619347,45.62839145],[5.87615532,45.62822572],[5.8750036,45.62815695],[5.87492503,45.62837521],[5.87439282,45.62836538],[5.87367477,45.62821433],[5.87436229,45.62710916],[5.87421569,45.62648666],[5.87415774,45.6251969],[5.87397355,45.62469159],[5.8756255,45.62284542],[5.87837547,45.62036109],[5.88071483,45.61786199],[5.88280008,45.61647947],[5.8830872,45.61597651],[5.88317911,45.61490548],[5.88408757,45.61501734],[5.88595466,45.61171835],[5.88896492,45.60688335],[5.88698661,45.60577537],[5.88540432,45.60497347],[5.88397854,45.60434145],[5.88305471,45.60398038],[5.88124276,45.60337625],[5.87948396,45.60297887],[5.87829628,45.60280113],[5.87713562,45.60269838],[5.87606663,45.60265544],[5.87464509,45.6026954],[5.8733662,45.60281279],[5.87218238,45.60300613],[5.87092392,45.60329507],[5.86837344,45.6040684],[5.8672293,45.60433456],[5.86611921,45.60448992],[5.86525045,45.60452107],[5.86442148,45.60450254],[5.86301846,45.60435535],[5.86193209,45.6041253],[5.86089342,45.60379942],[5.85998631,45.6034107],[5.8595311,45.60317178],[5.85868718,45.60263908],[5.8579473,45.60203255],[5.85729766,45.60133361],[5.85682345,45.60065094],[5.85647938,45.59997757],[5.85623169,45.59918192],[5.8560493,45.5979593],[5.85599455,45.59694699],[5.85605597,45.59562356],[5.85628466,45.593885],[5.85653774,45.59207194],[5.85664057,45.5909547],[5.85666687,45.59004576],[5.85649554,45.58824077],[5.85631997,45.58732435],[5.85599912,45.58620346],[5.85577074,45.58555689],[5.85537941,45.58468649],[5.85472352,45.58366242],[5.8539636,45.58281039],[5.85440525,45.58261536],[5.85467162,45.58260499],[5.85510967,45.58271371],[5.85849699,45.58375124],[5.85877418,45.58387575],[5.85911588,45.5841563],[5.86003316,45.58467361],[5.86052628,45.58500347],[5.86078592,45.58508606],[5.86217027,45.58522923],[5.86354054,45.58589447],[5.86407699,45.58604389],[5.8643266,45.58605645],[5.86473975,45.58600538],[5.86528074,45.58606908],[5.86560227,45.58603295],[5.86571309,45.5860914],[5.86577533,45.586079],[5.86582795,45.58600467],[5.86602954,45.58600674],[5.86650661,45.5859261],[5.86818199,45.58541841],[5.86876675,45.58538546],[5.86974619,45.5853911],[5.87010863,45.58535211],[5.87024252,45.58536041],[5.87089733,45.58568879],[5.87224869,45.58598677],[5.87294225,45.58636912],[5.87328384,45.58649735],[5.87378102,45.58658196],[5.87447317,45.58659039],[5.87520313,45.58651135],[5.87606089,45.58629838],[5.87664877,45.58622657],[5.87683816,45.58616676],[5.8772386,45.58592043],[5.87784208,45.58528414],[5.87795926,45.58524239]]]]}}]}
