{"type":"FeatureCollection","metadata":{"generatedAt":"2026-07-14T16:01:41.654Z","source":"IGN / INSEE - Contours IRIS WFS Géoplateforme","datasetId":"STATISTICALUNITS.IRIS:contours_iris","datasetUrl":"https://geoservices.ign.fr/contoursiris","sourceFileUrl":"https://data.geopf.fr/wfs/ows?SERVICE=WFS&VERSION=2.0.0&REQUEST=GetFeature&TYPENAMES=STATISTICALUNITS.IRIS%3Acontours_iris&OUTPUTFORMAT=application%2Fjson&COUNT=1000&CQL_FILTER=code_insee%3D%2783126%27&SRSNAME=EPSG%3A4326","license":"Licence Ouverte / Open Licence 2.0","sourceYear":"2026","communeCode":"83126","communeName":"La Seyne-sur-Mer","featureCount":25,"parentCount":1,"parentContract":"technical commune group; not selectable and not displayed as a district","bbox":[5.84645905,43.0458403,5.91127382,43.12159681],"areaStatsM2":{"minimum":77305.29541015625,"average":932932.1878125,"maximum":6592661.074462891}},"features":[{"type":"Feature","id":"la_seyne_sur_mer_831260101_centre_ville_peyron","properties":{"zoneId":"la_seyne_sur_mer_831260101_centre_ville_peyron","label":"Centre Ville-Peyron","districtCode":"831260101","arrondissementCode":"83126","colorIndex":0,"parentZoneId":"la_seyne_sur_mer_parent_83126_la_seyne_sur_mer","parentCode":"83126","parentLabel":"La Seyne-sur-Mer","territoryType":"iris","source":"IGN / INSEE - Contours IRIS WFS Géoplateforme","sourceYear":"2026","officialId":"831260101","sourceCleabs":"IRIS____0000000831260101","communeCode":"83126","communeName":"La Seyne-sur-Mer","irisCode":"0101","irisType":"H","officialAreaM2":279269.6579589844,"labelLng":5.878577566425078,"labelLat":43.103987411539066,"bbox":[5.87422561,43.10073778,5.88420485,43.10772024]},"geometry":{"type":"MultiPolygon","coordinates":[[[[5.88158126,43.10652865],[5.88152899,43.10644095],[5.88420485,43.10430828],[5.88401413,43.10417838],[5.8839374,43.10424074],[5.88359988,43.10424617],[5.88219503,43.10504159],[5.88207216,43.10494228],[5.88088681,43.10573091],[5.88055376,43.10570291],[5.88014993,43.10556071],[5.88040054,43.10506799],[5.88050331,43.10518315],[5.88184356,43.10429858],[5.88182331,43.10421271],[5.88162732,43.10414956],[5.88252751,43.10328395],[5.88245745,43.10323362],[5.88257254,43.10315224],[5.88269361,43.1032156],[5.88291492,43.10299817],[5.88269394,43.10287718],[5.88246387,43.10301744],[5.88140616,43.10232393],[5.88122793,43.10227199],[5.88111324,43.10243526],[5.88016508,43.10211591],[5.87958382,43.10203605],[5.87990958,43.10144953],[5.88009251,43.10122593],[5.88053384,43.10086402],[5.88050913,43.10073778],[5.87948714,43.10108101],[5.87879533,43.10122281],[5.87754915,43.10140551],[5.87730605,43.10148131],[5.87422561,43.10284068],[5.87491405,43.10421194],[5.87550273,43.10407022],[5.87622695,43.10519661],[5.87564929,43.10551084],[5.87683918,43.10713332],[5.87703959,43.10753207],[5.87754276,43.10772024],[5.87806413,43.1071879],[5.87831685,43.10686074],[5.87891733,43.10527775],[5.88094672,43.10599661],[5.88110416,43.1060995],[5.88117069,43.10627593],[5.88158126,43.10652865]]]]}},{"type":"Feature","id":"la_seyne_sur_mer_831260102_quatre_moulins","properties":{"zoneId":"la_seyne_sur_mer_831260102_quatre_moulins","label":"Quatre Moulins","districtCode":"831260102","arrondissementCode":"83126","colorIndex":1,"parentZoneId":"la_seyne_sur_mer_parent_83126_la_seyne_sur_mer","parentCode":"83126","parentLabel":"La Seyne-sur-Mer","territoryType":"iris","source":"IGN / INSEE - Contours IRIS WFS Géoplateforme","sourceYear":"2026","officialId":"831260102","sourceCleabs":"IRIS____0000000831260102","communeCode":"83126","communeName":"La Seyne-sur-Mer","irisCode":"0102","irisType":"H","officialAreaM2":516820.6123046875,"labelLng":5.8745804093741825,"labelLat":43.09868169653775,"bbox":[5.86835181,43.09430965,5.88245151,43.10284068]},"geometry":{"type":"MultiPolygon","coordinates":[[[[5.87106608,43.1007046],[5.87163753,43.10090897],[5.87272049,43.1013967],[5.87353687,43.10158643],[5.8738206,43.10203157],[5.87422561,43.10284068],[5.87730605,43.10148131],[5.87754915,43.10140551],[5.87879533,43.10122281],[5.87948714,43.10108101],[5.88050913,43.10073778],[5.88101446,43.10045246],[5.88105963,43.10024964],[5.88140932,43.09989738],[5.88195782,43.09919689],[5.882116,43.09887135],[5.88245151,43.09890017],[5.88204739,43.09870218],[5.88161713,43.0986696],[5.88158025,43.09839788],[5.88148949,43.0984003],[5.88147956,43.09837357],[5.87982421,43.09855105],[5.87980312,43.09849761],[5.87937832,43.09857467],[5.87928465,43.09834587],[5.87884663,43.09805877],[5.87867676,43.0975575],[5.87860855,43.09747022],[5.87760405,43.09739896],[5.87728664,43.09714104],[5.87678391,43.09691056],[5.87671062,43.09677032],[5.87671003,43.09653633],[5.87605291,43.09653498],[5.87565662,43.09637005],[5.87423721,43.09610464],[5.87356969,43.09584435],[5.87258499,43.09597322],[5.87226719,43.09597899],[5.87177469,43.09592912],[5.87197231,43.09498694],[5.87089666,43.09469341],[5.87063872,43.09451939],[5.87047111,43.09430965],[5.87033676,43.09434923],[5.87023645,43.09455531],[5.8701801,43.09458291],[5.86860312,43.09463033],[5.86860617,43.09506315],[5.86865482,43.09525176],[5.86863591,43.09628187],[5.86858988,43.0963938],[5.86835726,43.0966313],[5.86835181,43.09671965],[5.86842582,43.09680048],[5.86905052,43.09708894],[5.86963374,43.09763051],[5.87009782,43.09856766],[5.87055446,43.09920621],[5.87055382,43.09971293],[5.87064463,43.10015692],[5.87106608,43.1007046]]]]}},{"type":"Feature","id":"la_seyne_sur_mer_831260103_la_lune_mouisseques","properties":{"zoneId":"la_seyne_sur_mer_831260103_la_lune_mouisseques","label":"La Lune-Mouissèques","districtCode":"831260103","arrondissementCode":"83126","colorIndex":2,"parentZoneId":"la_seyne_sur_mer_parent_83126_la_seyne_sur_mer","parentCode":"83126","parentLabel":"La Seyne-sur-Mer","territoryType":"iris","source":"IGN / INSEE - Contours IRIS WFS Géoplateforme","sourceYear":"2026","officialId":"831260103","sourceCleabs":"IRIS____0000000831260103","communeCode":"83126","communeName":"La Seyne-sur-Mer","irisCode":"0103","irisType":"H","officialAreaM2":462977.8291015625,"labelLng":5.8877970924877,"labelLat":43.100980496805185,"bbox":[5.87958382,43.09868819,5.89484894,43.103738]},"geometry":{"type":"MultiPolygon","coordinates":[[[[5.88140616,43.10232393],[5.8814913,43.10218394],[5.88152774,43.10217577],[5.88151532,43.1021482],[5.88230026,43.10091757],[5.88301551,43.10114773],[5.88325368,43.10136726],[5.88296179,43.10268191],[5.88357955,43.10275448],[5.88529436,43.10317567],[5.88653246,43.1033477],[5.8865644,43.10349535],[5.88749621,43.10346138],[5.88758494,43.103738],[5.88775436,43.10373616],[5.88763564,43.1020473],[5.88784651,43.10169513],[5.88804986,43.10168428],[5.88832368,43.10202705],[5.8884755,43.10371413],[5.88871766,43.10369323],[5.88875809,43.10361745],[5.88880882,43.10310847],[5.88872107,43.1023845],[5.88913063,43.10237082],[5.88929175,43.10340783],[5.88940434,43.10339941],[5.88927146,43.10238684],[5.88971373,43.10236418],[5.88987598,43.10334985],[5.8942835,43.1028913],[5.89436514,43.10224019],[5.89481591,43.10221547],[5.89484894,43.10184468],[5.89420677,43.10170173],[5.89400125,43.09963179],[5.89402578,43.09936112],[5.89190733,43.09907061],[5.89123618,43.09874032],[5.89022768,43.09868819],[5.88725394,43.09890385],[5.88497701,43.09900536],[5.88433193,43.09902444],[5.88396737,43.0991026],[5.88380208,43.09894052],[5.8835933,43.09886691],[5.88245151,43.09890017],[5.882116,43.09887135],[5.88195782,43.09919689],[5.88140932,43.09989738],[5.88105963,43.10024964],[5.88101446,43.10045246],[5.88050913,43.10073778],[5.88053384,43.10086402],[5.88009251,43.10122593],[5.87990958,43.10144953],[5.87958382,43.10203605],[5.88016508,43.10211591],[5.88111324,43.10243526],[5.88122793,43.10227199],[5.88140616,43.10232393]]]]}},{"type":"Feature","id":"la_seyne_sur_mer_831260201_balaguier_aiguillette","properties":{"zoneId":"la_seyne_sur_mer_831260201_balaguier_aiguillette","label":"Balaguier-Aiguillette","districtCode":"831260201","arrondissementCode":"83126","colorIndex":3,"parentZoneId":"la_seyne_sur_mer_parent_83126_la_seyne_sur_mer","parentCode":"83126","parentLabel":"La Seyne-sur-Mer","territoryType":"iris","source":"IGN / INSEE - Contours IRIS WFS Géoplateforme","sourceYear":"2026","officialId":"831260201","sourceCleabs":"IRIS____0000000831260201","communeCode":"83126","communeName":"La Seyne-sur-Mer","irisCode":"0201","irisType":"H","officialAreaM2":992185.8315429688,"labelLng":5.90239809749384,"labelLat":43.09939709472974,"bbox":[5.89400125,43.0922217,5.91127382,43.10557821]},"geometry":{"type":"MultiPolygon","coordinates":[[[[5.8942835,43.1028913],[5.89527325,43.1027882],[5.89552101,43.10290394],[5.89549051,43.10379129],[5.89678788,43.10382121],[5.89678839,43.1038806],[5.89699974,43.10388212],[5.89700417,43.1038235],[5.89939768,43.1039121],[5.89960451,43.10450956],[5.89598922,43.10521433],[5.89607992,43.10557821],[5.90177923,43.10452119],[5.90238989,43.10423113],[5.90360267,43.10345682],[5.90391082,43.10347821],[5.9040329,43.10358563],[5.90376414,43.10329676],[5.90392594,43.1032168],[5.90442043,43.10372008],[5.90418202,43.1033998],[5.90430425,43.1033389],[5.9043455,43.10335309],[5.90434501,43.1033189],[5.90607922,43.1024603],[5.90631522,43.10278154],[5.90649765,43.10284322],[5.90584145,43.10195729],[5.90605813,43.10186955],[5.90629401,43.10216379],[5.90649483,43.10207827],[5.90664131,43.10235333],[5.90656664,43.10260285],[5.9066677,43.10268293],[5.90682473,43.10260579],[5.90687653,43.10241448],[5.90669978,43.10185493],[5.90688124,43.10179963],[5.906955,43.10187414],[5.90699894,43.10184416],[5.90821131,43.10135691],[5.90812866,43.10122774],[5.90857806,43.1011517],[5.90899373,43.10084437],[5.90947885,43.10069716],[5.90979047,43.10078774],[5.91034003,43.1007252],[5.91060233,43.1005678],[5.91053575,43.10024559],[5.91038304,43.09999321],[5.9100728,43.09980808],[5.91007077,43.09976764],[5.90997173,43.09977661],[5.909626,43.09971575],[5.90964688,43.09976469],[5.90959263,43.09978505],[5.90897616,43.09949389],[5.90804477,43.09924183],[5.90779869,43.09908647],[5.90749916,43.09852754],[5.90730711,43.09761469],[5.9075227,43.09628403],[5.90757695,43.09626367],[5.90754952,43.0962311],[5.90789534,43.09556115],[5.90816001,43.0954514],[5.90824993,43.09552997],[5.90854222,43.09523677],[5.90878208,43.09514659],[5.90887133,43.09518738],[5.90910794,43.09503248],[5.90949122,43.09508333],[5.91009398,43.09495634],[5.91016343,43.09499407],[5.91019728,43.09493465],[5.91061138,43.09489016],[5.910646,43.09482172],[5.91079987,43.09497507],[5.91080119,43.09475723],[5.9112502,43.09457678],[5.91127382,43.09431424],[5.91092249,43.09423913],[5.91051791,43.09376495],[5.9104233,43.09376391],[5.91043003,43.09372682],[5.91038631,43.0936146],[5.91062862,43.09350005],[5.91045943,43.09326162],[5.91009796,43.09322908],[5.90996685,43.09330823],[5.9079355,43.09296438],[5.90727088,43.09293553],[5.90642729,43.0932553],[5.90598778,43.09308716],[5.90594137,43.09306771],[5.90589224,43.09316534],[5.90612058,43.09316368],[5.90618664,43.0934274],[5.90597382,43.09346915],[5.9059572,43.09345609],[5.90594665,43.09346628],[5.90573826,43.0934494],[5.90534424,43.09335563],[5.90544428,43.09317113],[5.90572777,43.09311848],[5.90498641,43.09317538],[5.90437905,43.09279485],[5.90430536,43.09284364],[5.9033543,43.09271087],[5.90223901,43.09231522],[5.90200221,43.0922217],[5.90206595,43.09231719],[5.90310271,43.09271406],[5.90440017,43.09294638],[5.90460573,43.09302904],[5.90525261,43.0934139],[5.90560847,43.09350601],[5.90612197,43.09353355],[5.90597107,43.09400114],[5.90555711,43.09463512],[5.90489388,43.09492752],[5.90450301,43.09504337],[5.90425373,43.0952886],[5.90408609,43.09537412],[5.90387965,43.09532299],[5.90351014,43.09513044],[5.90272114,43.09521741],[5.90252527,43.09520559],[5.90086076,43.09480582],[5.90013569,43.09482085],[5.90006401,43.09495868],[5.90007146,43.0956218],[5.90021697,43.09582939],[5.9006705,43.09603228],[5.90073346,43.09613679],[5.90072901,43.09626831],[5.90057138,43.09638236],[5.89964384,43.09640104],[5.89935005,43.09644495],[5.89895838,43.0965941],[5.89872092,43.09675709],[5.89856481,43.096926],[5.89810075,43.09764051],[5.89778827,43.09843914],[5.89775948,43.09882062],[5.89750758,43.0988427],[5.8961028,43.09921619],[5.89402578,43.09936112],[5.89400125,43.09963179],[5.89420677,43.10170173],[5.89484894,43.10184468],[5.89481591,43.10221547],[5.89436514,43.10224019],[5.8942835,43.1028913]]]]}},{"type":"Feature","id":"la_seyne_sur_mer_831260202_le_manteau_tamaris","properties":{"zoneId":"la_seyne_sur_mer_831260202_le_manteau_tamaris","label":"Le Manteau-Tamaris","districtCode":"831260202","arrondissementCode":"83126","colorIndex":4,"parentZoneId":"la_seyne_sur_mer_parent_83126_la_seyne_sur_mer","parentCode":"83126","parentLabel":"La Seyne-sur-Mer","territoryType":"iris","source":"IGN / INSEE - Contours IRIS WFS Géoplateforme","sourceYear":"2026","officialId":"831260202","sourceCleabs":"IRIS____0000000831260202","communeCode":"83126","communeName":"La Seyne-sur-Mer","irisCode":"0202","irisType":"H","officialAreaM2":504864.1989746094,"labelLng":5.897626671899685,"labelLat":43.09525928510109,"bbox":[5.89022768,43.09172798,5.90612197,43.09936112]},"geometry":{"type":"MultiPolygon","coordinates":[[[[5.89022768,43.09868819],[5.89123618,43.09874032],[5.89190733,43.09907061],[5.89402578,43.09936112],[5.8961028,43.09921619],[5.89750758,43.0988427],[5.89775948,43.09882062],[5.89778827,43.09843914],[5.89810075,43.09764051],[5.89856481,43.096926],[5.89872092,43.09675709],[5.89895838,43.0965941],[5.89935005,43.09644495],[5.89964384,43.09640104],[5.90057138,43.09638236],[5.90072901,43.09626831],[5.90073346,43.09613679],[5.9006705,43.09603228],[5.90021697,43.09582939],[5.90007146,43.0956218],[5.90006401,43.09495868],[5.90013569,43.09482085],[5.90086076,43.09480582],[5.90252527,43.09520559],[5.90272114,43.09521741],[5.90351014,43.09513044],[5.90387965,43.09532299],[5.90408609,43.09537412],[5.90425373,43.0952886],[5.90450301,43.09504337],[5.90489388,43.09492752],[5.90555711,43.09463512],[5.90597107,43.09400114],[5.90612197,43.09353355],[5.90560847,43.09350601],[5.90525261,43.0934139],[5.90460573,43.09302904],[5.90440017,43.09294638],[5.90310271,43.09271406],[5.90206595,43.09231719],[5.89961594,43.09251278],[5.89864513,43.09262262],[5.8973617,43.09225305],[5.89607082,43.09193046],[5.89396072,43.09172798],[5.89374733,43.09173371],[5.89309147,43.09185484],[5.89128762,43.09237399],[5.89169966,43.09243583],[5.89276065,43.09248384],[5.89320429,43.09256372],[5.89414208,43.09302093],[5.89480975,43.0932829],[5.89495993,43.09336346],[5.89504308,43.09347913],[5.89506834,43.09386096],[5.89498601,43.09398287],[5.89505841,43.09410423],[5.89505872,43.09430673],[5.8948694,43.09474473],[5.89483001,43.0952336],[5.89478752,43.09516994],[5.89469114,43.09515813],[5.89435679,43.09529942],[5.89343079,43.09552051],[5.89432377,43.09756026],[5.89338237,43.09727775],[5.89279508,43.09688042],[5.89187774,43.09742256],[5.89092862,43.09772255],[5.89022768,43.09868819]]]]}},{"type":"Feature","id":"la_seyne_sur_mer_831260203_fort_napoleon_fontainebleau","properties":{"zoneId":"la_seyne_sur_mer_831260203_fort_napoleon_fontainebleau","label":"Fort Napoléon-Fontainebleau","districtCode":"831260203","arrondissementCode":"83126","colorIndex":5,"parentZoneId":"la_seyne_sur_mer_parent_83126_la_seyne_sur_mer","parentCode":"83126","parentLabel":"La Seyne-sur-Mer","territoryType":"iris","source":"IGN / INSEE - Contours IRIS WFS Géoplateforme","sourceYear":"2026","officialId":"831260203","sourceCleabs":"IRIS____0000000831260203","communeCode":"83126","communeName":"La Seyne-sur-Mer","irisCode":"0203","irisType":"H","officialAreaM2":454004.25146484375,"labelLng":5.889811677253711,"labelLat":43.095258186046784,"bbox":[5.88479901,43.09008603,5.89506834,43.09900536]},"geometry":{"type":"MultiPolygon","coordinates":[[[[5.88791613,43.09115943],[5.88762064,43.09200526],[5.88734295,43.09249422],[5.88725447,43.0927882],[5.88712239,43.09356215],[5.88712098,43.09429661],[5.8858497,43.09628642],[5.88542682,43.09686926],[5.88507572,43.09721708],[5.88497526,43.09773908],[5.88479901,43.09814521],[5.88495534,43.09866933],[5.88497701,43.09900536],[5.88725394,43.09890385],[5.89022768,43.09868819],[5.89092862,43.09772255],[5.89187774,43.09742256],[5.89279508,43.09688042],[5.89338237,43.09727775],[5.89432377,43.09756026],[5.89343079,43.09552051],[5.89435679,43.09529942],[5.89469114,43.09515813],[5.89478752,43.09516994],[5.89483001,43.0952336],[5.8948694,43.09474473],[5.89505872,43.09430673],[5.89505841,43.09410423],[5.89498601,43.09398287],[5.89506834,43.09386096],[5.89504308,43.09347913],[5.89495993,43.09336346],[5.89480975,43.0932829],[5.89414208,43.09302093],[5.89320429,43.09256372],[5.89276065,43.09248384],[5.89169966,43.09243583],[5.89128762,43.09237399],[5.89073483,43.09254273],[5.89046208,43.09219634],[5.88997809,43.09214453],[5.88967813,43.09199058],[5.88961535,43.09191396],[5.88958901,43.09168156],[5.889887,43.09068985],[5.88971037,43.09034988],[5.88948106,43.09008603],[5.88921118,43.09060808],[5.88862852,43.09062101],[5.88851844,43.09065456],[5.88805209,43.09098028],[5.88791613,43.09115943]]]]}},{"type":"Feature","id":"la_seyne_sur_mer_831260204_evescat_gaumin","properties":{"zoneId":"la_seyne_sur_mer_831260204_evescat_gaumin","label":"Évescat-Gaumin","districtCode":"831260204","arrondissementCode":"83126","colorIndex":6,"parentZoneId":"la_seyne_sur_mer_parent_83126_la_seyne_sur_mer","parentCode":"83126","parentLabel":"La Seyne-sur-Mer","territoryType":"iris","source":"IGN / INSEE - Contours IRIS WFS Géoplateforme","sourceYear":"2026","officialId":"831260204","sourceCleabs":"IRIS____0000000831260204","communeCode":"83126","communeName":"La Seyne-sur-Mer","irisCode":"0204","irisType":"H","officialAreaM2":507090.4777832031,"labelLng":5.882982123880295,"labelLat":43.0946290455507,"bbox":[5.87728664,43.08976886,5.88791613,43.0991026]},"geometry":{"type":"MultiPolygon","coordinates":[[[[5.88791613,43.09115943],[5.88706748,43.09108408],[5.88645376,43.09121303],[5.88616783,43.09121709],[5.88607525,43.09115837],[5.88591971,43.09077284],[5.8857553,43.09052974],[5.88561393,43.09042822],[5.88514309,43.09036884],[5.88470915,43.09035976],[5.88350309,43.09011036],[5.88276957,43.09007779],[5.88160108,43.08976886],[5.88155771,43.08983482],[5.88139066,43.08988339],[5.88128774,43.09107147],[5.88122996,43.09126741],[5.88069916,43.09227253],[5.88064555,43.09252777],[5.88067669,43.09268444],[5.88095373,43.09316753],[5.88227307,43.09401335],[5.88031996,43.09474421],[5.87975679,43.09426157],[5.87932458,43.09409042],[5.87882838,43.09396598],[5.87876068,43.0942837],[5.87896358,43.09428907],[5.87861653,43.09548367],[5.87825977,43.09559491],[5.87820709,43.09651073],[5.8773765,43.09637992],[5.87728664,43.09714104],[5.87760405,43.09739896],[5.87860855,43.09747022],[5.87867676,43.0975575],[5.87884663,43.09805877],[5.87928465,43.09834587],[5.87937832,43.09857467],[5.87980312,43.09849761],[5.87982421,43.09855105],[5.88147956,43.09837357],[5.88148949,43.0984003],[5.88158025,43.09839788],[5.88161713,43.0986696],[5.88204739,43.09870218],[5.88245151,43.09890017],[5.8835933,43.09886691],[5.88380208,43.09894052],[5.88396737,43.0991026],[5.88433193,43.09902444],[5.88497701,43.09900536],[5.88495534,43.09866933],[5.88479901,43.09814521],[5.88497526,43.09773908],[5.88507572,43.09721708],[5.88542682,43.09686926],[5.8858497,43.09628642],[5.88712098,43.09429661],[5.88712239,43.09356215],[5.88725447,43.0927882],[5.88734295,43.09249422],[5.88762064,43.09200526],[5.88791613,43.09115943]]]]}},{"type":"Feature","id":"la_seyne_sur_mer_831260301_oide_verne_janas_gabrielles_plan_d_aub_terres_gastes","properties":{"zoneId":"la_seyne_sur_mer_831260301_oide_verne_janas_gabrielles_plan_d_aub_terres_gastes","label":"Oide-Verne-Janas-Gabrielles-Plan d'Aub-Terres Gastes","districtCode":"831260301","arrondissementCode":"83126","colorIndex":7,"parentZoneId":"la_seyne_sur_mer_parent_83126_la_seyne_sur_mer","parentCode":"83126","parentLabel":"La Seyne-sur-Mer","territoryType":"iris","source":"IGN / INSEE - Contours IRIS WFS Géoplateforme","sourceYear":"2026","officialId":"831260301","sourceCleabs":"IRIS____0000000831260301","communeCode":"83126","communeName":"La Seyne-sur-Mer","irisCode":"0301","irisType":"H","officialAreaM2":6592661.074462891,"labelLng":5.859526930517157,"labelLat":43.06713217878962,"bbox":[5.84645905,43.0458403,5.88628774,43.08319861]},"geometry":{"type":"MultiPolygon","coordinates":[[[[5.86846226,43.04867588],[5.86862474,43.04858696],[5.86865294,43.04828921],[5.86846754,43.04803946],[5.86809657,43.04800705],[5.86818536,43.04813968],[5.86790516,43.04835414],[5.86819181,43.04861649],[5.86846226,43.04867588]]],[[[5.86847254,43.049131],[5.86865949,43.04899102],[5.86840415,43.04874133],[5.86814328,43.04867719],[5.86797801,43.04868519],[5.86789177,43.04897548],[5.86797198,43.04910834],[5.86825841,43.0492672],[5.86825808,43.04913671],[5.86847254,43.049131]]],[[[5.88623309,43.07615817],[5.88615264,43.07599743],[5.88551743,43.07539705],[5.88548626,43.07509188],[5.88529599,43.07482158],[5.88515628,43.07472812],[5.885011,43.07476892],[5.88438103,43.07424849],[5.8841483,43.07420973],[5.88379324,43.07395824],[5.88382646,43.07351635],[5.88368233,43.07345721],[5.88377426,43.07335575],[5.883625,43.07324274],[5.88353531,43.07292115],[5.88345742,43.07288543],[5.88339861,43.07288791],[5.88335587,43.07284315],[5.88319618,43.07284113],[5.88319241,43.07276563],[5.8829716,43.07276884],[5.88297439,43.07260317],[5.88287742,43.07257876],[5.88289112,43.0725334],[5.88273144,43.07238377],[5.88251019,43.0726246],[5.88197768,43.07277835],[5.88192546,43.07271585],[5.88178676,43.07288876],[5.88156451,43.07286321],[5.88134898,43.07297248],[5.88080371,43.07287007],[5.88081114,43.07277267],[5.88064393,43.07286625],[5.88025729,43.07274429],[5.87954497,43.07199835],[5.87966894,43.07180063],[5.87955678,43.07174243],[5.87939951,43.07178894],[5.87908166,43.07161834],[5.87901968,43.071557],[5.87915369,43.07141301],[5.87909647,43.07137314],[5.87895373,43.07146516],[5.87886942,43.07139902],[5.87903702,43.07121454],[5.87892185,43.07124371],[5.87891184,43.07126468],[5.87893921,43.07127205],[5.87894483,43.0712863],[5.87877226,43.07127202],[5.8783268,43.07095453],[5.87837838,43.07078215],[5.87833227,43.07081758],[5.87783492,43.07061668],[5.87773592,43.07040332],[5.87759928,43.07037098],[5.8775989,43.07033859],[5.87753537,43.07034479],[5.87722164,43.06998507],[5.87715069,43.07001487],[5.87677257,43.06971807],[5.87666957,43.06952283],[5.87671579,43.06941539],[5.87627436,43.06942539],[5.87619923,43.0693464],[5.87618615,43.06930535],[5.87604927,43.0693423],[5.87582556,43.06928708],[5.8755216,43.069099],[5.8755402,43.069004],[5.87530216,43.06888256],[5.87529716,43.0687819],[5.87513028,43.06880795],[5.87510637,43.06889499],[5.87487175,43.06886706],[5.87442597,43.06903646],[5.87389929,43.06955452],[5.87315843,43.06971469],[5.87291347,43.06972573],[5.87241662,43.06960849],[5.87226513,43.06952433],[5.87218094,43.06933668],[5.87201022,43.06933493],[5.87172354,43.06912388],[5.87173658,43.06901553],[5.87152761,43.06878711],[5.87159815,43.06845223],[5.87173467,43.06840809],[5.8717344,43.0684027],[5.87169143,43.06837774],[5.87168453,43.06821413],[5.87202319,43.0679639],[5.87213964,43.06756479],[5.872042,43.0673784],[5.87204935,43.06708121],[5.87195696,43.06707467],[5.87192865,43.06694943],[5.8719437,43.06693103],[5.87192241,43.06692259],[5.87190602,43.06681503],[5.87203975,43.06664047],[5.871996,43.06657503],[5.87211363,43.0665215],[5.87200452,43.06632641],[5.87214884,43.06624156],[5.87201533,43.06607412],[5.87209734,43.06594594],[5.87201554,43.06573212],[5.87207293,43.06567659],[5.87166225,43.06529155],[5.8713385,43.06544598],[5.87122518,43.06538871],[5.87072807,43.06551266],[5.87026714,43.06527746],[5.86995399,43.06490331],[5.86980701,43.06453824],[5.86957822,43.06450383],[5.86924934,43.0643074],[5.86860047,43.06369741],[5.86842319,43.06311714],[5.86815608,43.06275526],[5.86817214,43.06238584],[5.86798003,43.06227396],[5.86774235,43.0619113],[5.86717001,43.06173035],[5.86677512,43.06151407],[5.86545126,43.06043334],[5.86518219,43.05998151],[5.86532195,43.05968079],[5.86526313,43.05948436],[5.8649878,43.05930269],[5.86458872,43.05917472],[5.8641987,43.0588827],[5.86400814,43.05865288],[5.86415201,43.05828636],[5.86399635,43.058241],[5.86388202,43.05803885],[5.86343712,43.05797688],[5.86296498,43.05761235],[5.86270397,43.057298],[5.86273416,43.05681661],[5.8624993,43.05663386],[5.862419,43.056375],[5.86208143,43.05605098],[5.86205396,43.05571872],[5.86214479,43.05554531],[5.8619312,43.05546999],[5.86187764,43.05525542],[5.86201437,43.05511679],[5.86186297,43.05495882],[5.8619713,43.05476694],[5.86191175,43.05438154],[5.86198709,43.05421754],[5.86203904,43.05420085],[5.86201139,43.05416289],[5.86191857,43.05342738],[5.86227337,43.05305795],[5.86232599,43.05283156],[5.86236724,43.05279716],[5.86233189,43.0527522],[5.86236757,43.05270445],[5.86235134,43.05242589],[5.8624768,43.05220836],[5.86256662,43.05221317],[5.86253088,43.05206113],[5.86270313,43.05202055],[5.86269575,43.05192085],[5.86258405,43.05187072],[5.86241385,43.05150625],[5.86154771,43.05079131],[5.86156277,43.05067391],[5.86134532,43.0504457],[5.8613869,43.0503186],[5.86119283,43.05021576],[5.86102209,43.04991431],[5.86089442,43.0498637],[5.86078594,43.04960559],[5.86053665,43.04945292],[5.86050209,43.04947364],[5.86043715,43.04942587],[5.86049198,43.04929392],[5.860375,43.04931053],[5.86024133,43.04918808],[5.86018712,43.04891053],[5.86028799,43.04864236],[5.86054825,43.04859494],[5.860527,43.04851271],[5.86068539,43.0484896],[5.86067239,43.04837565],[5.86037626,43.04844202],[5.86039042,43.04835614],[5.86024629,43.04829518],[5.85995501,43.04860891],[5.86004717,43.04833827],[5.85994476,43.04840129],[5.8599301,43.04810469],[5.85970565,43.04828075],[5.85968918,43.04819569],[5.8595967,43.04821164],[5.85957577,43.0481357],[5.85940372,43.04813037],[5.85922611,43.04826109],[5.85923108,43.04836175],[5.85881659,43.04816847],[5.85872419,43.04803683],[5.85858912,43.04803502],[5.85867393,43.04788877],[5.85841866,43.04806204],[5.85850783,43.04783018],[5.8584819,43.04767788],[5.85836047,43.0476541],[5.85850768,43.0474792],[5.8584111,43.04743676],[5.85846104,43.04725544],[5.85867307,43.04715081],[5.85887153,43.04692055],[5.85880514,43.04686832],[5.85891545,43.04676639],[5.85875838,43.04671656],[5.85913996,43.04629334],[5.85909254,43.04607861],[5.85918292,43.04589621],[5.85898383,43.0458403],[5.85882587,43.0458967],[5.85892283,43.04604622],[5.85883829,43.04612316],[5.85850284,43.04603937],[5.85857225,43.04622742],[5.85832781,43.04622222],[5.85823625,43.04635604],[5.85816815,43.04621926],[5.85808516,43.04640236],[5.8579072,43.04640168],[5.85775321,43.04651377],[5.85763613,43.04650338],[5.85768451,43.0463401],[5.85733374,43.04644301],[5.85719291,43.04639905],[5.85740296,43.04660227],[5.85757071,43.04659511],[5.85743342,43.04679675],[5.85759669,43.04682301],[5.85763091,43.0469445],[5.85751423,43.04709159],[5.85730311,43.0471152],[5.85720175,43.04724929],[5.85697644,43.04725887],[5.8570355,43.0473617],[5.85733645,43.0474923],[5.85706528,43.0475175],[5.85698211,43.0477717],[5.85717327,43.04786562],[5.85705412,43.04798758],[5.8568231,43.04803061],[5.85678279,43.04795969],[5.85665095,43.04802348],[5.85653809,43.04797428],[5.85648049,43.04805051],[5.85624769,43.04805759],[5.85595829,43.04791227],[5.85588844,43.04798882],[5.85564436,43.048016],[5.85568258,43.04809418],[5.8555908,43.04817402],[5.85507751,43.04821643],[5.8551007,43.04806462],[5.85478635,43.04791097],[5.85466911,43.04802207],[5.85470649,43.04815788],[5.85424209,43.0479974],[5.8543283,43.04810311],[5.85424461,43.04824753],[5.85405141,43.04823645],[5.85379009,43.04806339],[5.85395556,43.04838299],[5.85383662,43.04843474],[5.8536836,43.0484172],[5.85365018,43.04838659],[5.85357129,43.04842918],[5.85348622,43.04829644],[5.85353527,43.04819614],[5.85329366,43.04812425],[5.85319635,43.04824113],[5.8533712,43.04845248],[5.85283032,43.04878181],[5.85276878,43.04892744],[5.85149393,43.04895492],[5.85002327,43.04949156],[5.8497275,43.0494661],[5.84962447,43.04954172],[5.84977949,43.04969961],[5.84971941,43.0498002],[5.84939475,43.04993569],[5.84907288,43.04987852],[5.84894064,43.04993421],[5.84801839,43.04989563],[5.84791987,43.04983884],[5.84810395,43.04978897],[5.8478869,43.04971731],[5.84784305,43.04982377],[5.84776908,43.04981673],[5.84755048,43.04971361],[5.84754576,43.04964264],[5.84645905,43.07400948],[5.84693163,43.07495637],[5.84944111,43.07989483],[5.85118232,43.08306352],[5.85168064,43.08303502],[5.85171663,43.08309257],[5.8524665,43.08311051],[5.8534212,43.08319861],[5.85643529,43.0831682],[5.85667894,43.08312934],[5.85694735,43.08264702],[5.85842866,43.08144041],[5.8587248,43.08112205],[5.85882152,43.08052008],[5.85936358,43.08063169],[5.859723,43.08077424],[5.86058583,43.08066852],[5.86127802,43.08066273],[5.86161781,43.0806069],[5.86193543,43.08064886],[5.86268286,43.08089089],[5.86301587,43.08089644],[5.8633739,43.08081222],[5.86362859,43.08079824],[5.86425949,43.08086876],[5.86526828,43.08110742],[5.86587829,43.08095439],[5.86561313,43.08080665],[5.8658845,43.08050962],[5.86614163,43.08032188],[5.86650949,43.07979189],[5.86680216,43.0795285],[5.86742529,43.0785012],[5.86810425,43.07795662],[5.868706,43.07761299],[5.86874083,43.07742396],[5.86932745,43.07697363],[5.86952994,43.07657584],[5.86994445,43.07671509],[5.8705884,43.07727212],[5.87130251,43.07758518],[5.8713019,43.07739979],[5.87144014,43.07729081],[5.87165009,43.07726631],[5.87199913,43.0772984],[5.87244147,43.077256],[5.87255601,43.07718904],[5.87268322,43.07700655],[5.87284852,43.07694814],[5.87307323,43.07692414],[5.87330112,43.07674166],[5.87369215,43.07667993],[5.8741601,43.07641183],[5.87470048,43.07629211],[5.87507595,43.07616418],[5.87522743,43.07605034],[5.87530524,43.07591146],[5.87535565,43.07591281],[5.87537558,43.07619038],[5.87545282,43.07641062],[5.87554854,43.07653316],[5.87560703,43.0762526],[5.87590302,43.07556339],[5.8763956,43.07581573],[5.87658486,43.07564688],[5.87734624,43.07587313],[5.87779985,43.07561351],[5.87751923,43.07537711],[5.87819884,43.07494674],[5.87849764,43.07527716],[5.87938738,43.07485106],[5.88066872,43.07570689],[5.88011641,43.07607987],[5.87973941,43.07652195],[5.88013524,43.07658156],[5.88148949,43.07665693],[5.88194427,43.07671676],[5.88252922,43.0768757],[5.88314247,43.07696188],[5.8833999,43.07695409],[5.88383921,43.07680192],[5.88514079,43.07702715],[5.88519457,43.07707161],[5.88586794,43.07681236],[5.88599382,43.07680089],[5.8860622,43.07667035],[5.88628774,43.07668771],[5.88615803,43.07637618],[5.88623309,43.07615817]]]]}},{"type":"Feature","id":"la_seyne_sur_mer_831260302_coste_chaude_mauveou","properties":{"zoneId":"la_seyne_sur_mer_831260302_coste_chaude_mauveou","label":"Coste Chaude-Mauvéou","districtCode":"831260302","arrondissementCode":"83126","colorIndex":0,"parentZoneId":"la_seyne_sur_mer_parent_83126_la_seyne_sur_mer","parentCode":"83126","parentLabel":"La Seyne-sur-Mer","territoryType":"iris","source":"IGN / INSEE - Contours IRIS WFS Géoplateforme","sourceYear":"2026","officialId":"831260302","sourceCleabs":"IRIS____0000000831260302","communeCode":"83126","communeName":"La Seyne-sur-Mer","irisCode":"0302","irisType":"H","officialAreaM2":996884.9567871094,"labelLng":5.86532720132544,"labelLat":43.08199771488568,"bbox":[5.85118232,43.07591146,5.87712797,43.0881547]},"geometry":{"type":"MultiPolygon","coordinates":[[[[5.85118232,43.08306352],[5.8523325,43.08502475],[5.85346305,43.0881547],[5.85525706,43.08740784],[5.8554973,43.08727457],[5.85592514,43.08696173],[5.85789976,43.08519934],[5.85813034,43.08511942],[5.85827421,43.0851237],[5.85837556,43.08506251],[5.85838987,43.08497933],[5.85853799,43.0849205],[5.85914814,43.0848188],[5.86130065,43.08429813],[5.86404508,43.08412707],[5.86585083,43.08424192],[5.87031961,43.0838322],[5.87180045,43.08365951],[5.87190401,43.08369275],[5.87202933,43.08362011],[5.87225121,43.08363759],[5.87320971,43.08352922],[5.87412594,43.08360827],[5.8742208,43.08356524],[5.87424478,43.08313349],[5.87504203,43.08314101],[5.87509248,43.08304426],[5.87508715,43.0825665],[5.87567133,43.082388],[5.87526829,43.08144296],[5.87520292,43.0802018],[5.87639566,43.08028694],[5.87702961,43.08029521],[5.87712797,43.08024848],[5.87700085,43.08008717],[5.8768712,43.07901063],[5.87605359,43.07886418],[5.87578257,43.07887051],[5.87532939,43.07894202],[5.87521532,43.07867236],[5.87481187,43.07868224],[5.87453301,43.07845658],[5.8742805,43.07794582],[5.87430446,43.07785968],[5.87453717,43.07772477],[5.87448473,43.07770727],[5.87423694,43.07736558],[5.87499413,43.07696377],[5.87554854,43.07653316],[5.87545282,43.07641062],[5.87537558,43.07619038],[5.87535565,43.07591281],[5.87530524,43.07591146],[5.87522743,43.07605034],[5.87507595,43.07616418],[5.87470048,43.07629211],[5.8741601,43.07641183],[5.87369215,43.07667993],[5.87330112,43.07674166],[5.87307323,43.07692414],[5.87284852,43.07694814],[5.87268322,43.07700655],[5.87255601,43.07718904],[5.87244147,43.077256],[5.87199913,43.0772984],[5.87165009,43.07726631],[5.87144014,43.07729081],[5.8713019,43.07739979],[5.87130251,43.07758518],[5.8705884,43.07727212],[5.86994445,43.07671509],[5.86952994,43.07657584],[5.86932745,43.07697363],[5.86874083,43.07742396],[5.868706,43.07761299],[5.86810425,43.07795662],[5.86742529,43.0785012],[5.86680216,43.0795285],[5.86650949,43.07979189],[5.86614163,43.08032188],[5.8658845,43.08050962],[5.86561313,43.08080665],[5.86587829,43.08095439],[5.86526828,43.08110742],[5.86425949,43.08086876],[5.86362859,43.08079824],[5.8633739,43.08081222],[5.86301587,43.08089644],[5.86268286,43.08089089],[5.86193543,43.08064886],[5.86161781,43.0806069],[5.86127802,43.08066273],[5.86058583,43.08066852],[5.859723,43.08077424],[5.85936358,43.08063169],[5.85882152,43.08052008],[5.8587248,43.08112205],[5.85842866,43.08144041],[5.85694735,43.08264702],[5.85667894,43.08312934],[5.85643529,43.0831682],[5.8534212,43.08319861],[5.8524665,43.08311051],[5.85171663,43.08309257],[5.85168064,43.08303502],[5.85118232,43.08306352]]]]}},{"type":"Feature","id":"la_seyne_sur_mer_831260303_pas_du_loup","properties":{"zoneId":"la_seyne_sur_mer_831260303_pas_du_loup","label":"Pas du Loup","districtCode":"831260303","arrondissementCode":"83126","colorIndex":1,"parentZoneId":"la_seyne_sur_mer_parent_83126_la_seyne_sur_mer","parentCode":"83126","parentLabel":"La Seyne-sur-Mer","territoryType":"iris","source":"IGN / INSEE - Contours IRIS WFS Géoplateforme","sourceYear":"2026","officialId":"831260303","sourceCleabs":"IRIS____0000000831260303","communeCode":"83126","communeName":"La Seyne-sur-Mer","irisCode":"0303","irisType":"H","officialAreaM2":591996.8327636719,"labelLng":5.879959917777872,"labelLat":43.07931360183255,"bbox":[5.87412594,43.07485106,5.8863914,43.08370552]},"geometry":{"type":"MultiPolygon","coordinates":[[[[5.8863914,43.07706743],[5.88622494,43.07675779],[5.88628774,43.07668771],[5.8860622,43.07667035],[5.88599382,43.07680089],[5.88586794,43.07681236],[5.88519457,43.07707161],[5.88514079,43.07702715],[5.88383921,43.07680192],[5.8833999,43.07695409],[5.88314247,43.07696188],[5.88252922,43.0768757],[5.88194427,43.07671676],[5.88148949,43.07665693],[5.88013524,43.07658156],[5.87973941,43.07652195],[5.88011641,43.07607987],[5.88066872,43.07570689],[5.87938738,43.07485106],[5.87849764,43.07527716],[5.87819884,43.07494674],[5.87751923,43.07537711],[5.87779985,43.07561351],[5.87734624,43.07587313],[5.87658486,43.07564688],[5.8763956,43.07581573],[5.87590302,43.07556339],[5.87560703,43.0762526],[5.87554854,43.07653316],[5.87499413,43.07696377],[5.87423694,43.07736558],[5.87448473,43.07770727],[5.87453717,43.07772477],[5.87430446,43.07785968],[5.8742805,43.07794582],[5.87453301,43.07845658],[5.87481187,43.07868224],[5.87521532,43.07867236],[5.87532939,43.07894202],[5.87578257,43.07887051],[5.87605359,43.07886418],[5.8768712,43.07901063],[5.87700085,43.08008717],[5.87712797,43.08024848],[5.87702961,43.08029521],[5.87639566,43.08028694],[5.87520292,43.0802018],[5.87526829,43.08144296],[5.87567133,43.082388],[5.87508715,43.0825665],[5.87509248,43.08304426],[5.87504203,43.08314101],[5.87424478,43.08313349],[5.8742208,43.08356524],[5.87412594,43.08360827],[5.87533776,43.08370552],[5.87598604,43.0836306],[5.87640515,43.08349071],[5.8767981,43.08324441],[5.87702533,43.08304844],[5.87713473,43.08305091],[5.87726673,43.08296459],[5.87797439,43.08272607],[5.87853794,43.08260211],[5.87879607,43.08260781],[5.87898316,43.08269101],[5.87948809,43.08279541],[5.88049339,43.08261642],[5.8813394,43.08232108],[5.88161036,43.08236243],[5.88175727,43.0824278],[5.88185724,43.08253672],[5.88203375,43.0825554],[5.88213026,43.08249612],[5.88224395,43.08233827],[5.88298456,43.08202234],[5.884305,43.08163868],[5.88517649,43.08143623],[5.88555221,43.08141176],[5.88576767,43.08144828],[5.88577246,43.08134735],[5.88585311,43.08129029],[5.88556953,43.07754936],[5.88623692,43.07719487],[5.88625209,43.07712967],[5.8863914,43.07706743]]]]}},{"type":"Feature","id":"la_seyne_sur_mer_831260304_mar_vivo_sablettes_saint_elme","properties":{"zoneId":"la_seyne_sur_mer_831260304_mar_vivo_sablettes_saint_elme","label":"Mar Vivo-Sablettes-Saint-Elme","districtCode":"831260304","arrondissementCode":"83126","colorIndex":2,"parentZoneId":"la_seyne_sur_mer_parent_83126_la_seyne_sur_mer","parentCode":"83126","parentLabel":"La Seyne-sur-Mer","territoryType":"iris","source":"IGN / INSEE - Contours IRIS WFS Géoplateforme","sourceYear":"2026","officialId":"831260304","sourceCleabs":"IRIS____0000000831260304","communeCode":"83126","communeName":"La Seyne-sur-Mer","irisCode":"0304","irisType":"H","officialAreaM2":825273.8803710938,"labelLng":5.895048808246053,"labelLat":43.07929471905171,"bbox":[5.88556953,43.07321879,5.90426114,43.08500907]},"geometry":{"type":"MultiPolygon","coordinates":[[[[5.89679238,43.08500431],[5.8946499,43.08196588],[5.89494778,43.08158797],[5.89622137,43.08088321],[5.89652555,43.08087682],[5.89653984,43.08062264],[5.89667327,43.08049215],[5.8971353,43.08059762],[5.89739525,43.08049252],[5.89763656,43.08050583],[5.89776467,43.08061218],[5.8977463,43.08066218],[5.89779635,43.08065633],[5.89783861,43.08069119],[5.89772348,43.08081939],[5.89854569,43.08017355],[5.89856141,43.08026673],[5.89794865,43.08080433],[5.89795387,43.08090859],[5.89838122,43.081204],[5.89906593,43.08095066],[5.89973337,43.0817247],[5.90008056,43.08228236],[5.90016047,43.08245571],[5.89993457,43.08257879],[5.90036803,43.08262832],[5.90046685,43.08254196],[5.90036918,43.08238169],[5.90076826,43.08230883],[5.90169067,43.08182497],[5.9018852,43.08163973],[5.90200127,43.08128559],[5.90248876,43.08109065],[5.90261442,43.08058505],[5.90250148,43.0805611],[5.9024225,43.08096913],[5.9020362,43.08112535],[5.90169324,43.08040738],[5.90160273,43.08041432],[5.9016184,43.0805309],[5.90102711,43.08068813],[5.90096637,43.08075007],[5.90103008,43.08086986],[5.90150232,43.08149704],[5.90066936,43.08205049],[5.90029583,43.08216766],[5.89988752,43.08146854],[5.90005719,43.08132627],[5.90043604,43.08119276],[5.90034152,43.08099731],[5.90004932,43.08092418],[5.89999869,43.08067354],[5.90093419,43.08032883],[5.90101071,43.08021427],[5.9004437,43.07985154],[5.90004847,43.07941308],[5.90035102,43.07959483],[5.9007181,43.07956964],[5.90099123,43.07962978],[5.90145378,43.08028423],[5.90204735,43.07995233],[5.90162602,43.08004649],[5.90155624,43.08012397],[5.90142256,43.08010237],[5.90087804,43.07933133],[5.90094742,43.07924576],[5.90259608,43.07941193],[5.90374547,43.07924414],[5.90342001,43.0786796],[5.90304713,43.07858886],[5.90318564,43.07763021],[5.90306837,43.07717706],[5.9032752,43.07682138],[5.90364848,43.07679782],[5.90363058,43.07626999],[5.90398464,43.07598594],[5.90426114,43.07542857],[5.90419404,43.07497228],[5.90308126,43.07354337],[5.90281266,43.07357311],[5.90275365,43.0735225],[5.90273748,43.07354274],[5.90261528,43.07355413],[5.90235917,43.07334324],[5.90229111,43.07345487],[5.90206479,43.07334847],[5.90193751,43.0733807],[5.90192718,43.07329728],[5.90148573,43.07330738],[5.90096567,43.07321879],[5.90059151,43.07334678],[5.90039914,43.07330516],[5.90024584,43.07355319],[5.9001717,43.07351919],[5.89984841,43.073707],[5.8997634,43.07372549],[5.89980433,43.07380718],[5.89960162,43.07392695],[5.89894031,43.07391055],[5.89796152,43.07419791],[5.89804779,43.07430269],[5.89900028,43.07405384],[5.89914678,43.0743559],[5.89887528,43.07469531],[5.89883718,43.07469454],[5.89884371,43.07472676],[5.89851366,43.07477975],[5.89852341,43.07448428],[5.89834385,43.07462502],[5.89866506,43.07593939],[5.89882912,43.07593047],[5.89873429,43.07533632],[5.89919694,43.07516096],[5.89919558,43.07525639],[5.89940411,43.07522828],[5.89942633,43.07542658],[5.89923562,43.07573682],[5.89937636,43.07580143],[5.89952151,43.07573362],[5.89959531,43.07615284],[5.89937097,43.07642888],[5.89898094,43.07621618],[5.89894825,43.07632327],[5.89924448,43.07647729],[5.89904043,43.07686439],[5.89859436,43.0771995],[5.89840783,43.07727473],[5.89830054,43.07724071],[5.89844777,43.07743475],[5.8983436,43.07753656],[5.8979923,43.07775392],[5.89739889,43.07791749],[5.89714157,43.07807471],[5.89629471,43.0782523],[5.8961114,43.07822033],[5.89422656,43.07851042],[5.89342194,43.07855094],[5.89179695,43.0784641],[5.89052869,43.07831725],[5.88889566,43.07801997],[5.8871005,43.07747502],[5.8863914,43.07706743],[5.88625209,43.07712967],[5.88623692,43.07719487],[5.88556953,43.07754936],[5.88585311,43.08129029],[5.88577246,43.08134735],[5.88576767,43.08144828],[5.88591682,43.08158289],[5.88602599,43.08180226],[5.88617805,43.08192149],[5.88930965,43.08333512],[5.8896356,43.08339568],[5.88997082,43.08337138],[5.8906193,43.08298137],[5.89135606,43.08290849],[5.89155048,43.08407148],[5.89153649,43.08430766],[5.89179386,43.08432235],[5.89207165,43.08418079],[5.89268097,43.08406362],[5.89388921,43.08403926],[5.89398719,43.08400962],[5.89404069,43.08392538],[5.89388022,43.08358949],[5.89498553,43.08352018],[5.89512866,43.08355863],[5.89536079,43.08370719],[5.89551643,43.08389741],[5.89566817,43.08418133],[5.89577011,43.0845008],[5.89604055,43.08492373],[5.89638126,43.08500907],[5.89679238,43.08500431]]]]}},{"type":"Feature","id":"la_seyne_sur_mer_831260305_isnard_sainte_messe_gavarry_bremond","properties":{"zoneId":"la_seyne_sur_mer_831260305_isnard_sainte_messe_gavarry_bremond","label":"Isnard-Sainte-Messe-Gavarry-Brémond","districtCode":"831260305","arrondissementCode":"83126","colorIndex":3,"parentZoneId":"la_seyne_sur_mer_parent_83126_la_seyne_sur_mer","parentCode":"83126","parentLabel":"La Seyne-sur-Mer","territoryType":"iris","source":"IGN / INSEE - Contours IRIS WFS Géoplateforme","sourceYear":"2026","officialId":"831260305","sourceCleabs":"IRIS____0000000831260305","communeCode":"83126","communeName":"La Seyne-sur-Mer","irisCode":"0305","irisType":"H","officialAreaM2":1214932.5559082031,"labelLng":5.870452550889991,"labelLat":43.08658465484577,"bbox":[5.8554973,43.08232108,5.88203375,43.09018808]},"geometry":{"type":"MultiPolygon","coordinates":[[[[5.88203375,43.0825554],[5.88185724,43.08253672],[5.88175727,43.0824278],[5.88161036,43.08236243],[5.8813394,43.08232108],[5.88049339,43.08261642],[5.87948809,43.08279541],[5.87898316,43.08269101],[5.87879607,43.08260781],[5.87853794,43.08260211],[5.87797439,43.08272607],[5.87726673,43.08296459],[5.87713473,43.08305091],[5.87702533,43.08304844],[5.8767981,43.08324441],[5.87640515,43.08349071],[5.87598604,43.0836306],[5.87533776,43.08370552],[5.87412594,43.08360827],[5.87320971,43.08352922],[5.87225121,43.08363759],[5.87202933,43.08362011],[5.87190401,43.08369275],[5.87180045,43.08365951],[5.87031961,43.0838322],[5.86585083,43.08424192],[5.86404508,43.08412707],[5.86130065,43.08429813],[5.85914814,43.0848188],[5.85853799,43.0849205],[5.85838987,43.08497933],[5.85837556,43.08506251],[5.85827421,43.0851237],[5.85813034,43.08511942],[5.85789976,43.08519934],[5.85592514,43.08696173],[5.8554973,43.08727457],[5.85596264,43.08752233],[5.85708319,43.08867971],[5.85738985,43.08884708],[5.8575839,43.08887253],[5.85920763,43.08868093],[5.86137584,43.08852434],[5.86339517,43.08848597],[5.8638228,43.08856639],[5.86432121,43.08876194],[5.86452417,43.08886814],[5.86484929,43.0891844],[5.8653998,43.08929125],[5.86748647,43.08924831],[5.86803037,43.08929593],[5.86837743,43.08938568],[5.86884391,43.08965496],[5.8690699,43.08963094],[5.87094201,43.08974305],[5.87274174,43.08968335],[5.87287615,43.08971937],[5.87333528,43.09001312],[5.87360877,43.09010483],[5.87380887,43.09012829],[5.87451749,43.09005537],[5.87478616,43.0900995],[5.87500792,43.09018808],[5.87519298,43.09005714],[5.87541265,43.08998018],[5.87751647,43.08963958],[5.87828487,43.08970724],[5.87878206,43.08967955],[5.87992803,43.08983252],[5.88139066,43.08988339],[5.88148151,43.08855164],[5.88147839,43.08802072],[5.88142755,43.08773948],[5.8808389,43.08696592],[5.88076808,43.08680131],[5.88073516,43.08653489],[5.88148285,43.08391925],[5.88177698,43.08306988],[5.88203375,43.0825554]]]]}},{"type":"Feature","id":"la_seyne_sur_mer_831260306_crouton","properties":{"zoneId":"la_seyne_sur_mer_831260306_crouton","label":"Crouton","districtCode":"831260306","arrondissementCode":"83126","colorIndex":4,"parentZoneId":"la_seyne_sur_mer_parent_83126_la_seyne_sur_mer","parentCode":"83126","parentLabel":"La Seyne-sur-Mer","territoryType":"iris","source":"IGN / INSEE - Contours IRIS WFS Géoplateforme","sourceYear":"2026","officialId":"831260306","sourceCleabs":"IRIS____0000000831260306","communeCode":"83126","communeName":"La Seyne-sur-Mer","irisCode":"0306","irisType":"H","officialAreaM2":607000.3901367188,"labelLng":5.894800151850248,"labelLat":43.08874345896462,"bbox":[5.88942801,43.08352018,5.90206595,43.09262262]},"geometry":{"type":"MultiPolygon","coordinates":[[[[5.90200221,43.0922217],[5.90146369,43.09198871],[5.90100841,43.09155456],[5.90115544,43.09096019],[5.90133652,43.090751],[5.90070652,43.09124048],[5.89966023,43.08994203],[5.89914562,43.08905856],[5.89871508,43.08779393],[5.89802643,43.08676934],[5.89807074,43.08672225],[5.89798794,43.08661377],[5.89793021,43.08663783],[5.89679238,43.08500431],[5.89638126,43.08500907],[5.89604055,43.08492373],[5.89577011,43.0845008],[5.89566817,43.08418133],[5.89551643,43.08389741],[5.89536079,43.08370719],[5.89512866,43.08355863],[5.89498553,43.08352018],[5.89388022,43.08358949],[5.89404069,43.08392538],[5.89398719,43.08400962],[5.89388921,43.08403926],[5.89268097,43.08406362],[5.89207165,43.08418079],[5.89179386,43.08432235],[5.89153649,43.08430766],[5.89115863,43.08596033],[5.89087449,43.08776889],[5.89064009,43.0887301],[5.89041113,43.08864534],[5.88948971,43.08880867],[5.88942801,43.08907313],[5.88949049,43.08941436],[5.88943636,43.08985502],[5.88948106,43.09008603],[5.88971037,43.09034988],[5.889887,43.09068985],[5.88958901,43.09168156],[5.88961535,43.09191396],[5.88967813,43.09199058],[5.88997809,43.09214453],[5.89046208,43.09219634],[5.89073483,43.09254273],[5.89128762,43.09237399],[5.89309147,43.09185484],[5.89374733,43.09173371],[5.89396072,43.09172798],[5.89607082,43.09193046],[5.8973617,43.09225305],[5.89864513,43.09262262],[5.89961594,43.09251278],[5.90206595,43.09231719],[5.90200221,43.0922217]]]]}},{"type":"Feature","id":"la_seyne_sur_mer_831260307_evescat","properties":{"zoneId":"la_seyne_sur_mer_831260307_evescat","label":"Évescat","districtCode":"831260307","arrondissementCode":"83126","colorIndex":5,"parentZoneId":"la_seyne_sur_mer_parent_83126_la_seyne_sur_mer","parentCode":"83126","parentLabel":"La Seyne-sur-Mer","territoryType":"iris","source":"IGN / INSEE - Contours IRIS WFS Géoplateforme","sourceYear":"2026","officialId":"831260307","sourceCleabs":"IRIS____0000000831260307","communeCode":"83126","communeName":"La Seyne-sur-Mer","irisCode":"0307","irisType":"H","officialAreaM2":692880.5598144531,"labelLng":5.886018867768077,"labelLat":43.086280666612595,"bbox":[5.88073516,43.08141176,5.89155048,43.09121709]},"geometry":{"type":"MultiPolygon","coordinates":[[[[5.88139066,43.08988339],[5.88155771,43.08983482],[5.88160108,43.08976886],[5.88276957,43.09007779],[5.88350309,43.09011036],[5.88470915,43.09035976],[5.88514309,43.09036884],[5.88561393,43.09042822],[5.8857553,43.09052974],[5.88591971,43.09077284],[5.88607525,43.09115837],[5.88616783,43.09121709],[5.88645376,43.09121303],[5.88706748,43.09108408],[5.88791613,43.09115943],[5.88805209,43.09098028],[5.88851844,43.09065456],[5.88862852,43.09062101],[5.88921118,43.09060808],[5.88948106,43.09008603],[5.88943636,43.08985502],[5.88949049,43.08941436],[5.88942801,43.08907313],[5.88948971,43.08880867],[5.89041113,43.08864534],[5.89064009,43.0887301],[5.89087449,43.08776889],[5.89115863,43.08596033],[5.89153649,43.08430766],[5.89155048,43.08407148],[5.89135606,43.08290849],[5.8906193,43.08298137],[5.88997082,43.08337138],[5.8896356,43.08339568],[5.88930965,43.08333512],[5.88617805,43.08192149],[5.88602599,43.08180226],[5.88591682,43.08158289],[5.88576767,43.08144828],[5.88555221,43.08141176],[5.88517649,43.08143623],[5.884305,43.08163868],[5.88298456,43.08202234],[5.88224395,43.08233827],[5.88213026,43.08249612],[5.88203375,43.0825554],[5.88177698,43.08306988],[5.88148285,43.08391925],[5.88073516,43.08653489],[5.88076808,43.08680131],[5.8808389,43.08696592],[5.88142755,43.08773948],[5.88147839,43.08802072],[5.88148151,43.08855164],[5.88139066,43.08988339]]]]}},{"type":"Feature","id":"la_seyne_sur_mer_831260401_tortels","properties":{"zoneId":"la_seyne_sur_mer_831260401_tortels","label":"Tortels","districtCode":"831260401","arrondissementCode":"83126","colorIndex":6,"parentZoneId":"la_seyne_sur_mer_parent_83126_la_seyne_sur_mer","parentCode":"83126","parentLabel":"La Seyne-sur-Mer","territoryType":"iris","source":"IGN / INSEE - Contours IRIS WFS Géoplateforme","sourceYear":"2026","officialId":"831260401","sourceCleabs":"IRIS____0000000831260401","communeCode":"83126","communeName":"La Seyne-sur-Mer","irisCode":"0401","irisType":"H","officialAreaM2":388438.11279296875,"labelLng":5.869652997750337,"labelLat":43.10402731832913,"bbox":[5.86005838,43.1007046,5.87703959,43.10753207]},"geometry":{"type":"MultiPolygon","coordinates":[[[[5.87422561,43.10284068],[5.8738206,43.10203157],[5.87353687,43.10158643],[5.87272049,43.1013967],[5.87163753,43.10090897],[5.87106608,43.1007046],[5.87096721,43.10071713],[5.86990642,43.10159142],[5.86989536,43.10171501],[5.87021071,43.10212962],[5.87026718,43.10232702],[5.86938881,43.10294263],[5.86928608,43.10310017],[5.86919554,43.10310708],[5.86881507,43.10333592],[5.86842142,43.10327441],[5.86822043,43.10328336],[5.86781038,43.10351028],[5.86729889,43.1038713],[5.8659415,43.10359602],[5.86548051,43.10358848],[5.8653034,43.10338529],[5.86507222,43.10295853],[5.86496549,43.10288667],[5.86452424,43.1027319],[5.86440451,43.10239758],[5.86418356,43.10242506],[5.8635036,43.10238554],[5.86287406,43.10244637],[5.86192317,43.10239244],[5.86175441,43.10243202],[5.86115699,43.1026954],[5.86009071,43.10289112],[5.86005838,43.10320608],[5.86017799,43.10338921],[5.86092069,43.10367909],[5.8614473,43.10404491],[5.86228688,43.10443031],[5.86276723,43.10490355],[5.86296157,43.10500819],[5.86346748,43.10560045],[5.86375203,43.10546779],[5.8639566,43.10525804],[5.86402112,43.10529593],[5.86425687,43.10524466],[5.8644123,43.10550603],[5.86458507,43.10547264],[5.86443518,43.10529842],[5.86516067,43.10454561],[5.86540174,43.104676],[5.86561858,43.10491234],[5.86660607,43.10493556],[5.86677493,43.10484827],[5.86710311,43.10524904],[5.8670142,43.10528921],[5.86716672,43.10556596],[5.86771202,43.10531654],[5.86797735,43.10563888],[5.8698618,43.10480117],[5.87010917,43.10510779],[5.87018242,43.10534614],[5.87110453,43.10501736],[5.87122051,43.10507727],[5.87142521,43.10494491],[5.87172963,43.10486659],[5.87285349,43.10642336],[5.87288359,43.10670787],[5.87384277,43.10677859],[5.87432698,43.10685747],[5.87640186,43.1073304],[5.87703959,43.10753207],[5.87683918,43.10713332],[5.87564929,43.10551084],[5.87622695,43.10519661],[5.87550273,43.10407022],[5.87491405,43.10421194],[5.87422561,43.10284068]]]]}},{"type":"Feature","id":"la_seyne_sur_mer_831260402_vignelongue","properties":{"zoneId":"la_seyne_sur_mer_831260402_vignelongue","label":"Vignelongue","districtCode":"831260402","arrondissementCode":"83126","colorIndex":7,"parentZoneId":"la_seyne_sur_mer_parent_83126_la_seyne_sur_mer","parentCode":"83126","parentLabel":"La Seyne-sur-Mer","territoryType":"iris","source":"IGN / INSEE - Contours IRIS WFS Géoplateforme","sourceYear":"2026","officialId":"831260402","sourceCleabs":"IRIS____0000000831260402","communeCode":"83126","communeName":"La Seyne-sur-Mer","irisCode":"0402","irisType":"H","officialAreaM2":558953.3176269531,"labelLng":5.856997365616707,"labelLat":43.10287469842482,"bbox":[5.85081868,43.09801338,5.863668,43.10751053]},"geometry":{"type":"MultiPolygon","coordinates":[[[[5.85332552,43.09801338],[5.85260499,43.09951568],[5.85114527,43.10256756],[5.85081868,43.10361662],[5.85131668,43.10377714],[5.85233184,43.10388886],[5.85254948,43.1038687],[5.85288129,43.10377261],[5.85312078,43.10367267],[5.85335713,43.10350891],[5.85330867,43.10372169],[5.85309491,43.10406936],[5.85308922,43.10430261],[5.85319346,43.10447355],[5.85333126,43.1045032],[5.85334253,43.10465681],[5.85350457,43.10477942],[5.85365814,43.10480505],[5.85383665,43.10476342],[5.8540534,43.10457587],[5.8541076,43.10442954],[5.85425347,43.10454807],[5.85556477,43.10493542],[5.85603419,43.10511378],[5.85646749,43.1053813],[5.85734763,43.10604107],[5.85792577,43.10635603],[5.85850802,43.10657999],[5.86105852,43.1074087],[5.86167385,43.10748145],[5.86281521,43.10751053],[5.86287067,43.10669544],[5.8623286,43.10648934],[5.86231415,43.10644562],[5.86293455,43.10617443],[5.863668,43.10592903],[5.86346748,43.10560045],[5.86296157,43.10500819],[5.86276723,43.10490355],[5.86228688,43.10443031],[5.8614473,43.10404491],[5.86092069,43.10367909],[5.86017799,43.10338921],[5.86005838,43.10320608],[5.86009071,43.10289112],[5.86023036,43.1023123],[5.8604425,43.10190796],[5.86059219,43.10135858],[5.86056589,43.10090117],[5.86050883,43.10069118],[5.86035377,43.10023809],[5.86015771,43.0998995],[5.85971286,43.09986991],[5.85928889,43.10011337],[5.85909615,43.10014008],[5.85896415,43.10012829],[5.85900921,43.09984719],[5.85777685,43.10003649],[5.85784067,43.09943899],[5.85656403,43.09942786],[5.85638654,43.09939026],[5.8559936,43.09906858],[5.85521456,43.09861313],[5.85332552,43.09801338]]]]}},{"type":"Feature","id":"la_seyne_sur_mer_831260403_jaumen","properties":{"zoneId":"la_seyne_sur_mer_831260403_jaumen","label":"Jaumen","districtCode":"831260403","arrondissementCode":"83126","colorIndex":0,"parentZoneId":"la_seyne_sur_mer_parent_83126_la_seyne_sur_mer","parentCode":"83126","parentLabel":"La Seyne-sur-Mer","territoryType":"iris","source":"IGN / INSEE - Contours IRIS WFS Géoplateforme","sourceYear":"2026","officialId":"831260403","sourceCleabs":"IRIS____0000000831260403","communeCode":"83126","communeName":"La Seyne-sur-Mer","irisCode":"0403","irisType":"H","officialAreaM2":1220324.0349121094,"labelLng":5.862653208754734,"labelLat":43.09746407581703,"bbox":[5.85332552,43.09218586,5.87106608,43.1038713]},"geometry":{"type":"MultiPolygon","coordinates":[[[[5.8545874,43.09247551],[5.85498736,43.09542863],[5.85460581,43.09533704],[5.85332552,43.09801338],[5.85521456,43.09861313],[5.8559936,43.09906858],[5.85638654,43.09939026],[5.85656403,43.09942786],[5.85784067,43.09943899],[5.85777685,43.10003649],[5.85900921,43.09984719],[5.85896415,43.10012829],[5.85909615,43.10014008],[5.85928889,43.10011337],[5.85971286,43.09986991],[5.86015771,43.0998995],[5.86035377,43.10023809],[5.86050883,43.10069118],[5.86056589,43.10090117],[5.86059219,43.10135858],[5.8604425,43.10190796],[5.86023036,43.1023123],[5.86009071,43.10289112],[5.86115699,43.1026954],[5.86175441,43.10243202],[5.86192317,43.10239244],[5.86287406,43.10244637],[5.8635036,43.10238554],[5.86418356,43.10242506],[5.86440451,43.10239758],[5.86452424,43.1027319],[5.86496549,43.10288667],[5.86507222,43.10295853],[5.8653034,43.10338529],[5.86548051,43.10358848],[5.8659415,43.10359602],[5.86729889,43.1038713],[5.86781038,43.10351028],[5.86822043,43.10328336],[5.86842142,43.10327441],[5.86881507,43.10333592],[5.86919554,43.10310708],[5.86928608,43.10310017],[5.86938881,43.10294263],[5.87026718,43.10232702],[5.87021071,43.10212962],[5.86989536,43.10171501],[5.86990642,43.10159142],[5.87096721,43.10071713],[5.87106608,43.1007046],[5.87064463,43.10015692],[5.87055382,43.09971293],[5.87055446,43.09920621],[5.87009782,43.09856766],[5.86963374,43.09763051],[5.86905052,43.09708894],[5.86842582,43.09680048],[5.86835181,43.09671965],[5.86835726,43.0966313],[5.86858988,43.0963938],[5.86863591,43.09628187],[5.86865482,43.09525176],[5.86860617,43.09506315],[5.86860312,43.09463033],[5.86859843,43.09431275],[5.86841761,43.09396026],[5.86825846,43.0938961],[5.86787951,43.09383239],[5.8676363,43.09365796],[5.86734451,43.09337053],[5.8671302,43.09323403],[5.86668001,43.09304621],[5.86646763,43.09289886],[5.86623661,43.09284651],[5.86552012,43.09288538],[5.86502391,43.09285898],[5.8645588,43.09266705],[5.86423114,43.09259746],[5.8638417,43.09232162],[5.86376969,43.09225603],[5.86376867,43.09218586],[5.86281892,43.09220121],[5.86097702,43.09245266],[5.86051633,43.09230019],[5.86024139,43.0922535],[5.8583072,43.09227785],[5.85655774,43.09258617],[5.8557709,43.09249363],[5.8545874,43.09247551]]]]}},{"type":"Feature","id":"la_seyne_sur_mer_831260404_donicarde_barban","properties":{"zoneId":"la_seyne_sur_mer_831260404_donicarde_barban","label":"Donicarde-Barban","districtCode":"831260404","arrondissementCode":"83126","colorIndex":1,"parentZoneId":"la_seyne_sur_mer_parent_83126_la_seyne_sur_mer","parentCode":"83126","parentLabel":"La Seyne-sur-Mer","territoryType":"iris","source":"IGN / INSEE - Contours IRIS WFS Géoplateforme","sourceYear":"2026","officialId":"831260404","sourceCleabs":"IRIS____0000000831260404","communeCode":"83126","communeName":"La Seyne-sur-Mer","irisCode":"0404","irisType":"H","officialAreaM2":1158356.8115234375,"labelLng":5.868793570045934,"labelLat":43.091751556255964,"bbox":[5.85346305,43.08727457,5.88227307,43.09714104]},"geometry":{"type":"MultiPolygon","coordinates":[[[[5.85346305,43.0881547],[5.8544377,43.09100977],[5.8545874,43.09247551],[5.8557709,43.09249363],[5.85655774,43.09258617],[5.8583072,43.09227785],[5.86024139,43.0922535],[5.86051633,43.09230019],[5.86097702,43.09245266],[5.86281892,43.09220121],[5.86376867,43.09218586],[5.86376969,43.09225603],[5.8638417,43.09232162],[5.86423114,43.09259746],[5.8645588,43.09266705],[5.86502391,43.09285898],[5.86552012,43.09288538],[5.86623661,43.09284651],[5.86646763,43.09289886],[5.86668001,43.09304621],[5.8671302,43.09323403],[5.86734451,43.09337053],[5.8676363,43.09365796],[5.86787951,43.09383239],[5.86825846,43.0938961],[5.86841761,43.09396026],[5.86859843,43.09431275],[5.86860312,43.09463033],[5.8701801,43.09458291],[5.87023645,43.09455531],[5.87033676,43.09434923],[5.87047111,43.09430965],[5.87063872,43.09451939],[5.87089666,43.09469341],[5.87197231,43.09498694],[5.87177469,43.09592912],[5.87226719,43.09597899],[5.87258499,43.09597322],[5.87356969,43.09584435],[5.87423721,43.09610464],[5.87565662,43.09637005],[5.87605291,43.09653498],[5.87671003,43.09653633],[5.87671062,43.09677032],[5.87678391,43.09691056],[5.87728664,43.09714104],[5.8773765,43.09637992],[5.87820709,43.09651073],[5.87825977,43.09559491],[5.87861653,43.09548367],[5.87896358,43.09428907],[5.87876068,43.0942837],[5.87882838,43.09396598],[5.87932458,43.09409042],[5.87975679,43.09426157],[5.88031996,43.09474421],[5.88227307,43.09401335],[5.88095373,43.09316753],[5.88067669,43.09268444],[5.88064555,43.09252777],[5.88069916,43.09227253],[5.88122996,43.09126741],[5.88128774,43.09107147],[5.88139066,43.08988339],[5.87992803,43.08983252],[5.87878206,43.08967955],[5.87828487,43.08970724],[5.87751647,43.08963958],[5.87541265,43.08998018],[5.87519298,43.09005714],[5.87500792,43.09018808],[5.87478616,43.0900995],[5.87451749,43.09005537],[5.87380887,43.09012829],[5.87360877,43.09010483],[5.87333528,43.09001312],[5.87287615,43.08971937],[5.87274174,43.08968335],[5.87094201,43.08974305],[5.8690699,43.08963094],[5.86884391,43.08965496],[5.86837743,43.08938568],[5.86803037,43.08929593],[5.86748647,43.08924831],[5.8653998,43.08929125],[5.86484929,43.0891844],[5.86452417,43.08886814],[5.86432121,43.08876194],[5.8638228,43.08856639],[5.86339517,43.08848597],[5.86137584,43.08852434],[5.85920763,43.08868093],[5.8575839,43.08887253],[5.85738985,43.08884708],[5.85708319,43.08867971],[5.85596264,43.08752233],[5.8554973,43.08727457],[5.85525706,43.08740784],[5.85346305,43.0881547]]]]}},{"type":"Feature","id":"la_seyne_sur_mer_831260501_lery","properties":{"zoneId":"la_seyne_sur_mer_831260501_lery","label":"Léry","districtCode":"831260501","arrondissementCode":"83126","colorIndex":2,"parentZoneId":"la_seyne_sur_mer_parent_83126_la_seyne_sur_mer","parentCode":"83126","parentLabel":"La Seyne-sur-Mer","territoryType":"iris","source":"IGN / INSEE - Contours IRIS WFS Géoplateforme","sourceYear":"2026","officialId":"831260501","sourceCleabs":"IRIS____0000000831260501","communeCode":"83126","communeName":"La Seyne-sur-Mer","irisCode":"0501","irisType":"A","officialAreaM2":3029664.0998535156,"labelLng":5.853886578154414,"labelLat":43.11255286,"bbox":[5.84891368,43.10350891,5.89188774,43.12159681]},"geometry":{"type":"MultiPolygon","coordinates":[[[[5.8691543,43.11963173],[5.87390591,43.11964189],[5.88282737,43.11888514],[5.88478551,43.11860862],[5.885358,43.11749974],[5.88529744,43.11719715],[5.88536097,43.11719005],[5.88511393,43.11632633],[5.88465576,43.1163773],[5.88455935,43.11594697],[5.88513545,43.11587124],[5.88532882,43.11597947],[5.88538991,43.11594813],[5.88489645,43.11529172],[5.88480428,43.11450306],[5.88465332,43.11430909],[5.88437155,43.1133644],[5.8850113,43.11333377],[5.88513794,43.11360669],[5.88570743,43.11366974],[5.88602488,43.11350733],[5.88618791,43.11308175],[5.88623118,43.11306259],[5.88619607,43.11297442],[5.88592494,43.11290789],[5.8859602,43.11282684],[5.88666159,43.11289895],[5.8874161,43.11280493],[5.88745131,43.11245207],[5.88730286,43.11201323],[5.8873716,43.11063434],[5.88973962,43.10983912],[5.89057313,43.10945855],[5.89188774,43.10906955],[5.89175552,43.10848898],[5.89159459,43.108415],[5.89150496,43.1082194],[5.89149345,43.1081612],[5.89165843,43.10814417],[5.89160939,43.10792498],[5.88880392,43.10829726],[5.88881137,43.10837267],[5.88857742,43.10845994],[5.88511369,43.10888578],[5.88437204,43.10903974],[5.88396219,43.10894991],[5.88285322,43.1091281],[5.88241878,43.10930893],[5.88212656,43.10933655],[5.88192917,43.10897462],[5.8823172,43.10889764],[5.88225319,43.10869774],[5.88094458,43.10893705],[5.88081103,43.10864812],[5.88132924,43.10854605],[5.88114467,43.10799747],[5.8809273,43.10802309],[5.88094112,43.10788141],[5.88090251,43.10787075],[5.88091506,43.10785151],[5.88123219,43.10785563],[5.88184023,43.10792937],[5.88208006,43.10808316],[5.88214183,43.1079177],[5.88650116,43.10715025],[5.88647783,43.10710138],[5.88637615,43.1071068],[5.88628182,43.10684112],[5.88691137,43.10673065],[5.88690055,43.10658783],[5.88677802,43.10629861],[5.88669049,43.10634146],[5.88660249,43.10669482],[5.88588161,43.10682124],[5.88560313,43.1066316],[5.88645175,43.10588974],[5.88556755,43.10517991],[5.885402,43.10530855],[5.8856802,43.1054928],[5.8855087,43.1056252],[5.88523458,43.10544893],[5.88291054,43.10732111],[5.88259916,43.10723494],[5.88158126,43.10652865],[5.88117069,43.10627593],[5.88110416,43.1060995],[5.88094672,43.10599661],[5.87891733,43.10527775],[5.87831685,43.10686074],[5.87806413,43.1071879],[5.87754276,43.10772024],[5.87770707,43.10781305],[5.87777168,43.10792653],[5.87894126,43.11034785],[5.87915812,43.11065707],[5.87933516,43.11080804],[5.87969941,43.11101791],[5.87988311,43.1110805],[5.88212301,43.11133561],[5.88264671,43.1114665],[5.88301884,43.11173555],[5.88351286,43.11262596],[5.88361121,43.11272593],[5.88390696,43.11286742],[5.88390666,43.11303393],[5.88367152,43.11317163],[5.88353022,43.11334372],[5.88249187,43.11326441],[5.88183131,43.11329648],[5.88079341,43.11327563],[5.88037554,43.11324721],[5.87827918,43.11296482],[5.87792974,43.11258355],[5.87804664,43.11288373],[5.8766738,43.1128961],[5.87592936,43.11282237],[5.87296374,43.11267289],[5.87233378,43.11443394],[5.8721111,43.1149223],[5.87212851,43.11502533],[5.87208465,43.11508231],[5.87416198,43.11557412],[5.87631359,43.11617552],[5.87713899,43.1164433],[5.87813726,43.11695035],[5.87790598,43.11721574],[5.87768759,43.11761669],[5.87711694,43.11720981],[5.87638268,43.116774],[5.87577368,43.11648515],[5.87446602,43.11600613],[5.87342251,43.11574955],[5.87281407,43.11564428],[5.87122569,43.11549851],[5.87037711,43.11548062],[5.86929024,43.11551317],[5.8677498,43.11566489],[5.8533681,43.11794669],[5.8540554,43.11701136],[5.85465167,43.11567613],[5.85519328,43.11497597],[5.8554715,43.11478859],[5.85616834,43.11442091],[5.85643893,43.11422833],[5.85678823,43.11406246],[5.85680157,43.11395951],[5.85685692,43.11391124],[5.85704397,43.11389278],[5.85756359,43.11359369],[5.85762827,43.11353527],[5.85765525,43.11338515],[5.85786238,43.11332566],[5.85802382,43.11328628],[5.85866745,43.11276249],[5.85920682,43.11196876],[5.85966196,43.11118626],[5.85972713,43.11088932],[5.85973402,43.11035813],[5.85965256,43.11027569],[5.85968622,43.11011189],[5.85980961,43.11004831],[5.85996216,43.11002806],[5.86050613,43.10955191],[5.86227057,43.10839442],[5.86290245,43.10785832],[5.8629588,43.10775602],[5.86292592,43.10761289],[5.8630317,43.10751648],[5.86281521,43.10751053],[5.86167385,43.10748145],[5.86105852,43.1074087],[5.85850802,43.10657999],[5.85792577,43.10635603],[5.85734763,43.10604107],[5.85646749,43.1053813],[5.85603419,43.10511378],[5.85556477,43.10493542],[5.85425347,43.10454807],[5.8541076,43.10442954],[5.8540534,43.10457587],[5.85383665,43.10476342],[5.85365814,43.10480505],[5.85350457,43.10477942],[5.85334253,43.10465681],[5.85333126,43.1045032],[5.85319346,43.10447355],[5.85308922,43.10430261],[5.85309491,43.10406936],[5.85330867,43.10372169],[5.85335713,43.10350891],[5.85312078,43.10367267],[5.85288129,43.10377261],[5.85254948,43.1038687],[5.85233184,43.10388886],[5.85131668,43.10377714],[5.85081868,43.10361662],[5.85012357,43.10626035],[5.84891368,43.11064932],[5.84919879,43.12159681],[5.86005025,43.12139662],[5.8691543,43.11963173]]]]}},{"type":"Feature","id":"la_seyne_sur_mer_831260502_fructidor_vendemiaire","properties":{"zoneId":"la_seyne_sur_mer_831260502_fructidor_vendemiaire","label":"Fructidor-Vendémiaire","districtCode":"831260502","arrondissementCode":"83126","colorIndex":3,"parentZoneId":"la_seyne_sur_mer_parent_83126_la_seyne_sur_mer","parentCode":"83126","parentLabel":"La Seyne-sur-Mer","territoryType":"iris","source":"IGN / INSEE - Contours IRIS WFS Géoplateforme","sourceYear":"2026","officialId":"831260502","sourceCleabs":"IRIS____0000000831260502","communeCode":"83126","communeName":"La Seyne-sur-Mer","irisCode":"0502","irisType":"H","officialAreaM2":413543.7277832031,"labelLng":5.862897176321856,"labelLat":43.115273459070586,"bbox":[5.8533681,43.11208388,5.87813726,43.11794669]},"geometry":{"type":"MultiPolygon","coordinates":[[[[5.86510422,43.11208388],[5.86484919,43.11234177],[5.86466119,43.11241517],[5.86422387,43.11288671],[5.86391026,43.11332616],[5.86347459,43.11368245],[5.86351604,43.11419706],[5.86007297,43.11490144],[5.85983629,43.11493472],[5.85937699,43.11488841],[5.85892269,43.11467006],[5.8586994,43.11442758],[5.85831409,43.11376549],[5.85807117,43.11352352],[5.85799817,43.11338866],[5.85786238,43.11332566],[5.85765525,43.11338515],[5.85762827,43.11353527],[5.85756359,43.11359369],[5.85704397,43.11389278],[5.85685692,43.11391124],[5.85680157,43.11395951],[5.85678823,43.11406246],[5.85643893,43.11422833],[5.85616834,43.11442091],[5.8554715,43.11478859],[5.85519328,43.11497597],[5.85465167,43.11567613],[5.8540554,43.11701136],[5.8533681,43.11794669],[5.8677498,43.11566489],[5.86929024,43.11551317],[5.87037711,43.11548062],[5.87122569,43.11549851],[5.87281407,43.11564428],[5.87342251,43.11574955],[5.87446602,43.11600613],[5.87577368,43.11648515],[5.87638268,43.116774],[5.87711694,43.11720981],[5.87768759,43.11761669],[5.87790598,43.11721574],[5.87813726,43.11695035],[5.87713899,43.1164433],[5.87631359,43.11617552],[5.87416198,43.11557412],[5.87208465,43.11508231],[5.87189384,43.11509909],[5.8715519,43.1149426],[5.86954808,43.11447038],[5.86931212,43.11436956],[5.86878059,43.1140066],[5.8680762,43.11332874],[5.86762881,43.11305174],[5.86680272,43.11264441],[5.86566695,43.11223452],[5.86560487,43.11234507],[5.86508811,43.11237862],[5.86510422,43.11208388]]]]}},{"type":"Feature","id":"la_seyne_sur_mer_831260503_berthe_floreal","properties":{"zoneId":"la_seyne_sur_mer_831260503_berthe_floreal","label":"Berthe-Floréal","districtCode":"831260503","arrondissementCode":"83126","colorIndex":4,"parentZoneId":"la_seyne_sur_mer_parent_83126_la_seyne_sur_mer","parentCode":"83126","parentLabel":"La Seyne-sur-Mer","territoryType":"iris","source":"IGN / INSEE - Contours IRIS WFS Géoplateforme","sourceYear":"2026","officialId":"831260503","sourceCleabs":"IRIS____0000000831260503","communeCode":"83126","communeName":"La Seyne-sur-Mer","irisCode":"0503","irisType":"H","officialAreaM2":185641.68774414062,"labelLng":5.861401002908194,"labelLat":43.112699581956356,"bbox":[5.85786238,43.11021767,5.86523969,43.11493472]},"geometry":{"type":"MultiPolygon","coordinates":[[[[5.86510422,43.11208388],[5.86459373,43.11199575],[5.86501519,43.11192335],[5.86523969,43.11174367],[5.86521753,43.11132125],[5.86394205,43.11138847],[5.86174865,43.11050713],[5.86139069,43.11089465],[5.86084134,43.11061673],[5.86017668,43.11021767],[5.86002005,43.11035413],[5.85987776,43.11038311],[5.85973402,43.11035813],[5.85972713,43.11088932],[5.85966196,43.11118626],[5.85920682,43.11196876],[5.85866745,43.11276249],[5.85802382,43.11328628],[5.85786238,43.11332566],[5.85799817,43.11338866],[5.85807117,43.11352352],[5.85831409,43.11376549],[5.8586994,43.11442758],[5.85892269,43.11467006],[5.85937699,43.11488841],[5.85983629,43.11493472],[5.86007297,43.11490144],[5.86351604,43.11419706],[5.86347459,43.11368245],[5.86391026,43.11332616],[5.86422387,43.11288671],[5.86466119,43.11241517],[5.86484919,43.11234177],[5.86510422,43.11208388]]]]}},{"type":"Feature","id":"la_seyne_sur_mer_831260504_berthe_messidor","properties":{"zoneId":"la_seyne_sur_mer_831260504_berthe_messidor","label":"Berthe-Messidor","districtCode":"831260504","arrondissementCode":"83126","colorIndex":5,"parentZoneId":"la_seyne_sur_mer_parent_83126_la_seyne_sur_mer","parentCode":"83126","parentLabel":"La Seyne-sur-Mer","territoryType":"iris","source":"IGN / INSEE - Contours IRIS WFS Géoplateforme","sourceYear":"2026","officialId":"831260504","sourceCleabs":"IRIS____0000000831260504","communeCode":"83126","communeName":"La Seyne-sur-Mer","irisCode":"0504","irisType":"H","officialAreaM2":77305.29541015625,"labelLng":5.862585455528654,"labelLat":43.10936557915056,"bbox":[5.85965256,43.10751612,5.86472793,43.11089465]},"geometry":{"type":"MultiPolygon","coordinates":[[[[5.86472793,43.10999324],[5.8647096,43.10964812],[5.86464431,43.10952025],[5.86446992,43.10840526],[5.8644192,43.10837331],[5.8637872,43.10833611],[5.86389273,43.10781309],[5.86382398,43.10751612],[5.8630317,43.10751648],[5.86292592,43.10761289],[5.8629588,43.10775602],[5.86290245,43.10785832],[5.86227057,43.10839442],[5.86050613,43.10955191],[5.85996216,43.11002806],[5.85980961,43.11004831],[5.85968622,43.11011189],[5.85965256,43.11027569],[5.85973402,43.11035813],[5.85987776,43.11038311],[5.86002005,43.11035413],[5.86017668,43.11021767],[5.86084134,43.11061673],[5.86139069,43.11089465],[5.86174865,43.11050713],[5.86204182,43.11044894],[5.86389663,43.11034745],[5.86400135,43.11022946],[5.86397337,43.1099125],[5.86450868,43.10988206],[5.86462932,43.10991216],[5.86472793,43.10999324]]]]}},{"type":"Feature","id":"la_seyne_sur_mer_831260505_daniel","properties":{"zoneId":"la_seyne_sur_mer_831260505_daniel","label":"Daniel","districtCode":"831260505","arrondissementCode":"83126","colorIndex":6,"parentZoneId":"la_seyne_sur_mer_parent_83126_la_seyne_sur_mer","parentCode":"83126","parentLabel":"La Seyne-sur-Mer","territoryType":"iris","source":"IGN / INSEE - Contours IRIS WFS Géoplateforme","sourceYear":"2026","officialId":"831260505","sourceCleabs":"IRIS____0000000831260505","communeCode":"83126","communeName":"La Seyne-sur-Mer","irisCode":"0505","irisType":"H","officialAreaM2":475413.5231933594,"labelLng":5.869280129078752,"labelLat":43.107603685422596,"bbox":[5.86231415,43.10454561,5.87754276,43.11040279]},"geometry":{"type":"MultiPolygon","coordinates":[[[[5.87754276,43.10772024],[5.87703959,43.10753207],[5.87640186,43.1073304],[5.87432698,43.10685747],[5.87384277,43.10677859],[5.87288359,43.10670787],[5.87285349,43.10642336],[5.87172963,43.10486659],[5.87142521,43.10494491],[5.87122051,43.10507727],[5.87110453,43.10501736],[5.87018242,43.10534614],[5.87010917,43.10510779],[5.8698618,43.10480117],[5.86797735,43.10563888],[5.86771202,43.10531654],[5.86716672,43.10556596],[5.8670142,43.10528921],[5.86710311,43.10524904],[5.86677493,43.10484827],[5.86660607,43.10493556],[5.86561858,43.10491234],[5.86540174,43.104676],[5.86516067,43.10454561],[5.86443518,43.10529842],[5.86458507,43.10547264],[5.8644123,43.10550603],[5.86425687,43.10524466],[5.86402112,43.10529593],[5.8639566,43.10525804],[5.86375203,43.10546779],[5.86346748,43.10560045],[5.863668,43.10592903],[5.86293455,43.10617443],[5.86231415,43.10644562],[5.8623286,43.10648934],[5.86287067,43.10669544],[5.86281521,43.10751053],[5.8630317,43.10751648],[5.86382398,43.10751612],[5.86389273,43.10781309],[5.8637872,43.10833611],[5.8644192,43.10837331],[5.86446992,43.10840526],[5.86464431,43.10952025],[5.8647096,43.10964812],[5.86472793,43.10999324],[5.86472618,43.11005718],[5.86482947,43.11018314],[5.86506542,43.11018497],[5.86540815,43.11013535],[5.87016719,43.10986556],[5.87055731,43.10985516],[5.87067018,43.10990166],[5.87251487,43.10974538],[5.87364133,43.10957223],[5.87347868,43.11040279],[5.87442276,43.1099213],[5.87448182,43.10960201],[5.87443487,43.10934946],[5.87719277,43.1081913],[5.87718834,43.10810232],[5.87754276,43.10772024]]]]}},{"type":"Feature","id":"la_seyne_sur_mer_831260506_berthe_saint_jean","properties":{"zoneId":"la_seyne_sur_mer_831260506_berthe_saint_jean","label":"Berthe-Saint-Jean","districtCode":"831260506","arrondissementCode":"83126","colorIndex":7,"parentZoneId":"la_seyne_sur_mer_parent_83126_la_seyne_sur_mer","parentCode":"83126","parentLabel":"La Seyne-sur-Mer","territoryType":"iris","source":"IGN / INSEE - Contours IRIS WFS Géoplateforme","sourceYear":"2026","officialId":"831260506","sourceCleabs":"IRIS____0000000831260506","communeCode":"83126","communeName":"La Seyne-sur-Mer","irisCode":"0506","irisType":"H","officialAreaM2":209559.23486328125,"labelLng":5.868076628402527,"labelLat":43.111902444154836,"bbox":[5.86174865,43.10985516,5.87233378,43.11509909]},"geometry":{"type":"MultiPolygon","coordinates":[[[[5.86174865,43.11050713],[5.86394205,43.11138847],[5.86521753,43.11132125],[5.86523969,43.11174367],[5.86501519,43.11192335],[5.86459373,43.11199575],[5.86510422,43.11208388],[5.86508811,43.11237862],[5.86560487,43.11234507],[5.86566695,43.11223452],[5.86680272,43.11264441],[5.86762881,43.11305174],[5.8680762,43.11332874],[5.86878059,43.1140066],[5.86931212,43.11436956],[5.86954808,43.11447038],[5.8715519,43.1149426],[5.87189384,43.11509909],[5.87208465,43.11508231],[5.87212851,43.11502533],[5.8721111,43.1149223],[5.87233378,43.11443394],[5.87226734,43.11418461],[5.87126807,43.11303671],[5.87058823,43.11277942],[5.86997877,43.11247975],[5.86977645,43.11226463],[5.86968438,43.11154796],[5.87088917,43.11146726],[5.87067018,43.10990166],[5.87055731,43.10985516],[5.87016719,43.10986556],[5.86540815,43.11013535],[5.86506542,43.11018497],[5.86482947,43.11018314],[5.86472618,43.11005718],[5.86472793,43.10999324],[5.86462932,43.10991216],[5.86450868,43.10988206],[5.86397337,43.1099125],[5.86400135,43.11022946],[5.86389663,43.11034745],[5.86204182,43.11044894],[5.86174865,43.11050713]]]]}},{"type":"Feature","id":"la_seyne_sur_mer_831260507_gai_versant_bregaillon","properties":{"zoneId":"la_seyne_sur_mer_831260507_gai_versant_bregaillon","label":"Gai Versant-Brégaillon","districtCode":"831260507","arrondissementCode":"83126","colorIndex":0,"parentZoneId":"la_seyne_sur_mer_parent_83126_la_seyne_sur_mer","parentCode":"83126","parentLabel":"La Seyne-sur-Mer","territoryType":"iris","source":"IGN / INSEE - Contours IRIS WFS Géoplateforme","sourceYear":"2026","officialId":"831260507","sourceCleabs":"IRIS____0000000831260507","communeCode":"83126","communeName":"La Seyne-sur-Mer","irisCode":"0507","irisType":"H","officialAreaM2":367261.740234375,"labelLng":5.876265279358861,"labelLat":43.1113587567933,"bbox":[5.86968438,43.10772024,5.88390696,43.11443394]},"geometry":{"type":"MultiPolygon","coordinates":[[[[5.87067018,43.10990166],[5.87088917,43.11146726],[5.86968438,43.11154796],[5.86977645,43.11226463],[5.86997877,43.11247975],[5.87058823,43.11277942],[5.87126807,43.11303671],[5.87226734,43.11418461],[5.87233378,43.11443394],[5.87296374,43.11267289],[5.87592936,43.11282237],[5.8766738,43.1128961],[5.87804664,43.11288373],[5.87792974,43.11258355],[5.87827918,43.11296482],[5.88037554,43.11324721],[5.88079341,43.11327563],[5.88183131,43.11329648],[5.88249187,43.11326441],[5.88353022,43.11334372],[5.88367152,43.11317163],[5.88390666,43.11303393],[5.88390696,43.11286742],[5.88361121,43.11272593],[5.88351286,43.11262596],[5.88301884,43.11173555],[5.88264671,43.1114665],[5.88212301,43.11133561],[5.87988311,43.1110805],[5.87969941,43.11101791],[5.87933516,43.11080804],[5.87915812,43.11065707],[5.87894126,43.11034785],[5.87777168,43.10792653],[5.87770707,43.10781305],[5.87754276,43.10772024],[5.87718834,43.10810232],[5.87719277,43.1081913],[5.87443487,43.10934946],[5.87448182,43.10960201],[5.87442276,43.1099213],[5.87347868,43.11040279],[5.87364133,43.10957223],[5.87251487,43.10974538],[5.87067018,43.10990166]]]]}}]}
