{"type":"FeatureCollection","metadata":{"generatedAt":"2026-07-14T15:57:50.765Z","source":"IGN / INSEE - Contours IRIS WFS Géoplateforme","datasetId":"STATISTICALUNITS.IRIS:contours_iris","datasetUrl":"https://geoservices.ign.fr/contoursiris","sourceFileUrl":"https://data.geopf.fr/wfs/ows?SERVICE=WFS&VERSION=2.0.0&REQUEST=GetFeature&TYPENAMES=STATISTICALUNITS.IRIS%3Acontours_iris&OUTPUTFORMAT=application%2Fjson&COUNT=1000&CQL_FILTER=code_insee%3D%2733069%27&SRSNAME=EPSG%3A4326","license":"Licence Ouverte / Open Licence 2.0","sourceYear":"2026","communeCode":"33069","communeName":"Le Bouscat","featureCount":9,"parentCount":1,"parentContract":"technical commune group; not selectable and not displayed as a district","bbox":[-0.63092571,44.85317821,-0.57571402,44.8767337],"areaStatsM2":{"minimum":378062.51301574707,"average":581257.0178748237,"maximum":1092188.294708252}},"features":[{"type":"Feature","id":"le_bouscat_330690101_jean_moulin","properties":{"zoneId":"le_bouscat_330690101_jean_moulin","label":"Jean Moulin","districtCode":"330690101","arrondissementCode":"33069","colorIndex":0,"parentZoneId":"le_bouscat_parent_33069_le_bouscat","parentCode":"33069","parentLabel":"Le Bouscat","territoryType":"iris","source":"IGN / INSEE - Contours IRIS WFS Géoplateforme","sourceYear":"2026","officialId":"330690101","sourceCleabs":"IRIS____0000000330690101","communeCode":"33069","communeName":"Le Bouscat","irisCode":"0101","irisType":"H","officialAreaM2":609217.847869873,"labelLng":-0.605505183443339,"labelLat":44.8624459029538,"bbox":[-0.61274045,44.8581488,-0.5992985,44.86750006]},"geometry":{"type":"MultiPolygon","coordinates":[[[[-0.60517979,44.8581488],[-0.60787844,44.85958152],[-0.60864455,44.8599081],[-0.60956129,44.86013334],[-0.61245372,44.86061602],[-0.61274045,44.86064093],[-0.61271449,44.86069045],[-0.61259972,44.86073835],[-0.61255539,44.86121116],[-0.61222035,44.86189262],[-0.61166133,44.86214605],[-0.61154895,44.86266434],[-0.61130047,44.86311586],[-0.61100565,44.86353644],[-0.61052552,44.86403155],[-0.60982579,44.86495469],[-0.60840792,44.86472232],[-0.60794821,44.86472735],[-0.60768529,44.86477736],[-0.6065532,44.86534322],[-0.60546145,44.86578788],[-0.60574847,44.86607327],[-0.60288844,44.86750006],[-0.60230095,44.86701532],[-0.60190869,44.86674866],[-0.60115998,44.86588431],[-0.60067651,44.86585493],[-0.60063591,44.86581479],[-0.60057659,44.86581852],[-0.60039971,44.86560976],[-0.59987924,44.86516158],[-0.60119815,44.86519539],[-0.6012188,44.86458907],[-0.60114453,44.86390561],[-0.60082239,44.86257857],[-0.60173442,44.86192078],[-0.60084076,44.86130447],[-0.59999244,44.86082188],[-0.59967162,44.86052225],[-0.5992985,44.85996025],[-0.60346336,44.85873],[-0.60517979,44.8581488]]]]}},{"type":"Feature","id":"le_bouscat_330690102_centre_ermitage","properties":{"zoneId":"le_bouscat_330690102_centre_ermitage","label":"Centre-Ermitage","districtCode":"330690102","arrondissementCode":"33069","colorIndex":1,"parentZoneId":"le_bouscat_parent_33069_le_bouscat","parentCode":"33069","parentLabel":"Le Bouscat","territoryType":"iris","source":"IGN / INSEE - Contours IRIS WFS Géoplateforme","sourceYear":"2026","officialId":"330690102","sourceCleabs":"IRIS____0000000330690102","communeCode":"33069","communeName":"Le Bouscat","irisCode":"0102","irisType":"H","officialAreaM2":448936.0988006592,"labelLng":-0.5984935336527946,"labelLat":44.865484754636945,"bbox":[-0.6029774,44.86052225,-0.59308441,44.87057871]},"geometry":{"type":"MultiPolygon","coordinates":[[[[-0.59711903,44.86168206],[-0.59716048,44.86169604],[-0.59856158,44.86097736],[-0.59967162,44.86052225],[-0.59999244,44.86082188],[-0.60084076,44.86130447],[-0.60173442,44.86192078],[-0.60082239,44.86257857],[-0.60114453,44.86390561],[-0.6012188,44.86458907],[-0.60119815,44.86519539],[-0.59987924,44.86516158],[-0.60039971,44.86560976],[-0.60057659,44.86581852],[-0.60063591,44.86581479],[-0.60067651,44.86585493],[-0.60115998,44.86588431],[-0.60190869,44.86674866],[-0.60230095,44.86701532],[-0.60039516,44.86794871],[-0.60128161,44.86849045],[-0.60208999,44.86921768],[-0.60235838,44.86929189],[-0.6029774,44.87036594],[-0.60286116,44.87039134],[-0.60047083,44.87033284],[-0.59930546,44.87024446],[-0.59893742,44.87033571],[-0.59825338,44.87057871],[-0.59775397,44.87008388],[-0.59753808,44.86976101],[-0.59713991,44.86857162],[-0.59685403,44.86798695],[-0.59646219,44.86739039],[-0.59603669,44.86684178],[-0.59513968,44.86589658],[-0.59506746,44.86575832],[-0.59475994,44.86477598],[-0.59465541,44.86385647],[-0.59475812,44.8637585],[-0.59471879,44.86367866],[-0.59454593,44.86365092],[-0.59441278,44.86353086],[-0.59363485,44.86305855],[-0.59335722,44.86274038],[-0.59308441,44.86227966],[-0.59328749,44.86226497],[-0.59436025,44.86233477],[-0.59499573,44.86232409],[-0.59541425,44.86226997],[-0.59630353,44.86200772],[-0.59708386,44.86172646],[-0.59711903,44.86168206]]]]}},{"type":"Feature","id":"le_bouscat_330690103_la_garenne_baudin","properties":{"zoneId":"le_bouscat_330690103_la_garenne_baudin","label":"La Garenne-Baudin","districtCode":"330690103","arrondissementCode":"33069","colorIndex":2,"parentZoneId":"le_bouscat_parent_33069_le_bouscat","parentCode":"33069","parentLabel":"Le Bouscat","territoryType":"iris","source":"IGN / INSEE - Contours IRIS WFS Géoplateforme","sourceYear":"2026","officialId":"330690103","sourceCleabs":"IRIS____0000000330690103","communeCode":"33069","communeName":"Le Bouscat","irisCode":"0103","irisType":"H","officialAreaM2":610746.755279541,"labelLng":-0.5903099738114124,"labelLat":44.8667092832429,"bbox":[-0.59713991,44.86206463,-0.58097958,44.87074833]},"geometry":{"type":"MultiPolygon","coordinates":[[[[-0.59333399,44.87055156],[-0.59318563,44.87074833],[-0.59204869,44.87037146],[-0.59051648,44.87011551],[-0.58919493,44.87024028],[-0.5875443,44.87019362],[-0.5859203,44.86955214],[-0.58503926,44.86944992],[-0.58398846,44.86919005],[-0.58336734,44.86918848],[-0.58288584,44.86940862],[-0.5817595,44.86935485],[-0.58163125,44.86857669],[-0.58097958,44.8682949],[-0.5833355,44.86807464],[-0.58419059,44.868029],[-0.58407335,44.86732439],[-0.58758197,44.86705599],[-0.58798841,44.86697074],[-0.58811849,44.8665871],[-0.58805271,44.86581594],[-0.58746547,44.86475791],[-0.58696131,44.86357192],[-0.5868529,44.86348169],[-0.58679449,44.86326187],[-0.58681542,44.8630539],[-0.5872236,44.86206463],[-0.58807297,44.86222824],[-0.58813753,44.86230636],[-0.58814162,44.86254867],[-0.59016272,44.86244724],[-0.59159567,44.86244232],[-0.59308441,44.86227966],[-0.59335722,44.86274038],[-0.59363485,44.86305855],[-0.59441278,44.86353086],[-0.59454593,44.86365092],[-0.59471879,44.86367866],[-0.59475812,44.8637585],[-0.59465541,44.86385647],[-0.59475994,44.86477598],[-0.59506746,44.86575832],[-0.59513968,44.86589658],[-0.59603669,44.86684178],[-0.59646219,44.86739039],[-0.59685403,44.86798695],[-0.59713991,44.86857162],[-0.59654944,44.86861329],[-0.59561668,44.86861378],[-0.59484964,44.86857014],[-0.59419805,44.8684885],[-0.59406915,44.86889013],[-0.59395447,44.86895964],[-0.59400524,44.86904001],[-0.59378525,44.86966181],[-0.59333399,44.87055156]]]]}},{"type":"Feature","id":"le_bouscat_330690104_ausone_les_ecus","properties":{"zoneId":"le_bouscat_330690104_ausone_les_ecus","label":"Ausone-Les Écus","districtCode":"330690104","arrondissementCode":"33069","colorIndex":3,"parentZoneId":"le_bouscat_parent_33069_le_bouscat","parentCode":"33069","parentLabel":"Le Bouscat","territoryType":"iris","source":"IGN / INSEE - Contours IRIS WFS Géoplateforme","sourceYear":"2026","officialId":"330690104","sourceCleabs":"IRIS____0000000330690104","communeCode":"33069","communeName":"Le Bouscat","irisCode":"0104","irisType":"H","officialAreaM2":659773.6916656494,"labelLng":-0.602552574311536,"labelLat":44.87055389138249,"bbox":[-0.61369509,44.86607327,-0.59333399,44.87449691]},"geometry":{"type":"MultiPolygon","coordinates":[[[[-0.61369509,44.87103858],[-0.61271238,44.87128778],[-0.60800418,44.87178706],[-0.60661839,44.87199704],[-0.6059258,44.8722647],[-0.60509231,44.87241075],[-0.60386053,44.8728284],[-0.60329085,44.87311548],[-0.60313433,44.87346124],[-0.60251148,44.87382846],[-0.60209428,44.87394384],[-0.60175454,44.87394315],[-0.60129434,44.87437628],[-0.60110435,44.87449691],[-0.60087683,44.87444751],[-0.6001593,44.87377411],[-0.5997829,44.87359705],[-0.59882976,44.87339994],[-0.59855718,44.87310235],[-0.59745901,44.87327224],[-0.59611412,44.87336991],[-0.5947089,44.87333703],[-0.59376832,44.87315749],[-0.59380003,44.87288068],[-0.59428386,44.87220257],[-0.59519287,44.87135567],[-0.59413839,44.87078237],[-0.59333399,44.87055156],[-0.59378525,44.86966181],[-0.59400524,44.86904001],[-0.59395447,44.86895964],[-0.59406915,44.86889013],[-0.59419805,44.8684885],[-0.59484964,44.86857014],[-0.59561668,44.86861378],[-0.59654944,44.86861329],[-0.59713991,44.86857162],[-0.59753808,44.86976101],[-0.59775397,44.87008388],[-0.59825338,44.87057871],[-0.59893742,44.87033571],[-0.59930546,44.87024446],[-0.60047083,44.87033284],[-0.60286116,44.87039134],[-0.6029774,44.87036594],[-0.60235838,44.86929189],[-0.60208999,44.86921768],[-0.60128161,44.86849045],[-0.60039516,44.86794871],[-0.60230095,44.86701532],[-0.60288844,44.86750006],[-0.60574847,44.86607327],[-0.6067089,44.86703616],[-0.60794356,44.86838039],[-0.60865687,44.86879071],[-0.61268519,44.87043245],[-0.61322312,44.87075562],[-0.61369509,44.87103858]]]]}},{"type":"Feature","id":"le_bouscat_330690105_jean_jaures_ravezies","properties":{"zoneId":"le_bouscat_330690105_jean_jaures_ravezies","label":"Jean-Jaurès-Ravezies","districtCode":"330690105","arrondissementCode":"33069","colorIndex":4,"parentZoneId":"le_bouscat_parent_33069_le_bouscat","parentCode":"33069","parentLabel":"Le Bouscat","territoryType":"iris","source":"IGN / INSEE - Contours IRIS WFS Géoplateforme","sourceYear":"2026","officialId":"330690105","sourceCleabs":"IRIS____0000000330690105","communeCode":"33069","communeName":"Le Bouscat","irisCode":"0105","irisType":"H","officialAreaM2":484705.1020812988,"labelLng":-0.5820073570207518,"labelLat":44.86599887674641,"bbox":[-0.58811849,44.86131346,-0.57571402,44.86935485]},"geometry":{"type":"MultiPolygon","coordinates":[[[[-0.5817595,44.86935485],[-0.57606285,44.86927992],[-0.57571402,44.86599344],[-0.58358196,44.8628844],[-0.58745944,44.86131346],[-0.5872236,44.86206463],[-0.58681542,44.8630539],[-0.58679449,44.86326187],[-0.5868529,44.86348169],[-0.58696131,44.86357192],[-0.58746547,44.86475791],[-0.58805271,44.86581594],[-0.58811849,44.8665871],[-0.58798841,44.86697074],[-0.58758197,44.86705599],[-0.58407335,44.86732439],[-0.58419059,44.868029],[-0.5833355,44.86807464],[-0.58097958,44.8682949],[-0.58163125,44.86857669],[-0.5817595,44.86935485]]]]}},{"type":"Feature","id":"le_bouscat_330690106_marceau_tivoli","properties":{"zoneId":"le_bouscat_330690106_marceau_tivoli","label":"Marceau-Tivoli","districtCode":"330690106","arrondissementCode":"33069","colorIndex":5,"parentZoneId":"le_bouscat_parent_33069_le_bouscat","parentCode":"33069","parentLabel":"Le Bouscat","territoryType":"iris","source":"IGN / INSEE - Contours IRIS WFS Géoplateforme","sourceYear":"2026","officialId":"330690106","sourceCleabs":"IRIS____0000000330690106","communeCode":"33069","communeName":"Le Bouscat","irisCode":"0106","irisType":"H","officialAreaM2":404151.5845489502,"labelLng":-0.5928216001523466,"labelLat":44.85946553116858,"bbox":[-0.59711903,44.85443016,-0.5872236,44.86254867]},"geometry":{"type":"MultiPolygon","coordinates":[[[[-0.58745944,44.86131346],[-0.58840828,44.86063477],[-0.58950053,44.85930611],[-0.59309507,44.85443016],[-0.59438949,44.85545082],[-0.59532701,44.85637849],[-0.59564878,44.85681239],[-0.59604638,44.85769807],[-0.59650402,44.85833395],[-0.5967513,44.85898927],[-0.59689211,44.86083051],[-0.59711903,44.86168206],[-0.59708386,44.86172646],[-0.59630353,44.86200772],[-0.59541425,44.86226997],[-0.59499573,44.86232409],[-0.59436025,44.86233477],[-0.59328749,44.86226497],[-0.59308441,44.86227966],[-0.59159567,44.86244232],[-0.59016272,44.86244724],[-0.58814162,44.86254867],[-0.58813753,44.86230636],[-0.58807297,44.86222824],[-0.5872236,44.86206463],[-0.58745944,44.86131346]]]]}},{"type":"Feature","id":"le_bouscat_330690107_barriere_du_medoc","properties":{"zoneId":"le_bouscat_330690107_barriere_du_medoc","label":"Barrière du Médoc","districtCode":"330690107","arrondissementCode":"33069","colorIndex":6,"parentZoneId":"le_bouscat_parent_33069_le_bouscat","parentCode":"33069","parentLabel":"Le Bouscat","territoryType":"iris","source":"IGN / INSEE - Contours IRIS WFS Géoplateforme","sourceYear":"2026","officialId":"330690107","sourceCleabs":"IRIS____0000000330690107","communeCode":"33069","communeName":"Le Bouscat","irisCode":"0107","irisType":"H","officialAreaM2":378062.51301574707,"labelLng":-0.5986316207205363,"labelLat":44.85709020191848,"bbox":[-0.60517979,44.85317821,-0.59309507,44.86169604]},"geometry":{"type":"MultiPolygon","coordinates":[[[[-0.59309507,44.85443016],[-0.59352038,44.85386931],[-0.59401589,44.85317821],[-0.59755678,44.85404041],[-0.59894932,44.85447562],[-0.60129129,44.85572629],[-0.60286154,44.85669825],[-0.60361967,44.85727658],[-0.60517979,44.8581488],[-0.60346336,44.85873],[-0.5992985,44.85996025],[-0.59967162,44.86052225],[-0.59856158,44.86097736],[-0.59716048,44.86169604],[-0.59711903,44.86168206],[-0.59689211,44.86083051],[-0.5967513,44.85898927],[-0.59650402,44.85833395],[-0.59604638,44.85769807],[-0.59564878,44.85681239],[-0.59532701,44.85637849],[-0.59438949,44.85545082],[-0.59309507,44.85443016]]]]}},{"type":"Feature","id":"le_bouscat_330690108_cheneraie_lavigne","properties":{"zoneId":"le_bouscat_330690108_cheneraie_lavigne","label":"Chêneraie-Lavigne","districtCode":"330690108","arrondissementCode":"33069","colorIndex":7,"parentZoneId":"le_bouscat_parent_33069_le_bouscat","parentCode":"33069","parentLabel":"Le Bouscat","territoryType":"iris","source":"IGN / INSEE - Contours IRIS WFS Géoplateforme","sourceYear":"2026","officialId":"330690108","sourceCleabs":"IRIS____0000000330690108","communeCode":"33069","communeName":"Le Bouscat","irisCode":"0108","irisType":"H","officialAreaM2":543531.2729034424,"labelLng":-0.6123224995312222,"labelLat":44.86598128675286,"bbox":[-0.61826942,44.86064093,-0.60546145,44.87075562]},"geometry":{"type":"MultiPolygon","coordinates":[[[[-0.61274045,44.86064093],[-0.61405211,44.86097675],[-0.61651299,44.86245037],[-0.61826942,44.86321688],[-0.61640334,44.86434754],[-0.61605954,44.86449935],[-0.61547881,44.86469132],[-0.61383381,44.86506486],[-0.61747849,44.86750033],[-0.61431582,44.86997107],[-0.61322312,44.87075562],[-0.61268519,44.87043245],[-0.60865687,44.86879071],[-0.60794356,44.86838039],[-0.6067089,44.86703616],[-0.60574847,44.86607327],[-0.60546145,44.86578788],[-0.6065532,44.86534322],[-0.60768529,44.86477736],[-0.60794821,44.86472735],[-0.60840792,44.86472232],[-0.60982579,44.86495469],[-0.61052552,44.86403155],[-0.61100565,44.86353644],[-0.61130047,44.86311586],[-0.61154895,44.86266434],[-0.61166133,44.86214605],[-0.61222035,44.86189262],[-0.61255539,44.86121116],[-0.61259972,44.86073835],[-0.61271449,44.86069045],[-0.61274045,44.86064093]]]]}},{"type":"Feature","id":"le_bouscat_330690109_hippodrome_lafon_feline","properties":{"zoneId":"le_bouscat_330690109_hippodrome_lafon_feline","label":"Hippodrome-Lafon-Féline","districtCode":"330690109","arrondissementCode":"33069","colorIndex":0,"parentZoneId":"le_bouscat_parent_33069_le_bouscat","parentCode":"33069","parentLabel":"Le Bouscat","territoryType":"iris","source":"IGN / INSEE - Contours IRIS WFS Géoplateforme","sourceYear":"2026","officialId":"330690109","sourceCleabs":"IRIS____0000000330690109","communeCode":"33069","communeName":"Le Bouscat","irisCode":"0109","irisType":"H","officialAreaM2":1092188.294708252,"labelLng":-0.6216839285628281,"labelLat":44.87040022109053,"bbox":[-0.63092571,44.86321688,-0.61322312,44.8767337]},"geometry":{"type":"MultiPolygon","coordinates":[[[[-0.63092571,44.8716568],[-0.63052031,44.87258037],[-0.63058749,44.87328569],[-0.63043853,44.8736673],[-0.62620523,44.87486743],[-0.62436592,44.8756116],[-0.62296024,44.87641729],[-0.62213012,44.8767337],[-0.61724392,44.87351505],[-0.61645374,44.87289728],[-0.61369509,44.87103858],[-0.61322312,44.87075562],[-0.61431582,44.86997107],[-0.61747849,44.86750033],[-0.61383381,44.86506486],[-0.61547881,44.86469132],[-0.61605954,44.86449935],[-0.61640334,44.86434754],[-0.61826942,44.86321688],[-0.6204115,44.86416545],[-0.6226226,44.86596615],[-0.62385189,44.86690751],[-0.63092571,44.8716568]]]]}}]}
