{"type":"FeatureCollection","metadata":{"generatedAt":"2026-07-14T18:47:30.712Z","source":"IGN / INSEE - Contours IRIS WFS Géoplateforme","datasetId":"STATISTICALUNITS.IRIS:contours_iris","datasetUrl":"https://geoservices.ign.fr/contoursiris","sourceFileUrl":"https://data.geopf.fr/wfs/ows?SERVICE=WFS&VERSION=2.0.0&REQUEST=GetFeature&TYPENAMES=STATISTICALUNITS.IRIS%3Acontours_iris&OUTPUTFORMAT=application%2Fjson&COUNT=1000&CQL_FILTER=code_insee%3D%2783070%27&SRSNAME=EPSG%3A4326","license":"Licence Ouverte / Open Licence 2.0","sourceYear":"2026","communeCode":"83070","communeName":"Le Lavandou","featureCount":2,"parentCount":1,"parentContract":"technical commune group; not selectable and not displayed as a district","bbox":[6.34891204,43.12527308,6.45402747,43.20848154],"areaStatsM2":{"minimum":1611389.4538574219,"average":15022637.427856445,"maximum":28433885.40185547}},"features":[{"type":"Feature","id":"le_lavandou_830700101_les_calanques","properties":{"zoneId":"le_lavandou_830700101_les_calanques","label":"Les Calanques","districtCode":"830700101","arrondissementCode":"83070","colorIndex":0,"parentZoneId":"le_lavandou_parent_83070_le_lavandou","parentCode":"83070","parentLabel":"Le Lavandou","territoryType":"iris","source":"IGN / INSEE - Contours IRIS WFS Géoplateforme","sourceYear":"2026","officialId":"830700101","sourceCleabs":"IRIS____0000000830700101","communeCode":"83070","communeName":"Le Lavandou","irisCode":"0101","irisType":"H","officialAreaM2":28433885.40185547,"labelLng":6.41575775444285,"labelLat":43.16788723768227,"bbox":[6.35567,43.13516844,6.45402747,43.20848154]},"geometry":{"type":"MultiPolygon","coordinates":[[[[6.3841276,43.13931047],[6.38320429,43.13926744],[6.38335161,43.13936905],[6.38371184,43.13943246],[6.3841276,43.13931047]]],[[[6.45308079,43.20108621],[6.45300724,43.19897183],[6.45341691,43.19621263],[6.45402747,43.19485786],[6.45370158,43.1943677],[6.45314227,43.1938634],[6.44958335,43.19260516],[6.44927977,43.19077816],[6.44888243,43.18956459],[6.44858634,43.18903655],[6.44736266,43.18778998],[6.44702601,43.18724163],[6.44425876,43.18406451],[6.44424074,43.18207083],[6.44432057,43.18122287],[6.44591009,43.1793462],[6.44586206,43.17878862],[6.44868436,43.17588574],[6.45208656,43.17204947],[6.45300195,43.17053011],[6.45258731,43.16355231],[6.45198319,43.16243724],[6.45161402,43.16080777],[6.45028487,43.15743629],[6.44966617,43.15658998],[6.44861774,43.15596089],[6.44803201,43.15529538],[6.44803752,43.15481084],[6.44794216,43.15446996],[6.44770791,43.15415064],[6.44752264,43.15345702],[6.4483169,43.15289862],[6.44727194,43.1519552],[6.44698141,43.15131086],[6.44704156,43.15114418],[6.44721117,43.15103972],[6.44730329,43.1510998],[6.44765676,43.15094444],[6.44781005,43.15066944],[6.44774055,43.15061765],[6.44797198,43.15060124],[6.44810562,43.15032687],[6.44795529,43.1501156],[6.44804872,43.15009461],[6.44804468,43.14996509],[6.44822813,43.14994842],[6.44827342,43.14971829],[6.44838802,43.1496606],[6.44825878,43.14963773],[6.44846581,43.1496041],[6.44853492,43.14948484],[6.44844902,43.14934354],[6.44854759,43.1493674],[6.44857069,43.14917759],[6.4484818,43.14902738],[6.44834391,43.14900388],[6.44833453,43.1490528],[6.44823072,43.14896159],[6.44804029,43.14900549],[6.44799351,43.14888095],[6.44767212,43.14887322],[6.44760885,43.1487402],[6.44751489,43.14875221],[6.44756667,43.14865152],[6.44746616,43.14871865],[6.44741726,43.14862028],[6.44736353,43.14864721],[6.44731033,43.14864171],[6.44726163,43.14852623],[6.4471475,43.14852988],[6.44700553,43.14841738],[6.44698176,43.14832811],[6.44677413,43.14828973],[6.44672237,43.14810232],[6.44652507,43.14798979],[6.44641061,43.14776117],[6.44605096,43.14770965],[6.44630219,43.1473865],[6.44624087,43.14734795],[6.44622777,43.14741679],[6.44621427,43.14741722],[6.44616889,43.14713057],[6.4457913,43.14681943],[6.44563733,43.14691799],[6.44561983,43.14670698],[6.44531949,43.14653651],[6.44523516,43.1462151],[6.44495484,43.14607101],[6.44501224,43.14581708],[6.44489512,43.14581182],[6.4449015,43.14571259],[6.44468168,43.14573762],[6.44459191,43.14588184],[6.44445296,43.14561348],[6.44424466,43.14562554],[6.44422687,43.14553338],[6.44409702,43.14562396],[6.44387585,43.14535823],[6.44375105,43.14538923],[6.44371754,43.14486812],[6.44359622,43.14470994],[6.44337585,43.14466386],[6.44335956,43.14455545],[6.44296175,43.14437909],[6.44279407,43.14418548],[6.44258454,43.14417687],[6.44250331,43.14405162],[6.44244034,43.14402662],[6.44230009,43.14414904],[6.44220689,43.14392604],[6.44207023,43.14384038],[6.44210254,43.1437223],[6.44187979,43.14349174],[6.44138947,43.1435164],[6.44110624,43.14371541],[6.44048499,43.14319326],[6.44034712,43.14314904],[6.44025312,43.14322227],[6.43996879,43.14319623],[6.43964403,43.14294551],[6.43960228,43.14273977],[6.4392774,43.14273483],[6.43923537,43.14240036],[6.43932526,43.14236148],[6.4391692,43.14236286],[6.43898874,43.14222277],[6.43879668,43.14230092],[6.43880096,43.14241422],[6.43885797,43.14262848],[6.43903987,43.14273071],[6.43905227,43.14285636],[6.43913533,43.1428267],[6.43916164,43.14318598],[6.43934794,43.14348614],[6.43926161,43.1435024],[6.43919885,43.14376999],[6.43931808,43.14395525],[6.43921298,43.14404864],[6.43956506,43.14467572],[6.43999482,43.14485197],[6.44017908,43.14503515],[6.44024805,43.14520221],[6.43998104,43.14515761],[6.43998266,43.1452674],[6.44021407,43.14525101],[6.44025671,43.14534778],[6.44009833,43.14557882],[6.43984991,43.14563986],[6.43984189,43.14585619],[6.43964116,43.1458716],[6.43970435,43.14629273],[6.4396006,43.14686324],[6.43968518,43.14729269],[6.43938311,43.14760934],[6.43915971,43.14767769],[6.43917034,43.14779439],[6.43835236,43.14826434],[6.4384196,43.14834052],[6.43816313,43.14855578],[6.43824094,43.14866493],[6.43805125,43.1487214],[6.43810442,43.14889166],[6.43801468,43.14899536],[6.43613671,43.14996096],[6.43367734,43.15086943],[6.43339672,43.1509477],[6.4330594,43.15042366],[6.43336027,43.15095516],[6.43256796,43.15121718],[6.4303173,43.15162465],[6.42942311,43.15168281],[6.42841739,43.15164368],[6.42557322,43.15106339],[6.42220812,43.14990806],[6.42217527,43.14976866],[6.42199765,43.14965546],[6.42200136,43.1495311],[6.42208565,43.14962566],[6.42201659,43.14937306],[6.421954,43.14935434],[6.42195836,43.14942803],[6.42175199,43.14926532],[6.42173186,43.14934069],[6.42163839,43.14921581],[6.42131702,43.14914589],[6.42138116,43.14910784],[6.42130957,43.14902008],[6.42126356,43.14911517],[6.42116239,43.14906797],[6.4210754,43.14886546],[6.42084692,43.1488277],[6.42065944,43.14867249],[6.42066716,43.14876138],[6.42061524,43.14873602],[6.42024194,43.14816267],[6.42026415,43.14781085],[6.42089041,43.1475893],[6.42089731,43.14749815],[6.42117474,43.14738671],[6.42126323,43.14724076],[6.42133947,43.14728245],[6.42145853,43.14721655],[6.42153955,43.14706903],[6.42128721,43.14681505],[6.42130746,43.14694945],[6.42103899,43.14677612],[6.42087165,43.14685705],[6.42080688,43.14680149],[6.42020676,43.14684124],[6.42013226,43.14687062],[6.42014711,43.14705921],[6.41998246,43.14699871],[6.41990036,43.14721109],[6.4197332,43.14714977],[6.41965798,43.14733312],[6.41955618,43.14727513],[6.41909239,43.14754102],[6.41899235,43.14749198],[6.4190468,43.14737321],[6.41892936,43.14713386],[6.4188396,43.14715471],[6.41885303,43.14723621],[6.41871841,43.14724679],[6.41868732,43.14713704],[6.41860115,43.14713527],[6.41861211,43.14700888],[6.41841944,43.14697357],[6.41842929,43.1470777],[6.41829753,43.14719892],[6.41841652,43.14740221],[6.41833094,43.14736891],[6.41840339,43.14742964],[6.41832153,43.14745924],[6.41839115,43.14753446],[6.41860101,43.14754851],[6.41857627,43.14771225],[6.41843705,43.14770766],[6.41828357,43.14779446],[6.41828836,43.14787533],[6.41816047,43.14783347],[6.41783119,43.14804558],[6.41764304,43.14833604],[6.41750082,43.14838467],[6.41752486,43.14847934],[6.41716168,43.14857548],[6.41689136,43.14899459],[6.41639396,43.14910849],[6.41629312,43.14906667],[6.41619924,43.14914257],[6.41607062,43.14904672],[6.41595103,43.14908292],[6.41598935,43.14904479],[6.41597132,43.14903096],[6.41585703,43.14917773],[6.41556042,43.14892334],[6.41556683,43.14909419],[6.41530018,43.14932592],[6.41510493,43.14935101],[6.41461571,43.14918735],[6.41453233,43.14931604],[6.41440502,43.14928406],[6.41427472,43.14945114],[6.41374172,43.14937889],[6.41327773,43.14964207],[6.41138871,43.1494696],[6.41120918,43.14938616],[6.41128798,43.14928373],[6.41112843,43.14928878],[6.41111506,43.14920817],[6.41108907,43.1492261],[6.41102056,43.14921117],[6.41110839,43.14919938],[6.41112138,43.14914855],[6.41105066,43.14920031],[6.41096968,43.14914075],[6.41111589,43.14911812],[6.41080655,43.14900187],[6.41076256,43.14892313],[6.41086149,43.1489119],[6.41085153,43.14884739],[6.41060202,43.14870314],[6.41070392,43.14874223],[6.41069591,43.14860654],[6.41058525,43.14860644],[6.41051598,43.14847449],[6.41008671,43.14830531],[6.40980484,43.14809185],[6.40984812,43.14820032],[6.40976073,43.14817788],[6.40947424,43.14832378],[6.40910996,43.1483182],[6.40890924,43.14854242],[6.40865127,43.14862981],[6.40872313,43.14868065],[6.40865112,43.14875225],[6.4082869,43.14883129],[6.40774679,43.14872143],[6.40753087,43.14852119],[6.40755682,43.14833581],[6.40739537,43.1483085],[6.4073146,43.14839839],[6.40712664,43.14833861],[6.40700894,43.14842786],[6.40698096,43.14834951],[6.40668577,43.14836875],[6.40673338,43.14834203],[6.40671798,43.1482894],[6.40658817,43.14838174],[6.40677199,43.14839213],[6.40689357,43.14870249],[6.40656124,43.14896778],[6.40600156,43.1490683],[6.40603453,43.1492104],[6.40538476,43.14945151],[6.40526076,43.14943382],[6.40521318,43.14950284],[6.40505127,43.14942603],[6.40497193,43.14951947],[6.40466642,43.14957233],[6.4046142,43.14952086],[6.40392892,43.14957672],[6.40304583,43.14940564],[6.4016049,43.1487399],[6.40116576,43.14811005],[6.40120868,43.14806638],[6.40127369,43.14812645],[6.40129215,43.14804304],[6.40108463,43.14804779],[6.40099846,43.14783714],[6.40089065,43.14788555],[6.39965747,43.14719703],[6.39910517,43.1470677],[6.39914671,43.14702137],[6.39895397,43.14683839],[6.39904776,43.14678142],[6.39894715,43.1468269],[6.39882099,43.14677236],[6.39877002,43.14670015],[6.3988554,43.14668845],[6.39862787,43.14641564],[6.39868643,43.14636607],[6.3988341,43.14641003],[6.39847741,43.14611518],[6.3986015,43.14596722],[6.39843843,43.14589134],[6.39834089,43.14569635],[6.39837437,43.14565928],[6.39853793,43.14572255],[6.39854584,43.14568989],[6.39820114,43.14543157],[6.39830847,43.14537507],[6.39803151,43.14526497],[6.39826801,43.1452305],[6.39814786,43.14502722],[6.39799092,43.14495114],[6.398082,43.14486905],[6.39821741,43.14487198],[6.39817182,43.1448284],[6.39827823,43.14479804],[6.39811762,43.14472208],[6.39825102,43.14469086],[6.39816739,43.14464848],[6.39813251,43.1447036],[6.39809201,43.14470488],[6.39812668,43.14454173],[6.39785259,43.14427129],[6.39786396,43.1441719],[6.39759312,43.1440823],[6.39752763,43.14393042],[6.39673528,43.14352326],[6.39639622,43.14359066],[6.39624466,43.14373138],[6.39619726,43.14359423],[6.39616686,43.14366271],[6.39599252,43.14362499],[6.39598542,43.14371344],[6.39585034,43.14369519],[6.39594837,43.14383615],[6.3956819,43.14386255],[6.3957074,43.14421286],[6.39582382,43.1442272],[6.39580656,43.14443571],[6.3961035,43.14467663],[6.3960271,43.14484109],[6.39586772,43.14484881],[6.3959539,43.14493433],[6.39583717,43.14508205],[6.3952812,43.14532914],[6.3947317,43.14539327],[6.39434579,43.14552156],[6.39362898,43.14545861],[6.39335926,43.14530415],[6.39340917,43.14527467],[6.39330735,43.14521575],[6.39339097,43.14519511],[6.39324892,43.14505824],[6.39318512,43.14503954],[6.39315551,43.14518452],[6.39304915,43.14521578],[6.39298114,43.14510448],[6.39261287,43.14503055],[6.39229812,43.14471636],[6.3920334,43.14466797],[6.391976,43.1447373],[6.39178258,43.14458404],[6.39171227,43.14464297],[6.39160428,43.14447891],[6.39141983,43.14447841],[6.39139165,43.14441718],[6.39132033,43.14445904],[6.39136183,43.14432809],[6.39123178,43.14443752],[6.39118976,43.14432901],[6.39117244,43.14445289],[6.3909313,43.14432453],[6.39089892,43.14440118],[6.39073738,43.14437205],[6.39054586,43.14425113],[6.39030622,43.1443577],[6.39030205,43.14428671],[6.39003959,43.14421394],[6.39002337,43.14414693],[6.38981859,43.1442191],[6.38959042,43.14410203],[6.38927345,43.14414801],[6.38921762,43.14403453],[6.38894722,43.1442456],[6.38869957,43.14421558],[6.38841283,43.14435783],[6.38837196,43.1442898],[6.38825247,43.14453753],[6.38813032,43.14457198],[6.38803848,43.14451545],[6.38808883,43.14468222],[6.38798632,43.14463232],[6.38785051,43.14487427],[6.3876739,43.14494464],[6.38723815,43.1448521],[6.38707812,43.14486974],[6.38708144,43.14492635],[6.38690007,43.14487353],[6.38686367,43.14496561],[6.38666997,43.14491227],[6.38661959,43.14499668],[6.38642719,43.14498652],[6.38639034,43.14490306],[6.38616009,43.14485537],[6.38634154,43.14486768],[6.3862244,43.14475702],[6.38615635,43.14485459],[6.38610153,43.1448212],[6.38603527,43.14467654],[6.38534218,43.14459838],[6.38521387,43.14444396],[6.38539617,43.14447064],[6.3853301,43.14435028],[6.38507209,43.1443953],[6.38500283,43.1444722],[6.38479507,43.14432567],[6.38471373,43.14436424],[6.38449349,43.14427753],[6.38440529,43.14382115],[6.38414503,43.14368078],[6.38406254,43.14374189],[6.38387811,43.14359463],[6.38383575,43.14364818],[6.38374487,43.1435448],[6.38355998,43.14355781],[6.3833718,43.14343047],[6.38203608,43.14188791],[6.38146318,43.14087957],[6.38134609,43.14011801],[6.38158081,43.13946515],[6.3816677,43.13947952],[6.38166816,43.13938228],[6.38177544,43.13938792],[6.38184712,43.13928934],[6.38192291,43.13932387],[6.38191092,43.13924502],[6.38199541,43.13926038],[6.38193213,43.13920835],[6.38222648,43.13925943],[6.38205607,43.13914144],[6.38216721,43.13906593],[6.38179722,43.13906673],[6.38188515,43.13918281],[6.38177681,43.1391592],[6.38179304,43.13920551],[6.38133549,43.13915955],[6.38111705,43.13899805],[6.3810222,43.13905774],[6.38045567,43.13861998],[6.38029678,43.13863577],[6.37993115,43.13847978],[6.37986186,43.13834602],[6.3795584,43.13841225],[6.3793536,43.13827373],[6.37938752,43.13822315],[6.37928741,43.138256],[6.37855413,43.13805662],[6.37834616,43.13807395],[6.37807447,43.13775837],[6.37811689,43.13692788],[6.37795494,43.13661787],[6.37737666,43.1363146],[6.37713036,43.13630701],[6.37657161,43.13600132],[6.37527315,43.13546943],[6.37447375,43.13523159],[6.3738456,43.13516844],[6.37299829,43.13526788],[6.37255844,43.13548241],[6.37246929,43.13564005],[6.3726598,43.13574482],[6.37299552,43.13547323],[6.3733952,43.13537069],[6.37355607,43.13545208],[6.37392683,43.13540176],[6.37466951,43.13553155],[6.37646464,43.13623244],[6.3770631,43.13652338],[6.37700338,43.1366585],[6.37724787,43.13678227],[6.37696883,43.13669829],[6.37654554,43.1375119],[6.37580161,43.13725612],[6.37570062,43.13742133],[6.37499712,43.13718409],[6.37469167,43.13748985],[6.37457579,43.13782117],[6.37462302,43.13791422],[6.37436703,43.13803567],[6.37387552,43.13852371],[6.37358664,43.13867139],[6.37312162,43.13879218],[6.37260706,43.1388434],[6.37248992,43.13877414],[6.37237913,43.13885593],[6.36969594,43.13907491],[6.36922756,43.13899053],[6.3679859,43.13837845],[6.3676348,43.13828139],[6.36304532,43.13812673],[6.3624133,43.13825088],[6.36053916,43.13912769],[6.35991586,43.13933888],[6.35909116,43.13946902],[6.35901717,43.13933809],[6.35888633,43.13930796],[6.3587108,43.13939715],[6.35811484,43.13942293],[6.35793278,43.1401191],[6.35831176,43.14052682],[6.35838703,43.14103943],[6.35788995,43.14187866],[6.35774676,43.14292653],[6.3571271,43.14313759],[6.35623549,43.14325989],[6.35590463,43.14338453],[6.35579146,43.14367974],[6.35585773,43.14437628],[6.35574954,43.14443997],[6.35567,43.14467922],[6.35602895,43.1448688],[6.3571914,43.14509097],[6.35809943,43.14491234],[6.35927561,43.14509535],[6.35994138,43.14531766],[6.36004861,43.14568163],[6.36026266,43.14591623],[6.36028798,43.14567507],[6.36016284,43.14542599],[6.35989827,43.14518937],[6.36094478,43.14419975],[6.36475825,43.14425811],[6.36489966,43.14438513],[6.36505414,43.14638342],[6.36488669,43.14648497],[6.36443622,43.14664578],[6.36343853,43.14669943],[6.36342447,43.14662695],[6.36265503,43.14650421],[6.36229984,43.14631633],[6.3605598,43.14626887],[6.36210788,43.14808866],[6.36294695,43.14932286],[6.36507156,43.15183404],[6.36660509,43.15413768],[6.36746282,43.15482391],[6.3679289,43.15552057],[6.36787234,43.15649104],[6.36810379,43.15634787],[6.36818702,43.15651002],[6.36853341,43.15662973],[6.36928769,43.15733359],[6.36973477,43.1582307],[6.36984117,43.15874774],[6.37019193,43.15923733],[6.36979934,43.15994913],[6.37042617,43.16127096],[6.3714699,43.16200176],[6.3714061,43.16284733],[6.37183708,43.16321467],[6.37238415,43.16285275],[6.37256136,43.16352872],[6.37292687,43.16378557],[6.37296091,43.16411582],[6.37322597,43.16427408],[6.37320573,43.16449618],[6.37334353,43.16462331],[6.37369751,43.16548282],[6.3741621,43.16530893],[6.37460859,43.16573069],[6.37459551,43.16590666],[6.37437974,43.16615019],[6.3744675,43.16641033],[6.37509629,43.16666793],[6.37618116,43.1667321],[6.37704232,43.16656738],[6.37787737,43.1661874],[6.37839772,43.16614679],[6.37898831,43.16621381],[6.37940105,43.16612075],[6.38023522,43.16616752],[6.38126193,43.1660786],[6.38166697,43.16610641],[6.38203152,43.16598874],[6.38240079,43.16597266],[6.38309287,43.16615531],[6.38481787,43.16715271],[6.38556821,43.16746856],[6.38682009,43.16777946],[6.3877839,43.16775008],[6.38848057,43.16805229],[6.38865176,43.16826568],[6.38888249,43.16836197],[6.38982186,43.16833514],[6.39017795,43.16824111],[6.39072229,43.16833653],[6.3916355,43.1683042],[6.391951,43.16816824],[6.39222426,43.16821366],[6.39229268,43.16831054],[6.39293886,43.16833882],[6.39581315,43.16781258],[6.39821704,43.1679259],[6.39848389,43.16809214],[6.39878104,43.16810438],[6.39931715,43.16862406],[6.39972188,43.16868783],[6.40074782,43.16988079],[6.40322588,43.17193993],[6.40390776,43.17263596],[6.40578023,43.17399662],[6.40833178,43.1796087],[6.4086031,43.17972436],[6.40876528,43.1799083],[6.40976024,43.18017395],[6.41031026,43.18061302],[6.41062611,43.18075338],[6.41069333,43.18089171],[6.41211788,43.18151468],[6.41269139,43.18187197],[6.41475268,43.18265122],[6.41636967,43.18419628],[6.4167257,43.18439117],[6.41687478,43.1847898],[6.41685984,43.18538989],[6.41710577,43.1865102],[6.41801218,43.18754297],[6.41806528,43.18767093],[6.41783385,43.18820946],[6.41810202,43.18837473],[6.41814432,43.18879834],[6.41865079,43.18953857],[6.41870384,43.19018512],[6.41835611,43.19042213],[6.41815929,43.19088033],[6.41719808,43.19193717],[6.41733083,43.19216345],[6.41786242,43.19264179],[6.41799377,43.19294824],[6.41840847,43.1932187],[6.41851214,43.19341079],[6.4184505,43.19369995],[6.41821074,43.19391103],[6.41720556,43.19414275],[6.4163684,43.19446908],[6.41623817,43.19461816],[6.41608308,43.19465909],[6.4157333,43.19504921],[6.41541494,43.19592901],[6.41538794,43.19645026],[6.41549262,43.19701325],[6.41567637,43.19747741],[6.41587274,43.19769718],[6.41608113,43.19830731],[6.41599513,43.19980729],[6.41621497,43.20036124],[6.41835023,43.20021616],[6.41895612,43.2000358],[6.42036777,43.19978757],[6.42074424,43.19978554],[6.42090091,43.19991652],[6.42195861,43.19973891],[6.42301092,43.19994772],[6.42329117,43.20017021],[6.42385208,43.20037299],[6.42550864,43.20068504],[6.42622471,43.2009306],[6.42747173,43.20101883],[6.42761411,43.20111604],[6.42791114,43.2016207],[6.42916533,43.20197429],[6.42970705,43.20199848],[6.43054323,43.20188276],[6.43097231,43.20166834],[6.43309781,43.20129639],[6.43370405,43.20135002],[6.43425651,43.20151341],[6.43520648,43.20206928],[6.43559801,43.20258892],[6.43574731,43.20352593],[6.43629825,43.20366324],[6.4366198,43.20383397],[6.43706687,43.20458322],[6.43754246,43.20517041],[6.43819415,43.20565563],[6.43883574,43.205682],[6.44008324,43.20600327],[6.44203893,43.20618758],[6.44318637,43.20656423],[6.44357406,43.20689399],[6.44437996,43.20709515],[6.44515299,43.20744682],[6.44600729,43.20761311],[6.44707019,43.20822201],[6.4482464,43.20848154],[6.44913477,43.20839371],[6.45047808,43.20784475],[6.45140321,43.207672],[6.45167386,43.20394396],[6.4509515,43.20275159],[6.45308079,43.20108621]]]]}},{"type":"Feature","id":"le_lavandou_830700102_la_plage_du_lavandou","properties":{"zoneId":"le_lavandou_830700102_la_plage_du_lavandou","label":"La Plage du Lavandou","districtCode":"830700102","arrondissementCode":"83070","colorIndex":1,"parentZoneId":"le_lavandou_parent_83070_le_lavandou","parentCode":"83070","parentLabel":"Le Lavandou","territoryType":"iris","source":"IGN / INSEE - Contours IRIS WFS Géoplateforme","sourceYear":"2026","officialId":"830700102","sourceCleabs":"IRIS____0000000830700102","communeCode":"83070","communeName":"Le Lavandou","irisCode":"0102","irisType":"H","officialAreaM2":1611389.4538574219,"labelLng":6.35943604440598,"labelLat":43.13367052136688,"bbox":[6.34891204,43.12527308,6.37499712,43.13946902]},"geometry":{"type":"MultiPolygon","coordinates":[[[[6.37458327,43.13704401],[6.37463376,43.1369614],[6.37391565,43.13672641],[6.37345444,43.13695421],[6.3737028,43.1371445],[6.37365961,43.13739432],[6.37353873,43.13738731],[6.37347263,43.13770807],[6.37278427,43.13785656],[6.3720069,43.13776475],[6.37186837,43.13779249],[6.37186306,43.13776475],[6.371441,43.13699922],[6.371704,43.13680824],[6.37074229,43.13648542],[6.37100431,43.13661497],[6.37091764,43.13675182],[6.37087015,43.1367596],[6.37089509,43.13678673],[6.37080959,43.13692265],[6.37051137,43.13686806],[6.37096682,43.13696274],[6.37097536,43.13753055],[6.36957694,43.13749776],[6.36974365,43.13675163],[6.36980792,43.13671541],[6.36973253,43.13666645],[6.36961919,43.13689416],[6.36893693,43.13672553],[6.36807989,43.13638412],[6.36737149,43.13583009],[6.3667983,43.13512778],[6.36629366,43.13406143],[6.3663269,43.13395686],[6.36633251,43.13390537],[6.36620965,43.13390651],[6.36600112,43.13376628],[6.36522408,43.13207465],[6.36465277,43.12988325],[6.36378058,43.1272097],[6.36383217,43.12706135],[6.36505602,43.12652799],[6.36496358,43.12643905],[6.36403023,43.12687421],[6.36375631,43.12670812],[6.36355387,43.12639755],[6.36351038,43.12609372],[6.36358273,43.12566834],[6.36381341,43.12530283],[6.36352654,43.12527308],[6.36332267,43.12574037],[6.3623635,43.12549934],[6.36223525,43.12578782],[6.36204556,43.12580184],[6.36048861,43.126504],[6.36019766,43.12657339],[6.35972178,43.1268232],[6.35971651,43.126944],[6.35933248,43.12714593],[6.35916871,43.1273734],[6.35855129,43.12785268],[6.35748444,43.12850891],[6.3565185,43.12870195],[6.3559846,43.12863036],[6.3549617,43.12864691],[6.35478469,43.1285831],[6.35482717,43.12840443],[6.35464758,43.1283596],[6.35422189,43.12858532],[6.35346369,43.1285459],[6.35268766,43.12868619],[6.35219672,43.12886801],[6.35174357,43.12919269],[6.35116641,43.12977421],[6.35093027,43.13015336],[6.35020031,43.13009233],[6.34904151,43.13011845],[6.34891204,43.13053569],[6.34896111,43.13087356],[6.34924116,43.13114574],[6.35003994,43.13158814],[6.35076124,43.13260191],[6.350987,43.13310353],[6.35123612,43.1349197],[6.35167826,43.13694774],[6.35176291,43.13832251],[6.35201051,43.13886126],[6.3527375,43.13899619],[6.35811484,43.13942293],[6.3587108,43.13939715],[6.35888633,43.13930796],[6.35901717,43.13933809],[6.35909116,43.13946902],[6.35991586,43.13933888],[6.36053916,43.13912769],[6.3624133,43.13825088],[6.36304532,43.13812673],[6.3676348,43.13828139],[6.3679859,43.13837845],[6.36922756,43.13899053],[6.36969594,43.13907491],[6.37237913,43.13885593],[6.37248992,43.13877414],[6.37260706,43.1388434],[6.37312162,43.13879218],[6.37358664,43.13867139],[6.37387552,43.13852371],[6.37436703,43.13803567],[6.37462302,43.13791422],[6.37457579,43.13782117],[6.37469167,43.13748985],[6.37499712,43.13718409],[6.37458327,43.13704401]]],[[[6.37299713,43.13684879],[6.37317207,43.13672898],[6.37332519,43.13678271],[6.3734042,43.13672532],[6.37329027,43.13654253],[6.37367705,43.13615591],[6.37380468,43.13619422],[6.37391903,43.13600519],[6.37343771,43.13590952],[6.37328208,43.13629701],[6.3728555,43.13646521],[6.37280521,43.13655141],[6.37149898,43.13607553],[6.37102668,43.13598678],[6.3706044,43.135702],[6.37043307,43.13573617],[6.37084943,43.13610936],[6.37299713,43.13684879]]]]}}]}
