{"type":"FeatureCollection","metadata":{"generatedAt":"2026-07-14T18:56:03.503Z","source":"IGN / INSEE - Contours IRIS WFS Géoplateforme","datasetId":"STATISTICALUNITS.IRIS:contours_iris","datasetUrl":"https://geoservices.ign.fr/contoursiris","sourceFileUrl":"https://data.geopf.fr/wfs/ows?SERVICE=WFS&VERSION=2.0.0&REQUEST=GetFeature&TYPENAMES=STATISTICALUNITS.IRIS%3Acontours_iris&OUTPUTFORMAT=application%2Fjson&COUNT=1000&CQL_FILTER=code_insee%3D%2778481%27&SRSNAME=EPSG%3A4326","license":"Licence Ouverte / Open Licence 2.0","sourceYear":"2026","communeCode":"78481","communeName":"Le Pecq","featureCount":8,"parentCount":1,"parentContract":"technical commune group; not selectable and not displayed as a district","sourceFeatureCount":8,"humanLabelContract":"one visible plate per unique official human place name","groupingContract":"only exact source-ID groups approved by the resolved curation, or source zones sharing the same official name and parent, are merged","groupedZoneCount":0,"groupedSourceFeatureCount":0,"curationStatus":"resolved","curationRevision":1,"curationSources":[{"id":"ign-insee-contours-iris-2026","provider":"IGN / INSEE - Contours IRIS WFS Géoplateforme","datasetUrl":"https://geoservices.ign.fr/contoursiris","role":"official geometry, source identifiers and source labels","vintage":"2026","license":"Licence Ouverte / Open Licence 2.0"},{"id":"ign-geoplateforme-toponymy-2026","provider":"IGN Géoplateforme - reverse geocoding, addresses and named places","datasetUrl":"https://geoservices.ign.fr/geocodage-geoplateforme","role":"official address, street and named-place evidence","vintage":"2026","license":"Licence Ouverte / Open Licence 2.0"},{"id":"guide-alpha-editorial-recovery-2026-07-14","provider":"Meewav Guide Alpha editorial review","datasetUrl":"docs/geospatial/france-semantic-recovery.md","role":"versioned mapping of exact official IRIS identifiers to coherent human place names","vintage":"2026-07-14","license":"Project documentation"}],"sourceCorrections":[{"operationId":"le_pecq-784810104-rename-rue-d-estienne-d-orves","type":"rename","sourceIds":["784810104"],"expectedLabels":["Centre"],"outputLabel":"Rue d'Estienne d'Orves","evidenceRefs":["ign-insee-contours-iris-2026","ign-geoplateforme-toponymy-2026","guide-alpha-editorial-recovery-2026-07-14"],"rationale":"The exact official IGN BD TOPO named road has a deterministic evidence point strictly inside this exact IRIS. The 1:1 label is emitted without nearest assignment, invented geometry, split or dropped source cell."}],"bbox":[2.0841576,48.87708203,2.12015817,48.90780063],"areaStatsM2":{"minimum":110928.76550292969,"average":358633.3998641968,"maximum":705458.4404907227}},"features":[{"type":"Feature","id":"le_pecq_784810101_vignes_benettes","properties":{"zoneId":"le_pecq_784810101_vignes_benettes","label":"Vignes Benettes","districtCode":"784810101","arrondissementCode":"78481","colorIndex":0,"parentZoneId":"le_pecq_parent_78481_le_pecq","parentCode":"78481","parentLabel":"Le Pecq","territoryType":"iris","source":"IGN / INSEE - Contours IRIS WFS Géoplateforme","sourceYear":"2026","officialId":"784810101","sourceCleabs":"IRIS____0000000784810101","communeCode":"78481","communeName":"Le Pecq","irisCode":"0101","irisType":"H","officialAreaM2":116184.64361572266,"labelLng":2.095551651087816,"labelLat":48.880190843633756,"bbox":[2.09237189,48.8776907,2.0978682,48.88267743]},"geometry":{"type":"MultiPolygon","coordinates":[[[[2.0978682,48.88190461],[2.09746134,48.88106784],[2.09709676,48.8786584],[2.09674129,48.8776907],[2.09469889,48.87885794],[2.09405358,48.87840787],[2.09301826,48.87905657],[2.09307077,48.87909474],[2.09237189,48.87968482],[2.0928113,48.8799004],[2.09449302,48.88105262],[2.09420007,48.8811961],[2.09459837,48.88158134],[2.09474338,48.8816328],[2.09527476,48.88205052],[2.09635343,48.88267743],[2.0978682,48.88190461]]]]}},{"type":"Feature","id":"le_pecq_784810102_grandchamp","properties":{"zoneId":"le_pecq_784810102_grandchamp","label":"Grandchamp","districtCode":"784810102","arrondissementCode":"78481","colorIndex":1,"parentZoneId":"le_pecq_parent_78481_le_pecq","parentCode":"78481","parentLabel":"Le Pecq","territoryType":"iris","source":"IGN / INSEE - Contours IRIS WFS Géoplateforme","sourceYear":"2026","officialId":"784810102","sourceCleabs":"IRIS____0000000784810102","communeCode":"78481","communeName":"Le Pecq","irisCode":"0102","irisType":"H","officialAreaM2":508407.2180786133,"labelLng":2.0932230801449028,"labelLat":48.88277708874644,"bbox":[2.0841576,48.87708203,2.10178267,48.8869997]},"geometry":{"type":"MultiPolygon","coordinates":[[[[2.10120727,48.88675208],[2.10178267,48.88667905],[2.10100639,48.88535387],[2.10111575,48.8853385],[2.10012655,48.88449917],[2.09921594,48.88392752],[2.09888592,48.88361296],[2.0978682,48.88190461],[2.09635343,48.88267743],[2.09527476,48.88205052],[2.09474338,48.8816328],[2.09459837,48.88158134],[2.09420007,48.8811961],[2.09449302,48.88105262],[2.0928113,48.8799004],[2.09237189,48.87968482],[2.09138998,48.88039596],[2.09053692,48.87973924],[2.08852883,48.87877784],[2.08740455,48.87780696],[2.08705062,48.87753985],[2.08669186,48.87708203],[2.08607609,48.87712949],[2.08597901,48.87737788],[2.08571314,48.87753234],[2.08528559,48.8773429],[2.08515224,48.87763777],[2.0841576,48.87868152],[2.08739469,48.88109315],[2.09025212,48.8830854],[2.09222118,48.88465443],[2.09229905,48.88558496],[2.09215489,48.88587526],[2.09186741,48.88609432],[2.09424253,48.8861249],[2.0950632,48.88637753],[2.09567796,48.8866304],[2.09619815,48.88698867],[2.09742126,48.8869997],[2.09794913,48.88699468],[2.09869866,48.88686812],[2.1005288,48.88687019],[2.10068256,48.88681109],[2.10120727,48.88675208]]]]}},{"type":"Feature","id":"le_pecq_784810103_ermitage","properties":{"zoneId":"le_pecq_784810103_ermitage","label":"Ermitage","districtCode":"784810103","arrondissementCode":"78481","colorIndex":2,"parentZoneId":"le_pecq_parent_78481_le_pecq","parentCode":"78481","parentLabel":"Le Pecq","territoryType":"iris","source":"IGN / INSEE - Contours IRIS WFS Géoplateforme","sourceYear":"2026","officialId":"784810103","sourceCleabs":"IRIS____0000000784810103","communeCode":"78481","communeName":"Le Pecq","irisCode":"0103","irisType":"H","officialAreaM2":167779.32250976562,"labelLng":2.1009526819881073,"labelLat":48.88912425010397,"bbox":[2.09694978,48.88675208,2.10453589,48.89260373]},"geometry":{"type":"MultiPolygon","coordinates":[[[[2.10239998,48.8880516],[2.10190843,48.88689944],[2.1012032,48.88690853],[2.10120727,48.88675208],[2.10068256,48.88681109],[2.1005288,48.88687019],[2.09869866,48.88686812],[2.09794913,48.88699468],[2.09742126,48.8869997],[2.09742208,48.88726681],[2.09713694,48.88750929],[2.09695683,48.887829],[2.09694978,48.88815721],[2.097073,48.88844413],[2.09766392,48.88889377],[2.09915413,48.88939244],[2.09992817,48.88982275],[2.1002571,48.8902821],[2.10070197,48.89010917],[2.10086107,48.89013644],[2.10124818,48.89078148],[2.1014967,48.89139671],[2.10256246,48.89120594],[2.10266593,48.8913749],[2.10285189,48.89134751],[2.10302007,48.89163926],[2.10278641,48.89166449],[2.10272184,48.89169189],[2.1027224,48.89173866],[2.10306893,48.89260373],[2.10453589,48.89248071],[2.10434979,48.89156468],[2.10418052,48.89109755],[2.1038024,48.89032397],[2.10370565,48.88992304],[2.10324683,48.88940157],[2.10239998,48.8880516]]]]}},{"type":"Feature","id":"le_pecq_784810104_centre","properties":{"zoneId":"le_pecq_784810104_centre","label":"Rue d'Estienne d'Orves","districtCode":"784810104","arrondissementCode":"78481","colorIndex":3,"parentZoneId":"le_pecq_parent_78481_le_pecq","parentCode":"78481","parentLabel":"Le Pecq","territoryType":"iris","source":"IGN / INSEE - Contours IRIS WFS Géoplateforme","sourceYear":"2026","officialId":"784810104","sourceCleabs":"IRIS____0000000784810104","communeCode":"78481","communeName":"Le Pecq","irisCode":"0104","irisType":"H","officialAreaM2":172032.30725097656,"labelLng":2.1053895603986814,"labelLat":48.892551423577835,"bbox":[2.10239998,48.8880516,2.1071533,48.89682276],"curationOperationId":"le_pecq-784810104-rename-rue-d-estienne-d-orves","curationRevision":1,"curationEvidenceRefs":["ign-insee-contours-iris-2026","ign-geoplateforme-toponymy-2026","guide-alpha-editorial-recovery-2026-07-14"],"curationRationale":"The exact official IGN BD TOPO named road has a deterministic evidence point strictly inside this exact IRIS. The 1:1 label is emitted without nearest assignment, invented geometry, split or dropped source cell.","semanticLabelReviewed":true,"semanticLabelAccepted":false,"semanticResolution":"rename"},"geometry":{"type":"MultiPolygon","coordinates":[[[[2.10701593,48.8893533],[2.10448464,48.88872014],[2.10239998,48.8880516],[2.10324683,48.88940157],[2.10370565,48.88992304],[2.1038024,48.89032397],[2.10418052,48.89109755],[2.10434979,48.89156468],[2.10453589,48.89248071],[2.10472106,48.89337155],[2.10507896,48.89445074],[2.10399122,48.89448937],[2.10409702,48.89642556],[2.10526501,48.89640282],[2.10525779,48.89682276],[2.10699557,48.89682224],[2.10700948,48.89617032],[2.10689471,48.89586368],[2.10695872,48.89578951],[2.10710823,48.89574116],[2.10699912,48.89550202],[2.1067351,48.89530849],[2.10710468,48.89499378],[2.1071533,48.89486284],[2.10671562,48.89270743],[2.10654374,48.89135803],[2.10674288,48.89032346],[2.10701593,48.8893533]]]]}},{"type":"Feature","id":"le_pecq_784810105_general_leclerc","properties":{"zoneId":"le_pecq_784810105_general_leclerc","label":"Général Leclerc","districtCode":"784810105","arrondissementCode":"78481","colorIndex":4,"parentZoneId":"le_pecq_parent_78481_le_pecq","parentCode":"78481","parentLabel":"Le Pecq","territoryType":"iris","source":"IGN / INSEE - Contours IRIS WFS Géoplateforme","sourceYear":"2026","officialId":"784810105","sourceCleabs":"IRIS____0000000784810105","communeCode":"78481","communeName":"Le Pecq","irisCode":"0105","irisType":"H","officialAreaM2":110928.76550292969,"labelLng":2.1018620367315557,"labelLat":48.892806294945174,"bbox":[2.0990067,48.89010917,2.10507896,48.89496409]},"geometry":{"type":"MultiPolygon","coordinates":[[[[2.1002571,48.8902821],[2.10033724,48.89061636],[2.10026171,48.89104118],[2.0990067,48.89365605],[2.10000979,48.89377961],[2.10063917,48.8939822],[2.10101988,48.89420899],[2.10150849,48.89482332],[2.10169156,48.89496409],[2.10163532,48.89435031],[2.1020697,48.8943131],[2.10216669,48.8940674],[2.1023389,48.89396797],[2.10348127,48.89392436],[2.10355981,48.89451223],[2.10399122,48.89448937],[2.10507896,48.89445074],[2.10472106,48.89337155],[2.10453589,48.89248071],[2.10306893,48.89260373],[2.1027224,48.89173866],[2.10272184,48.89169189],[2.10278641,48.89166449],[2.10302007,48.89163926],[2.10285189,48.89134751],[2.10266593,48.8913749],[2.10256246,48.89120594],[2.1014967,48.89139671],[2.10124818,48.89078148],[2.10086107,48.89013644],[2.10070197,48.89010917],[2.1002571,48.8902821]]]]}},{"type":"Feature","id":"le_pecq_784810106_vieux_pecq_cite","properties":{"zoneId":"le_pecq_784810106_vieux_pecq_cite","label":"Vieux Pecq Cité","districtCode":"784810106","arrondissementCode":"78481","colorIndex":5,"parentZoneId":"le_pecq_parent_78481_le_pecq","parentCode":"78481","parentLabel":"Le Pecq","territoryType":"iris","source":"IGN / INSEE - Contours IRIS WFS Géoplateforme","sourceYear":"2026","officialId":"784810106","sourceCleabs":"IRIS____0000000784810106","communeCode":"78481","communeName":"Le Pecq","irisCode":"0106","irisType":"H","officialAreaM2":705458.4404907227,"labelLng":2.1059105037845547,"labelLat":48.90200043394194,"bbox":[2.09863447,48.89365605,2.1139961,48.90780063]},"geometry":{"type":"MultiPolygon","coordinates":[[[[2.0990067,48.89365605],[2.09863447,48.89443658],[2.09881112,48.89455393],[2.10026555,48.89437061],[2.1005993,48.89447384],[2.10078696,48.89466501],[2.10165796,48.89643697],[2.10174601,48.89781633],[2.10179673,48.8985137],[2.10196393,48.89870561],[2.10197832,48.89929479],[2.10161029,48.89943683],[2.1009737,48.89941136],[2.10094821,48.90057133],[2.10118183,48.90062974],[2.10148015,48.90089099],[2.10160012,48.90089549],[2.10158709,48.90125512],[2.10146297,48.90125419],[2.10118174,48.9015039],[2.10425033,48.90765139],[2.10522537,48.90743924],[2.10518986,48.90696502],[2.10548735,48.90711923],[2.10582583,48.90711187],[2.10629014,48.90780063],[2.10737989,48.90750208],[2.10851626,48.90750785],[2.11345555,48.9061964],[2.11310319,48.90533762],[2.1139961,48.90505644],[2.11388854,48.90496391],[2.11385444,48.90488362],[2.11389709,48.90478231],[2.11380263,48.90464131],[2.11361088,48.90452568],[2.11368467,48.90443809],[2.11326478,48.90338006],[2.11308601,48.90306307],[2.11296048,48.90298479],[2.11286986,48.90285911],[2.10865779,48.90362466],[2.10852078,48.90318116],[2.10825553,48.90273851],[2.10763955,48.90190563],[2.10743957,48.9015552],[2.1072398,48.90103389],[2.10720681,48.9004122],[2.10731511,48.9001423],[2.10730858,48.89988684],[2.10713615,48.89952132],[2.10697403,48.8996685],[2.10693925,48.89954863],[2.10697659,48.89784915],[2.10699557,48.89682224],[2.10525779,48.89682276],[2.10526501,48.89640282],[2.10409702,48.89642556],[2.10399122,48.89448937],[2.10355981,48.89451223],[2.10348127,48.89392436],[2.1023389,48.89396797],[2.10216669,48.8940674],[2.1020697,48.8943131],[2.10163532,48.89435031],[2.10169156,48.89496409],[2.10150849,48.89482332],[2.10101988,48.89420899],[2.10063917,48.8939822],[2.10000979,48.89377961],[2.0990067,48.89365605]]]]}},{"type":"Feature","id":"le_pecq_784810107_canada_jean_jaures","properties":{"zoneId":"le_pecq_784810107_canada_jean_jaures","label":"Canada Jean Jaurès","districtCode":"784810107","arrondissementCode":"78481","colorIndex":6,"parentZoneId":"le_pecq_parent_78481_le_pecq","parentCode":"78481","parentLabel":"Le Pecq","territoryType":"iris","source":"IGN / INSEE - Contours IRIS WFS Géoplateforme","sourceYear":"2026","officialId":"784810107","sourceCleabs":"IRIS____0000000784810107","communeCode":"78481","communeName":"Le Pecq","irisCode":"0107","irisType":"H","officialAreaM2":448064.07891845703,"labelLng":2.112193572707932,"labelLat":48.900618533793306,"bbox":[2.10693925,48.89554428,2.12015817,48.90505644]},"geometry":{"type":"MultiPolygon","coordinates":[[[[2.1139961,48.90505644],[2.12015817,48.90305048],[2.11792601,48.90130013],[2.11783476,48.90121132],[2.11674186,48.9017069],[2.11458918,48.90235112],[2.1136248,48.89914143],[2.11271752,48.89899082],[2.11204888,48.89828527],[2.1119684,48.89796541],[2.11207531,48.89753542],[2.11228415,48.89728695],[2.11266058,48.89704961],[2.11312705,48.89689118],[2.11353022,48.89684561],[2.11402741,48.89688526],[2.11478296,48.89713277],[2.11563238,48.8965122],[2.11433228,48.89572196],[2.11341188,48.89554428],[2.11327106,48.89556392],[2.11156827,48.8962339],[2.1114266,48.89622296],[2.11076942,48.89572794],[2.11049237,48.89557749],[2.10992256,48.89555796],[2.10974797,48.89563761],[2.10987377,48.89577884],[2.10981353,48.89627033],[2.1099293,48.89699877],[2.10993492,48.89786667],[2.10697659,48.89784915],[2.10693925,48.89954863],[2.10697403,48.8996685],[2.10713615,48.89952132],[2.10730858,48.89988684],[2.10731511,48.9001423],[2.10720681,48.9004122],[2.1072398,48.90103389],[2.10743957,48.9015552],[2.10763955,48.90190563],[2.10825553,48.90273851],[2.10852078,48.90318116],[2.10865779,48.90362466],[2.11286986,48.90285911],[2.11296048,48.90298479],[2.11308601,48.90306307],[2.11326478,48.90338006],[2.11368467,48.90443809],[2.11361088,48.90452568],[2.11380263,48.90464131],[2.11389709,48.90478231],[2.11385444,48.90488362],[2.11388854,48.90496391],[2.1139961,48.90505644]]]]}},{"type":"Feature","id":"le_pecq_784810108_mexique","properties":{"zoneId":"le_pecq_784810108_mexique","label":"Mexique","districtCode":"784810108","arrondissementCode":"78481","colorIndex":7,"parentZoneId":"le_pecq_parent_78481_le_pecq","parentCode":"78481","parentLabel":"Le Pecq","territoryType":"iris","source":"IGN / INSEE - Contours IRIS WFS Géoplateforme","sourceYear":"2026","officialId":"784810108","sourceCleabs":"IRIS____0000000784810108","communeCode":"78481","communeName":"Le Pecq","irisCode":"0108","irisType":"H","officialAreaM2":640212.4225463867,"labelLng":2.1117561736443355,"labelLat":48.89265586556593,"bbox":[2.10654374,48.88751324,2.11818742,48.89786667]},"geometry":{"type":"MultiPolygon","coordinates":[[[[2.11818742,48.89078062],[2.11483772,48.88933943],[2.11015963,48.88751324],[2.10834906,48.88971218],[2.10701593,48.8893533],[2.10674288,48.89032346],[2.10654374,48.89135803],[2.10671562,48.89270743],[2.1071533,48.89486284],[2.10710468,48.89499378],[2.1067351,48.89530849],[2.10699912,48.89550202],[2.10710823,48.89574116],[2.10695872,48.89578951],[2.10689471,48.89586368],[2.10700948,48.89617032],[2.10699557,48.89682224],[2.10697659,48.89784915],[2.10993492,48.89786667],[2.1099293,48.89699877],[2.10981353,48.89627033],[2.10987377,48.89577884],[2.10974797,48.89563761],[2.10992256,48.89555796],[2.11049237,48.89557749],[2.11076942,48.89572794],[2.1114266,48.89622296],[2.11156827,48.8962339],[2.11327106,48.89556392],[2.11341188,48.89554428],[2.11433228,48.89572196],[2.11563238,48.8965122],[2.1166534,48.8957454],[2.11818742,48.89078062]]]]}}]}
