{"type":"FeatureCollection","metadata":{"generatedAt":"2026-07-14T15:57:56.683Z","source":"IGN / INSEE - Contours IRIS WFS Géoplateforme","datasetId":"STATISTICALUNITS.IRIS:contours_iris","datasetUrl":"https://geoservices.ign.fr/contoursiris","sourceFileUrl":"https://data.geopf.fr/wfs/ows?SERVICE=WFS&VERSION=2.0.0&REQUEST=GetFeature&TYPENAMES=STATISTICALUNITS.IRIS%3Acontours_iris&OUTPUTFORMAT=application%2Fjson&COUNT=1000&CQL_FILTER=code_insee%3D%2776498%27&SRSNAME=EPSG%3A4326","license":"Licence Ouverte / Open Licence 2.0","sourceYear":"2026","communeCode":"76498","communeName":"Le Petit-Quevilly","featureCount":12,"parentCount":1,"parentContract":"technical commune group; not selectable and not displayed as a district","sourceFeatureCount":12,"humanLabelContract":"one visible plate per unique official human place name","groupingContract":"only exact source-ID groups approved by the resolved curation, or source zones sharing the same official name and parent, are merged","groupedZoneCount":0,"groupedSourceFeatureCount":0,"curationStatus":"resolved","curationRevision":1,"curationSources":[{"id":"ign-insee-contours-iris-2026","provider":"IGN / INSEE - Contours IRIS WFS Géoplateforme","datasetUrl":"https://geoservices.ign.fr/contoursiris","role":"official geometry, source identifiers and source labels","vintage":"2026","license":"Licence Ouverte / Open Licence 2.0"},{"id":"ign-geoplateforme-toponymy-2026","provider":"IGN Géoplateforme - reverse geocoding, addresses and named places","datasetUrl":"https://geoservices.ign.fr/geocodage-geoplateforme","role":"official address, street and named-place evidence","vintage":"2026","license":"Licence Ouverte / Open Licence 2.0"},{"id":"guide-alpha-editorial-recovery-2026-07-14","provider":"Meewav Guide Alpha editorial review","datasetUrl":"docs/geospatial/france-semantic-recovery.md","role":"versioned mapping of exact official IRIS identifiers to coherent human place names","vintage":"2026-07-14","license":"Project documentation"}],"sourceCorrections":[{"operationId":"le_petit_quevilly-764980102-accept-mairie","type":"accept","sourceIds":["764980102"],"expectedLabels":["Mairie"],"outputLabel":"Mairie","evidenceRefs":["ign-insee-contours-iris-2026","guide-alpha-editorial-recovery-2026-07-14"],"rationale":"This is the exact official IGN/INSEE sector label. The local licensed dataset audit exposes no more precise official polygon crosswalk for this cell, so Guide Alpha retains it by exact source ID instead of inventing a neighborhood name."},{"operationId":"le_petit_quevilly-764980105-accept-nobel-nord","type":"accept","sourceIds":["764980105"],"expectedLabels":["Nobel Nord"],"outputLabel":"Nobel Nord","evidenceRefs":["ign-insee-contours-iris-2026","guide-alpha-editorial-recovery-2026-07-14"],"rationale":"This is the exact official IGN/INSEE sector label. The local licensed dataset audit exposes no more precise official polygon crosswalk for this cell, so Guide Alpha retains it by exact source ID instead of inventing a neighborhood name."},{"operationId":"le_petit_quevilly-764980106-accept-nobel-sud","type":"accept","sourceIds":["764980106"],"expectedLabels":["Nobel Sud"],"outputLabel":"Nobel Sud","evidenceRefs":["ign-insee-contours-iris-2026","guide-alpha-editorial-recovery-2026-07-14"],"rationale":"This is the exact official IGN/INSEE sector label. The local licensed dataset audit exposes no more precise official polygon crosswalk for this cell, so Guide Alpha retains it by exact source ID instead of inventing a neighborhood name."},{"operationId":"le_petit_quevilly-764980108-accept-centre","type":"accept","sourceIds":["764980108"],"expectedLabels":["Centre"],"outputLabel":"Centre","evidenceRefs":["ign-insee-contours-iris-2026","guide-alpha-editorial-recovery-2026-07-14"],"rationale":"This is the exact official IGN/INSEE sector label. The local licensed dataset audit exposes no more precise official polygon crosswalk for this cell, so Guide Alpha retains it by exact source ID instead of inventing a neighborhood name."}],"bbox":[1.03799078,49.40990655,1.07634742,49.43767429],"areaStatsM2":{"minimum":68907.4234008789,"average":359234.71316782635,"maximum":952764.5810546875}},"features":[{"type":"Feature","id":"le_petit_quevilly_764980101_patis_et_quais_de_seine","properties":{"zoneId":"le_petit_quevilly_764980101_patis_et_quais_de_seine","label":"Pâtis et Quais de Seine","districtCode":"764980101","arrondissementCode":"76498","colorIndex":0,"parentZoneId":"le_petit_quevilly_parent_76498_le_petit_quevilly","parentCode":"76498","parentLabel":"Le Petit-Quevilly","territoryType":"iris","source":"IGN / INSEE - Contours IRIS WFS Géoplateforme","sourceYear":"2026","officialId":"764980101","sourceCleabs":"IRIS____0000000764980101","communeCode":"76498","communeName":"Le Petit-Quevilly","irisCode":"0101","irisType":"H","officialAreaM2":952764.5810546875,"labelLng":1.0451624894937743,"labelLat":49.429629015,"bbox":[1.03799078,49.42158374,1.07213159,49.43767429]},"geometry":{"type":"MultiPolygon","coordinates":[[[[1.05158983,49.42158374],[1.05158051,49.42252224],[1.05102213,49.42336469],[1.0482368,49.42208625],[1.04663821,49.42357093],[1.04755687,49.42398855],[1.04622528,49.4256996],[1.04343134,49.4286745],[1.04237423,49.42809009],[1.03945415,49.42604145],[1.03799078,49.42740413],[1.03920075,49.42806299],[1.03972526,49.42847878],[1.03997201,49.4289494],[1.04002038,49.4295256],[1.0415215,49.43025118],[1.0418515,49.43056311],[1.04236842,49.43143369],[1.04339355,49.4322082],[1.04359436,49.43232922],[1.04436702,49.43249275],[1.04520962,49.43277519],[1.0474313,49.43406167],[1.04974972,49.43490822],[1.05075007,49.43495849],[1.05076034,49.43519691],[1.05131644,49.43525622],[1.05084602,49.43406276],[1.05625834,49.43424509],[1.05629701,49.43482741],[1.05810077,49.43499572],[1.05811097,49.43494463],[1.05935814,49.43488372],[1.06158852,49.43503543],[1.06155915,49.43479041],[1.06345168,49.43505446],[1.06947031,49.43767429],[1.07213159,49.437331],[1.07168382,49.43563002],[1.06926783,49.4350224],[1.06740239,49.43477056],[1.06555326,49.43430497],[1.06340746,49.43395778],[1.06104236,49.43383361],[1.06082217,49.43378693],[1.06053368,49.43365014],[1.06032155,49.43375553],[1.06016781,49.43377465],[1.05863453,49.43370961],[1.05794992,49.43351252],[1.05759573,49.43336388],[1.05683621,49.43292373],[1.05652033,49.43285572],[1.05621465,49.43284632],[1.05589953,49.43272168],[1.05567188,49.43269015],[1.054144,49.4326656],[1.05041821,49.43276389],[1.04983275,49.43275266],[1.04938992,49.43152367],[1.04942261,49.43098835],[1.04954929,49.43030079],[1.04960943,49.4301687],[1.05015792,49.42955357],[1.05233311,49.42718534],[1.05239398,49.42714316],[1.05256582,49.42711895],[1.05226936,49.42606495],[1.05210114,49.4258114],[1.05204814,49.42560915],[1.05208707,49.42556392],[1.05439457,49.42621691],[1.05481464,49.42626232],[1.05429726,49.42572804],[1.0538624,49.42538119],[1.05286496,49.42478524],[1.05212661,49.42448205],[1.05222835,49.4243794],[1.05218934,49.42431763],[1.05223369,49.42423833],[1.05194324,49.42400978],[1.05178603,49.42379326],[1.05170738,49.42357712],[1.05165999,49.42308096],[1.05170432,49.42267438],[1.05182765,49.42236528],[1.05158983,49.42158374]]]]}},{"type":"Feature","id":"le_petit_quevilly_764980102_mairie","properties":{"zoneId":"le_petit_quevilly_764980102_mairie","label":"Mairie","districtCode":"764980102","arrondissementCode":"76498","colorIndex":1,"parentZoneId":"le_petit_quevilly_parent_76498_le_petit_quevilly","parentCode":"76498","parentLabel":"Le Petit-Quevilly","territoryType":"iris","source":"IGN / INSEE - Contours IRIS WFS Géoplateforme","sourceYear":"2026","officialId":"764980102","sourceCleabs":"IRIS____0000000764980102","communeCode":"76498","communeName":"Le Petit-Quevilly","irisCode":"0102","irisType":"H","officialAreaM2":463666.82342529297,"labelLng":1.0549051699147438,"labelLat":49.429710929786296,"bbox":[1.04938992,49.42499546,1.06340746,49.43395778],"curationOperationId":"le_petit_quevilly-764980102-accept-mairie","curationRevision":1,"curationEvidenceRefs":["ign-insee-contours-iris-2026","guide-alpha-editorial-recovery-2026-07-14"],"curationRationale":"This is the exact official IGN/INSEE sector label. The local licensed dataset audit exposes no more precise official polygon crosswalk for this cell, so Guide Alpha retains it by exact source ID instead of inventing a neighborhood name.","semanticLabelReviewed":true,"semanticLabelAccepted":true,"semanticResolution":"accept"},"geometry":{"type":"MultiPolygon","coordinates":[[[[1.06340746,49.43395778],[1.0626029,49.43372374],[1.06174545,49.43354008],[1.06028254,49.43299788],[1.05889993,49.43215486],[1.05812021,49.43155616],[1.05697084,49.43019628],[1.0583768,49.43012534],[1.05836607,49.42986174],[1.05796435,49.42991373],[1.05777448,49.42968502],[1.05766286,49.42946475],[1.05772179,49.42918158],[1.05786504,49.42903823],[1.05861058,49.42867797],[1.05954754,49.42861478],[1.05960408,49.42817513],[1.05911808,49.42819611],[1.05897838,49.42817229],[1.05886475,49.42760315],[1.05865891,49.42743262],[1.05864526,49.42669785],[1.05874472,49.42643601],[1.05906242,49.42590615],[1.05907117,49.42574715],[1.0589359,49.42575217],[1.05642058,49.4251265],[1.05604235,49.42499546],[1.05596599,49.42544827],[1.05548391,49.42620565],[1.05481464,49.42626232],[1.05439457,49.42621691],[1.05208707,49.42556392],[1.05204814,49.42560915],[1.05210114,49.4258114],[1.05226936,49.42606495],[1.05256582,49.42711895],[1.05239398,49.42714316],[1.05233311,49.42718534],[1.05015792,49.42955357],[1.04960943,49.4301687],[1.04954929,49.43030079],[1.04942261,49.43098835],[1.04938992,49.43152367],[1.04983275,49.43275266],[1.05041821,49.43276389],[1.054144,49.4326656],[1.05567188,49.43269015],[1.05589953,49.43272168],[1.05621465,49.43284632],[1.05652033,49.43285572],[1.05683621,49.43292373],[1.05759573,49.43336388],[1.05794992,49.43351252],[1.05863453,49.43370961],[1.06016781,49.43377465],[1.06032155,49.43375553],[1.06053368,49.43365014],[1.06082217,49.43378693],[1.06104236,49.43383361],[1.06340746,49.43395778]]]]}},{"type":"Feature","id":"le_petit_quevilly_764980103_republique","properties":{"zoneId":"le_petit_quevilly_764980103_republique","label":"République","districtCode":"764980103","arrondissementCode":"76498","colorIndex":2,"parentZoneId":"le_petit_quevilly_parent_76498_le_petit_quevilly","parentCode":"76498","parentLabel":"Le Petit-Quevilly","territoryType":"iris","source":"IGN / INSEE - Contours IRIS WFS Géoplateforme","sourceYear":"2026","officialId":"764980103","sourceCleabs":"IRIS____0000000764980103","communeCode":"76498","communeName":"Le Petit-Quevilly","irisCode":"0103","irisType":"H","officialAreaM2":385016.1982116699,"labelLng":1.0690010313604923,"labelLat":49.431281205,"bbox":[1.05889993,49.42693239,1.07168382,49.43563002]},"geometry":{"type":"MultiPolygon","coordinates":[[[[1.07168382,49.43563002],[1.07136599,49.43436176],[1.07058231,49.42996448],[1.07027261,49.42995235],[1.06989295,49.42849698],[1.06899259,49.42824616],[1.06363307,49.42693239],[1.06355275,49.42701562],[1.06341337,49.42705654],[1.06326295,49.42753784],[1.06261229,49.42856497],[1.06381078,49.42887815],[1.06607262,49.4295068],[1.06691035,49.42977372],[1.06698251,49.4305319],[1.06710885,49.43058157],[1.0671573,49.43083319],[1.06709271,49.43090138],[1.06730169,49.43176064],[1.05969974,49.43203822],[1.05889993,49.43215486],[1.06028254,49.43299788],[1.06174545,49.43354008],[1.0626029,49.43372374],[1.06340746,49.43395778],[1.06555326,49.43430497],[1.06740239,49.43477056],[1.06926783,49.4350224],[1.07168382,49.43563002]]]]}},{"type":"Feature","id":"le_petit_quevilly_764980104_pasteur","properties":{"zoneId":"le_petit_quevilly_764980104_pasteur","label":"Pasteur","districtCode":"764980104","arrondissementCode":"76498","colorIndex":3,"parentZoneId":"le_petit_quevilly_parent_76498_le_petit_quevilly","parentCode":"76498","parentLabel":"Le Petit-Quevilly","territoryType":"iris","source":"IGN / INSEE - Contours IRIS WFS Géoplateforme","sourceYear":"2026","officialId":"764980104","sourceCleabs":"IRIS____0000000764980104","communeCode":"76498","communeName":"Le Petit-Quevilly","irisCode":"0104","irisType":"H","officialAreaM2":163799.28912353516,"labelLng":1.062661875637914,"labelLat":49.43078629287319,"bbox":[1.05697084,49.42887815,1.06730169,49.43215486]},"geometry":{"type":"MultiPolygon","coordinates":[[[[1.0583768,49.43012534],[1.05697084,49.43019628],[1.05812021,49.43155616],[1.05889993,49.43215486],[1.05969974,49.43203822],[1.06730169,49.43176064],[1.06709271,49.43090138],[1.0671573,49.43083319],[1.06710885,49.43058157],[1.06698251,49.4305319],[1.06691035,49.42977372],[1.06607262,49.4295068],[1.06381078,49.42887815],[1.06383802,49.42921664],[1.06312663,49.42921964],[1.06304235,49.42926145],[1.06310933,49.42997279],[1.0621777,49.43000374],[1.06207132,49.42997326],[1.06199964,49.42990019],[1.06183322,49.43000002],[1.06134633,49.43004437],[1.0599854,49.43009089],[1.05979734,49.4300699],[1.05971582,49.43011175],[1.05960958,49.43007768],[1.0583768,49.43012534]]]]}},{"type":"Feature","id":"le_petit_quevilly_764980105_nobel_nord","properties":{"zoneId":"le_petit_quevilly_764980105_nobel_nord","label":"Nobel Nord","districtCode":"764980105","arrondissementCode":"76498","colorIndex":4,"parentZoneId":"le_petit_quevilly_parent_76498_le_petit_quevilly","parentCode":"76498","parentLabel":"Le Petit-Quevilly","territoryType":"iris","source":"IGN / INSEE - Contours IRIS WFS Géoplateforme","sourceYear":"2026","officialId":"764980105","sourceCleabs":"IRIS____0000000764980105","communeCode":"76498","communeName":"Le Petit-Quevilly","irisCode":"0105","irisType":"H","officialAreaM2":69507.69815063477,"labelLng":1.0606336564409644,"labelLat":49.42921543908652,"bbox":[1.05766286,49.42812212,1.06383802,49.43012534],"curationOperationId":"le_petit_quevilly-764980105-accept-nobel-nord","curationRevision":1,"curationEvidenceRefs":["ign-insee-contours-iris-2026","guide-alpha-editorial-recovery-2026-07-14"],"curationRationale":"This is the exact official IGN/INSEE sector label. The local licensed dataset audit exposes no more precise official polygon crosswalk for this cell, so Guide Alpha retains it by exact source ID instead of inventing a neighborhood name.","semanticLabelReviewed":true,"semanticLabelAccepted":true,"semanticResolution":"accept"},"geometry":{"type":"MultiPolygon","coordinates":[[[[1.05960408,49.42817513],[1.05954754,49.42861478],[1.05861058,49.42867797],[1.05786504,49.42903823],[1.05772179,49.42918158],[1.05766286,49.42946475],[1.05777448,49.42968502],[1.05796435,49.42991373],[1.05836607,49.42986174],[1.0583768,49.43012534],[1.05960958,49.43007768],[1.05971582,49.43011175],[1.05979734,49.4300699],[1.0599854,49.43009089],[1.06134633,49.43004437],[1.06183322,49.43000002],[1.06199964,49.42990019],[1.06207132,49.42997326],[1.0621777,49.43000374],[1.06310933,49.42997279],[1.06304235,49.42926145],[1.06312663,49.42921964],[1.06383802,49.42921664],[1.06381078,49.42887815],[1.06261229,49.42856497],[1.0613143,49.42822232],[1.06078463,49.42812212],[1.05960408,49.42817513]]]]}},{"type":"Feature","id":"le_petit_quevilly_764980106_nobel_sud","properties":{"zoneId":"le_petit_quevilly_764980106_nobel_sud","label":"Nobel Sud","districtCode":"764980106","arrondissementCode":"76498","colorIndex":5,"parentZoneId":"le_petit_quevilly_parent_76498_le_petit_quevilly","parentCode":"76498","parentLabel":"Le Petit-Quevilly","territoryType":"iris","source":"IGN / INSEE - Contours IRIS WFS Géoplateforme","sourceYear":"2026","officialId":"764980106","sourceCleabs":"IRIS____0000000764980106","communeCode":"76498","communeName":"Le Petit-Quevilly","irisCode":"0106","irisType":"H","officialAreaM2":68907.4234008789,"labelLng":1.060853223748902,"labelLat":49.42723972369814,"bbox":[1.05864526,49.42574715,1.06363307,49.42856497],"curationOperationId":"le_petit_quevilly-764980106-accept-nobel-sud","curationRevision":1,"curationEvidenceRefs":["ign-insee-contours-iris-2026","guide-alpha-editorial-recovery-2026-07-14"],"curationRationale":"This is the exact official IGN/INSEE sector label. The local licensed dataset audit exposes no more precise official polygon crosswalk for this cell, so Guide Alpha retains it by exact source ID instead of inventing a neighborhood name.","semanticLabelReviewed":true,"semanticLabelAccepted":true,"semanticResolution":"accept"},"geometry":{"type":"MultiPolygon","coordinates":[[[[1.06363307,49.42693239],[1.06278806,49.42675074],[1.05950864,49.425916],[1.0592563,49.42584542],[1.05907117,49.42574715],[1.05906242,49.42590615],[1.05874472,49.42643601],[1.05864526,49.42669785],[1.05865891,49.42743262],[1.05886475,49.42760315],[1.05897838,49.42817229],[1.05911808,49.42819611],[1.05960408,49.42817513],[1.06078463,49.42812212],[1.0613143,49.42822232],[1.06261229,49.42856497],[1.06326295,49.42753784],[1.06341337,49.42705654],[1.06355275,49.42701562],[1.06363307,49.42693239]]]]}},{"type":"Feature","id":"le_petit_quevilly_764980107_l_hopital","properties":{"zoneId":"le_petit_quevilly_764980107_l_hopital","label":"L'Hôpital","districtCode":"764980107","arrondissementCode":"76498","colorIndex":6,"parentZoneId":"le_petit_quevilly_parent_76498_le_petit_quevilly","parentCode":"76498","parentLabel":"Le Petit-Quevilly","territoryType":"iris","source":"IGN / INSEE - Contours IRIS WFS Géoplateforme","sourceYear":"2026","officialId":"764980107","sourceCleabs":"IRIS____0000000764980107","communeCode":"76498","communeName":"Le Petit-Quevilly","irisCode":"0107","irisType":"H","officialAreaM2":407795.2028808594,"labelLng":1.0552504570321568,"labelLat":49.42139805804046,"bbox":[1.05158983,49.41666557,1.06010919,49.42626232]},"geometry":{"type":"MultiPolygon","coordinates":[[[[1.05420826,49.41666557],[1.05293933,49.41782387],[1.05222779,49.41860003],[1.05185548,49.41988064],[1.05166385,49.42119383],[1.05158983,49.42158374],[1.05182765,49.42236528],[1.05170432,49.42267438],[1.05165999,49.42308096],[1.05170738,49.42357712],[1.05178603,49.42379326],[1.05194324,49.42400978],[1.05223369,49.42423833],[1.05218934,49.42431763],[1.05222835,49.4243794],[1.05212661,49.42448205],[1.05286496,49.42478524],[1.0538624,49.42538119],[1.05429726,49.42572804],[1.05481464,49.42626232],[1.05548391,49.42620565],[1.05596599,49.42544827],[1.05604235,49.42499546],[1.05642058,49.4251265],[1.0589359,49.42575217],[1.05907117,49.42574715],[1.05925021,49.42461717],[1.05914988,49.42387831],[1.05905676,49.42371588],[1.05690732,49.42384323],[1.05669968,49.42375718],[1.0566174,49.42367314],[1.05658798,49.4232474],[1.05717252,49.42108818],[1.05922442,49.42094938],[1.05923421,49.4206897],[1.05951852,49.42002084],[1.06010919,49.41937757],[1.05552673,49.41704101],[1.05482458,49.41676719],[1.05420826,49.41666557]]]]}},{"type":"Feature","id":"le_petit_quevilly_764980108_centre","properties":{"zoneId":"le_petit_quevilly_764980108_centre","label":"Centre","districtCode":"764980108","arrondissementCode":"76498","colorIndex":7,"parentZoneId":"le_petit_quevilly_parent_76498_le_petit_quevilly","parentCode":"76498","parentLabel":"Le Petit-Quevilly","territoryType":"iris","source":"IGN / INSEE - Contours IRIS WFS Géoplateforme","sourceYear":"2026","officialId":"764980108","sourceCleabs":"IRIS____0000000764980108","communeCode":"76498","communeName":"Le Petit-Quevilly","irisCode":"0108","irisType":"H","officialAreaM2":320779.2937011719,"labelLng":1.0642879801808065,"labelLat":49.42479329078564,"bbox":[1.05905676,49.42098204,1.06899259,49.42824616],"curationOperationId":"le_petit_quevilly-764980108-accept-centre","curationRevision":1,"curationEvidenceRefs":["ign-insee-contours-iris-2026","guide-alpha-editorial-recovery-2026-07-14"],"curationRationale":"This is the exact official IGN/INSEE sector label. The local licensed dataset audit exposes no more precise official polygon crosswalk for this cell, so Guide Alpha retains it by exact source ID instead of inventing a neighborhood name.","semanticLabelReviewed":true,"semanticLabelAccepted":true,"semanticResolution":"accept"},"geometry":{"type":"MultiPolygon","coordinates":[[[[1.06899259,49.42824616],[1.06757867,49.42320491],[1.067554,49.42309123],[1.06748842,49.4227818],[1.06731402,49.42283836],[1.06718101,49.42282005],[1.06702882,49.42279874],[1.06670548,49.42267399],[1.06328345,49.42098204],[1.06314106,49.42106697],[1.06298191,49.42126762],[1.06272305,49.42188385],[1.0615413,49.42340057],[1.06143745,49.42341329],[1.06140958,49.42349466],[1.06019106,49.4236073],[1.05912408,49.42364863],[1.05905676,49.42371588],[1.05914988,49.42387831],[1.05925021,49.42461717],[1.05907117,49.42574715],[1.0592563,49.42584542],[1.05950864,49.425916],[1.06278806,49.42675074],[1.06363307,49.42693239],[1.06899259,49.42824616]]]]}},{"type":"Feature","id":"le_petit_quevilly_764980109_saint_julien","properties":{"zoneId":"le_petit_quevilly_764980109_saint_julien","label":"Saint-Julien","districtCode":"764980109","arrondissementCode":"76498","colorIndex":0,"parentZoneId":"le_petit_quevilly_parent_76498_le_petit_quevilly","parentCode":"76498","parentLabel":"Le Petit-Quevilly","territoryType":"iris","source":"IGN / INSEE - Contours IRIS WFS Géoplateforme","sourceYear":"2026","officialId":"764980109","sourceCleabs":"IRIS____0000000764980109","communeCode":"76498","communeName":"Le Petit-Quevilly","irisCode":"0109","irisType":"H","officialAreaM2":146006.4461364746,"labelLng":1.0598090503901818,"labelLat":49.42193364570452,"bbox":[1.05658798,49.41937757,1.06328345,49.42384323]},"geometry":{"type":"MultiPolygon","coordinates":[[[[1.06328345,49.42098204],[1.0618598,49.42024807],[1.06125084,49.41994971],[1.06123124,49.41988466],[1.06112773,49.41988839],[1.06010919,49.41937757],[1.05951852,49.42002084],[1.05923421,49.4206897],[1.05922442,49.42094938],[1.05717252,49.42108818],[1.05658798,49.4232474],[1.0566174,49.42367314],[1.05669968,49.42375718],[1.05690732,49.42384323],[1.05905676,49.42371588],[1.05912408,49.42364863],[1.06019106,49.4236073],[1.06140958,49.42349466],[1.06143745,49.42341329],[1.0615413,49.42340057],[1.06272305,49.42188385],[1.06298191,49.42126762],[1.06314106,49.42106697],[1.06328345,49.42098204]]]]}},{"type":"Feature","id":"le_petit_quevilly_764980110_les_bruyeres","properties":{"zoneId":"le_petit_quevilly_764980110_les_bruyeres","label":"Les Bruyères","districtCode":"764980110","arrondissementCode":"76498","colorIndex":1,"parentZoneId":"le_petit_quevilly_parent_76498_le_petit_quevilly","parentCode":"76498","parentLabel":"Le Petit-Quevilly","territoryType":"iris","source":"IGN / INSEE - Contours IRIS WFS Géoplateforme","sourceYear":"2026","officialId":"764980110","sourceCleabs":"IRIS____0000000764980110","communeCode":"76498","communeName":"Le Petit-Quevilly","irisCode":"0110","irisType":"H","officialAreaM2":726313.2090148926,"labelLng":1.0629632188981233,"labelLat":49.41450806676488,"bbox":[1.05420826,49.40990655,1.07263741,49.42024807]},"geometry":{"type":"MultiPolygon","coordinates":[[[[1.07263741,49.41214497],[1.07107868,49.40990655],[1.06976207,49.41051312],[1.06534076,49.41013232],[1.06329265,49.41051224],[1.06148652,49.41053906],[1.0579389,49.41352022],[1.05420826,49.41666557],[1.05482458,49.41676719],[1.05552673,49.41704101],[1.06010919,49.41937757],[1.06112773,49.41988839],[1.06123124,49.41988466],[1.06125084,49.41994971],[1.0618598,49.42024807],[1.06784521,49.41529269],[1.06649439,49.41357542],[1.07210844,49.41225072],[1.0724435,49.41224527],[1.07263741,49.41214497]]]]}},{"type":"Feature","id":"le_petit_quevilly_764980111_flaubert","properties":{"zoneId":"le_petit_quevilly_764980111_flaubert","label":"Flaubert","districtCode":"764980111","arrondissementCode":"76498","colorIndex":2,"parentZoneId":"le_petit_quevilly_parent_76498_le_petit_quevilly","parentCode":"76498","parentLabel":"Le Petit-Quevilly","territoryType":"iris","source":"IGN / INSEE - Contours IRIS WFS Géoplateforme","sourceYear":"2026","officialId":"764980111","sourceCleabs":"IRIS____0000000764980111","communeCode":"76498","communeName":"Le Petit-Quevilly","irisCode":"0111","irisType":"H","officialAreaM2":299460.5706176758,"labelLng":1.0670350559870094,"labelLat":49.41959332807606,"bbox":[1.0618598,49.41529269,1.07172516,49.42283836]},"geometry":{"type":"MultiPolygon","coordinates":[[[[1.06748842,49.4227818],[1.07172516,49.42094332],[1.0703219,49.41918391],[1.06962438,49.41812175],[1.06864993,49.41639703],[1.06784521,49.41529269],[1.0618598,49.42024807],[1.06328345,49.42098204],[1.06670548,49.42267399],[1.06702882,49.42279874],[1.06718101,49.42282005],[1.06731402,49.42283836],[1.06748842,49.4227818]]]]}},{"type":"Feature","id":"le_petit_quevilly_764980112_les_canadiens","properties":{"zoneId":"le_petit_quevilly_764980112_les_canadiens","label":"Les Canadiens","districtCode":"764980112","arrondissementCode":"76498","colorIndex":3,"parentZoneId":"le_petit_quevilly_parent_76498_le_petit_quevilly","parentCode":"76498","parentLabel":"Le Petit-Quevilly","territoryType":"iris","source":"IGN / INSEE - Contours IRIS WFS Géoplateforme","sourceYear":"2026","officialId":"764980112","sourceCleabs":"IRIS____0000000764980112","communeCode":"76498","communeName":"Le Petit-Quevilly","irisCode":"0112","irisType":"H","officialAreaM2":306799.8222961426,"labelLng":1.071465459710653,"labelLat":49.41554953636537,"bbox":[1.06649439,49.41214497,1.07634742,49.41918391]},"geometry":{"type":"MultiPolygon","coordinates":[[[[1.07634742,49.41722453],[1.07263741,49.41214497],[1.0724435,49.41224527],[1.07210844,49.41225072],[1.06649439,49.41357542],[1.06784521,49.41529269],[1.06864993,49.41639703],[1.06962438,49.41812175],[1.0703219,49.41918391],[1.07634742,49.41722453]]]]}}]}
