{"type":"FeatureCollection","metadata":{"generatedAt":"2026-07-14T18:56:03.503Z","source":"IGN / INSEE - Contours IRIS WFS Géoplateforme","datasetId":"STATISTICALUNITS.IRIS:contours_iris","datasetUrl":"https://geoservices.ign.fr/contoursiris","sourceFileUrl":"https://data.geopf.fr/wfs/ows?SERVICE=WFS&VERSION=2.0.0&REQUEST=GetFeature&TYPENAMES=STATISTICALUNITS.IRIS%3Acontours_iris&OUTPUTFORMAT=application%2Fjson&COUNT=1000&CQL_FILTER=code_insee%3D%2744135%27&SRSNAME=EPSG%3A4326","license":"Licence Ouverte / Open Licence 2.0","sourceYear":"2026","communeCode":"44135","communeName":"Le Pouliguen","featureCount":2,"parentCount":1,"parentContract":"technical commune group; not selectable and not displayed as a district","sourceFeatureCount":2,"humanLabelContract":"one visible plate per unique official human place name","groupingContract":"only exact source-ID groups approved by the resolved curation, or source zones sharing the same official name and parent, are merged","groupedZoneCount":0,"groupedSourceFeatureCount":0,"curationStatus":"resolved","curationRevision":1,"curationSources":[{"id":"ign-insee-contours-iris-2026","provider":"IGN / INSEE - Contours IRIS WFS Géoplateforme","datasetUrl":"https://geoservices.ign.fr/contoursiris","role":"official geometry, source identifiers and source labels","vintage":"2026","license":"Licence Ouverte / Open Licence 2.0"},{"id":"ign-geoplateforme-toponymy-2026","provider":"IGN Géoplateforme - reverse geocoding, addresses and named places","datasetUrl":"https://geoservices.ign.fr/geocodage-geoplateforme","role":"official address, street and named-place evidence","vintage":"2026","license":"Licence Ouverte / Open Licence 2.0"},{"id":"guide-alpha-editorial-recovery-2026-07-14","provider":"Meewav Guide Alpha editorial review","datasetUrl":"docs/geospatial/france-semantic-recovery.md","role":"versioned mapping of exact official IRIS identifiers to coherent human place names","vintage":"2026-07-14","license":"Project documentation"}],"sourceCorrections":[{"operationId":"le_pouliguen-441350101-rename-goustan","type":"rename","sourceIds":["441350101"],"expectedLabels":["Nord"],"outputLabel":"Goustan","evidenceRefs":["ign-insee-contours-iris-2026","ign-geoplateforme-toponymy-2026","guide-alpha-editorial-recovery-2026-07-14"],"rationale":"The exact official IGN BD TOPO habitation toponym has a deterministic evidence point strictly inside this exact IRIS. The 1:1 label is emitted without nearest assignment, invented geometry, split or dropped source cell."},{"operationId":"le_pouliguen-441350102-rename-avenue-de-kerdun","type":"rename","sourceIds":["441350102"],"expectedLabels":["Sud"],"outputLabel":"Avenue de Kerdun","evidenceRefs":["ign-insee-contours-iris-2026","ign-geoplateforme-toponymy-2026","guide-alpha-editorial-recovery-2026-07-14"],"rationale":"The exact official IGN BD TOPO named road has a deterministic evidence point strictly inside this exact IRIS. The 1:1 label is emitted without nearest assignment, invented geometry, split or dropped source cell."}],"bbox":[-2.45001242,47.25809531,-2.41654629,47.28839212],"areaStatsM2":{"minimum":1652408.130065918,"average":2148909.9580688477,"maximum":2645411.7860717773}},"features":[{"type":"Feature","id":"le_pouliguen_441350101_nord","properties":{"zoneId":"le_pouliguen_441350101_nord","label":"Goustan","districtCode":"441350101","arrondissementCode":"44135","colorIndex":0,"parentZoneId":"le_pouliguen_parent_44135_le_pouliguen","parentCode":"44135","parentLabel":"Le Pouliguen","territoryType":"iris","source":"IGN / INSEE - Contours IRIS WFS Géoplateforme","sourceYear":"2026","officialId":"441350101","sourceCleabs":"IRIS____0000000441350101","communeCode":"44135","communeName":"Le Pouliguen","irisCode":"0101","irisType":"H","officialAreaM2":1652408.130065918,"labelLng":-2.4326437579973765,"labelLat":47.27842625248933,"bbox":[-2.44399438,47.26937544,-2.41686347,47.28839212],"curationOperationId":"le_pouliguen-441350101-rename-goustan","curationRevision":1,"curationEvidenceRefs":["ign-insee-contours-iris-2026","ign-geoplateforme-toponymy-2026","guide-alpha-editorial-recovery-2026-07-14"],"curationRationale":"The exact official IGN BD TOPO habitation toponym has a deterministic evidence point strictly inside this exact IRIS. The 1:1 label is emitted without nearest assignment, invented geometry, split or dropped source cell.","semanticLabelReviewed":true,"semanticLabelAccepted":false,"semanticResolution":"rename"},"geometry":{"type":"MultiPolygon","coordinates":[[[[-2.44399438,47.26996275],[-2.44387655,47.27043483],[-2.44391986,47.27074412],[-2.443726,47.27129015],[-2.44348523,47.271426],[-2.44245309,47.2724915],[-2.44150073,47.2740694],[-2.44339565,47.27428087],[-2.44269877,47.27524037],[-2.44266111,47.27539194],[-2.44296682,47.27588291],[-2.4417406,47.2775197],[-2.44156171,47.2779784],[-2.44118972,47.27829817],[-2.44094712,47.27835108],[-2.44084279,47.27861677],[-2.44011504,47.27865817],[-2.43960859,47.27854117],[-2.43905176,47.27856822],[-2.43865099,47.27899672],[-2.43805589,47.27913024],[-2.43789621,47.27932092],[-2.43774567,47.27932708],[-2.43747963,47.2791618],[-2.43748755,47.27958013],[-2.43724231,47.27981634],[-2.43616425,47.28007809],[-2.43611715,47.28033297],[-2.43665916,47.28065676],[-2.43700871,47.28124044],[-2.43667271,47.28141863],[-2.43616023,47.28145171],[-2.43600362,47.28164675],[-2.43599047,47.28179175],[-2.43616213,47.28188927],[-2.43626912,47.28225152],[-2.4340689,47.2826417],[-2.43289729,47.28292315],[-2.43169643,47.28400275],[-2.4304356,47.28481805],[-2.43053558,47.28525553],[-2.4312905,47.28576969],[-2.43183952,47.28586126],[-2.43264175,47.28574244],[-2.43282711,47.28585737],[-2.43266534,47.28657784],[-2.43233481,47.28671876],[-2.43214092,47.28668995],[-2.43207995,47.28650692],[-2.43185653,47.28640911],[-2.43132234,47.28635926],[-2.42953558,47.28684005],[-2.42872501,47.28688976],[-2.4283825,47.286978],[-2.4276724,47.28737853],[-2.42696424,47.28739185],[-2.42605475,47.28725036],[-2.42568621,47.28704202],[-2.42574304,47.28669917],[-2.42607929,47.28654897],[-2.42615896,47.2864189],[-2.42576997,47.28589028],[-2.42548982,47.28576895],[-2.4252897,47.2857702],[-2.42498327,47.28591358],[-2.42409782,47.28680959],[-2.42357152,47.286864],[-2.42312199,47.28681195],[-2.4228703,47.28661799],[-2.42199022,47.28636049],[-2.42089595,47.28616174],[-2.41978798,47.28582736],[-2.4192491,47.28582279],[-2.41894316,47.28595801],[-2.41884969,47.28618798],[-2.41886164,47.28638504],[-2.41912803,47.28679037],[-2.41950603,47.28690895],[-2.42017899,47.28698034],[-2.42096785,47.28693893],[-2.42189358,47.2873856],[-2.42168664,47.28797551],[-2.42144569,47.28824215],[-2.42096055,47.28837584],[-2.42003385,47.28839212],[-2.41940378,47.28824653],[-2.41858223,47.28782024],[-2.41836721,47.28758214],[-2.41803885,47.28685214],[-2.41723633,47.28615423],[-2.41692121,47.28563386],[-2.41686347,47.28521967],[-2.41730963,47.28509413],[-2.41777662,47.28478083],[-2.41920019,47.28440655],[-2.41977097,47.28437263],[-2.42010048,47.28423449],[-2.4232111,47.28365309],[-2.42355225,47.2836696],[-2.42375857,47.2837953],[-2.42541421,47.28310687],[-2.42618121,47.28243027],[-2.42668695,47.28179296],[-2.42662646,47.28158825],[-2.42693413,47.2814836],[-2.42716763,47.28130121],[-2.42766111,47.28041181],[-2.42792338,47.2795964],[-2.42809157,47.27798229],[-2.42770407,47.27677321],[-2.42708621,47.27617049],[-2.42665622,47.27598309],[-2.42670174,47.27590877],[-2.42615208,47.27571794],[-2.4259606,47.27548959],[-2.42614438,47.27553693],[-2.42640028,47.27543199],[-2.42636392,47.27540031],[-2.42689404,47.27497843],[-2.42730598,47.27527586],[-2.42743621,47.27530496],[-2.42758215,47.2752927],[-2.42775321,47.2752143],[-2.42824203,47.27489542],[-2.4285156,47.27489974],[-2.42867032,47.2748564],[-2.42899935,47.2746226],[-2.42983023,47.27375346],[-2.43031783,47.2735014],[-2.43052481,47.27362074],[-2.43176326,47.27366103],[-2.43303451,47.27206104],[-2.43342184,47.2717487],[-2.4357739,47.27008714],[-2.43592605,47.27009714],[-2.43598429,47.2700177],[-2.43594275,47.269961],[-2.43648916,47.26958342],[-2.4376262,47.26942176],[-2.43906972,47.26943249],[-2.44072644,47.26937544],[-2.44217216,47.26959087],[-2.44291523,47.26974094],[-2.4432999,47.26987357],[-2.44399438,47.26996275]]]]}},{"type":"Feature","id":"le_pouliguen_441350102_sud","properties":{"zoneId":"le_pouliguen_441350102_sud","label":"Avenue de Kerdun","districtCode":"441350102","arrondissementCode":"44135","colorIndex":1,"parentZoneId":"le_pouliguen_parent_44135_le_pouliguen","parentCode":"44135","parentLabel":"Le Pouliguen","territoryType":"iris","source":"IGN / INSEE - Contours IRIS WFS Géoplateforme","sourceYear":"2026","officialId":"441350102","sourceCleabs":"IRIS____0000000441350102","communeCode":"44135","communeName":"Le Pouliguen","irisCode":"0102","irisType":"H","officialAreaM2":2645411.7860717773,"labelLng":-2.4323219633390565,"labelLat":47.26544227974736,"bbox":[-2.45001242,47.25809531,-2.41654629,47.27553693],"curationOperationId":"le_pouliguen-441350102-rename-avenue-de-kerdun","curationRevision":1,"curationEvidenceRefs":["ign-insee-contours-iris-2026","ign-geoplateforme-toponymy-2026","guide-alpha-editorial-recovery-2026-07-14"],"curationRationale":"The exact official IGN BD TOPO named road has a deterministic evidence point strictly inside this exact IRIS. The 1:1 label is emitted without nearest assignment, invented geometry, split or dropped source cell.","semanticLabelReviewed":true,"semanticLabelAccepted":false,"semanticResolution":"rename"},"geometry":{"type":"MultiPolygon","coordinates":[[[[-2.4259606,47.27548959],[-2.42554884,47.27499722],[-2.42543371,47.27503871],[-2.42402431,47.27368798],[-2.42305883,47.27331809],[-2.42345332,47.27341693],[-2.42385127,47.27293358],[-2.42427504,47.27156468],[-2.42428317,47.27008439],[-2.42373497,47.26977618],[-2.4236158,47.26964641],[-2.42364449,47.26953678],[-2.42335608,47.26930664],[-2.42365237,47.26895889],[-2.42330399,47.26839768],[-2.42327767,47.26813722],[-2.42315849,47.26800744],[-2.42324178,47.26791331],[-2.42286416,47.26784977],[-2.42236752,47.26713307],[-2.42229708,47.26682956],[-2.42156296,47.26612398],[-2.42143703,47.26579599],[-2.42107946,47.26566835],[-2.42029969,47.26556047],[-2.42006318,47.26531887],[-2.4197302,47.26517202],[-2.41964056,47.26520329],[-2.41934865,47.26467552],[-2.4194989,47.26432559],[-2.41920823,47.26420383],[-2.41905353,47.26424717],[-2.41895029,47.26414371],[-2.41895079,47.26401736],[-2.41911959,47.26398239],[-2.41918383,47.26369964],[-2.41917435,47.26347449],[-2.41898519,47.26317654],[-2.418635,47.26285904],[-2.41845895,47.26282216],[-2.41811089,47.26291966],[-2.41790079,47.26267682],[-2.41799042,47.26264556],[-2.4178176,47.26250926],[-2.41779856,47.26232065],[-2.4177053,47.26231599],[-2.4174943,47.26206417],[-2.41721633,47.26206815],[-2.4173392,47.26197217],[-2.41731513,47.26186501],[-2.41694572,47.26188229],[-2.41703041,47.26167078],[-2.41692074,47.26164794],[-2.4169431,47.26159365],[-2.41678991,47.26125791],[-2.41664388,47.26125572],[-2.41657892,47.26100609],[-2.41667631,47.26092032],[-2.41654629,47.26068276],[-2.41675829,47.26068187],[-2.41678971,47.26059919],[-2.41726606,47.26045959],[-2.41740946,47.26017315],[-2.41716453,47.25945368],[-2.4172606,47.25922359],[-2.41714609,47.25887702],[-2.41729765,47.25867141],[-2.41796734,47.25847765],[-2.41798185,47.25862135],[-2.41808739,47.25861642],[-2.41812259,47.25850558],[-2.41837582,47.25841432],[-2.41854872,47.25857769],[-2.41889305,47.25839102],[-2.41902228,47.25842378],[-2.41904363,47.25835961],[-2.41936705,47.25826778],[-2.41954656,47.25840466],[-2.41953991,47.25827322],[-2.42006529,47.25852747],[-2.42020347,47.25843888],[-2.42011339,47.25832128],[-2.4204178,47.25819874],[-2.42046282,47.25825078],[-2.42028231,47.25841895],[-2.42047909,47.25845125],[-2.4203879,47.25854576],[-2.42080502,47.25892238],[-2.42105197,47.25899203],[-2.42136342,47.25892601],[-2.42155692,47.25897832],[-2.42163415,47.25871933],[-2.4218052,47.25870681],[-2.42185021,47.25878501],[-2.42186676,47.25881763],[-2.42192485,47.25880227],[-2.42200913,47.2588624],[-2.42233156,47.2587345],[-2.42239027,47.25894832],[-2.42228016,47.25903921],[-2.42241125,47.25910345],[-2.42272857,47.25902994],[-2.423507,47.259414],[-2.42384926,47.25927253],[-2.42387519,47.25946353],[-2.42455206,47.25960328],[-2.42457065,47.25969535],[-2.42480087,47.25975676],[-2.42508261,47.25969844],[-2.42517025,47.2595689],[-2.4253342,47.25956483],[-2.42527277,47.25946845],[-2.4254325,47.25940953],[-2.42553994,47.25944961],[-2.42558108,47.25938452],[-2.42565644,47.25943513],[-2.42577278,47.25936651],[-2.42587011,47.25946392],[-2.4263208,47.25942476],[-2.42635863,47.25951052],[-2.42665843,47.2594342],[-2.42658165,47.25960565],[-2.42705192,47.25974694],[-2.42733406,47.25973191],[-2.42734745,47.25962841],[-2.42768792,47.25953485],[-2.42831189,47.25974113],[-2.42859436,47.25963765],[-2.42873183,47.25968625],[-2.42908308,47.25960752],[-2.42936911,47.25943439],[-2.42976533,47.25947266],[-2.43013973,47.25937389],[-2.4301527,47.2590042],[-2.42999836,47.25893293],[-2.42996509,47.2587089],[-2.43018583,47.25858484],[-2.43017355,47.25848977],[-2.43032927,47.25846983],[-2.43044062,47.25854853],[-2.43045697,47.25873636],[-2.43068188,47.2587583],[-2.43059834,47.25854836],[-2.43077134,47.25816214],[-2.43074571,47.25864251],[-2.43092553,47.25870356],[-2.43112102,47.25855272],[-2.43130034,47.2581635],[-2.43140087,47.25821383],[-2.43151997,47.25810718],[-2.43176201,47.25825916],[-2.4317632,47.25811382],[-2.43200389,47.25809531],[-2.43198671,47.25846248],[-2.43188521,47.25857282],[-2.43201201,47.25883037],[-2.43219056,47.25885268],[-2.43227274,47.25859074],[-2.43244349,47.25878487],[-2.4322925,47.25890385],[-2.43233698,47.25897666],[-2.43270956,47.25883375],[-2.4328146,47.25886311],[-2.43265358,47.25917116],[-2.43318363,47.25927443],[-2.43347522,47.25945747],[-2.43388127,47.25948805],[-2.4340166,47.25960713],[-2.43409744,47.25958078],[-2.43413096,47.25963696],[-2.43428972,47.25971253],[-2.43454771,47.25962913],[-2.43449839,47.25974425],[-2.43461985,47.25984413],[-2.43494879,47.25985937],[-2.43504101,47.25970976],[-2.43548642,47.25969697],[-2.43541508,47.25988261],[-2.43568034,47.2599234],[-2.43544465,47.26001748],[-2.43549382,47.26014963],[-2.43586462,47.26034248],[-2.43621249,47.26038751],[-2.43654731,47.26057844],[-2.43684387,47.26050948],[-2.43703458,47.26061242],[-2.43732072,47.2604537],[-2.43737831,47.26065584],[-2.43776113,47.26052236],[-2.43792622,47.26056875],[-2.43841776,47.26046174],[-2.4385001,47.26035861],[-2.43895843,47.26039484],[-2.43907561,47.26029549],[-2.43930581,47.26050035],[-2.43963912,47.26040167],[-2.44006871,47.26054663],[-2.44047713,47.26036501],[-2.44075283,47.26009037],[-2.44096823,47.26003152],[-2.44113319,47.26011581],[-2.44105109,47.26033895],[-2.44136394,47.26032606],[-2.44151443,47.2603984],[-2.44126551,47.26045341],[-2.4412455,47.26051751],[-2.44165919,47.26046649],[-2.44198151,47.26057317],[-2.4418589,47.26098501],[-2.44239868,47.26103996],[-2.44279722,47.26087865],[-2.4428603,47.26118701],[-2.44312681,47.26125299],[-2.44329721,47.26115565],[-2.44337012,47.26143016],[-2.44356372,47.2612478],[-2.44382507,47.26119761],[-2.44394431,47.26126239],[-2.44391771,47.26135298],[-2.44404509,47.26135421],[-2.44403425,47.26160017],[-2.44412784,47.26169955],[-2.44431073,47.26145091],[-2.4443419,47.26150991],[-2.44451768,47.26143938],[-2.44462933,47.26154693],[-2.44473665,47.2612459],[-2.444855,47.26140638],[-2.44491529,47.26119058],[-2.44505304,47.26116334],[-2.44502303,47.26156001],[-2.44515046,47.26160094],[-2.44487714,47.26189895],[-2.44519265,47.2619906],[-2.44550554,47.26191272],[-2.44571182,47.26176405],[-2.4458623,47.26195369],[-2.44605101,47.26195835],[-2.44615304,47.26187956],[-2.44625391,47.26197228],[-2.44676771,47.26196706],[-2.44713966,47.26147851],[-2.44732547,47.26158528],[-2.44741254,47.26155502],[-2.44736223,47.26133359],[-2.44747231,47.26129502],[-2.44747784,47.26119279],[-2.44772623,47.26140671],[-2.44760128,47.26152087],[-2.44766331,47.26162263],[-2.44734344,47.26181455],[-2.44737526,47.26193217],[-2.44756089,47.26201097],[-2.44758762,47.26213063],[-2.44786374,47.26200394],[-2.44771411,47.26225373],[-2.44790333,47.26227641],[-2.44799269,47.26212511],[-2.4481517,47.26216366],[-2.44835001,47.26200182],[-2.44854698,47.26212701],[-2.44840551,47.26241792],[-2.44892181,47.26259397],[-2.44920324,47.26259787],[-2.44920348,47.26246972],[-2.44928911,47.26250359],[-2.44924836,47.26257228],[-2.44952466,47.26281286],[-2.44923751,47.26285705],[-2.44912623,47.26307977],[-2.44920357,47.2632539],[-2.4494977,47.26348732],[-2.45001242,47.26368689],[-2.44898208,47.26500235],[-2.44456554,47.2699341],[-2.44423743,47.26990169],[-2.44399438,47.26996275],[-2.4432999,47.26987357],[-2.44291523,47.26974094],[-2.44217216,47.26959087],[-2.44072644,47.26937544],[-2.43906972,47.26943249],[-2.4376262,47.26942176],[-2.43648916,47.26958342],[-2.43594275,47.269961],[-2.43598429,47.2700177],[-2.43592605,47.27009714],[-2.4357739,47.27008714],[-2.43342184,47.2717487],[-2.43303451,47.27206104],[-2.43176326,47.27366103],[-2.43052481,47.27362074],[-2.43031783,47.2735014],[-2.42983023,47.27375346],[-2.42899935,47.2746226],[-2.42867032,47.2748564],[-2.4285156,47.27489974],[-2.42824203,47.27489542],[-2.42775321,47.2752143],[-2.42758215,47.2752927],[-2.42743621,47.27530496],[-2.42730598,47.27527586],[-2.42689404,47.27497843],[-2.42636392,47.27540031],[-2.42640028,47.27543199],[-2.42614438,47.27553693],[-2.4259606,47.27548959]]]]}}]}
