{"type":"FeatureCollection","metadata":{"generatedAt":"2026-07-14T18:56:03.503Z","source":"IGN / INSEE - Contours IRIS WFS Géoplateforme","datasetId":"STATISTICALUNITS.IRIS:contours_iris","datasetUrl":"https://geoservices.ign.fr/contoursiris","sourceFileUrl":"https://data.geopf.fr/wfs/ows?SERVICE=WFS&VERSION=2.0.0&REQUEST=GetFeature&TYPENAMES=STATISTICALUNITS.IRIS%3Acontours_iris&OUTPUTFORMAT=application%2Fjson&COUNT=1000&CQL_FILTER=code_insee%3D%2768195%27&SRSNAME=EPSG%3A4326","license":"Licence Ouverte / Open Licence 2.0","sourceYear":"2026","communeCode":"68195","communeName":"Lutterbach","featureCount":2,"parentCount":1,"parentContract":"technical commune group; not selectable and not displayed as a district","sourceFeatureCount":2,"humanLabelContract":"one visible plate per unique official human place name","groupingContract":"only exact source-ID groups approved by the resolved curation, or source zones sharing the same official name and parent, are merged","groupedZoneCount":0,"groupedSourceFeatureCount":0,"curationStatus":"resolved","curationRevision":1,"curationSources":[{"id":"ign-insee-contours-iris-2026","provider":"IGN / INSEE - Contours IRIS WFS Géoplateforme","datasetUrl":"https://geoservices.ign.fr/contoursiris","role":"official geometry, source identifiers and source labels","vintage":"2026","license":"Licence Ouverte / Open Licence 2.0"},{"id":"ign-geoplateforme-toponymy-2026","provider":"IGN Géoplateforme - reverse geocoding, addresses and named places","datasetUrl":"https://geoservices.ign.fr/geocodage-geoplateforme","role":"official address, street and named-place evidence","vintage":"2026","license":"Licence Ouverte / Open Licence 2.0"},{"id":"guide-alpha-editorial-recovery-2026-07-14","provider":"Meewav Guide Alpha editorial review","datasetUrl":"docs/geospatial/france-semantic-recovery.md","role":"versioned mapping of exact official IRIS identifiers to coherent human place names","vintage":"2026-07-14","license":"Project documentation"}],"sourceCorrections":[{"operationId":"lutterbach-681950101-rename-la-petite-venise","type":"rename","sourceIds":["681950101"],"expectedLabels":["Sud"],"outputLabel":"la Petite Venise","evidenceRefs":["ign-insee-contours-iris-2026","ign-geoplateforme-toponymy-2026","guide-alpha-editorial-recovery-2026-07-14"],"rationale":"The exact official IGN BD TOPO habitation toponym has a deterministic evidence point strictly inside this exact IRIS. The 1:1 label is emitted without nearest assignment, invented geometry, split or dropped source cell."},{"operationId":"lutterbach-681950102-rename-rue-des-chevreuils","type":"rename","sourceIds":["681950102"],"expectedLabels":["Nord"],"outputLabel":"Rue des Chevreuils","evidenceRefs":["ign-insee-contours-iris-2026","ign-geoplateforme-toponymy-2026","guide-alpha-editorial-recovery-2026-07-14"],"rationale":"The exact official IGN BD TOPO named road has a deterministic evidence point strictly inside this exact IRIS. The 1:1 label is emitted without nearest assignment, invented geometry, split or dropped source cell."}],"bbox":[7.23862368,47.74336469,7.29781374,47.77583702],"areaStatsM2":{"minimum":3177601.9794921875,"average":4243760.483276367,"maximum":5309918.987060547}},"features":[{"type":"Feature","id":"lutterbach_681950101_sud","properties":{"zoneId":"lutterbach_681950101_sud","label":"la Petite Venise","districtCode":"681950101","arrondissementCode":"68195","colorIndex":0,"parentZoneId":"lutterbach_parent_68195_lutterbach","parentCode":"68195","parentLabel":"Lutterbach","territoryType":"iris","source":"IGN / INSEE - Contours IRIS WFS Géoplateforme","sourceYear":"2026","officialId":"681950101","sourceCleabs":"IRIS____0000000681950101","communeCode":"68195","communeName":"Lutterbach","irisCode":"0101","irisType":"H","officialAreaM2":5309918.987060547,"labelLng":7.269545686270414,"labelLat":47.75724962791168,"bbox":[7.23862368,47.74336469,7.29781374,47.77480654],"curationOperationId":"lutterbach-681950101-rename-la-petite-venise","curationRevision":1,"curationEvidenceRefs":["ign-insee-contours-iris-2026","ign-geoplateforme-toponymy-2026","guide-alpha-editorial-recovery-2026-07-14"],"curationRationale":"The exact official IGN BD TOPO habitation toponym has a deterministic evidence point strictly inside this exact IRIS. The 1:1 label is emitted without nearest assignment, invented geometry, split or dropped source cell.","semanticLabelReviewed":true,"semanticLabelAccepted":false,"semanticResolution":"rename"},"geometry":{"type":"MultiPolygon","coordinates":[[[[7.23862368,47.77048658],[7.23972366,47.77070001],[7.2428495,47.77093373],[7.24858154,47.77092044],[7.24974291,47.77109819],[7.25071271,47.77138835],[7.25167763,47.77180126],[7.25265128,47.77207234],[7.25281843,47.77207257],[7.25843974,47.77428104],[7.26096486,47.77480654],[7.26087844,47.77321071],[7.26103941,47.77166535],[7.261379,47.77024688],[7.26189656,47.76891387],[7.26264878,47.76750651],[7.26368306,47.76608255],[7.2650056,47.7646697],[7.26619655,47.76360054],[7.26687794,47.76352883],[7.26754121,47.76364795],[7.26846913,47.76331665],[7.26910033,47.76323594],[7.27053091,47.76273846],[7.27248087,47.76228329],[7.27417004,47.76171052],[7.27453513,47.76179543],[7.27519369,47.76163977],[7.27536439,47.76151816],[7.27530328,47.76148975],[7.27507461,47.76102309],[7.27459099,47.75991226],[7.27467495,47.75987584],[7.2747432,47.7597769],[7.27735039,47.7591516],[7.27811966,47.75904325],[7.27869888,47.75908156],[7.27966749,47.75934088],[7.28085802,47.75925135],[7.28191707,47.75910623],[7.2818184,47.7596074],[7.28120495,47.76070517],[7.2812844,47.76074553],[7.28114642,47.76095789],[7.28122752,47.76098557],[7.28116067,47.76113494],[7.28108931,47.76112854],[7.28098491,47.7613595],[7.28111576,47.76139077],[7.280966,47.76168919],[7.28210077,47.7619361],[7.28288749,47.76206053],[7.28297649,47.7621366],[7.2832699,47.76219436],[7.28343654,47.76217203],[7.28409376,47.76233185],[7.28423155,47.76193471],[7.28429233,47.7619424],[7.28448235,47.76136397],[7.28427837,47.76132097],[7.28512565,47.75957554],[7.28564476,47.75961421],[7.28715391,47.75963013],[7.2872393,47.75850029],[7.28947892,47.75867328],[7.29128027,47.75864958],[7.29238648,47.75844314],[7.29524635,47.75770541],[7.29781374,47.75521797],[7.29379358,47.75399911],[7.29063945,47.75289259],[7.28912641,47.75232883],[7.28493827,47.75041278],[7.2830464,47.74922556],[7.28310953,47.74903036],[7.28289397,47.74899228],[7.28329639,47.74583987],[7.27992363,47.7453459],[7.2760014,47.74348473],[7.27489595,47.74336469],[7.27265576,47.74607133],[7.26853138,47.74510243],[7.26857947,47.74573524],[7.26820936,47.74570278],[7.26809938,47.74579783],[7.26783509,47.74705135],[7.26385312,47.74655842],[7.26241232,47.74610617],[7.2621538,47.74641575],[7.25905104,47.74725527],[7.25862645,47.74737709],[7.25868342,47.74777161],[7.25898044,47.74846025],[7.25872626,47.75007662],[7.25758855,47.75000536],[7.25728477,47.75068523],[7.25841028,47.75088762],[7.25833579,47.75159339],[7.25744366,47.75168535],[7.25744391,47.7519891],[7.25958219,47.75232047],[7.25939203,47.75295023],[7.25814965,47.75284133],[7.25783059,47.75391474],[7.2570331,47.75378693],[7.25539412,47.76091764],[7.25546377,47.76391028],[7.25576014,47.76492433],[7.25518565,47.76481183],[7.25462741,47.76483573],[7.25124084,47.76680568],[7.25004468,47.7672286],[7.24957173,47.76763425],[7.24706941,47.7684597],[7.24615136,47.76886707],[7.24213222,47.77002054],[7.23862368,47.77048658]]]]}},{"type":"Feature","id":"lutterbach_681950102_nord","properties":{"zoneId":"lutterbach_681950102_nord","label":"Rue des Chevreuils","districtCode":"681950102","arrondissementCode":"68195","colorIndex":1,"parentZoneId":"lutterbach_parent_68195_lutterbach","parentCode":"68195","parentLabel":"Lutterbach","territoryType":"iris","source":"IGN / INSEE - Contours IRIS WFS Géoplateforme","sourceYear":"2026","officialId":"681950102","sourceCleabs":"IRIS____0000000681950102","communeCode":"68195","communeName":"Lutterbach","irisCode":"0102","irisType":"H","officialAreaM2":3177601.9794921875,"labelLng":7.277317575684451,"labelLat":47.76781183168529,"bbox":[7.26087844,47.75770541,7.29524635,47.77583702],"curationOperationId":"lutterbach-681950102-rename-rue-des-chevreuils","curationRevision":1,"curationEvidenceRefs":["ign-insee-contours-iris-2026","ign-geoplateforme-toponymy-2026","guide-alpha-editorial-recovery-2026-07-14"],"curationRationale":"The exact official IGN BD TOPO named road has a deterministic evidence point strictly inside this exact IRIS. The 1:1 label is emitted without nearest assignment, invented geometry, split or dropped source cell.","semanticLabelReviewed":true,"semanticLabelAccepted":false,"semanticResolution":"rename"},"geometry":{"type":"MultiPolygon","coordinates":[[[[7.26096486,47.77480654],[7.26472014,47.77526464],[7.26572812,47.77567858],[7.26845258,47.77583702],[7.27007524,47.77537943],[7.27222091,47.77427538],[7.27370368,47.77395804],[7.27516234,47.77390657],[7.27694484,47.77402441],[7.27861238,47.77449164],[7.28170891,47.77460463],[7.28399929,47.77480203],[7.28855106,47.77569891],[7.28948665,47.77572682],[7.29008759,47.77565071],[7.28927194,47.77072762],[7.28806586,47.76792442],[7.28795139,47.76736707],[7.2880717,47.76705169],[7.28797777,47.76681537],[7.28824166,47.76637394],[7.2889164,47.76679989],[7.28897174,47.76674018],[7.28928942,47.76678351],[7.29010918,47.76527792],[7.29099923,47.76442865],[7.29163808,47.76344886],[7.29177526,47.76350873],[7.2919567,47.7630568],[7.29196387,47.76258242],[7.29273778,47.76281272],[7.29229127,47.76176909],[7.29244327,47.76173106],[7.29223767,47.76102202],[7.29261395,47.75943983],[7.29389659,47.75951444],[7.29388737,47.75944988],[7.29372552,47.75944861],[7.29376911,47.75829956],[7.29416514,47.75817145],[7.29414158,47.7583598],[7.29456009,47.75837779],[7.29524635,47.75770541],[7.29238648,47.75844314],[7.29128027,47.75864958],[7.28947892,47.75867328],[7.2872393,47.75850029],[7.28715391,47.75963013],[7.28564476,47.75961421],[7.28512565,47.75957554],[7.28427837,47.76132097],[7.28448235,47.76136397],[7.28429233,47.7619424],[7.28423155,47.76193471],[7.28409376,47.76233185],[7.28343654,47.76217203],[7.2832699,47.76219436],[7.28297649,47.7621366],[7.28288749,47.76206053],[7.28210077,47.7619361],[7.280966,47.76168919],[7.28111576,47.76139077],[7.28098491,47.7613595],[7.28108931,47.76112854],[7.28116067,47.76113494],[7.28122752,47.76098557],[7.28114642,47.76095789],[7.2812844,47.76074553],[7.28120495,47.76070517],[7.2818184,47.7596074],[7.28191707,47.75910623],[7.28085802,47.75925135],[7.27966749,47.75934088],[7.27869888,47.75908156],[7.27811966,47.75904325],[7.27735039,47.7591516],[7.2747432,47.7597769],[7.27467495,47.75987584],[7.27459099,47.75991226],[7.27507461,47.76102309],[7.27530328,47.76148975],[7.27536439,47.76151816],[7.27519369,47.76163977],[7.27453513,47.76179543],[7.27417004,47.76171052],[7.27248087,47.76228329],[7.27053091,47.76273846],[7.26910033,47.76323594],[7.26846913,47.76331665],[7.26754121,47.76364795],[7.26687794,47.76352883],[7.26619655,47.76360054],[7.2650056,47.7646697],[7.26368306,47.76608255],[7.26264878,47.76750651],[7.26189656,47.76891387],[7.261379,47.77024688],[7.26103941,47.77166535],[7.26087844,47.77321071],[7.26096486,47.77480654]]]]}}]}
