{"type":"FeatureCollection","metadata":{"generatedAt":"2026-07-14T15:57:56.565Z","source":"IGN / INSEE - Contours IRIS WFS Géoplateforme","datasetId":"STATISTICALUNITS.IRIS:contours_iris","datasetUrl":"https://geoservices.ign.fr/contoursiris","sourceFileUrl":"https://data.geopf.fr/wfs/ows?SERVICE=WFS&VERSION=2.0.0&REQUEST=GetFeature&TYPENAMES=STATISTICALUNITS.IRIS%3Acontours_iris&OUTPUTFORMAT=application%2Fjson&COUNT=1000&CQL_FILTER=code_insee%3D%2778362%27&SRSNAME=EPSG%3A4326","license":"Licence Ouverte / Open Licence 2.0","sourceYear":"2026","communeCode":"78362","communeName":"Mantes-la-Ville","featureCount":8,"parentCount":1,"parentContract":"technical commune group; not selectable and not displayed as a district","sourceFeatureCount":8,"humanLabelContract":"one visible plate per unique official human place name","groupingContract":"only exact source-ID groups approved by the resolved curation, or source zones sharing the same official name and parent, are merged","groupedZoneCount":0,"groupedSourceFeatureCount":0,"curationStatus":"resolved","curationRevision":1,"curationSources":[{"id":"ign-insee-contours-iris-2026","provider":"IGN / INSEE - Contours IRIS WFS Géoplateforme","datasetUrl":"https://geoservices.ign.fr/contoursiris","role":"official geometry, source identifiers and source labels","vintage":"2026","license":"Licence Ouverte / Open Licence 2.0"},{"id":"ign-geoplateforme-toponymy-2026","provider":"IGN Géoplateforme - reverse geocoding, addresses and named places","datasetUrl":"https://geoservices.ign.fr/geocodage-geoplateforme","role":"official address, street and named-place evidence","vintage":"2026","license":"Licence Ouverte / Open Licence 2.0"},{"id":"guide-alpha-editorial-recovery-2026-07-14","provider":"Meewav Guide Alpha editorial review","datasetUrl":"docs/geospatial/france-semantic-recovery.md","role":"versioned mapping of exact official IRIS identifiers to coherent human place names","vintage":"2026-07-14","license":"Project documentation"}],"sourceCorrections":[{"operationId":"mantes_la_ville-783620101-accept-brouets-gare","type":"accept","sourceIds":["783620101"],"expectedLabels":["Brouets Gare"],"outputLabel":"Brouets Gare","evidenceRefs":["ign-insee-contours-iris-2026","guide-alpha-editorial-recovery-2026-07-14"],"rationale":"This is the exact official IGN/INSEE sector label. The local licensed dataset audit exposes no more precise official polygon crosswalk for this cell, so Guide Alpha retains it by exact source ID instead of inventing a neighborhood name."},{"operationId":"mantes_la_ville-783620103-accept-centre-entre-deux-gares","type":"accept","sourceIds":["783620103"],"expectedLabels":["Centre Entre Deux Gares"],"outputLabel":"Centre Entre Deux Gares","evidenceRefs":["ign-insee-contours-iris-2026","guide-alpha-editorial-recovery-2026-07-14"],"rationale":"This is the exact official IGN/INSEE sector label. The local licensed dataset audit exposes no more precise official polygon crosswalk for this cell, so Guide Alpha retains it by exact source ID instead of inventing a neighborhood name."}],"bbox":[1.68599243,48.96093207,1.73452557,48.98940702],"areaStatsM2":{"minimum":386520.5238647461,"average":774998.6758651733,"maximum":1501477.2404174805}},"features":[{"type":"Feature","id":"mantes_la_ville_783620101_brouets_gare","properties":{"zoneId":"mantes_la_ville_783620101_brouets_gare","label":"Brouets Gare","districtCode":"783620101","arrondissementCode":"78362","colorIndex":0,"parentZoneId":"mantes_la_ville_parent_78362_mantes_la_ville","parentCode":"78362","parentLabel":"Mantes-la-Ville","territoryType":"iris","source":"IGN / INSEE - Contours IRIS WFS Géoplateforme","sourceYear":"2026","officialId":"783620101","sourceCleabs":"IRIS____0000000783620101","communeCode":"78362","communeName":"Mantes-la-Ville","irisCode":"0101","irisType":"H","officialAreaM2":421229.22802734375,"labelLng":1.6992235294161664,"labelLat":48.98506250964026,"bbox":[1.69109934,48.98057612,1.70737573,48.98940702],"curationOperationId":"mantes_la_ville-783620101-accept-brouets-gare","curationRevision":1,"curationEvidenceRefs":["ign-insee-contours-iris-2026","guide-alpha-editorial-recovery-2026-07-14"],"curationRationale":"This is the exact official IGN/INSEE sector label. The local licensed dataset audit exposes no more precise official polygon crosswalk for this cell, so Guide Alpha retains it by exact source ID instead of inventing a neighborhood name.","semanticLabelReviewed":true,"semanticLabelAccepted":true,"semanticResolution":"accept"},"geometry":{"type":"MultiPolygon","coordinates":[[[[1.69109934,48.98173028],[1.69232319,48.98304947],[1.69243625,48.9830633],[1.6927892,48.98288368],[1.69340492,48.98333916],[1.69408237,48.98356777],[1.69408949,48.98366498],[1.69623618,48.98551398],[1.6966158,48.98563322],[1.69531436,48.98647254],[1.69593551,48.9874218],[1.69757866,48.98592517],[1.70039397,48.98776696],[1.70318992,48.98940702],[1.70498137,48.98880763],[1.70737573,48.98759148],[1.70636127,48.98695371],[1.70361922,48.98512634],[1.69931325,48.98350139],[1.69872368,48.98320001],[1.69819517,48.98280666],[1.69715091,48.98173051],[1.69669245,48.98110588],[1.69619063,48.98057612],[1.69135566,48.98153522],[1.69109934,48.98173028]]]]}},{"type":"Feature","id":"mantes_la_ville_783620102_salengro_jaures","properties":{"zoneId":"mantes_la_ville_783620102_salengro_jaures","label":"Salengro-Jaurès","districtCode":"783620102","arrondissementCode":"78362","colorIndex":1,"parentZoneId":"mantes_la_ville_parent_78362_mantes_la_ville","parentCode":"78362","parentLabel":"Mantes-la-Ville","territoryType":"iris","source":"IGN / INSEE - Contours IRIS WFS Géoplateforme","sourceYear":"2026","officialId":"783620102","sourceCleabs":"IRIS____0000000783620102","communeCode":"78362","communeName":"Mantes-la-Ville","irisCode":"0102","irisType":"H","officialAreaM2":617641.5023193359,"labelLng":1.705023985504095,"labelLat":48.98182661936857,"bbox":[1.69619063,48.97791385,1.71228134,48.98695371]},"geometry":{"type":"MultiPolygon","coordinates":[[[[1.70392853,48.97913469],[1.70042096,48.97974876],[1.69619063,48.98057612],[1.69669245,48.98110588],[1.69715091,48.98173051],[1.69819517,48.98280666],[1.69872368,48.98320001],[1.69931325,48.98350139],[1.70361922,48.98512634],[1.70636127,48.98695371],[1.71228134,48.98026339],[1.71099886,48.97793022],[1.71081482,48.97791385],[1.70392853,48.97913469]]]]}},{"type":"Feature","id":"mantes_la_ville_783620103_centre_entre_deux_gares","properties":{"zoneId":"mantes_la_ville_783620103_centre_entre_deux_gares","label":"Centre Entre Deux Gares","districtCode":"783620103","arrondissementCode":"78362","colorIndex":2,"parentZoneId":"mantes_la_ville_parent_78362_mantes_la_ville","parentCode":"78362","parentLabel":"Mantes-la-Ville","territoryType":"iris","source":"IGN / INSEE - Contours IRIS WFS Géoplateforme","sourceYear":"2026","officialId":"783620103","sourceCleabs":"IRIS____0000000783620103","communeCode":"78362","communeName":"Mantes-la-Ville","irisCode":"0103","irisType":"H","officialAreaM2":1365326.7375488281,"labelLng":1.7216975970663155,"labelLat":48.97963104761722,"bbox":[1.70636127,48.9720364,1.73452557,48.98762349],"curationOperationId":"mantes_la_ville-783620103-accept-centre-entre-deux-gares","curationRevision":1,"curationEvidenceRefs":["ign-insee-contours-iris-2026","guide-alpha-editorial-recovery-2026-07-14"],"curationRationale":"This is the exact official IGN/INSEE sector label. The local licensed dataset audit exposes no more precise official polygon crosswalk for this cell, so Guide Alpha retains it by exact source ID instead of inventing a neighborhood name.","semanticLabelReviewed":true,"semanticLabelAccepted":true,"semanticResolution":"accept"},"geometry":{"type":"MultiPolygon","coordinates":[[[[1.72726649,48.98485883],[1.72784853,48.98396837],[1.72830529,48.98255677],[1.7290272,48.98147623],[1.72988089,48.98042495],[1.73224796,48.9782709],[1.73287811,48.97780991],[1.73341787,48.97657273],[1.73452557,48.97495751],[1.73388858,48.97497238],[1.73370179,48.97462056],[1.73361414,48.97373199],[1.73195605,48.97377203],[1.73182095,48.97247825],[1.73150123,48.97248026],[1.73136999,48.9720364],[1.7296447,48.97326282],[1.72881643,48.97378196],[1.72784277,48.97432383],[1.7270226,48.97473422],[1.72637404,48.97499804],[1.72480673,48.975512],[1.72361961,48.97578626],[1.71979235,48.97647483],[1.71965186,48.97635462],[1.71419864,48.97732153],[1.71400253,48.97740667],[1.71331284,48.97734081],[1.71229344,48.97751424],[1.71099886,48.97793022],[1.71228134,48.98026339],[1.70636127,48.98695371],[1.70737573,48.98759148],[1.7074255,48.98762349],[1.71245308,48.98480238],[1.71417727,48.9839836],[1.71643665,48.98306979],[1.71645945,48.98319774],[1.71827614,48.98261281],[1.71955406,48.98232068],[1.72089916,48.98212998],[1.72111929,48.98229061],[1.7214809,48.98236552],[1.72293973,48.98349533],[1.72441285,48.98410187],[1.7248308,48.98460993],[1.72596576,48.98418582],[1.72599338,48.98450807],[1.72636528,48.98461005],[1.72726649,48.98485883]]]]}},{"type":"Feature","id":"mantes_la_ville_783620104_avenue_du_mantois","properties":{"zoneId":"mantes_la_ville_783620104_avenue_du_mantois","label":"Avenue du Mantois","districtCode":"783620104","arrondissementCode":"78362","colorIndex":3,"parentZoneId":"mantes_la_ville_parent_78362_mantes_la_ville","parentCode":"78362","parentLabel":"Mantes-la-Ville","territoryType":"iris","source":"IGN / INSEE - Contours IRIS WFS Géoplateforme","sourceYear":"2026","officialId":"783620104","sourceCleabs":"IRIS____0000000783620104","communeCode":"78362","communeName":"Mantes-la-Ville","irisCode":"0104","irisType":"H","officialAreaM2":393607.6019897461,"labelLng":1.7194371538357214,"labelLat":48.967677145182215,"bbox":[1.71633997,48.96143625,1.72365574,48.97395713]},"geometry":{"type":"MultiPolygon","coordinates":[[[[1.72365574,48.96496843],[1.72354024,48.96433226],[1.72358804,48.96299723],[1.72169689,48.96325229],[1.71945931,48.96392991],[1.7196738,48.96231966],[1.71922981,48.96143625],[1.71913474,48.96219069],[1.71894722,48.9625952],[1.71856741,48.96259923],[1.71857688,48.96249231],[1.71815045,48.96250394],[1.7181661,48.96242317],[1.71685704,48.96255756],[1.71672005,48.9618546],[1.71633997,48.96192518],[1.71710422,48.96338941],[1.71719446,48.96371774],[1.71712186,48.96383657],[1.71726721,48.96442271],[1.71724055,48.96572468],[1.71716794,48.96639752],[1.7171189,48.96644735],[1.71697095,48.96806999],[1.71696976,48.96911412],[1.71712968,48.97115825],[1.71695137,48.97306925],[1.71816681,48.97308584],[1.71855756,48.9732501],[1.71901397,48.97324508],[1.71909918,48.97339079],[1.71941796,48.97370446],[1.71955216,48.97380213],[1.71986859,48.97393411],[1.72034071,48.97395713],[1.7205002,48.97391567],[1.72078426,48.97369746],[1.7209659,48.97336664],[1.72100351,48.97294885],[1.72081039,48.9716922],[1.72077459,48.97098224],[1.72150731,48.96896203],[1.72165187,48.96802735],[1.72164505,48.96747148],[1.72146559,48.9657707],[1.72140401,48.96549754],[1.72110546,48.96502939],[1.72363827,48.96506807],[1.72365574,48.96496843]]]]}},{"type":"Feature","id":"mantes_la_ville_783620105_bas_du_domaine_de_la_vallee","properties":{"zoneId":"mantes_la_ville_783620105_bas_du_domaine_de_la_vallee","label":"Bas du Domaine de la Vallée","districtCode":"783620105","arrondissementCode":"78362","colorIndex":4,"parentZoneId":"mantes_la_ville_parent_78362_mantes_la_ville","parentCode":"78362","parentLabel":"Mantes-la-Ville","territoryType":"iris","source":"IGN / INSEE - Contours IRIS WFS Géoplateforme","sourceYear":"2026","officialId":"783620105","sourceCleabs":"IRIS____0000000783620105","communeCode":"78362","communeName":"Mantes-la-Ville","irisCode":"0105","irisType":"H","officialAreaM2":675147.9979858398,"labelLng":1.713720301837665,"labelLat":48.96781088766435,"bbox":[1.70831843,48.96093207,1.71774529,48.97623633]},"geometry":{"type":"MultiPolygon","coordinates":[[[[1.71633997,48.96192518],[1.71305377,48.96253299],[1.71288012,48.96231978],[1.71135057,48.96253268],[1.71149634,48.96227254],[1.71063919,48.96241352],[1.71062549,48.96236031],[1.71019442,48.96255893],[1.71006953,48.96230756],[1.71039857,48.96137667],[1.71025841,48.96097046],[1.70841425,48.9610936],[1.70844694,48.96093207],[1.70831843,48.96093698],[1.70836644,48.96158863],[1.70874581,48.96270162],[1.70876068,48.96314786],[1.70866713,48.96438436],[1.70871578,48.9656152],[1.70881205,48.96602904],[1.70906809,48.96649946],[1.70950724,48.96696735],[1.71032138,48.96751662],[1.71160064,48.96825974],[1.71180763,48.96845083],[1.71194721,48.96871673],[1.71230618,48.97038258],[1.71261764,48.97098939],[1.71273598,48.97145112],[1.71264931,48.97423366],[1.71279959,48.97522635],[1.713856,48.97515674],[1.71410709,48.97516843],[1.71435568,48.97522595],[1.714544,48.97562098],[1.71475314,48.97583727],[1.71489766,48.97623633],[1.71651798,48.97584897],[1.71732356,48.975702],[1.71749016,48.97559407],[1.71753372,48.97543445],[1.7176864,48.97533715],[1.71774529,48.97516511],[1.71731921,48.97438352],[1.7166655,48.97347089],[1.71695137,48.97306925],[1.71712968,48.97115825],[1.71696976,48.96911412],[1.71697095,48.96806999],[1.7171189,48.96644735],[1.71716794,48.96639752],[1.71724055,48.96572468],[1.71726721,48.96442271],[1.71712186,48.96383657],[1.71719446,48.96371774],[1.71710422,48.96338941],[1.71633997,48.96192518]]]]}},{"type":"Feature","id":"mantes_la_ville_783620106_haut_du_domaine_de_la_vallee","properties":{"zoneId":"mantes_la_ville_783620106_haut_du_domaine_de_la_vallee","label":"Haut du Domaine de la Vallée","districtCode":"783620106","arrondissementCode":"78362","colorIndex":5,"parentZoneId":"mantes_la_ville_parent_78362_mantes_la_ville","parentCode":"78362","parentLabel":"Mantes-la-Ville","territoryType":"iris","source":"IGN / INSEE - Contours IRIS WFS Géoplateforme","sourceYear":"2026","officialId":"783620106","sourceCleabs":"IRIS____0000000783620106","communeCode":"78362","communeName":"Mantes-la-Ville","irisCode":"0106","irisType":"H","officialAreaM2":839038.5747680664,"labelLng":1.724173003021698,"labelLat":48.97126064195104,"bbox":[1.71279959,48.96496843,1.73136999,48.97740667]},"geometry":{"type":"MultiPolygon","coordinates":[[[[1.73136999,48.9720364],[1.73089125,48.97038284],[1.73028407,48.9692909],[1.73009239,48.96919714],[1.73020241,48.96821622],[1.73078972,48.96682036],[1.73034004,48.96677603],[1.73038886,48.96639882],[1.72646333,48.96633561],[1.72645397,48.96582558],[1.72635657,48.96573101],[1.72641968,48.96555271],[1.7262942,48.96526629],[1.72376138,48.96528343],[1.72365574,48.96496843],[1.72363827,48.96506807],[1.72110546,48.96502939],[1.72140401,48.96549754],[1.72146559,48.9657707],[1.72164505,48.96747148],[1.72165187,48.96802735],[1.72150731,48.96896203],[1.72077459,48.97098224],[1.72081039,48.9716922],[1.72100351,48.97294885],[1.7209659,48.97336664],[1.72078426,48.97369746],[1.7205002,48.97391567],[1.72034071,48.97395713],[1.71986859,48.97393411],[1.71955216,48.97380213],[1.71941796,48.97370446],[1.71909918,48.97339079],[1.71901397,48.97324508],[1.71855756,48.9732501],[1.71816681,48.97308584],[1.71695137,48.97306925],[1.7166655,48.97347089],[1.71731921,48.97438352],[1.71774529,48.97516511],[1.7176864,48.97533715],[1.71753372,48.97543445],[1.71749016,48.97559407],[1.71732356,48.975702],[1.71651798,48.97584897],[1.71489766,48.97623633],[1.71475314,48.97583727],[1.714544,48.97562098],[1.71435568,48.97522595],[1.71410709,48.97516843],[1.713856,48.97515674],[1.71279959,48.97522635],[1.71282718,48.97560167],[1.71291026,48.9758328],[1.71330698,48.97641893],[1.71369342,48.97686825],[1.71400253,48.97740667],[1.71419864,48.97732153],[1.71965186,48.97635462],[1.71979235,48.97647483],[1.72361961,48.97578626],[1.72480673,48.975512],[1.72637404,48.97499804],[1.7270226,48.97473422],[1.72784277,48.97432383],[1.72881643,48.97378196],[1.7296447,48.97326282],[1.73136999,48.9720364]]]]}},{"type":"Feature","id":"mantes_la_ville_783620107_merisiers_plaisances","properties":{"zoneId":"mantes_la_ville_783620107_merisiers_plaisances","label":"Merisiers Plaisances","districtCode":"783620107","arrondissementCode":"78362","colorIndex":6,"parentZoneId":"mantes_la_ville_parent_78362_mantes_la_ville","parentCode":"78362","parentLabel":"Mantes-la-Ville","territoryType":"iris","source":"IGN / INSEE - Contours IRIS WFS Géoplateforme","sourceYear":"2026","officialId":"783620107","sourceCleabs":"IRIS____0000000783620107","communeCode":"78362","communeName":"Mantes-la-Ville","irisCode":"0107","irisType":"H","officialAreaM2":386520.5238647461,"labelLng":1.7044520678327182,"labelLat":48.9763014056454,"bbox":[1.69858359,48.97158948,1.71099886,48.97932944]},"geometry":{"type":"MultiPolygon","coordinates":[[[[1.69858359,48.97640847],[1.69933572,48.9776901],[1.70006801,48.97932944],[1.70155829,48.97917921],[1.70328409,48.97911693],[1.70392853,48.97913469],[1.71081482,48.97791385],[1.71099886,48.97793022],[1.71070205,48.97739282],[1.71040532,48.97646691],[1.70824146,48.97629343],[1.70767766,48.97633053],[1.70751725,48.97552928],[1.70718768,48.97471812],[1.70804109,48.97457083],[1.70637747,48.97351326],[1.70628449,48.97335217],[1.70617663,48.97219715],[1.7058696,48.97174416],[1.7055374,48.97158948],[1.70426693,48.972083],[1.70329751,48.97255547],[1.70297167,48.97285772],[1.70106589,48.97378861],[1.70188134,48.97417696],[1.70367898,48.97358305],[1.70375352,48.9736621],[1.70394615,48.9751409],[1.70330113,48.97520318],[1.70323965,48.97514855],[1.70312933,48.97513477],[1.70303097,48.97518947],[1.70302526,48.97525416],[1.70231371,48.97529952],[1.70123994,48.97546147],[1.7001108,48.97581617],[1.69885615,48.97627203],[1.69858359,48.97640847]]]]}},{"type":"Feature","id":"mantes_la_ville_783620108_les_orgemonts","properties":{"zoneId":"mantes_la_ville_783620108_les_orgemonts","label":"Les Orgemonts","districtCode":"783620108","arrondissementCode":"78362","colorIndex":7,"parentZoneId":"mantes_la_ville_parent_78362_mantes_la_ville","parentCode":"78362","parentLabel":"Mantes-la-Ville","territoryType":"iris","source":"IGN / INSEE - Contours IRIS WFS Géoplateforme","sourceYear":"2026","officialId":"783620108","sourceCleabs":"IRIS____0000000783620108","communeCode":"78362","communeName":"Mantes-la-Ville","irisCode":"0108","irisType":"H","officialAreaM2":1501477.2404174805,"labelLng":1.7047413439086143,"labelLat":48.96972802289513,"bbox":[1.68599243,48.96093698,1.71400253,48.98182545]},"geometry":{"type":"MultiPolygon","coordinates":[[[[1.70638493,48.96108252],[1.70743732,48.96336114],[1.70746739,48.96352515],[1.70700509,48.9636056],[1.70748578,48.96443369],[1.7071238,48.96448915],[1.70721066,48.96462139],[1.70507413,48.96490591],[1.70463416,48.96408994],[1.70271786,48.96447124],[1.70250449,48.96366221],[1.70066087,48.96408653],[1.70054648,48.96390902],[1.69756199,48.96467346],[1.6974149,48.9644929],[1.69431156,48.9653639],[1.69542904,48.96666393],[1.69585568,48.96751666],[1.69692519,48.96893577],[1.69823786,48.9713387],[1.6988198,48.97226685],[1.70061214,48.97357774],[1.70047189,48.97399622],[1.69982081,48.97430123],[1.69820733,48.97424866],[1.69760626,48.97430149],[1.69858359,48.97640847],[1.69885615,48.97627203],[1.7001108,48.97581617],[1.70123994,48.97546147],[1.70231371,48.97529952],[1.70302526,48.97525416],[1.70303097,48.97518947],[1.70312933,48.97513477],[1.70323965,48.97514855],[1.70330113,48.97520318],[1.70394615,48.9751409],[1.70375352,48.9736621],[1.70367898,48.97358305],[1.70188134,48.97417696],[1.70106589,48.97378861],[1.70297167,48.97285772],[1.70329751,48.97255547],[1.70426693,48.972083],[1.7055374,48.97158948],[1.7058696,48.97174416],[1.70617663,48.97219715],[1.70628449,48.97335217],[1.70637747,48.97351326],[1.70804109,48.97457083],[1.70718768,48.97471812],[1.70751725,48.97552928],[1.70767766,48.97633053],[1.70824146,48.97629343],[1.71040532,48.97646691],[1.71070205,48.97739282],[1.71099886,48.97793022],[1.71229344,48.97751424],[1.71331284,48.97734081],[1.71400253,48.97740667],[1.71369342,48.97686825],[1.71330698,48.97641893],[1.71291026,48.9758328],[1.71282718,48.97560167],[1.71279959,48.97522635],[1.71264931,48.97423366],[1.71273598,48.97145112],[1.71261764,48.97098939],[1.71230618,48.97038258],[1.71194721,48.96871673],[1.71180763,48.96845083],[1.71160064,48.96825974],[1.71032138,48.96751662],[1.70950724,48.96696735],[1.70906809,48.96649946],[1.70881205,48.96602904],[1.70871578,48.9656152],[1.70866713,48.96438436],[1.70876068,48.96314786],[1.70874581,48.96270162],[1.70836644,48.96158863],[1.70831843,48.96093698],[1.70638493,48.96108252]]],[[[1.69937816,48.97932466],[1.69853659,48.97921301],[1.69835332,48.97911119],[1.69787769,48.97911772],[1.69646935,48.97894234],[1.69435714,48.97883123],[1.69386133,48.9788798],[1.69368819,48.97870164],[1.69320677,48.97877554],[1.69150336,48.97876236],[1.68599243,48.97862927],[1.68656574,48.98059612],[1.68963817,48.98077632],[1.69019623,48.98156574],[1.69026073,48.98182545],[1.69104346,48.98167032],[1.69109934,48.98173028],[1.69135566,48.98153522],[1.69619063,48.98057612],[1.70042096,48.97974876],[1.70392853,48.97913469],[1.70328409,48.97911693],[1.70155829,48.97917921],[1.70006801,48.97932944],[1.69937816,48.97932466]]]]}}]}
