{"type":"FeatureCollection","metadata":{"generatedAt":"2026-07-14T18:56:03.503Z","source":"IGN / INSEE - Contours IRIS WFS Géoplateforme","datasetId":"STATISTICALUNITS.IRIS:contours_iris","datasetUrl":"https://geoservices.ign.fr/contoursiris","sourceFileUrl":"https://data.geopf.fr/wfs/ows?SERVICE=WFS&VERSION=2.0.0&REQUEST=GetFeature&TYPENAMES=STATISTICALUNITS.IRIS%3Acontours_iris&OUTPUTFORMAT=application%2Fjson&COUNT=1000&CQL_FILTER=code_insee%3D%2759383%27&SRSNAME=EPSG%3A4326","license":"Licence Ouverte / Open Licence 2.0","sourceYear":"2026","communeCode":"59383","communeName":"Marly","featureCount":5,"parentCount":1,"parentContract":"technical commune group; not selectable and not displayed as a district","sourceFeatureCount":5,"humanLabelContract":"one visible plate per unique official human place name","groupingContract":"only exact source-ID groups approved by the resolved curation, or source zones sharing the same official name and parent, are merged","groupedZoneCount":0,"groupedSourceFeatureCount":0,"curationStatus":"resolved","curationRevision":1,"curationSources":[{"id":"ign-insee-contours-iris-2026","provider":"IGN / INSEE - Contours IRIS WFS Géoplateforme","datasetUrl":"https://geoservices.ign.fr/contoursiris","role":"official geometry, source identifiers and source labels","vintage":"2026","license":"Licence Ouverte / Open Licence 2.0"},{"id":"ign-geoplateforme-toponymy-2026","provider":"IGN Géoplateforme - reverse geocoding, addresses and named places","datasetUrl":"https://geoservices.ign.fr/geocodage-geoplateforme","role":"official address, street and named-place evidence","vintage":"2026","license":"Licence Ouverte / Open Licence 2.0"},{"id":"guide-alpha-editorial-recovery-2026-07-14","provider":"Meewav Guide Alpha editorial review","datasetUrl":"docs/geospatial/france-semantic-recovery.md","role":"versioned mapping of exact official IRIS identifiers to coherent human place names","vintage":"2026-07-14","license":"Project documentation"}],"sourceCorrections":[{"operationId":"marly_59383-593830101-rename-avenue-du-marechal-juin","type":"rename","sourceIds":["593830101"],"expectedLabels":["Marly Nord"],"outputLabel":"Avenue du Marechal Juin","evidenceRefs":["ign-insee-contours-iris-2026","ign-geoplateforme-toponymy-2026","guide-alpha-editorial-recovery-2026-07-14"],"rationale":"The exact official IGN BD TOPO named road has a deterministic evidence point strictly inside this exact IRIS. The 1:1 label is emitted without nearest assignment, invented geometry, split or dropped source cell."},{"operationId":"marly_59383-593830102-rename-rue-pierre-costa","type":"rename","sourceIds":["593830102"],"expectedLabels":["Centre"],"outputLabel":"Rue Pierre Costa","evidenceRefs":["ign-insee-contours-iris-2026","ign-geoplateforme-toponymy-2026","guide-alpha-editorial-recovery-2026-07-14"],"rationale":"The exact official IGN BD TOPO named road has a deterministic evidence point strictly inside this exact IRIS. The 1:1 label is emitted without nearest assignment, invented geometry, split or dropped source cell."}],"bbox":[3.5163149,50.3305514,3.57905252,50.36230775],"areaStatsM2":{"minimum":265762.09033203125,"average":1595232.2949462892,"maximum":3326118.9575195312}},"features":[{"type":"Feature","id":"marly_59383_593830101_marly_nord","properties":{"zoneId":"marly_59383_593830101_marly_nord","label":"Avenue du Marechal Juin","districtCode":"593830101","arrondissementCode":"59383","colorIndex":0,"parentZoneId":"marly_59383_parent_59383_marly_59383","parentCode":"59383","parentLabel":"Marly","territoryType":"iris","source":"IGN / INSEE - Contours IRIS WFS Géoplateforme","sourceYear":"2026","officialId":"593830101","sourceCleabs":"IRIS____0000000593830101","communeCode":"59383","communeName":"Marly","irisCode":"0101","irisType":"D","officialAreaM2":3326118.9575195312,"labelLng":3.557584729585634,"labelLat":50.35235089661911,"bbox":[3.53769255,50.34160824,3.57905252,50.36230775],"curationOperationId":"marly_59383-593830101-rename-avenue-du-marechal-juin","curationRevision":1,"curationEvidenceRefs":["ign-insee-contours-iris-2026","ign-geoplateforme-toponymy-2026","guide-alpha-editorial-recovery-2026-07-14"],"curationRationale":"The exact official IGN BD TOPO named road has a deterministic evidence point strictly inside this exact IRIS. The 1:1 label is emitted without nearest assignment, invented geometry, split or dropped source cell.","semanticLabelReviewed":true,"semanticLabelAccepted":false,"semanticResolution":"rename"},"geometry":{"type":"MultiPolygon","coordinates":[[[[3.57905252,50.35289512],[3.57882059,50.35261609],[3.57743102,50.35172479],[3.57637795,50.35068376],[3.56760292,50.34423501],[3.564219,50.34160824],[3.5560057,50.34513176],[3.55506242,50.34560198],[3.55484143,50.34566492],[3.55470516,50.34564937],[3.55455397,50.34568058],[3.55435803,50.34585294],[3.5509434,50.34730474],[3.54314136,50.35061904],[3.54270927,50.35075831],[3.54044892,50.35116955],[3.54132041,50.35222604],[3.54142123,50.35220674],[3.54151447,50.35226469],[3.54235335,50.35224216],[3.54411505,50.35230174],[3.54521335,50.35265242],[3.54505206,50.3527896],[3.54479795,50.35290834],[3.53769255,50.355474],[3.53900295,50.35623501],[3.53968901,50.35674466],[3.54051354,50.35760294],[3.54096367,50.35861818],[3.54104015,50.36104101],[3.54141964,50.36214004],[3.54431968,50.36230775],[3.54530659,50.3618105],[3.5489369,50.36034087],[3.55579767,50.35848943],[3.5559868,50.35871482],[3.55873396,50.35788901],[3.56067224,50.35765397],[3.5622093,50.35793877],[3.56328876,50.35796078],[3.56501014,50.35765843],[3.56632343,50.35763356],[3.56699257,50.35748415],[3.56881519,50.35682844],[3.56907443,50.35704362],[3.57012035,50.35645881],[3.57029602,50.35585916],[3.57078586,50.35536939],[3.57244847,50.35434986],[3.5734358,50.35392779],[3.57380843,50.3536244],[3.57574335,50.35311441],[3.57702626,50.35314433],[3.57905252,50.35289512]]]]}},{"type":"Feature","id":"marly_59383_593830102_centre","properties":{"zoneId":"marly_59383_593830102_centre","label":"Rue Pierre Costa","districtCode":"593830102","arrondissementCode":"59383","colorIndex":1,"parentZoneId":"marly_59383_parent_59383_marly_59383","parentCode":"59383","parentLabel":"Marly","territoryType":"iris","source":"IGN / INSEE - Contours IRIS WFS Géoplateforme","sourceYear":"2026","officialId":"593830102","sourceCleabs":"IRIS____0000000593830102","communeCode":"59383","communeName":"Marly","irisCode":"0102","irisType":"H","officialAreaM2":680973.8370361328,"labelLng":3.541524768978648,"labelLat":50.3491623882756,"bbox":[3.53477845,50.34390458,3.5509434,50.355474],"curationOperationId":"marly_59383-593830102-rename-rue-pierre-costa","curationRevision":1,"curationEvidenceRefs":["ign-insee-contours-iris-2026","ign-geoplateforme-toponymy-2026","guide-alpha-editorial-recovery-2026-07-14"],"curationRationale":"The exact official IGN BD TOPO named road has a deterministic evidence point strictly inside this exact IRIS. The 1:1 label is emitted without nearest assignment, invented geometry, split or dropped source cell.","semanticLabelReviewed":true,"semanticLabelAccepted":false,"semanticResolution":"rename"},"geometry":{"type":"MultiPolygon","coordinates":[[[[3.53477845,50.34850441],[3.53571627,50.35080412],[3.53647401,50.35146611],[3.53627053,50.35186113],[3.53637246,50.35234281],[3.53686684,50.3533085],[3.53700773,50.35415362],[3.53730801,50.35494328],[3.53769255,50.355474],[3.54479795,50.35290834],[3.54505206,50.3527896],[3.54521335,50.35265242],[3.54411505,50.35230174],[3.54235335,50.35224216],[3.54151447,50.35226469],[3.54142123,50.35220674],[3.54132041,50.35222604],[3.54044892,50.35116955],[3.54270927,50.35075831],[3.54314136,50.35061904],[3.5509434,50.34730474],[3.550487,50.34713978],[3.54968075,50.34667202],[3.54776085,50.34662669],[3.54775667,50.34533475],[3.54717612,50.34523408],[3.54693637,50.34511932],[3.54679751,50.34499335],[3.54609703,50.34534929],[3.5450021,50.34464665],[3.54584393,50.34412848],[3.54612491,50.34390458],[3.54363128,50.34437886],[3.54129496,50.34487396],[3.54053265,50.34522386],[3.53477845,50.34850441]]]]}},{"type":"Feature","id":"marly_59383_593830103_petit_cavin_fontinettes","properties":{"zoneId":"marly_59383_593830103_petit_cavin_fontinettes","label":"Petit Cavin-Fontinettes","districtCode":"593830103","arrondissementCode":"59383","colorIndex":2,"parentZoneId":"marly_59383_parent_59383_marly_59383","parentCode":"59383","parentLabel":"Marly","territoryType":"iris","source":"IGN / INSEE - Contours IRIS WFS Géoplateforme","sourceYear":"2026","officialId":"593830103","sourceCleabs":"IRIS____0000000593830103","communeCode":"59383","communeName":"Marly","irisCode":"0103","irisType":"H","officialAreaM2":749419.9256591797,"labelLng":3.5545673695849715,"labelLat":50.342298482061665,"bbox":[3.5450021,50.33727927,3.564219,50.34730474]},"geometry":{"type":"MultiPolygon","coordinates":[[[[3.54653065,50.34354096],[3.54612491,50.34390458],[3.54584393,50.34412848],[3.5450021,50.34464665],[3.54609703,50.34534929],[3.54679751,50.34499335],[3.54693637,50.34511932],[3.54717612,50.34523408],[3.54775667,50.34533475],[3.54776085,50.34662669],[3.54968075,50.34667202],[3.550487,50.34713978],[3.5509434,50.34730474],[3.55435803,50.34585294],[3.55455397,50.34568058],[3.55470516,50.34564937],[3.55484143,50.34566492],[3.55506242,50.34560198],[3.5560057,50.34513176],[3.564219,50.34160824],[3.55893256,50.33766032],[3.55816336,50.33736572],[3.55762513,50.33727927],[3.55696053,50.3373092],[3.55639622,50.33740243],[3.55584571,50.33760243],[3.55553637,50.33779237],[3.5541525,50.33900976],[3.55279042,50.33991639],[3.55184647,50.33916375],[3.55149337,50.33894536],[3.55111033,50.33932596],[3.5501572,50.34068952],[3.54960263,50.34129623],[3.5492857,50.34156609],[3.54739696,50.34282515],[3.54653065,50.34354096]]]]}},{"type":"Feature","id":"marly_59383_593830104_les_floralies","properties":{"zoneId":"marly_59383_593830104_les_floralies","label":"Les Floralies","districtCode":"593830104","arrondissementCode":"59383","colorIndex":3,"parentZoneId":"marly_59383_parent_59383_marly_59383","parentCode":"59383","parentLabel":"Marly","territoryType":"iris","source":"IGN / INSEE - Contours IRIS WFS Géoplateforme","sourceYear":"2026","officialId":"593830104","sourceCleabs":"IRIS____0000000593830104","communeCode":"59383","communeName":"Marly","irisCode":"0104","irisType":"H","officialAreaM2":265762.09033203125,"labelLng":3.5467262332787675,"labelLat":50.33990828177051,"bbox":[3.54269389,50.33706388,3.55145002,50.34381848]},"geometry":{"type":"MultiPolygon","coordinates":[[[[3.54653065,50.34354096],[3.54739696,50.34282515],[3.5492857,50.34156609],[3.54819324,50.34108792],[3.54887026,50.34051748],[3.54964406,50.34084893],[3.54972469,50.34078033],[3.55031764,50.34009265],[3.55073512,50.33952426],[3.55069624,50.33943196],[3.55025664,50.33925705],[3.55145002,50.33818689],[3.55142258,50.33811429],[3.55025235,50.33757454],[3.54979064,50.33742935],[3.54866084,50.33763909],[3.5466391,50.33774323],[3.54515039,50.33706388],[3.54370273,50.33745902],[3.54292002,50.33772553],[3.54269389,50.33796176],[3.54331984,50.33942336],[3.54395767,50.34055181],[3.5444538,50.34167818],[3.54471522,50.34263321],[3.5449323,50.34376889],[3.54508857,50.34381848],[3.54535361,50.34380653],[3.54573872,50.34374019],[3.54625301,50.34355476],[3.54653065,50.34354096]]]]}},{"type":"Feature","id":"marly_59383_593830105_la_briquette","properties":{"zoneId":"marly_59383_593830105_la_briquette","label":"La Briquette","districtCode":"593830105","arrondissementCode":"59383","colorIndex":4,"parentZoneId":"marly_59383_parent_59383_marly_59383","parentCode":"59383","parentLabel":"Marly","territoryType":"iris","source":"IGN / INSEE - Contours IRIS WFS Géoplateforme","sourceYear":"2026","officialId":"593830105","sourceCleabs":"IRIS____0000000593830105","communeCode":"59383","communeName":"Marly","irisCode":"0105","irisType":"H","officialAreaM2":2953886.6641845703,"labelLng":3.5410422479457684,"labelLat":50.33808988862594,"bbox":[3.5163149,50.3305514,3.56663162,50.34850441]},"geometry":{"type":"MultiPolygon","coordinates":[[[[3.564219,50.34160824],[3.56663162,50.34056917],[3.56619342,50.34002441],[3.56528757,50.3395599],[3.56450809,50.3383505],[3.56388668,50.33722387],[3.56345914,50.33498753],[3.56303802,50.33445794],[3.55742467,50.33258631],[3.55781099,50.33200366],[3.5585075,50.3305514],[3.5502817,50.33112348],[3.54621499,50.33186072],[3.54568297,50.33117264],[3.54005014,50.33184657],[3.53705783,50.33246656],[3.53772074,50.33320439],[3.53532462,50.33423475],[3.53084765,50.33548771],[3.52743318,50.33628077],[3.52428677,50.33668923],[3.51741294,50.33873117],[3.5163149,50.33904373],[3.51662356,50.33959549],[3.51925837,50.34316584],[3.51969489,50.34318465],[3.52237869,50.3427693],[3.52586476,50.34206676],[3.52952546,50.34116945],[3.52984637,50.3419384],[3.53087281,50.34335883],[3.53152106,50.3445654],[3.5335643,50.34660181],[3.53477845,50.34850441],[3.54053265,50.34522386],[3.54129496,50.34487396],[3.54363128,50.34437886],[3.54612491,50.34390458],[3.54653065,50.34354096],[3.54625301,50.34355476],[3.54573872,50.34374019],[3.54535361,50.34380653],[3.54508857,50.34381848],[3.5449323,50.34376889],[3.54471522,50.34263321],[3.5444538,50.34167818],[3.54395767,50.34055181],[3.54331984,50.33942336],[3.54269389,50.33796176],[3.54292002,50.33772553],[3.54370273,50.33745902],[3.54515039,50.33706388],[3.5466391,50.33774323],[3.54866084,50.33763909],[3.54979064,50.33742935],[3.55025235,50.33757454],[3.55142258,50.33811429],[3.55145002,50.33818689],[3.55025664,50.33925705],[3.55069624,50.33943196],[3.55073512,50.33952426],[3.55031764,50.34009265],[3.54972469,50.34078033],[3.54964406,50.34084893],[3.54887026,50.34051748],[3.54819324,50.34108792],[3.5492857,50.34156609],[3.54960263,50.34129623],[3.5501572,50.34068952],[3.55111033,50.33932596],[3.55149337,50.33894536],[3.55184647,50.33916375],[3.55279042,50.33991639],[3.5541525,50.33900976],[3.55553637,50.33779237],[3.55584571,50.33760243],[3.55639622,50.33740243],[3.55696053,50.3373092],[3.55762513,50.33727927],[3.55816336,50.33736572],[3.55893256,50.33766032],[3.564219,50.34160824]]]]}}]}
