{"type":"FeatureCollection","metadata":{"generatedAt":"2026-07-14T18:56:03.503Z","source":"IGN / INSEE - Contours IRIS WFS Géoplateforme","datasetId":"STATISTICALUNITS.IRIS:contours_iris","datasetUrl":"https://geoservices.ign.fr/contoursiris","sourceFileUrl":"https://data.geopf.fr/wfs/ows?SERVICE=WFS&VERSION=2.0.0&REQUEST=GetFeature&TYPENAMES=STATISTICALUNITS.IRIS%3Acontours_iris&OUTPUTFORMAT=application%2Fjson&COUNT=1000&CQL_FILTER=code_insee%3D%2784080%27&SRSNAME=EPSG%3A4326","license":"Licence Ouverte / Open Licence 2.0","sourceYear":"2026","communeCode":"84080","communeName":"Monteux","featureCount":4,"parentCount":1,"parentContract":"technical commune group; not selectable and not displayed as a district","sourceFeatureCount":4,"humanLabelContract":"one visible plate per unique official human place name","groupingContract":"only exact source-ID groups approved by the resolved curation, or source zones sharing the same official name and parent, are merged","groupedZoneCount":0,"groupedSourceFeatureCount":0,"curationStatus":"resolved","curationRevision":1,"curationSources":[{"id":"ign-insee-contours-iris-2026","provider":"IGN / INSEE - Contours IRIS WFS Géoplateforme","datasetUrl":"https://geoservices.ign.fr/contoursiris","role":"official geometry, source identifiers and source labels","vintage":"2026","license":"Licence Ouverte / Open Licence 2.0"},{"id":"ign-geoplateforme-toponymy-2026","provider":"IGN Géoplateforme - reverse geocoding, addresses and named places","datasetUrl":"https://geoservices.ign.fr/geocodage-geoplateforme","role":"official address, street and named-place evidence","vintage":"2026","license":"Licence Ouverte / Open Licence 2.0"},{"id":"guide-alpha-editorial-recovery-2026-07-14","provider":"Meewav Guide Alpha editorial review","datasetUrl":"docs/geospatial/france-semantic-recovery.md","role":"versioned mapping of exact official IRIS identifiers to coherent human place names","vintage":"2026-07-14","license":"Project documentation"}],"sourceCorrections":[{"operationId":"monteux-840800101-rename-place-du-marche","type":"rename","sourceIds":["840800101"],"expectedLabels":["Centre"],"outputLabel":"Place du Marche","evidenceRefs":["ign-insee-contours-iris-2026","ign-geoplateforme-toponymy-2026","guide-alpha-editorial-recovery-2026-07-14"],"rationale":"The exact official IGN BD TOPO named road has a deterministic evidence point strictly inside this exact IRIS. The 1:1 label is emitted without nearest assignment, invented geometry, split or dropped source cell."},{"operationId":"monteux-840800102-rename-route-de-velleron","type":"rename","sourceIds":["840800102"],"expectedLabels":["Sud-Ouest"],"outputLabel":"Route de Velleron","evidenceRefs":["ign-insee-contours-iris-2026","ign-geoplateforme-toponymy-2026","guide-alpha-editorial-recovery-2026-07-14"],"rationale":"The exact official IGN BD TOPO named road has a deterministic evidence point strictly inside this exact IRIS. The 1:1 label is emitted without nearest assignment, invented geometry, split or dropped source cell."},{"operationId":"monteux-840800103-rename-chemin-des-deux-saules","type":"rename","sourceIds":["840800103"],"expectedLabels":["Nord"],"outputLabel":"Chemin des Deux Saules","evidenceRefs":["ign-insee-contours-iris-2026","ign-geoplateforme-toponymy-2026","guide-alpha-editorial-recovery-2026-07-14"],"rationale":"The exact official IGN BD TOPO named road has a deterministic evidence point strictly inside this exact IRIS. The 1:1 label is emitted without nearest assignment, invented geometry, split or dropped source cell."},{"operationId":"monteux-840800104-rename-avenue-des-rouliers","type":"rename","sourceIds":["840800104"],"expectedLabels":["Ouest"],"outputLabel":"Avenue des Rouliers","evidenceRefs":["ign-insee-contours-iris-2026","ign-geoplateforme-toponymy-2026","guide-alpha-editorial-recovery-2026-07-14"],"rationale":"The exact official IGN BD TOPO named road has a deterministic evidence point strictly inside this exact IRIS. The 1:1 label is emitted without nearest assignment, invented geometry, split or dropped source cell."}],"bbox":[4.93643167,43.99642179,5.03593948,44.0696137],"areaStatsM2":{"minimum":561676.7108154297,"average":9800405.310394287,"maximum":16163169.086547852}},"features":[{"type":"Feature","id":"monteux_840800101_centre","properties":{"zoneId":"monteux_840800101_centre","label":"Place du Marche","districtCode":"840800101","arrondissementCode":"84080","colorIndex":0,"parentZoneId":"monteux_parent_84080_monteux","parentCode":"84080","parentLabel":"Monteux","territoryType":"iris","source":"IGN / INSEE - Contours IRIS WFS Géoplateforme","sourceYear":"2026","officialId":"840800101","sourceCleabs":"IRIS____0000000840800101","communeCode":"84080","communeName":"Monteux","irisCode":"0101","irisType":"H","officialAreaM2":561676.7108154297,"labelLng":4.9973048909039175,"labelLat":44.034732880947416,"bbox":[4.98905298,44.030465,5.00481563,44.03760366],"curationOperationId":"monteux-840800101-rename-place-du-marche","curationRevision":1,"curationEvidenceRefs":["ign-insee-contours-iris-2026","ign-geoplateforme-toponymy-2026","guide-alpha-editorial-recovery-2026-07-14"],"curationRationale":"The exact official IGN BD TOPO named road has a deterministic evidence point strictly inside this exact IRIS. The 1:1 label is emitted without nearest assignment, invented geometry, split or dropped source cell.","semanticLabelReviewed":true,"semanticLabelAccepted":false,"semanticResolution":"rename"},"geometry":{"type":"MultiPolygon","coordinates":[[[[4.98905298,44.03680317],[4.98981213,44.03684969],[4.99040674,44.03675875],[4.99170834,44.03689983],[4.99239503,44.03705118],[4.99332736,44.03716024],[4.99353527,44.03714565],[4.99357019,44.03707389],[4.99365295,44.03708499],[4.99384409,44.03701939],[4.9948205,44.03710423],[4.99523297,44.03715793],[4.9958484,44.03730516],[4.99567291,44.03760366],[4.99732038,44.0375709],[4.99842437,44.03744991],[4.99858672,44.03738213],[4.99865204,44.0372873],[5.00138387,44.03696638],[5.00245818,44.03678288],[5.00322902,44.0365581],[5.0039025,44.03629729],[5.00455603,44.03596661],[5.00481563,44.0357899],[5.0039181,44.0356767],[5.00331743,44.03555895],[5.00348414,44.03448004],[5.00342966,44.03445673],[5.00351536,44.03348734],[5.00370402,44.03296171],[5.00392545,44.03255163],[5.00217147,44.03196433],[5.00278013,44.030465],[5.00019983,44.03054371],[4.99983649,44.03064398],[4.99973323,44.03072419],[4.99859855,44.03227813],[4.99834368,44.03273203],[4.99809926,44.03348374],[4.99797426,44.03354904],[4.99770553,44.03353684],[4.99572192,44.03341098],[4.99547269,44.03342093],[4.99536847,44.03336701],[4.99529438,44.03342508],[4.9953543,44.03349691],[4.99529435,44.03367356],[4.99500894,44.03400467],[4.99480749,44.03398944],[4.99389894,44.03388086],[4.99138324,44.03367008],[4.9914837,44.03336666],[4.99147949,44.03317497],[4.99143473,44.03310826],[4.98971208,44.03287851],[4.98969926,44.03297598],[4.98998543,44.03302299],[4.98998485,44.03318505],[4.98982023,44.03350945],[4.98961175,44.03354295],[4.98974516,44.03386103],[4.98967343,44.03402259],[4.98973983,44.03420864],[4.98918646,44.03426462],[4.98905298,44.03680317]]]]}},{"type":"Feature","id":"monteux_840800102_sud_ouest","properties":{"zoneId":"monteux_840800102_sud_ouest","label":"Route de Velleron","districtCode":"840800102","arrondissementCode":"84080","colorIndex":1,"parentZoneId":"monteux_parent_84080_monteux","parentCode":"84080","parentLabel":"Monteux","territoryType":"iris","source":"IGN / INSEE - Contours IRIS WFS Géoplateforme","sourceYear":"2026","officialId":"840800102","sourceCleabs":"IRIS____0000000840800102","communeCode":"84080","communeName":"Monteux","irisCode":"0102","irisType":"H","officialAreaM2":15579183.935791016,"labelLng":4.998620431550495,"labelLat":44.01958193700222,"bbox":[4.95872349,43.99642179,5.03593948,44.04708289],"curationOperationId":"monteux-840800102-rename-route-de-velleron","curationRevision":1,"curationEvidenceRefs":["ign-insee-contours-iris-2026","ign-geoplateforme-toponymy-2026","guide-alpha-editorial-recovery-2026-07-14"],"curationRationale":"The exact official IGN BD TOPO named road has a deterministic evidence point strictly inside this exact IRIS. The 1:1 label is emitted without nearest assignment, invented geometry, split or dropped source cell.","semanticLabelReviewed":true,"semanticLabelAccepted":false,"semanticResolution":"rename"},"geometry":{"type":"MultiPolygon","coordinates":[[[[5.02274703,44.04708289],[5.02319735,44.04703945],[5.02389888,44.04598663],[5.02443445,44.04518175],[5.02450193,44.04448186],[5.0247566,44.04283318],[5.02470539,44.04251632],[5.02486235,44.04138443],[5.02514569,44.04026191],[5.02559621,44.03903275],[5.02665998,44.03487165],[5.02685303,44.03486087],[5.02719641,44.0330431],[5.02788653,44.03037982],[5.02833803,44.02960259],[5.02986056,44.02771613],[5.03309885,44.02510095],[5.03455757,44.02353161],[5.03593948,44.02232921],[5.03007975,44.01877658],[5.02828463,44.01741532],[5.02521283,44.01684652],[5.02416355,44.01568566],[5.02029584,44.01247469],[5.01922482,44.01203261],[5.00485997,44.00613618],[4.98086936,43.99642179],[4.9801889,43.99797808],[4.98021571,43.99835481],[4.98011952,43.99860142],[4.97951116,43.99918321],[4.97889276,43.99944017],[4.97821865,44.00017619],[4.97805145,44.00064105],[4.97750872,44.00092275],[4.97685857,44.00163132],[4.97669726,44.00183499],[4.97656931,44.00231715],[4.97631087,44.0025613],[4.97580513,44.00283151],[4.97507736,44.00295719],[4.97462832,44.00331641],[4.97425274,44.0040317],[4.97385196,44.00438014],[4.97338359,44.00464967],[4.97308368,44.00499358],[4.97291738,44.0060265],[4.96978468,44.00766564],[4.96645944,44.00987533],[4.9653596,44.01021109],[4.96486183,44.01020923],[4.96447616,44.01038361],[4.96411505,44.01108961],[4.96368221,44.01130714],[4.96244312,44.01169399],[4.96219154,44.01188666],[4.9619924,44.01258795],[4.9616062,44.01292888],[4.96092024,44.01391167],[4.96060328,44.01412622],[4.95887476,44.01493862],[4.95872349,44.01511058],[4.95946613,44.01562934],[4.96002933,44.01622604],[4.96187753,44.01903329],[4.96463419,44.0224553],[4.96582949,44.02422809],[4.96696426,44.02554642],[4.96769643,44.02651456],[4.96781863,44.0266204],[4.96810212,44.02669993],[4.96823933,44.02687931],[4.96841998,44.02701561],[4.9686693,44.02711736],[4.97022053,44.02755758],[4.97471377,44.02331006],[4.97567823,44.02363386],[4.97587363,44.02376357],[4.97624428,44.02387392],[4.97638244,44.02390023],[4.97648013,44.02380303],[4.97741873,44.02402825],[4.97878246,44.02442313],[4.98314735,44.0255811],[4.98332353,44.02565983],[4.98360712,44.0259923],[4.98353764,44.02603947],[4.98434543,44.0262688],[4.98549615,44.0264919],[4.9863462,44.02657281],[4.98621575,44.02705413],[4.98639087,44.02710227],[4.98684447,44.02740733],[4.98734022,44.02766841],[4.98892573,44.02819238],[4.99089245,44.02866168],[4.99107901,44.02867989],[4.99102645,44.02888972],[4.99224831,44.0292537],[4.99226063,44.02935611],[4.99211358,44.02986115],[4.9921559,44.02989369],[4.99371166,44.03027769],[4.99492785,44.03065616],[4.99496594,44.03056813],[4.99554286,44.03079349],[4.99609003,44.03084653],[4.99679756,44.03084623],[4.99691542,44.03150309],[4.9970846,44.03205729],[4.99762426,44.03317641],[4.99770553,44.03353684],[4.99797426,44.03354904],[4.99809926,44.03348374],[4.99834368,44.03273203],[4.99859855,44.03227813],[4.99973323,44.03072419],[4.99983649,44.03064398],[5.00019983,44.03054371],[5.00278013,44.030465],[5.00217147,44.03196433],[5.00392545,44.03255163],[5.00370402,44.03296171],[5.00351536,44.03348734],[5.00342966,44.03445673],[5.00348414,44.03448004],[5.00331743,44.03555895],[5.0039181,44.0356767],[5.00481563,44.0357899],[5.00558127,44.03584339],[5.00664925,44.03597686],[5.00785249,44.0362654],[5.00922909,44.03669208],[5.01038282,44.0372741],[5.01220646,44.03774205],[5.01192551,44.03897433],[5.01176819,44.03946698],[5.01192209,44.03944255],[5.01217092,44.03949109],[5.01243767,44.03976438],[5.01266097,44.03990252],[5.01322848,44.04013967],[5.01318112,44.0403179],[5.01324951,44.04041657],[5.01334767,44.0405102],[5.01363227,44.04065261],[5.01383522,44.04085055],[5.01394577,44.04090613],[5.01414152,44.04093584],[5.01441048,44.04116497],[5.01462659,44.04127623],[5.01490712,44.04133859],[5.01513168,44.0414767],[5.01536043,44.04176869],[5.01543422,44.04212565],[5.01563639,44.04223087],[5.0157468,44.04305802],[5.01607347,44.04308351],[5.01643057,44.0429815],[5.01653327,44.04288597],[5.0165865,44.04262661],[5.01670813,44.04260726],[5.01686013,44.04267018],[5.01707505,44.04292371],[5.017173,44.04325772],[5.01757647,44.04351317],[5.01791375,44.04359158],[5.01798321,44.04364972],[5.01802731,44.04394331],[5.01796437,44.04421006],[5.01808064,44.04442669],[5.01911801,44.04520523],[5.01949026,44.045319],[5.0196157,44.04540672],[5.01964684,44.04596794],[5.01961228,44.04608471],[5.019704,44.0463126],[5.02015971,44.04635101],[5.02049423,44.04631602],[5.02080649,44.0464273],[5.02127004,44.04640523],[5.02137498,44.04644291],[5.02143357,44.04654626],[5.02152153,44.04659776],[5.02168145,44.04649667],[5.02179256,44.04660265],[5.02167373,44.0467714],[5.02167971,44.04683432],[5.02182178,44.04696854],[5.02193549,44.04693673],[5.0221576,44.04668864],[5.0223569,44.04667686],[5.02255056,44.04678762],[5.02261993,44.04705373],[5.02274703,44.04708289]]]]}},{"type":"Feature","id":"monteux_840800103_nord","properties":{"zoneId":"monteux_840800103_nord","label":"Chemin des Deux Saules","districtCode":"840800103","arrondissementCode":"84080","colorIndex":2,"parentZoneId":"monteux_parent_84080_monteux","parentCode":"84080","parentLabel":"Monteux","territoryType":"iris","source":"IGN / INSEE - Contours IRIS WFS Géoplateforme","sourceYear":"2026","officialId":"840800103","sourceCleabs":"IRIS____0000000840800103","communeCode":"84080","communeName":"Monteux","irisCode":"0103","irisType":"H","officialAreaM2":16163169.086547852,"labelLng":4.979455240061283,"labelLat":44.049303267514446,"bbox":[4.93681074,44.03219721,5.02274703,44.0696137],"curationOperationId":"monteux-840800103-rename-chemin-des-deux-saules","curationRevision":1,"curationEvidenceRefs":["ign-insee-contours-iris-2026","ign-geoplateforme-toponymy-2026","guide-alpha-editorial-recovery-2026-07-14"],"curationRationale":"The exact official IGN BD TOPO named road has a deterministic evidence point strictly inside this exact IRIS. The 1:1 label is emitted without nearest assignment, invented geometry, split or dropped source cell.","semanticLabelReviewed":true,"semanticLabelAccepted":false,"semanticResolution":"rename"},"geometry":{"type":"MultiPolygon","coordinates":[[[[4.97860223,44.06503425],[4.98033445,44.06554852],[4.9851312,44.06671759],[4.9857179,44.0671427],[4.98629819,44.06784882],[4.98745273,44.06833564],[4.98845055,44.06894684],[4.98972465,44.06956652],[4.98995231,44.0696137],[4.99404306,44.06611989],[4.99506288,44.06643173],[4.99515161,44.06636259],[4.99538256,44.06596945],[4.99593489,44.06327555],[4.99614903,44.06307988],[4.99635163,44.06212816],[4.99658719,44.05944634],[4.99680876,44.05871575],[4.99734904,44.05788842],[4.9975429,44.05775614],[4.99863528,44.05722212],[4.999821,44.05678723],[4.99978668,44.05669872],[4.99993889,44.05662482],[5.00156638,44.05646993],[5.00239121,44.05649446],[5.00429099,44.05634355],[5.00472062,44.05680925],[5.00563465,44.05755867],[5.00645078,44.05854036],[5.00898967,44.06103808],[5.01490133,44.05969421],[5.0157182,44.05808201],[5.01667858,44.05583515],[5.01700383,44.05546633],[5.01721548,44.05541472],[5.01774413,44.05497282],[5.01851451,44.05356764],[5.01902699,44.05284694],[5.02118929,44.05042481],[5.02161935,44.04970472],[5.02179798,44.04868857],[5.0223145,44.04815415],[5.02218909,44.04785666],[5.02222582,44.04759039],[5.02241381,44.04740055],[5.02249826,44.04710729],[5.02274703,44.04708289],[5.02261993,44.04705373],[5.02255056,44.04678762],[5.0223569,44.04667686],[5.0221576,44.04668864],[5.02193549,44.04693673],[5.02182178,44.04696854],[5.02167971,44.04683432],[5.02167373,44.0467714],[5.02179256,44.04660265],[5.02168145,44.04649667],[5.02152153,44.04659776],[5.02143357,44.04654626],[5.02137498,44.04644291],[5.02127004,44.04640523],[5.02080649,44.0464273],[5.02049423,44.04631602],[5.02015971,44.04635101],[5.019704,44.0463126],[5.01961228,44.04608471],[5.01964684,44.04596794],[5.0196157,44.04540672],[5.01949026,44.045319],[5.01911801,44.04520523],[5.01808064,44.04442669],[5.01796437,44.04421006],[5.01802731,44.04394331],[5.01798321,44.04364972],[5.01791375,44.04359158],[5.01757647,44.04351317],[5.017173,44.04325772],[5.01707505,44.04292371],[5.01686013,44.04267018],[5.01670813,44.04260726],[5.0165865,44.04262661],[5.01653327,44.04288597],[5.01643057,44.0429815],[5.01607347,44.04308351],[5.0157468,44.04305802],[5.01563639,44.04223087],[5.01543422,44.04212565],[5.01536043,44.04176869],[5.01513168,44.0414767],[5.01490712,44.04133859],[5.01462659,44.04127623],[5.01441048,44.04116497],[5.01414152,44.04093584],[5.01394577,44.04090613],[5.01383522,44.04085055],[5.01363227,44.04065261],[5.01334767,44.0405102],[5.01324951,44.04041657],[5.01318112,44.0403179],[5.01322848,44.04013967],[5.01266097,44.03990252],[5.01243767,44.03976438],[5.01217092,44.03949109],[5.01192209,44.03944255],[5.01176819,44.03946698],[5.01192551,44.03897433],[5.01220646,44.03774205],[5.01038282,44.0372741],[5.00922909,44.03669208],[5.00785249,44.0362654],[5.00664925,44.03597686],[5.00558127,44.03584339],[5.00481563,44.0357899],[5.00455603,44.03596661],[5.0039025,44.03629729],[5.00322902,44.0365581],[5.00245818,44.03678288],[5.00138387,44.03696638],[4.99865204,44.0372873],[4.99858672,44.03738213],[4.99842437,44.03744991],[4.99732038,44.0375709],[4.99567291,44.03760366],[4.9958484,44.03730516],[4.99523297,44.03715793],[4.9948205,44.03710423],[4.99384409,44.03701939],[4.99365295,44.03708499],[4.99357019,44.03707389],[4.99353527,44.03714565],[4.99332736,44.03716024],[4.99239503,44.03705118],[4.99170834,44.03689983],[4.99040674,44.03675875],[4.98981213,44.03684969],[4.98905298,44.03680317],[4.98902867,44.03696477],[4.98925701,44.03699933],[4.98900252,44.03850295],[4.98837004,44.03847483],[4.98761015,44.03855075],[4.98514146,44.03904931],[4.98464054,44.03910791],[4.98334497,44.03917641],[4.98211233,44.03911682],[4.98071912,44.03914114],[4.98005719,44.03927106],[4.97768206,44.03998653],[4.97698275,44.04015491],[4.97622747,44.04025678],[4.97525787,44.04029679],[4.9739583,44.0401789],[4.97394501,44.04026376],[4.96944029,44.03970841],[4.9681706,44.03947917],[4.96456065,44.03870136],[4.96137077,44.03808697],[4.9608271,44.03795536],[4.95705132,44.03681296],[4.95286985,44.03599008],[4.94757886,44.03461331],[4.93681074,44.03219721],[4.9378511,44.04506002],[4.93875601,44.04517004],[4.93923482,44.04537582],[4.9398798,44.04540311],[4.94124323,44.04611177],[4.94232634,44.04613937],[4.94368262,44.04718573],[4.94330574,44.04934591],[4.94222487,44.0540331],[4.94225826,44.05417025],[4.94259973,44.05433614],[4.94869927,44.05568801],[4.95150883,44.05643652],[4.96023375,44.05969457],[4.97860223,44.06503425]]]]}},{"type":"Feature","id":"monteux_840800104_ouest","properties":{"zoneId":"monteux_840800104_ouest","label":"Avenue des Rouliers","districtCode":"840800104","arrondissementCode":"84080","colorIndex":3,"parentZoneId":"monteux_parent_84080_monteux","parentCode":"84080","parentLabel":"Monteux","territoryType":"iris","source":"IGN / INSEE - Contours IRIS WFS Géoplateforme","sourceYear":"2026","officialId":"840800104","sourceCleabs":"IRIS____0000000840800104","communeCode":"84080","communeName":"Monteux","irisCode":"0104","irisType":"H","officialAreaM2":6897591.508422852,"labelLng":4.964866999948938,"labelLat":44.03004578627863,"bbox":[4.93643167,44.01511058,4.99770553,44.04029679],"curationOperationId":"monteux-840800104-rename-avenue-des-rouliers","curationRevision":1,"curationEvidenceRefs":["ign-insee-contours-iris-2026","ign-geoplateforme-toponymy-2026","guide-alpha-editorial-recovery-2026-07-14"],"curationRationale":"The exact official IGN BD TOPO named road has a deterministic evidence point strictly inside this exact IRIS. The 1:1 label is emitted without nearest assignment, invented geometry, split or dropped source cell.","semanticLabelReviewed":true,"semanticLabelAccepted":false,"semanticResolution":"rename"},"geometry":{"type":"MultiPolygon","coordinates":[[[[4.95872349,44.01511058],[4.9566114,44.01692462],[4.95495394,44.01806699],[4.95466381,44.01844669],[4.95385631,44.01883743],[4.95329211,44.01952001],[4.95303645,44.0195957],[4.95194313,44.01961971],[4.95118226,44.02038952],[4.95020262,44.0204547],[4.9490254,44.02127242],[4.94825896,44.02140671],[4.94761456,44.02164415],[4.94732508,44.02182576],[4.94712583,44.02249371],[4.94693791,44.0226537],[4.94660901,44.02266766],[4.94605636,44.02226786],[4.94548343,44.0221142],[4.94536641,44.02274287],[4.94512742,44.02308833],[4.94486112,44.02314528],[4.94412002,44.02303601],[4.9439649,44.0234628],[4.94362399,44.0236372],[4.94314048,44.02350805],[4.94218608,44.0238761],[4.9418962,44.0240469],[4.9414835,44.02453137],[4.94021657,44.02524886],[4.93964208,44.02548951],[4.93938111,44.02552025],[4.93874112,44.02519309],[4.93766374,44.02488177],[4.93643167,44.0246443],[4.9366947,44.03205072],[4.93680123,44.03206414],[4.93681074,44.03219721],[4.94757886,44.03461331],[4.95286985,44.03599008],[4.95705132,44.03681296],[4.9608271,44.03795536],[4.96137077,44.03808697],[4.96456065,44.03870136],[4.9681706,44.03947917],[4.96944029,44.03970841],[4.97394501,44.04026376],[4.9739583,44.0401789],[4.97525787,44.04029679],[4.97622747,44.04025678],[4.97698275,44.04015491],[4.97768206,44.03998653],[4.98005719,44.03927106],[4.98071912,44.03914114],[4.98211233,44.03911682],[4.98334497,44.03917641],[4.98464054,44.03910791],[4.98514146,44.03904931],[4.98761015,44.03855075],[4.98837004,44.03847483],[4.98900252,44.03850295],[4.98925701,44.03699933],[4.98902867,44.03696477],[4.98905298,44.03680317],[4.98918646,44.03426462],[4.98973983,44.03420864],[4.98967343,44.03402259],[4.98974516,44.03386103],[4.98961175,44.03354295],[4.98982023,44.03350945],[4.98998485,44.03318505],[4.98998543,44.03302299],[4.98969926,44.03297598],[4.98971208,44.03287851],[4.99143473,44.03310826],[4.99147949,44.03317497],[4.9914837,44.03336666],[4.99138324,44.03367008],[4.99389894,44.03388086],[4.99480749,44.03398944],[4.99500894,44.03400467],[4.99529435,44.03367356],[4.9953543,44.03349691],[4.99529438,44.03342508],[4.99536847,44.03336701],[4.99547269,44.03342093],[4.99572192,44.03341098],[4.99770553,44.03353684],[4.99762426,44.03317641],[4.9970846,44.03205729],[4.99691542,44.03150309],[4.99679756,44.03084623],[4.99609003,44.03084653],[4.99554286,44.03079349],[4.99496594,44.03056813],[4.99492785,44.03065616],[4.99371166,44.03027769],[4.9921559,44.02989369],[4.99211358,44.02986115],[4.99226063,44.02935611],[4.99224831,44.0292537],[4.99102645,44.02888972],[4.99107901,44.02867989],[4.99089245,44.02866168],[4.98892573,44.02819238],[4.98734022,44.02766841],[4.98684447,44.02740733],[4.98639087,44.02710227],[4.98621575,44.02705413],[4.9863462,44.02657281],[4.98549615,44.0264919],[4.98434543,44.0262688],[4.98353764,44.02603947],[4.98360712,44.0259923],[4.98332353,44.02565983],[4.98314735,44.0255811],[4.97878246,44.02442313],[4.97741873,44.02402825],[4.97648013,44.02380303],[4.97638244,44.02390023],[4.97624428,44.02387392],[4.97587363,44.02376357],[4.97567823,44.02363386],[4.97471377,44.02331006],[4.97022053,44.02755758],[4.9686693,44.02711736],[4.96841998,44.02701561],[4.96823933,44.02687931],[4.96810212,44.02669993],[4.96781863,44.0266204],[4.96769643,44.02651456],[4.96696426,44.02554642],[4.96582949,44.02422809],[4.96463419,44.0224553],[4.96187753,44.01903329],[4.96002933,44.01622604],[4.95946613,44.01562934],[4.95872349,44.01511058]]]]}}]}
