{"type":"FeatureCollection","metadata":{"generatedAt":"2026-07-14T17:30:20.640Z","source":"IGN / INSEE - Contours IRIS WFS Géoplateforme","datasetId":"STATISTICALUNITS.IRIS:contours_iris","datasetUrl":"https://geoservices.ign.fr/contoursiris","sourceFileUrl":"https://data.geopf.fr/wfs/ows?SERVICE=WFS&VERSION=2.0.0&REQUEST=GetFeature&TYPENAMES=STATISTICALUNITS.IRIS%3Acontours_iris&OUTPUTFORMAT=application%2Fjson&COUNT=1000&CQL_FILTER=code_insee%3D%2771306%27&SRSNAME=EPSG%3A4326","license":"Licence Ouverte / Open Licence 2.0","sourceYear":"2026","communeCode":"71306","communeName":"Montceau-les-Mines","featureCount":10,"parentCount":1,"parentContract":"technical commune group; not selectable and not displayed as a district","sourceFeatureCount":10,"humanLabelContract":"one visible plate per unique official human place name","groupingContract":"only exact source-ID groups approved by the resolved curation, or source zones sharing the same official name and parent, are merged","groupedZoneCount":0,"groupedSourceFeatureCount":0,"curationStatus":"resolved","curationRevision":1,"curationSources":[{"id":"ign-insee-contours-iris-2026","provider":"IGN / INSEE - Contours IRIS WFS Géoplateforme","datasetUrl":"https://geoservices.ign.fr/contoursiris","role":"official geometry, source identifiers and source labels","vintage":"2026","license":"Licence Ouverte / Open Licence 2.0"},{"id":"ign-geoplateforme-toponymy-2026","provider":"IGN Géoplateforme - reverse geocoding, addresses and named places","datasetUrl":"https://geoservices.ign.fr/geocodage-geoplateforme","role":"official address, street and named-place evidence","vintage":"2026","license":"Licence Ouverte / Open Licence 2.0"},{"id":"guide-alpha-editorial-recovery-2026-07-14","provider":"Meewav Guide Alpha editorial review","datasetUrl":"docs/geospatial/france-semantic-recovery.md","role":"versioned mapping of exact official IRIS identifiers to coherent human place names","vintage":"2026-07-14","license":"Project documentation"}],"sourceCorrections":[{"operationId":"montceau_les_mines-713060108-accept-centre-ville","type":"accept","sourceIds":["713060108"],"expectedLabels":["Centre Ville"],"outputLabel":"Centre Ville","evidenceRefs":["ign-insee-contours-iris-2026","guide-alpha-editorial-recovery-2026-07-14"],"rationale":"Exact official IGN/INSEE label retained by exact-ID editorial review as a real human local name; no replacement or inferred geometry is introduced."},{"operationId":"montceau_les_mines-713060110-rename-bois-clair","type":"rename","sourceIds":["713060110"],"expectedLabels":["Zone d'Activités"],"outputLabel":"Bois Clair","evidenceRefs":["ign-insee-contours-iris-2026","ign-geoplateforme-toponymy-2026","guide-alpha-editorial-recovery-2026-07-14"],"rationale":"Official IGN BD TOPO evidence is strictly inside this exact IRIS. The human label is assigned 1:1 with no nearest-point inference and no invented geometry."}],"bbox":[4.32026529,46.65176224,4.38912118,46.69889491],"areaStatsM2":{"minimum":184032.8731689453,"average":1661557.9954101562,"maximum":4812275.07043457}},"features":[{"type":"Feature","id":"montceau_les_mines_713060101_le_bois_du_verne","properties":{"zoneId":"montceau_les_mines_713060101_le_bois_du_verne","label":"Le Bois du Verne","districtCode":"713060101","arrondissementCode":"71306","colorIndex":0,"parentZoneId":"montceau_les_mines_parent_71306_montceau_les_mines","parentCode":"71306","parentLabel":"Montceau-les-Mines","territoryType":"iris","source":"IGN / INSEE - Contours IRIS WFS Géoplateforme","sourceYear":"2026","officialId":"713060101","sourceCleabs":"IRIS____0000000713060101","communeCode":"71306","communeName":"Montceau-les-Mines","irisCode":"0101","irisType":"H","officialAreaM2":1556509.6381835938,"labelLng":4.354575755794051,"labelLat":46.693062120595144,"bbox":[4.34213799,46.68560091,4.36972453,46.69889491]},"geometry":{"type":"MultiPolygon","coordinates":[[[[4.34213799,46.69107779],[4.34427566,46.69152195],[4.34480459,46.69279903],[4.34508711,46.69305598],[4.34716098,46.69393129],[4.34739103,46.69386646],[4.3476915,46.69632412],[4.34758594,46.69634247],[4.34737484,46.69664393],[4.34662335,46.69695263],[4.34705126,46.69752936],[4.34750389,46.69841649],[4.34771038,46.69835103],[4.34867867,46.69781193],[4.35108803,46.69716762],[4.35139265,46.69710099],[4.3525968,46.69710031],[4.35317913,46.69678006],[4.35338019,46.69654985],[4.35442041,46.69711392],[4.35589553,46.69753417],[4.35734291,46.69783855],[4.35864773,46.69825087],[4.35960259,46.69869614],[4.36056301,46.69883965],[4.3631914,46.69889491],[4.36619825,46.69885285],[4.36666284,46.69879779],[4.36700369,46.69855869],[4.36689071,46.69770992],[4.36801709,46.69591971],[4.36860001,46.6963027],[4.36966883,46.69659343],[4.36972453,46.69631089],[4.36917145,46.69628147],[4.3680499,46.69581936],[4.36764418,46.69561256],[4.36574152,46.69432673],[4.3630456,46.69350146],[4.36248185,46.6932542],[4.36069287,46.69195342],[4.36018945,46.69170994],[4.35956214,46.69153636],[4.35994896,46.68984055],[4.35924953,46.68997401],[4.3591461,46.6899203],[4.35905283,46.68995833],[4.35904764,46.69001242],[4.35644894,46.69044752],[4.35650335,46.69016321],[4.35734462,46.68900145],[4.35625852,46.68863877],[4.35599726,46.68850047],[4.35599075,46.68834475],[4.35635919,46.68779647],[4.35633665,46.68762743],[4.35626008,46.68754819],[4.3556976,46.68729548],[4.35063553,46.68560091],[4.35047298,46.68580004],[4.35041438,46.68612763],[4.35064733,46.68707587],[4.34722837,46.68736011],[4.34655087,46.68695291],[4.34615522,46.68677655],[4.34213799,46.69107779]]]]}},{"type":"Feature","id":"montceau_les_mines_713060102_magny_bois_garnier","properties":{"zoneId":"montceau_les_mines_713060102_magny_bois_garnier","label":"Magny-Bois Garnier","districtCode":"713060102","arrondissementCode":"71306","colorIndex":1,"parentZoneId":"montceau_les_mines_parent_71306_montceau_les_mines","parentCode":"71306","parentLabel":"Montceau-les-Mines","territoryType":"iris","source":"IGN / INSEE - Contours IRIS WFS Géoplateforme","sourceYear":"2026","officialId":"713060102","sourceCleabs":"IRIS____0000000713060102","communeCode":"71306","communeName":"Montceau-les-Mines","irisCode":"0102","irisType":"H","officialAreaM2":4439364.683959961,"labelLng":4.335955815977789,"labelLat":46.677247375101366,"bbox":[4.32026529,46.65598117,4.35769387,46.69107779]},"geometry":{"type":"MultiPolygon","coordinates":[[[[4.3273199,46.65778406],[4.32804565,46.65842045],[4.3309683,46.66176183],[4.33147728,46.66198196],[4.3313675,46.66214623],[4.330881,46.66209604],[4.33046552,46.66222244],[4.32863381,46.66295241],[4.32794957,46.66337549],[4.327448,46.66356591],[4.32657357,46.66359313],[4.32461729,46.66383188],[4.3241284,46.66379159],[4.32401619,46.66417923],[4.32477991,46.66508356],[4.32486639,46.66637755],[4.32605004,46.66669077],[4.32802052,46.66665446],[4.32884374,46.6675806],[4.32922682,46.66890897],[4.32947125,46.66874043],[4.3296288,46.66876382],[4.33006497,46.66862548],[4.33001921,46.66851975],[4.33066432,46.66820608],[4.33107199,46.66840037],[4.33136223,46.66844653],[4.33180169,46.66833607],[4.33219844,46.668725],[4.33312797,46.66918068],[4.33366364,46.66984536],[4.33361859,46.67014217],[4.33337527,46.67056915],[4.3322968,46.67156328],[4.33190842,46.67237108],[4.33090688,46.67234218],[4.33103476,46.67270272],[4.33098511,46.67281226],[4.33039066,46.67279214],[4.33057187,46.67303319],[4.33034932,46.67318796],[4.33040459,46.67346829],[4.33065919,46.67382105],[4.33097678,46.67380746],[4.33083121,46.67406041],[4.33148449,46.67423834],[4.33139012,46.67497878],[4.33123713,46.67530295],[4.33082965,46.67586692],[4.3301956,46.67642181],[4.3299311,46.67636003],[4.3290369,46.67553379],[4.32782388,46.6751516],[4.3276273,46.6751917],[4.3274663,46.67513502],[4.32669339,46.67434428],[4.32635117,46.67458148],[4.32600788,46.67498979],[4.32394408,46.6752892],[4.32303917,46.67563104],[4.32341134,46.67576273],[4.32264983,46.67683596],[4.32267571,46.67720038],[4.32221005,46.67720575],[4.32209771,46.677805],[4.32265023,46.67846504],[4.32167684,46.67873742],[4.32109409,46.67925474],[4.32071181,46.67983819],[4.32035585,46.680859],[4.32048044,46.68097824],[4.32047027,46.68115216],[4.32026529,46.68143999],[4.32217471,46.68247524],[4.32339101,46.68363192],[4.32658727,46.68596884],[4.3304946,46.68745903],[4.33161845,46.68819524],[4.33289535,46.68887473],[4.33610454,46.69021794],[4.33885896,46.69046681],[4.34213799,46.69107779],[4.34615522,46.68677655],[4.34655087,46.68695291],[4.34722837,46.68736011],[4.35064733,46.68707587],[4.35041438,46.68612763],[4.35047298,46.68580004],[4.35063553,46.68560091],[4.3556976,46.68729548],[4.35626008,46.68754819],[4.35633665,46.68762743],[4.35635919,46.68779647],[4.35599075,46.68834475],[4.35599726,46.68850047],[4.35625852,46.68863877],[4.35734462,46.68900145],[4.35769387,46.68852363],[4.35766906,46.68821144],[4.35743663,46.68765585],[4.35697693,46.68680306],[4.3564431,46.68628255],[4.35553845,46.68579434],[4.35464605,46.68548248],[4.35471691,46.68538529],[4.35220174,46.68443696],[4.35089656,46.68383636],[4.35028486,46.68349595],[4.34921279,46.68279623],[4.34879363,46.68246255],[4.34794916,46.68170521],[4.34730549,46.68097072],[4.34678497,46.68024198],[4.34640146,46.67955036],[4.34610711,46.6788658],[4.34583638,46.67791979],[4.34543765,46.6753435],[4.34522156,46.67427798],[4.34482611,46.67315423],[4.3443693,46.67224642],[4.3420516,46.66861373],[4.34140853,46.66773511],[4.34095767,46.66722347],[4.3401628,46.66650061],[4.33918166,46.66580874],[4.33857143,46.66546375],[4.33690559,46.66464117],[4.33748101,46.66415717],[4.33815657,46.66386201],[4.33749028,46.6638959],[4.33696778,46.66381914],[4.33597528,46.66340655],[4.3356542,46.66316894],[4.33546921,46.66293335],[4.33388327,46.65976476],[4.33306597,46.65753189],[4.33248433,46.65669394],[4.3323089,46.65631324],[4.33232981,46.65620583],[4.33143625,46.65598117],[4.33087616,46.65607502],[4.32880902,46.65738498],[4.32818559,46.65761734],[4.3273199,46.65778406]]]]}},{"type":"Feature","id":"montceau_les_mines_713060103_la_saule","properties":{"zoneId":"montceau_les_mines_713060103_la_saule","label":"La Saule","districtCode":"713060103","arrondissementCode":"71306","colorIndex":2,"parentZoneId":"montceau_les_mines_parent_71306_montceau_les_mines","parentCode":"71306","parentLabel":"Montceau-les-Mines","territoryType":"iris","source":"IGN / INSEE - Contours IRIS WFS Géoplateforme","sourceYear":"2026","officialId":"713060103","sourceCleabs":"IRIS____0000000713060103","communeCode":"71306","communeName":"Montceau-les-Mines","irisCode":"0103","irisType":"H","officialAreaM2":1426384.7209472656,"labelLng":4.353308681850791,"labelLat":46.65924998795267,"bbox":[4.34144583,46.65176224,4.36176891,46.67140918]},"geometry":{"type":"MultiPolygon","coordinates":[[[[4.36100622,46.65519634],[4.36085877,46.6548964],[4.36073646,46.65408555],[4.36074721,46.6538882],[4.36095386,46.65362729],[4.35959844,46.65297966],[4.35773529,46.6529468],[4.35677107,46.6527754],[4.35632915,46.65293733],[4.35605597,46.65289103],[4.35578167,46.65295731],[4.35567078,46.65328282],[4.35538512,46.65336545],[4.3550006,46.65394185],[4.35440617,46.65386242],[4.35377535,46.65368705],[4.35351209,46.65346142],[4.35337072,46.65319382],[4.352641,46.6529854],[4.35188926,46.65252237],[4.35161326,46.6521519],[4.3517422,46.65176224],[4.34876599,46.65351464],[4.34810618,46.65427887],[4.34733841,46.65464541],[4.34647972,46.65461588],[4.3452423,46.65444939],[4.34419061,46.65454818],[4.34277422,46.65454856],[4.34144583,46.6550414],[4.34378696,46.65647199],[4.34527098,46.6577757],[4.34596956,46.65852126],[4.34797759,46.66159378],[4.34843413,46.66201707],[4.34931998,46.66266226],[4.35071862,46.66404435],[4.351066,46.66433744],[4.3524947,46.6652941],[4.35283736,46.66560705],[4.35505982,46.66843917],[4.35551011,46.66886972],[4.35657472,46.66833481],[4.35746783,46.66894832],[4.35782077,46.66946106],[4.35851328,46.66927005],[4.35865684,46.66930888],[4.35896814,46.66951592],[4.3593559,46.6697986],[4.35957076,46.67002029],[4.35983036,46.67040895],[4.35989804,46.6706567],[4.36030682,46.67068067],[4.36065912,46.67080077],[4.36144885,46.67140918],[4.36165461,46.67126715],[4.36176891,46.67107758],[4.36130534,46.67069404],[4.35922239,46.66922022],[4.35798298,46.66809931],[4.35825388,46.66794661],[4.3593903,46.66746035],[4.35824194,46.66616005],[4.358135,46.66617302],[4.35807489,46.66612331],[4.35807751,46.66607104],[4.3581617,46.66603763],[4.35808794,46.66586019],[4.35801434,46.6652703],[4.35779958,46.66306198],[4.35860634,46.66278766],[4.35838722,46.66228955],[4.35942448,46.65836615],[4.36021863,46.65691134],[4.36055458,46.6558591],[4.3607437,46.65542009],[4.36100622,46.65519634]]]]}},{"type":"Feature","id":"montceau_les_mines_713060104_sainte_salengro","properties":{"zoneId":"montceau_les_mines_713060104_sainte_salengro","label":"Sainte-Salengro","districtCode":"713060104","arrondissementCode":"71306","colorIndex":3,"parentZoneId":"montceau_les_mines_parent_71306_montceau_les_mines","parentCode":"71306","parentLabel":"Montceau-les-Mines","territoryType":"iris","source":"IGN / INSEE - Contours IRIS WFS Géoplateforme","sourceYear":"2026","officialId":"713060104","sourceCleabs":"IRIS____0000000713060104","communeCode":"71306","communeName":"Montceau-les-Mines","irisCode":"0104","irisType":"H","officialAreaM2":911424.0684814453,"labelLng":4.363013068329672,"labelLat":46.664203738903005,"bbox":[4.35779958,46.65519634,4.37160511,46.67107758]},"geometry":{"type":"MultiPolygon","coordinates":[[[[4.37160511,46.66675208],[4.36645811,46.66406952],[4.365872,46.66385767],[4.36536587,46.66073697],[4.36526701,46.66044636],[4.36470493,46.65962724],[4.36405541,46.65751146],[4.36344418,46.65692076],[4.36213522,46.65620056],[4.36164673,46.65560029],[4.36100622,46.65519634],[4.3607437,46.65542009],[4.36055458,46.6558591],[4.36021863,46.65691134],[4.35942448,46.65836615],[4.35838722,46.66228955],[4.35860634,46.66278766],[4.35779958,46.66306198],[4.35801434,46.6652703],[4.35808794,46.66586019],[4.3581617,46.66603763],[4.35807751,46.66607104],[4.35807489,46.66612331],[4.358135,46.66617302],[4.35824194,46.66616005],[4.3593903,46.66746035],[4.35825388,46.66794661],[4.35798298,46.66809931],[4.35922239,46.66922022],[4.36130534,46.67069404],[4.36176891,46.67107758],[4.3620006,46.670874],[4.36223496,46.67088113],[4.36237578,46.67081011],[4.36403274,46.66974398],[4.36688649,46.66862033],[4.36718426,46.66839254],[4.36736598,46.66802385],[4.37056637,46.66866917],[4.37160511,46.66675208]]]]}},{"type":"Feature","id":"montceau_les_mines_713060105_bellevue","properties":{"zoneId":"montceau_les_mines_713060105_bellevue","label":"Bellevue","districtCode":"713060105","arrondissementCode":"71306","colorIndex":4,"parentZoneId":"montceau_les_mines_parent_71306_montceau_les_mines","parentCode":"71306","parentLabel":"Montceau-les-Mines","territoryType":"iris","source":"IGN / INSEE - Contours IRIS WFS Géoplateforme","sourceYear":"2026","officialId":"713060105","sourceCleabs":"IRIS____0000000713060105","communeCode":"71306","communeName":"Montceau-les-Mines","irisCode":"0105","irisType":"H","officialAreaM2":617375.1293945312,"labelLng":4.376529386008422,"labelLat":46.66972762989207,"bbox":[4.37054791,46.6646988,4.38581856,46.67453194]},"geometry":{"type":"MultiPolygon","coordinates":[[[[4.38574863,46.67105243],[4.38544548,46.67127223],[4.38514687,46.67100297],[4.38508125,46.67094342],[4.38426469,46.67093527],[4.38347146,46.66953096],[4.38152087,46.66875748],[4.37785996,46.66672303],[4.37378753,46.6646988],[4.37172586,46.66656062],[4.37160511,46.66675208],[4.37056637,46.66866917],[4.37054791,46.66881889],[4.37076733,46.66921971],[4.37238474,46.67188042],[4.3733926,46.67319398],[4.37389656,46.6737733],[4.3744195,46.67422362],[4.37476746,46.67453194],[4.37814917,46.67281543],[4.3783549,46.67267337],[4.3791646,46.67266814],[4.37977001,46.67275812],[4.38013136,46.67276818],[4.38063803,46.67267923],[4.38114165,46.67252188],[4.38070254,46.67223178],[4.38084984,46.67210753],[4.38102123,46.67154172],[4.3812769,46.67135763],[4.3822482,46.67117392],[4.38260506,46.67121375],[4.38357392,46.67160281],[4.38430384,46.67195873],[4.38545785,46.6712955],[4.38581856,46.67112724],[4.38574863,46.67105243]]]]}},{"type":"Feature","id":"montceau_les_mines_713060106_les_rives_du_plessis","properties":{"zoneId":"montceau_les_mines_713060106_les_rives_du_plessis","label":"Les Rives du Plessis","districtCode":"713060106","arrondissementCode":"71306","colorIndex":5,"parentZoneId":"montceau_les_mines_parent_71306_montceau_les_mines","parentCode":"71306","parentLabel":"Montceau-les-Mines","territoryType":"iris","source":"IGN / INSEE - Contours IRIS WFS Géoplateforme","sourceYear":"2026","officialId":"713060106","sourceCleabs":"IRIS____0000000713060106","communeCode":"71306","communeName":"Montceau-les-Mines","irisCode":"0106","irisType":"H","officialAreaM2":184032.8731689453,"labelLng":4.376813355712804,"labelLat":46.67430141982921,"bbox":[4.3696349,46.67117392,4.38430384,46.67676914]},"geometry":{"type":"MultiPolygon","coordinates":[[[[4.3744195,46.67422362],[4.3696349,46.67619543],[4.37013708,46.67675678],[4.37301979,46.67676914],[4.37349868,46.67671838],[4.3745351,46.67646642],[4.37496709,46.67626852],[4.37541952,46.67599924],[4.37585676,46.67544015],[4.37618931,46.67539744],[4.37644278,46.67548716],[4.37687039,46.67521996],[4.37916707,46.67400274],[4.37985539,46.67375041],[4.38147653,46.67334365],[4.38206927,46.67314109],[4.38302611,46.67269639],[4.38430384,46.67195873],[4.38357392,46.67160281],[4.38260506,46.67121375],[4.3822482,46.67117392],[4.3812769,46.67135763],[4.38102123,46.67154172],[4.38084984,46.67210753],[4.38070254,46.67223178],[4.38114165,46.67252188],[4.38063803,46.67267923],[4.38013136,46.67276818],[4.37977001,46.67275812],[4.3791646,46.67266814],[4.3783549,46.67267337],[4.37814917,46.67281543],[4.37476746,46.67453194],[4.3744195,46.67422362]]]]}},{"type":"Feature","id":"montceau_les_mines_713060107_bois_roullot","properties":{"zoneId":"montceau_les_mines_713060107_bois_roullot","label":"Bois Roullot","districtCode":"713060107","arrondissementCode":"71306","colorIndex":6,"parentZoneId":"montceau_les_mines_parent_71306_montceau_les_mines","parentCode":"71306","parentLabel":"Montceau-les-Mines","territoryType":"iris","source":"IGN / INSEE - Contours IRIS WFS Géoplateforme","sourceYear":"2026","officialId":"713060107","sourceCleabs":"IRIS____0000000713060107","communeCode":"71306","communeName":"Montceau-les-Mines","irisCode":"0107","irisType":"H","officialAreaM2":1317888.5888671875,"labelLng":4.37935150269641,"labelLat":46.678823109623785,"bbox":[4.36652834,46.67105243,4.38912118,46.68590381]},"geometry":{"type":"MultiPolygon","coordinates":[[[[4.37854789,46.68590381],[4.37943,46.68559873],[4.38015077,46.68563959],[4.3802456,46.68525121],[4.38057032,46.68536167],[4.38060298,46.68510192],[4.38164273,46.68425549],[4.38275821,46.68366119],[4.38376931,46.68261697],[4.3837285,46.68209333],[4.38359167,46.68201303],[4.38912118,46.68179582],[4.38658822,46.67601427],[4.38556304,46.67336911],[4.38626291,46.67218633],[4.38631889,46.67181642],[4.38624323,46.67136345],[4.38631229,46.67130138],[4.38622216,46.67120431],[4.38574863,46.67105243],[4.38581856,46.67112724],[4.38545785,46.6712955],[4.38430384,46.67195873],[4.38302611,46.67269639],[4.38206927,46.67314109],[4.38147653,46.67334365],[4.37985539,46.67375041],[4.37916707,46.67400274],[4.37687039,46.67521996],[4.37644278,46.67548716],[4.37618931,46.67539744],[4.37585676,46.67544015],[4.37541952,46.67599924],[4.37496709,46.67626852],[4.3745351,46.67646642],[4.37349868,46.67671838],[4.37301979,46.67676914],[4.37013708,46.67675678],[4.3696349,46.67619543],[4.36799466,46.67688952],[4.36860578,46.67730909],[4.36701275,46.67811337],[4.36666628,46.67817603],[4.36652834,46.67825782],[4.368726,46.67990035],[4.36950956,46.68020349],[4.37040249,46.68048461],[4.37144956,46.68091066],[4.37465276,46.68256627],[4.37490679,46.68272802],[4.3754858,46.68327042],[4.37579075,46.6834793],[4.37700697,46.68396631],[4.37728335,46.6841323],[4.377658,46.6844574],[4.378094,46.68508616],[4.37854789,46.68590381]]]]}},{"type":"Feature","id":"montceau_les_mines_713060108_centre_ville","properties":{"zoneId":"montceau_les_mines_713060108_centre_ville","label":"Centre Ville","districtCode":"713060108","arrondissementCode":"71306","colorIndex":7,"parentZoneId":"montceau_les_mines_parent_71306_montceau_les_mines","parentCode":"71306","parentLabel":"Montceau-les-Mines","territoryType":"iris","source":"IGN / INSEE - Contours IRIS WFS Géoplateforme","sourceYear":"2026","officialId":"713060108","sourceCleabs":"IRIS____0000000713060108","communeCode":"71306","communeName":"Montceau-les-Mines","irisCode":"0108","irisType":"H","officialAreaM2":832186.9367675781,"labelLng":4.36560100871464,"labelLat":46.67912799119434,"bbox":[4.35551011,46.66833481,4.37854789,46.68706849],"curationOperationId":"montceau_les_mines-713060108-accept-centre-ville","curationRevision":1,"curationEvidenceRefs":["ign-insee-contours-iris-2026","guide-alpha-editorial-recovery-2026-07-14"],"curationRationale":"Exact official IGN/INSEE label retained by exact-ID editorial review as a real human local name; no replacement or inferred geometry is introduced.","semanticLabelReviewed":true,"semanticLabelAccepted":true,"semanticResolution":"accept"},"geometry":{"type":"MultiPolygon","coordinates":[[[[4.37781004,46.68653135],[4.37781869,46.68620165],[4.37854789,46.68590381],[4.378094,46.68508616],[4.377658,46.6844574],[4.37728335,46.6841323],[4.37700697,46.68396631],[4.37579075,46.6834793],[4.3754858,46.68327042],[4.37490679,46.68272802],[4.37465276,46.68256627],[4.37144956,46.68091066],[4.37040249,46.68048461],[4.36950956,46.68020349],[4.368726,46.67990035],[4.36652834,46.67825782],[4.36666628,46.67817603],[4.36701275,46.67811337],[4.36860578,46.67730909],[4.36799466,46.67688952],[4.36743687,46.67650893],[4.36669014,46.67589915],[4.36249466,46.67174257],[4.36176891,46.67107758],[4.36165461,46.67126715],[4.36144885,46.67140918],[4.36065912,46.67080077],[4.36030682,46.67068067],[4.35989804,46.6706567],[4.35983036,46.67040895],[4.35957076,46.67002029],[4.3593559,46.6697986],[4.35896814,46.66951592],[4.35865684,46.66930888],[4.35851328,46.66927005],[4.35782077,46.66946106],[4.35746783,46.66894832],[4.35657472,46.66833481],[4.35551011,46.66886972],[4.35706111,46.67026344],[4.35794569,46.67063841],[4.35848638,46.67096791],[4.35881649,46.67124678],[4.36032262,46.67345509],[4.36119101,46.67438226],[4.36182654,46.67478717],[4.36266476,46.67576152],[4.36285619,46.67624735],[4.3631123,46.67654689],[4.3634435,46.67676269],[4.36388458,46.67697718],[4.36368671,46.67706959],[4.36340148,46.67712161],[4.36114331,46.67806699],[4.35964961,46.67636195],[4.35863163,46.67546986],[4.35813104,46.67570002],[4.35787113,46.67592734],[4.35787336,46.67622629],[4.35816821,46.67692523],[4.35894811,46.67766165],[4.35953992,46.67830574],[4.35969793,46.67865958],[4.36008874,46.6802111],[4.36034511,46.68093931],[4.3606765,46.68142348],[4.36116235,46.68185719],[4.36147233,46.68206064],[4.36403956,46.68341249],[4.36467681,46.68367237],[4.36518746,46.68378877],[4.37113866,46.68476875],[4.37129252,46.68542071],[4.37129671,46.68626087],[4.37203579,46.68624934],[4.37207869,46.6867045],[4.37225532,46.68680685],[4.37266941,46.68682892],[4.37309571,46.68692018],[4.37349467,46.68706849],[4.37338215,46.68660336],[4.37319463,46.686122],[4.37294066,46.68565225],[4.37248802,46.68524341],[4.37210934,46.6850165],[4.37165054,46.68482927],[4.37215642,46.68460078],[4.37422137,46.68682565],[4.37440446,46.68676942],[4.37578482,46.68608737],[4.37534791,46.68573239],[4.37490725,46.68522886],[4.37327797,46.6836724],[4.37302103,46.68360253],[4.37215648,46.68361828],[4.37177174,46.68351391],[4.37066712,46.68277966],[4.36976536,46.6822537],[4.36834349,46.68154572],[4.36690799,46.68133499],[4.36647885,46.68123294],[4.36597697,46.68125603],[4.36538917,46.68119278],[4.36489072,46.68104022],[4.36408074,46.68062209],[4.36567559,46.67910459],[4.36732492,46.67975586],[4.36787856,46.67986633],[4.36847742,46.68005731],[4.36988342,46.68101943],[4.37026347,46.6811986],[4.37043222,46.68135238],[4.37474292,46.68359542],[4.37618309,46.68465882],[4.37722444,46.68573149],[4.37781004,46.68653135]]]]}},{"type":"Feature","id":"montceau_les_mines_713060109_bel_air","properties":{"zoneId":"montceau_les_mines_713060109_bel_air","label":"Bel-Air","districtCode":"713060109","arrondissementCode":"71306","colorIndex":0,"parentZoneId":"montceau_les_mines_parent_71306_montceau_les_mines","parentCode":"71306","parentLabel":"Montceau-les-Mines","territoryType":"iris","source":"IGN / INSEE - Contours IRIS WFS Géoplateforme","sourceYear":"2026","officialId":"713060109","sourceCleabs":"IRIS____0000000713060109","communeCode":"71306","communeName":"Montceau-les-Mines","irisCode":"0109","irisType":"H","officialAreaM2":518138.2438964844,"labelLng":4.3681811883482204,"labelLat":46.67234964657734,"bbox":[4.36176891,46.66802385,4.3744195,46.67688952]},"geometry":{"type":"MultiPolygon","coordinates":[[[[4.36799466,46.67688952],[4.3696349,46.67619543],[4.3744195,46.67422362],[4.37389656,46.6737733],[4.3733926,46.67319398],[4.37238474,46.67188042],[4.37076733,46.66921971],[4.37054791,46.66881889],[4.37056637,46.66866917],[4.36736598,46.66802385],[4.36718426,46.66839254],[4.36688649,46.66862033],[4.36403274,46.66974398],[4.36237578,46.67081011],[4.36223496,46.67088113],[4.3620006,46.670874],[4.36176891,46.67107758],[4.36249466,46.67174257],[4.36669014,46.67589915],[4.36743687,46.67650893],[4.36799466,46.67688952]]]]}},{"type":"Feature","id":"montceau_les_mines_713060110_zone_d_activites","properties":{"zoneId":"montceau_les_mines_713060110_zone_d_activites","label":"Bois Clair","districtCode":"713060110","arrondissementCode":"71306","colorIndex":1,"parentZoneId":"montceau_les_mines_parent_71306_montceau_les_mines","parentCode":"71306","parentLabel":"Montceau-les-Mines","territoryType":"iris","source":"IGN / INSEE - Contours IRIS WFS Géoplateforme","sourceYear":"2026","officialId":"713060110","sourceCleabs":"IRIS____0000000713060110","communeCode":"71306","communeName":"Montceau-les-Mines","irisCode":"0110","irisType":"A","officialAreaM2":4812275.07043457,"labelLng":4.354346032964614,"labelLat":46.67592660219146,"bbox":[4.3323089,46.65483113,4.37816488,46.69628147],"curationOperationId":"montceau_les_mines-713060110-rename-bois-clair","curationRevision":1,"curationEvidenceRefs":["ign-insee-contours-iris-2026","ign-geoplateforme-toponymy-2026","guide-alpha-editorial-recovery-2026-07-14"],"curationRationale":"Official IGN BD TOPO evidence is strictly inside this exact IRIS. The human label is assigned 1:1 with no nearest-point inference and no invented geometry.","semanticLabelReviewed":true,"semanticLabelAccepted":false,"semanticResolution":"rename"},"geometry":{"type":"MultiPolygon","coordinates":[[[[4.36917145,46.69628147],[4.369071,46.69619081],[4.36940737,46.69587881],[4.36922847,46.69558377],[4.3688324,46.6956038],[4.36873204,46.69536095],[4.36895833,46.69514752],[4.36899401,46.69495348],[4.3688525,46.69479126],[4.36940171,46.69440828],[4.36921135,46.69417731],[4.36926343,46.69401099],[4.36968519,46.69381594],[4.36962956,46.69368602],[4.37033983,46.69356587],[4.37024814,46.69335534],[4.37052449,46.69315572],[4.37018643,46.69277702],[4.37056559,46.69250233],[4.37045111,46.69237402],[4.37030391,46.69234966],[4.37053139,46.69218394],[4.371158,46.69217285],[4.37180643,46.69204083],[4.37140367,46.69158726],[4.37190309,46.69167045],[4.37264174,46.69194979],[4.37259709,46.69178822],[4.37272654,46.69173174],[4.37273558,46.69162357],[4.37352092,46.69095406],[4.37570007,46.69049299],[4.37600282,46.69020028],[4.37644827,46.69021925],[4.37650964,46.69011045],[4.37630464,46.68987066],[4.37645643,46.68971485],[4.37713283,46.68996519],[4.37718087,46.68984664],[4.37678084,46.6892958],[4.37756844,46.68938991],[4.37759866,46.68949761],[4.37778157,46.68948551],[4.37816488,46.68891266],[4.37814821,46.6888228],[4.37804311,46.68880696],[4.37787619,46.68888191],[4.37768082,46.68886714],[4.37802281,46.68821283],[4.37781584,46.68794696],[4.37780363,46.68756887],[4.37790447,46.6874686],[4.37782831,46.68720025],[4.37794063,46.6870368],[4.37780219,46.68684124],[4.37781004,46.68653135],[4.37722444,46.68573149],[4.37618309,46.68465882],[4.37474292,46.68359542],[4.37043222,46.68135238],[4.37026347,46.6811986],[4.36988342,46.68101943],[4.36847742,46.68005731],[4.36787856,46.67986633],[4.36732492,46.67975586],[4.36567559,46.67910459],[4.36408074,46.68062209],[4.36489072,46.68104022],[4.36538917,46.68119278],[4.36597697,46.68125603],[4.36647885,46.68123294],[4.36690799,46.68133499],[4.36834349,46.68154572],[4.36976536,46.6822537],[4.37066712,46.68277966],[4.37177174,46.68351391],[4.37215648,46.68361828],[4.37302103,46.68360253],[4.37327797,46.6836724],[4.37490725,46.68522886],[4.37534791,46.68573239],[4.37578482,46.68608737],[4.37440446,46.68676942],[4.37422137,46.68682565],[4.37215642,46.68460078],[4.37165054,46.68482927],[4.37210934,46.6850165],[4.37248802,46.68524341],[4.37294066,46.68565225],[4.37319463,46.686122],[4.37338215,46.68660336],[4.37349467,46.68706849],[4.37309571,46.68692018],[4.37266941,46.68682892],[4.37225532,46.68680685],[4.37207869,46.6867045],[4.37203579,46.68624934],[4.37129671,46.68626087],[4.37129252,46.68542071],[4.37113866,46.68476875],[4.36518746,46.68378877],[4.36467681,46.68367237],[4.36403956,46.68341249],[4.36147233,46.68206064],[4.36116235,46.68185719],[4.3606765,46.68142348],[4.36034511,46.68093931],[4.36008874,46.6802111],[4.35969793,46.67865958],[4.35953992,46.67830574],[4.35894811,46.67766165],[4.35816821,46.67692523],[4.35787336,46.67622629],[4.35787113,46.67592734],[4.35813104,46.67570002],[4.35863163,46.67546986],[4.35964961,46.67636195],[4.36114331,46.67806699],[4.36340148,46.67712161],[4.36368671,46.67706959],[4.36388458,46.67697718],[4.3634435,46.67676269],[4.3631123,46.67654689],[4.36285619,46.67624735],[4.36266476,46.67576152],[4.36182654,46.67478717],[4.36119101,46.67438226],[4.36032262,46.67345509],[4.35881649,46.67124678],[4.35848638,46.67096791],[4.35794569,46.67063841],[4.35706111,46.67026344],[4.35551011,46.66886972],[4.35505982,46.66843917],[4.35283736,46.66560705],[4.3524947,46.6652941],[4.351066,46.66433744],[4.35071862,46.66404435],[4.34931998,46.66266226],[4.34843413,46.66201707],[4.34797759,46.66159378],[4.34596956,46.65852126],[4.34527098,46.6577757],[4.34378696,46.65647199],[4.34144583,46.6550414],[4.34125386,46.65521205],[4.34063631,46.65483113],[4.34058162,46.65526494],[4.33993225,46.65576873],[4.33994607,46.65601082],[4.33903199,46.65649429],[4.33868326,46.6565668],[4.33768492,46.65639024],[4.33693673,46.65617473],[4.33685676,46.65600726],[4.33476315,46.65596681],[4.33252556,46.65613512],[4.33232981,46.65620583],[4.3323089,46.65631324],[4.33248433,46.65669394],[4.33306597,46.65753189],[4.33388327,46.65976476],[4.33546921,46.66293335],[4.3356542,46.66316894],[4.33597528,46.66340655],[4.33696778,46.66381914],[4.33749028,46.6638959],[4.33815657,46.66386201],[4.33748101,46.66415717],[4.33690559,46.66464117],[4.33857143,46.66546375],[4.33918166,46.66580874],[4.3401628,46.66650061],[4.34095767,46.66722347],[4.34140853,46.66773511],[4.3420516,46.66861373],[4.3443693,46.67224642],[4.34482611,46.67315423],[4.34522156,46.67427798],[4.34543765,46.6753435],[4.34583638,46.67791979],[4.34610711,46.6788658],[4.34640146,46.67955036],[4.34678497,46.68024198],[4.34730549,46.68097072],[4.34794916,46.68170521],[4.34879363,46.68246255],[4.34921279,46.68279623],[4.35028486,46.68349595],[4.35089656,46.68383636],[4.35220174,46.68443696],[4.35471691,46.68538529],[4.35464605,46.68548248],[4.35553845,46.68579434],[4.3564431,46.68628255],[4.35697693,46.68680306],[4.35743663,46.68765585],[4.35766906,46.68821144],[4.35769387,46.68852363],[4.35734462,46.68900145],[4.35650335,46.69016321],[4.35644894,46.69044752],[4.35904764,46.69001242],[4.35905283,46.68995833],[4.3591461,46.6899203],[4.35924953,46.68997401],[4.35994896,46.68984055],[4.35956214,46.69153636],[4.36018945,46.69170994],[4.36069287,46.69195342],[4.36248185,46.6932542],[4.3630456,46.69350146],[4.36574152,46.69432673],[4.36764418,46.69561256],[4.3680499,46.69581936],[4.36917145,46.69628147]]]]}}]}
