{"type":"FeatureCollection","metadata":{"generatedAt":"2026-07-14T15:17:53.232Z","source":"IGN / INSEE - Contours IRIS WFS Géoplateforme","datasetId":"STATISTICALUNITS.IRIS:contours_iris","datasetUrl":"https://geoservices.ign.fr/contoursiris","sourceFileUrl":"https://data.geopf.fr/wfs/ows?SERVICE=WFS&VERSION=2.0.0&REQUEST=GetFeature&TYPENAMES=STATISTICALUNITS.IRIS%3Acontours_iris&OUTPUTFORMAT=application%2Fjson&COUNT=1000&CQL_FILTER=code_insee%3D%2757480%27&SRSNAME=EPSG%3A4326","license":"Licence Ouverte / Open Licence 2.0","sourceYear":"2026","communeCode":"57480","communeName":"Montigny-lès-Metz","featureCount":9,"parentCount":1,"parentContract":"technical commune group; not selectable and not displayed as a district","sourceFeatureCount":9,"humanLabelContract":"one visible plate per unique official human place name","groupingContract":"only exact source-ID groups approved by the resolved curation, or source zones sharing the same official name and parent, are merged","groupedZoneCount":0,"groupedSourceFeatureCount":0,"curationStatus":"resolved","curationRevision":1,"curationSources":[{"id":"ign-insee-contours-iris-2026","provider":"IGN / INSEE - Contours IRIS WFS Géoplateforme","datasetUrl":"https://geoservices.ign.fr/contoursiris","role":"official geometry, source identifiers and source labels","vintage":"2026","license":"Licence Ouverte / Open Licence 2.0"},{"id":"ign-geoplateforme-toponymy-2026","provider":"IGN Géoplateforme - reverse geocoding, addresses and named places","datasetUrl":"https://geoservices.ign.fr/geocodage-geoplateforme","role":"official address, street and named-place evidence","vintage":"2026","license":"Licence Ouverte / Open Licence 2.0"},{"id":"guide-alpha-editorial-recovery-2026-07-14","provider":"Meewav Guide Alpha editorial review","datasetUrl":"docs/geospatial/france-semantic-recovery.md","role":"versioned mapping of exact official IRIS identifiers to coherent human place names","vintage":"2026-07-14","license":"Project documentation"}],"sourceCorrections":[{"operationId":"montigny_les_metz-574800104-accept-centre-ville","type":"accept","sourceIds":["574800104"],"expectedLabels":["Centre Ville"],"outputLabel":"Centre Ville","evidenceRefs":["ign-insee-contours-iris-2026","guide-alpha-editorial-recovery-2026-07-14"],"rationale":"Exact official IGN/INSEE label retained by exact-ID review because no safe official polygon crosswalk supports a replacement."}],"bbox":[6.12746578,49.07898321,6.18203671,49.11421431],"areaStatsM2":{"minimum":206806.240234375,"average":737795.4640299479,"maximum":1792487.5554199219}},"features":[{"type":"Feature","id":"montigny_les_metz_574800101_ilot_saint_symphorien","properties":{"zoneId":"montigny_les_metz_574800101_ilot_saint_symphorien","label":"Îlot Saint-Symphorien","districtCode":"574800101","arrondissementCode":"57480","colorIndex":0,"parentZoneId":"montigny_les_metz_parent_57480_montigny_les_metz","parentCode":"57480","parentLabel":"Montigny-lès-Metz","territoryType":"iris","source":"IGN / INSEE - Contours IRIS WFS Géoplateforme","sourceYear":"2026","officialId":"574800101","sourceCleabs":"IRIS____0000000574800101","communeCode":"57480","communeName":"Montigny-lès-Metz","irisCode":"0101","irisType":"D","officialAreaM2":1122070.1286621094,"labelLng":6.144292735,"labelLat":49.10696189,"bbox":[6.12746578,49.09970947,6.16111969,49.11421431]},"geometry":{"type":"MultiPolygon","coordinates":[[[[6.131032,49.09970947],[6.12910806,49.10125328],[6.1282406,49.10266068],[6.12746578,49.10440039],[6.12945128,49.10496239],[6.13158233,49.1053469],[6.13307287,49.10549612],[6.13663132,49.10530254],[6.1387633,49.10558792],[6.13982622,49.10442459],[6.14011464,49.10429918],[6.1404726,49.10425833],[6.14234062,49.10480159],[6.14255881,49.10491917],[6.14281502,49.1052796],[6.1430026,49.10586407],[6.14297036,49.10630403],[6.14241762,49.10702034],[6.14281968,49.10809052],[6.14297443,49.10928593],[6.14252046,49.11117932],[6.14219794,49.11216675],[6.14365112,49.11239691],[6.14391686,49.11404292],[6.14472641,49.11421431],[6.14505724,49.11388352],[6.14572823,49.11380478],[6.14615471,49.11362715],[6.14727842,49.11348706],[6.14781317,49.1133093],[6.14957328,49.11213842],[6.14991283,49.1117489],[6.15035899,49.11058814],[6.15143326,49.10882512],[6.1516357,49.10798478],[6.15209876,49.10809411],[6.15252227,49.10789135],[6.15278305,49.10764965],[6.15302087,49.10707562],[6.15495508,49.10726153],[6.15637234,49.10726302],[6.15901466,49.10789007],[6.15995625,49.10829454],[6.16017608,49.10848313],[6.16111969,49.10793192],[6.15999402,49.10747561],[6.15907011,49.10677643],[6.15888516,49.10666521],[6.15838674,49.10649294],[6.15807327,49.10645439],[6.15615429,49.10640581],[6.15559562,49.10634669],[6.15061089,49.10517359],[6.15002281,49.10499104],[6.14968944,49.10494039],[6.14682537,49.10415517],[6.14349718,49.10330824],[6.13596843,49.10127874],[6.13574078,49.10147994],[6.13480098,49.10121291],[6.13442661,49.10114079],[6.13362993,49.10088352],[6.13231397,49.10033294],[6.131032,49.09970947]]]]}},{"type":"Feature","id":"montigny_les_metz_574800102_friches","properties":{"zoneId":"montigny_les_metz_574800102_friches","label":"Friches","districtCode":"574800102","arrondissementCode":"57480","colorIndex":1,"parentZoneId":"montigny_les_metz_parent_57480_montigny_les_metz","parentCode":"57480","parentLabel":"Montigny-lès-Metz","territoryType":"iris","source":"IGN / INSEE - Contours IRIS WFS Géoplateforme","sourceYear":"2026","officialId":"574800102","sourceCleabs":"IRIS____0000000574800102","communeCode":"57480","communeName":"Montigny-lès-Metz","irisCode":"0102","irisType":"H","officialAreaM2":774721.2219238281,"labelLng":6.143016799774956,"labelLat":49.10020309097896,"bbox":[6.13394718,49.0954286,6.15313673,49.10499104]},"geometry":{"type":"MultiPolygon","coordinates":[[[[6.15164365,49.09964316],[6.14943552,49.09889119],[6.14703267,49.09820368],[6.14411957,49.0973036],[6.1382919,49.0954286],[6.13809724,49.09560825],[6.1366595,49.09632696],[6.13625547,49.09660205],[6.13549432,49.09724819],[6.13508015,49.09767292],[6.13475427,49.09803955],[6.13431259,49.09866655],[6.13406588,49.09916429],[6.13394718,49.09967128],[6.13402384,49.09969268],[6.13403345,49.09973832],[6.13474739,49.09980608],[6.13471643,49.10042687],[6.13480098,49.10121291],[6.13574078,49.10147994],[6.13596843,49.10127874],[6.14349718,49.10330824],[6.14682537,49.10415517],[6.14968944,49.10494039],[6.15002281,49.10499104],[6.15002419,49.10492352],[6.15013706,49.10479639],[6.15107531,49.10411132],[6.15140991,49.10391178],[6.15272142,49.10346077],[6.15299213,49.10338258],[6.1530873,49.10339268],[6.15313673,49.1033491],[6.15309623,49.10329167],[6.15300045,49.10329418],[6.15183134,49.10281914],[6.14920407,49.10155446],[6.15134387,49.10005414],[6.15172202,49.0996699],[6.15164365,49.09964316]]]]}},{"type":"Feature","id":"montigny_les_metz_574800103_vacquiniere_botanique_courcelle","properties":{"zoneId":"montigny_les_metz_574800103_vacquiniere_botanique_courcelle","label":"Vacquinière Botanique Courcelle","districtCode":"574800103","arrondissementCode":"57480","colorIndex":2,"parentZoneId":"montigny_les_metz_parent_57480_montigny_les_metz","parentCode":"57480","parentLabel":"Montigny-lès-Metz","territoryType":"iris","source":"IGN / INSEE - Contours IRIS WFS Géoplateforme","sourceYear":"2026","officialId":"574800103","sourceCleabs":"IRIS____0000000574800103","communeCode":"57480","communeName":"Montigny-lès-Metz","irisCode":"0103","irisType":"H","officialAreaM2":387466.74072265625,"labelLng":6.157929938008602,"labelLat":49.104663130071366,"bbox":[6.15002281,49.10137901,6.16416697,49.10810371]},"geometry":{"type":"MultiPolygon","coordinates":[[[[6.16111969,49.10793192],[6.1614646,49.10810371],[6.16257621,49.1073861],[6.16400431,49.10621833],[6.16416697,49.10616636],[6.16406953,49.10605195],[6.16193986,49.10356146],[6.16185297,49.103283],[6.16118854,49.102613],[6.15948932,49.10137901],[6.15872773,49.10203701],[6.15807043,49.10182033],[6.15700884,49.10164846],[6.15616222,49.102171],[6.15520324,49.10255881],[6.15501966,49.10276249],[6.15407708,49.10312736],[6.15313673,49.1033491],[6.1530873,49.10339268],[6.15299213,49.10338258],[6.15272142,49.10346077],[6.15140991,49.10391178],[6.15107531,49.10411132],[6.15013706,49.10479639],[6.15002419,49.10492352],[6.15002281,49.10499104],[6.15061089,49.10517359],[6.15559562,49.10634669],[6.15615429,49.10640581],[6.15807327,49.10645439],[6.15838674,49.10649294],[6.15888516,49.10666521],[6.15907011,49.10677643],[6.15999402,49.10747561],[6.16111969,49.10793192]]]]}},{"type":"Feature","id":"montigny_les_metz_574800104_centre_ville","properties":{"zoneId":"montigny_les_metz_574800104_centre_ville","label":"Centre Ville","districtCode":"574800104","arrondissementCode":"57480","colorIndex":3,"parentZoneId":"montigny_les_metz_parent_57480_montigny_les_metz","parentCode":"57480","parentLabel":"Montigny-lès-Metz","territoryType":"iris","source":"IGN / INSEE - Contours IRIS WFS Géoplateforme","sourceYear":"2026","officialId":"574800104","sourceCleabs":"IRIS____0000000574800104","communeCode":"57480","communeName":"Montigny-lès-Metz","irisCode":"0104","irisType":"H","officialAreaM2":206806.240234375,"labelLng":6.154194212345648,"labelLat":49.10106466438704,"bbox":[6.14920407,49.09857402,6.15948932,49.1033491],"curationOperationId":"montigny_les_metz-574800104-accept-centre-ville","curationRevision":1,"curationEvidenceRefs":["ign-insee-contours-iris-2026","guide-alpha-editorial-recovery-2026-07-14"],"curationRationale":"Exact official IGN/INSEE label retained by exact-ID review because no safe official polygon crosswalk supports a replacement.","semanticLabelReviewed":true,"semanticLabelAccepted":true,"semanticResolution":"accept"},"geometry":{"type":"MultiPolygon","coordinates":[[[[6.15948932,49.10137901],[6.15865709,49.10076561],[6.15753771,49.09921761],[6.15667691,49.09943908],[6.15611661,49.09962207],[6.15552353,49.0998743],[6.15498528,49.09996941],[6.15350122,49.09857402],[6.15233173,49.09915],[6.15192722,49.09939367],[6.15164365,49.09964316],[6.15172202,49.0996699],[6.15134387,49.10005414],[6.14920407,49.10155446],[6.15183134,49.10281914],[6.15300045,49.10329418],[6.15309623,49.10329167],[6.15313673,49.1033491],[6.15407708,49.10312736],[6.15501966,49.10276249],[6.15520324,49.10255881],[6.15616222,49.102171],[6.15700884,49.10164846],[6.15807043,49.10182033],[6.15872773,49.10203701],[6.15948932,49.10137901]]]]}},{"type":"Feature","id":"montigny_les_metz_574800105_haut_rhele_venizelos_saint_victor","properties":{"zoneId":"montigny_les_metz_574800105_haut_rhele_venizelos_saint_victor","label":"Haut-Rhêle Vénizélos Saint-Victor","districtCode":"574800105","arrondissementCode":"57480","colorIndex":4,"parentZoneId":"montigny_les_metz_parent_57480_montigny_les_metz","parentCode":"57480","parentLabel":"Montigny-lès-Metz","territoryType":"iris","source":"IGN / INSEE - Contours IRIS WFS Géoplateforme","sourceYear":"2026","officialId":"574800105","sourceCleabs":"IRIS____0000000574800105","communeCode":"57480","communeName":"Montigny-lès-Metz","irisCode":"0105","irisType":"H","officialAreaM2":703917.658203125,"labelLng":6.1476907091959765,"labelLat":49.096769066704134,"bbox":[6.13092548,49.09343719,6.16090393,49.10121291]},"geometry":{"type":"MultiPolygon","coordinates":[[[[6.15753771,49.09921761],[6.16090393,49.09832917],[6.15932084,49.09641275],[6.15507013,49.09611859],[6.15434067,49.09602076],[6.15429532,49.09579339],[6.15389482,49.09538188],[6.15202585,49.09394078],[6.15197994,49.09390689],[6.15079828,49.09450658],[6.15062212,49.09453909],[6.15023,49.09442249],[6.14957967,49.09416059],[6.14970419,49.09397736],[6.14905961,49.09374229],[6.14866952,49.09363644],[6.14821428,49.09372125],[6.14744753,49.09343719],[6.14677005,49.09421709],[6.14664205,49.09425284],[6.14516372,49.09411967],[6.14384275,49.09409574],[6.1437505,49.09406576],[6.14364635,49.09413328],[6.14253777,49.09426755],[6.14202896,49.09430515],[6.14122144,49.09427497],[6.14114109,49.09432836],[6.14056881,49.09433612],[6.13945165,49.09408006],[6.13857778,49.09383654],[6.13822267,49.0939007],[6.13678524,49.09494064],[6.1318315,49.09928822],[6.13144211,49.0990806],[6.13092548,49.09953408],[6.13112869,49.09963136],[6.131032,49.09970947],[6.13231397,49.10033294],[6.13362993,49.10088352],[6.13442661,49.10114079],[6.13480098,49.10121291],[6.13471643,49.10042687],[6.13474739,49.09980608],[6.13403345,49.09973832],[6.13402384,49.09969268],[6.13394718,49.09967128],[6.13406588,49.09916429],[6.13431259,49.09866655],[6.13475427,49.09803955],[6.13508015,49.09767292],[6.13549432,49.09724819],[6.13625547,49.09660205],[6.1366595,49.09632696],[6.13809724,49.09560825],[6.1382919,49.0954286],[6.14411957,49.0973036],[6.14703267,49.09820368],[6.14943552,49.09889119],[6.15164365,49.09964316],[6.15192722,49.09939367],[6.15233173,49.09915],[6.15350122,49.09857402],[6.15498528,49.09996941],[6.15552353,49.0998743],[6.15611661,49.09962207],[6.15667691,49.09943908],[6.15753771,49.09921761]]]]}},{"type":"Feature","id":"montigny_les_metz_574800106_mermoz_frescaty_patural_l_eveque","properties":{"zoneId":"montigny_les_metz_574800106_mermoz_frescaty_patural_l_eveque","label":"Mermoz Frescaty Patural l'Évêque","districtCode":"574800106","arrondissementCode":"57480","colorIndex":5,"parentZoneId":"montigny_les_metz_parent_57480_montigny_les_metz","parentCode":"57480","parentLabel":"Montigny-lès-Metz","territoryType":"iris","source":"IGN / INSEE - Contours IRIS WFS Géoplateforme","sourceYear":"2026","officialId":"574800106","sourceCleabs":"IRIS____0000000574800106","communeCode":"57480","communeName":"Montigny-lès-Metz","irisCode":"0106","irisType":"H","officialAreaM2":432186.3986816406,"labelLng":6.147059184938815,"labelLat":49.09210602813487,"bbox":[6.13822267,49.08840296,6.15574566,49.09453909]},"geometry":{"type":"MultiPolygon","coordinates":[[[[6.14839545,49.08840296],[6.14513287,49.09020169],[6.14412655,49.08958104],[6.14176793,49.09131013],[6.14195619,49.09140959],[6.14137562,49.09161913],[6.13822267,49.0939007],[6.13857778,49.09383654],[6.13945165,49.09408006],[6.14056881,49.09433612],[6.14114109,49.09432836],[6.14122144,49.09427497],[6.14202896,49.09430515],[6.14253777,49.09426755],[6.14364635,49.09413328],[6.1437505,49.09406576],[6.14384275,49.09409574],[6.14516372,49.09411967],[6.14664205,49.09425284],[6.14677005,49.09421709],[6.14744753,49.09343719],[6.14821428,49.09372125],[6.14866952,49.09363644],[6.14905961,49.09374229],[6.14970419,49.09397736],[6.14957967,49.09416059],[6.15023,49.09442249],[6.15062212,49.09453909],[6.15079828,49.09450658],[6.15197994,49.09390689],[6.15202585,49.09394078],[6.15274925,49.093399],[6.15437859,49.09261387],[6.15574566,49.09209027],[6.1542621,49.09029444],[6.15072303,49.09171365],[6.14980047,49.09055635],[6.14866348,49.08889085],[6.14839545,49.08840296]]]]}},{"type":"Feature","id":"montigny_les_metz_574800107_saint_privat","properties":{"zoneId":"montigny_les_metz_574800107_saint_privat","label":"Saint-Privat","districtCode":"574800107","arrondissementCode":"57480","colorIndex":6,"parentZoneId":"montigny_les_metz_parent_57480_montigny_les_metz","parentCode":"57480","parentLabel":"Montigny-lès-Metz","territoryType":"iris","source":"IGN / INSEE - Contours IRIS WFS Géoplateforme","sourceYear":"2026","officialId":"574800107","sourceCleabs":"IRIS____0000000574800107","communeCode":"57480","communeName":"Montigny-lès-Metz","irisCode":"0107","irisType":"H","officialAreaM2":246556.6357421875,"labelLng":6.152534816142213,"labelLat":49.088013935151814,"bbox":[6.14839545,49.08446615,6.15722715,49.09171365]},"geometry":{"type":"MultiPolygon","coordinates":[[[[6.15433077,49.08446615],[6.15375908,49.08466203],[6.15186298,49.08556213],[6.15073405,49.08596698],[6.15135824,49.08676947],[6.14839545,49.08840296],[6.14866348,49.08889085],[6.14980047,49.09055635],[6.15072303,49.09171365],[6.1542621,49.09029444],[6.15322846,49.08909149],[6.15722715,49.08703473],[6.15615619,49.08620891],[6.15543602,49.08558623],[6.15464655,49.08483759],[6.15447783,49.08454147],[6.15433077,49.08446615]]]]}},{"type":"Feature","id":"montigny_les_metz_574800108_militaire_saint_andre_jerusalem","properties":{"zoneId":"montigny_les_metz_574800108_militaire_saint_andre_jerusalem","label":"Militaire Saint-André Jérusalem","districtCode":"574800108","arrondissementCode":"57480","colorIndex":7,"parentZoneId":"montigny_les_metz_parent_57480_montigny_les_metz","parentCode":"57480","parentLabel":"Montigny-lès-Metz","territoryType":"iris","source":"IGN / INSEE - Contours IRIS WFS Géoplateforme","sourceYear":"2026","officialId":"574800108","sourceCleabs":"IRIS____0000000574800108","communeCode":"57480","communeName":"Montigny-lès-Metz","irisCode":"0108","irisType":"H","officialAreaM2":973946.5966796875,"labelLng":6.161402159073656,"labelLat":49.09312277219492,"bbox":[6.15202585,49.08703473,6.17134042,49.09832917]},"geometry":{"type":"MultiPolygon","coordinates":[[[[6.16090393,49.09832917],[6.16301211,49.09771041],[6.17108409,49.09579699],[6.17134042,49.09427579],[6.17101828,49.09427349],[6.16992736,49.09409081],[6.16987999,49.09286826],[6.16974955,49.09181079],[6.16820916,49.09180551],[6.16727343,49.09189677],[6.1657342,49.0891514],[6.16561831,49.08911576],[6.16346107,49.08910419],[6.16309464,49.08916152],[6.16005474,49.09022324],[6.15902113,49.08888805],[6.1587558,49.08871596],[6.15871536,49.08852445],[6.15824562,49.0879654],[6.15783508,49.08752356],[6.15722715,49.08703473],[6.15322846,49.08909149],[6.1542621,49.09029444],[6.15574566,49.09209027],[6.15437859,49.09261387],[6.15274925,49.093399],[6.15202585,49.09394078],[6.15389482,49.09538188],[6.15429532,49.09579339],[6.15434067,49.09602076],[6.15507013,49.09611859],[6.15932084,49.09641275],[6.16090393,49.09832917]]]]}},{"type":"Feature","id":"montigny_les_metz_574800109_blory_vacons_horgne","properties":{"zoneId":"montigny_les_metz_574800109_blory_vacons_horgne","label":"Blory Vacons Horgne","districtCode":"574800109","arrondissementCode":"57480","colorIndex":0,"parentZoneId":"montigny_les_metz_parent_57480_montigny_les_metz","parentCode":"57480","parentLabel":"Montigny-lès-Metz","territoryType":"iris","source":"IGN / INSEE - Contours IRIS WFS Géoplateforme","sourceYear":"2026","officialId":"574800109","sourceCleabs":"IRIS____0000000574800109","communeCode":"57480","communeName":"Montigny-lès-Metz","irisCode":"0109","irisType":"H","officialAreaM2":1792487.5554199219,"labelLng":6.16800488229395,"labelLat":49.0854979509425,"bbox":[6.15348598,49.07898321,6.18203671,49.09427579]},"geometry":{"type":"MultiPolygon","coordinates":[[[[6.17134042,49.09427579],[6.17210498,49.09367071],[6.17326318,49.09255761],[6.17421965,49.091664],[6.17506893,49.09101167],[6.17552158,49.09046069],[6.17608007,49.09013908],[6.17662861,49.0894317],[6.17755786,49.08738066],[6.17746268,49.08703493],[6.1772546,49.08701524],[6.17732565,49.08529103],[6.17745827,49.08475031],[6.17796679,49.0838829],[6.17877668,49.08299311],[6.17938973,49.08255755],[6.17976918,49.08242333],[6.18092847,49.08231706],[6.1812421,49.08204779],[6.1818429,49.08123461],[6.18203671,49.08028552],[6.18161642,49.07999969],[6.18100062,49.07983153],[6.18003549,49.0797077],[6.17666705,49.07977522],[6.175992,49.07984706],[6.17560352,49.07996801],[6.17487118,49.07955183],[6.1740466,49.08020172],[6.17346207,49.0812826],[6.17294361,49.08165263],[6.17246304,49.0817913],[6.17052375,49.0818218],[6.16797069,49.08164978],[6.16655891,49.08172659],[6.16476932,49.08153889],[6.16202206,49.07952986],[6.15933674,49.07898321],[6.15897981,49.0795325],[6.15707135,49.08168742],[6.15717874,49.08187627],[6.15554456,49.08345344],[6.15457861,49.08322595],[6.15348598,49.08361817],[6.15383326,49.08385472],[6.15433077,49.08446615],[6.15447783,49.08454147],[6.15464655,49.08483759],[6.15543602,49.08558623],[6.15615619,49.08620891],[6.15722715,49.08703473],[6.15783508,49.08752356],[6.15824562,49.0879654],[6.15871536,49.08852445],[6.1587558,49.08871596],[6.15902113,49.08888805],[6.16005474,49.09022324],[6.16309464,49.08916152],[6.16346107,49.08910419],[6.16561831,49.08911576],[6.1657342,49.0891514],[6.16727343,49.09189677],[6.16820916,49.09180551],[6.16974955,49.09181079],[6.16987999,49.09286826],[6.16992736,49.09409081],[6.17101828,49.09427349],[6.17134042,49.09427579]]]]}}]}
