{"type":"FeatureCollection","metadata":{"generatedAt":"2026-07-14T18:44:50.929Z","source":"IGN / INSEE - Contours IRIS WFS Géoplateforme","datasetId":"STATISTICALUNITS.IRIS:contours_iris","datasetUrl":"https://geoservices.ign.fr/contoursiris","sourceFileUrl":"https://data.geopf.fr/wfs/ows?SERVICE=WFS&VERSION=2.0.0&REQUEST=GetFeature&TYPENAMES=STATISTICALUNITS.IRIS%3Acontours_iris&OUTPUTFORMAT=application%2Fjson&COUNT=1000&CQL_FILTER=code_insee%3D%2706084%27&SRSNAME=EPSG%3A4326","license":"Licence Ouverte / Open Licence 2.0","sourceYear":"2026","communeCode":"06084","communeName":"Mouans-Sartoux","featureCount":4,"parentCount":1,"parentContract":"technical commune group; not selectable and not displayed as a district","bbox":[6.93265346,43.59680103,7.0028288,43.64154612],"areaStatsM2":{"minimum":1499297.78515625,"average":3136296.745788574,"maximum":5741019.729736328}},"features":[{"type":"Feature","id":"mouans_sartoux_060840101_les_aspres_plan_sarrain","properties":{"zoneId":"mouans_sartoux_060840101_les_aspres_plan_sarrain","label":"Les Aspres-Plan Sarrain","districtCode":"060840101","arrondissementCode":"06084","colorIndex":0,"parentZoneId":"mouans_sartoux_parent_06084_mouans_sartoux","parentCode":"06084","parentLabel":"Mouans-Sartoux","territoryType":"iris","source":"IGN / INSEE - Contours IRIS WFS Géoplateforme","sourceYear":"2026","officialId":"060840101","sourceCleabs":"IRIS____0000000060840101","communeCode":"06084","communeName":"Mouans-Sartoux","irisCode":"0101","irisType":"H","officialAreaM2":5741019.729736328,"labelLng":6.94803325412118,"labelLat":43.61247529784752,"bbox":[6.93265346,43.59680103,6.9671149,43.62702709]},"geometry":{"type":"MultiPolygon","coordinates":[[[[6.95458673,43.59978359],[6.95239732,43.59897144],[6.94832745,43.59769073],[6.94363265,43.59680103],[6.9438727,43.59791211],[6.94374959,43.59862739],[6.94270314,43.59983204],[6.94202309,43.59998376],[6.94093816,43.60064747],[6.93721045,43.60357096],[6.9341128,43.60565438],[6.93481645,43.60718201],[6.93502594,43.60828341],[6.93487183,43.60840431],[6.93542097,43.60972133],[6.93549357,43.61009256],[6.93592475,43.61057603],[6.93611874,43.6109816],[6.93631751,43.61214285],[6.9361174,43.6128582],[6.93520405,43.61477958],[6.93389987,43.61557817],[6.93318682,43.61610129],[6.93307778,43.61702415],[6.93265346,43.61788816],[6.93266038,43.61849511],[6.93351192,43.61966426],[6.93360433,43.62021586],[6.93382254,43.62052237],[6.93429626,43.6207935],[6.93459606,43.62109615],[6.93471572,43.62152064],[6.93552171,43.62222386],[6.93745544,43.62365557],[6.93844402,43.62492152],[6.9395883,43.62588993],[6.93995267,43.62612086],[6.94054449,43.62634083],[6.94214846,43.62679704],[6.94450135,43.62698008],[6.94804115,43.62676679],[6.94993919,43.62641399],[6.95055948,43.62643467],[6.95281976,43.62680289],[6.95651004,43.62702709],[6.95763744,43.62648871],[6.95842944,43.6262121],[6.96095727,43.62564155],[6.96210505,43.6252195],[6.96197621,43.6252215],[6.96155043,43.6251082],[6.96049279,43.62471704],[6.95876495,43.62392327],[6.95785706,43.62363473],[6.95671768,43.62308255],[6.95573764,43.62284437],[6.95504095,43.62259677],[6.95363832,43.62169738],[6.95316757,43.621201],[6.95279763,43.62067393],[6.95267849,43.62056475],[6.95234293,43.62037426],[6.9521554,43.62033423],[6.95115406,43.62037968],[6.95076304,43.62033805],[6.9503529,43.62016288],[6.94978919,43.62000861],[6.94939947,43.61994981],[6.94902212,43.61980047],[6.94842563,43.61953026],[6.9482655,43.61940185],[6.94819387,43.61922607],[6.94834952,43.61883933],[6.94845607,43.61871204],[6.94854266,43.61867285],[6.94966426,43.61855549],[6.94986711,43.61851208],[6.95006298,43.61842117],[6.95046378,43.6181192],[6.95109195,43.6174459],[6.95135786,43.61722],[6.95158009,43.6172957],[6.95201221,43.61734034],[6.95286943,43.61752535],[6.9530805,43.61743929],[6.95379419,43.61734124],[6.95390681,43.61735606],[6.95407536,43.6174265],[6.95420464,43.61755693],[6.95437958,43.617792],[6.95433334,43.6179126],[6.95446526,43.61793753],[6.95523786,43.61765083],[6.95580264,43.61728161],[6.95599259,43.6170873],[6.95611262,43.61704779],[6.95631867,43.61660155],[6.95619573,43.61602404],[6.95624265,43.61594936],[6.9563223,43.61591763],[6.95697605,43.61611903],[6.95743815,43.616113],[6.95823359,43.61579843],[6.95836057,43.61560821],[6.95838799,43.61541262],[6.95848463,43.61532171],[6.95848548,43.61526222],[6.95945073,43.6150009],[6.9605053,43.61477595],[6.96078288,43.61489916],[6.96118737,43.61499252],[6.96253963,43.6151639],[6.96273432,43.61516401],[6.96363268,43.61502942],[6.96352441,43.61414507],[6.96356494,43.61401386],[6.96372204,43.61406218],[6.96511998,43.61419493],[6.96593642,43.61432818],[6.96625686,43.61426422],[6.96706106,43.61393394],[6.9671149,43.6138518],[6.96630315,43.61351748],[6.96615285,43.61328063],[6.96618557,43.6131443],[6.96596818,43.61276214],[6.96526155,43.61197533],[6.96504407,43.61166345],[6.96491997,43.61117789],[6.96489402,43.61089235],[6.96499226,43.6108248],[6.96628121,43.61024348],[6.96239265,43.60634671],[6.96069411,43.60451589],[6.95490147,43.59996132],[6.95458673,43.59978359]]]]}},{"type":"Feature","id":"mouans_sartoux_060840102_grand_piece_les_plaines","properties":{"zoneId":"mouans_sartoux_060840102_grand_piece_les_plaines","label":"Grand-Pièce-Les Plaines","districtCode":"060840102","arrondissementCode":"06084","colorIndex":1,"parentZoneId":"mouans_sartoux_parent_06084_mouans_sartoux","parentCode":"06084","parentLabel":"Mouans-Sartoux","territoryType":"iris","source":"IGN / INSEE - Contours IRIS WFS Géoplateforme","sourceYear":"2026","officialId":"060840102","sourceCleabs":"IRIS____0000000060840102","communeCode":"06084","communeName":"Mouans-Sartoux","irisCode":"0102","irisType":"H","officialAreaM2":1499297.78515625,"labelLng":6.962265738468995,"labelLat":43.618913123615656,"bbox":[6.94819387,43.61024348,6.97230157,43.6252215]},"geometry":{"type":"MultiPolygon","coordinates":[[[[6.96210505,43.6252195],[6.96284301,43.6249151],[6.96360106,43.62441716],[6.96516221,43.6244854],[6.96580432,43.62415835],[6.96722187,43.62317323],[6.9696635,43.62188039],[6.96963254,43.62180944],[6.96969036,43.62176679],[6.96978122,43.62177158],[6.9707542,43.62040355],[6.97157535,43.61929693],[6.97170608,43.61925071],[6.97168131,43.61917954],[6.97193993,43.61886738],[6.97230157,43.61825234],[6.9704864,43.61571418],[6.97008299,43.61529649],[6.96995293,43.61501205],[6.97008666,43.61479455],[6.9701385,43.61441517],[6.97001556,43.6138575],[6.96946112,43.61337146],[6.96916144,43.61294727],[6.96628121,43.61024348],[6.96499226,43.6108248],[6.96489402,43.61089235],[6.96491997,43.61117789],[6.96504407,43.61166345],[6.96526155,43.61197533],[6.96596818,43.61276214],[6.96618557,43.6131443],[6.96615285,43.61328063],[6.96630315,43.61351748],[6.9671149,43.6138518],[6.96706106,43.61393394],[6.96625686,43.61426422],[6.96593642,43.61432818],[6.96511998,43.61419493],[6.96372204,43.61406218],[6.96356494,43.61401386],[6.96352441,43.61414507],[6.96363268,43.61502942],[6.96273432,43.61516401],[6.96253963,43.6151639],[6.96118737,43.61499252],[6.96078288,43.61489916],[6.9605053,43.61477595],[6.95945073,43.6150009],[6.95848548,43.61526222],[6.95848463,43.61532171],[6.95838799,43.61541262],[6.95836057,43.61560821],[6.95823359,43.61579843],[6.95743815,43.616113],[6.95697605,43.61611903],[6.9563223,43.61591763],[6.95624265,43.61594936],[6.95619573,43.61602404],[6.95631867,43.61660155],[6.95611262,43.61704779],[6.95599259,43.6170873],[6.95580264,43.61728161],[6.95523786,43.61765083],[6.95446526,43.61793753],[6.95433334,43.6179126],[6.95437958,43.617792],[6.95420464,43.61755693],[6.95407536,43.6174265],[6.95390681,43.61735606],[6.95379419,43.61734124],[6.9530805,43.61743929],[6.95286943,43.61752535],[6.95201221,43.61734034],[6.95158009,43.6172957],[6.95135786,43.61722],[6.95109195,43.6174459],[6.95046378,43.6181192],[6.95006298,43.61842117],[6.94986711,43.61851208],[6.94966426,43.61855549],[6.94854266,43.61867285],[6.94845607,43.61871204],[6.94834952,43.61883933],[6.94819387,43.61922607],[6.9482655,43.61940185],[6.94842563,43.61953026],[6.94902212,43.61980047],[6.94939947,43.61994981],[6.94978919,43.62000861],[6.9503529,43.62016288],[6.95076304,43.62033805],[6.95115406,43.62037968],[6.9521554,43.62033423],[6.95234293,43.62037426],[6.95267849,43.62056475],[6.95279763,43.62067393],[6.95316757,43.621201],[6.95363832,43.62169738],[6.95504095,43.62259677],[6.95573764,43.62284437],[6.95671768,43.62308255],[6.95785706,43.62363473],[6.95876495,43.62392327],[6.96049279,43.62471704],[6.96155043,43.6251082],[6.96197621,43.6252215],[6.96210505,43.6252195]]]]}},{"type":"Feature","id":"mouans_sartoux_060840103_les_indes_les_groulles","properties":{"zoneId":"mouans_sartoux_060840103_les_indes_les_groulles","label":"Les Indes-les Groulles","districtCode":"060840103","arrondissementCode":"06084","colorIndex":2,"parentZoneId":"mouans_sartoux_parent_06084_mouans_sartoux","parentCode":"06084","parentLabel":"Mouans-Sartoux","territoryType":"iris","source":"IGN / INSEE - Contours IRIS WFS Géoplateforme","sourceYear":"2026","officialId":"060840103","sourceCleabs":"IRIS____0000000060840103","communeCode":"06084","communeName":"Mouans-Sartoux","irisCode":"0103","irisType":"H","officialAreaM2":3670644.194580078,"labelLng":6.9858296535759505,"labelLat":43.623764916283115,"bbox":[6.9707542,43.6123621,7.0028288,43.64154612]},"geometry":{"type":"MultiPolygon","coordinates":[[[[6.97826837,43.63716774],[6.97887689,43.63789232],[6.97939965,43.6388642],[6.97929556,43.63965182],[6.9791563,43.63996864],[6.98032443,43.64008712],[6.98106921,43.63996883],[6.98139795,43.63998652],[6.98203059,43.64020027],[6.98280758,43.64031324],[6.98367044,43.64087622],[6.98409931,43.64101365],[6.98475583,43.64110669],[6.98745118,43.64113663],[6.98810488,43.64133156],[6.98832203,43.64154612],[6.98865941,43.64129589],[6.98933123,43.64114509],[6.98987064,43.64083878],[6.99031052,43.6404217],[6.98941191,43.63995198],[6.98882231,43.63861052],[6.98876468,43.63769368],[6.98798044,43.63564041],[6.98944592,43.63301083],[6.99011628,43.63145101],[6.99060016,43.63075844],[6.99051047,43.63068155],[6.99077039,43.63028189],[6.99060809,43.63007073],[6.99142146,43.62905162],[6.99182224,43.62798551],[6.99233671,43.62753685],[6.99552108,43.62608637],[6.99727408,43.62541824],[6.99889225,43.6246136],[6.99883224,43.62361127],[6.99863209,43.62289339],[6.99780435,43.62158778],[6.99764717,43.62116562],[6.99805772,43.61961983],[6.99829305,43.61934899],[6.99857412,43.61918278],[6.99968322,43.61902932],[7.00195621,43.61835277],[7.00243453,43.6180991],[7.0028288,43.61760076],[7.00048068,43.61799992],[6.99976495,43.61796141],[6.9994073,43.61777638],[6.99846754,43.61671275],[6.99812596,43.61650911],[6.99785857,43.61614236],[6.99681506,43.6141591],[6.99514406,43.61443321],[6.99422196,43.6146356],[6.99397464,43.61476993],[6.99152277,43.61512045],[6.990784,43.61530256],[6.99066378,43.6152322],[6.98978491,43.61521855],[6.98854041,43.61504715],[6.9857717,43.61431906],[6.98423874,43.6138681],[6.98334953,43.61317008],[6.98263262,43.6130243],[6.97907015,43.6123621],[6.97670237,43.61256596],[6.9762974,43.61294836],[6.97621745,43.61319003],[6.97407809,43.61609902],[6.97230157,43.61825234],[6.97193993,43.61886738],[6.97168131,43.61917954],[6.97170608,43.61925071],[6.97157535,43.61929693],[6.9707542,43.62040355],[6.97251741,43.62091926],[6.97301486,43.62102899],[6.9736076,43.62108208],[6.97392109,43.62114989],[6.97395931,43.6212539],[6.9730303,43.6228618],[6.97295863,43.62302658],[6.97296024,43.62315716],[6.97310381,43.62329605],[6.97367858,43.62362638],[6.97393383,43.62383777],[6.97538564,43.62520809],[6.97554251,43.6254492],[6.97567195,43.62540212],[6.9758064,43.62524854],[6.976049,43.6246874],[6.97630846,43.62476259],[6.97777344,43.62490985],[6.97808043,43.62459769],[6.97814987,43.62456182],[6.97835956,43.62458116],[6.97837005,43.62453573],[6.97942792,43.62469608],[6.97969026,43.62483062],[6.98032938,43.62489008],[6.9805259,43.6250054],[6.98141791,43.62531326],[6.9827277,43.62570759],[6.98261344,43.62606224],[6.98273165,43.62681738],[6.98252178,43.62720617],[6.98234514,43.62743067],[6.98189165,43.62788335],[6.98211582,43.62807513],[6.98211616,43.62811566],[6.98179648,43.62860217],[6.98235316,43.62872411],[6.98231306,43.62916433],[6.9825368,43.62943902],[6.9830414,43.62947187],[6.98278154,43.62930211],[6.98271503,43.62918383],[6.98306999,43.62920505],[6.98395019,43.62912772],[6.98521226,43.62924449],[6.98487502,43.63015599],[6.98446189,43.63181354],[6.98421231,43.63248758],[6.98420908,43.63327962],[6.98401754,43.6335398],[6.98397261,43.6337856],[6.98388324,43.63390961],[6.98259032,43.63472461],[6.98164136,43.63509905],[6.98008791,43.63618214],[6.97912564,43.63650839],[6.97856519,43.63681541],[6.9783629,43.63695706],[6.97833835,43.63708589],[6.97826837,43.63716774]]]]}},{"type":"Feature","id":"mouans_sartoux_060840104_les_plantiers_le_plan","properties":{"zoneId":"mouans_sartoux_060840104_les_plantiers_le_plan","label":"Les Plantiers-Le Plan","districtCode":"060840104","arrondissementCode":"06084","colorIndex":3,"parentZoneId":"mouans_sartoux_parent_06084_mouans_sartoux","parentCode":"06084","parentLabel":"Mouans-Sartoux","territoryType":"iris","source":"IGN / INSEE - Contours IRIS WFS Géoplateforme","sourceYear":"2026","officialId":"060840104","sourceCleabs":"IRIS____0000000060840104","communeCode":"06084","communeName":"Mouans-Sartoux","irisCode":"0104","irisType":"H","officialAreaM2":1634225.2736816406,"labelLng":6.974897278378369,"labelLat":43.628937384515524,"bbox":[6.96548987,43.62040355,6.98521226,43.63716774]},"geometry":{"type":"MultiPolygon","coordinates":[[[[6.96580432,43.62415835],[6.96597797,43.62423039],[6.96606573,43.62436953],[6.96619621,43.62492873],[6.96671305,43.62587384],[6.9665122,43.62650191],[6.96651294,43.62699648],[6.96603929,43.62730297],[6.96586953,43.62757404],[6.96607231,43.62808466],[6.96582255,43.62849019],[6.96580559,43.62896199],[6.96561271,43.62929336],[6.96572448,43.62977938],[6.96548987,43.63002759],[6.96559051,43.63051401],[6.96574411,43.63069039],[6.96565779,43.63078724],[6.96572401,43.63138573],[6.96608575,43.63164821],[6.96645183,43.63175827],[6.96665913,43.63226242],[6.96683778,43.63240635],[6.96765407,43.63226482],[6.96818067,43.63234649],[6.96870339,43.6321391],[6.96959023,43.63238958],[6.9699138,43.63231559],[6.97012945,43.63245636],[6.97033972,43.63244777],[6.97042285,43.63255555],[6.97071566,43.63246737],[6.9716566,43.63247801],[6.97184696,43.63262961],[6.97280899,43.63289084],[6.97346058,43.63323638],[6.97377208,43.63375743],[6.97514668,43.63419003],[6.97620739,43.63472871],[6.97660653,43.6348141],[6.97688656,43.63497052],[6.9767932,43.63541269],[6.97696663,43.63599915],[6.97826837,43.63716774],[6.97833835,43.63708589],[6.9783629,43.63695706],[6.97856519,43.63681541],[6.97912564,43.63650839],[6.98008791,43.63618214],[6.98164136,43.63509905],[6.98259032,43.63472461],[6.98388324,43.63390961],[6.98397261,43.6337856],[6.98401754,43.6335398],[6.98420908,43.63327962],[6.98421231,43.63248758],[6.98446189,43.63181354],[6.98487502,43.63015599],[6.98521226,43.62924449],[6.98395019,43.62912772],[6.98306999,43.62920505],[6.98271503,43.62918383],[6.98278154,43.62930211],[6.9830414,43.62947187],[6.9825368,43.62943902],[6.98231306,43.62916433],[6.98235316,43.62872411],[6.98179648,43.62860217],[6.98211616,43.62811566],[6.98211582,43.62807513],[6.98189165,43.62788335],[6.98234514,43.62743067],[6.98252178,43.62720617],[6.98273165,43.62681738],[6.98261344,43.62606224],[6.9827277,43.62570759],[6.98141791,43.62531326],[6.9805259,43.6250054],[6.98032938,43.62489008],[6.97969026,43.62483062],[6.97942792,43.62469608],[6.97837005,43.62453573],[6.97835956,43.62458116],[6.97814987,43.62456182],[6.97808043,43.62459769],[6.97777344,43.62490985],[6.97630846,43.62476259],[6.976049,43.6246874],[6.9758064,43.62524854],[6.97567195,43.62540212],[6.97554251,43.6254492],[6.97538564,43.62520809],[6.97393383,43.62383777],[6.97367858,43.62362638],[6.97310381,43.62329605],[6.97296024,43.62315716],[6.97295863,43.62302658],[6.9730303,43.6228618],[6.97395931,43.6212539],[6.97392109,43.62114989],[6.9736076,43.62108208],[6.97301486,43.62102899],[6.97251741,43.62091926],[6.9707542,43.62040355],[6.96978122,43.62177158],[6.96969036,43.62176679],[6.96963254,43.62180944],[6.9696635,43.62188039],[6.96722187,43.62317323],[6.96580432,43.62415835]]]]}}]}
