{"type":"FeatureCollection","metadata":{"generatedAt":"2026-07-14T16:00:49.150Z","source":"IGN / INSEE - Contours IRIS WFS Géoplateforme","datasetId":"STATISTICALUNITS.IRIS:contours_iris","datasetUrl":"https://geoservices.ign.fr/contoursiris","sourceFileUrl":"https://data.geopf.fr/wfs/ows?SERVICE=WFS&VERSION=2.0.0&REQUEST=GetFeature&TYPENAMES=STATISTICALUNITS.IRIS%3Acontours_iris&OUTPUTFORMAT=application%2Fjson&COUNT=1000&CQL_FILTER=code_insee%3D%2758194%27&SRSNAME=EPSG%3A4326","license":"Licence Ouverte / Open Licence 2.0","sourceYear":"2026","communeCode":"58194","communeName":"Nevers","featureCount":19,"parentCount":1,"parentContract":"technical commune group; not selectable and not displayed as a district","bbox":[3.11720324,46.96329397,3.20232721,47.0071156],"areaStatsM2":{"minimum":203455.49157714844,"average":909495.2886256168,"maximum":2366882.2053222656}},"features":[{"type":"Feature","id":"nevers_581940101_republique_manutention","properties":{"zoneId":"nevers_581940101_republique_manutention","label":"République-Manutention","districtCode":"581940101","arrondissementCode":"58194","colorIndex":0,"parentZoneId":"nevers_parent_58194_nevers","parentCode":"58194","parentLabel":"Nevers","territoryType":"iris","source":"IGN / INSEE - Contours IRIS WFS Géoplateforme","sourceYear":"2026","officialId":"581940101","sourceCleabs":"IRIS____0000000581940101","communeCode":"58194","communeName":"Nevers","irisCode":"0101","irisType":"H","officialAreaM2":987002.7735595703,"labelLng":3.170785583825517,"labelLat":46.99489614231719,"bbox":[3.16175165,46.98628908,3.17817258,47.00579473]},"geometry":{"type":"MultiPolygon","coordinates":[[[[3.16875869,47.0049369],[3.17011308,47.00579473],[3.17048662,47.00571495],[3.17122987,47.00476309],[3.17342251,47.0031077],[3.17408069,47.00233241],[3.17467001,47.00183723],[3.17488611,47.00151278],[3.17597544,47.00099343],[3.17596308,47.00043164],[3.17610628,47.00035489],[3.17486619,46.99942402],[3.17341401,46.99881938],[3.17430313,46.99744322],[3.17496473,46.99652927],[3.17542753,46.99599647],[3.17633248,46.99506504],[3.17693212,46.99453742],[3.17817258,46.99360996],[3.17798377,46.99341667],[3.1779473,46.99312952],[3.177719,46.99293],[3.17755558,46.99285192],[3.17728568,46.99280551],[3.17612907,46.99281539],[3.17532807,46.99292195],[3.17504373,46.99288637],[3.17479589,46.99274539],[3.17476455,46.99241321],[3.17453024,46.9919769],[3.17418746,46.99177034],[3.17377399,46.99167732],[3.17366092,46.9917054],[3.17359477,46.99159386],[3.17306312,46.99157575],[3.1728404,46.99146805],[3.172732,46.99131155],[3.17266389,46.99099833],[3.17317292,46.99052849],[3.17326025,46.99026996],[3.1732656,46.9898864],[3.17267787,46.98878436],[3.17247885,46.98826516],[3.17227656,46.98795665],[3.17213037,46.98791185],[3.17148826,46.9879029],[3.1706472,46.98780331],[3.1685767,46.98752904],[3.16849101,46.98747695],[3.16840803,46.98744736],[3.16830421,46.98748713],[3.16820943,46.98747196],[3.16760358,46.98727206],[3.16707299,46.98715489],[3.16601623,46.98707628],[3.16352778,46.98736524],[3.16340456,46.98708271],[3.16357475,46.98636759],[3.1632275,46.986396],[3.16243381,46.98628908],[3.16175165,46.98695809],[3.16184013,46.98706691],[3.16248993,46.98745044],[3.16372151,46.98833914],[3.16386118,46.98840647],[3.16402967,46.98843144],[3.16422477,46.98855451],[3.16437429,46.9888289],[3.16605838,46.99008877],[3.16689394,46.9909519],[3.16727987,46.99150595],[3.16747313,46.99187751],[3.16791765,46.99307342],[3.16848595,46.9938694],[3.16863028,46.9941591],[3.16868134,46.99449485],[3.16864849,46.99493247],[3.16873032,46.99500978],[3.16874906,46.99511149],[3.16863367,46.99524491],[3.168489,46.99526943],[3.16593067,46.99777608],[3.16542922,46.99818286],[3.16673837,46.99895617],[3.16889406,46.99982186],[3.17152764,47.00113608],[3.17162396,47.00121427],[3.17155713,47.0013035],[3.17160337,47.00135925],[3.17157467,47.00144123],[3.17059154,47.00268155],[3.17082603,47.00275233],[3.17037406,47.00341295],[3.16963434,47.00422885],[3.16875869,47.0049369]]]]}},{"type":"Feature","id":"nevers_581940102_saint_genest_la_butte","properties":{"zoneId":"nevers_581940102_saint_genest_la_butte","label":"Saint-Genest-La Butte","districtCode":"581940102","arrondissementCode":"58194","colorIndex":1,"parentZoneId":"nevers_parent_58194_nevers","parentCode":"58194","parentLabel":"Nevers","territoryType":"iris","source":"IGN / INSEE - Contours IRIS WFS Géoplateforme","sourceYear":"2026","officialId":"581940102","sourceCleabs":"IRIS____0000000581940102","communeCode":"58194","communeName":"Nevers","irisCode":"0102","irisType":"H","officialAreaM2":726385.0495605469,"labelLng":3.156203591948664,"labelLat":46.98328862192559,"bbox":[3.1508402,46.97629185,3.16182226,46.98912937]},"geometry":{"type":"MultiPolygon","coordinates":[[[[3.15955572,46.97848709],[3.15929156,46.97768255],[3.15834854,46.97774237],[3.15827842,46.97715634],[3.1571951,46.97692103],[3.15707488,46.97629185],[3.15448286,46.97654654],[3.15417508,46.97748242],[3.1508402,46.98638404],[3.15147346,46.98653087],[3.15132177,46.9868651],[3.15119538,46.98683465],[3.15111784,46.98686717],[3.15093494,46.98733108],[3.15644269,46.98874719],[3.15700102,46.98890309],[3.15724345,46.98901621],[3.15744528,46.98874313],[3.15747774,46.98859633],[3.15876348,46.98912937],[3.15915029,46.98867596],[3.16035493,46.98892009],[3.1610759,46.98889748],[3.16146638,46.98879879],[3.16182226,46.98856691],[3.16180005,46.98774312],[3.16148014,46.98723938],[3.16147723,46.98714575],[3.16156782,46.98708169],[3.16152818,46.98702323],[3.16038302,46.98641529],[3.15802791,46.98505902],[3.15805263,46.98496355],[3.15794024,46.98477373],[3.16019082,46.98194174],[3.16033362,46.98173987],[3.16037529,46.98159395],[3.16040076,46.98130941],[3.15988302,46.97973272],[3.15955572,46.97848709]]]]}},{"type":"Feature","id":"nevers_581940103_colbert_chaussade","properties":{"zoneId":"nevers_581940103_colbert_chaussade","label":"Colbert-Chaussade","districtCode":"581940103","arrondissementCode":"58194","colorIndex":2,"parentZoneId":"nevers_parent_58194_nevers","parentCode":"58194","parentLabel":"Nevers","territoryType":"iris","source":"IGN / INSEE - Contours IRIS WFS Géoplateforme","sourceYear":"2026","officialId":"581940103","sourceCleabs":"IRIS____0000000581940103","communeCode":"58194","communeName":"Nevers","irisCode":"0103","irisType":"H","officialAreaM2":640676.6696777344,"labelLng":3.1587012493566577,"labelLat":46.99324877401329,"bbox":[3.14892103,46.98733108,3.168489,46.99946161]},"geometry":{"type":"MultiPolygon","coordinates":[[[[3.168489,46.99526943],[3.16827565,46.99521302],[3.16820435,46.99513569],[3.16821318,46.99501593],[3.16808133,46.99493149],[3.16703522,46.99451615],[3.16529639,46.99391002],[3.16283529,46.99334],[3.16237669,46.99311286],[3.16213139,46.99293044],[3.1617721,46.99246997],[3.16171641,46.99232599],[3.1614155,46.9920275],[3.16126132,46.99194938],[3.16076667,46.99242636],[3.16056031,46.99250317],[3.16057673,46.99227176],[3.16052117,46.9921719],[3.15932948,46.9909887],[3.1584092,46.99035973],[3.1574717,46.98923108],[3.15724345,46.98901621],[3.15700102,46.98890309],[3.15644269,46.98874719],[3.15093494,46.98733108],[3.15073902,46.98784634],[3.15091409,46.98787312],[3.15043474,46.98913783],[3.1503206,46.98925862],[3.15043546,46.98939712],[3.1504225,46.98947007],[3.14933238,46.991608],[3.14921691,46.99172429],[3.14892103,46.99226758],[3.14892672,46.99242424],[3.14900451,46.99247816],[3.14919137,46.99248242],[3.1492833,46.99241747],[3.14946862,46.99186532],[3.14966125,46.99157786],[3.14965573,46.99148694],[3.14976205,46.99139316],[3.14999998,46.99130912],[3.15053959,46.99135163],[3.15235227,46.99163827],[3.15271419,46.9916621],[3.1572163,46.99144267],[3.15683081,46.99508688],[3.1568234,46.99661387],[3.15687506,46.99718282],[3.1559905,46.99937815],[3.15618814,46.99946161],[3.15760632,46.99839458],[3.15857761,46.99752892],[3.15892177,46.99731777],[3.15950675,46.99710448],[3.16049975,46.99692214],[3.16193682,46.99693994],[3.16307487,46.9968564],[3.16421798,46.99671073],[3.16423657,46.99676472],[3.16446711,46.99771155],[3.16542922,46.99818286],[3.16593067,46.99777608],[3.168489,46.99526943]]]]}},{"type":"Feature","id":"nevers_581940104_saint_martin_saint_etienne","properties":{"zoneId":"nevers_581940104_saint_martin_saint_etienne","label":"Saint-Martin-Saint-Étienne","districtCode":"581940104","arrondissementCode":"58194","colorIndex":3,"parentZoneId":"nevers_parent_58194_nevers","parentCode":"58194","parentLabel":"Nevers","territoryType":"iris","source":"IGN / INSEE - Contours IRIS WFS Géoplateforme","sourceYear":"2026","officialId":"581940104","sourceCleabs":"IRIS____0000000581940104","communeCode":"58194","communeName":"Nevers","irisCode":"0104","irisType":"H","officialAreaM2":327991.33532714844,"labelLng":3.163434931120386,"labelLat":46.991127714034235,"bbox":[3.15724345,46.98693848,3.16874906,46.99526943]},"geometry":{"type":"MultiPolygon","coordinates":[[[[3.15724345,46.98901621],[3.1574717,46.98923108],[3.1584092,46.99035973],[3.15932948,46.9909887],[3.16052117,46.9921719],[3.16057673,46.99227176],[3.16056031,46.99250317],[3.16076667,46.99242636],[3.16126132,46.99194938],[3.1614155,46.9920275],[3.16171641,46.99232599],[3.1617721,46.99246997],[3.16213139,46.99293044],[3.16237669,46.99311286],[3.16283529,46.99334],[3.16529639,46.99391002],[3.16703522,46.99451615],[3.16808133,46.99493149],[3.16821318,46.99501593],[3.16820435,46.99513569],[3.16827565,46.99521302],[3.168489,46.99526943],[3.16863367,46.99524491],[3.16874906,46.99511149],[3.16873032,46.99500978],[3.16864849,46.99493247],[3.16868134,46.99449485],[3.16863028,46.9941591],[3.16848595,46.9938694],[3.16791765,46.99307342],[3.16747313,46.99187751],[3.16727987,46.99150595],[3.16689394,46.9909519],[3.16605838,46.99008877],[3.16437429,46.9888289],[3.16422477,46.98855451],[3.16402967,46.98843144],[3.16386118,46.98840647],[3.16372151,46.98833914],[3.16248993,46.98745044],[3.16184013,46.98706691],[3.16175165,46.98695809],[3.1616095,46.98693848],[3.16152818,46.98702323],[3.16156782,46.98708169],[3.16147723,46.98714575],[3.16148014,46.98723938],[3.16180005,46.98774312],[3.16182226,46.98856691],[3.16146638,46.98879879],[3.1610759,46.98889748],[3.16035493,46.98892009],[3.15915029,46.98867596],[3.15876348,46.98912937],[3.15747774,46.98859633],[3.15744528,46.98874313],[3.15724345,46.98901621]]]]}},{"type":"Feature","id":"nevers_581940105_victor_hugo","properties":{"zoneId":"nevers_581940105_victor_hugo","label":"Victor Hugo","districtCode":"581940105","arrondissementCode":"58194","colorIndex":4,"parentZoneId":"nevers_parent_58194_nevers","parentCode":"58194","parentLabel":"Nevers","territoryType":"iris","source":"IGN / INSEE - Contours IRIS WFS Géoplateforme","sourceYear":"2026","officialId":"581940105","sourceCleabs":"IRIS____0000000581940105","communeCode":"58194","communeName":"Nevers","irisCode":"0105","irisType":"H","officialAreaM2":712017.6641845703,"labelLng":3.1514680914951745,"labelLat":46.9960069582469,"bbox":[3.14370412,46.99130912,3.1572163,47.00082294]},"geometry":{"type":"MultiPolygon","coordinates":[[[[3.15556394,46.99977488],[3.15564678,46.99975226],[3.1559905,46.99937815],[3.15687506,46.99718282],[3.1568234,46.99661387],[3.15683081,46.99508688],[3.1572163,46.99144267],[3.15271419,46.9916621],[3.15235227,46.99163827],[3.15053959,46.99135163],[3.14999998,46.99130912],[3.14976205,46.99139316],[3.14965573,46.99148694],[3.14966125,46.99157786],[3.14946862,46.99186532],[3.1492833,46.99241747],[3.14919137,46.99248242],[3.14900451,46.99247816],[3.14859148,46.99253271],[3.14823223,46.99252237],[3.1478949,46.9933133],[3.14710299,46.9948503],[3.1468227,46.99533054],[3.14602964,46.99646777],[3.14576946,46.99709564],[3.14394863,47.00022661],[3.14370412,47.00082294],[3.14436675,47.00057812],[3.14641744,47.0002046],[3.14809435,46.99982612],[3.15029846,46.99927226],[3.15112619,46.99972855],[3.15159775,46.99988189],[3.15203753,46.99996324],[3.15243507,46.99999693],[3.15260464,46.99992738],[3.15357702,46.99987117],[3.15431213,46.99968112],[3.15556394,46.99977488]]]]}},{"type":"Feature","id":"nevers_581940106_faidherbe_maupas","properties":{"zoneId":"nevers_581940106_faidherbe_maupas","label":"Faidherbe-Maupas","districtCode":"581940106","arrondissementCode":"58194","colorIndex":5,"parentZoneId":"nevers_parent_58194_nevers","parentCode":"58194","parentLabel":"Nevers","territoryType":"iris","source":"IGN / INSEE - Contours IRIS WFS Géoplateforme","sourceYear":"2026","officialId":"581940106","sourceCleabs":"IRIS____0000000581940106","communeCode":"58194","communeName":"Nevers","irisCode":"0106","irisType":"H","officialAreaM2":517772.5108642578,"labelLng":3.149766293011679,"labelLat":47.00277671889938,"bbox":[3.14364267,46.99927226,3.15562566,47.00670907]},"geometry":{"type":"MultiPolygon","coordinates":[[[[3.14422155,47.00287777],[3.14477569,47.00388456],[3.14578369,47.00480524],[3.14644038,47.00526718],[3.14737481,47.00573507],[3.14882141,47.00626171],[3.15071109,47.00660859],[3.15303708,47.00670907],[3.15349594,47.00560825],[3.15336294,47.00558502],[3.15340999,47.00546791],[3.15495228,47.00171053],[3.15526811,47.00124463],[3.15523627,47.00115554],[3.15562566,47.00018625],[3.15562244,46.99998097],[3.155517,46.9999289],[3.15547996,46.99986232],[3.15556394,46.99977488],[3.15431213,46.99968112],[3.15357702,46.99987117],[3.15260464,46.99992738],[3.15243507,46.99999693],[3.15203753,46.99996324],[3.15159775,46.99988189],[3.15112619,46.99972855],[3.15029846,46.99927226],[3.14809435,46.99982612],[3.14641744,47.0002046],[3.14436675,47.00057812],[3.14370412,47.00082294],[3.14364267,47.00147216],[3.1436711,47.00176834],[3.14422155,47.00287777]]]]}},{"type":"Feature","id":"nevers_581940107_le_banlay_moulin_a_vent","properties":{"zoneId":"nevers_581940107_le_banlay_moulin_a_vent","label":"Le Banlay-Moulin à Vent","districtCode":"581940107","arrondissementCode":"58194","colorIndex":6,"parentZoneId":"nevers_parent_58194_nevers","parentCode":"58194","parentLabel":"Nevers","territoryType":"iris","source":"IGN / INSEE - Contours IRIS WFS Géoplateforme","sourceYear":"2026","officialId":"581940107","sourceCleabs":"IRIS____0000000581940107","communeCode":"58194","communeName":"Nevers","irisCode":"0107","irisType":"H","officialAreaM2":855429.6860351562,"labelLng":3.1669904300823317,"labelLat":47.001913165,"bbox":[3.15303708,46.99671073,3.17162396,47.0071156]},"geometry":{"type":"MultiPolygon","coordinates":[[[[3.15303708,47.00670907],[3.15662931,47.0068303],[3.16075355,47.00703531],[3.16128685,47.0071156],[3.16232526,47.00708983],[3.16357389,47.00694401],[3.16471041,47.00672362],[3.16628181,47.00625229],[3.16782871,47.00553248],[3.16875869,47.0049369],[3.16963434,47.00422885],[3.17037406,47.00341295],[3.17082603,47.00275233],[3.17059154,47.00268155],[3.17157467,47.00144123],[3.17160337,47.00135925],[3.17155713,47.0013035],[3.17162396,47.00121427],[3.17152764,47.00113608],[3.16889406,46.99982186],[3.16673837,46.99895617],[3.16542922,46.99818286],[3.16446711,46.99771155],[3.1646716,46.99917432],[3.16480878,46.99970802],[3.16443291,46.99987692],[3.16377562,47.00054951],[3.16338276,47.00075805],[3.16268594,47.00098682],[3.16287294,47.00146374],[3.16244878,47.00352071],[3.15924021,47.00311463],[3.15950276,47.00154767],[3.15868707,47.00164063],[3.15765591,47.00185813],[3.15592007,47.00187759],[3.1559059,47.00107361],[3.15595445,47.00102312],[3.15590151,47.00091875],[3.15615544,47.0008959],[3.15603791,47.00075651],[3.15614485,46.99996406],[3.15667523,46.99997145],[3.1574198,46.9998678],[3.15773407,46.99978003],[3.15942457,46.99913487],[3.15955493,46.9991626],[3.15961125,46.99906888],[3.16146864,46.99835953],[3.1624146,46.99784321],[3.16343389,46.99721333],[3.16386097,46.99701645],[3.16423657,46.99676472],[3.16421798,46.99671073],[3.16307487,46.9968564],[3.16193682,46.99693994],[3.16049975,46.99692214],[3.15950675,46.99710448],[3.15892177,46.99731777],[3.15857761,46.99752892],[3.15760632,46.99839458],[3.15618814,46.99946161],[3.1559905,46.99937815],[3.15564678,46.99975226],[3.15556394,46.99977488],[3.15547996,46.99986232],[3.155517,46.9999289],[3.15562244,46.99998097],[3.15562566,47.00018625],[3.15523627,47.00115554],[3.15526811,47.00124463],[3.15495228,47.00171053],[3.15340999,47.00546791],[3.15336294,47.00558502],[3.15349594,47.00560825],[3.15303708,47.00670907]]]]}},{"type":"Feature","id":"nevers_581940108_le_banlay_marechal_leclerc","properties":{"zoneId":"nevers_581940108_le_banlay_marechal_leclerc","label":"Le Banlay-Maréchal Leclerc","districtCode":"581940108","arrondissementCode":"58194","colorIndex":7,"parentZoneId":"nevers_parent_58194_nevers","parentCode":"58194","parentLabel":"Nevers","territoryType":"iris","source":"IGN / INSEE - Contours IRIS WFS Géoplateforme","sourceYear":"2026","officialId":"581940108","sourceCleabs":"IRIS____0000000581940108","communeCode":"58194","communeName":"Nevers","irisCode":"0108","irisType":"H","officialAreaM2":246140.70471191406,"labelLng":3.1608575727119055,"labelLat":47.0004300946743,"bbox":[3.15590151,46.99676472,3.16480878,47.00352071]},"geometry":{"type":"MultiPolygon","coordinates":[[[[3.16446711,46.99771155],[3.16423657,46.99676472],[3.16386097,46.99701645],[3.16343389,46.99721333],[3.1624146,46.99784321],[3.16146864,46.99835953],[3.15961125,46.99906888],[3.15955493,46.9991626],[3.15942457,46.99913487],[3.15773407,46.99978003],[3.1574198,46.9998678],[3.15667523,46.99997145],[3.15614485,46.99996406],[3.15603791,47.00075651],[3.15615544,47.0008959],[3.15590151,47.00091875],[3.15595445,47.00102312],[3.1559059,47.00107361],[3.15592007,47.00187759],[3.15765591,47.00185813],[3.15868707,47.00164063],[3.15950276,47.00154767],[3.15924021,47.00311463],[3.16244878,47.00352071],[3.16287294,47.00146374],[3.16268594,47.00098682],[3.16338276,47.00075805],[3.16377562,47.00054951],[3.16443291,46.99987692],[3.16480878,46.99970802],[3.1646716,46.99917432],[3.16446711,46.99771155]]]]}},{"type":"Feature","id":"nevers_581940109_les_bords_de_loire","properties":{"zoneId":"nevers_581940109_les_bords_de_loire","label":"Les Bords de Loire","districtCode":"581940109","arrondissementCode":"58194","colorIndex":0,"parentZoneId":"nevers_parent_58194_nevers","parentCode":"58194","parentLabel":"Nevers","territoryType":"iris","source":"IGN / INSEE - Contours IRIS WFS Géoplateforme","sourceYear":"2026","officialId":"581940109","sourceCleabs":"IRIS____0000000581940109","communeCode":"58194","communeName":"Nevers","irisCode":"0109","irisType":"H","officialAreaM2":983988.6033935547,"labelLng":3.1772645750930475,"labelLat":46.98177425586137,"bbox":[3.16340456,46.97431855,3.19833762,46.98748713]},"geometry":{"type":"MultiPolygon","coordinates":[[[[3.19807751,46.97595233],[3.19833762,46.97585824],[3.19681926,46.97431855],[3.19389551,46.97552636],[3.19227036,46.9760999],[3.18678129,46.97770614],[3.18527255,46.97812453],[3.18470695,46.97814255],[3.18417258,46.97806057],[3.18213613,46.97842934],[3.18125424,46.97867113],[3.17952838,46.97948864],[3.1772573,46.97974515],[3.1772428,46.97973707],[3.17638523,46.9797834],[3.17467835,46.97999578],[3.17387901,46.98015454],[3.17298529,46.98041879],[3.17174389,46.9805701],[3.17101557,46.98072784],[3.16981681,46.98105374],[3.16935435,46.98167026],[3.16837526,46.98241898],[3.16750146,46.98276688],[3.16637276,46.98279643],[3.16535962,46.98318323],[3.16490249,46.98341707],[3.16395763,46.98376955],[3.16380886,46.98590629],[3.16357475,46.98636759],[3.16340456,46.98708271],[3.16352778,46.98736524],[3.16601623,46.98707628],[3.16707299,46.98715489],[3.16760358,46.98727206],[3.16820943,46.98747196],[3.16830421,46.98748713],[3.16840803,46.98744736],[3.16849101,46.98747695],[3.16858017,46.98737778],[3.16880083,46.98725591],[3.16953416,46.98698563],[3.17177183,46.98646192],[3.17309401,46.98602238],[3.17420488,46.985747],[3.17611173,46.98507335],[3.1760892,46.98502297],[3.17798506,46.9846185],[3.17832301,46.983371],[3.17845773,46.9831331],[3.17889822,46.98266154],[3.1794706,46.98229511],[3.17922174,46.98223067],[3.17930555,46.9821135],[3.17946859,46.98208533],[3.17955766,46.98196815],[3.18002936,46.98179005],[3.18224907,46.981105],[3.18913697,46.97910685],[3.19111843,46.97844543],[3.19807751,46.97595233]]]]}},{"type":"Feature","id":"nevers_581940110_les_courlis","properties":{"zoneId":"nevers_581940110_les_courlis","label":"Les Courlis","districtCode":"581940110","arrondissementCode":"58194","colorIndex":1,"parentZoneId":"nevers_parent_58194_nevers","parentCode":"58194","parentLabel":"Nevers","territoryType":"iris","source":"IGN / INSEE - Contours IRIS WFS Géoplateforme","sourceYear":"2026","officialId":"581940110","sourceCleabs":"IRIS____0000000581940110","communeCode":"58194","communeName":"Nevers","irisCode":"0110","irisType":"H","officialAreaM2":203455.49157714844,"labelLng":3.187789863094587,"labelLat":46.983984763196695,"bbox":[3.18366791,46.98004756,3.19160554,46.9890057]},"geometry":{"type":"MultiPolygon","coordinates":[[[[3.18831506,46.9890057],[3.18927854,46.98872862],[3.18863122,46.98609887],[3.18818519,46.9853415],[3.18802796,46.98514999],[3.18776541,46.98493793],[3.18909762,46.98327642],[3.18979529,46.98263783],[3.19014444,46.98241036],[3.19063697,46.98217996],[3.19160554,46.98188935],[3.1903203,46.98004756],[3.18991792,46.98009775],[3.18936992,46.98026251],[3.18891278,46.98045503],[3.18836,46.98076025],[3.18781172,46.98122933],[3.18722806,46.98211802],[3.18680747,46.98261569],[3.18572863,46.98298478],[3.18571041,46.98304243],[3.18563014,46.98303715],[3.18557396,46.98315159],[3.18408132,46.98370949],[3.18380945,46.98384588],[3.18385178,46.98391424],[3.18381255,46.98398273],[3.18366791,46.98400637],[3.18492474,46.9848921],[3.18550004,46.98538006],[3.18594628,46.98582682],[3.1867204,46.98673312],[3.18686808,46.98682561],[3.18791253,46.98827707],[3.18831506,46.9890057]]]]}},{"type":"Feature","id":"nevers_581940111_la_baratte_les_sablons","properties":{"zoneId":"nevers_581940111_la_baratte_les_sablons","label":"La Baratte-Les Sablons","districtCode":"581940111","arrondissementCode":"58194","colorIndex":2,"parentZoneId":"nevers_parent_58194_nevers","parentCode":"58194","parentLabel":"Nevers","territoryType":"iris","source":"IGN / INSEE - Contours IRIS WFS Géoplateforme","sourceYear":"2026","officialId":"581940111","sourceCleabs":"IRIS____0000000581940111","communeCode":"58194","communeName":"Nevers","irisCode":"0111","irisType":"H","officialAreaM2":1267813.9411621094,"labelLng":3.1930597479348326,"labelLat":46.983835909726444,"bbox":[3.17922174,46.97595233,3.20232721,46.99108424]},"geometry":{"type":"MultiPolygon","coordinates":[[[[3.19288816,46.99108424],[3.19328799,46.99103496],[3.19654721,46.98993913],[3.19768449,46.98934026],[3.19845475,46.98912736],[3.1996096,46.98866709],[3.201667,46.98819623],[3.20232721,46.98776921],[3.20117893,46.98680245],[3.20059906,46.98619032],[3.20026138,46.98560118],[3.19902533,46.98471738],[3.19892991,46.98452757],[3.19900926,46.98428254],[3.19768314,46.98249673],[3.19722516,46.98173492],[3.19803467,46.98149224],[3.19804921,46.98115279],[3.19836234,46.98080021],[3.19947749,46.97996727],[3.19880538,46.97893033],[3.19901223,46.97865807],[3.1994246,46.97846828],[3.19940332,46.97769312],[3.19906314,46.97712379],[3.1981559,46.97616648],[3.19807751,46.97595233],[3.19111843,46.97844543],[3.18913697,46.97910685],[3.18224907,46.981105],[3.18002936,46.98179005],[3.17955766,46.98196815],[3.17946859,46.98208533],[3.17930555,46.9821135],[3.17922174,46.98223067],[3.1794706,46.98229511],[3.17953631,46.9822734],[3.17964311,46.98234436],[3.1804728,46.98260327],[3.18224483,46.98335767],[3.18235274,46.9833656],[3.18273082,46.98351356],[3.18282151,46.98348551],[3.18366791,46.98400637],[3.18381255,46.98398273],[3.18385178,46.98391424],[3.18380945,46.98384588],[3.18408132,46.98370949],[3.18557396,46.98315159],[3.18563014,46.98303715],[3.18571041,46.98304243],[3.18572863,46.98298478],[3.18680747,46.98261569],[3.18722806,46.98211802],[3.18781172,46.98122933],[3.18836,46.98076025],[3.18891278,46.98045503],[3.18936992,46.98026251],[3.18991792,46.98009775],[3.1903203,46.98004756],[3.19160554,46.98188935],[3.19063697,46.98217996],[3.19014444,46.98241036],[3.18979529,46.98263783],[3.18909762,46.98327642],[3.18776541,46.98493793],[3.18802796,46.98514999],[3.18818519,46.9853415],[3.18863122,46.98609887],[3.18927854,46.98872862],[3.18831506,46.9890057],[3.18881304,46.98993674],[3.18906939,46.99024874],[3.18945432,46.99045429],[3.18992299,46.99052284],[3.19096505,46.99050942],[3.19171804,46.99061081],[3.1925454,46.99090114],[3.19288816,46.99108424]]]]}},{"type":"Feature","id":"nevers_581940112_le_mouesse","properties":{"zoneId":"nevers_581940112_le_mouesse","label":"Le Mouesse","districtCode":"581940112","arrondissementCode":"58194","colorIndex":3,"parentZoneId":"nevers_parent_58194_nevers","parentCode":"58194","parentLabel":"Nevers","territoryType":"iris","source":"IGN / INSEE - Contours IRIS WFS Géoplateforme","sourceYear":"2026","officialId":"581940112","sourceCleabs":"IRIS____0000000581940112","communeCode":"58194","communeName":"Nevers","irisCode":"0112","irisType":"H","officialAreaM2":1391013.9459228516,"labelLng":3.1802299025102547,"labelLat":46.990507999872,"bbox":[3.16849101,46.9822734,3.18944579,47.00045268]},"geometry":{"type":"MultiPolygon","coordinates":[[[[3.17610628,47.00035489],[3.17612467,47.00034496],[3.1763369,47.00045268],[3.17652186,47.00026872],[3.17627788,47.00010884],[3.17625638,46.99997292],[3.17582961,46.99985742],[3.1761874,46.99940221],[3.17610571,46.99937442],[3.17803396,46.99586823],[3.17839114,46.99603874],[3.18091313,46.99702429],[3.18887435,46.99957211],[3.18902316,46.99922524],[3.18930297,46.9979562],[3.18944579,46.99665137],[3.1889863,46.9965873],[3.18768974,46.99686582],[3.18733437,46.99684749],[3.18627126,46.99651518],[3.18585843,46.99624214],[3.18535941,46.99616191],[3.18501594,46.99615886],[3.18465194,46.99592356],[3.18391952,46.99531069],[3.18373372,46.99523716],[3.18344138,46.9951764],[3.18310196,46.99520125],[3.18257277,46.99514177],[3.18225528,46.99542768],[3.18222137,46.99551866],[3.17925021,46.99438258],[3.1807611,46.99249131],[3.1819211,46.99310082],[3.18463612,46.9936034],[3.18649433,46.99327989],[3.18652556,46.9931781],[3.18639125,46.99239051],[3.18619969,46.99178759],[3.18542556,46.99051215],[3.18666805,46.99024185],[3.18881304,46.98993674],[3.18831506,46.9890057],[3.18791253,46.98827707],[3.18686808,46.98682561],[3.1867204,46.98673312],[3.18594628,46.98582682],[3.18550004,46.98538006],[3.18492474,46.9848921],[3.18366791,46.98400637],[3.18282151,46.98348551],[3.18273082,46.98351356],[3.18235274,46.9833656],[3.18224483,46.98335767],[3.1804728,46.98260327],[3.17964311,46.98234436],[3.17953631,46.9822734],[3.1794706,46.98229511],[3.17889822,46.98266154],[3.17845773,46.9831331],[3.17832301,46.983371],[3.17798506,46.9846185],[3.1760892,46.98502297],[3.17611173,46.98507335],[3.17420488,46.985747],[3.17309401,46.98602238],[3.17177183,46.98646192],[3.16953416,46.98698563],[3.16880083,46.98725591],[3.16858017,46.98737778],[3.16849101,46.98747695],[3.1685767,46.98752904],[3.1706472,46.98780331],[3.17148826,46.9879029],[3.17213037,46.98791185],[3.17227656,46.98795665],[3.17247885,46.98826516],[3.17267787,46.98878436],[3.1732656,46.9898864],[3.17326025,46.99026996],[3.17317292,46.99052849],[3.17266389,46.99099833],[3.172732,46.99131155],[3.1728404,46.99146805],[3.17306312,46.99157575],[3.17359477,46.99159386],[3.17366092,46.9917054],[3.17377399,46.99167732],[3.17418746,46.99177034],[3.17453024,46.9919769],[3.17476455,46.99241321],[3.17479589,46.99274539],[3.17504373,46.99288637],[3.17532807,46.99292195],[3.17612907,46.99281539],[3.17728568,46.99280551],[3.17755558,46.99285192],[3.177719,46.99293],[3.1779473,46.99312952],[3.17798377,46.99341667],[3.17817258,46.99360996],[3.17693212,46.99453742],[3.17633248,46.99506504],[3.17542753,46.99599647],[3.17496473,46.99652927],[3.17430313,46.99744322],[3.17341401,46.99881938],[3.17486619,46.99942402],[3.17610628,47.00035489]]]]}},{"type":"Feature","id":"nevers_581940113_montapins_est","properties":{"zoneId":"nevers_581940113_montapins_est","label":"Montapins Est","districtCode":"581940113","arrondissementCode":"58194","colorIndex":4,"parentZoneId":"nevers_parent_58194_nevers","parentCode":"58194","parentLabel":"Nevers","territoryType":"iris","source":"IGN / INSEE - Contours IRIS WFS Géoplateforme","sourceYear":"2026","officialId":"581940113","sourceCleabs":"IRIS____0000000581940113","communeCode":"58194","communeName":"Nevers","irisCode":"0113","irisType":"H","officialAreaM2":2151531.4033203125,"labelLng":3.1396512429700243,"labelLat":46.9773590366169,"bbox":[3.12331295,46.96329397,3.15448286,46.98739161]},"geometry":{"type":"MultiPolygon","coordinates":[[[[3.15448286,46.97654654],[3.15313218,46.97664918],[3.14248518,46.97676636],[3.14107736,46.97565346],[3.13906175,46.97448726],[3.13840635,46.973847],[3.13798533,46.97329199],[3.13640885,46.97199016],[3.13553756,46.9707271],[3.13489323,46.96921347],[3.13425797,46.9686911],[3.13246626,46.96748851],[3.13056967,46.96639134],[3.13008781,46.96618571],[3.1292379,46.9655141],[3.12850321,46.96517099],[3.12585797,46.96329397],[3.12331536,46.96597706],[3.12331295,46.9660734],[3.12501101,46.96783986],[3.12645407,46.96906456],[3.12702178,46.96941868],[3.12824526,46.97008448],[3.12847579,46.97023458],[3.12854446,46.97034705],[3.12864325,46.97040817],[3.12885368,46.97039983],[3.12912345,46.97045625],[3.13019756,46.97079807],[3.12939056,46.97159849],[3.12901247,46.97190053],[3.12791053,46.97147859],[3.12631629,46.97370511],[3.12732917,46.97428022],[3.12861427,46.9748118],[3.12889352,46.97497355],[3.12922183,46.97529551],[3.12952062,46.9753744],[3.12994167,46.97541985],[3.13187018,46.97545998],[3.13260719,46.97561129],[3.13313651,46.97582046],[3.13402062,46.97640827],[3.13501518,46.97696622],[3.13616444,46.9778283],[3.1371908,46.97897683],[3.1377801,46.97947402],[3.13664392,46.98016414],[3.13666393,46.98027395],[3.13693269,46.98042669],[3.13694605,46.98050591],[3.13715405,46.98056418],[3.13766255,46.98083728],[3.13777091,46.98102893],[3.13776197,46.98113158],[3.13725968,46.98175162],[3.13699646,46.98223091],[3.13675777,46.98252381],[3.13658152,46.98254022],[3.135717,46.98299592],[3.13596116,46.98330535],[3.13599441,46.98344666],[3.13599468,46.9840751],[3.13576625,46.98427345],[3.13600584,46.98433079],[3.1385988,46.98528657],[3.14007074,46.98568275],[3.14114879,46.98587861],[3.14080428,46.98696394],[3.14080145,46.98739161],[3.14451305,46.98688463],[3.14501964,46.9869002],[3.14617132,46.98706171],[3.14730161,46.98709629],[3.14761193,46.98702836],[3.14800754,46.9868766],[3.14940815,46.98617793],[3.14964102,46.98617583],[3.1508402,46.98638404],[3.15417508,46.97748242],[3.15448286,46.97654654]]]]}},{"type":"Feature","id":"nevers_581940114_les_loges_montapins_ouest","properties":{"zoneId":"nevers_581940114_les_loges_montapins_ouest","label":"Les Loges-Montapins Ouest","districtCode":"581940114","arrondissementCode":"58194","colorIndex":5,"parentZoneId":"nevers_parent_58194_nevers","parentCode":"58194","parentLabel":"Nevers","territoryType":"iris","source":"IGN / INSEE - Contours IRIS WFS Géoplateforme","sourceYear":"2026","officialId":"581940114","sourceCleabs":"IRIS____0000000581940114","communeCode":"58194","communeName":"Nevers","irisCode":"0114","irisType":"H","officialAreaM2":2366882.2053222656,"labelLng":3.1277190293110286,"labelLat":46.98115065302445,"bbox":[3.11720324,46.96597706,3.14140069,46.99637177]},"geometry":{"type":"MultiPolygon","coordinates":[[[[3.12331536,46.96597706],[3.1219429,46.96740828],[3.12187746,46.9675515],[3.12204912,46.96785474],[3.12200461,46.96794752],[3.12168124,46.96802349],[3.12087607,46.9679181],[3.12054876,46.96800127],[3.12070849,46.96826221],[3.12161247,46.96902745],[3.12065294,46.9698919],[3.12107447,46.97017506],[3.12182743,46.9710332],[3.12121779,46.97132826],[3.12098938,46.97153198],[3.12104762,46.97169488],[3.12166156,46.97213721],[3.12118553,46.97277876],[3.12332785,46.97433409],[3.12357134,46.97496767],[3.12377248,46.97606588],[3.12353076,46.97620839],[3.12107343,46.97851949],[3.12087643,46.98043113],[3.12021786,46.98125653],[3.11994293,46.98126762],[3.11947846,46.98182812],[3.11929512,46.98280428],[3.11896068,46.98327731],[3.1185444,46.98362797],[3.11789687,46.98532759],[3.11734913,46.98634463],[3.11720324,46.98702184],[3.11728788,46.98782486],[3.11813847,46.98811391],[3.1191137,46.98823805],[3.12237281,46.98824724],[3.12230841,46.98944117],[3.1224513,46.99036927],[3.12243334,46.99115619],[3.12188454,46.99169067],[3.12197232,46.99210474],[3.12098976,46.99344548],[3.12143313,46.99457945],[3.12103697,46.99513537],[3.1213769,46.99532589],[3.12139582,46.99554465],[3.12195797,46.9956584],[3.12168192,46.99637177],[3.12278047,46.99625806],[3.12268633,46.99594664],[3.12263198,46.99519041],[3.12272448,46.99420174],[3.12272328,46.99367504],[3.12362207,46.9908218],[3.12387942,46.99000941],[3.12396497,46.99002192],[3.12410736,46.9895698],[3.12427442,46.98955071],[3.12586792,46.98903219],[3.12626523,46.98901014],[3.12715506,46.98861392],[3.12802238,46.98815918],[3.12824823,46.98796716],[3.13181519,46.98743374],[3.13260978,46.98739051],[3.13395188,46.98741777],[3.1355002,46.98730612],[3.13597127,46.98732268],[3.13681096,46.98742522],[3.13684659,46.98850469],[3.13702195,46.98864944],[3.13711065,46.98886542],[3.13816444,46.98881644],[3.13822369,46.98934667],[3.14140069,46.98912764],[3.14105639,46.98828084],[3.14080145,46.98739161],[3.14080428,46.98696394],[3.14114879,46.98587861],[3.14007074,46.98568275],[3.1385988,46.98528657],[3.13600584,46.98433079],[3.13576625,46.98427345],[3.13599468,46.9840751],[3.13599441,46.98344666],[3.13596116,46.98330535],[3.135717,46.98299592],[3.13658152,46.98254022],[3.13675777,46.98252381],[3.13699646,46.98223091],[3.13725968,46.98175162],[3.13776197,46.98113158],[3.13777091,46.98102893],[3.13766255,46.98083728],[3.13715405,46.98056418],[3.13694605,46.98050591],[3.13693269,46.98042669],[3.13666393,46.98027395],[3.13664392,46.98016414],[3.1377801,46.97947402],[3.1371908,46.97897683],[3.13616444,46.9778283],[3.13501518,46.97696622],[3.13402062,46.97640827],[3.13313651,46.97582046],[3.13260719,46.97561129],[3.13187018,46.97545998],[3.12994167,46.97541985],[3.12952062,46.9753744],[3.12922183,46.97529551],[3.12889352,46.97497355],[3.12861427,46.9748118],[3.12732917,46.97428022],[3.12631629,46.97370511],[3.12791053,46.97147859],[3.12901247,46.97190053],[3.12939056,46.97159849],[3.13019756,46.97079807],[3.12912345,46.97045625],[3.12885368,46.97039983],[3.12864325,46.97040817],[3.12854446,46.97034705],[3.12847579,46.97023458],[3.12824526,46.97008448],[3.12702178,46.96941868],[3.12645407,46.96906456],[3.12501101,46.96783986],[3.12331295,46.9660734],[3.12331536,46.96597706]]]]}},{"type":"Feature","id":"nevers_581940115_la_grande_pature","properties":{"zoneId":"nevers_581940115_la_grande_pature","label":"La Grande Pâture","districtCode":"581940115","arrondissementCode":"58194","colorIndex":6,"parentZoneId":"nevers_parent_58194_nevers","parentCode":"58194","parentLabel":"Nevers","territoryType":"iris","source":"IGN / INSEE - Contours IRIS WFS Géoplateforme","sourceYear":"2026","officialId":"581940115","sourceCleabs":"IRIS____0000000581940115","communeCode":"58194","communeName":"Nevers","irisCode":"0115","irisType":"H","officialAreaM2":273365.84216308594,"labelLng":3.126172508117098,"labelLat":46.994008759443425,"bbox":[3.12263198,46.99077934,3.13075918,46.99635548]},"geometry":{"type":"MultiPolygon","coordinates":[[[[3.12278047,46.99625806],[3.12507008,46.99620788],[3.12840763,46.99635548],[3.12922196,46.99625643],[3.13015565,46.99599698],[3.13075918,46.99580003],[3.13061111,46.99551298],[3.12962987,46.99295352],[3.12820539,46.9932027],[3.12757087,46.99197084],[3.12734189,46.99140297],[3.12716545,46.99135005],[3.12381953,46.990863],[3.12375092,46.99077934],[3.12362207,46.9908218],[3.12272328,46.99367504],[3.12272448,46.99420174],[3.12263198,46.99519041],[3.12268633,46.99594664],[3.12278047,46.99625806]]]]}},{"type":"Feature","id":"nevers_581940116_les_montots_bas_montots","properties":{"zoneId":"nevers_581940116_les_montots_bas_montots","label":"Les Montots-Bas Montots","districtCode":"581940116","arrondissementCode":"58194","colorIndex":7,"parentZoneId":"nevers_parent_58194_nevers","parentCode":"58194","parentLabel":"Nevers","territoryType":"iris","source":"IGN / INSEE - Contours IRIS WFS Géoplateforme","sourceYear":"2026","officialId":"581940116","sourceCleabs":"IRIS____0000000581940116","communeCode":"58194","communeName":"Nevers","irisCode":"0116","irisType":"H","officialAreaM2":663932.8784179688,"labelLng":3.132400273070032,"labelLat":46.991023373707485,"bbox":[3.12362207,46.98730612,3.13991602,46.99580003]},"geometry":{"type":"MultiPolygon","coordinates":[[[[3.13822369,46.98934667],[3.13816444,46.98881644],[3.13711065,46.98886542],[3.13702195,46.98864944],[3.13684659,46.98850469],[3.13681096,46.98742522],[3.13597127,46.98732268],[3.1355002,46.98730612],[3.13395188,46.98741777],[3.13260978,46.98739051],[3.13181519,46.98743374],[3.12824823,46.98796716],[3.12802238,46.98815918],[3.12715506,46.98861392],[3.12626523,46.98901014],[3.12586792,46.98903219],[3.12427442,46.98955071],[3.12410736,46.9895698],[3.12396497,46.99002192],[3.12387942,46.99000941],[3.12362207,46.9908218],[3.12375092,46.99077934],[3.12381953,46.990863],[3.12716545,46.99135005],[3.12734189,46.99140297],[3.12757087,46.99197084],[3.12820539,46.9932027],[3.12962987,46.99295352],[3.13061111,46.99551298],[3.13075918,46.99580003],[3.13422654,46.99470213],[3.13847111,46.99347535],[3.13991602,46.99300183],[3.13932201,46.99125228],[3.13820299,46.99154083],[3.13787922,46.99151061],[3.13790758,46.99127919],[3.13744208,46.9898455],[3.13735799,46.98937472],[3.13822369,46.98934667]]]]}},{"type":"Feature","id":"nevers_581940117_rotonde_13e_de_ligne","properties":{"zoneId":"nevers_581940117_rotonde_13e_de_ligne","label":"Rotonde-13e de Ligne","districtCode":"581940117","arrondissementCode":"58194","colorIndex":0,"parentZoneId":"nevers_parent_58194_nevers","parentCode":"58194","parentLabel":"Nevers","territoryType":"iris","source":"IGN / INSEE - Contours IRIS WFS Géoplateforme","sourceYear":"2026","officialId":"581940117","sourceCleabs":"IRIS____0000000581940117","communeCode":"58194","communeName":"Nevers","irisCode":"0117","irisType":"H","officialAreaM2":1263759.5340576172,"labelLng":3.14209603912019,"labelLat":46.993687124030814,"bbox":[3.13015565,46.98617583,3.15147346,47.00302077]},"geometry":{"type":"MultiPolygon","coordinates":[[[[3.13015565,46.99599698],[3.13071908,46.99663019],[3.13701449,46.99971826],[3.13981709,46.99951952],[3.1403589,46.99936851],[3.14057449,46.9997833],[3.14290877,47.00164504],[3.14362179,47.00302077],[3.14422155,47.00287777],[3.1436711,47.00176834],[3.14364267,47.00147216],[3.14370412,47.00082294],[3.14394863,47.00022661],[3.14576946,46.99709564],[3.14602964,46.99646777],[3.1468227,46.99533054],[3.14710299,46.9948503],[3.1478949,46.9933133],[3.14823223,46.99252237],[3.14859148,46.99253271],[3.14900451,46.99247816],[3.14892672,46.99242424],[3.14892103,46.99226758],[3.14921691,46.99172429],[3.14933238,46.991608],[3.1504225,46.98947007],[3.15043546,46.98939712],[3.1503206,46.98925862],[3.15043474,46.98913783],[3.15091409,46.98787312],[3.15073902,46.98784634],[3.15093494,46.98733108],[3.15111784,46.98686717],[3.15119538,46.98683465],[3.15132177,46.9868651],[3.15147346,46.98653087],[3.1508402,46.98638404],[3.14964102,46.98617583],[3.14940815,46.98617793],[3.14800754,46.9868766],[3.14761193,46.98702836],[3.14730161,46.98709629],[3.14617132,46.98706171],[3.14501964,46.9869002],[3.14451305,46.98688463],[3.14080145,46.98739161],[3.14105639,46.98828084],[3.14140069,46.98912764],[3.13822369,46.98934667],[3.13735799,46.98937472],[3.13744208,46.9898455],[3.13790758,46.99127919],[3.13787922,46.99151061],[3.13820299,46.99154083],[3.13932201,46.99125228],[3.13991602,46.99300183],[3.13847111,46.99347535],[3.13422654,46.99470213],[3.13075918,46.99580003],[3.13015565,46.99599698]]]]}},{"type":"Feature","id":"nevers_581940118_zone_d_activites_sud_la_jonction","properties":{"zoneId":"nevers_581940118_zone_d_activites_sud_la_jonction","label":"Zone d'Activités Sud La Jonction","districtCode":"581940118","arrondissementCode":"58194","colorIndex":1,"parentZoneId":"nevers_parent_58194_nevers","parentCode":"58194","parentLabel":"Nevers","territoryType":"iris","source":"IGN / INSEE - Contours IRIS WFS Géoplateforme","sourceYear":"2026","officialId":"581940118","sourceCleabs":"IRIS____0000000581940118","communeCode":"58194","communeName":"Nevers","irisCode":"0118","irisType":"A","officialAreaM2":797587.4805908203,"labelLng":3.1658244270228764,"labelLat":46.98054142561771,"bbox":[3.15794024,46.97539918,3.1772428,46.98702323]},"geometry":{"type":"MultiPolygon","coordinates":[[[[3.1772428,46.97973707],[3.17409574,46.97800779],[3.17361826,46.97761146],[3.17277285,46.97733812],[3.17215339,46.9769672],[3.17134252,46.97596452],[3.17091725,46.9758436],[3.17091361,46.97552399],[3.17068433,46.97539918],[3.16970654,46.97568423],[3.16948944,46.97566744],[3.16732717,46.97661236],[3.16664553,46.97781801],[3.16536322,46.97748403],[3.16590971,46.97723925],[3.16545963,46.97674831],[3.16525731,46.97683413],[3.1650821,46.97674795],[3.16485078,46.976814],[3.16393645,46.97722136],[3.1635513,46.97687888],[3.16211704,46.97762189],[3.16186241,46.97737465],[3.15955572,46.97848709],[3.15988302,46.97973272],[3.16040076,46.98130941],[3.16037529,46.98159395],[3.16033362,46.98173987],[3.16019082,46.98194174],[3.15794024,46.98477373],[3.15805263,46.98496355],[3.15802791,46.98505902],[3.16038302,46.98641529],[3.16152818,46.98702323],[3.1616095,46.98693848],[3.16175165,46.98695809],[3.16243381,46.98628908],[3.1632275,46.986396],[3.16357475,46.98636759],[3.16380886,46.98590629],[3.16395763,46.98376955],[3.16490249,46.98341707],[3.16535962,46.98318323],[3.16637276,46.98279643],[3.16750146,46.98276688],[3.16837526,46.98241898],[3.16935435,46.98167026],[3.16981681,46.98105374],[3.17101557,46.98072784],[3.17174389,46.9805701],[3.17298529,46.98041879],[3.17387901,46.98015454],[3.17467835,46.97999578],[3.17638523,46.9797834],[3.1772428,46.97973707]]]]}},{"type":"Feature","id":"nevers_581940119_zone_d_activites_z_i_nevers_est","properties":{"zoneId":"nevers_581940119_zone_d_activites_z_i_nevers_est","label":"Zone d'Activités Z.I. Nevers Est","districtCode":"581940119","arrondissementCode":"58194","colorIndex":2,"parentZoneId":"nevers_parent_58194_nevers","parentCode":"58194","parentLabel":"Nevers","territoryType":"iris","source":"IGN / INSEE - Contours IRIS WFS Géoplateforme","sourceYear":"2026","officialId":"581940119","sourceCleabs":"IRIS____0000000581940119","communeCode":"58194","communeName":"Nevers","irisCode":"0119","irisType":"A","officialAreaM2":903662.7640380859,"labelLng":3.187724306685501,"labelLat":46.996614545,"bbox":[3.17610571,46.98993674,3.19523994,47.00329235]},"geometry":{"type":"MultiPolygon","coordinates":[[[[3.1761874,46.99940221],[3.17734978,46.99950757],[3.17902487,46.99944826],[3.1794726,46.999534],[3.17952684,46.99961854],[3.17996268,46.99968899],[3.18057421,46.99995814],[3.18106817,47.00048587],[3.18195247,47.00085362],[3.18244478,47.00088525],[3.18292428,47.0006315],[3.18311044,47.00080767],[3.18345696,47.00092686],[3.18374899,47.00127483],[3.18433953,47.00155029],[3.18487378,47.00191408],[3.18511943,47.00178223],[3.18588525,47.00174319],[3.18619874,47.00143747],[3.18702566,47.00156398],[3.18729995,47.00172019],[3.18743256,47.00200989],[3.18793791,47.00200366],[3.1872717,47.00306265],[3.18783031,47.0032319],[3.18794697,47.00271582],[3.1881772,47.00231299],[3.19050091,47.00329235],[3.19493033,47.00203438],[3.19523994,47.00176196],[3.19455616,47.00155603],[3.19431415,47.00123052],[3.19220595,47.0016356],[3.19183249,47.00060803],[3.19109389,47.00015098],[3.18969159,46.99881989],[3.18985077,46.99843158],[3.19000732,46.99691965],[3.19000362,46.99549171],[3.19012437,46.99540328],[3.19271194,46.99590678],[3.19211967,46.99402695],[3.19238195,46.99414626],[3.19357512,46.99441797],[3.19412416,46.99413884],[3.19325529,46.99292933],[3.19304859,46.9914252],[3.19288816,46.99108424],[3.1925454,46.99090114],[3.19171804,46.99061081],[3.19096505,46.99050942],[3.18992299,46.99052284],[3.18945432,46.99045429],[3.18906939,46.99024874],[3.18881304,46.98993674],[3.18666805,46.99024185],[3.18542556,46.99051215],[3.18619969,46.99178759],[3.18639125,46.99239051],[3.18652556,46.9931781],[3.18649433,46.99327989],[3.18463612,46.9936034],[3.1819211,46.99310082],[3.1807611,46.99249131],[3.17925021,46.99438258],[3.18222137,46.99551866],[3.18225528,46.99542768],[3.18257277,46.99514177],[3.18310196,46.99520125],[3.18344138,46.9951764],[3.18373372,46.99523716],[3.18391952,46.99531069],[3.18465194,46.99592356],[3.18501594,46.99615886],[3.18535941,46.99616191],[3.18585843,46.99624214],[3.18627126,46.99651518],[3.18733437,46.99684749],[3.18768974,46.99686582],[3.1889863,46.9965873],[3.18944579,46.99665137],[3.18930297,46.9979562],[3.18902316,46.99922524],[3.18887435,46.99957211],[3.18091313,46.99702429],[3.17839114,46.99603874],[3.17803396,46.99586823],[3.17610571,46.99937442],[3.1761874,46.99940221]]]]}}]}
