{"type":"FeatureCollection","metadata":{"generatedAt":"2026-07-14T19:00:28.525Z","source":"IGN / INSEE - Contours IRIS WFS Géoplateforme","datasetId":"STATISTICALUNITS.IRIS:contours_iris","datasetUrl":"https://geoservices.ign.fr/contoursiris","sourceFileUrl":"https://data.geopf.fr/wfs/ows?SERVICE=WFS&VERSION=2.0.0&REQUEST=GetFeature&TYPENAMES=STATISTICALUNITS.IRIS%3Acontours_iris&OUTPUTFORMAT=application%2Fjson&COUNT=1000&CQL_FILTER=code_insee%3D%2744110%27&SRSNAME=EPSG%3A4326","license":"Licence Ouverte / Open Licence 2.0","sourceYear":"2026","communeCode":"44110","communeName":"Nort-sur-Erdre","featureCount":2,"parentCount":1,"parentContract":"technical commune group; not selectable and not displayed as a district","sourceFeatureCount":2,"humanLabelContract":"one visible plate per unique official human place name","groupingContract":"only exact source-ID groups approved by the resolved curation, or source zones sharing the same official name and parent, are merged","groupedZoneCount":0,"groupedSourceFeatureCount":0,"curationStatus":"resolved","curationRevision":1,"curationSources":[{"id":"ign-insee-contours-iris-2026","provider":"IGN / INSEE - Contours IRIS WFS Géoplateforme","datasetUrl":"https://geoservices.ign.fr/contoursiris","role":"official geometry, source identifiers and source labels","vintage":"2026","license":"Licence Ouverte / Open Licence 2.0"},{"id":"ign-geoplateforme-toponymy-2026","provider":"IGN Géoplateforme - reverse geocoding, addresses and named places","datasetUrl":"https://geoservices.ign.fr/geocodage-geoplateforme","role":"official address, street and named-place evidence","vintage":"2026","license":"Licence Ouverte / Open Licence 2.0"},{"id":"guide-alpha-editorial-recovery-2026-07-14","provider":"Meewav Guide Alpha editorial review","datasetUrl":"docs/geospatial/france-semantic-recovery.md","role":"versioned mapping of exact official IRIS identifiers to coherent human place names","vintage":"2026-07-14","license":"Project documentation"}],"sourceCorrections":[{"operationId":"nort_sur_erdre-441100102-rename-rue-de-beaumont","type":"rename","sourceIds":["441100102"],"expectedLabels":["Agglomération"],"outputLabel":"Rue de Beaumont","evidenceRefs":["ign-insee-contours-iris-2026","ign-geoplateforme-toponymy-2026","guide-alpha-editorial-recovery-2026-07-14"],"rationale":"The exact official IGN BD TOPO named road has a deterministic evidence point strictly inside this exact IRIS. The 1:1 label is emitted without nearest assignment, invented geometry, split or dropped source cell."}],"bbox":[-1.58362712,47.38748186,-1.46418154,47.50340918],"areaStatsM2":{"minimum":3829455.921447754,"average":33375379.18902588,"maximum":62921302.456604004}},"features":[{"type":"Feature","id":"nort_sur_erdre_441100101_hors_agglomeration","properties":{"zoneId":"nort_sur_erdre_441100101_hors_agglomeration","label":"Hors Agglomération","districtCode":"441100101","arrondissementCode":"44110","colorIndex":0,"parentZoneId":"nort_sur_erdre_parent_44110_nort_sur_erdre","parentCode":"44110","parentLabel":"Nort-sur-Erdre","territoryType":"iris","source":"IGN / INSEE - Contours IRIS WFS Géoplateforme","sourceYear":"2026","officialId":"441100101","sourceCleabs":"IRIS____0000000441100101","communeCode":"44110","communeName":"Nort-sur-Erdre","irisCode":"0101","irisType":"H","officialAreaM2":62921302.456604004,"labelLng":-1.519838812779075,"labelLat":47.44798373548144,"bbox":[-1.58362712,47.38748186,-1.46418154,47.50340918]},"geometry":{"type":"MultiPolygon","coordinates":[[[[-1.58362712,47.45112766],[-1.58295059,47.45254113],[-1.58268272,47.45270408],[-1.58251001,47.45293811],[-1.58200927,47.45295875],[-1.58185574,47.45302882],[-1.58103405,47.45363286],[-1.58069931,47.45442782],[-1.58022604,47.45503347],[-1.57988896,47.45615853],[-1.57988643,47.45633086],[-1.58004702,47.45643634],[-1.58001937,47.45684319],[-1.57919014,47.45819863],[-1.57905184,47.45829154],[-1.57829316,47.45829707],[-1.57746045,47.45849395],[-1.57674573,47.45888907],[-1.57661853,47.45901851],[-1.57654889,47.46044231],[-1.57475472,47.46152369],[-1.57419151,47.46207424],[-1.57222149,47.46239064],[-1.57118977,47.46234464],[-1.57046068,47.46244813],[-1.56916962,47.4630552],[-1.56707451,47.46348012],[-1.56457354,47.46348092],[-1.56324999,47.46401976],[-1.56287045,47.46429343],[-1.56237246,47.4652985],[-1.56192988,47.4655503],[-1.56145533,47.46553645],[-1.5611881,47.46544324],[-1.56068358,47.4654522],[-1.56045457,47.46571365],[-1.56051649,47.46580049],[-1.56023293,47.46609293],[-1.55874776,47.46693651],[-1.55724404,47.46754726],[-1.55706081,47.46772215],[-1.55677993,47.46828047],[-1.55466344,47.47025326],[-1.54669676,47.47590098],[-1.54639533,47.47621932],[-1.5459388,47.47699726],[-1.54547686,47.47738319],[-1.54211214,47.47904382],[-1.54220003,47.47912334],[-1.54188654,47.47919058],[-1.53755274,47.48156513],[-1.53597504,47.48234617],[-1.53559797,47.48241677],[-1.53409731,47.48357347],[-1.53149915,47.48516872],[-1.52582172,47.48891963],[-1.52376212,47.49058119],[-1.51592571,47.49535497],[-1.51279015,47.49786231],[-1.50996087,47.50054974],[-1.50783535,47.50278156],[-1.50503986,47.50287626],[-1.50373696,47.50301504],[-1.50336112,47.50289704],[-1.49153051,47.50269867],[-1.48663378,47.50253588],[-1.48647956,47.50340918],[-1.48455433,47.50309297],[-1.48208893,47.50312572],[-1.48225377,47.50245759],[-1.47784641,47.50224313],[-1.47528231,47.50193872],[-1.47401366,47.50175578],[-1.47291501,47.50126696],[-1.47287138,47.50047522],[-1.47315386,47.49968538],[-1.47307011,47.49852552],[-1.47266292,47.49780907],[-1.47271458,47.49620042],[-1.47230049,47.49530571],[-1.47161786,47.49454033],[-1.47129565,47.49355102],[-1.47124869,47.49290998],[-1.47114807,47.49278852],[-1.46969926,47.49199125],[-1.46915378,47.4913378],[-1.46798166,47.49095364],[-1.46751519,47.49091114],[-1.46725453,47.49103926],[-1.46703087,47.49103702],[-1.46703838,47.49052192],[-1.46713792,47.49034409],[-1.46735474,47.49021675],[-1.46848544,47.48969188],[-1.46868741,47.48967331],[-1.46896194,47.48979079],[-1.46913696,47.4896885],[-1.46936295,47.48922541],[-1.4700296,47.48929177],[-1.47026418,47.48921785],[-1.47132971,47.48824825],[-1.47130044,47.48743703],[-1.47141284,47.4872064],[-1.47177548,47.48702567],[-1.47262407,47.48688216],[-1.47283198,47.48668032],[-1.47279843,47.48618392],[-1.472535,47.48556292],[-1.472696,47.48507076],[-1.47333504,47.48487128],[-1.47408172,47.48438456],[-1.47398362,47.48370491],[-1.47437507,47.48337609],[-1.47502472,47.48319243],[-1.47585986,47.48273023],[-1.47642497,47.48252186],[-1.47683608,47.48249162],[-1.47804092,47.48258501],[-1.47864484,47.48237964],[-1.47899495,47.48235173],[-1.48003528,47.4825452],[-1.48098792,47.48227951],[-1.48179754,47.48222759],[-1.48222836,47.48198829],[-1.48271656,47.48190998],[-1.4830354,47.48177868],[-1.48426722,47.48165458],[-1.48450917,47.48149468],[-1.48475718,47.48088374],[-1.48459266,47.48004797],[-1.484322,47.47959587],[-1.48411071,47.47945524],[-1.48299163,47.47898805],[-1.48192568,47.47710776],[-1.48124813,47.47684624],[-1.48108841,47.47670182],[-1.48109346,47.47652401],[-1.48173344,47.47598814],[-1.48174157,47.47584717],[-1.48078792,47.47470278],[-1.48083193,47.47432331],[-1.48093636,47.47420478],[-1.48254978,47.47297141],[-1.48353821,47.472643],[-1.48352479,47.472245],[-1.48317478,47.4720989],[-1.48063603,47.47239777],[-1.47836737,47.47228587],[-1.47444071,47.47298695],[-1.47079121,47.47336168],[-1.46971116,47.47275402],[-1.46903366,47.47263488],[-1.46727122,47.47259709],[-1.46608674,47.47284002],[-1.46506406,47.47285493],[-1.4642734,47.47270225],[-1.46418154,47.47258946],[-1.46746985,47.47019928],[-1.46984187,47.46801731],[-1.47244673,47.4642494],[-1.47258605,47.46368955],[-1.47264142,47.46150549],[-1.4729893,47.46080057],[-1.47766386,47.45698985],[-1.47809225,47.45640623],[-1.47835726,47.45544301],[-1.47819242,47.4534261],[-1.47861453,47.45214847],[-1.47862604,47.45171434],[-1.47748563,47.44809403],[-1.47733595,47.44790955],[-1.4772661,47.44745602],[-1.47751481,47.44715611],[-1.47804002,47.44687261],[-1.47901891,47.44611811],[-1.47957445,47.44532401],[-1.48064769,47.44487151],[-1.48114151,47.44438814],[-1.4823323,47.4438797],[-1.48336811,47.44382173],[-1.48390805,47.44388927],[-1.48405174,47.44404963],[-1.4842328,47.44408503],[-1.48496801,47.44391331],[-1.48553303,47.44393118],[-1.48709416,47.44376636],[-1.48802896,47.44362929],[-1.48829007,47.44368413],[-1.48842816,47.44376175],[-1.48858282,47.44387841],[-1.48880521,47.44415294],[-1.48886524,47.4444725],[-1.48886172,47.44503256],[-1.48896641,47.44526655],[-1.48914198,47.44545813],[-1.48941484,47.44560538],[-1.48958546,47.44564297],[-1.49020576,47.44557484],[-1.49041945,47.44550798],[-1.49092252,47.44505667],[-1.49163539,47.44411216],[-1.49191461,47.44384441],[-1.49232708,47.4435174],[-1.49343356,47.44293997],[-1.49372731,47.44262387],[-1.49397078,47.4420888],[-1.49412442,47.44129121],[-1.49446327,47.44068934],[-1.49620026,47.44094227],[-1.49632309,47.44107547],[-1.49648863,47.44108439],[-1.49626932,47.44171681],[-1.49592158,47.44221264],[-1.49523143,47.44292007],[-1.49477004,47.44370881],[-1.49497953,47.44378186],[-1.49554775,47.44423325],[-1.49711411,47.44455768],[-1.49644155,47.44575944],[-1.49608966,47.44622206],[-1.49843992,47.44704814],[-1.49743821,47.44898304],[-1.49717781,47.44937992],[-1.49648056,47.45020934],[-1.49631353,47.45062605],[-1.49796975,47.45095782],[-1.4980779,47.45146937],[-1.49832196,47.45121018],[-1.49855793,47.45109195],[-1.50055029,47.45094724],[-1.50255521,47.45073077],[-1.50298536,47.45064559],[-1.50319888,47.45052912],[-1.50181828,47.4495556],[-1.50166135,47.44942824],[-1.50144459,47.44911113],[-1.50130666,47.44868819],[-1.50044054,47.44498079],[-1.50157475,47.44501803],[-1.50284545,47.44512932],[-1.50412723,47.44545115],[-1.50412029,47.44557404],[-1.50493466,47.44594824],[-1.50594553,47.44611464],[-1.50741793,47.44593765],[-1.50804029,47.44597304],[-1.50885802,47.44526689],[-1.50930793,47.44543248],[-1.50984385,47.44576695],[-1.51040668,47.44654668],[-1.51200613,47.44743497],[-1.51314249,47.44648832],[-1.51362821,47.44614847],[-1.51389738,47.44587294],[-1.51504334,47.44428481],[-1.51544609,47.4443954],[-1.51620555,47.44315768],[-1.51625933,47.4429446],[-1.51609262,47.44215041],[-1.51624306,47.44138176],[-1.51609912,47.4413612],[-1.5150844,47.44140061],[-1.51293295,47.44127767],[-1.51102713,47.44091523],[-1.51132466,47.43887946],[-1.51006527,47.43897972],[-1.50927658,47.43919335],[-1.50906637,47.43903289],[-1.507573,47.43894293],[-1.50683113,47.43900235],[-1.50644505,47.43888387],[-1.50664137,47.43864273],[-1.50666669,47.43851732],[-1.50627172,47.43834058],[-1.50608208,47.43796653],[-1.50574601,47.43779472],[-1.50555346,47.43749652],[-1.50457339,47.43688892],[-1.50431969,47.43668506],[-1.50418474,47.43650274],[-1.50411739,47.43630248],[-1.5038201,47.43592809],[-1.50361041,47.43578924],[-1.50334319,47.43578787],[-1.50330107,47.43170231],[-1.50342985,47.4315747],[-1.5034636,47.43165995],[-1.50351669,47.43167502],[-1.50406953,47.43162836],[-1.5053465,47.43169158],[-1.50546286,47.43166903],[-1.50689937,47.43182794],[-1.50738333,47.43061628],[-1.50723276,47.42994858],[-1.5068729,47.42902031],[-1.50732191,47.42886134],[-1.50693269,47.42865732],[-1.50706729,47.42834644],[-1.50674951,47.42829655],[-1.5064807,47.42813385],[-1.50536517,47.42784078],[-1.50562461,47.42751334],[-1.5052841,47.4273985],[-1.50447746,47.4272864],[-1.50711649,47.42372353],[-1.5072272,47.4228293],[-1.50707291,47.4225747],[-1.50545637,47.42196294],[-1.50353546,47.42136476],[-1.501908,47.4206064],[-1.50025681,47.42003919],[-1.50059577,47.41904596],[-1.49992364,47.41898363],[-1.49992526,47.41958767],[-1.49765643,47.41916336],[-1.49734891,47.41906075],[-1.49735773,47.4194346],[-1.49728826,47.41966721],[-1.49679182,47.42043118],[-1.49658897,47.42108462],[-1.49620215,47.42185697],[-1.49619529,47.42206011],[-1.49644352,47.42288003],[-1.4939405,47.42699459],[-1.49412598,47.42825424],[-1.49432957,47.42866924],[-1.49606182,47.43019907],[-1.4965323,47.43091211],[-1.49657419,47.43112599],[-1.49654395,47.43133544],[-1.49643778,47.43165332],[-1.49628579,47.43191617],[-1.49557036,47.43236852],[-1.49497789,47.43257627],[-1.49333836,47.43245211],[-1.49034819,47.43287511],[-1.4904187,47.43306624],[-1.49003562,47.43318834],[-1.48969219,47.43319709],[-1.48827788,47.43342933],[-1.48795861,47.4334092],[-1.48796696,47.43354052],[-1.4884549,47.43433586],[-1.48856634,47.4347932],[-1.48843759,47.43522285],[-1.4877169,47.43683395],[-1.4876796,47.43710228],[-1.48777963,47.43721743],[-1.48790139,47.43727495],[-1.48889872,47.43755202],[-1.48970196,47.43770133],[-1.48928767,47.43787962],[-1.48903768,47.43803624],[-1.48875257,47.43840791],[-1.48854709,47.4387783],[-1.4877089,47.43864025],[-1.48741666,47.43872096],[-1.48709618,47.43870267],[-1.48706806,47.43858925],[-1.48721245,47.43798138],[-1.48641559,47.43789221],[-1.48634238,47.43782742],[-1.48644951,47.4372823],[-1.48642214,47.43720942],[-1.48505586,47.43695378],[-1.48391637,47.43678765],[-1.48381274,47.4367087],[-1.48372364,47.43640648],[-1.48364687,47.43636255],[-1.48351956,47.43636566],[-1.48327536,47.43648057],[-1.48329023,47.43683254],[-1.484388,47.44051306],[-1.48362748,47.44050903],[-1.4836034,47.44053882],[-1.4831917,47.44051051],[-1.48311886,47.44005349],[-1.48170736,47.440052],[-1.48170863,47.44017818],[-1.48039679,47.44030358],[-1.48034073,47.44063394],[-1.4800371,47.44049957],[-1.47973933,47.44054621],[-1.47959793,47.44061928],[-1.47942679,47.44016243],[-1.4775988,47.43896335],[-1.47723386,47.43865191],[-1.47684603,47.43800324],[-1.47643441,47.43775311],[-1.47719921,47.4374117],[-1.47729701,47.43719875],[-1.4777306,47.43706033],[-1.47780593,47.43696005],[-1.47718237,47.43605088],[-1.47631438,47.43503119],[-1.47611077,47.43432854],[-1.47546139,47.43334822],[-1.47506018,47.43025032],[-1.47482208,47.43013596],[-1.47484772,47.4296003],[-1.47446234,47.4288208],[-1.47447648,47.42865615],[-1.47480863,47.4286082],[-1.47468699,47.42770945],[-1.47517449,47.42678633],[-1.47509532,47.42661807],[-1.475647,47.42597019],[-1.47570941,47.42576312],[-1.47631605,47.42604271],[-1.4774671,47.42627067],[-1.47762851,47.42621486],[-1.47829376,47.42506669],[-1.47871306,47.42472684],[-1.47926548,47.42342161],[-1.48105022,47.42153871],[-1.48114652,47.42089573],[-1.48105684,47.42037984],[-1.48116645,47.42005463],[-1.48202592,47.41930829],[-1.48258152,47.41902628],[-1.48282561,47.4187049],[-1.48320117,47.41846229],[-1.48367609,47.41777224],[-1.48426225,47.41725282],[-1.48458983,47.4170878],[-1.48540265,47.41603937],[-1.4857044,47.41583567],[-1.48628059,47.41584769],[-1.48640632,47.41619088],[-1.48694363,47.41659481],[-1.48741007,47.41675532],[-1.48798783,47.41673842],[-1.48835553,47.41551511],[-1.48839079,47.41485824],[-1.48752607,47.41251308],[-1.48746804,47.41210598],[-1.48754457,47.41178293],[-1.48813118,47.41098486],[-1.48857107,47.40979932],[-1.48930618,47.4092678],[-1.49012738,47.40798908],[-1.49049518,47.40763945],[-1.49162743,47.40685542],[-1.49240758,47.40569008],[-1.49332673,47.4048205],[-1.49399771,47.40374772],[-1.49395365,47.40293793],[-1.49430023,47.4020986],[-1.49525355,47.40087784],[-1.49581639,47.40032137],[-1.49598547,47.39966203],[-1.49575647,47.39845274],[-1.49473452,47.39581706],[-1.49404328,47.39484295],[-1.49444532,47.39316203],[-1.49467347,47.39262122],[-1.49450673,47.39158354],[-1.49486324,47.39124334],[-1.49538936,47.39026631],[-1.49611056,47.3882917],[-1.49667323,47.38748186],[-1.50057087,47.3880928],[-1.50297832,47.38828622],[-1.50465468,47.38827983],[-1.50645791,47.38790331],[-1.5070256,47.3885909],[-1.50738912,47.38934502],[-1.50760761,47.39064757],[-1.50799081,47.39119354],[-1.50868523,47.3917139],[-1.50923918,47.39234792],[-1.509553,47.39317339],[-1.50953969,47.39400886],[-1.50970885,47.39426738],[-1.51022395,47.39459723],[-1.51095139,47.39487826],[-1.51302203,47.39513596],[-1.51414647,47.39563688],[-1.51456148,47.39600757],[-1.51573789,47.39630538],[-1.51609948,47.39662494],[-1.51638951,47.39711951],[-1.51681207,47.39726448],[-1.51835318,47.39752464],[-1.5187951,47.39778878],[-1.51912667,47.39786244],[-1.51930478,47.39814765],[-1.51969801,47.39829105],[-1.52027052,47.39834001],[-1.52085938,47.39862997],[-1.52176776,47.39881914],[-1.5224639,47.39872802],[-1.52384092,47.39886827],[-1.52468624,47.39876682],[-1.52685506,47.39938203],[-1.52790615,47.39883973],[-1.52865997,47.40010606],[-1.53231682,47.40391283],[-1.53479201,47.40241773],[-1.53626965,47.40216077],[-1.53680944,47.40216764],[-1.53831639,47.40271111],[-1.53889308,47.40255784],[-1.53922208,47.40261622],[-1.53936954,47.40253832],[-1.53958861,47.4025532],[-1.54007556,47.40237548],[-1.54016812,47.40238629],[-1.5402445,47.40259791],[-1.54064456,47.40258588],[-1.54105483,47.40231827],[-1.54229213,47.40217161],[-1.54280548,47.40224261],[-1.54304226,47.4021531],[-1.54337707,47.40223288],[-1.5438506,47.40214764],[-1.54442013,47.40233275],[-1.54528715,47.40234572],[-1.54550701,47.40288625],[-1.54581749,47.40321134],[-1.54575767,47.4034923],[-1.54586086,47.40392558],[-1.54655771,47.40523462],[-1.54810169,47.40572693],[-1.54919179,47.40591058],[-1.54916891,47.40659496],[-1.5484807,47.40900057],[-1.54849553,47.40934714],[-1.54963894,47.41154849],[-1.55035365,47.41215891],[-1.55035113,47.41372344],[-1.55099874,47.41387211],[-1.55199498,47.41388719],[-1.55261971,47.4136418],[-1.55372351,47.41370314],[-1.55630314,47.41401409],[-1.55674412,47.41418526],[-1.55745619,47.41415463],[-1.55810731,47.41426615],[-1.56111721,47.41535451],[-1.56254697,47.41601343],[-1.5633104,47.41619535],[-1.56368396,47.41621405],[-1.5649789,47.41613253],[-1.56702721,47.41630181],[-1.56888226,47.4163389],[-1.57003724,47.41626733],[-1.57043053,47.41578568],[-1.57075967,47.41503514],[-1.57171531,47.41435644],[-1.57244033,47.41449292],[-1.57479345,47.41463835],[-1.57493443,47.41487356],[-1.57513284,47.4148946],[-1.57497753,47.41575103],[-1.57885463,47.41667496],[-1.57893104,47.41680721],[-1.578805,47.41690234],[-1.57829225,47.41797484],[-1.57834647,47.41926125],[-1.57811341,47.41962751],[-1.57807923,47.42056392],[-1.57791902,47.42063245],[-1.57757112,47.4215668],[-1.57718245,47.42305009],[-1.57688847,47.42326365],[-1.57705889,47.42346974],[-1.57705617,47.42399734],[-1.57620962,47.42461679],[-1.57589899,47.42462],[-1.57565973,47.42531832],[-1.57472172,47.42623621],[-1.57477581,47.4264027],[-1.57509658,47.42653345],[-1.57477663,47.42669212],[-1.57551921,47.42734277],[-1.57544111,47.42770382],[-1.57508139,47.42815891],[-1.57506846,47.4284119],[-1.57462734,47.42917407],[-1.57248379,47.42831614],[-1.57131775,47.42776327],[-1.5702665,47.42688939],[-1.56910309,47.42716055],[-1.5685118,47.42744078],[-1.56805972,47.42782644],[-1.5675553,47.42843958],[-1.56431162,47.42851561],[-1.56382427,47.42968801],[-1.56328252,47.43048744],[-1.56304465,47.43067442],[-1.56239981,47.43082597],[-1.56281605,47.43125056],[-1.56446216,47.43416062],[-1.56534325,47.44059476],[-1.56535846,47.44254903],[-1.56572105,47.44309113],[-1.56669629,47.44377238],[-1.56698057,47.44409754],[-1.56702383,47.4446044],[-1.56674153,47.44528364],[-1.56653439,47.44536391],[-1.56745767,47.44560717],[-1.57034089,47.44674542],[-1.57679401,47.44953932],[-1.57776223,47.44977802],[-1.5816793,47.45042535],[-1.58362712,47.45112766]]]]}},{"type":"Feature","id":"nort_sur_erdre_441100102_agglomeration","properties":{"zoneId":"nort_sur_erdre_441100102_agglomeration","label":"Rue de Beaumont","districtCode":"441100102","arrondissementCode":"44110","colorIndex":1,"parentZoneId":"nort_sur_erdre_parent_44110_nort_sur_erdre","parentCode":"44110","parentLabel":"Nort-sur-Erdre","territoryType":"iris","source":"IGN / INSEE - Contours IRIS WFS Géoplateforme","sourceYear":"2026","officialId":"441100102","sourceCleabs":"IRIS____0000000441100102","communeCode":"44110","communeName":"Nort-sur-Erdre","irisCode":"0102","irisType":"H","officialAreaM2":3829455.921447754,"labelLng":-1.4984646666044192,"labelLat":47.43669560183334,"bbox":[-1.51625933,47.41898363,-1.47730393,47.45146937],"curationOperationId":"nort_sur_erdre-441100102-rename-rue-de-beaumont","curationRevision":1,"curationEvidenceRefs":["ign-insee-contours-iris-2026","ign-geoplateforme-toponymy-2026","guide-alpha-editorial-recovery-2026-07-14"],"curationRationale":"The exact official IGN BD TOPO named road has a deterministic evidence point strictly inside this exact IRIS. The 1:1 label is emitted without nearest assignment, invented geometry, split or dropped source cell.","semanticLabelReviewed":true,"semanticLabelAccepted":false,"semanticResolution":"rename"},"geometry":{"type":"MultiPolygon","coordinates":[[[[-1.47957445,47.44532401],[-1.47970235,47.4451054],[-1.47838908,47.44416689],[-1.47730393,47.44309517],[-1.47743312,47.44273315],[-1.47965968,47.44167452],[-1.47969533,47.4408779],[-1.47959793,47.44061928],[-1.47973933,47.44054621],[-1.4800371,47.44049957],[-1.48034073,47.44063394],[-1.48039679,47.44030358],[-1.48170863,47.44017818],[-1.48170736,47.440052],[-1.48311886,47.44005349],[-1.4831917,47.44051051],[-1.4836034,47.44053882],[-1.48362748,47.44050903],[-1.484388,47.44051306],[-1.48329023,47.43683254],[-1.48327536,47.43648057],[-1.48351956,47.43636566],[-1.48364687,47.43636255],[-1.48372364,47.43640648],[-1.48381274,47.4367087],[-1.48391637,47.43678765],[-1.48505586,47.43695378],[-1.48642214,47.43720942],[-1.48644951,47.4372823],[-1.48634238,47.43782742],[-1.48641559,47.43789221],[-1.48721245,47.43798138],[-1.48706806,47.43858925],[-1.48709618,47.43870267],[-1.48741666,47.43872096],[-1.4877089,47.43864025],[-1.48854709,47.4387783],[-1.48875257,47.43840791],[-1.48903768,47.43803624],[-1.48928767,47.43787962],[-1.48970196,47.43770133],[-1.48889872,47.43755202],[-1.48790139,47.43727495],[-1.48777963,47.43721743],[-1.4876796,47.43710228],[-1.4877169,47.43683395],[-1.48843759,47.43522285],[-1.48856634,47.4347932],[-1.4884549,47.43433586],[-1.48796696,47.43354052],[-1.48795861,47.4334092],[-1.48827788,47.43342933],[-1.48969219,47.43319709],[-1.49003562,47.43318834],[-1.4904187,47.43306624],[-1.49034819,47.43287511],[-1.49333836,47.43245211],[-1.49497789,47.43257627],[-1.49557036,47.43236852],[-1.49628579,47.43191617],[-1.49643778,47.43165332],[-1.49654395,47.43133544],[-1.49657419,47.43112599],[-1.4965323,47.43091211],[-1.49606182,47.43019907],[-1.49432957,47.42866924],[-1.49412598,47.42825424],[-1.4939405,47.42699459],[-1.49644352,47.42288003],[-1.49619529,47.42206011],[-1.49620215,47.42185697],[-1.49658897,47.42108462],[-1.49679182,47.42043118],[-1.49728826,47.41966721],[-1.49735773,47.4194346],[-1.49734891,47.41906075],[-1.49765643,47.41916336],[-1.49992526,47.41958767],[-1.49992364,47.41898363],[-1.50059577,47.41904596],[-1.50025681,47.42003919],[-1.501908,47.4206064],[-1.50353546,47.42136476],[-1.50545637,47.42196294],[-1.50707291,47.4225747],[-1.5072272,47.4228293],[-1.50711649,47.42372353],[-1.50447746,47.4272864],[-1.5052841,47.4273985],[-1.50562461,47.42751334],[-1.50536517,47.42784078],[-1.5064807,47.42813385],[-1.50674951,47.42829655],[-1.50706729,47.42834644],[-1.50693269,47.42865732],[-1.50732191,47.42886134],[-1.5068729,47.42902031],[-1.50723276,47.42994858],[-1.50738333,47.43061628],[-1.50689937,47.43182794],[-1.50546286,47.43166903],[-1.5053465,47.43169158],[-1.50406953,47.43162836],[-1.50351669,47.43167502],[-1.5034636,47.43165995],[-1.50342985,47.4315747],[-1.50330107,47.43170231],[-1.50334319,47.43578787],[-1.50361041,47.43578924],[-1.5038201,47.43592809],[-1.50411739,47.43630248],[-1.50418474,47.43650274],[-1.50431969,47.43668506],[-1.50457339,47.43688892],[-1.50555346,47.43749652],[-1.50574601,47.43779472],[-1.50608208,47.43796653],[-1.50627172,47.43834058],[-1.50666669,47.43851732],[-1.50664137,47.43864273],[-1.50644505,47.43888387],[-1.50683113,47.43900235],[-1.507573,47.43894293],[-1.50906637,47.43903289],[-1.50927658,47.43919335],[-1.51006527,47.43897972],[-1.51132466,47.43887946],[-1.51102713,47.44091523],[-1.51293295,47.44127767],[-1.5150844,47.44140061],[-1.51609912,47.4413612],[-1.51624306,47.44138176],[-1.51609262,47.44215041],[-1.51625933,47.4429446],[-1.51620555,47.44315768],[-1.51544609,47.4443954],[-1.51504334,47.44428481],[-1.51389738,47.44587294],[-1.51362821,47.44614847],[-1.51314249,47.44648832],[-1.51200613,47.44743497],[-1.51040668,47.44654668],[-1.50984385,47.44576695],[-1.50930793,47.44543248],[-1.50885802,47.44526689],[-1.50804029,47.44597304],[-1.50741793,47.44593765],[-1.50594553,47.44611464],[-1.50493466,47.44594824],[-1.50412029,47.44557404],[-1.50412723,47.44545115],[-1.50284545,47.44512932],[-1.50157475,47.44501803],[-1.50044054,47.44498079],[-1.50130666,47.44868819],[-1.50144459,47.44911113],[-1.50166135,47.44942824],[-1.50181828,47.4495556],[-1.50319888,47.45052912],[-1.50298536,47.45064559],[-1.50255521,47.45073077],[-1.50055029,47.45094724],[-1.49855793,47.45109195],[-1.49832196,47.45121018],[-1.4980779,47.45146937],[-1.49796975,47.45095782],[-1.49631353,47.45062605],[-1.49648056,47.45020934],[-1.49717781,47.44937992],[-1.49743821,47.44898304],[-1.49843992,47.44704814],[-1.49608966,47.44622206],[-1.49644155,47.44575944],[-1.49711411,47.44455768],[-1.49554775,47.44423325],[-1.49497953,47.44378186],[-1.49477004,47.44370881],[-1.49523143,47.44292007],[-1.49592158,47.44221264],[-1.49626932,47.44171681],[-1.49648863,47.44108439],[-1.49632309,47.44107547],[-1.49620026,47.44094227],[-1.49446327,47.44068934],[-1.49412442,47.44129121],[-1.49397078,47.4420888],[-1.49372731,47.44262387],[-1.49343356,47.44293997],[-1.49232708,47.4435174],[-1.49191461,47.44384441],[-1.49163539,47.44411216],[-1.49092252,47.44505667],[-1.49041945,47.44550798],[-1.49020576,47.44557484],[-1.48958546,47.44564297],[-1.48941484,47.44560538],[-1.48914198,47.44545813],[-1.48896641,47.44526655],[-1.48886172,47.44503256],[-1.48886524,47.4444725],[-1.48880521,47.44415294],[-1.48858282,47.44387841],[-1.48842816,47.44376175],[-1.48829007,47.44368413],[-1.48802896,47.44362929],[-1.48709416,47.44376636],[-1.48553303,47.44393118],[-1.48496801,47.44391331],[-1.4842328,47.44408503],[-1.48405174,47.44404963],[-1.48390805,47.44388927],[-1.48336811,47.44382173],[-1.4823323,47.4438797],[-1.48114151,47.44438814],[-1.48064769,47.44487151],[-1.47957445,47.44532401]]]]}}]}
