{"type":"FeatureCollection","metadata":{"generatedAt":"2026-07-14T18:56:03.503Z","source":"IGN / INSEE - Contours IRIS WFS Géoplateforme","datasetId":"STATISTICALUNITS.IRIS:contours_iris","datasetUrl":"https://geoservices.ign.fr/contoursiris","sourceFileUrl":"https://data.geopf.fr/wfs/ows?SERVICE=WFS&VERSION=2.0.0&REQUEST=GetFeature&TYPENAMES=STATISTICALUNITS.IRIS%3Acontours_iris&OUTPUTFORMAT=application%2Fjson&COUNT=1000&CQL_FILTER=code_insee%3D%2708328%27&SRSNAME=EPSG%3A4326","license":"Licence Ouverte / Open Licence 2.0","sourceYear":"2026","communeCode":"08328","communeName":"Nouzonville","featureCount":3,"parentCount":1,"parentContract":"technical commune group; not selectable and not displayed as a district","sourceFeatureCount":3,"humanLabelContract":"one visible plate per unique official human place name","groupingContract":"only exact source-ID groups approved by the resolved curation, or source zones sharing the same official name and parent, are merged","groupedZoneCount":0,"groupedSourceFeatureCount":0,"curationStatus":"resolved","curationRevision":1,"curationSources":[{"id":"ign-insee-contours-iris-2026","provider":"IGN / INSEE - Contours IRIS WFS Géoplateforme","datasetUrl":"https://geoservices.ign.fr/contoursiris","role":"official geometry, source identifiers and source labels","vintage":"2026","license":"Licence Ouverte / Open Licence 2.0"},{"id":"ign-geoplateforme-toponymy-2026","provider":"IGN Géoplateforme - reverse geocoding, addresses and named places","datasetUrl":"https://geoservices.ign.fr/geocodage-geoplateforme","role":"official address, street and named-place evidence","vintage":"2026","license":"Licence Ouverte / Open Licence 2.0"},{"id":"guide-alpha-editorial-recovery-2026-07-14","provider":"Meewav Guide Alpha editorial review","datasetUrl":"docs/geospatial/france-semantic-recovery.md","role":"versioned mapping of exact official IRIS identifiers to coherent human place names","vintage":"2026-07-14","license":"Project documentation"}],"sourceCorrections":[{"operationId":"nouzonville-083280101-rename-meillier-fontaine","type":"rename","sourceIds":["083280101"],"expectedLabels":["Ouest"],"outputLabel":"Meillier-Fontaine","evidenceRefs":["ign-insee-contours-iris-2026","ign-geoplateforme-toponymy-2026","guide-alpha-editorial-recovery-2026-07-14"],"rationale":"The exact official IGN BD TOPO habitation toponym has a deterministic evidence point strictly inside this exact IRIS. The 1:1 label is emitted without nearest assignment, invented geometry, split or dropped source cell."},{"operationId":"nouzonville-083280102-rename-rue-jules-fuzelier","type":"rename","sourceIds":["083280102"],"expectedLabels":["Centre"],"outputLabel":"Rue Jules Fuzelier","evidenceRefs":["ign-insee-contours-iris-2026","ign-geoplateforme-toponymy-2026","guide-alpha-editorial-recovery-2026-07-14"],"rationale":"The exact official IGN BD TOPO named road has a deterministic evidence point strictly inside this exact IRIS. The 1:1 label is emitted without nearest assignment, invented geometry, split or dropped source cell."},{"operationId":"nouzonville-083280103-rename-rue-de-lorraine","type":"rename","sourceIds":["083280103"],"expectedLabels":["Est"],"outputLabel":"Rue de Lorraine","evidenceRefs":["ign-insee-contours-iris-2026","ign-geoplateforme-toponymy-2026","guide-alpha-editorial-recovery-2026-07-14"],"rationale":"The exact official IGN BD TOPO named road has a deterministic evidence point strictly inside this exact IRIS. The 1:1 label is emitted without nearest assignment, invented geometry, split or dropped source cell."}],"bbox":[4.702848,49.79174781,4.80467245,49.84313043],"areaStatsM2":{"minimum":1689012.0893554688,"average":3633549.4881591797,"maximum":5858703.09375}},"features":[{"type":"Feature","id":"nouzonville_083280101_ouest","properties":{"zoneId":"nouzonville_083280101_ouest","label":"Meillier-Fontaine","districtCode":"083280101","arrondissementCode":"08328","colorIndex":0,"parentZoneId":"nouzonville_parent_08328_nouzonville","parentCode":"08328","parentLabel":"Nouzonville","territoryType":"iris","source":"IGN / INSEE - Contours IRIS WFS Géoplateforme","sourceYear":"2026","officialId":"083280101","sourceCleabs":"IRIS____0000000083280101","communeCode":"08328","communeName":"Nouzonville","irisCode":"0101","irisType":"H","officialAreaM2":3352933.2813720703,"labelLng":4.71207022761707,"labelLat":49.833145385587606,"bbox":[4.702848,49.80439722,4.75061888,49.84313043],"curationOperationId":"nouzonville-083280101-rename-meillier-fontaine","curationRevision":1,"curationEvidenceRefs":["ign-insee-contours-iris-2026","ign-geoplateforme-toponymy-2026","guide-alpha-editorial-recovery-2026-07-14"],"curationRationale":"The exact official IGN BD TOPO habitation toponym has a deterministic evidence point strictly inside this exact IRIS. The 1:1 label is emitted without nearest assignment, invented geometry, split or dropped source cell.","semanticLabelReviewed":true,"semanticLabelAccepted":false,"semanticResolution":"rename"},"geometry":{"type":"MultiPolygon","coordinates":[[[[4.74171849,49.80894905],[4.74120178,49.80943361],[4.74048581,49.81034695],[4.73943384,49.81199657],[4.73468505,49.81160319],[4.73477772,49.81003825],[4.73504076,49.80829744],[4.73552455,49.80716906],[4.73637596,49.80439722],[4.73407902,49.80524496],[4.73185669,49.80555151],[4.72954786,49.80629779],[4.72925344,49.80650146],[4.72865091,49.8067095],[4.72714349,49.80783438],[4.72494381,49.80902204],[4.72438275,49.80959611],[4.72352817,49.81180175],[4.72355401,49.81355551],[4.72334207,49.81476536],[4.72339564,49.81524177],[4.72358884,49.81574048],[4.72384295,49.81606848],[4.72452029,49.81642735],[4.72545198,49.81707916],[4.72660243,49.81766946],[4.72774708,49.81808729],[4.7293475,49.81851123],[4.72946492,49.81861561],[4.72953363,49.81892196],[4.72931204,49.82037638],[4.73036381,49.82022308],[4.73129856,49.81993664],[4.73224619,49.81986658],[4.73391651,49.81940073],[4.73467053,49.81931453],[4.7358898,49.81865558],[4.73806805,49.8180171],[4.73827425,49.81836283],[4.73913022,49.81841623],[4.73903646,49.8197008],[4.7396791,49.8201778],[4.74145991,49.82010297],[4.74160833,49.8204639],[4.74127684,49.82051806],[4.74144653,49.82081038],[4.7417249,49.8207462],[4.74254584,49.82266203],[4.74268709,49.82273101],[4.74459837,49.82614811],[4.74606014,49.82839622],[4.74811767,49.83225778],[4.74836088,49.83230102],[4.74892523,49.8321887],[4.74920113,49.83241569],[4.75061888,49.83207186],[4.75039359,49.83182168],[4.74860666,49.82925479],[4.74727165,49.82746769],[4.74624655,49.8257633],[4.74550687,49.82480786],[4.74489971,49.82370585],[4.74460608,49.82279525],[4.74414852,49.82192383],[4.74323835,49.81971453],[4.74236691,49.81831254],[4.74192462,49.8177644],[4.74102732,49.81641668],[4.74053629,49.8148448],[4.74022147,49.81404231],[4.74008639,49.81354191],[4.74007569,49.81330931],[4.74027107,49.81215538],[4.74090346,49.8108667],[4.74168856,49.8098634],[4.7439005,49.80774336],[4.74171849,49.80894905]]],[[[4.71258377,49.82422294],[4.71196614,49.82448592],[4.71166138,49.82471754],[4.71112792,49.82463247],[4.71003989,49.82486877],[4.70938375,49.82493638],[4.70861287,49.82531111],[4.70835346,49.82569486],[4.70821555,49.82572464],[4.70789968,49.82633113],[4.70813972,49.82694602],[4.70750109,49.82699809],[4.70713088,49.82739236],[4.70671244,49.82759052],[4.70622093,49.82788854],[4.70587835,49.82798768],[4.70561124,49.82830863],[4.70520731,49.82848411],[4.70529965,49.82862839],[4.70450897,49.82874547],[4.70391469,49.82892001],[4.70289579,49.82935838],[4.702848,49.82959178],[4.70330879,49.83070412],[4.70337951,49.83099158],[4.70319244,49.83138059],[4.70347402,49.83182596],[4.70347159,49.83200302],[4.70416305,49.83232496],[4.70440638,49.83262259],[4.7048191,49.83270938],[4.70573942,49.8332276],[4.70604877,49.83354677],[4.70621423,49.83429929],[4.70692514,49.83466137],[4.70697773,49.83482148],[4.70754743,49.83519811],[4.70779369,49.8354993],[4.70779843,49.83584878],[4.70807987,49.8364541],[4.70797086,49.83701635],[4.70762701,49.83766096],[4.70725612,49.83791237],[4.70624416,49.83818891],[4.70584728,49.83836968],[4.70565758,49.83855564],[4.70551908,49.83894308],[4.70414278,49.83925254],[4.70480397,49.84116181],[4.70494272,49.84111405],[4.70591471,49.84230099],[4.70629751,49.84265418],[4.70796835,49.84313043],[4.71168478,49.84153909],[4.71244772,49.84133519],[4.71285643,49.84167272],[4.71530149,49.83963272],[4.71576012,49.83905746],[4.71789993,49.83716098],[4.71852594,49.83640003],[4.71879179,49.83591913],[4.71983088,49.8351317],[4.71996704,49.83476045],[4.72069328,49.8345022],[4.72097983,49.83401831],[4.72163707,49.83365049],[4.7218635,49.83336154],[4.7243076,49.83337287],[4.72537645,49.83293542],[4.72672894,49.83262874],[4.72559912,49.83249465],[4.71952104,49.83228389],[4.71763645,49.83184764],[4.71885492,49.82999373],[4.72071194,49.8290366],[4.72067909,49.82892744],[4.72037814,49.82877712],[4.71835564,49.82824308],[4.71812066,49.8281125],[4.71747292,49.82739823],[4.71708167,49.82625531],[4.71664887,49.82577704],[4.71632576,49.8257106],[4.71626507,49.82547512],[4.71592271,49.82520765],[4.71501985,49.82475306],[4.71464446,49.82437014],[4.71444037,49.82429033],[4.71423261,49.82397694],[4.71290996,49.82351205],[4.71258377,49.82422294]]]]}},{"type":"Feature","id":"nouzonville_083280102_centre","properties":{"zoneId":"nouzonville_083280102_centre","label":"Rue Jules Fuzelier","districtCode":"083280102","arrondissementCode":"08328","colorIndex":1,"parentZoneId":"nouzonville_parent_08328_nouzonville","parentCode":"08328","parentLabel":"Nouzonville","territoryType":"iris","source":"IGN / INSEE - Contours IRIS WFS Géoplateforme","sourceYear":"2026","officialId":"083280102","sourceCleabs":"IRIS____0000000083280102","communeCode":"08328","communeName":"Nouzonville","irisCode":"0102","irisType":"H","officialAreaM2":1689012.0893554688,"labelLng":4.748527482213968,"labelLat":49.817715244664164,"bbox":[4.74007569,49.80226068,4.76582627,49.83207186],"curationOperationId":"nouzonville-083280102-rename-rue-jules-fuzelier","curationRevision":1,"curationEvidenceRefs":["ign-insee-contours-iris-2026","ign-geoplateforme-toponymy-2026","guide-alpha-editorial-recovery-2026-07-14"],"curationRationale":"The exact official IGN BD TOPO named road has a deterministic evidence point strictly inside this exact IRIS. The 1:1 label is emitted without nearest assignment, invented geometry, split or dropped source cell.","semanticLabelReviewed":true,"semanticLabelAccepted":false,"semanticResolution":"rename"},"geometry":{"type":"MultiPolygon","coordinates":[[[[4.75268265,49.80226068],[4.75024502,49.80353042],[4.74935973,49.80419554],[4.74752233,49.80523824],[4.74587893,49.80631228],[4.74434665,49.80734877],[4.7439005,49.80774336],[4.74168856,49.8098634],[4.74090346,49.8108667],[4.74027107,49.81215538],[4.74007569,49.81330931],[4.74008639,49.81354191],[4.74022147,49.81404231],[4.74053629,49.8148448],[4.74102732,49.81641668],[4.74192462,49.8177644],[4.74236691,49.81831254],[4.74323835,49.81971453],[4.74414852,49.82192383],[4.74460608,49.82279525],[4.74489971,49.82370585],[4.74550687,49.82480786],[4.74624655,49.8257633],[4.74727165,49.82746769],[4.74860666,49.82925479],[4.75039359,49.83182168],[4.75061888,49.83207186],[4.75175634,49.83181921],[4.75089313,49.83087277],[4.75016899,49.82988928],[4.74987419,49.82919169],[4.74959946,49.82891706],[4.74958435,49.82815165],[4.74985073,49.82761495],[4.75168025,49.82717085],[4.75137134,49.82675023],[4.75186405,49.82661646],[4.75210957,49.82616092],[4.75527451,49.82516829],[4.75744786,49.82458796],[4.75813762,49.82457083],[4.75923838,49.82466999],[4.76239637,49.8252939],[4.76367957,49.82532569],[4.76396736,49.82529277],[4.76416236,49.82518751],[4.76452776,49.82478773],[4.76496877,49.8244857],[4.76580814,49.82437651],[4.76582627,49.82417765],[4.76337583,49.82409177],[4.76288675,49.82400718],[4.76146529,49.82342922],[4.76049757,49.82324009],[4.75913121,49.82272781],[4.75859127,49.8233844],[4.75616421,49.82244164],[4.75490092,49.8220168],[4.75423251,49.82168403],[4.75360726,49.82123292],[4.75257888,49.82012351],[4.7523292,49.8197281],[4.75211354,49.81878584],[4.75202656,49.81859838],[4.75163481,49.81806932],[4.75114425,49.81716964],[4.75042808,49.81657514],[4.75005681,49.81639984],[4.74905877,49.8155227],[4.74885764,49.8156514],[4.74811774,49.81545801],[4.74795076,49.8155296],[4.74809817,49.8157791],[4.74786622,49.81585971],[4.74584208,49.81596237],[4.74573149,49.81585522],[4.74557876,49.81516546],[4.74589103,49.81511876],[4.74593737,49.81505249],[4.74712609,49.8148881],[4.74786266,49.81498449],[4.74921787,49.81538293],[4.75005779,49.81573933],[4.75074914,49.81613649],[4.75160383,49.81599123],[4.75192299,49.81569998],[4.75276928,49.81454117],[4.75369129,49.81312155],[4.75322128,49.81290095],[4.75203419,49.8124633],[4.75090681,49.81198433],[4.7506549,49.81196818],[4.74789187,49.8112107],[4.74666511,49.81091015],[4.74650101,49.8107813],[4.74666144,49.81031531],[4.74711948,49.80982169],[4.74761688,49.80918012],[4.74794117,49.80887713],[4.74888238,49.80740874],[4.74898309,49.80730845],[4.75000912,49.80681835],[4.74914879,49.80655121],[4.74872573,49.80636137],[4.75179662,49.80415787],[4.75166901,49.80404018],[4.7536829,49.80264171],[4.75268265,49.80226068]]]]}},{"type":"Feature","id":"nouzonville_083280103_est","properties":{"zoneId":"nouzonville_083280103_est","label":"Rue de Lorraine","districtCode":"083280103","arrondissementCode":"08328","colorIndex":2,"parentZoneId":"nouzonville_parent_08328_nouzonville","parentCode":"08328","parentLabel":"Nouzonville","territoryType":"iris","source":"IGN / INSEE - Contours IRIS WFS Géoplateforme","sourceYear":"2026","officialId":"083280103","sourceCleabs":"IRIS____0000000083280103","communeCode":"08328","communeName":"Nouzonville","irisCode":"0103","irisType":"H","officialAreaM2":5858703.09375,"labelLng":4.772864922825386,"labelLat":49.81845083951391,"bbox":[4.74557876,49.79174781,4.80467245,49.83717324],"curationOperationId":"nouzonville-083280103-rename-rue-de-lorraine","curationRevision":1,"curationEvidenceRefs":["ign-insee-contours-iris-2026","ign-geoplateforme-toponymy-2026","guide-alpha-editorial-recovery-2026-07-14"],"curationRationale":"The exact official IGN BD TOPO named road has a deterministic evidence point strictly inside this exact IRIS. The 1:1 label is emitted without nearest assignment, invented geometry, split or dropped source cell.","semanticLabelReviewed":true,"semanticLabelAccepted":false,"semanticResolution":"rename"},"geometry":{"type":"MultiPolygon","coordinates":[[[[4.7809083,49.8070838],[4.77984942,49.80710105],[4.7786527,49.80730722],[4.77704559,49.80745196],[4.77112815,49.80939462],[4.77046045,49.80956157],[4.77023567,49.80948665],[4.76685684,49.81373499],[4.76604451,49.81357691],[4.76568753,49.81341403],[4.76353092,49.81144575],[4.76228646,49.8105543],[4.76023886,49.80839747],[4.75974023,49.8081117],[4.75970814,49.80798635],[4.75586273,49.80599465],[4.75876424,49.80351842],[4.75889704,49.80326219],[4.75915416,49.8033097],[4.76337164,49.79942774],[4.76033625,49.79760148],[4.76106488,49.79594283],[4.76142491,49.7957552],[4.76198487,49.79492394],[4.76169214,49.79174781],[4.76093106,49.7918981],[4.75813412,49.79198429],[4.75832467,49.79364945],[4.75820431,49.79636513],[4.75811485,49.79800197],[4.75802808,49.79850647],[4.75777807,49.79906814],[4.75735896,49.79959809],[4.75690438,49.79998477],[4.75550617,49.80091074],[4.75301118,49.80216429],[4.75268265,49.80226068],[4.7536829,49.80264171],[4.75166901,49.80404018],[4.75179662,49.80415787],[4.74872573,49.80636137],[4.74914879,49.80655121],[4.75000912,49.80681835],[4.74898309,49.80730845],[4.74888238,49.80740874],[4.74794117,49.80887713],[4.74761688,49.80918012],[4.74711948,49.80982169],[4.74666144,49.81031531],[4.74650101,49.8107813],[4.74666511,49.81091015],[4.74789187,49.8112107],[4.7506549,49.81196818],[4.75090681,49.81198433],[4.75203419,49.8124633],[4.75322128,49.81290095],[4.75369129,49.81312155],[4.75276928,49.81454117],[4.75192299,49.81569998],[4.75160383,49.81599123],[4.75074914,49.81613649],[4.75005779,49.81573933],[4.74921787,49.81538293],[4.74786266,49.81498449],[4.74712609,49.8148881],[4.74593737,49.81505249],[4.74589103,49.81511876],[4.74557876,49.81516546],[4.74573149,49.81585522],[4.74584208,49.81596237],[4.74786622,49.81585971],[4.74809817,49.8157791],[4.74795076,49.8155296],[4.74811774,49.81545801],[4.74885764,49.8156514],[4.74905877,49.8155227],[4.75005681,49.81639984],[4.75042808,49.81657514],[4.75114425,49.81716964],[4.75163481,49.81806932],[4.75202656,49.81859838],[4.75211354,49.81878584],[4.7523292,49.8197281],[4.75257888,49.82012351],[4.75360726,49.82123292],[4.75423251,49.82168403],[4.75490092,49.8220168],[4.75616421,49.82244164],[4.75859127,49.8233844],[4.75913121,49.82272781],[4.76049757,49.82324009],[4.76146529,49.82342922],[4.76288675,49.82400718],[4.76337583,49.82409177],[4.76582627,49.82417765],[4.76580814,49.82437651],[4.76676532,49.82421977],[4.77246998,49.8252172],[4.77293778,49.82524815],[4.77485554,49.82491294],[4.77394493,49.82289079],[4.77763521,49.822563],[4.77984498,49.82299808],[4.78094876,49.82330279],[4.78135962,49.82349359],[4.78373027,49.82475479],[4.78534027,49.82551216],[4.782477,49.82629718],[4.78263605,49.82703353],[4.78316162,49.82736554],[4.78351032,49.82772438],[4.78440123,49.82877174],[4.7845364,49.82918134],[4.78518495,49.83001027],[4.78564673,49.83026502],[4.7865743,49.83136484],[4.78709695,49.8325245],[4.78763569,49.83334964],[4.78785301,49.83431876],[4.78770155,49.8348341],[4.78817358,49.83466543],[4.7880424,49.83611683],[4.78829672,49.83711057],[4.79315208,49.83717324],[4.79312733,49.83710171],[4.79712206,49.83710766],[4.8043239,49.83692773],[4.80428712,49.83624083],[4.80438834,49.83592032],[4.80428742,49.83518764],[4.8046509,49.83442562],[4.80467245,49.83318789],[4.80413905,49.83201049],[4.80326537,49.83091359],[4.80297489,49.83075253],[4.80259056,49.8301759],[4.80275345,49.82979247],[4.8016454,49.82968932],[4.80141071,49.82945554],[4.80105744,49.82940414],[4.79977693,49.82945269],[4.79982846,49.8297323],[4.79612927,49.82910743],[4.79560339,49.82892736],[4.79573617,49.82867379],[4.79565087,49.82849981],[4.79466561,49.8284505],[4.79401396,49.82832798],[4.79300931,49.82780536],[4.79292471,49.82769068],[4.79233032,49.82745768],[4.79232606,49.82733643],[4.79205747,49.82728286],[4.79200951,49.82714338],[4.79163781,49.82700146],[4.79144174,49.82679765],[4.7914115,49.82645033],[4.79108788,49.82581795],[4.79114476,49.82553854],[4.79079917,49.82479415],[4.79099184,49.82422788],[4.7907612,49.82406771],[4.79066723,49.82324953],[4.79027309,49.82234769],[4.79026724,49.82210155],[4.7905016,49.82173417],[4.79028437,49.82167894],[4.79016529,49.82137246],[4.78951484,49.82092459],[4.78959581,49.82089645],[4.78942009,49.82067796],[4.78910635,49.82060348],[4.78883308,49.82041518],[4.78864548,49.82013485],[4.78866667,49.81994673],[4.78830812,49.81958354],[4.78728412,49.81893805],[4.7870514,49.81859817],[4.78705408,49.8183573],[4.78672726,49.81838455],[4.78648033,49.81811498],[4.78616701,49.81797219],[4.78573935,49.81729998],[4.78446621,49.81627888],[4.78436504,49.81608625],[4.78414459,49.81605712],[4.78330004,49.81553568],[4.78081839,49.81609763],[4.78022127,49.81602007],[4.78053056,49.81580887],[4.7803184,49.8154597],[4.77986726,49.81506728],[4.77869484,49.81370317],[4.7780048,49.81251084],[4.77882075,49.81181508],[4.77944647,49.81076173],[4.78013214,49.81003461],[4.78075736,49.80900821],[4.78099704,49.80811595],[4.7809083,49.8070838]]]]}}]}
