{"type":"FeatureCollection","metadata":{"generatedAt":"2026-07-14T18:44:51.980Z","source":"IGN / INSEE - Contours IRIS WFS Géoplateforme","datasetId":"STATISTICALUNITS.IRIS:contours_iris","datasetUrl":"https://geoservices.ign.fr/contoursiris","sourceFileUrl":"https://data.geopf.fr/wfs/ows?SERVICE=WFS&VERSION=2.0.0&REQUEST=GetFeature&TYPENAMES=STATISTICALUNITS.IRIS%3Acontours_iris&OUTPUTFORMAT=application%2Fjson&COUNT=1000&CQL_FILTER=code_insee%3D%2762637%27&SRSNAME=EPSG%3A4326","license":"Licence Ouverte / Open Licence 2.0","sourceYear":"2026","communeCode":"62637","communeName":"Oignies","featureCount":5,"parentCount":1,"parentContract":"technical commune group; not selectable and not displayed as a district","bbox":[2.9646092,50.45213237,3.01887509,50.47516252],"areaStatsM2":{"minimum":586738.1392822266,"average":1090617.9633789062,"maximum":2220832.952758789}},"features":[{"type":"Feature","id":"oignies_626370101_declercq_bonniers_verger","properties":{"zoneId":"oignies_626370101_declercq_bonniers_verger","label":"Declercq-Bonniers-Verger","districtCode":"626370101","arrondissementCode":"62637","colorIndex":0,"parentZoneId":"oignies_parent_62637_oignies","parentCode":"62637","parentLabel":"Oignies","territoryType":"iris","source":"IGN / INSEE - Contours IRIS WFS Géoplateforme","sourceYear":"2026","officialId":"626370101","sourceCleabs":"IRIS____0000000626370101","communeCode":"62637","communeName":"Oignies","irisCode":"0101","irisType":"H","officialAreaM2":2220832.952758789,"labelLng":2.9823242572821616,"labelLat":50.46393667812824,"bbox":[2.9646092,50.45530248,2.99686565,50.47224105]},"geometry":{"type":"MultiPolygon","coordinates":[[[[2.98287981,50.45931787],[2.98011882,50.46099517],[2.97207935,50.45609961],[2.97152627,50.45694866],[2.97236204,50.46110768],[2.97230237,50.46221358],[2.97164709,50.46465054],[2.97086593,50.46576703],[2.96808584,50.46755894],[2.96562221,50.46903759],[2.9646092,50.46955794],[2.97225901,50.46944679],[2.97227959,50.47038483],[2.97522355,50.46999947],[2.97543713,50.47042768],[2.97736277,50.47006451],[2.97787456,50.47043802],[2.97817974,50.47051976],[2.9788392,50.47095882],[2.98137183,50.47224105],[2.98168552,50.47214864],[2.98189369,50.47212982],[2.98301079,50.47121439],[2.9835749,50.4708985],[2.98396596,50.47074236],[2.98505046,50.47044358],[2.98626579,50.46995451],[2.98672574,50.46985402],[2.98786782,50.46974642],[2.98843042,50.46965043],[2.98937001,50.46934083],[2.99009721,50.46903838],[2.99032931,50.46884451],[2.9903181,50.46862818],[2.99040532,50.46847469],[2.99054458,50.46836698],[2.99085121,50.46821351],[2.99138146,50.46807082],[2.99181046,50.46777194],[2.99196382,50.46742366],[2.991871,50.46738775],[2.99194697,50.46726747],[2.99149002,50.46645687],[2.99115398,50.46598558],[2.99115682,50.46584375],[2.99184603,50.46525494],[2.9929136,50.46415629],[2.99311193,50.46386098],[2.99347486,50.46308722],[2.99461549,50.46178748],[2.99482503,50.46164297],[2.99484333,50.46150563],[2.99523431,50.46095359],[2.99611608,50.46014304],[2.99643812,50.45977681],[2.99686565,50.45904523],[2.99633555,50.4586682],[2.99617386,50.45846712],[2.99589686,50.45829387],[2.99463145,50.45716277],[2.99416469,50.45654247],[2.99411551,50.4563028],[2.99393698,50.45592218],[2.9938864,50.45562056],[2.99377111,50.45551643],[2.99241405,50.45689605],[2.99179817,50.45689691],[2.98930126,50.45530248],[2.98772634,50.45583644],[2.98764904,50.45570268],[2.98539738,50.4575157],[2.98595809,50.45873479],[2.98477111,50.45933069],[2.98395573,50.45868068],[2.98287981,50.45931787]]]]}},{"type":"Feature","id":"oignies_626370102_turelle_centre_ville","properties":{"zoneId":"oignies_626370102_turelle_centre_ville","label":"Turelle-Centre Ville","districtCode":"626370102","arrondissementCode":"62637","colorIndex":1,"parentZoneId":"oignies_parent_62637_oignies","parentCode":"62637","parentLabel":"Oignies","territoryType":"iris","source":"IGN / INSEE - Contours IRIS WFS Géoplateforme","sourceYear":"2026","officialId":"626370102","sourceCleabs":"IRIS____0000000626370102","communeCode":"62637","communeName":"Oignies","irisCode":"0102","irisType":"H","officialAreaM2":867096.8912353516,"labelLng":2.9939124069661878,"labelLat":50.47121240825334,"bbox":[2.97853022,50.46726747,3.00662207,50.47516252]},"geometry":{"type":"MultiPolygon","coordinates":[[[[2.98137183,50.47224105],[2.980079,50.47279738],[2.97893679,50.47301891],[2.97853022,50.47320196],[2.97926082,50.47516252],[2.98548838,50.47356921],[2.98919446,50.4747015],[2.98826516,50.47269251],[2.99142293,50.47229332],[2.991295,50.47190374],[2.9924385,50.47195498],[2.99348639,50.47180244],[2.99437939,50.47300262],[2.99398834,50.47325394],[2.9949152,50.47392811],[2.99566769,50.47433836],[2.99593214,50.47412563],[2.99624299,50.47419745],[2.99686472,50.4739569],[2.99713762,50.47367954],[2.99879457,50.47348478],[2.9995499,50.47353325],[2.99999156,50.47338873],[3.00078345,50.47286182],[3.00106897,50.47242018],[3.00215202,50.47275588],[3.00262321,50.47255391],[3.00283136,50.47230615],[3.00538713,50.47310856],[3.00567403,50.47275398],[3.00614103,50.47294964],[3.00662207,50.47297744],[3.00626885,50.47158971],[3.00615905,50.47084378],[3.00606322,50.46927112],[3.00608566,50.46872625],[3.00589298,50.46871998],[3.0050519,50.46849919],[3.00407302,50.46836997],[3.00323056,50.46828203],[3.00236561,50.46835116],[3.00219965,50.4682623],[3.00200416,50.46832245],[3.00197885,50.46841131],[3.0004824,50.46831438],[2.99892548,50.46862227],[2.99845292,50.46865009],[2.99789597,50.46859623],[2.99700009,50.46838616],[2.99678209,50.46837],[2.99571178,50.46859796],[2.99505075,50.46867155],[2.99399742,50.46791209],[2.99355161,50.46769394],[2.99255593,50.46734471],[2.99212838,50.46732583],[2.99210589,50.46728633],[2.99194697,50.46726747],[2.991871,50.46738775],[2.99196382,50.46742366],[2.99181046,50.46777194],[2.99138146,50.46807082],[2.99085121,50.46821351],[2.99054458,50.46836698],[2.99040532,50.46847469],[2.9903181,50.46862818],[2.99032931,50.46884451],[2.99009721,50.46903838],[2.98937001,50.46934083],[2.98843042,50.46965043],[2.98786782,50.46974642],[2.98672574,50.46985402],[2.98626579,50.46995451],[2.98505046,50.47044358],[2.98396596,50.47074236],[2.9835749,50.4708985],[2.98301079,50.47121439],[2.98189369,50.47212982],[2.98168552,50.47214864],[2.98137183,50.47224105]]]]}},{"type":"Feature","id":"oignies_626370103_perdsemence","properties":{"zoneId":"oignies_626370103_perdsemence","label":"Perdsemence","districtCode":"626370103","arrondissementCode":"62637","colorIndex":2,"parentZoneId":"oignies_parent_62637_oignies","parentCode":"62637","parentLabel":"Oignies","territoryType":"iris","source":"IGN / INSEE - Contours IRIS WFS Géoplateforme","sourceYear":"2026","officialId":"626370103","sourceCleabs":"IRIS____0000000626370103","communeCode":"62637","communeName":"Oignies","irisCode":"0103","irisType":"H","officialAreaM2":1184731.6610107422,"labelLng":3.0027485528897646,"labelLat":50.463862555991355,"bbox":[2.99115398,50.45868237,3.01519782,50.46874509]},"geometry":{"type":"MultiPolygon","coordinates":[[[[3.01519782,50.46354696],[3.0148178,50.46246085],[3.01416509,50.46173742],[3.01411155,50.46136759],[3.01373733,50.46076441],[3.01356978,50.45999335],[3.01080122,50.46110132],[3.01019074,50.46023335],[3.00888702,50.45926757],[3.00786042,50.45868237],[3.00697456,50.45882246],[3.00555013,50.45891319],[3.00369402,50.45919154],[3.00289391,50.45939084],[2.9997511,50.46032084],[2.99834348,50.46067271],[2.99604286,50.4614204],[2.99482503,50.46164297],[2.99461549,50.46178748],[2.99347486,50.46308722],[2.99311193,50.46386098],[2.9929136,50.46415629],[2.99184603,50.46525494],[2.99115682,50.46584375],[2.99115398,50.46598558],[2.99149002,50.46645687],[2.99194697,50.46726747],[2.99210589,50.46728633],[2.99212838,50.46732583],[2.99255593,50.46734471],[2.99355161,50.46769394],[2.99399742,50.46791209],[2.99505075,50.46867155],[2.99571178,50.46859796],[2.99678209,50.46837],[2.99700009,50.46838616],[2.99789597,50.46859623],[2.99845292,50.46865009],[2.99892548,50.46862227],[3.0004824,50.46831438],[3.00197885,50.46841131],[3.00200416,50.46832245],[3.00219965,50.4682623],[3.00236561,50.46835116],[3.00323056,50.46828203],[3.00407302,50.46836997],[3.0050519,50.46849919],[3.00589298,50.46871998],[3.00608566,50.46872625],[3.00625865,50.46874509],[3.00647643,50.46704046],[3.00666198,50.46631874],[3.00721598,50.46550993],[3.00745081,50.46530436],[3.00760268,50.46523433],[3.00792895,50.46520738],[3.00811315,50.46505836],[3.00847737,50.46489317],[3.00912988,50.46475219],[3.01032667,50.46480596],[3.01147994,50.46514158],[3.01226189,50.46526358],[3.01400402,50.46407491],[3.0148983,50.46363047],[3.01519782,50.46354696]]]]}},{"type":"Feature","id":"oignies_626370104_justice","properties":{"zoneId":"oignies_626370104_justice","label":"Justice","districtCode":"626370104","arrondissementCode":"62637","colorIndex":3,"parentZoneId":"oignies_parent_62637_oignies","parentCode":"62637","parentLabel":"Oignies","territoryType":"iris","source":"IGN / INSEE - Contours IRIS WFS Géoplateforme","sourceYear":"2026","officialId":"626370104","sourceCleabs":"IRIS____0000000626370104","communeCode":"62637","communeName":"Oignies","irisCode":"0104","irisType":"H","officialAreaM2":593690.1726074219,"labelLng":3.0002754642743836,"labelLat":50.45671831880997,"bbox":[2.99377111,50.45213237,3.00831558,50.46164297]},"geometry":{"type":"MultiPolygon","coordinates":[[[[3.00786042,50.45868237],[3.00741182,50.45839066],[3.00692936,50.45732158],[3.0078629,50.45653967],[3.00831558,50.45599925],[2.99714587,50.45213237],[2.99377111,50.45551643],[2.9938864,50.45562056],[2.99393698,50.45592218],[2.99411551,50.4563028],[2.99416469,50.45654247],[2.99463145,50.45716277],[2.99589686,50.45829387],[2.99617386,50.45846712],[2.99633555,50.4586682],[2.99686565,50.45904523],[2.99643812,50.45977681],[2.99611608,50.46014304],[2.99523431,50.46095359],[2.99484333,50.46150563],[2.99482503,50.46164297],[2.99604286,50.4614204],[2.99834348,50.46067271],[2.9997511,50.46032084],[3.00289391,50.45939084],[3.00369402,50.45919154],[3.00555013,50.45891319],[3.00697456,50.45882246],[3.00786042,50.45868237]]]]}},{"type":"Feature","id":"oignies_626370105_quartier_est","properties":{"zoneId":"oignies_626370105_quartier_est","label":"Quartier Est","districtCode":"626370105","arrondissementCode":"62637","colorIndex":4,"parentZoneId":"oignies_parent_62637_oignies","parentCode":"62637","parentLabel":"Oignies","territoryType":"iris","source":"IGN / INSEE - Contours IRIS WFS Géoplateforme","sourceYear":"2026","officialId":"626370105","sourceCleabs":"IRIS____0000000626370105","communeCode":"62637","communeName":"Oignies","irisCode":"0105","irisType":"H","officialAreaM2":586738.1392822266,"labelLng":3.0122177784158284,"labelLat":50.468330070392845,"bbox":[3.00606322,50.46354696,3.01887509,50.47324095]},"geometry":{"type":"MultiPolygon","coordinates":[[[[3.00662207,50.47297744],[3.00676273,50.47298551],[3.00629961,50.47009873],[3.00770332,50.47039308],[3.00865416,50.47074669],[3.00897629,50.4709971],[3.01004954,50.47140455],[3.01258987,50.47207934],[3.01244927,50.47230646],[3.01107665,50.47303008],[3.01160134,50.47322213],[3.01193751,50.47324095],[3.01216254,50.47315206],[3.01410046,50.47199839],[3.01719797,50.47296655],[3.01736932,50.47224482],[3.01717652,50.47194504],[3.01731996,50.47184718],[3.01743513,50.47139026],[3.01731531,50.47060575],[3.01679902,50.47028177],[3.01608871,50.47017684],[3.0158326,50.46974331],[3.01524601,50.4694337],[3.01560457,50.46915808],[3.0160364,50.46933306],[3.01635565,50.4692666],[3.01624721,50.4688142],[3.01651569,50.46836175],[3.01633845,50.46826214],[3.01708647,50.46767678],[3.01716655,50.46744248],[3.01754341,50.46727816],[3.01794711,50.46744416],[3.01887509,50.46681388],[3.01838555,50.46646746],[3.0182307,50.46607342],[3.01774821,50.46576201],[3.01752165,50.46536977],[3.01651762,50.46568229],[3.01587061,50.46539872],[3.01616584,50.46508001],[3.01600549,50.46498758],[3.0161236,50.46490857],[3.01551873,50.4644293],[3.01576759,50.464265],[3.01519782,50.46354696],[3.0148983,50.46363047],[3.01400402,50.46407491],[3.01226189,50.46526358],[3.01147994,50.46514158],[3.01032667,50.46480596],[3.00912988,50.46475219],[3.00847737,50.46489317],[3.00811315,50.46505836],[3.00792895,50.46520738],[3.00760268,50.46523433],[3.00745081,50.46530436],[3.00721598,50.46550993],[3.00666198,50.46631874],[3.00647643,50.46704046],[3.00625865,50.46874509],[3.00608566,50.46872625],[3.00606322,50.46927112],[3.00615905,50.47084378],[3.00626885,50.47158971],[3.00662207,50.47297744]]]]}}]}
