{"type":"FeatureCollection","metadata":{"generatedAt":"2026-07-14T18:44:51.298Z","source":"IGN / INSEE - Contours IRIS WFS Géoplateforme","datasetId":"STATISTICALUNITS.IRIS:contours_iris","datasetUrl":"https://geoservices.ign.fr/contoursiris","sourceFileUrl":"https://data.geopf.fr/wfs/ows?SERVICE=WFS&VERSION=2.0.0&REQUEST=GetFeature&TYPENAMES=STATISTICALUNITS.IRIS%3Acontours_iris&OUTPUTFORMAT=application%2Fjson&COUNT=1000&CQL_FILTER=code_insee%3D%2764422%27&SRSNAME=EPSG%3A4326","license":"Licence Ouverte / Open Licence 2.0","sourceYear":"2026","communeCode":"64422","communeName":"Oloron-Sainte-Marie","featureCount":5,"parentCount":1,"parentContract":"technical commune group; not selectable and not displayed as a district","bbox":[-0.689697,43.08577499,-0.50104413,43.24997172],"areaStatsM2":{"minimum":694575.4687194824,"average":13619361.45866394,"maximum":37010480.913238525}},"features":[{"type":"Feature","id":"oloron_sainte_marie_644220101_notre_dame","properties":{"zoneId":"oloron_sainte_marie_644220101_notre_dame","label":"Notre-Dame","districtCode":"644220101","arrondissementCode":"64422","colorIndex":0,"parentZoneId":"oloron_sainte_marie_parent_64422_oloron_sainte_marie","parentCode":"64422","parentLabel":"Oloron-Sainte-Marie","territoryType":"iris","source":"IGN / INSEE - Contours IRIS WFS Géoplateforme","sourceYear":"2026","officialId":"644220101","sourceCleabs":"IRIS____0000000644220101","communeCode":"64422","communeName":"Oloron-Sainte-Marie","irisCode":"0101","irisType":"H","officialAreaM2":9350785.10774231,"labelLng":-0.5865444085715988,"labelLat":43.218884344665,"bbox":[-0.60946272,43.18048927,-0.56339689,43.24997172]},"geometry":{"type":"MultiPolygon","coordinates":[[[[-0.60934491,43.20003485],[-0.60919388,43.20013895],[-0.60914003,43.20036046],[-0.60919562,43.20046215],[-0.6093505,43.20047858],[-0.60946272,43.20089532],[-0.60941617,43.20123364],[-0.60877975,43.20239399],[-0.60803687,43.20275741],[-0.60780497,43.20298577],[-0.60747768,43.20314529],[-0.60699445,43.20331092],[-0.60647281,43.20333467],[-0.60601236,43.20351034],[-0.6059593,43.20362647],[-0.60546803,43.20382118],[-0.60521261,43.20404762],[-0.60508434,43.20768968],[-0.6047059,43.20811473],[-0.6034995,43.20783808],[-0.60144359,43.20771674],[-0.59938364,43.20873456],[-0.59882287,43.20937547],[-0.59913212,43.20969561],[-0.59769997,43.21063572],[-0.59779733,43.21081526],[-0.59710953,43.21131452],[-0.59718932,43.2115874],[-0.59773906,43.21209222],[-0.59734941,43.2124771],[-0.59693943,43.21253579],[-0.5963438,43.21313193],[-0.59625343,43.21336095],[-0.59630343,43.21414356],[-0.59622303,43.21459196],[-0.59587159,43.21517545],[-0.59557159,43.21624887],[-0.59521337,43.21684249],[-0.59461753,43.21753498],[-0.59470823,43.21794346],[-0.59496631,43.21803481],[-0.59524805,43.21836759],[-0.59570066,43.21920972],[-0.59570849,43.21967139],[-0.59541003,43.2214417],[-0.59547357,43.22281727],[-0.59644596,43.22423458],[-0.59663396,43.22486042],[-0.59624768,43.22522177],[-0.59546773,43.2263202],[-0.59490359,43.22748346],[-0.59424561,43.22801053],[-0.59192113,43.22987622],[-0.59149034,43.23047315],[-0.59315148,43.23146057],[-0.59291888,43.23197707],[-0.59299321,43.23230056],[-0.59274115,43.23274206],[-0.59207221,43.23457784],[-0.59166933,43.23526749],[-0.5915047,43.23602575],[-0.59013148,43.23671796],[-0.58884168,43.2372471],[-0.58873269,43.23741551],[-0.58889443,43.23761993],[-0.58788077,43.23914389],[-0.58607387,43.24150009],[-0.58569926,43.24155666],[-0.58477454,43.24187822],[-0.58591054,43.24247891],[-0.58507552,43.24357008],[-0.58373252,43.24477266],[-0.58372098,43.24532052],[-0.58392486,43.24546953],[-0.58421415,43.24604162],[-0.58377021,43.24748088],[-0.58274725,43.24884031],[-0.58137749,43.24997172],[-0.58055115,43.249539],[-0.57985557,43.24867241],[-0.57899898,43.24824789],[-0.57877582,43.24776814],[-0.5780807,43.24756337],[-0.57756833,43.24710762],[-0.57725352,43.2468182],[-0.57723279,43.24648392],[-0.57707959,43.24641696],[-0.57698908,43.24604987],[-0.57639401,43.24578955],[-0.57597184,43.24509938],[-0.57420543,43.24521732],[-0.57350139,43.24512627],[-0.57279247,43.2448769],[-0.57239676,43.2444938],[-0.57227526,43.24464009],[-0.57333899,43.2462428],[-0.56993016,43.24711017],[-0.56916384,43.24617203],[-0.56710222,43.24605829],[-0.56656325,43.24638585],[-0.56591438,43.24652975],[-0.56547165,43.24662091],[-0.56484376,43.24507127],[-0.56439027,43.24452977],[-0.56434799,43.24436369],[-0.56421926,43.24435353],[-0.56370123,43.24190973],[-0.56381975,43.24129621],[-0.5637641,43.24061462],[-0.56388921,43.24014766],[-0.56386025,43.23961915],[-0.56339689,43.23863767],[-0.56352977,43.23773824],[-0.56346672,43.23725589],[-0.56361302,43.23645417],[-0.56357497,43.23617719],[-0.56417755,43.23614289],[-0.56424662,43.23594521],[-0.56440832,43.23587144],[-0.56449523,43.23546427],[-0.56464705,43.23523054],[-0.56686146,43.23483412],[-0.56745875,43.23519256],[-0.56767191,43.23505495],[-0.56744624,43.23485081],[-0.56941562,43.23381862],[-0.56888236,43.23345987],[-0.57057653,43.2333345],[-0.57124626,43.23293326],[-0.57137115,43.23298135],[-0.57172729,43.23290563],[-0.57219362,43.23268039],[-0.57271197,43.23265873],[-0.57289891,43.2327741],[-0.57327293,43.23215212],[-0.57451567,43.23213528],[-0.57521661,43.23192026],[-0.57592477,43.23213992],[-0.57649672,43.23246674],[-0.57662988,43.23286662],[-0.57662074,43.23339458],[-0.57672442,43.23341816],[-0.57723421,43.23280157],[-0.57760104,43.23252108],[-0.57770318,43.2323412],[-0.57766065,43.23209229],[-0.57698296,43.23071547],[-0.57686814,43.23019432],[-0.57764796,43.2300208],[-0.57800912,43.22980802],[-0.5788493,43.22973424],[-0.57938447,43.22942835],[-0.58055048,43.22813625],[-0.58080867,43.22737582],[-0.58109239,43.22712598],[-0.58099483,43.22698245],[-0.58040626,43.22660579],[-0.57964942,43.22653365],[-0.57935846,43.22619033],[-0.57901614,43.22609093],[-0.57908095,43.22594471],[-0.57952083,43.22579055],[-0.57941591,43.22503226],[-0.57935269,43.22498573],[-0.57915641,43.22505708],[-0.57841261,43.22501601],[-0.57836867,43.22450602],[-0.57780047,43.22451676],[-0.5775914,43.22460023],[-0.57709116,43.22503191],[-0.5763222,43.22512133],[-0.57626608,43.22536811],[-0.57612581,43.22546911],[-0.57599517,43.22544733],[-0.57588288,43.22524485],[-0.57568306,43.22513981],[-0.57557179,43.22517231],[-0.57547082,43.22537106],[-0.575299,43.22541997],[-0.57501716,43.22540229],[-0.57479986,43.22527353],[-0.57361488,43.22516691],[-0.57314286,43.22539864],[-0.57251531,43.22548515],[-0.57241535,43.22540202],[-0.5716445,43.22522224],[-0.57183215,43.22463345],[-0.57167556,43.22455039],[-0.57209646,43.22438788],[-0.57095139,43.2238315],[-0.57145522,43.22349697],[-0.57202218,43.22324769],[-0.57253172,43.22280672],[-0.5728164,43.22235338],[-0.57285004,43.22182281],[-0.57574157,43.2208383],[-0.57543803,43.2196949],[-0.57491155,43.21854989],[-0.57510379,43.21823467],[-0.57599238,43.21759383],[-0.57649908,43.21730691],[-0.57709689,43.21711961],[-0.57954125,43.2169494],[-0.58024256,43.21706119],[-0.5818244,43.21646303],[-0.58479141,43.21214145],[-0.5876103,43.2086126],[-0.58906426,43.20566575],[-0.58985193,43.20574309],[-0.59116819,43.20561103],[-0.59169773,43.20563482],[-0.591966,43.2054359],[-0.59343455,43.20523932],[-0.59324446,43.20548786],[-0.59329334,43.20571945],[-0.59400424,43.20614508],[-0.59417691,43.20632842],[-0.59533942,43.20635631],[-0.59595112,43.20544629],[-0.59697887,43.20443776],[-0.59608853,43.20403614],[-0.59634939,43.20371859],[-0.59832643,43.20194544],[-0.59722119,43.20139342],[-0.5976247,43.20089643],[-0.59739572,43.20077711],[-0.59759133,43.20067694],[-0.59810982,43.20089916],[-0.59824275,43.20087942],[-0.5989295,43.19997048],[-0.60008879,43.19870541],[-0.60137315,43.19703906],[-0.60092553,43.19657137],[-0.59766739,43.19694033],[-0.59728753,43.19684855],[-0.59607942,43.1974489],[-0.59140933,43.19583607],[-0.59128402,43.19603744],[-0.58947923,43.19636495],[-0.59052069,43.19330216],[-0.58938552,43.19319498],[-0.59096458,43.19064465],[-0.59048434,43.19052107],[-0.59068265,43.19024704],[-0.58946624,43.1895645],[-0.58865231,43.18900182],[-0.58798938,43.18823511],[-0.58695244,43.18774647],[-0.5832502,43.18686109],[-0.58320325,43.18695719],[-0.58252405,43.18644221],[-0.58207906,43.18597347],[-0.58150841,43.18579974],[-0.57817844,43.18523948],[-0.57974787,43.18290665],[-0.58011395,43.18291701],[-0.57998769,43.18250792],[-0.58134145,43.18048927],[-0.58170523,43.18052221],[-0.58212704,43.18065766],[-0.58341612,43.181445],[-0.58531962,43.18231816],[-0.58596018,43.18256788],[-0.58776228,43.18337233],[-0.58854721,43.18390537],[-0.58936573,43.18396906],[-0.58962242,43.18402085],[-0.58986036,43.18400842],[-0.5905926,43.1841092],[-0.59170465,43.18416401],[-0.59222464,43.18380003],[-0.59226777,43.18372206],[-0.5921871,43.18343391],[-0.59210939,43.18271887],[-0.5919504,43.18225955],[-0.5928307,43.18201142],[-0.59362713,43.18278805],[-0.5937443,43.18299034],[-0.59393659,43.18352958],[-0.59405392,43.184011],[-0.59429246,43.18438392],[-0.59548436,43.18564169],[-0.59562292,43.18585137],[-0.59598562,43.18691347],[-0.59639813,43.1877281],[-0.59652634,43.18866027],[-0.59661926,43.18890748],[-0.59677095,43.18909061],[-0.59702557,43.18922709],[-0.5973432,43.18932814],[-0.59778173,43.18935494],[-0.5986035,43.18933112],[-0.59926481,43.18943781],[-0.60138,43.18992816],[-0.60209676,43.19023287],[-0.60261687,43.19075845],[-0.6029536,43.19102724],[-0.60296161,43.19111611],[-0.60305686,43.19120297],[-0.60351918,43.19141353],[-0.60434944,43.19168293],[-0.60498915,43.19201451],[-0.60600961,43.19258999],[-0.60705292,43.19335378],[-0.60751969,43.19420618],[-0.6077407,43.19437527],[-0.60781382,43.19448178],[-0.60794206,43.19482055],[-0.60726068,43.19533948],[-0.60698048,43.19548392],[-0.60653762,43.1956446],[-0.60635914,43.19578203],[-0.60623366,43.19599963],[-0.60614678,43.19628347],[-0.6061668,43.19721474],[-0.60628616,43.19756912],[-0.60641301,43.19776748],[-0.60707606,43.19851068],[-0.60881389,43.19982931],[-0.60906395,43.19997041],[-0.60934491,43.20003485]]]]}},{"type":"Feature","id":"oloron_sainte_marie_644220102_sainte_croix","properties":{"zoneId":"oloron_sainte_marie_644220102_sainte_croix","label":"Sainte-Croix","districtCode":"644220102","arrondissementCode":"64422","colorIndex":1,"parentZoneId":"oloron_sainte_marie_parent_64422_oloron_sainte_marie","parentCode":"64422","parentLabel":"Oloron-Sainte-Marie","territoryType":"iris","source":"IGN / INSEE - Contours IRIS WFS Géoplateforme","sourceYear":"2026","officialId":"644220102","sourceCleabs":"IRIS____0000000644220102","communeCode":"64422","communeName":"Oloron-Sainte-Marie","irisCode":"0102","irisType":"H","officialAreaM2":37010480.913238525,"labelLng":-0.5554838489933145,"labelLat":43.12584099246394,"bbox":[-0.61066126,43.08577499,-0.50104413,43.19482055]},"geometry":{"type":"MultiPolygon","coordinates":[[[[-0.50543008,43.12548122],[-0.50474572,43.12503981],[-0.50340942,43.12446836],[-0.50243699,43.12314679],[-0.50202942,43.12303309],[-0.50154371,43.12327306],[-0.50104413,43.12297959],[-0.5011653,43.12270735],[-0.5015782,43.12238152],[-0.50243318,43.12239424],[-0.50270967,43.12200802],[-0.50291527,43.12110101],[-0.50312028,43.12079273],[-0.50361883,43.12040018],[-0.504529,43.12004646],[-0.5069021,43.11864575],[-0.50896234,43.11656734],[-0.50907196,43.11626756],[-0.50915645,43.11474416],[-0.50942427,43.11399357],[-0.50927367,43.11375989],[-0.50861951,43.11344989],[-0.50835274,43.11318488],[-0.50840386,43.11305537],[-0.5088453,43.11273578],[-0.50852445,43.11222765],[-0.50856848,43.1119003],[-0.51006538,43.11107275],[-0.51052096,43.11074369],[-0.510703,43.11050367],[-0.51127614,43.10885271],[-0.51273498,43.10574226],[-0.51489094,43.1022174],[-0.51560013,43.1008879],[-0.51765203,43.0982838],[-0.51856487,43.09691071],[-0.51931911,43.09452725],[-0.51966969,43.09429251],[-0.5197124,43.09398501],[-0.52004694,43.09383002],[-0.52142453,43.0912551],[-0.52192822,43.09002501],[-0.52372034,43.08635343],[-0.52397151,43.08646405],[-0.52594279,43.0863599],[-0.52621537,43.08651933],[-0.52667406,43.08646739],[-0.52699302,43.08666221],[-0.52747566,43.08668061],[-0.52998546,43.08630305],[-0.53298958,43.08627653],[-0.53328921,43.08613435],[-0.53408508,43.08611273],[-0.53493901,43.08577499],[-0.53581598,43.08615583],[-0.53843177,43.0869495],[-0.54101317,43.08706],[-0.54163636,43.08726728],[-0.54253021,43.08796263],[-0.54318086,43.08871819],[-0.5441974,43.08941039],[-0.54477492,43.08993427],[-0.54590436,43.09044357],[-0.54655356,43.09115415],[-0.54712102,43.09145328],[-0.5481736,43.09164998],[-0.54849735,43.09200124],[-0.54874689,43.09208395],[-0.54974615,43.09219236],[-0.55039112,43.09281302],[-0.5509574,43.09311216],[-0.55219121,43.09325874],[-0.55453918,43.09482255],[-0.55515396,43.09485087],[-0.55619096,43.09473289],[-0.55930605,43.09568335],[-0.56066835,43.09570044],[-0.56165968,43.09589814],[-0.56257834,43.09587315],[-0.56300055,43.09572683],[-0.56379505,43.09566092],[-0.56521446,43.09584712],[-0.56583911,43.09605512],[-0.5661635,43.09641442],[-0.5669595,43.09639255],[-0.56757707,43.09646573],[-0.57105851,43.09713632],[-0.57173185,43.09711759],[-0.57210466,43.09720606],[-0.57393773,43.0970669],[-0.57462251,43.09727286],[-0.57517602,43.0973031],[-0.57603543,43.09705488],[-0.57799265,43.09695655],[-0.58470715,43.09727703],[-0.58649108,43.10123859],[-0.59025684,43.11037777],[-0.59065488,43.11745936],[-0.59055326,43.11851437],[-0.59001668,43.11883928],[-0.58978958,43.11957615],[-0.58975511,43.12022826],[-0.58987875,43.12095254],[-0.59002406,43.12113497],[-0.59019449,43.12112839],[-0.59048524,43.12094133],[-0.59074135,43.12063207],[-0.59139185,43.12034027],[-0.59163304,43.12030522],[-0.5928383,43.12083136],[-0.59323944,43.12119433],[-0.59360658,43.12263168],[-0.59341158,43.12386449],[-0.59310953,43.12420591],[-0.59302166,43.12480938],[-0.5929013,43.12552289],[-0.59230342,43.12565358],[-0.59178652,43.12536649],[-0.59097245,43.12522255],[-0.58998543,43.12437219],[-0.58932421,43.12431409],[-0.58826834,43.12407645],[-0.58788769,43.12412244],[-0.58753815,43.12445192],[-0.58698248,43.12447042],[-0.58615961,43.12501643],[-0.58559027,43.12499306],[-0.58476439,43.12511419],[-0.58388566,43.12487871],[-0.58324931,43.12484496],[-0.58283909,43.12494954],[-0.58237363,43.1249164],[-0.58127117,43.12515654],[-0.58062729,43.12514013],[-0.58021924,43.12527974],[-0.57970648,43.12531659],[-0.57823118,43.12578877],[-0.57734986,43.12580904],[-0.57638035,43.12573499],[-0.5762011,43.12623524],[-0.57518673,43.1260123],[-0.57411679,43.12622248],[-0.5731343,43.12631629],[-0.57282263,43.12622579],[-0.57214164,43.12493294],[-0.57145217,43.12399962],[-0.5706883,43.12381156],[-0.57038069,43.12404504],[-0.57034919,43.12462952],[-0.57005105,43.12481767],[-0.56976711,43.12527546],[-0.56777895,43.12600309],[-0.56729087,43.12606157],[-0.56635114,43.12567311],[-0.56535836,43.12569967],[-0.56510576,43.12678576],[-0.56475452,43.12710981],[-0.56452049,43.12756053],[-0.56431543,43.12850098],[-0.56317867,43.12964243],[-0.56232402,43.13081415],[-0.56240741,43.13194765],[-0.5628028,43.13255852],[-0.56301195,43.13248138],[-0.56337431,43.1324766],[-0.56404483,43.13262459],[-0.56473166,43.1326784],[-0.56157204,43.13634563],[-0.56245657,43.13665402],[-0.56371357,43.13686186],[-0.56400509,43.1368243],[-0.56450314,43.13688616],[-0.56474112,43.13699713],[-0.56507024,43.1373698],[-0.56616805,43.13754776],[-0.56805861,43.13831891],[-0.56877849,43.13906579],[-0.5706247,43.1403912],[-0.57093102,43.14091137],[-0.57172745,43.14158276],[-0.57225887,43.14244211],[-0.57372548,43.14380977],[-0.57463356,43.14487361],[-0.57707562,43.14630431],[-0.57717552,43.14660713],[-0.57713537,43.1478852],[-0.57723904,43.14803032],[-0.57797629,43.14835879],[-0.57871965,43.14892476],[-0.57939781,43.14905351],[-0.58043622,43.14908204],[-0.58135866,43.14973928],[-0.58222932,43.15017584],[-0.58323117,43.15086375],[-0.58386147,43.15277772],[-0.58474453,43.15472111],[-0.58454232,43.15572366],[-0.58465094,43.15719669],[-0.584469,43.15749537],[-0.58373552,43.15800327],[-0.58704589,43.1579949],[-0.58871292,43.15778544],[-0.58883479,43.15844047],[-0.58911923,43.15907928],[-0.59029731,43.16010522],[-0.59136403,43.16072427],[-0.59187161,43.16121248],[-0.59224923,43.16251808],[-0.59247234,43.16298066],[-0.59255453,43.16359019],[-0.59285045,43.1639774],[-0.59392389,43.16442604],[-0.59525685,43.16445902],[-0.595636,43.16456253],[-0.59623072,43.16488844],[-0.59770817,43.16591783],[-0.59783949,43.16609082],[-0.59797027,43.1666105],[-0.59807705,43.1676532],[-0.59826748,43.1684194],[-0.59882694,43.16985668],[-0.59890492,43.17051588],[-0.5986324,43.17356566],[-0.59870476,43.17399634],[-0.59745385,43.17435593],[-0.59928002,43.17645597],[-0.5988308,43.17680862],[-0.59842798,43.17794578],[-0.5981075,43.17833105],[-0.59819111,43.1784093],[-0.598133,43.17889836],[-0.59822573,43.17904384],[-0.59899521,43.17919013],[-0.59941348,43.17909063],[-0.60024861,43.17979659],[-0.59996803,43.18017063],[-0.60165973,43.1809191],[-0.6020888,43.18128835],[-0.60243439,43.182134],[-0.60284736,43.18216613],[-0.60374924,43.18200813],[-0.60386023,43.18268244],[-0.60377076,43.18324008],[-0.60443454,43.18318999],[-0.60667531,43.18262073],[-0.60685302,43.18276695],[-0.60773552,43.183953],[-0.60865171,43.18542155],[-0.60878704,43.18565744],[-0.60912833,43.18658966],[-0.60946509,43.18705561],[-0.60950568,43.18723254],[-0.60982866,43.18769445],[-0.61045041,43.18836877],[-0.61066126,43.18882813],[-0.61064729,43.18919507],[-0.61022363,43.18976032],[-0.60951856,43.19031247],[-0.60867331,43.1908468],[-0.60836205,43.19116336],[-0.60812488,43.19150355],[-0.60805261,43.19213897],[-0.60810688,43.19231814],[-0.60809536,43.19256705],[-0.60846181,43.19309415],[-0.60849883,43.19327299],[-0.60848048,43.19374723],[-0.60843852,43.19409981],[-0.60832213,43.19442335],[-0.60794206,43.19482055],[-0.60781382,43.19448178],[-0.6077407,43.19437527],[-0.60751969,43.19420618],[-0.60705292,43.19335378],[-0.60600961,43.19258999],[-0.60498915,43.19201451],[-0.60434944,43.19168293],[-0.60351918,43.19141353],[-0.60305686,43.19120297],[-0.60296161,43.19111611],[-0.6029536,43.19102724],[-0.60261687,43.19075845],[-0.60209676,43.19023287],[-0.60138,43.18992816],[-0.59926481,43.18943781],[-0.5986035,43.18933112],[-0.59778173,43.18935494],[-0.5973432,43.18932814],[-0.59702557,43.18922709],[-0.59677095,43.18909061],[-0.59661926,43.18890748],[-0.59652634,43.18866027],[-0.59639813,43.1877281],[-0.59598562,43.18691347],[-0.59562292,43.18585137],[-0.59548436,43.18564169],[-0.59429246,43.18438392],[-0.59405392,43.184011],[-0.59393659,43.18352958],[-0.5937443,43.18299034],[-0.59362713,43.18278805],[-0.5928307,43.18201142],[-0.5919504,43.18225955],[-0.59210939,43.18271887],[-0.5921871,43.18343391],[-0.59226777,43.18372206],[-0.59222464,43.18380003],[-0.59170465,43.18416401],[-0.5905926,43.1841092],[-0.58986036,43.18400842],[-0.58962242,43.18402085],[-0.58936573,43.18396906],[-0.58854721,43.18390537],[-0.58776228,43.18337233],[-0.58596018,43.18256788],[-0.58531962,43.18231816],[-0.58341612,43.181445],[-0.58212704,43.18065766],[-0.58170523,43.18052221],[-0.58134145,43.18048927],[-0.58341535,43.17724913],[-0.58339674,43.17688959],[-0.5830109,43.17654045],[-0.58063617,43.17574235],[-0.57849341,43.17467628],[-0.57694641,43.17444849],[-0.57582595,43.17415521],[-0.57557324,43.17402763],[-0.57524608,43.1736315],[-0.57504019,43.17318723],[-0.57528028,43.17309103],[-0.57585054,43.17252557],[-0.57560066,43.17220522],[-0.57559215,43.1717499],[-0.57597999,43.17080152],[-0.57615551,43.16972243],[-0.57609442,43.16939131],[-0.57572638,43.16899023],[-0.57587975,43.16850703],[-0.57581152,43.16814014],[-0.57540596,43.16792759],[-0.57482651,43.16780724],[-0.57354701,43.16774432],[-0.57211815,43.16783219],[-0.57146834,43.16774748],[-0.57097986,43.16738729],[-0.5707804,43.16710577],[-0.57058206,43.16642444],[-0.57063171,43.16525769],[-0.57033095,43.16473012],[-0.57027777,43.16438704],[-0.57082469,43.16352436],[-0.57269258,43.1612295],[-0.57287887,43.16076142],[-0.57268861,43.16036976],[-0.57209128,43.1597998],[-0.57065714,43.1591027],[-0.56974468,43.15874666],[-0.56863357,43.15855925],[-0.56596711,43.15851875],[-0.56562943,43.15846779],[-0.56512941,43.15825744],[-0.56487234,43.1579382],[-0.56471157,43.15746541],[-0.56471382,43.15728256],[-0.5651383,43.15656803],[-0.56510467,43.15580381],[-0.56498698,43.15543135],[-0.56331276,43.15462685],[-0.5623405,43.1537379],[-0.56107557,43.15274877],[-0.55967189,43.15078461],[-0.55960441,43.15052753],[-0.55966767,43.14967819],[-0.56003901,43.14834057],[-0.56009155,43.14773649],[-0.55993129,43.14715114],[-0.55940577,43.14650492],[-0.55886082,43.14616187],[-0.55791714,43.1458734],[-0.55688659,43.14589121],[-0.55565246,43.1460778],[-0.55434954,43.14598572],[-0.55334516,43.14558937],[-0.55292528,43.14509991],[-0.55277536,43.14450161],[-0.55281702,43.14423913],[-0.55305566,43.14342093],[-0.55328212,43.14310464],[-0.55378187,43.1426938],[-0.55480185,43.14224509],[-0.55514498,43.14192674],[-0.55558478,43.14178078],[-0.55579539,43.14154694],[-0.55576941,43.14122457],[-0.55514774,43.14075258],[-0.55400623,43.14036436],[-0.55363198,43.1401165],[-0.55315461,43.14005121],[-0.55278126,43.14015806],[-0.55159738,43.14100021],[-0.55090764,43.14126063],[-0.55027664,43.14131654],[-0.54994342,43.14119606],[-0.54986961,43.14105534],[-0.54982348,43.14028435],[-0.54983521,43.1396348],[-0.54908317,43.13846029],[-0.54839604,43.13760147],[-0.54787384,43.13714598],[-0.54747896,43.136942],[-0.54674998,43.13682284],[-0.54618826,43.13692506],[-0.54533188,43.13737461],[-0.54464511,43.13756287],[-0.54396299,43.13794725],[-0.54208371,43.1386582],[-0.54108842,43.13874763],[-0.54033982,43.13901083],[-0.5394319,43.13938279],[-0.53844671,43.13989863],[-0.53779696,43.13990916],[-0.5375121,43.13981498],[-0.53687523,43.13951356],[-0.53646481,43.13911556],[-0.53639927,43.13880799],[-0.53651419,43.13851611],[-0.53671742,43.13838159],[-0.53791039,43.13800659],[-0.53815406,43.13778971],[-0.53742607,43.13678271],[-0.53656735,43.13651198],[-0.5353721,43.1365278],[-0.53449357,43.13647559],[-0.53421463,43.1363974],[-0.53397902,43.13626377],[-0.53369721,43.13591738],[-0.53298191,43.13467404],[-0.53261007,43.13436301],[-0.5323537,43.13437232],[-0.53216924,43.134472],[-0.53179594,43.13506226],[-0.53150195,43.1358642],[-0.53137916,43.13655069],[-0.53075193,43.13759314],[-0.53031245,43.1380064],[-0.52994627,43.13817055],[-0.52909204,43.13827506],[-0.52881819,43.13823992],[-0.52850209,43.13801618],[-0.52834099,43.13755237],[-0.52835204,43.1372702],[-0.52842864,43.13701469],[-0.52937431,43.13550895],[-0.52952642,43.13514113],[-0.52964518,43.13436834],[-0.52951764,43.13409161],[-0.52862592,43.13350048],[-0.52765597,43.13329906],[-0.52667357,43.13343746],[-0.52556126,43.13334061],[-0.52496295,43.13318552],[-0.52451732,43.13293359],[-0.52441766,43.132791],[-0.52419215,43.13211682],[-0.52367202,43.13130821],[-0.52314305,43.13099959],[-0.5224704,43.13083431],[-0.52216458,43.13089923],[-0.52201429,43.1310554],[-0.52180231,43.13157102],[-0.52188003,43.13207988],[-0.52241338,43.13316626],[-0.5224178,43.1334002],[-0.5222795,43.13355148],[-0.52170401,43.13379088],[-0.52131699,43.13379452],[-0.52065831,43.1336774],[-0.52044109,43.13358275],[-0.52020024,43.13334213],[-0.51974173,43.13205072],[-0.52029133,43.13035723],[-0.52021051,43.12993851],[-0.51999962,43.12974553],[-0.51915057,43.12946895],[-0.51875421,43.1292379],[-0.51822241,43.12924537],[-0.51699218,43.13050189],[-0.51683238,43.13058273],[-0.51648395,43.13055359],[-0.51630397,43.13040371],[-0.51602123,43.12991865],[-0.51559854,43.12893127],[-0.51510743,43.12827384],[-0.51466656,43.12819999],[-0.51437511,43.12823831],[-0.51305142,43.12866593],[-0.51263865,43.1287307],[-0.51226197,43.12866105],[-0.51189641,43.12804634],[-0.51188306,43.1278469],[-0.51214791,43.12716842],[-0.5122802,43.12645284],[-0.5119303,43.12607531],[-0.51147563,43.12595598],[-0.51070443,43.12608915],[-0.50975495,43.12664678],[-0.50918133,43.12687615],[-0.50824564,43.12703357],[-0.50709573,43.12665866],[-0.50543008,43.12548122]]]]}},{"type":"Feature","id":"oloron_sainte_marie_644220103_sainte_marie_sud","properties":{"zoneId":"oloron_sainte_marie_644220103_sainte_marie_sud","label":"Sainte-Marie Sud","districtCode":"644220103","arrondissementCode":"64422","colorIndex":2,"parentZoneId":"oloron_sainte_marie_parent_64422_oloron_sainte_marie","parentCode":"64422","parentLabel":"Oloron-Sainte-Marie","territoryType":"iris","source":"IGN / INSEE - Contours IRIS WFS Géoplateforme","sourceYear":"2026","officialId":"644220103","sourceCleabs":"IRIS____0000000644220103","communeCode":"64422","communeName":"Oloron-Sainte-Marie","irisCode":"0103","irisType":"H","officialAreaM2":694575.4687194824,"labelLng":-0.6129395405061864,"labelLat":43.184063498012435,"bbox":[-0.61875838,43.17702417,-0.60685302,43.19028639]},"geometry":{"type":"MultiPolygon","coordinates":[[[[-0.60685302,43.18276695],[-0.60948554,43.18214671],[-0.60945091,43.18208484],[-0.6098541,43.1819606],[-0.60984575,43.18172857],[-0.60952697,43.18121519],[-0.60950432,43.18065589],[-0.60979641,43.17975829],[-0.60967301,43.17890612],[-0.61167707,43.1783915],[-0.61123947,43.17745352],[-0.61298182,43.17702417],[-0.61335298,43.17721433],[-0.61363579,43.1775263],[-0.61384515,43.17794248],[-0.61398001,43.17834765],[-0.61400623,43.17857008],[-0.61386667,43.17907269],[-0.61393273,43.17928298],[-0.61401211,43.17931273],[-0.61406182,43.17939931],[-0.61408969,43.17968741],[-0.6144381,43.18012324],[-0.61515672,43.18136244],[-0.61525688,43.18166523],[-0.61565356,43.18226242],[-0.61614913,43.18349559],[-0.61678024,43.18449551],[-0.616886,43.18459281],[-0.61699023,43.18462623],[-0.6170615,43.18484084],[-0.61804094,43.18637203],[-0.6185456,43.18731676],[-0.61856741,43.18748801],[-0.61865094,43.18754464],[-0.61859427,43.18781847],[-0.61843627,43.18816413],[-0.61838095,43.18845953],[-0.61846172,43.18876657],[-0.61872359,43.18911615],[-0.61875838,43.18933739],[-0.61867681,43.18950851],[-0.61868891,43.18958374],[-0.618599,43.18972002],[-0.6184739,43.18980526],[-0.61775171,43.19014194],[-0.61752572,43.19028639],[-0.61746486,43.19025781],[-0.61737243,43.19027532],[-0.6171449,43.18994349],[-0.6161456,43.18915671],[-0.61602076,43.18899071],[-0.61564288,43.18814437],[-0.61544104,43.18814394],[-0.61509506,43.18798355],[-0.61464061,43.18756478],[-0.61416164,43.18769789],[-0.61315476,43.18822417],[-0.61294904,43.18827968],[-0.61188887,43.18838723],[-0.61121802,43.1886204],[-0.61122597,43.18866875],[-0.61112507,43.18870815],[-0.61066126,43.18882813],[-0.61045041,43.18836877],[-0.60982866,43.18769445],[-0.60950568,43.18723254],[-0.60946509,43.18705561],[-0.60912833,43.18658966],[-0.60878704,43.18565744],[-0.60865171,43.18542155],[-0.60773552,43.183953],[-0.60685302,43.18276695]]]]}},{"type":"Feature","id":"oloron_sainte_marie_644220104_sainte_marie_ouest","properties":{"zoneId":"oloron_sainte_marie_644220104_sainte_marie_ouest","label":"Sainte-Marie Ouest","districtCode":"644220104","arrondissementCode":"64422","colorIndex":3,"parentZoneId":"oloron_sainte_marie_parent_64422_oloron_sainte_marie","parentCode":"64422","parentLabel":"Oloron-Sainte-Marie","territoryType":"iris","source":"IGN / INSEE - Contours IRIS WFS Géoplateforme","sourceYear":"2026","officialId":"644220104","sourceCleabs":"IRIS____0000000644220104","communeCode":"64422","communeName":"Oloron-Sainte-Marie","irisCode":"0104","irisType":"H","officialAreaM2":17843550.31576538,"labelLng":-0.6463631558483626,"labelLat":43.176703052503086,"bbox":[-0.689697,43.15008252,-0.61082928,43.2017456]},"geometry":{"type":"MultiPolygon","coordinates":[[[[-0.61298182,43.17702417],[-0.61338175,43.17692703],[-0.61243805,43.17480215],[-0.61149556,43.17301038],[-0.61124079,43.17306753],[-0.61082928,43.17211337],[-0.61359105,43.17132571],[-0.61907865,43.17055456],[-0.62078736,43.1701028],[-0.62358899,43.16962059],[-0.62513006,43.16949764],[-0.62591822,43.16929555],[-0.62752269,43.16826282],[-0.62902312,43.16810066],[-0.62989599,43.16750491],[-0.6302962,43.16694398],[-0.63074541,43.165969],[-0.63123383,43.165207],[-0.63149456,43.16526484],[-0.63351832,43.16378298],[-0.63390828,43.16311883],[-0.63410871,43.16245297],[-0.6344751,43.1617662],[-0.6352157,43.16071294],[-0.63548767,43.16003116],[-0.63589565,43.15961491],[-0.6364967,43.15937403],[-0.6375347,43.15925526],[-0.6416624,43.15853241],[-0.64192129,43.15832737],[-0.64174848,43.15777135],[-0.64188726,43.15757307],[-0.6417989,43.15716636],[-0.64191894,43.15663196],[-0.6422232,43.15632724],[-0.64242441,43.15579279],[-0.64262411,43.15554653],[-0.64339817,43.15487116],[-0.64471791,43.15426828],[-0.64542257,43.15379964],[-0.64684534,43.15323196],[-0.64722607,43.15297056],[-0.64886238,43.15284404],[-0.64909844,43.1527262],[-0.64989421,43.15294146],[-0.65069155,43.15269476],[-0.65200558,43.15198392],[-0.65303166,43.1516403],[-0.65369828,43.15078571],[-0.65598232,43.15011037],[-0.65661758,43.15008252],[-0.65966803,43.15143136],[-0.66033514,43.15322577],[-0.66118227,43.15417306],[-0.66361544,43.1556157],[-0.66515759,43.15691212],[-0.66693547,43.15897577],[-0.66719229,43.1603474],[-0.66749412,43.16051002],[-0.66755334,43.16080335],[-0.6679344,43.16147742],[-0.66797662,43.16198743],[-0.66814774,43.16210587],[-0.66759139,43.16264255],[-0.66769116,43.16328387],[-0.66752199,43.16368042],[-0.66742613,43.16439863],[-0.66673479,43.16542524],[-0.66647964,43.16607593],[-0.66642596,43.16668375],[-0.66818764,43.16765393],[-0.66813532,43.16834094],[-0.66839644,43.16836537],[-0.66963717,43.17002229],[-0.67064827,43.17182027],[-0.67211441,43.17226019],[-0.67246685,43.1722887],[-0.67281523,43.1722147],[-0.67324811,43.17267629],[-0.67339614,43.17314668],[-0.67411816,43.17360832],[-0.67441465,43.17397551],[-0.67447451,43.17418147],[-0.67633526,43.17612244],[-0.67741923,43.17656722],[-0.67821823,43.17738639],[-0.6793282,43.1779104],[-0.68012979,43.17853768],[-0.68068403,43.17877809],[-0.6815246,43.17872328],[-0.68315884,43.17820643],[-0.68355953,43.17792981],[-0.68414938,43.17710824],[-0.68463145,43.17691168],[-0.68554048,43.17696615],[-0.68566053,43.17684229],[-0.68702764,43.1770954],[-0.68776518,43.17708458],[-0.68827653,43.17732732],[-0.68929666,43.17736806],[-0.689697,43.17776047],[-0.68953851,43.17886175],[-0.68840509,43.1800144],[-0.6871052,43.18216415],[-0.68611927,43.18466513],[-0.68610014,43.1854834],[-0.68529513,43.18654015],[-0.68513979,43.18732616],[-0.68459684,43.18732221],[-0.68451679,43.18741769],[-0.68462545,43.18763549],[-0.68457199,43.18774267],[-0.68434596,43.18786475],[-0.68405949,43.18788805],[-0.68363836,43.18813476],[-0.6834181,43.18813508],[-0.68337925,43.18769968],[-0.68312924,43.18756144],[-0.68285303,43.18751415],[-0.6826076,43.18758286],[-0.6827152,43.18797719],[-0.68255879,43.18807168],[-0.68230536,43.18803441],[-0.68211763,43.18788864],[-0.68210047,43.18733004],[-0.6817579,43.18705268],[-0.68160595,43.18704347],[-0.68119778,43.18726181],[-0.68069696,43.18710781],[-0.68050226,43.18675607],[-0.67732178,43.18467826],[-0.67572171,43.18463377],[-0.67481864,43.18380461],[-0.67413355,43.18363526],[-0.67258829,43.183678],[-0.67143443,43.1839352],[-0.67046928,43.18427691],[-0.66961677,43.1844356],[-0.66832828,43.18447223],[-0.66735862,43.18472403],[-0.66530044,43.18554589],[-0.66450268,43.1855595],[-0.66373177,43.18527864],[-0.66300819,43.18512313],[-0.66176711,43.18497619],[-0.66141408,43.18501699],[-0.65936347,43.18559085],[-0.65890548,43.18580089],[-0.65857514,43.18672426],[-0.65777155,43.18750069],[-0.65697661,43.18779239],[-0.65624525,43.18790273],[-0.65489465,43.18793141],[-0.65257272,43.18984069],[-0.65275256,43.19007682],[-0.65288103,43.19049298],[-0.653368,43.1911095],[-0.6538856,43.19209327],[-0.65398278,43.19261764],[-0.65380831,43.19375002],[-0.65382378,43.19399442],[-0.65401613,43.19431117],[-0.65434042,43.19445686],[-0.65595337,43.19433196],[-0.65633727,43.19436937],[-0.65671245,43.19454124],[-0.65742365,43.19517986],[-0.65592891,43.19567537],[-0.6545883,43.1959036],[-0.65367404,43.19590666],[-0.6526933,43.19581202],[-0.65034626,43.19590949],[-0.64986059,43.19581967],[-0.64966541,43.19596405],[-0.64914547,43.19603297],[-0.64635562,43.19603728],[-0.64507577,43.19621471],[-0.64202304,43.19704631],[-0.64133387,43.19735952],[-0.64107109,43.19766194],[-0.64048374,43.19796991],[-0.64021521,43.19845441],[-0.63950869,43.19905905],[-0.63866876,43.19944127],[-0.63543528,43.2017456],[-0.63428457,43.2004382],[-0.63423482,43.20029311],[-0.6338975,43.20037021],[-0.63189565,43.20036199],[-0.63079403,43.19826773],[-0.63069799,43.19811068],[-0.63057392,43.19807524],[-0.63055325,43.19798139],[-0.63044405,43.19790852],[-0.63048029,43.19778034],[-0.63039472,43.19749598],[-0.63052473,43.19733222],[-0.63054349,43.19712179],[-0.6304707,43.19706031],[-0.63027936,43.19658141],[-0.62994574,43.19620815],[-0.62923088,43.1958198],[-0.62887069,43.19551317],[-0.62832126,43.19521109],[-0.62669365,43.19622031],[-0.62709139,43.19690928],[-0.62474761,43.19758867],[-0.62133256,43.19437626],[-0.61914353,43.19222297],[-0.61887455,43.19227071],[-0.61863373,43.19196274],[-0.61862653,43.19186753],[-0.61871846,43.19174379],[-0.61869721,43.19158153],[-0.61841699,43.19148918],[-0.61821153,43.19131328],[-0.61747728,43.19041677],[-0.61754563,43.19036856],[-0.61752572,43.19028639],[-0.61775171,43.19014194],[-0.6184739,43.18980526],[-0.618599,43.18972002],[-0.61868891,43.18958374],[-0.61867681,43.18950851],[-0.61875838,43.18933739],[-0.61872359,43.18911615],[-0.61846172,43.18876657],[-0.61838095,43.18845953],[-0.61843627,43.18816413],[-0.61859427,43.18781847],[-0.61865094,43.18754464],[-0.61856741,43.18748801],[-0.6185456,43.18731676],[-0.61804094,43.18637203],[-0.6170615,43.18484084],[-0.61699023,43.18462623],[-0.616886,43.18459281],[-0.61678024,43.18449551],[-0.61614913,43.18349559],[-0.61565356,43.18226242],[-0.61525688,43.18166523],[-0.61515672,43.18136244],[-0.6144381,43.18012324],[-0.61408969,43.17968741],[-0.61406182,43.17939931],[-0.61401211,43.17931273],[-0.61393273,43.17928298],[-0.61386667,43.17907269],[-0.61400623,43.17857008],[-0.61398001,43.17834765],[-0.61384515,43.17794248],[-0.61363579,43.1775263],[-0.61335298,43.17721433],[-0.61298182,43.17702417]]]]}},{"type":"Feature","id":"oloron_sainte_marie_644220105_sainte_marie_nord_gare_legugnon","properties":{"zoneId":"oloron_sainte_marie_644220105_sainte_marie_nord_gare_legugnon","label":"Sainte-Marie Nord Gare Légugnon","districtCode":"644220105","arrondissementCode":"64422","colorIndex":4,"parentZoneId":"oloron_sainte_marie_parent_64422_oloron_sainte_marie","parentCode":"64422","parentLabel":"Oloron-Sainte-Marie","territoryType":"iris","source":"IGN / INSEE - Contours IRIS WFS Géoplateforme","sourceYear":"2026","officialId":"644220105","sourceCleabs":"IRIS____0000000644220105","communeCode":"64422","communeName":"Oloron-Sainte-Marie","irisCode":"0105","irisType":"H","officialAreaM2":3197415.487854004,"labelLng":-0.6241241972434891,"labelLat":43.20047372957306,"bbox":[-0.64395605,43.18756478,-0.60614678,43.21245353]},"geometry":{"type":"MultiPolygon","coordinates":[[[[-0.63543528,43.2017456],[-0.63635574,43.20267985],[-0.63893426,43.20355548],[-0.63989195,43.20408325],[-0.64147204,43.20460351],[-0.64170852,43.20462524],[-0.64273368,43.20501204],[-0.64395605,43.20606571],[-0.6435239,43.20682498],[-0.64294459,43.20825647],[-0.6431017,43.2085222],[-0.64306464,43.20933927],[-0.64126019,43.21133348],[-0.64057004,43.21245353],[-0.639247,43.21187415],[-0.63859513,43.21145402],[-0.63810881,43.21088692],[-0.6379229,43.20967577],[-0.6376707,43.2091314],[-0.63732652,43.20876841],[-0.63647125,43.20857754],[-0.63547589,43.20858587],[-0.63504819,43.20867502],[-0.6299102,43.21073449],[-0.62830011,43.21081477],[-0.62815035,43.21074326],[-0.62749189,43.20988386],[-0.62640803,43.20807258],[-0.62571422,43.20737464],[-0.62256168,43.20541313],[-0.61998941,43.20367248],[-0.61825852,43.20233307],[-0.61595494,43.20024026],[-0.61368103,43.19962133],[-0.61297167,43.19951633],[-0.61234941,43.19956418],[-0.61068431,43.20011788],[-0.60963604,43.20010434],[-0.60934491,43.20003485],[-0.60906395,43.19997041],[-0.60881389,43.19982931],[-0.60707606,43.19851068],[-0.60641301,43.19776748],[-0.60628616,43.19756912],[-0.6061668,43.19721474],[-0.60614678,43.19628347],[-0.60623366,43.19599963],[-0.60635914,43.19578203],[-0.60653762,43.1956446],[-0.60698048,43.19548392],[-0.60726068,43.19533948],[-0.60794206,43.19482055],[-0.60832213,43.19442335],[-0.60843852,43.19409981],[-0.60848048,43.19374723],[-0.60849883,43.19327299],[-0.60846181,43.19309415],[-0.60809536,43.19256705],[-0.60810688,43.19231814],[-0.60805261,43.19213897],[-0.60812488,43.19150355],[-0.60836205,43.19116336],[-0.60867331,43.1908468],[-0.60951856,43.19031247],[-0.61022363,43.18976032],[-0.61064729,43.18919507],[-0.61066126,43.18882813],[-0.61112507,43.18870815],[-0.61122597,43.18866875],[-0.61121802,43.1886204],[-0.61188887,43.18838723],[-0.61294904,43.18827968],[-0.61315476,43.18822417],[-0.61416164,43.18769789],[-0.61464061,43.18756478],[-0.61509506,43.18798355],[-0.61544104,43.18814394],[-0.61564288,43.18814437],[-0.61602076,43.18899071],[-0.6161456,43.18915671],[-0.6171449,43.18994349],[-0.61737243,43.19027532],[-0.61746486,43.19025781],[-0.61752572,43.19028639],[-0.61754563,43.19036856],[-0.61747728,43.19041677],[-0.61821153,43.19131328],[-0.61841699,43.19148918],[-0.61869721,43.19158153],[-0.61871846,43.19174379],[-0.61862653,43.19186753],[-0.61863373,43.19196274],[-0.61887455,43.19227071],[-0.61914353,43.19222297],[-0.62133256,43.19437626],[-0.62474761,43.19758867],[-0.62709139,43.19690928],[-0.62669365,43.19622031],[-0.62832126,43.19521109],[-0.62887069,43.19551317],[-0.62923088,43.1958198],[-0.62994574,43.19620815],[-0.63027936,43.19658141],[-0.6304707,43.19706031],[-0.63054349,43.19712179],[-0.63052473,43.19733222],[-0.63039472,43.19749598],[-0.63048029,43.19778034],[-0.63044405,43.19790852],[-0.63055325,43.19798139],[-0.63057392,43.19807524],[-0.63069799,43.19811068],[-0.63079403,43.19826773],[-0.63189565,43.20036199],[-0.6338975,43.20037021],[-0.63423482,43.20029311],[-0.63428457,43.2004382],[-0.63543528,43.2017456]]]]}}]}
