{"type":"FeatureCollection","metadata":{"generatedAt":"2026-07-14T18:56:03.503Z","source":"IGN / INSEE - Contours IRIS WFS Géoplateforme","datasetId":"STATISTICALUNITS.IRIS:contours_iris","datasetUrl":"https://geoservices.ign.fr/contoursiris","sourceFileUrl":"https://data.geopf.fr/wfs/ows?SERVICE=WFS&VERSION=2.0.0&REQUEST=GetFeature&TYPENAMES=STATISTICALUNITS.IRIS%3Acontours_iris&OUTPUTFORMAT=application%2Fjson&COUNT=1000&CQL_FILTER=code_insee%3D%2734198%27&SRSNAME=EPSG%3A4326","license":"Licence Ouverte / Open Licence 2.0","sourceYear":"2026","communeCode":"34198","communeName":"Pérols","featureCount":4,"parentCount":1,"parentContract":"technical commune group; not selectable and not displayed as a district","sourceFeatureCount":4,"humanLabelContract":"one visible plate per unique official human place name","groupingContract":"only exact source-ID groups approved by the resolved curation, or source zones sharing the same official name and parent, are merged","groupedZoneCount":0,"groupedSourceFeatureCount":0,"curationStatus":"resolved","curationRevision":1,"curationSources":[{"id":"ign-insee-contours-iris-2026","provider":"IGN / INSEE - Contours IRIS WFS Géoplateforme","datasetUrl":"https://geoservices.ign.fr/contoursiris","role":"official geometry, source identifiers and source labels","vintage":"2026","license":"Licence Ouverte / Open Licence 2.0"},{"id":"ign-geoplateforme-toponymy-2026","provider":"IGN Géoplateforme - reverse geocoding, addresses and named places","datasetUrl":"https://geoservices.ign.fr/geocodage-geoplateforme","role":"official address, street and named-place evidence","vintage":"2026","license":"Licence Ouverte / Open Licence 2.0"},{"id":"guide-alpha-editorial-recovery-2026-07-14","provider":"Meewav Guide Alpha editorial review","datasetUrl":"docs/geospatial/france-semantic-recovery.md","role":"versioned mapping of exact official IRIS identifiers to coherent human place names","vintage":"2026-07-14","license":"Project documentation"}],"sourceCorrections":[{"operationId":"perols-341980101-rename-avenue-louis-pasteur","type":"rename","sourceIds":["341980101"],"expectedLabels":["Centre Ville"],"outputLabel":"Avenue Louis Pasteur","evidenceRefs":["ign-insee-contours-iris-2026","ign-geoplateforme-toponymy-2026","guide-alpha-editorial-recovery-2026-07-14"],"rationale":"The exact official IGN BD TOPO named road has a deterministic evidence point strictly inside this exact IRIS. The 1:1 label is emitted without nearest assignment, invented geometry, split or dropped source cell."},{"operationId":"perols-341980102-rename-rue-de-la-jeannotte","type":"rename","sourceIds":["341980102"],"expectedLabels":["Ouest"],"outputLabel":"Rue de la Jeannotte","evidenceRefs":["ign-insee-contours-iris-2026","ign-geoplateforme-toponymy-2026","guide-alpha-editorial-recovery-2026-07-14"],"rationale":"The exact official IGN BD TOPO named road has a deterministic evidence point strictly inside this exact IRIS. The 1:1 label is emitted without nearest assignment, invented geometry, split or dropped source cell."},{"operationId":"perols-341980103-rename-chemin-des-faisses","type":"rename","sourceIds":["341980103"],"expectedLabels":["Sud"],"outputLabel":"Chemin des Faisses","evidenceRefs":["ign-insee-contours-iris-2026","ign-geoplateforme-toponymy-2026","guide-alpha-editorial-recovery-2026-07-14"],"rationale":"The exact official IGN BD TOPO named road has a deterministic evidence point strictly inside this exact IRIS. The 1:1 label is emitted without nearest assignment, invented geometry, split or dropped source cell."},{"operationId":"perols-341980104-rename-avenue-georges-freche","type":"rename","sourceIds":["341980104"],"expectedLabels":["Zone d'Activités"],"outputLabel":"Avenue Georges Frêche","evidenceRefs":["ign-insee-contours-iris-2026","ign-geoplateforme-toponymy-2026","guide-alpha-editorial-recovery-2026-07-14"],"rationale":"The exact official IGN BD TOPO named road has a deterministic evidence point strictly inside this exact IRIS. The 1:1 label is emitted without nearest assignment, invented geometry, split or dropped source cell."}],"bbox":[3.92969958,43.53802432,3.97264514,43.583861],"areaStatsM2":{"minimum":808264.4953613281,"average":2146975.324859619,"maximum":2792351.7208251953}},"features":[{"type":"Feature","id":"perols_341980101_centre_ville","properties":{"zoneId":"perols_341980101_centre_ville","label":"Avenue Louis Pasteur","districtCode":"341980101","arrondissementCode":"34198","colorIndex":0,"parentZoneId":"perols_parent_34198_perols","parentCode":"34198","parentLabel":"Pérols","territoryType":"iris","source":"IGN / INSEE - Contours IRIS WFS Géoplateforme","sourceYear":"2026","officialId":"341980101","sourceCleabs":"IRIS____0000000341980101","communeCode":"34198","communeName":"Pérols","irisCode":"0101","irisType":"H","officialAreaM2":808264.4953613281,"labelLng":3.951371498660629,"labelLat":43.56655166166938,"bbox":[3.94027697,43.56044848,3.95961866,43.57305235],"curationOperationId":"perols-341980101-rename-avenue-louis-pasteur","curationRevision":1,"curationEvidenceRefs":["ign-insee-contours-iris-2026","ign-geoplateforme-toponymy-2026","guide-alpha-editorial-recovery-2026-07-14"],"curationRationale":"The exact official IGN BD TOPO named road has a deterministic evidence point strictly inside this exact IRIS. The 1:1 label is emitted without nearest assignment, invented geometry, split or dropped source cell.","semanticLabelReviewed":true,"semanticLabelAccepted":false,"semanticResolution":"rename"},"geometry":{"type":"MultiPolygon","coordinates":[[[[3.95961866,43.56294393],[3.95950981,43.5624275],[3.95954737,43.56215813],[3.95903624,43.56185581],[3.95832649,43.5612925],[3.95756445,43.56100588],[3.95721752,43.56060673],[3.9569743,43.56078704],[3.95606343,43.56122157],[3.95601581,43.56111131],[3.95546777,43.56044848],[3.95356369,43.56090612],[3.95330552,43.56093268],[3.95304134,43.56104388],[3.95284848,43.56105367],[3.95264452,43.56114094],[3.95164534,43.56140075],[3.95141977,43.5615278],[3.9511638,43.56176129],[3.95081037,43.56231237],[3.95060927,43.56272174],[3.95065541,43.5628923],[3.94994783,43.56447585],[3.94986164,43.56457649],[3.94948873,43.56544716],[3.94933032,43.56597044],[3.9491158,43.56631784],[3.94907051,43.56649729],[3.94896241,43.56654593],[3.94888935,43.56676702],[3.94875435,43.56691037],[3.94752031,43.56764279],[3.94726889,43.56785554],[3.94641548,43.56833358],[3.94597137,43.56864339],[3.94563851,43.56879565],[3.94535873,43.56901494],[3.94407291,43.56976487],[3.94379031,43.56981322],[3.94370718,43.56987513],[3.94212394,43.5697737],[3.94168849,43.56978378],[3.9412934,43.56983939],[3.94067802,43.57004628],[3.94034498,43.57011305],[3.94027697,43.57026751],[3.94036937,43.57039358],[3.94059765,43.57042849],[3.9410206,43.57078835],[3.94286843,43.57177741],[3.94351987,43.57218297],[3.94384593,43.57244378],[3.94494998,43.57305235],[3.94834452,43.57146609],[3.9542748,43.56855274],[3.95540715,43.56781124],[3.955806,43.56738752],[3.95704649,43.56563816],[3.95734015,43.56529004],[3.95792126,43.56474143],[3.95800004,43.56479113],[3.95961866,43.56294393]]]]}},{"type":"Feature","id":"perols_341980102_ouest","properties":{"zoneId":"perols_341980102_ouest","label":"Rue de la Jeannotte","districtCode":"341980102","arrondissementCode":"34198","colorIndex":1,"parentZoneId":"perols_parent_34198_perols","parentCode":"34198","parentLabel":"Pérols","territoryType":"iris","source":"IGN / INSEE - Contours IRIS WFS Géoplateforme","sourceYear":"2026","officialId":"341980102","sourceCleabs":"IRIS____0000000341980102","communeCode":"34198","communeName":"Pérols","irisCode":"0102","irisType":"H","officialAreaM2":2792351.7208251953,"labelLng":3.9519850302341104,"labelLat":43.55420895,"bbox":[3.93316904,43.53802432,3.95935549,43.57039358],"curationOperationId":"perols-341980102-rename-rue-de-la-jeannotte","curationRevision":1,"curationEvidenceRefs":["ign-insee-contours-iris-2026","ign-geoplateforme-toponymy-2026","guide-alpha-editorial-recovery-2026-07-14"],"curationRationale":"The exact official IGN BD TOPO named road has a deterministic evidence point strictly inside this exact IRIS. The 1:1 label is emitted without nearest assignment, invented geometry, split or dropped source cell.","semanticLabelReviewed":true,"semanticLabelAccepted":false,"semanticResolution":"rename"},"geometry":{"type":"MultiPolygon","coordinates":[[[[3.95935549,43.54452732],[3.93732244,43.53893146],[3.93326809,43.53802432],[3.93316904,43.53824652],[3.95039918,43.55174869],[3.94941153,43.55456741],[3.94605618,43.55546591],[3.94547558,43.55537019],[3.94487953,43.55538797],[3.94359878,43.55567535],[3.94217059,43.55587581],[3.93970779,43.55590795],[3.93968312,43.55598825],[3.93835981,43.55685361],[3.93765552,43.55956359],[3.93954383,43.56017893],[3.94216085,43.56056026],[3.94329231,43.56089417],[3.94341547,43.56101007],[3.94146703,43.56374979],[3.93964542,43.56517736],[3.93818056,43.56587478],[3.93687783,43.56634853],[3.93749262,43.56731951],[3.93777573,43.56874236],[3.93830398,43.56948914],[3.938901,43.57005176],[3.94036937,43.57039358],[3.94027697,43.57026751],[3.94034498,43.57011305],[3.94067802,43.57004628],[3.9412934,43.56983939],[3.94168849,43.56978378],[3.94212394,43.5697737],[3.94370718,43.56987513],[3.94379031,43.56981322],[3.94407291,43.56976487],[3.94535873,43.56901494],[3.94563851,43.56879565],[3.94597137,43.56864339],[3.94641548,43.56833358],[3.94726889,43.56785554],[3.94752031,43.56764279],[3.94875435,43.56691037],[3.94888935,43.56676702],[3.94896241,43.56654593],[3.94907051,43.56649729],[3.9491158,43.56631784],[3.94933032,43.56597044],[3.94948873,43.56544716],[3.94986164,43.56457649],[3.94994783,43.56447585],[3.95065541,43.5628923],[3.95060927,43.56272174],[3.95081037,43.56231237],[3.95074077,43.56199445],[3.95071457,43.56138371],[3.95044059,43.56023076],[3.95043568,43.55970982],[3.95050887,43.55927277],[3.95048052,43.55905527],[3.95052197,43.55901801],[3.95050752,43.55881748],[3.95059855,43.55848646],[3.95073994,43.55828276],[3.95350584,43.55518748],[3.9555716,43.5530071],[3.9556061,43.55277555],[3.95532825,43.55213733],[3.95534274,43.55189246],[3.95935549,43.54452732]]]]}},{"type":"Feature","id":"perols_341980103_sud","properties":{"zoneId":"perols_341980103_sud","label":"Chemin des Faisses","districtCode":"341980103","arrondissementCode":"34198","colorIndex":2,"parentZoneId":"perols_parent_34198_perols","parentCode":"34198","parentLabel":"Pérols","territoryType":"iris","source":"IGN / INSEE - Contours IRIS WFS Géoplateforme","sourceYear":"2026","officialId":"341980103","sourceCleabs":"IRIS____0000000341980103","communeCode":"34198","communeName":"Pérols","irisCode":"0103","irisType":"H","officialAreaM2":2583751.116088867,"labelLng":3.962750783285216,"labelLat":43.55517891184781,"bbox":[3.95043568,43.54452732,3.97264514,43.56825472],"curationOperationId":"perols-341980103-rename-chemin-des-faisses","curationRevision":1,"curationEvidenceRefs":["ign-insee-contours-iris-2026","ign-geoplateforme-toponymy-2026","guide-alpha-editorial-recovery-2026-07-14"],"curationRationale":"The exact official IGN BD TOPO named road has a deterministic evidence point strictly inside this exact IRIS. The 1:1 label is emitted without nearest assignment, invented geometry, split or dropped source cell.","semanticLabelReviewed":true,"semanticLabelAccepted":false,"semanticResolution":"rename"},"geometry":{"type":"MultiPolygon","coordinates":[[[[3.96458196,43.56825472],[3.9652572,43.56771333],[3.96803883,43.56593664],[3.96869702,43.56541517],[3.97192408,43.55144204],[3.97264514,43.54843565],[3.97044179,43.54755017],[3.96956444,43.5471675],[3.95935549,43.54452732],[3.95534274,43.55189246],[3.95532825,43.55213733],[3.9556061,43.55277555],[3.9555716,43.5530071],[3.95350584,43.55518748],[3.95073994,43.55828276],[3.95059855,43.55848646],[3.95050752,43.55881748],[3.95052197,43.55901801],[3.95048052,43.55905527],[3.95050887,43.55927277],[3.95043568,43.55970982],[3.95044059,43.56023076],[3.95071457,43.56138371],[3.95074077,43.56199445],[3.95081037,43.56231237],[3.9511638,43.56176129],[3.95141977,43.5615278],[3.95164534,43.56140075],[3.95264452,43.56114094],[3.95284848,43.56105367],[3.95304134,43.56104388],[3.95330552,43.56093268],[3.95356369,43.56090612],[3.95546777,43.56044848],[3.95601581,43.56111131],[3.95606343,43.56122157],[3.9569743,43.56078704],[3.95721752,43.56060673],[3.95756445,43.56100588],[3.95832649,43.5612925],[3.95903624,43.56185581],[3.95954737,43.56215813],[3.95950981,43.5624275],[3.95961866,43.56294393],[3.96093404,43.56309336],[3.96213948,43.56318076],[3.96234029,43.5631277],[3.96295551,43.56247798],[3.96314772,43.56242859],[3.96324443,43.56244032],[3.96336275,43.56248606],[3.96472898,43.56396852],[3.96457835,43.56398875],[3.96389561,43.56467057],[3.96410071,43.56479922],[3.96477687,43.56416785],[3.96502785,43.5642286],[3.96560699,43.56481913],[3.96502225,43.56529403],[3.96470799,43.56515015],[3.96448776,43.56515211],[3.96429056,43.5654202],[3.96448121,43.56564616],[3.96469536,43.56579723],[3.96475237,43.56594969],[3.96528888,43.56635883],[3.9654268,43.56661315],[3.96537637,43.56685205],[3.96492133,43.56716743],[3.96461039,43.56722148],[3.96368852,43.56759319],[3.96359638,43.56770738],[3.96360761,43.56786025],[3.96458196,43.56825472]]]]}},{"type":"Feature","id":"perols_341980104_zone_d_activites","properties":{"zoneId":"perols_341980104_zone_d_activites","label":"Avenue Georges Frêche","districtCode":"341980104","arrondissementCode":"34198","colorIndex":3,"parentZoneId":"perols_parent_34198_perols","parentCode":"34198","parentLabel":"Pérols","territoryType":"iris","source":"IGN / INSEE - Contours IRIS WFS Géoplateforme","sourceYear":"2026","officialId":"341980104","sourceCleabs":"IRIS____0000000341980104","communeCode":"34198","communeName":"Pérols","irisCode":"0104","irisType":"A","officialAreaM2":2403533.967163086,"labelLng":3.9478021046798206,"labelLat":43.57408551304787,"bbox":[3.92969958,43.56242859,3.96560699,43.583861],"curationOperationId":"perols-341980104-rename-avenue-georges-freche","curationRevision":1,"curationEvidenceRefs":["ign-insee-contours-iris-2026","ign-geoplateforme-toponymy-2026","guide-alpha-editorial-recovery-2026-07-14"],"curationRationale":"The exact official IGN BD TOPO named road has a deterministic evidence point strictly inside this exact IRIS. The 1:1 label is emitted without nearest assignment, invented geometry, split or dropped source cell.","semanticLabelReviewed":true,"semanticLabelAccepted":false,"semanticResolution":"rename"},"geometry":{"type":"MultiPolygon","coordinates":[[[[3.93861072,43.583861],[3.94036639,43.58298019],[3.94161885,43.58130738],[3.94192636,43.58103837],[3.94308422,43.57941405],[3.94829005,43.57895751],[3.95005392,43.57836531],[3.95167226,43.57773207],[3.95591479,43.57429351],[3.95803918,43.57395896],[3.959247,43.57336072],[3.96458196,43.56825472],[3.96360761,43.56786025],[3.96359638,43.56770738],[3.96368852,43.56759319],[3.96461039,43.56722148],[3.96492133,43.56716743],[3.96537637,43.56685205],[3.9654268,43.56661315],[3.96528888,43.56635883],[3.96475237,43.56594969],[3.96469536,43.56579723],[3.96448121,43.56564616],[3.96429056,43.5654202],[3.96448776,43.56515211],[3.96470799,43.56515015],[3.96502225,43.56529403],[3.96560699,43.56481913],[3.96502785,43.5642286],[3.96477687,43.56416785],[3.96410071,43.56479922],[3.96389561,43.56467057],[3.96457835,43.56398875],[3.96472898,43.56396852],[3.96336275,43.56248606],[3.96324443,43.56244032],[3.96314772,43.56242859],[3.96295551,43.56247798],[3.96234029,43.5631277],[3.96213948,43.56318076],[3.96093404,43.56309336],[3.95961866,43.56294393],[3.95800004,43.56479113],[3.95792126,43.56474143],[3.95734015,43.56529004],[3.95704649,43.56563816],[3.955806,43.56738752],[3.95540715,43.56781124],[3.9542748,43.56855274],[3.94834452,43.57146609],[3.94494998,43.57305235],[3.94384593,43.57244378],[3.94351987,43.57218297],[3.94286843,43.57177741],[3.9410206,43.57078835],[3.94059765,43.57042849],[3.94036937,43.57039358],[3.93780304,43.57268689],[3.9369317,43.57328919],[3.93582223,43.57462057],[3.93332985,43.57676558],[3.93289236,43.5774145],[3.93209969,43.57966814],[3.93129756,43.58195245],[3.93018835,43.58278349],[3.92969958,43.58325198],[3.93103134,43.58316769],[3.93434413,43.58326701],[3.93616065,43.58315419],[3.93861072,43.583861]]]]}}]}
