{"type":"FeatureCollection","metadata":{"generatedAt":"2026-07-14T18:56:03.503Z","source":"IGN / INSEE - Contours IRIS WFS Géoplateforme","datasetId":"STATISTICALUNITS.IRIS:contours_iris","datasetUrl":"https://geoservices.ign.fr/contoursiris","sourceFileUrl":"https://data.geopf.fr/wfs/ows?SERVICE=WFS&VERSION=2.0.0&REQUEST=GetFeature&TYPENAMES=STATISTICALUNITS.IRIS%3Acontours_iris&OUTPUTFORMAT=application%2Fjson&COUNT=1000&CQL_FILTER=code_insee%3D%2795487%27&SRSNAME=EPSG%3A4326","license":"Licence Ouverte / Open Licence 2.0","sourceYear":"2026","communeCode":"95487","communeName":"Persan","featureCount":5,"parentCount":1,"parentContract":"technical commune group; not selectable and not displayed as a district","sourceFeatureCount":5,"humanLabelContract":"one visible plate per unique official human place name","groupingContract":"only exact source-ID groups approved by the resolved curation, or source zones sharing the same official name and parent, are merged","groupedZoneCount":0,"groupedSourceFeatureCount":0,"curationStatus":"resolved","curationRevision":1,"curationSources":[{"id":"ign-insee-contours-iris-2026","provider":"IGN / INSEE - Contours IRIS WFS Géoplateforme","datasetUrl":"https://geoservices.ign.fr/contoursiris","role":"official geometry, source identifiers and source labels","vintage":"2026","license":"Licence Ouverte / Open Licence 2.0"},{"id":"ign-geoplateforme-toponymy-2026","provider":"IGN Géoplateforme - reverse geocoding, addresses and named places","datasetUrl":"https://geoservices.ign.fr/geocodage-geoplateforme","role":"official address, street and named-place evidence","vintage":"2026","license":"Licence Ouverte / Open Licence 2.0"},{"id":"guide-alpha-editorial-recovery-2026-07-14","provider":"Meewav Guide Alpha editorial review","datasetUrl":"docs/geospatial/france-semantic-recovery.md","role":"versioned mapping of exact official IRIS identifiers to coherent human place names","vintage":"2026-07-14","license":"Project documentation"}],"sourceCorrections":[{"operationId":"persan-954870102-rename-rue-albert-leyge","type":"rename","sourceIds":["954870102"],"expectedLabels":["Village 1"],"outputLabel":"Rue Albert Leyge","evidenceRefs":["ign-insee-contours-iris-2026","ign-geoplateforme-toponymy-2026","guide-alpha-editorial-recovery-2026-07-14"],"rationale":"The exact official IGN BD TOPO named road has a deterministic evidence point strictly inside this exact IRIS. The 1:1 label is emitted without nearest assignment, invented geometry, split or dropped source cell."},{"operationId":"persan-954870103-rename-avenue-paul-vaillant-couturier","type":"rename","sourceIds":["954870103"],"expectedLabels":["Village 2"],"outputLabel":"Avenue Paul Vaillant Couturier","evidenceRefs":["ign-insee-contours-iris-2026","ign-geoplateforme-toponymy-2026","guide-alpha-editorial-recovery-2026-07-14"],"rationale":"The exact official IGN BD TOPO named road has a deterministic evidence point strictly inside this exact IRIS. The 1:1 label is emitted without nearest assignment, invented geometry, split or dropped source cell."}],"bbox":[2.24047535,49.13599375,2.2939463,49.15987332],"areaStatsM2":{"minimum":80089.25256347656,"average":1027656.962512207,"maximum":3405745.9891967773}},"features":[{"type":"Feature","id":"persan_954870101_vieux_persan","properties":{"zoneId":"persan_954870101_vieux_persan","label":"Vieux Persan","districtCode":"954870101","arrondissementCode":"95487","colorIndex":0,"parentZoneId":"persan_parent_95487_persan","parentCode":"95487","parentLabel":"Persan","territoryType":"iris","source":"IGN / INSEE - Contours IRIS WFS Géoplateforme","sourceYear":"2026","officialId":"954870101","sourceCleabs":"IRIS____0000000954870101","communeCode":"95487","communeName":"Persan","irisCode":"0101","irisType":"H","officialAreaM2":3405745.9891967773,"labelLng":2.263735261335829,"labelLat":49.14760968664008,"bbox":[2.24047535,49.13599375,2.2939463,49.15822576]},"geometry":{"type":"MultiPolygon","coordinates":[[[[2.26791861,49.13940424],[2.26645841,49.13858524],[2.26543506,49.13779047],[2.26398412,49.13632593],[2.26377233,49.13599375],[2.26161196,49.13710712],[2.26113083,49.13673283],[2.25844309,49.13973914],[2.25912627,49.13997622],[2.258415,49.14131872],[2.25919263,49.14166068],[2.25818212,49.14293929],[2.25732408,49.14266067],[2.25556982,49.14447684],[2.25443748,49.14392586],[2.25225858,49.14638042],[2.25202218,49.14680603],[2.2526597,49.14707703],[2.25115023,49.14767724],[2.24399199,49.14896229],[2.24402083,49.14905238],[2.24047535,49.149494],[2.24131503,49.15158883],[2.24167031,49.15241376],[2.24186538,49.1534148],[2.24552841,49.15338926],[2.25036018,49.15349407],[2.25378029,49.15263329],[2.25875902,49.15577856],[2.25971265,49.15513887],[2.26008144,49.15532815],[2.25985506,49.15543735],[2.25989561,49.15605349],[2.25945993,49.15661185],[2.26078533,49.15729792],[2.26195242,49.15822576],[2.26321879,49.15757357],[2.26377284,49.15746188],[2.26385987,49.15731855],[2.26403467,49.15717307],[2.27100952,49.15367034],[2.27161482,49.15332155],[2.27168944,49.15318174],[2.27179963,49.15314375],[2.26987689,49.1525306],[2.26987678,49.15244159],[2.2697772,49.15240682],[2.26967528,49.15244126],[2.26917214,49.15215589],[2.26757898,49.15121383],[2.26743771,49.15102596],[2.26870226,49.14941795],[2.26927689,49.14852053],[2.26972605,49.14864643],[2.27044005,49.14875056],[2.2721279,49.14929305],[2.27647424,49.15066432],[2.27674383,49.15079362],[2.27918967,49.14957291],[2.28062641,49.14876152],[2.28112059,49.14851003],[2.28185645,49.14822491],[2.28209699,49.14817599],[2.28308445,49.14753721],[2.28390443,49.14681651],[2.28466829,49.14599028],[2.28471891,49.14599687],[2.28491231,49.14608523],[2.28951362,49.14965677],[2.28970565,49.14964622],[2.2898351,49.14970183],[2.29282765,49.1512776],[2.29339586,49.15152459],[2.29362271,49.15167517],[2.2939463,49.15126528],[2.29302596,49.15090833],[2.29035412,49.14943515],[2.28928897,49.14864754],[2.28627595,49.14598993],[2.28527861,49.14536362],[2.28479564,49.14510451],[2.28361609,49.14467401],[2.28069207,49.14393458],[2.27986823,49.14365093],[2.27805251,49.14265462],[2.27713328,49.14233442],[2.27230019,49.14102944],[2.2704451,49.14041221],[2.26791861,49.13940424]]]]}},{"type":"Feature","id":"persan_954870102_village_1","properties":{"zoneId":"persan_954870102_village_1","label":"Rue Albert Leyge","districtCode":"954870102","arrondissementCode":"95487","colorIndex":1,"parentZoneId":"persan_parent_95487_persan","parentCode":"95487","parentLabel":"Persan","territoryType":"iris","source":"IGN / INSEE - Contours IRIS WFS Géoplateforme","sourceYear":"2026","officialId":"954870102","sourceCleabs":"IRIS____0000000954870102","communeCode":"95487","communeName":"Persan","irisCode":"0102","irisType":"H","officialAreaM2":80089.25256347656,"labelLng":2.2697172334222975,"labelLat":49.15037731842237,"bbox":[2.26743771,49.14852053,2.2721279,49.15244159],"curationOperationId":"persan-954870102-rename-rue-albert-leyge","curationRevision":1,"curationEvidenceRefs":["ign-insee-contours-iris-2026","ign-geoplateforme-toponymy-2026","guide-alpha-editorial-recovery-2026-07-14"],"curationRationale":"The exact official IGN BD TOPO named road has a deterministic evidence point strictly inside this exact IRIS. The 1:1 label is emitted without nearest assignment, invented geometry, split or dropped source cell.","semanticLabelReviewed":true,"semanticLabelAccepted":false,"semanticResolution":"rename"},"geometry":{"type":"MultiPolygon","coordinates":[[[[2.26987678,49.15244159],[2.27083374,49.15116166],[2.27081463,49.15105905],[2.27137901,49.15030362],[2.27144934,49.15027347],[2.27144343,49.1502069],[2.2721279,49.14929305],[2.27044005,49.14875056],[2.26972605,49.14864643],[2.26927689,49.14852053],[2.26870226,49.14941795],[2.26743771,49.15102596],[2.26757898,49.15121383],[2.26917214,49.15215589],[2.26967528,49.15244126],[2.2697772,49.15240682],[2.26987678,49.15244159]]]]}},{"type":"Feature","id":"persan_954870103_village_2","properties":{"zoneId":"persan_954870103_village_2","label":"Avenue Paul Vaillant Couturier","districtCode":"954870103","arrondissementCode":"95487","colorIndex":2,"parentZoneId":"persan_parent_95487_persan","parentCode":"95487","parentLabel":"Persan","territoryType":"iris","source":"IGN / INSEE - Contours IRIS WFS Géoplateforme","sourceYear":"2026","officialId":"954870103","sourceCleabs":"IRIS____0000000954870103","communeCode":"95487","communeName":"Persan","irisCode":"0103","irisType":"H","officialAreaM2":107907.77227783203,"labelLng":2.272898176655825,"labelLat":49.15125778823013,"bbox":[2.26987678,49.14929305,2.27674383,49.15314375],"curationOperationId":"persan-954870103-rename-avenue-paul-vaillant-couturier","curationRevision":1,"curationEvidenceRefs":["ign-insee-contours-iris-2026","ign-geoplateforme-toponymy-2026","guide-alpha-editorial-recovery-2026-07-14"],"curationRationale":"The exact official IGN BD TOPO named road has a deterministic evidence point strictly inside this exact IRIS. The 1:1 label is emitted without nearest assignment, invented geometry, split or dropped source cell.","semanticLabelReviewed":true,"semanticLabelAccepted":false,"semanticResolution":"rename"},"geometry":{"type":"MultiPolygon","coordinates":[[[[2.26987678,49.15244159],[2.26987689,49.1525306],[2.27179963,49.15314375],[2.27250332,49.15291334],[2.27674383,49.15079362],[2.27647424,49.15066432],[2.2721279,49.14929305],[2.27144343,49.1502069],[2.27144934,49.15027347],[2.27137901,49.15030362],[2.27081463,49.15105905],[2.27083374,49.15116166],[2.26987678,49.15244159]]]]}},{"type":"Feature","id":"persan_954870104_fresnays","properties":{"zoneId":"persan_954870104_fresnays","label":"Fresnays","districtCode":"954870104","arrondissementCode":"95487","colorIndex":3,"parentZoneId":"persan_parent_95487_persan","parentCode":"95487","parentLabel":"Persan","territoryType":"iris","source":"IGN / INSEE - Contours IRIS WFS Géoplateforme","sourceYear":"2026","officialId":"954870104","sourceCleabs":"IRIS____0000000954870104","communeCode":"95487","communeName":"Persan","irisCode":"0104","irisType":"H","officialAreaM2":614309.1545410156,"labelLng":2.2768725173419786,"labelLat":49.1537676043538,"bbox":[2.26195242,49.14876152,2.28489086,49.15838072]},"geometry":{"type":"MultiPolygon","coordinates":[[[[2.26195242,49.15822576],[2.26215036,49.15838072],[2.26816594,49.1557516],[2.26934961,49.15599705],[2.27012013,49.15686396],[2.27097016,49.15724584],[2.28125251,49.15569557],[2.28222148,49.15541274],[2.28262705,49.15522904],[2.28314219,49.15495159],[2.28369166,49.15457095],[2.28415415,49.15413583],[2.28442495,49.1537832],[2.28471727,49.15326166],[2.28485433,49.15286596],[2.28489086,49.15200664],[2.28480483,49.15158624],[2.28462196,49.15113111],[2.28437639,49.15075022],[2.28396226,49.15026764],[2.28364694,49.15027206],[2.28366744,49.15037557],[2.28340227,49.15061945],[2.2822375,49.15138844],[2.28131477,49.1509127],[2.28018311,49.15087537],[2.27986347,49.15079614],[2.27970616,49.15067472],[2.28165149,49.14906885],[2.28062641,49.14876152],[2.27918967,49.14957291],[2.27674383,49.15079362],[2.27250332,49.15291334],[2.27179963,49.15314375],[2.27168944,49.15318174],[2.27161482,49.15332155],[2.27100952,49.15367034],[2.26403467,49.15717307],[2.26385987,49.15731855],[2.26377284,49.15746188],[2.26321879,49.15757357],[2.26195242,49.15822576]]]]}},{"type":"Feature","id":"persan_954870105_limite_persan_bernes","properties":{"zoneId":"persan_954870105_limite_persan_bernes","label":"Limite Persan-Bernes","districtCode":"954870105","arrondissementCode":"95487","colorIndex":4,"parentZoneId":"persan_parent_95487_persan","parentCode":"95487","parentLabel":"Persan","territoryType":"iris","source":"IGN / INSEE - Contours IRIS WFS Géoplateforme","sourceYear":"2026","officialId":"954870105","sourceCleabs":"IRIS____0000000954870105","communeCode":"95487","communeName":"Persan","irisCode":"0105","irisType":"H","officialAreaM2":930232.6439819336,"labelLng":2.284738301570975,"labelLat":49.15397040006277,"bbox":[2.27097016,49.14599028,2.29362271,49.15987332]},"geometry":{"type":"MultiPolygon","coordinates":[[[[2.27097016,49.15724584],[2.27140047,49.15745074],[2.27401201,49.15813095],[2.27542421,49.158705],[2.27671319,49.15897528],[2.27864872,49.15888979],[2.27872455,49.15875988],[2.28119496,49.15885467],[2.28248224,49.15915096],[2.28296172,49.1596699],[2.28647943,49.15987332],[2.28715269,49.15896742],[2.28740513,49.15765802],[2.28826143,49.15779346],[2.28878307,49.1573425],[2.28941795,49.15652986],[2.29271255,49.15288092],[2.29362271,49.15167517],[2.29339586,49.15152459],[2.29282765,49.1512776],[2.2898351,49.14970183],[2.28970565,49.14964622],[2.28951362,49.14965677],[2.28491231,49.14608523],[2.28471891,49.14599687],[2.28466829,49.14599028],[2.28390443,49.14681651],[2.28308445,49.14753721],[2.28209699,49.14817599],[2.28185645,49.14822491],[2.28112059,49.14851003],[2.28062641,49.14876152],[2.28165149,49.14906885],[2.27970616,49.15067472],[2.27986347,49.15079614],[2.28018311,49.15087537],[2.28131477,49.1509127],[2.2822375,49.15138844],[2.28340227,49.15061945],[2.28366744,49.15037557],[2.28364694,49.15027206],[2.28396226,49.15026764],[2.28437639,49.15075022],[2.28462196,49.15113111],[2.28480483,49.15158624],[2.28489086,49.15200664],[2.28485433,49.15286596],[2.28471727,49.15326166],[2.28442495,49.1537832],[2.28415415,49.15413583],[2.28369166,49.15457095],[2.28314219,49.15495159],[2.28262705,49.15522904],[2.28222148,49.15541274],[2.28125251,49.15569557],[2.27097016,49.15724584]]]]}}]}
