{"type":"FeatureCollection","metadata":{"generatedAt":"2026-07-14T18:56:03.503Z","source":"IGN / INSEE - Contours IRIS WFS Géoplateforme","datasetId":"STATISTICALUNITS.IRIS:contours_iris","datasetUrl":"https://geoservices.ign.fr/contoursiris","sourceFileUrl":"https://data.geopf.fr/wfs/ows?SERVICE=WFS&VERSION=2.0.0&REQUEST=GetFeature&TYPENAMES=STATISTICALUNITS.IRIS%3Acontours_iris&OUTPUTFORMAT=application%2Fjson&COUNT=1000&CQL_FILTER=code_insee%3D%2734199%27&SRSNAME=EPSG%3A4326","license":"Licence Ouverte / Open Licence 2.0","sourceYear":"2026","communeCode":"34199","communeName":"Pézenas","featureCount":3,"parentCount":1,"parentContract":"technical commune group; not selectable and not displayed as a district","sourceFeatureCount":3,"humanLabelContract":"one visible plate per unique official human place name","groupingContract":"only exact source-ID groups approved by the resolved curation, or source zones sharing the same official name and parent, are merged","groupedZoneCount":0,"groupedSourceFeatureCount":0,"curationStatus":"resolved","curationRevision":1,"curationSources":[{"id":"ign-insee-contours-iris-2026","provider":"IGN / INSEE - Contours IRIS WFS Géoplateforme","datasetUrl":"https://geoservices.ign.fr/contoursiris","role":"official geometry, source identifiers and source labels","vintage":"2026","license":"Licence Ouverte / Open Licence 2.0"},{"id":"ign-geoplateforme-toponymy-2026","provider":"IGN Géoplateforme - reverse geocoding, addresses and named places","datasetUrl":"https://geoservices.ign.fr/geocodage-geoplateforme","role":"official address, street and named-place evidence","vintage":"2026","license":"Licence Ouverte / Open Licence 2.0"},{"id":"guide-alpha-editorial-recovery-2026-07-14","provider":"Meewav Guide Alpha editorial review","datasetUrl":"docs/geospatial/france-semantic-recovery.md","role":"versioned mapping of exact official IRIS identifiers to coherent human place names","vintage":"2026-07-14","license":"Project documentation"}],"sourceCorrections":[{"operationId":"pezenas-341990101-rename-rue-henri-reboul","type":"rename","sourceIds":["341990101"],"expectedLabels":["Centre Ville"],"outputLabel":"Rue Henri Reboul","evidenceRefs":["ign-insee-contours-iris-2026","ign-geoplateforme-toponymy-2026","guide-alpha-editorial-recovery-2026-07-14"],"rationale":"The exact official IGN BD TOPO named road has a deterministic evidence point strictly inside this exact IRIS. The 1:1 label is emitted without nearest assignment, invented geometry, split or dropped source cell."},{"operationId":"pezenas-341990102-rename-montpezat","type":"rename","sourceIds":["341990102"],"expectedLabels":["Nord"],"outputLabel":"Montpezat","evidenceRefs":["ign-insee-contours-iris-2026","ign-geoplateforme-toponymy-2026","guide-alpha-editorial-recovery-2026-07-14"],"rationale":"The exact official IGN BD TOPO habitation toponym has a deterministic evidence point strictly inside this exact IRIS. The 1:1 label is emitted without nearest assignment, invented geometry, split or dropped source cell."},{"operationId":"pezenas-341990103-rename-saint-martin-de-graves","type":"rename","sourceIds":["341990103"],"expectedLabels":["Sud"],"outputLabel":"Saint-Martin de Graves","evidenceRefs":["ign-insee-contours-iris-2026","ign-geoplateforme-toponymy-2026","guide-alpha-editorial-recovery-2026-07-14"],"rationale":"The exact official IGN BD TOPO habitation toponym has a deterministic evidence point strictly inside this exact IRIS. The 1:1 label is emitted without nearest assignment, invented geometry, split or dropped source cell."}],"bbox":[3.37284677,43.42050386,3.46308939,43.50272626],"areaStatsM2":{"minimum":453542.28369140625,"average":9823172.470214844,"maximum":15776312.20715332}},"features":[{"type":"Feature","id":"pezenas_341990101_centre_ville","properties":{"zoneId":"pezenas_341990101_centre_ville","label":"Rue Henri Reboul","districtCode":"341990101","arrondissementCode":"34199","colorIndex":0,"parentZoneId":"pezenas_parent_34199_pezenas","parentCode":"34199","parentLabel":"Pézenas","territoryType":"iris","source":"IGN / INSEE - Contours IRIS WFS Géoplateforme","sourceYear":"2026","officialId":"341990101","sourceCleabs":"IRIS____0000000341990101","communeCode":"34199","communeName":"Pézenas","irisCode":"0101","irisType":"H","officialAreaM2":453542.28369140625,"labelLng":3.4205373748884935,"labelLat":43.459535197429275,"bbox":[3.4138721,43.45602734,3.42708833,43.46337525],"curationOperationId":"pezenas-341990101-rename-rue-henri-reboul","curationRevision":1,"curationEvidenceRefs":["ign-insee-contours-iris-2026","ign-geoplateforme-toponymy-2026","guide-alpha-editorial-recovery-2026-07-14"],"curationRationale":"The exact official IGN BD TOPO named road has a deterministic evidence point strictly inside this exact IRIS. The 1:1 label is emitted without nearest assignment, invented geometry, split or dropped source cell.","semanticLabelReviewed":true,"semanticLabelAccepted":false,"semanticResolution":"rename"},"geometry":{"type":"MultiPolygon","coordinates":[[[[3.41749882,43.46004887],[3.41761244,43.46021757],[3.41758547,43.46041561],[3.4168973,43.46243086],[3.41691495,43.46248027],[3.41713925,43.46241193],[3.41821013,43.46292153],[3.4182852,43.46305349],[3.418239,43.46315534],[3.4183703,43.46337525],[3.41884302,43.4631584],[3.41922619,43.46285643],[3.41969342,43.46256312],[3.42022122,43.46210943],[3.42043196,43.46187649],[3.42054026,43.46182209],[3.42104321,43.46236265],[3.42176237,43.46274043],[3.42261822,43.4627245],[3.42291505,43.46260998],[3.42309209,43.46249863],[3.42347629,43.46217234],[3.42367853,43.46212746],[3.4241181,43.46210865],[3.42425313,43.46182742],[3.42444663,43.46160444],[3.42700387,43.45950982],[3.42708833,43.45940692],[3.4270749,43.45926122],[3.42619501,43.45852694],[3.42595755,43.45864933],[3.42499477,43.45772464],[3.42454916,43.45775697],[3.42338385,43.45800445],[3.42236978,43.45832869],[3.42166601,43.45633683],[3.41917843,43.45731994],[3.418268,43.45644176],[3.41794882,43.45602734],[3.41750802,43.45621167],[3.41596044,43.45671065],[3.41577094,43.45680584],[3.41483585,43.45712522],[3.41409507,43.45750232],[3.4138721,43.45775328],[3.41401826,43.4578121],[3.41447257,43.45812796],[3.4165442,43.45938227],[3.41749882,43.46004887]]]]}},{"type":"Feature","id":"pezenas_341990102_nord","properties":{"zoneId":"pezenas_341990102_nord","label":"Montpezat","districtCode":"341990102","arrondissementCode":"34199","colorIndex":1,"parentZoneId":"pezenas_parent_34199_pezenas","parentCode":"34199","parentLabel":"Pézenas","territoryType":"iris","source":"IGN / INSEE - Contours IRIS WFS Géoplateforme","sourceYear":"2026","officialId":"341990102","sourceCleabs":"IRIS____0000000341990102","communeCode":"34199","communeName":"Pézenas","irisCode":"0102","irisType":"H","officialAreaM2":15776312.20715332,"labelLng":3.4064471721290777,"labelLat":43.47391015221446,"bbox":[3.37284677,43.44892639,3.43692366,43.50272626],"curationOperationId":"pezenas-341990102-rename-montpezat","curationRevision":1,"curationEvidenceRefs":["ign-insee-contours-iris-2026","ign-geoplateforme-toponymy-2026","guide-alpha-editorial-recovery-2026-07-14"],"curationRationale":"The exact official IGN BD TOPO habitation toponym has a deterministic evidence point strictly inside this exact IRIS. The 1:1 label is emitted without nearest assignment, invented geometry, split or dropped source cell.","semanticLabelReviewed":true,"semanticLabelAccepted":false,"semanticResolution":"rename"},"geometry":{"type":"MultiPolygon","coordinates":[[[[3.3968206,43.44892639],[3.39610981,43.45007338],[3.39685202,43.45079581],[3.39364776,43.45210484],[3.39198624,43.4531131],[3.39086305,43.453567],[3.38992084,43.4541228],[3.38784245,43.45504883],[3.38724508,43.45547022],[3.38687156,43.45612292],[3.38560279,43.45606176],[3.38477857,43.45636069],[3.38438377,43.45642237],[3.38386988,43.4564035],[3.38354193,43.45630389],[3.38343636,43.45769608],[3.38322423,43.45866849],[3.38236657,43.4610044],[3.38232286,43.46148948],[3.38251999,43.46215905],[3.3823623,43.46389331],[3.3818887,43.46474428],[3.38169723,43.46585877],[3.38166355,43.46711126],[3.38126552,43.46893273],[3.38103125,43.46918457],[3.3802546,43.46961105],[3.38041882,43.46978771],[3.37993139,43.47005303],[3.37848984,43.47062488],[3.37831091,43.47065339],[3.37795084,43.47056378],[3.37724194,43.47021447],[3.37568889,43.47149922],[3.37284677,43.47384824],[3.37451643,43.47432652],[3.37440976,43.47464088],[3.37535287,43.47490393],[3.37706663,43.47588315],[3.37732711,43.47585255],[3.37743763,43.47593944],[3.37742436,43.4761752],[3.37835437,43.47688452],[3.37861872,43.47744051],[3.37864574,43.4777922],[3.3790921,43.47821979],[3.37974055,43.47856751],[3.37996302,43.4789536],[3.38073123,43.47965806],[3.38132541,43.48001406],[3.38148298,43.48030051],[3.38176961,43.48048483],[3.38213609,43.48059871],[3.3831255,43.48074546],[3.38320914,43.48087382],[3.38317168,43.48137149],[3.38354136,43.48177955],[3.38446423,43.48213346],[3.38506274,43.48257669],[3.38593912,43.48299733],[3.38911666,43.4811119],[3.3897863,43.4801963],[3.39125963,43.48100612],[3.39361538,43.48256667],[3.3932537,43.48297825],[3.39651929,43.48511664],[3.39767102,43.48942021],[3.39769313,43.48975842],[3.39820413,43.49092166],[3.39830962,43.49152138],[3.39858856,43.49200619],[3.39851637,43.49228807],[3.39975131,43.49287733],[3.40210411,43.49479491],[3.40308354,43.49541567],[3.40380073,43.49599871],[3.40372608,43.49645604],[3.40452769,43.49656282],[3.40501686,43.49688039],[3.40513121,43.49697174],[3.40505348,43.49716547],[3.40534232,43.49729035],[3.40636476,43.49803868],[3.40872541,43.49995789],[3.4092986,43.50026343],[3.41183144,43.50272626],[3.41318773,43.50191946],[3.41498301,43.50131879],[3.41572359,43.50066636],[3.41584811,43.50045175],[3.4158823,43.50005305],[3.41589381,43.49925226],[3.41629245,43.49797854],[3.41634587,43.49750509],[3.4163094,43.49673597],[3.41601936,43.49542351],[3.41746882,43.49454432],[3.41778029,43.49455032],[3.41783638,43.49427569],[3.41871658,43.49295692],[3.42008447,43.49192147],[3.42107313,43.49074531],[3.42201862,43.48992111],[3.42297877,43.48840586],[3.42525827,43.48868755],[3.42579316,43.48799717],[3.42654161,43.48727807],[3.42657126,43.48694506],[3.42675572,43.48665823],[3.42722347,43.48641437],[3.42739513,43.48623555],[3.42988468,43.48487165],[3.43072078,43.48448506],[3.43114243,43.48436013],[3.43121505,43.4844876],[3.43186503,43.48416291],[3.43210482,43.48417456],[3.4336232,43.48349282],[3.43392779,43.48357617],[3.43451947,43.48355311],[3.43566632,43.48341625],[3.43588518,43.48327502],[3.43692366,43.48318717],[3.43633739,43.47855066],[3.43589609,43.47754208],[3.43558506,43.47709438],[3.43498624,43.47649128],[3.4346234,43.47621473],[3.43169852,43.47432985],[3.43111316,43.47386434],[3.43069885,43.47347462],[3.43026096,43.47290415],[3.42997538,43.47238076],[3.42975595,43.47178153],[3.42963489,43.47095609],[3.42970071,43.47034134],[3.4297836,43.47002702],[3.42996757,43.46951886],[3.4312223,43.46683729],[3.43151672,43.46574299],[3.4315447,43.46436815],[3.43139281,43.46140968],[3.43130537,43.4606201],[3.43121986,43.46025156],[3.4310123,43.45974857],[3.43037217,43.45871197],[3.42979582,43.45810877],[3.42918429,43.45758847],[3.4280305,43.45689038],[3.42753291,43.45757251],[3.42709149,43.4580034],[3.4264157,43.45847479],[3.42619501,43.45852694],[3.4270749,43.45926122],[3.42708833,43.45940692],[3.42700387,43.45950982],[3.42444663,43.46160444],[3.42425313,43.46182742],[3.4241181,43.46210865],[3.42367853,43.46212746],[3.42347629,43.46217234],[3.42309209,43.46249863],[3.42291505,43.46260998],[3.42261822,43.4627245],[3.42176237,43.46274043],[3.42104321,43.46236265],[3.42054026,43.46182209],[3.42043196,43.46187649],[3.42022122,43.46210943],[3.41969342,43.46256312],[3.41922619,43.46285643],[3.41884302,43.4631584],[3.4183703,43.46337525],[3.418239,43.46315534],[3.4182852,43.46305349],[3.41821013,43.46292153],[3.41713925,43.46241193],[3.41691495,43.46248027],[3.4168973,43.46243086],[3.41758547,43.46041561],[3.41761244,43.46021757],[3.41749882,43.46004887],[3.41538422,43.46037638],[3.41388549,43.46047298],[3.41281861,43.46050764],[3.41252059,43.46045839],[3.41135936,43.46042682],[3.41082227,43.46027951],[3.41061391,43.46015794],[3.41042087,43.45993375],[3.41011611,43.45945717],[3.40893175,43.45790698],[3.40871123,43.45746427],[3.4085863,43.45708867],[3.40854868,43.45666147],[3.40862748,43.45610516],[3.40885705,43.45556359],[3.40938163,43.45482837],[3.40932407,43.45472332],[3.40916525,43.45461866],[3.40809599,43.4543042],[3.40733675,43.45381853],[3.40717258,43.4536563],[3.40700283,43.45322779],[3.4067863,43.4521211],[3.40634182,43.45126087],[3.40613097,43.45095667],[3.40597443,43.4508232],[3.40559758,43.45061859],[3.4053327,43.45053141],[3.40249862,43.45000396],[3.40098698,43.44980624],[3.39811071,43.44923745],[3.3968206,43.44892639]]]]}},{"type":"Feature","id":"pezenas_341990103_sud","properties":{"zoneId":"pezenas_341990103_sud","label":"Saint-Martin de Graves","districtCode":"341990103","arrondissementCode":"34199","colorIndex":2,"parentZoneId":"pezenas_parent_34199_pezenas","parentCode":"34199","parentLabel":"Pézenas","territoryType":"iris","source":"IGN / INSEE - Contours IRIS WFS Géoplateforme","sourceYear":"2026","officialId":"341990103","sourceCleabs":"IRIS____0000000341990103","communeCode":"34199","communeName":"Pézenas","irisCode":"0103","irisType":"H","officialAreaM2":13239662.919799805,"labelLng":3.4272052968841167,"labelLat":43.450758511054715,"bbox":[3.3968206,43.42050386,3.46308939,43.4832645],"curationOperationId":"pezenas-341990103-rename-saint-martin-de-graves","curationRevision":1,"curationEvidenceRefs":["ign-insee-contours-iris-2026","ign-geoplateforme-toponymy-2026","guide-alpha-editorial-recovery-2026-07-14"],"curationRationale":"The exact official IGN BD TOPO habitation toponym has a deterministic evidence point strictly inside this exact IRIS. The 1:1 label is emitted without nearest assignment, invented geometry, split or dropped source cell.","semanticLabelReviewed":true,"semanticLabelAccepted":false,"semanticResolution":"rename"},"geometry":{"type":"MultiPolygon","coordinates":[[[[3.46308939,43.45335085],[3.46220925,43.45355254],[3.46177585,43.45310094],[3.46099066,43.45359282],[3.46103439,43.45365651],[3.45962595,43.45451089],[3.45940187,43.45459731],[3.45918763,43.45421495],[3.45777431,43.45492719],[3.45735425,43.45506211],[3.45717287,43.45461663],[3.4568983,43.45441086],[3.45649076,43.45425604],[3.45573712,43.45452911],[3.45460861,43.45425135],[3.45325349,43.4540501],[3.45291524,43.45422425],[3.4523683,43.45471506],[3.45202039,43.4547597],[3.45140169,43.45507897],[3.45120539,43.45540187],[3.45069117,43.45565952],[3.45019789,43.45606643],[3.44936601,43.45629211],[3.44883681,43.45684761],[3.44851729,43.45705046],[3.44777859,43.45719027],[3.4471268,43.4570724],[3.44660962,43.45551987],[3.44325599,43.45175766],[3.4418878,43.45080779],[3.44107698,43.45039184],[3.44098987,43.44998194],[3.43899719,43.4492289],[3.4374025,43.44802977],[3.43559715,43.44623498],[3.43470071,43.44558542],[3.43417118,43.44462938],[3.4332891,43.44375033],[3.43317936,43.44295095],[3.4322953,43.44163736],[3.43192253,43.44017147],[3.43110139,43.43917251],[3.43052691,43.43780369],[3.42953402,43.43743876],[3.42821614,43.43653711],[3.42759753,43.43602764],[3.42712906,43.43528726],[3.4266842,43.43489765],[3.42526128,43.4344687],[3.42690987,43.4336984],[3.42738621,43.43334115],[3.42817654,43.43254183],[3.42836932,43.43207054],[3.42839141,43.43105832],[3.42816724,43.42979877],[3.42810943,43.42883186],[3.42848708,43.42749346],[3.42890756,43.42511488],[3.42933545,43.42422972],[3.42989133,43.4234601],[3.43000996,43.42314834],[3.42941741,43.42280702],[3.42855863,43.42251443],[3.42619169,43.42240771],[3.42556707,43.42223204],[3.42506178,43.42183457],[3.42463896,43.42090418],[3.42463231,43.42050386],[3.42199958,43.42066349],[3.42116622,43.42079988],[3.42102537,43.42111711],[3.41986361,43.42141311],[3.41805166,43.42123748],[3.4174037,43.42243383],[3.41668761,43.42325888],[3.4153324,43.4242933],[3.41509332,43.4243464],[3.41484283,43.42452819],[3.41324582,43.42627964],[3.41276072,43.42696883],[3.41221691,43.42808019],[3.41166815,43.4288479],[3.41114902,43.42944545],[3.4107329,43.4297763],[3.40995376,43.43026777],[3.40912818,43.43030598],[3.40823754,43.43074568],[3.4075999,43.43047908],[3.40721225,43.43047514],[3.40552282,43.43072798],[3.40467916,43.43065556],[3.40428275,43.43081089],[3.40422619,43.43084259],[3.40467304,43.43136453],[3.40484159,43.43145926],[3.40500669,43.43141276],[3.40540469,43.43183322],[3.40461942,43.43216633],[3.40499072,43.43247713],[3.40379424,43.43314555],[3.40391097,43.43324408],[3.40235057,43.43413246],[3.40200345,43.43392502],[3.4016023,43.4334047],[3.39972773,43.43421324],[3.39980171,43.43437761],[3.40033361,43.43488305],[3.40005822,43.43504871],[3.40118719,43.43583985],[3.40313209,43.43678358],[3.40434648,43.43724508],[3.40464918,43.43745178],[3.40284917,43.44010532],[3.40297884,43.44011024],[3.40306658,43.44029704],[3.40296875,43.44131404],[3.40298835,43.44270216],[3.40280903,43.44319045],[3.40223754,43.44410125],[3.4047338,43.44526963],[3.40204975,43.44620539],[3.40135252,43.44626825],[3.40025112,43.44609689],[3.39952226,43.44622733],[3.39795524,43.44729112],[3.3971486,43.44796344],[3.39691283,43.44833407],[3.3968206,43.44892639],[3.39811071,43.44923745],[3.40098698,43.44980624],[3.40249862,43.45000396],[3.4053327,43.45053141],[3.40559758,43.45061859],[3.40597443,43.4508232],[3.40613097,43.45095667],[3.40634182,43.45126087],[3.4067863,43.4521211],[3.40700283,43.45322779],[3.40717258,43.4536563],[3.40733675,43.45381853],[3.40809599,43.4543042],[3.40916525,43.45461866],[3.40932407,43.45472332],[3.40938163,43.45482837],[3.40885705,43.45556359],[3.40862748,43.45610516],[3.40854868,43.45666147],[3.4085863,43.45708867],[3.40871123,43.45746427],[3.40893175,43.45790698],[3.41011611,43.45945717],[3.41042087,43.45993375],[3.41061391,43.46015794],[3.41082227,43.46027951],[3.41135936,43.46042682],[3.41252059,43.46045839],[3.41281861,43.46050764],[3.41388549,43.46047298],[3.41538422,43.46037638],[3.41749882,43.46004887],[3.4165442,43.45938227],[3.41447257,43.45812796],[3.41401826,43.4578121],[3.4138721,43.45775328],[3.41409507,43.45750232],[3.41483585,43.45712522],[3.41577094,43.45680584],[3.41596044,43.45671065],[3.41750802,43.45621167],[3.41794882,43.45602734],[3.418268,43.45644176],[3.41917843,43.45731994],[3.42166601,43.45633683],[3.42236978,43.45832869],[3.42338385,43.45800445],[3.42454916,43.45775697],[3.42499477,43.45772464],[3.42595755,43.45864933],[3.42619501,43.45852694],[3.4264157,43.45847479],[3.42709149,43.4580034],[3.42753291,43.45757251],[3.4280305,43.45689038],[3.42918429,43.45758847],[3.42979582,43.45810877],[3.43037217,43.45871197],[3.4310123,43.45974857],[3.43121986,43.46025156],[3.43130537,43.4606201],[3.43139281,43.46140968],[3.4315447,43.46436815],[3.43151672,43.46574299],[3.4312223,43.46683729],[3.42996757,43.46951886],[3.4297836,43.47002702],[3.42970071,43.47034134],[3.42963489,43.47095609],[3.42975595,43.47178153],[3.42997538,43.47238076],[3.43026096,43.47290415],[3.43069885,43.47347462],[3.43111316,43.47386434],[3.43169852,43.47432985],[3.4346234,43.47621473],[3.43498624,43.47649128],[3.43558506,43.47709438],[3.43589609,43.47754208],[3.43633739,43.47855066],[3.43692366,43.48318717],[3.4369329,43.4832645],[3.43795937,43.48322347],[3.43800249,43.48288231],[3.44098051,43.48194715],[3.44117656,43.48205521],[3.44211567,43.48158264],[3.44257322,43.4821143],[3.4442182,43.48312964],[3.44686059,43.48226226],[3.4476969,43.48208157],[3.44824496,43.48137844],[3.4484333,43.48049595],[3.44871251,43.47970126],[3.44890928,43.47942604],[3.44739199,43.47751235],[3.44653439,43.47605657],[3.44557442,43.47509694],[3.44541372,43.47476561],[3.44639812,43.47457712],[3.44492365,43.47306],[3.44499892,43.47209071],[3.44518975,43.47184701],[3.44502088,43.47173614],[3.44644441,43.47131013],[3.44672096,43.47096981],[3.44822552,43.46969143],[3.44931873,43.46858028],[3.45228952,43.46715631],[3.45284984,43.46662405],[3.45365349,43.46562203],[3.45430153,43.46509479],[3.45407898,43.46475564],[3.45378676,43.46450855],[3.45253588,43.46392898],[3.45468101,43.46184801],[3.45525963,43.46145242],[3.45604412,43.46054044],[3.4555148,43.45982921],[3.45521755,43.45863297],[3.45625247,43.45800064],[3.45743541,43.45688184],[3.45804079,43.45644383],[3.46010394,43.45513505],[3.46074245,43.45452055],[3.46260582,43.45433897],[3.46212563,43.45421236],[3.46188945,43.45402174],[3.46231644,43.45398213],[3.46308939,43.45335085]]]]}}]}
