{"type":"FeatureCollection","metadata":{"generatedAt":"2026-07-14T18:56:03.503Z","source":"IGN / INSEE - Contours IRIS WFS Géoplateforme","datasetId":"STATISTICALUNITS.IRIS:contours_iris","datasetUrl":"https://geoservices.ign.fr/contoursiris","sourceFileUrl":"https://data.geopf.fr/wfs/ows?SERVICE=WFS&VERSION=2.0.0&REQUEST=GetFeature&TYPENAMES=STATISTICALUNITS.IRIS%3Acontours_iris&OUTPUTFORMAT=application%2Fjson&COUNT=1000&CQL_FILTER=code_insee%3D%2768256%27&SRSNAME=EPSG%3A4326","license":"Licence Ouverte / Open Licence 2.0","sourceYear":"2026","communeCode":"68256","communeName":"Pfastatt","featureCount":3,"parentCount":1,"parentContract":"technical commune group; not selectable and not displayed as a district","sourceFeatureCount":3,"humanLabelContract":"one visible plate per unique official human place name","groupingContract":"only exact source-ID groups approved by the resolved curation, or source zones sharing the same official name and parent, are merged","groupedZoneCount":0,"groupedSourceFeatureCount":0,"curationStatus":"resolved","curationRevision":1,"curationSources":[{"id":"ign-insee-contours-iris-2026","provider":"IGN / INSEE - Contours IRIS WFS Géoplateforme","datasetUrl":"https://geoservices.ign.fr/contoursiris","role":"official geometry, source identifiers and source labels","vintage":"2026","license":"Licence Ouverte / Open Licence 2.0"},{"id":"ign-geoplateforme-toponymy-2026","provider":"IGN Géoplateforme - reverse geocoding, addresses and named places","datasetUrl":"https://geoservices.ign.fr/geocodage-geoplateforme","role":"official address, street and named-place evidence","vintage":"2026","license":"Licence Ouverte / Open Licence 2.0"},{"id":"guide-alpha-editorial-recovery-2026-07-14","provider":"Meewav Guide Alpha editorial review","datasetUrl":"docs/geospatial/france-semantic-recovery.md","role":"versioned mapping of exact official IRIS identifiers to coherent human place names","vintage":"2026-07-14","license":"Project documentation"}],"sourceCorrections":[{"operationId":"pfastatt-682560101-rename-rue-de-la-plaine","type":"rename","sourceIds":["682560101"],"expectedLabels":["Ouest"],"outputLabel":"Rue de la Plaine","evidenceRefs":["ign-insee-contours-iris-2026","ign-geoplateforme-toponymy-2026","guide-alpha-editorial-recovery-2026-07-14"],"rationale":"The exact official IGN BD TOPO named road has a deterministic evidence point strictly inside this exact IRIS. The 1:1 label is emitted without nearest assignment, invented geometry, split or dropped source cell."},{"operationId":"pfastatt-682560102-rename-rue-des-heros","type":"rename","sourceIds":["682560102"],"expectedLabels":["Est"],"outputLabel":"Rue des Héros","evidenceRefs":["ign-insee-contours-iris-2026","ign-geoplateforme-toponymy-2026","guide-alpha-editorial-recovery-2026-07-14"],"rationale":"The exact official IGN BD TOPO named road has a deterministic evidence point strictly inside this exact IRIS. The 1:1 label is emitted without nearest assignment, invented geometry, split or dropped source cell."},{"operationId":"pfastatt-682560103-rename-pfastatt-le-chateau","type":"rename","sourceIds":["682560103"],"expectedLabels":["Sud"],"outputLabel":"Pfastatt le Château","evidenceRefs":["ign-insee-contours-iris-2026","ign-geoplateforme-toponymy-2026","guide-alpha-editorial-recovery-2026-07-14"],"rationale":"The exact official IGN BD TOPO habitation toponym has a deterministic evidence point strictly inside this exact IRIS. The 1:1 label is emitted without nearest assignment, invented geometry, split or dropped source cell."}],"bbox":[7.25265128,47.75521797,7.31805073,47.78128724],"areaStatsM2":{"minimum":634666.2067871094,"average":1734045.7215983074,"maximum":2483234.68359375}},"features":[{"type":"Feature","id":"pfastatt_682560101_ouest","properties":{"zoneId":"pfastatt_682560101_ouest","label":"Rue de la Plaine","districtCode":"682560101","arrondissementCode":"68256","colorIndex":0,"parentZoneId":"pfastatt_parent_68256_pfastatt","parentCode":"68256","parentLabel":"Pfastatt","territoryType":"iris","source":"IGN / INSEE - Contours IRIS WFS Géoplateforme","sourceYear":"2026","officialId":"682560101","sourceCleabs":"IRIS____0000000682560101","communeCode":"68256","communeName":"Pfastatt","irisCode":"0101","irisType":"H","officialAreaM2":2483234.68359375,"labelLng":7.295085829004609,"labelLat":47.77236805,"bbox":[7.25265128,47.76344886,7.30616569,47.78128724],"curationOperationId":"pfastatt-682560101-rename-rue-de-la-plaine","curationRevision":1,"curationEvidenceRefs":["ign-insee-contours-iris-2026","ign-geoplateforme-toponymy-2026","guide-alpha-editorial-recovery-2026-07-14"],"curationRationale":"The exact official IGN BD TOPO named road has a deterministic evidence point strictly inside this exact IRIS. The 1:1 label is emitted without nearest assignment, invented geometry, split or dropped source cell.","semanticLabelReviewed":true,"semanticLabelAccepted":false,"semanticResolution":"rename"},"geometry":{"type":"MultiPolygon","coordinates":[[[[7.26096486,47.77480654],[7.25843974,47.77428104],[7.25281843,47.77207257],[7.25265128,47.77207234],[7.25289691,47.77412387],[7.25343857,47.77673339],[7.25469497,47.77724475],[7.25568873,47.77751507],[7.2587912,47.77793491],[7.25862379,47.7785494],[7.25643944,47.78059559],[7.25615781,47.78128724],[7.25841528,47.78065441],[7.25976361,47.78015828],[7.2642977,47.77956773],[7.26895468,47.77944302],[7.27181237,47.77924321],[7.27313088,47.77891025],[7.27399619,47.77856228],[7.27763106,47.77776788],[7.28349642,47.77710808],[7.28822773,47.7770619],[7.28872853,47.77695431],[7.29037129,47.77618383],[7.29041143,47.77631666],[7.29080544,47.77641038],[7.29093497,47.77659041],[7.2913688,47.77682958],[7.29300262,47.7769923],[7.29457497,47.77694002],[7.29557266,47.77705753],[7.29727419,47.7774124],[7.29846491,47.77748585],[7.29953158,47.77721591],[7.30054437,47.77715617],[7.30260764,47.77728764],[7.30407294,47.77730046],[7.30371399,47.77626898],[7.30579269,47.77636017],[7.30582315,47.77572899],[7.30600594,47.77489841],[7.30616569,47.77345304],[7.30394392,47.77337704],[7.30393326,47.77357573],[7.30033157,47.7726896],[7.30008633,47.77251743],[7.302179,47.77194025],[7.30208833,47.77176151],[7.30211647,47.7715144],[7.30190165,47.77150337],[7.30171938,47.77136585],[7.30019045,47.76887748],[7.30049691,47.76803786],[7.30119493,47.7664357],[7.29924799,47.76553828],[7.2973155,47.76485212],[7.29669211,47.76469835],[7.29443604,47.76427551],[7.29215261,47.76367877],[7.29169492,47.76350717],[7.29177526,47.76350873],[7.29163808,47.76344886],[7.29099923,47.76442865],[7.29010918,47.76527792],[7.28928942,47.76678351],[7.28897174,47.76674018],[7.2889164,47.76679989],[7.28824166,47.76637394],[7.28797777,47.76681537],[7.2880717,47.76705169],[7.28795139,47.76736707],[7.28806586,47.76792442],[7.28927194,47.77072762],[7.29008759,47.77565071],[7.28948665,47.77572682],[7.28855106,47.77569891],[7.28399929,47.77480203],[7.28170891,47.77460463],[7.27861238,47.77449164],[7.27694484,47.77402441],[7.27516234,47.77390657],[7.27370368,47.77395804],[7.27222091,47.77427538],[7.27007524,47.77537943],[7.26845258,47.77583702],[7.26572812,47.77567858],[7.26472014,47.77526464],[7.26096486,47.77480654]]]]}},{"type":"Feature","id":"pfastatt_682560102_est","properties":{"zoneId":"pfastatt_682560102_est","label":"Rue des Héros","districtCode":"682560102","arrondissementCode":"68256","colorIndex":1,"parentZoneId":"pfastatt_parent_68256_pfastatt","parentCode":"68256","parentLabel":"Pfastatt","territoryType":"iris","source":"IGN / INSEE - Contours IRIS WFS Géoplateforme","sourceYear":"2026","officialId":"682560102","sourceCleabs":"IRIS____0000000682560102","communeCode":"68256","communeName":"Pfastatt","irisCode":"0102","irisType":"H","officialAreaM2":634666.2067871094,"labelLng":7.306494900099841,"labelLat":47.7723300709856,"bbox":[7.30008633,47.7664357,7.31373764,47.77793625],"curationOperationId":"pfastatt-682560102-rename-rue-des-heros","curationRevision":1,"curationEvidenceRefs":["ign-insee-contours-iris-2026","ign-geoplateforme-toponymy-2026","guide-alpha-editorial-recovery-2026-07-14"],"curationRationale":"The exact official IGN BD TOPO named road has a deterministic evidence point strictly inside this exact IRIS. The 1:1 label is emitted without nearest assignment, invented geometry, split or dropped source cell.","semanticLabelReviewed":true,"semanticLabelAccepted":false,"semanticResolution":"rename"},"geometry":{"type":"MultiPolygon","coordinates":[[[[7.30407294,47.77730046],[7.304947,47.77729445],[7.30574379,47.77745713],[7.3075097,47.77764813],[7.30858756,47.77787977],[7.30925674,47.77793625],[7.31182688,47.77780373],[7.31209089,47.77665647],[7.31031825,47.77658026],[7.31058828,47.77389053],[7.31373764,47.77160396],[7.31128281,47.77079666],[7.30764437,47.76934063],[7.30727035,47.76911373],[7.30697649,47.76880366],[7.30679878,47.76868942],[7.3067669,47.76860947],[7.30682787,47.76853691],[7.30652052,47.76850586],[7.30559799,47.76817566],[7.3022762,47.76689441],[7.30119493,47.7664357],[7.30049691,47.76803786],[7.30019045,47.76887748],[7.30171938,47.77136585],[7.30190165,47.77150337],[7.30211647,47.7715144],[7.30208833,47.77176151],[7.302179,47.77194025],[7.30008633,47.77251743],[7.30033157,47.7726896],[7.30393326,47.77357573],[7.30394392,47.77337704],[7.30616569,47.77345304],[7.30600594,47.77489841],[7.30582315,47.77572899],[7.30579269,47.77636017],[7.30371399,47.77626898],[7.30407294,47.77730046]]]]}},{"type":"Feature","id":"pfastatt_682560103_sud","properties":{"zoneId":"pfastatt_682560103_sud","label":"Pfastatt le Château","districtCode":"682560103","arrondissementCode":"68256","colorIndex":2,"parentZoneId":"pfastatt_parent_68256_pfastatt","parentCode":"68256","parentLabel":"Pfastatt","territoryType":"iris","source":"IGN / INSEE - Contours IRIS WFS Géoplateforme","sourceYear":"2026","officialId":"682560103","sourceCleabs":"IRIS____0000000682560103","communeCode":"68256","communeName":"Pfastatt","irisCode":"0103","irisType":"H","officialAreaM2":2084236.2744140625,"labelLng":7.305646993682956,"labelLat":47.762710397576505,"bbox":[7.29169492,47.75521797,7.31805073,47.77160396],"curationOperationId":"pfastatt-682560103-rename-pfastatt-le-chateau","curationRevision":1,"curationEvidenceRefs":["ign-insee-contours-iris-2026","ign-geoplateforme-toponymy-2026","guide-alpha-editorial-recovery-2026-07-14"],"curationRationale":"The exact official IGN BD TOPO habitation toponym has a deterministic evidence point strictly inside this exact IRIS. The 1:1 label is emitted without nearest assignment, invented geometry, split or dropped source cell.","semanticLabelReviewed":true,"semanticLabelAccepted":false,"semanticResolution":"rename"},"geometry":{"type":"MultiPolygon","coordinates":[[[[7.31373764,47.77160396],[7.31412189,47.77128062],[7.31323117,47.77096462],[7.31276687,47.77087808],[7.31396312,47.76971897],[7.31558846,47.77027288],[7.31597457,47.76998913],[7.31676515,47.76905498],[7.31755127,47.76768742],[7.31703784,47.76758828],[7.31739178,47.76596986],[7.31721704,47.76589248],[7.31805073,47.76445285],[7.31638113,47.76371403],[7.31725658,47.76316794],[7.3171131,47.76303082],[7.31762603,47.76277843],[7.31641755,47.76162598],[7.3160107,47.76137328],[7.31500344,47.76093721],[7.31304933,47.76039723],[7.31353569,47.75961943],[7.31223819,47.75911472],[7.31059628,47.75800523],[7.3082889,47.75627034],[7.30779208,47.75624267],[7.30043141,47.75578608],[7.29781374,47.75521797],[7.29524635,47.75770541],[7.29456009,47.75837779],[7.29414158,47.7583598],[7.29416514,47.75817145],[7.29376911,47.75829956],[7.29372552,47.75944861],[7.29388737,47.75944988],[7.29389659,47.75951444],[7.29261395,47.75943983],[7.29223767,47.76102202],[7.29244327,47.76173106],[7.29229127,47.76176909],[7.29273778,47.76281272],[7.29196387,47.76258242],[7.2919567,47.7630568],[7.29177526,47.76350873],[7.29169492,47.76350717],[7.29215261,47.76367877],[7.29443604,47.76427551],[7.29669211,47.76469835],[7.2973155,47.76485212],[7.29924799,47.76553828],[7.30119493,47.7664357],[7.3022762,47.76689441],[7.30559799,47.76817566],[7.30652052,47.76850586],[7.30682787,47.76853691],[7.3067669,47.76860947],[7.30679878,47.76868942],[7.30697649,47.76880366],[7.30727035,47.76911373],[7.30764437,47.76934063],[7.31128281,47.77079666],[7.31373764,47.77160396]]]]}}]}
