{"type":"FeatureCollection","metadata":{"generatedAt":"2026-07-14T15:17:53.983Z","source":"IGN / INSEE - Contours IRIS WFS Géoplateforme","datasetId":"STATISTICALUNITS.IRIS:contours_iris","datasetUrl":"https://geoservices.ign.fr/contoursiris","sourceFileUrl":"https://data.geopf.fr/wfs/ows?SERVICE=WFS&VERSION=2.0.0&REQUEST=GetFeature&TYPENAMES=STATISTICALUNITS.IRIS%3Acontours_iris&OUTPUTFORMAT=application%2Fjson&COUNT=1000&CQL_FILTER=code_insee%3D%2731424%27&SRSNAME=EPSG%3A4326","license":"Licence Ouverte / Open Licence 2.0","sourceYear":"2026","communeCode":"31424","communeName":"Plaisance-du-Touch","featureCount":5,"parentCount":1,"parentContract":"technical commune group; not selectable and not displayed as a district","bbox":[1.23780226,43.52567117,1.32876081,43.59950843],"areaStatsM2":{"minimum":1273334.5663452148,"average":5320699.664880371,"maximum":10988144.55532837}},"features":[{"type":"Feature","id":"plaisance_du_touch_314240101_pyrenees_riviere","properties":{"zoneId":"plaisance_du_touch_314240101_pyrenees_riviere","label":"Pyrénées-Rivière","districtCode":"314240101","arrondissementCode":"31424","colorIndex":0,"parentZoneId":"plaisance_du_touch_parent_31424_plaisance_du_touch","parentCode":"31424","parentLabel":"Plaisance-du-Touch","territoryType":"iris","source":"IGN / INSEE - Contours IRIS WFS Géoplateforme","sourceYear":"2026","officialId":"314240101","sourceCleabs":"IRIS____0000000314240101","communeCode":"31424","communeName":"Plaisance-du-Touch","irisCode":"0101","irisType":"H","officialAreaM2":1273334.5663452148,"labelLng":1.303934414216982,"labelLat":43.566798776725996,"bbox":[1.29095398,43.5601087,1.31639494,43.57240144]},"geometry":{"type":"MultiPolygon","coordinates":[[[[1.30631983,43.57196488],[1.30644342,43.57188762],[1.30775071,43.57196469],[1.31210474,43.57240144],[1.31250858,43.57196944],[1.31280824,43.57204969],[1.31540053,43.56942159],[1.31639494,43.56864416],[1.31594302,43.56814308],[1.31562657,43.56791858],[1.31449585,43.56731067],[1.31376629,43.56665588],[1.3133719,43.56655706],[1.31294477,43.56651982],[1.31256534,43.56637533],[1.31245481,43.56626202],[1.31226465,43.56582619],[1.31223868,43.56515173],[1.31212825,43.56469824],[1.31183689,43.56450562],[1.31113192,43.56419497],[1.31004915,43.56385414],[1.30928414,43.56381793],[1.30823779,43.56371164],[1.30782813,43.56375385],[1.3073403,43.56384524],[1.30634922,43.56417267],[1.3055466,43.56436263],[1.30539939,43.56444403],[1.30523114,43.56469339],[1.30510912,43.56501187],[1.30487955,43.56540966],[1.30475299,43.56554628],[1.30442275,43.56570671],[1.30424686,43.56575346],[1.30403879,43.56575831],[1.3030183,43.56569737],[1.30217914,43.56569865],[1.30185001,43.5656539],[1.30158089,43.5655471],[1.30116219,43.56514187],[1.30016143,43.56324441],[1.2998212,43.56286471],[1.29944682,43.56259336],[1.29866571,43.56218244],[1.29690749,43.56133592],[1.29577149,43.56070793],[1.29484241,43.56103082],[1.29485105,43.56090677],[1.29480707,43.56084578],[1.29392577,43.56014347],[1.29377459,43.5601087],[1.29321469,43.5601269],[1.29243756,43.56062495],[1.29205417,43.56074131],[1.29199613,43.56102838],[1.29286116,43.56132007],[1.29211476,43.56244857],[1.2914248,43.56334306],[1.29151689,43.56345071],[1.29148168,43.56355275],[1.29141881,43.56358596],[1.29125063,43.56358151],[1.29095398,43.56394312],[1.29235443,43.56450153],[1.2917342,43.56513164],[1.29239973,43.56547509],[1.29463456,43.56644526],[1.2966487,43.56722204],[1.29681896,43.56732371],[1.29641177,43.56782399],[1.29732791,43.56819114],[1.29868091,43.56868573],[1.29877203,43.56870155],[1.29880574,43.56864989],[1.29917395,43.56875465],[1.29978381,43.568766],[1.30276599,43.56958481],[1.30263601,43.57021365],[1.30390722,43.57075639],[1.30631983,43.57196488]]]]}},{"type":"Feature","id":"plaisance_du_touch_314240102_campagne_coustaou","properties":{"zoneId":"plaisance_du_touch_314240102_campagne_coustaou","label":"Campagne-Coustaou","districtCode":"314240102","arrondissementCode":"31424","colorIndex":1,"parentZoneId":"plaisance_du_touch_parent_31424_plaisance_du_touch","parentCode":"31424","parentLabel":"Plaisance-du-Touch","territoryType":"iris","source":"IGN / INSEE - Contours IRIS WFS Géoplateforme","sourceYear":"2026","officialId":"314240102","sourceCleabs":"IRIS____0000000314240102","communeCode":"31424","communeName":"Plaisance-du-Touch","irisCode":"0102","irisType":"H","officialAreaM2":2249927.0360412598,"labelLng":1.3155023738624223,"labelLat":43.562150810191866,"bbox":[1.29690749,43.55412494,1.32876081,43.57176084]},"geometry":{"type":"MultiPolygon","coordinates":[[[[1.31639494,43.56864416],[1.31883799,43.56928407],[1.31923432,43.56965559],[1.32004687,43.57098839],[1.32110789,43.57169866],[1.32140437,43.57176084],[1.32255691,43.57154286],[1.32394482,43.5715724],[1.32385138,43.56667614],[1.32400951,43.56621961],[1.32419686,43.56577973],[1.3280535,43.56046203],[1.32861732,43.55958607],[1.32855357,43.55952299],[1.32876081,43.5592058],[1.32316918,43.55744749],[1.31905873,43.55595482],[1.31654407,43.55478012],[1.31596191,43.55412494],[1.31410233,43.55474943],[1.31354993,43.55480925],[1.31303535,43.55505593],[1.31295907,43.55520954],[1.31279749,43.55519173],[1.31270393,43.55521727],[1.31113836,43.55573019],[1.31130409,43.55598565],[1.31123672,43.5560044],[1.31122251,43.55615087],[1.31014258,43.55651744],[1.30847836,43.55747876],[1.30810794,43.55774478],[1.30702682,43.55894735],[1.30556351,43.56077031],[1.30541622,43.56102269],[1.30533807,43.56107097],[1.30315589,43.56062381],[1.30232051,43.56054145],[1.30101802,43.56052018],[1.29770679,43.5606735],[1.29765593,43.56076089],[1.29756615,43.56078378],[1.29746175,43.56075695],[1.29734141,43.56085046],[1.29690749,43.56133592],[1.29866571,43.56218244],[1.29944682,43.56259336],[1.2998212,43.56286471],[1.30016143,43.56324441],[1.30116219,43.56514187],[1.30158089,43.5655471],[1.30185001,43.5656539],[1.30217914,43.56569865],[1.3030183,43.56569737],[1.30403879,43.56575831],[1.30424686,43.56575346],[1.30442275,43.56570671],[1.30475299,43.56554628],[1.30487955,43.56540966],[1.30510912,43.56501187],[1.30523114,43.56469339],[1.30539939,43.56444403],[1.3055466,43.56436263],[1.30634922,43.56417267],[1.3073403,43.56384524],[1.30782813,43.56375385],[1.30823779,43.56371164],[1.30928414,43.56381793],[1.31004915,43.56385414],[1.31113192,43.56419497],[1.31183689,43.56450562],[1.31212825,43.56469824],[1.31223868,43.56515173],[1.31226465,43.56582619],[1.31245481,43.56626202],[1.31256534,43.56637533],[1.31294477,43.56651982],[1.3133719,43.56655706],[1.31376629,43.56665588],[1.31449585,43.56731067],[1.31562657,43.56791858],[1.31594302,43.56814308],[1.31639494,43.56864416]]]]}},{"type":"Feature","id":"plaisance_du_touch_314240103_monestie_birazel","properties":{"zoneId":"plaisance_du_touch_314240103_monestie_birazel","label":"Monestié-Birazel","districtCode":"314240103","arrondissementCode":"31424","colorIndex":2,"parentZoneId":"plaisance_du_touch_parent_31424_plaisance_du_touch","parentCode":"31424","parentLabel":"Plaisance-du-Touch","territoryType":"iris","source":"IGN / INSEE - Contours IRIS WFS Géoplateforme","sourceYear":"2026","officialId":"314240103","sourceCleabs":"IRIS____0000000314240103","communeCode":"31424","communeName":"Plaisance-du-Touch","irisCode":"0103","irisType":"H","officialAreaM2":10988144.55532837,"labelLng":1.2906840924403582,"labelLat":43.54543372543073,"bbox":[1.26184912,43.52567117,1.31596191,43.56358596]},"geometry":{"type":"MultiPolygon","coordinates":[[[[1.31596191,43.55412494],[1.31433532,43.55153397],[1.3150301,43.55121717],[1.31520326,43.55109297],[1.31519279,43.55098572],[1.31470966,43.54940333],[1.31390114,43.54744241],[1.31275951,43.5442299],[1.31147992,43.54222204],[1.31118053,43.54079189],[1.31138003,43.53993916],[1.31139714,43.53918888],[1.31106581,43.53834049],[1.31067408,43.53723288],[1.31062376,43.53675693],[1.31037734,43.53626083],[1.30945072,43.5350036],[1.30815544,43.53404299],[1.30696815,43.53214812],[1.30736419,43.53117518],[1.30720212,43.5305886],[1.30379228,43.53099881],[1.30128204,43.53465736],[1.2993851,43.53551498],[1.29727977,43.53422026],[1.29526638,43.53237349],[1.29512036,43.53212551],[1.29393441,43.53090907],[1.28970552,43.52612956],[1.28977609,43.52591919],[1.29006363,43.52573294],[1.29002713,43.52567117],[1.28811732,43.5263007],[1.28772706,43.52636474],[1.28291715,43.52806069],[1.28248666,43.52814567],[1.28249787,43.52835013],[1.27808489,43.52979118],[1.27599922,43.52996595],[1.27262725,43.53091935],[1.26935183,43.53272913],[1.2686002,43.5332481],[1.26832156,43.53334085],[1.26839407,43.53356159],[1.26862007,43.53373798],[1.26906484,43.53375588],[1.26958978,43.53410983],[1.26948752,43.53450687],[1.26938329,43.5345997],[1.26913201,43.53460559],[1.26906596,43.53482682],[1.26913111,43.53484046],[1.26915073,43.53496947],[1.26959415,43.53536081],[1.27034501,43.5365931],[1.27247103,43.53940418],[1.2731079,43.54031696],[1.27324668,43.54063865],[1.27335047,43.54076629],[1.27381279,43.54110752],[1.27459074,43.54123778],[1.27523759,43.54140826],[1.27471844,43.54221715],[1.27504763,43.54241947],[1.27537318,43.54253714],[1.27173802,43.54485246],[1.26929063,43.54613189],[1.26955837,43.54632065],[1.26769817,43.54712072],[1.26814304,43.54726191],[1.26919041,43.5476917],[1.26643371,43.54871864],[1.26590561,43.54899819],[1.2645038,43.54948786],[1.26393275,43.5499188],[1.2636021,43.54980552],[1.26184912,43.55122638],[1.27761284,43.5577863],[1.2778764,43.55782828],[1.27799283,43.55778333],[1.27817788,43.55780247],[1.27829503,43.55789882],[1.2783069,43.557998],[1.27847083,43.55814369],[1.28207526,43.55964521],[1.2825312,43.55979282],[1.28277321,43.55993524],[1.28785081,43.56205023],[1.28839026,43.56217933],[1.2884704,43.56231378],[1.28868626,43.56229649],[1.28937261,43.56268708],[1.29118671,43.56340051],[1.29117134,43.56350107],[1.29125063,43.56358151],[1.29141881,43.56358596],[1.29148168,43.56355275],[1.29151689,43.56345071],[1.2914248,43.56334306],[1.29211476,43.56244857],[1.29286116,43.56132007],[1.29199613,43.56102838],[1.29205417,43.56074131],[1.29243756,43.56062495],[1.29321469,43.5601269],[1.29377459,43.5601087],[1.29392577,43.56014347],[1.29480707,43.56084578],[1.29485105,43.56090677],[1.29484241,43.56103082],[1.29577149,43.56070793],[1.29690749,43.56133592],[1.29734141,43.56085046],[1.29746175,43.56075695],[1.29756615,43.56078378],[1.29765593,43.56076089],[1.29770679,43.5606735],[1.30101802,43.56052018],[1.30232051,43.56054145],[1.30315589,43.56062381],[1.30533807,43.56107097],[1.30541622,43.56102269],[1.30556351,43.56077031],[1.30702682,43.55894735],[1.30810794,43.55774478],[1.30847836,43.55747876],[1.31014258,43.55651744],[1.31122251,43.55615087],[1.31123672,43.5560044],[1.31130409,43.55598565],[1.31113836,43.55573019],[1.31270393,43.55521727],[1.31279749,43.55519173],[1.31295907,43.55520954],[1.31303535,43.55505593],[1.31354993,43.55480925],[1.31410233,43.55474943],[1.31596191,43.55412494]]]]}},{"type":"Feature","id":"plaisance_du_touch_314240104_terris_la_justice","properties":{"zoneId":"plaisance_du_touch_314240104_terris_la_justice","label":"Terris La Justice","districtCode":"314240104","arrondissementCode":"31424","colorIndex":3,"parentZoneId":"plaisance_du_touch_parent_31424_plaisance_du_touch","parentCode":"31424","parentLabel":"Plaisance-du-Touch","territoryType":"iris","source":"IGN / INSEE - Contours IRIS WFS Géoplateforme","sourceYear":"2026","officialId":"314240104","sourceCleabs":"IRIS____0000000314240104","communeCode":"31424","communeName":"Plaisance-du-Touch","irisCode":"0104","irisType":"H","officialAreaM2":7647679.74798584,"labelLng":1.2639639741954298,"labelLat":43.55572647454379,"bbox":[1.23780226,43.53395906,1.29239973,43.57112936]},"geometry":{"type":"MultiPolygon","coordinates":[[[[1.26906596,43.53482682],[1.2687375,43.53476669],[1.26747464,43.53422997],[1.26657117,43.53395906],[1.26102086,43.53600222],[1.26019104,43.53624],[1.25746956,43.5368119],[1.25768975,43.5373419],[1.25797577,43.53867931],[1.25784046,43.53873563],[1.25807117,43.53916411],[1.25851169,43.53956805],[1.25939135,43.54078989],[1.25662004,43.54075441],[1.25677366,43.54156233],[1.25694846,43.54407779],[1.25735554,43.54472869],[1.25119086,43.54748058],[1.2470348,43.54942853],[1.23964536,43.5521798],[1.23865851,43.55236269],[1.23790409,43.55235044],[1.23780226,43.55280597],[1.23786777,43.55325161],[1.23849102,43.5537486],[1.23961498,43.55409892],[1.24169741,43.55442696],[1.24227795,43.55466315],[1.24277548,43.5547414],[1.24372664,43.5547145],[1.24473063,43.5554291],[1.24502568,43.55577586],[1.24529761,43.55631213],[1.24525366,43.55758846],[1.24544584,43.55794075],[1.24535584,43.55938733],[1.24567453,43.56041934],[1.24595268,43.56071272],[1.24680403,43.56108016],[1.24776792,43.56169419],[1.24823166,43.56215166],[1.24842158,43.56262],[1.24843315,43.56491779],[1.2478818,43.56635694],[1.24751548,43.56684241],[1.24748764,43.56734864],[1.24758708,43.56741594],[1.24774369,43.56731317],[1.2481628,43.56684205],[1.24950674,43.56733531],[1.25052903,43.56823015],[1.25292757,43.56917054],[1.25311156,43.56930669],[1.25348993,43.56907519],[1.25446943,43.56889745],[1.25638963,43.56802563],[1.25793358,43.56760044],[1.25952655,43.56772138],[1.26029387,43.56760048],[1.26164406,43.5676869],[1.2634166,43.56751818],[1.26626238,43.56783544],[1.26977555,43.5675702],[1.27020422,43.56739163],[1.27232627,43.56605388],[1.27448053,43.5670592],[1.27616254,43.56771859],[1.2771838,43.56791929],[1.27874093,43.56907163],[1.27992775,43.56957281],[1.28208862,43.5701173],[1.28308448,43.57021765],[1.28327659,43.57016759],[1.28391798,43.5706151],[1.28587932,43.57112936],[1.28757727,43.56947863],[1.28863242,43.5687942],[1.29012311,43.56761445],[1.29103521,43.56678555],[1.29181881,43.56594832],[1.29231126,43.5654953],[1.29239973,43.56547509],[1.2917342,43.56513164],[1.29235443,43.56450153],[1.29095398,43.56394312],[1.29125063,43.56358151],[1.29117134,43.56350107],[1.29118671,43.56340051],[1.28937261,43.56268708],[1.28868626,43.56229649],[1.2884704,43.56231378],[1.28839026,43.56217933],[1.28785081,43.56205023],[1.28277321,43.55993524],[1.2825312,43.55979282],[1.28207526,43.55964521],[1.27847083,43.55814369],[1.2783069,43.557998],[1.27829503,43.55789882],[1.27817788,43.55780247],[1.27799283,43.55778333],[1.2778764,43.55782828],[1.27761284,43.5577863],[1.26184912,43.55122638],[1.2636021,43.54980552],[1.26393275,43.5499188],[1.2645038,43.54948786],[1.26590561,43.54899819],[1.26643371,43.54871864],[1.26919041,43.5476917],[1.26814304,43.54726191],[1.26769817,43.54712072],[1.26955837,43.54632065],[1.26929063,43.54613189],[1.27173802,43.54485246],[1.27537318,43.54253714],[1.27504763,43.54241947],[1.27471844,43.54221715],[1.27523759,43.54140826],[1.27459074,43.54123778],[1.27381279,43.54110752],[1.27335047,43.54076629],[1.27324668,43.54063865],[1.2731079,43.54031696],[1.27247103,43.53940418],[1.27034501,43.5365931],[1.26959415,43.53536081],[1.26915073,43.53496947],[1.26913111,43.53484046],[1.26906596,43.53482682]]]]}},{"type":"Feature","id":"plaisance_du_touch_314240105_ecoles_menude","properties":{"zoneId":"plaisance_du_touch_314240105_ecoles_menude","label":"Écoles-Menude","districtCode":"314240105","arrondissementCode":"31424","colorIndex":4,"parentZoneId":"plaisance_du_touch_parent_31424_plaisance_du_touch","parentCode":"31424","parentLabel":"Plaisance-du-Touch","territoryType":"iris","source":"IGN / INSEE - Contours IRIS WFS Géoplateforme","sourceYear":"2026","officialId":"314240105","sourceCleabs":"IRIS____0000000314240105","communeCode":"31424","communeName":"Plaisance-du-Touch","irisCode":"0105","irisType":"H","officialAreaM2":4444412.418701172,"labelLng":1.2905052268634964,"labelLat":43.585486130007155,"bbox":[1.27354644,43.56547509,1.30741033,43.59950843]},"geometry":{"type":"MultiPolygon","coordinates":[[[[1.28413861,43.59950843],[1.2869235,43.59926709],[1.28755446,43.59907994],[1.28830889,43.59898834],[1.29161684,43.59823043],[1.29268197,43.59793398],[1.29749721,43.59695479],[1.29679055,43.59368672],[1.30506614,43.59484752],[1.30515213,43.5939066],[1.30553432,43.59304049],[1.30684207,43.59164974],[1.30731485,43.59069145],[1.30741033,43.59022495],[1.30739147,43.58956318],[1.30694878,43.58887231],[1.30607599,43.58836552],[1.30469578,43.5881037],[1.30417514,43.58808297],[1.29981939,43.58879425],[1.29825334,43.58849524],[1.29464929,43.5859899],[1.2929143,43.58496369],[1.29208456,43.58430627],[1.29079289,43.5830305],[1.29067318,43.58214485],[1.29091107,43.58180571],[1.29099826,43.58095661],[1.29110648,43.58098081],[1.29068672,43.57973676],[1.29048987,43.57952937],[1.29064194,43.57895399],[1.29315473,43.57746268],[1.29498339,43.57682813],[1.29889857,43.57591758],[1.30631983,43.57196488],[1.30390722,43.57075639],[1.30263601,43.57021365],[1.30276599,43.56958481],[1.29978381,43.568766],[1.29917395,43.56875465],[1.29880574,43.56864989],[1.29877203,43.56870155],[1.29868091,43.56868573],[1.29732791,43.56819114],[1.29641177,43.56782399],[1.29681896,43.56732371],[1.2966487,43.56722204],[1.29463456,43.56644526],[1.29239973,43.56547509],[1.29231126,43.5654953],[1.29181881,43.56594832],[1.29103521,43.56678555],[1.29012311,43.56761445],[1.28863242,43.5687942],[1.28757727,43.56947863],[1.28587932,43.57112936],[1.29088239,43.57100393],[1.29220979,43.57090333],[1.29345062,43.57104973],[1.29213408,43.57294864],[1.29162386,43.57428785],[1.29103009,43.57514787],[1.29077632,43.57514837],[1.29043459,43.57544178],[1.28819606,43.5780731],[1.28671804,43.57865186],[1.28267071,43.58044906],[1.28004817,43.58249098],[1.27830044,43.58359365],[1.27708624,43.58395418],[1.2763046,43.58433956],[1.27590211,43.58487946],[1.2749219,43.58573326],[1.27354644,43.58758334],[1.27469559,43.58819559],[1.27548199,43.58843667],[1.27564379,43.58861473],[1.27594609,43.58873203],[1.27615335,43.58896301],[1.27665069,43.58963598],[1.27655578,43.59019876],[1.27688928,43.59088533],[1.27691099,43.59119346],[1.2773241,43.5917031],[1.27734345,43.5919662],[1.27708824,43.59205305],[1.27712398,43.59226511],[1.27756822,43.59264564],[1.27803881,43.59251991],[1.27815394,43.59272692],[1.27775876,43.59293935],[1.2777461,43.59303095],[1.27869851,43.59302445],[1.27900998,43.59345597],[1.27905365,43.59385805],[1.27919287,43.59404655],[1.27978507,43.59399473],[1.28008495,43.59427667],[1.28016027,43.59461445],[1.28071951,43.5947538],[1.28080364,43.59541752],[1.28064161,43.59574164],[1.28082433,43.59592543],[1.28060926,43.59599492],[1.28003768,43.59593638],[1.27977471,43.59603391],[1.27948799,43.59601497],[1.27942712,43.596104],[1.27947783,43.5963127],[1.27970007,43.59645842],[1.28015946,43.59720277],[1.28022583,43.59746751],[1.28037325,43.59758954],[1.28072342,43.59759869],[1.28103398,43.5977314],[1.28124413,43.59790932],[1.28150672,43.59790717],[1.28167373,43.59816091],[1.2819893,43.5981677],[1.28233079,43.59834319],[1.2826424,43.59860641],[1.28303403,43.59847221],[1.28356035,43.59876132],[1.28394419,43.59863868],[1.28415935,43.59873208],[1.28446419,43.5987252],[1.28445755,43.59898878],[1.28413861,43.59950843]]]]}}]}
