{"type":"FeatureCollection","metadata":{"generatedAt":"2026-07-14T18:56:03.503Z","source":"IGN / INSEE - Contours IRIS WFS Géoplateforme","datasetId":"STATISTICALUNITS.IRIS:contours_iris","datasetUrl":"https://geoservices.ign.fr/contoursiris","sourceFileUrl":"https://data.geopf.fr/wfs/ows?SERVICE=WFS&VERSION=2.0.0&REQUEST=GetFeature&TYPENAMES=STATISTICALUNITS.IRIS%3Acontours_iris&OUTPUTFORMAT=application%2Fjson&COUNT=1000&CQL_FILTER=code_insee%3D%2711266%27&SRSNAME=EPSG%3A4326","license":"Licence Ouverte / Open Licence 2.0","sourceYear":"2026","communeCode":"11266","communeName":"Port-la-Nouvelle","featureCount":2,"parentCount":1,"parentContract":"technical commune group; not selectable and not displayed as a district","sourceFeatureCount":2,"humanLabelContract":"one visible plate per unique official human place name","groupingContract":"only exact source-ID groups approved by the resolved curation, or source zones sharing the same official name and parent, are merged","groupedZoneCount":0,"groupedSourceFeatureCount":0,"curationStatus":"resolved","curationRevision":1,"curationSources":[{"id":"ign-insee-contours-iris-2026","provider":"IGN / INSEE - Contours IRIS WFS Géoplateforme","datasetUrl":"https://geoservices.ign.fr/contoursiris","role":"official geometry, source identifiers and source labels","vintage":"2026","license":"Licence Ouverte / Open Licence 2.0"},{"id":"ign-geoplateforme-toponymy-2026","provider":"IGN Géoplateforme - reverse geocoding, addresses and named places","datasetUrl":"https://geoservices.ign.fr/geocodage-geoplateforme","role":"official address, street and named-place evidence","vintage":"2026","license":"Licence Ouverte / Open Licence 2.0"},{"id":"guide-alpha-editorial-recovery-2026-07-14","provider":"Meewav Guide Alpha editorial review","datasetUrl":"docs/geospatial/france-semantic-recovery.md","role":"versioned mapping of exact official IRIS identifiers to coherent human place names","vintage":"2026-07-14","license":"Project documentation"}],"sourceCorrections":[{"operationId":"port_la_nouvelle-112660101-rename-rue-guy-moquet","type":"rename","sourceIds":["112660101"],"expectedLabels":["Centre Ville"],"outputLabel":"Rue Guy Moquet","evidenceRefs":["ign-insee-contours-iris-2026","ign-geoplateforme-toponymy-2026","guide-alpha-editorial-recovery-2026-07-14"],"rationale":"The exact official IGN BD TOPO named road has a deterministic evidence point strictly inside this exact IRIS. The 1:1 label is emitted without nearest assignment, invented geometry, split or dropped source cell."},{"operationId":"port_la_nouvelle-112660103-rename-route-de-perpignan","type":"rename","sourceIds":["112660103"],"expectedLabels":["Périphérie"],"outputLabel":"Route de Perpignan","evidenceRefs":["ign-insee-contours-iris-2026","ign-geoplateforme-toponymy-2026","guide-alpha-editorial-recovery-2026-07-14"],"rationale":"The exact official IGN BD TOPO named road has a deterministic evidence point strictly inside this exact IRIS. The 1:1 label is emitted without nearest assignment, invented geometry, split or dropped source cell."}],"bbox":[2.9877849,42.98084342,3.08486411,43.0641708],"areaStatsM2":{"minimum":958139.1821289062,"average":18710960.99786377,"maximum":36463782.81359863}},"features":[{"type":"Feature","id":"port_la_nouvelle_112660101_centre_ville","properties":{"zoneId":"port_la_nouvelle_112660101_centre_ville","label":"Rue Guy Moquet","districtCode":"112660101","arrondissementCode":"11266","colorIndex":0,"parentZoneId":"port_la_nouvelle_parent_11266_port_la_nouvelle","parentCode":"11266","parentLabel":"Port-la-Nouvelle","territoryType":"iris","source":"IGN / INSEE - Contours IRIS WFS Géoplateforme","sourceYear":"2026","officialId":"112660101","sourceCleabs":"IRIS____0000000112660101","communeCode":"11266","communeName":"Port-la-Nouvelle","irisCode":"0101","irisType":"H","officialAreaM2":958139.1821289062,"labelLng":3.043816165712755,"labelLat":43.01790735972691,"bbox":[3.03867575,43.01034137,3.05202454,43.02448114],"curationOperationId":"port_la_nouvelle-112660101-rename-rue-guy-moquet","curationRevision":1,"curationEvidenceRefs":["ign-insee-contours-iris-2026","ign-geoplateforme-toponymy-2026","guide-alpha-editorial-recovery-2026-07-14"],"curationRationale":"The exact official IGN BD TOPO named road has a deterministic evidence point strictly inside this exact IRIS. The 1:1 label is emitted without nearest assignment, invented geometry, split or dropped source cell.","semanticLabelReviewed":true,"semanticLabelAccepted":false,"semanticResolution":"rename"},"geometry":{"type":"MultiPolygon","coordinates":[[[[3.03867575,43.01607879],[3.03885735,43.02187061],[3.03900502,43.02273664],[3.03911802,43.02307656],[3.03973432,43.02448114],[3.04068409,43.02415971],[3.04113266,43.02406061],[3.05101234,43.02103902],[3.05202454,43.02076243],[3.05072286,43.01800471],[3.05007068,43.01785123],[3.0500303,43.01793758],[3.04944553,43.01778047],[3.04953843,43.01749353],[3.04921599,43.01738485],[3.04894413,43.01766198],[3.04863945,43.01826559],[3.04613852,43.0190932],[3.0458799,43.01909151],[3.04571682,43.01901514],[3.04540269,43.01856289],[3.04538294,43.01837763],[3.04682017,43.01474721],[3.04700017,43.01454927],[3.0472244,43.01449071],[3.04737869,43.01432157],[3.04736752,43.0141462],[3.0471578,43.01397721],[3.04711475,43.01377937],[3.04734635,43.0137406],[3.04732415,43.01357333],[3.04860094,43.01034137],[3.04622282,43.0110691],[3.0448519,43.01162998],[3.04264889,43.0122973],[3.04137717,43.0128437],[3.03934375,43.0125108],[3.03876798,43.01470004],[3.03868392,43.01545823],[3.03867575,43.01607879]]]]}},{"type":"Feature","id":"port_la_nouvelle_112660103_peripherie","properties":{"zoneId":"port_la_nouvelle_112660103_peripherie","label":"Route de Perpignan","districtCode":"112660103","arrondissementCode":"11266","colorIndex":1,"parentZoneId":"port_la_nouvelle_parent_11266_port_la_nouvelle","parentCode":"11266","parentLabel":"Port-la-Nouvelle","territoryType":"iris","source":"IGN / INSEE - Contours IRIS WFS Géoplateforme","sourceYear":"2026","officialId":"112660103","sourceCleabs":"IRIS____0000000112660103","communeCode":"11266","communeName":"Port-la-Nouvelle","irisCode":"0103","irisType":"H","officialAreaM2":36463782.81359863,"labelLng":3.0384527469517293,"labelLat":43.021416153190096,"bbox":[2.9877849,42.98084342,3.08486411,43.0641708],"curationOperationId":"port_la_nouvelle-112660103-rename-route-de-perpignan","curationRevision":1,"curationEvidenceRefs":["ign-insee-contours-iris-2026","ign-geoplateforme-toponymy-2026","guide-alpha-editorial-recovery-2026-07-14"],"curationRationale":"The exact official IGN BD TOPO named road has a deterministic evidence point strictly inside this exact IRIS. The 1:1 label is emitted without nearest assignment, invented geometry, split or dropped source cell.","semanticLabelReviewed":true,"semanticLabelAccepted":false,"semanticResolution":"rename"},"geometry":{"type":"MultiPolygon","coordinates":[[[[3.02017334,43.0641708],[3.02166728,43.0638872],[3.02214062,43.06352555],[3.02474578,43.0630537],[3.0257921,43.06310292],[3.02831014,43.06267688],[3.02951116,43.06300393],[3.02976871,43.06292831],[3.03083917,43.06223728],[3.03269822,43.06138141],[3.03422749,43.06091685],[3.03459928,43.06114697],[3.03384536,43.06188291],[3.03420866,43.06226324],[3.03553651,43.06134903],[3.04262161,43.0568585],[3.04317945,43.05656957],[3.04395931,43.05632462],[3.0449109,43.05613626],[3.04645001,43.0559971],[3.04742977,43.05576913],[3.05243169,43.05349675],[3.05307305,43.05344607],[3.05569562,43.053961],[3.05605866,43.0539752],[3.05659816,43.0538508],[3.05706026,43.05358614],[3.05734811,43.05321634],[3.05754389,43.05277014],[3.05791393,43.0512149],[3.05896352,43.05104075],[3.06140262,43.04974787],[3.06199026,43.04995889],[3.06321675,43.05121911],[3.0657904,43.05078766],[3.06718751,43.05209721],[3.06776238,43.05288381],[3.06885038,43.05406401],[3.06943947,43.05440001],[3.07043605,43.05600207],[3.0711954,43.05613648],[3.07168295,43.0566551],[3.0720666,43.05744181],[3.07214195,43.05787257],[3.07200969,43.05803814],[3.07158538,43.05809059],[3.07142618,43.05828676],[3.07145583,43.05846033],[3.07167673,43.05856541],[3.07220112,43.0590948],[3.07315549,43.05919939],[3.07360469,43.05941853],[3.07397757,43.05943267],[3.07431869,43.05954036],[3.07520753,43.06017561],[3.07512679,43.06033846],[3.07542238,43.06033375],[3.07609406,43.05996993],[3.07632961,43.06001203],[3.07690063,43.05959071],[3.0781891,43.0591239],[3.08211452,43.05861732],[3.08486411,43.05759617],[3.08405627,43.05619646],[3.08372361,43.05515073],[3.08362301,43.05512922],[3.08369645,43.05503203],[3.08351602,43.05493144],[3.08360913,43.05486391],[3.08340496,43.05445485],[3.08259229,43.05305693],[3.08237493,43.05285473],[3.08210196,43.05236028],[3.08200873,43.05234326],[3.08164019,43.05189745],[3.08137327,43.05133014],[3.08110305,43.05103714],[3.08085949,43.05050579],[3.08145789,43.05133187],[3.08152752,43.05114115],[3.08123,43.05061074],[3.08042493,43.04931263],[3.08019195,43.0493245],[3.08010109,43.04924902],[3.0798989,43.0484712],[3.07999591,43.04856376],[3.08001427,43.04853947],[3.07877292,43.04649699],[3.0783369,43.04598016],[3.07741741,43.04430258],[3.07747255,43.04427286],[3.0772672,43.04384131],[3.07718994,43.04383507],[3.07668379,43.04311592],[3.076213,43.04223936],[3.07625703,43.04215209],[3.075757,43.04140686],[3.07562656,43.0410463],[3.07539803,43.04069121],[3.07531587,43.04067958],[3.07529846,43.04049791],[3.07518312,43.04043504],[3.07474064,43.03959983],[3.07402078,43.03854625],[3.07397007,43.03820183],[3.07384246,43.03812637],[3.07377101,43.0378611],[3.07355994,43.03771375],[3.07277353,43.03634723],[3.07235882,43.03610019],[3.07233048,43.03599138],[3.07198192,43.03570202],[3.07088295,43.0353376],[3.0706498,43.03517317],[3.07072885,43.03464249],[3.07099801,43.03418543],[3.0710266,43.03350908],[3.07114314,43.03356027],[3.07117846,43.03337498],[3.07091063,43.03291198],[3.07080271,43.03288866],[3.07071651,43.03257574],[3.07031103,43.03182593],[3.07020185,43.03176664],[3.07015006,43.03151755],[3.06998563,43.03139175],[3.06942745,43.03006014],[3.06905036,43.02943802],[3.06896491,43.02871768],[3.06842674,43.02767386],[3.06824762,43.02755795],[3.06832236,43.02751833],[3.06771421,43.02637113],[3.06881235,43.02618876],[3.07165363,43.02502762],[3.07890945,43.02250343],[3.07941782,43.02226652],[3.07988065,43.02190284],[3.08014007,43.02158247],[3.08035269,43.02110745],[3.08276959,43.01150766],[3.08264077,43.01140344],[3.08243124,43.01142878],[3.08226003,43.01168972],[3.07991277,43.02119232],[3.07947484,43.02183479],[3.07881473,43.02225168],[3.07155282,43.02479475],[3.06875808,43.02590909],[3.06834378,43.02593634],[3.06793416,43.02577561],[3.0678763,43.02556609],[3.0672574,43.02463204],[3.06709056,43.02451523],[3.06713464,43.02447383],[3.06664956,43.02370248],[3.07124799,43.02212564],[3.06979525,43.01990427],[3.06479513,43.02166925],[3.063965,43.02028923],[3.06828144,43.01880892],[3.06832053,43.01869828],[3.07257179,43.01721875],[3.07220217,43.01665779],[3.07297493,43.01616802],[3.07305181,43.01590536],[3.07279016,43.01543427],[3.07248826,43.0151152],[3.07206892,43.01496349],[3.06706507,43.01519876],[3.06750433,43.01457703],[3.06862627,43.01398275],[3.06903435,43.01394561],[3.06980594,43.01249715],[3.06991248,43.01243233],[3.0714272,43.01238097],[3.07704779,43.01256416],[3.07720833,43.01255685],[3.07731477,43.01242277],[3.07717614,43.01231405],[3.07143179,43.01212915],[3.07046977,43.01215676],[3.06986937,43.01224799],[3.06931449,43.01249567],[3.06856459,43.01260677],[3.0683846,43.01275078],[3.06563067,43.0137328],[3.06530444,43.01352614],[3.06510957,43.01352446],[3.0647919,43.01330431],[3.06494034,43.01343373],[3.0649232,43.01345083],[3.06342912,43.0122232],[3.06322764,43.01177274],[3.06290136,43.01150852],[3.06260552,43.01106172],[3.06257099,43.01086028],[3.06262494,43.01088363],[3.06224418,43.01008792],[3.06193764,43.00994061],[3.06195092,43.00974724],[3.06115075,43.00865768],[3.06103154,43.00833668],[3.06104836,43.0080183],[3.06067167,43.00756164],[3.06068376,43.00740605],[3.06096105,43.00772786],[3.06052778,43.00707427],[3.06047393,43.00713546],[3.06038934,43.00710763],[3.06041381,43.00706535],[3.06043458,43.00700418],[3.06046642,43.00698168],[3.06019412,43.0067453],[3.05992865,43.00599089],[3.05935549,43.00511704],[3.05932369,43.00517642],[3.05924985,43.00486888],[3.05889522,43.00437803],[3.05895278,43.00435192],[3.05870732,43.00396623],[3.05874023,43.00379624],[3.05867899,43.00382235],[3.05849004,43.00357783],[3.05842488,43.00336832],[3.0585254,43.00340604],[3.05829683,43.00275953],[3.05820984,43.00276677],[3.0582025,43.00277667],[3.0581448,43.00266518],[3.05786276,43.00246118],[3.05789572,43.00233705],[3.05758649,43.00188575],[3.05722959,43.00155408],[3.05699246,43.00089138],[3.0570131,43.00070611],[3.05715394,43.00062869],[3.05703872,43.00059098],[3.05712561,43.00047851],[3.05699201,43.00043991],[3.05707893,43.00035533],[3.05686915,43.00009823],[3.05683208,42.99977718],[3.05700498,42.99992188],[3.05687853,42.99966564],[3.05680871,42.99968906],[3.05670201,42.99958299],[3.05678161,42.99954518],[3.05654847,42.99920175],[3.05627629,42.99775575],[3.05619168,42.99768384],[3.05618346,42.99805977],[3.05599557,42.9976084],[3.05603959,42.99752024],[3.05574654,42.99729286],[3.05526795,42.99650798],[3.05514363,42.99590189],[3.05502595,42.9958327],[3.05507851,42.99571216],[3.05497674,42.99561868],[3.0546757,42.9947042],[3.05426471,42.99410275],[3.05414179,42.99367203],[3.0542128,42.99362703],[3.05426547,42.99361261],[3.05428989,42.99352626],[3.05440161,42.99377442],[3.05434649,42.99378704],[3.05434777,42.9938392],[3.0544703,42.99385713],[3.05439399,42.99348124],[3.05434496,42.99345608],[3.05429349,42.99344172],[3.05423949,42.99334282],[3.05420029,42.99334644],[3.05421244,42.99323671],[3.05432277,42.9933077],[3.05420371,42.99307214],[3.05412775,42.99307128],[3.05393226,42.99232582],[3.0538636,42.9922674],[3.05391011,42.99222151],[3.05383759,42.99196613],[3.05380201,42.99190859],[3.05382923,42.99219277],[3.05361687,42.9917468],[3.05375413,42.99180519],[3.05366327,42.9915876],[3.05361058,42.99157683],[3.05360453,42.99165598],[3.05340956,42.99145552],[3.05331124,42.99111562],[3.05337867,42.99117764],[3.05342888,42.99115783],[3.05334299,42.99100858],[3.05328173,42.99099962],[3.053289,42.99091958],[3.05283256,42.99014277],[3.05277459,42.98971022],[3.05246535,42.9891276],[3.05255571,42.98880559],[3.05246636,42.98889557],[3.05244991,42.98831641],[3.05184468,42.98687866],[3.05175962,42.98628244],[3.05170198,42.98620333],[3.05176106,42.98651447],[3.05144708,42.98609103],[3.05150089,42.98598669],[3.05122991,42.98569633],[3.05123841,42.98561269],[3.05148731,42.98586798],[3.050772,42.98456968],[3.05080002,42.984388],[3.05052633,42.98378108],[3.05034154,42.98257606],[3.04955856,42.98084342],[3.04121662,42.9818371],[3.04061776,42.98199291],[3.04052719,42.98210626],[3.04024185,42.9821936],[3.03256271,42.98619464],[3.03155052,42.98555641],[3.03067813,42.98516186],[3.0220065,42.98174022],[3.02157563,42.98253172],[3.02103171,42.98237714],[3.02027402,42.98390256],[3.01959427,42.98416799],[3.01805373,42.98558201],[3.01738504,42.98608395],[3.0170531,42.98618473],[3.01649828,42.98656163],[3.0139112,42.98703415],[3.0145765,42.98751701],[3.01379876,42.98813405],[3.01392743,42.9883157],[3.01378168,42.98841735],[3.01323413,42.98861167],[3.01301972,42.988475],[3.01169187,42.98892932],[3.01138678,42.98869012],[3.01022185,42.98919297],[3.00962029,42.98881441],[3.00960922,42.98857249],[3.00945484,42.9884295],[3.00847356,42.98824882],[3.00794802,42.98824976],[3.00767118,42.98838468],[3.00040672,42.98988055],[2.99993507,42.99011348],[2.99803248,42.99149664],[2.99628174,42.99256231],[2.99429943,42.99313601],[2.98931417,42.99413389],[2.9877849,42.99539731],[2.9899128,42.9968005],[2.99826637,42.99498699],[3.0030482,42.99425669],[3.00258241,43.01661543],[3.00220494,43.01733763],[3.00159459,43.01796449],[3.00149287,43.01829905],[3.0017993,43.01899066],[3.00202239,43.01922898],[3.00285832,43.01948618],[3.00359744,43.01989807],[3.00434146,43.02016695],[3.00497642,43.02064178],[3.00496542,43.0210429],[3.00512972,43.02162478],[3.00495696,43.02238565],[3.00551232,43.02337312],[3.00555649,43.02377513],[3.00536407,43.02417626],[3.00461272,43.0248805],[3.00449515,43.026306],[3.00478817,43.02682852],[3.00554459,43.02755427],[3.00612697,43.02847968],[3.00669336,43.02867301],[3.00971639,43.02859814],[3.01144608,43.02844957],[3.01169615,43.02837759],[3.0125517,43.02785137],[3.01368676,43.02744921],[3.01767066,43.0269342],[3.0179379,43.02695484],[3.0190499,43.02739264],[3.02174432,43.02734536],[3.0226883,43.02749446],[3.0229458,43.02768057],[3.02017334,43.0641708]],[[3.03867575,43.01607879],[3.03868392,43.01545823],[3.03876798,43.01470004],[3.03934375,43.0125108],[3.04137717,43.0128437],[3.04264889,43.0122973],[3.0448519,43.01162998],[3.04622282,43.0110691],[3.04860094,43.01034137],[3.04732415,43.01357333],[3.04734635,43.0137406],[3.04711475,43.01377937],[3.0471578,43.01397721],[3.04736752,43.0141462],[3.04737869,43.01432157],[3.0472244,43.01449071],[3.04700017,43.01454927],[3.04682017,43.01474721],[3.04538294,43.01837763],[3.04540269,43.01856289],[3.04571682,43.01901514],[3.0458799,43.01909151],[3.04613852,43.0190932],[3.04863945,43.01826559],[3.04894413,43.01766198],[3.04921599,43.01738485],[3.04953843,43.01749353],[3.04944553,43.01778047],[3.0500303,43.01793758],[3.05007068,43.01785123],[3.05072286,43.01800471],[3.05202454,43.02076243],[3.05101234,43.02103902],[3.04113266,43.02406061],[3.04068409,43.02415971],[3.03973432,43.02448114],[3.03911802,43.02307656],[3.03900502,43.02273664],[3.03885735,43.02187061],[3.03867575,43.01607879]]]]}}]}
