{"type":"FeatureCollection","metadata":{"generatedAt":"2026-07-14T18:56:03.503Z","source":"IGN / INSEE - Contours IRIS WFS Géoplateforme","datasetId":"STATISTICALUNITS.IRIS:contours_iris","datasetUrl":"https://geoservices.ign.fr/contoursiris","sourceFileUrl":"https://data.geopf.fr/wfs/ows?SERVICE=WFS&VERSION=2.0.0&REQUEST=GetFeature&TYPENAMES=STATISTICALUNITS.IRIS%3Acontours_iris&OUTPUTFORMAT=application%2Fjson&COUNT=1000&CQL_FILTER=code_insee%3D%2707186%27&SRSNAME=EPSG%3A4326","license":"Licence Ouverte / Open Licence 2.0","sourceYear":"2026","communeCode":"07186","communeName":"Privas","featureCount":4,"parentCount":1,"parentContract":"technical commune group; not selectable and not displayed as a district","sourceFeatureCount":4,"humanLabelContract":"one visible plate per unique official human place name","groupingContract":"only exact source-ID groups approved by the resolved curation, or source zones sharing the same official name and parent, are merged","groupedZoneCount":0,"groupedSourceFeatureCount":0,"curationStatus":"resolved","curationRevision":1,"curationSources":[{"id":"ign-insee-contours-iris-2026","provider":"IGN / INSEE - Contours IRIS WFS Géoplateforme","datasetUrl":"https://geoservices.ign.fr/contoursiris","role":"official geometry, source identifiers and source labels","vintage":"2026","license":"Licence Ouverte / Open Licence 2.0"},{"id":"ign-geoplateforme-toponymy-2026","provider":"IGN Géoplateforme - reverse geocoding, addresses and named places","datasetUrl":"https://geoservices.ign.fr/geocodage-geoplateforme","role":"official address, street and named-place evidence","vintage":"2026","license":"Licence Ouverte / Open Licence 2.0"},{"id":"guide-alpha-editorial-recovery-2026-07-14","provider":"Meewav Guide Alpha editorial review","datasetUrl":"docs/geospatial/france-semantic-recovery.md","role":"versioned mapping of exact official IRIS identifiers to coherent human place names","vintage":"2026-07-14","license":"Project documentation"}],"sourceCorrections":[{"operationId":"privas-071860104-rename-rue-de-la-recluse","type":"rename","sourceIds":["071860104"],"expectedLabels":["Centre Ville"],"outputLabel":"Rue de la Recluse","evidenceRefs":["ign-insee-contours-iris-2026","ign-geoplateforme-toponymy-2026","guide-alpha-editorial-recovery-2026-07-14"],"rationale":"The exact official IGN BD TOPO named road has a deterministic evidence point strictly inside this exact IRIS. The 1:1 label is emitted without nearest assignment, invented geometry, split or dropped source cell."}],"bbox":[4.57012851,44.69692456,4.61971768,44.74580442],"areaStatsM2":{"minimum":426532.61279296875,"average":2982372.5332336426,"maximum":7773630.222412109}},"features":[{"type":"Feature","id":"privas_071860101_tauleac_baudoin","properties":{"zoneId":"privas_071860101_tauleac_baudoin","label":"Tauléac Baudoin","districtCode":"071860101","arrondissementCode":"07186","colorIndex":0,"parentZoneId":"privas_parent_07186_privas","parentCode":"07186","parentLabel":"Privas","territoryType":"iris","source":"IGN / INSEE - Contours IRIS WFS Géoplateforme","sourceYear":"2026","officialId":"071860101","sourceCleabs":"IRIS____0000000071860101","communeCode":"07186","communeName":"Privas","irisCode":"0101","irisType":"H","officialAreaM2":7773630.222412109,"labelLng":4.5964648075797925,"labelLat":44.71619274998681,"bbox":[4.57544268,44.69692456,4.61971768,44.73550978]},"geometry":{"type":"MultiPolygon","coordinates":[[[[4.58170899,44.69692456],[4.57943163,44.69855001],[4.57813241,44.69967251],[4.57660267,44.70000407],[4.57611091,44.70029742],[4.57570486,44.70040495],[4.57544905,44.70064812],[4.57544268,44.70118759],[4.57575908,44.70202682],[4.57546465,44.70260461],[4.57570215,44.70310549],[4.57559661,44.70348519],[4.57563013,44.70481831],[4.57589311,44.70519186],[4.57608556,44.70579693],[4.57639999,44.706249],[4.57650172,44.70690579],[4.57548154,44.70690861],[4.57557221,44.70699016],[4.57615085,44.70700173],[4.57636742,44.70706979],[4.57690943,44.70775723],[4.57694804,44.70796379],[4.5765707,44.7084221],[4.57643297,44.70873472],[4.57619358,44.71010684],[4.57625562,44.71051838],[4.57651999,44.71112063],[4.57746772,44.71263073],[4.57796223,44.71315316],[4.57861833,44.71412352],[4.5789267,44.71512225],[4.57962449,44.71577684],[4.580093,44.71640589],[4.58211078,44.71702272],[4.58238481,44.71756089],[4.58367774,44.71889672],[4.58410739,44.71980275],[4.58485004,44.72065568],[4.58491001,44.72112577],[4.58390569,44.72093844],[4.58326545,44.72089717],[4.58222653,44.72118576],[4.58111562,44.72120523],[4.58031968,44.72106171],[4.57989462,44.7211272],[4.57923289,44.72095024],[4.57853154,44.721252],[4.57800984,44.72192488],[4.57770624,44.72249381],[4.57772421,44.7227745],[4.5778571,44.72296441],[4.57774299,44.72312902],[4.57660787,44.72332258],[4.57691013,44.7237424],[4.57773703,44.72422318],[4.57868588,44.72472833],[4.57922786,44.72495743],[4.5807254,44.72529986],[4.58231759,44.72563821],[4.58278279,44.72578645],[4.58311773,44.72597346],[4.58322295,44.72589722],[4.58383388,44.72570298],[4.58396713,44.72559032],[4.58410258,44.72533174],[4.58429032,44.72518048],[4.5845574,44.72511092],[4.58510334,44.7250761],[4.58594193,44.7250722],[4.58684121,44.72511514],[4.58785675,44.72502585],[4.58837384,44.72517692],[4.58892503,44.72541754],[4.58964208,44.72562697],[4.59014771,44.72568544],[4.59256571,44.72610094],[4.59280911,44.72608753],[4.59322474,44.72600051],[4.5944339,44.72552206],[4.59475046,44.72554992],[4.59513876,44.72579106],[4.59558288,44.72599628],[4.59587937,44.72607305],[4.59651256,44.72613056],[4.59671771,44.72619334],[4.59719384,44.7268141],[4.59725245,44.72696544],[4.59724204,44.7271772],[4.59761894,44.7274167],[4.59783131,44.72746676],[4.59825492,44.72743814],[4.59848932,44.72746357],[4.59853546,44.72753134],[4.59845824,44.7276144],[4.59846619,44.72776106],[4.59869986,44.72767124],[4.59935042,44.72758351],[4.59926999,44.72822041],[4.59935138,44.72850649],[4.5995677,44.72878432],[4.59968112,44.72886372],[4.59995268,44.72895165],[4.60056969,44.72937136],[4.60085777,44.72946265],[4.60139339,44.72955216],[4.60164799,44.72966554],[4.60213087,44.73003225],[4.60270212,44.73061831],[4.60323951,44.73103556],[4.60374264,44.73118136],[4.60378707,44.73114469],[4.60425393,44.7310812],[4.60484013,44.73090612],[4.60521817,44.73091775],[4.60545561,44.73100436],[4.60552941,44.73106722],[4.60593874,44.73151153],[4.60643873,44.73216614],[4.60654796,44.73223119],[4.6069716,44.73224665],[4.60801652,44.73212073],[4.60833511,44.73217373],[4.60852305,44.73234029],[4.60820321,44.73321661],[4.60794473,44.73363188],[4.60823547,44.73390321],[4.60898107,44.73413281],[4.60937426,44.73405506],[4.60965572,44.73378082],[4.60988168,44.73368659],[4.61013192,44.73369016],[4.61041604,44.73377427],[4.61065385,44.73378522],[4.61121613,44.7340535],[4.61134514,44.73423532],[4.6115126,44.73465701],[4.61151472,44.73517206],[4.61169705,44.73545126],[4.61206889,44.73550978],[4.61333804,44.73535983],[4.61360122,44.7346248],[4.61367667,44.73390782],[4.61385594,44.73341894],[4.61379727,44.7319457],[4.61349783,44.73093071],[4.61284101,44.72987501],[4.61317554,44.72960269],[4.61336762,44.7296053],[4.61395859,44.72928962],[4.61492772,44.72859383],[4.61576466,44.72831057],[4.61603941,44.72811296],[4.61561354,44.72713855],[4.61579385,44.72567533],[4.61592176,44.72542313],[4.61595872,44.7245104],[4.61694048,44.7239945],[4.61735842,44.72354986],[4.61772704,44.72336708],[4.61937913,44.72169865],[4.61966755,44.72096774],[4.61971768,44.72055909],[4.61944633,44.71990751],[4.6182536,44.72006722],[4.61780796,44.71998639],[4.61760965,44.71976596],[4.61664888,44.71753599],[4.61650087,44.71699967],[4.61648643,44.71632091],[4.61463932,44.71620739],[4.61456058,44.7155755],[4.61474164,44.71519556],[4.6146687,44.71507416],[4.61497488,44.71465367],[4.61540416,44.71429802],[4.61451144,44.71368611],[4.61424839,44.71332075],[4.61398943,44.71314172],[4.61366403,44.71306812],[4.6128012,44.71314553],[4.61248928,44.71327794],[4.61225897,44.71326149],[4.61175487,44.71298878],[4.61125082,44.71289436],[4.61130388,44.7125424],[4.6111472,44.71236278],[4.61068069,44.71230023],[4.61025072,44.71196971],[4.60923698,44.71162696],[4.60850435,44.71153135],[4.60728588,44.71047477],[4.60703197,44.70967523],[4.60647985,44.70891244],[4.60544857,44.70808455],[4.60509335,44.70758363],[4.60467807,44.70727899],[4.60419925,44.70660517],[4.60351564,44.70623327],[4.60220055,44.70572283],[4.60127215,44.70526712],[4.60086069,44.70473999],[4.60032117,44.70446054],[4.5999197,44.70384051],[4.59957866,44.70365814],[4.59876216,44.70353936],[4.59800617,44.70292805],[4.59777383,44.70257122],[4.59671296,44.70189316],[4.59597942,44.70176056],[4.59517157,44.70212429],[4.59468901,44.70224921],[4.59383753,44.70272251],[4.59238511,44.70293071],[4.59050646,44.70257682],[4.5898885,44.70237859],[4.58871273,44.70214424],[4.58762007,44.70351422],[4.58713698,44.70384531],[4.58688714,44.70389572],[4.5863811,44.70386065],[4.58593437,44.70373468],[4.58561107,44.70355292],[4.58476174,44.70249082],[4.58428664,44.70167009],[4.58409103,44.70158374],[4.58340242,44.70093715],[4.58315837,44.70060927],[4.58298002,44.70059741],[4.58293516,44.70052872],[4.58252823,44.6985382],[4.58197551,44.69728905],[4.58170899,44.69692456]]]]}},{"type":"Feature","id":"privas_071860102_chaumette_ouveze_rive_gauche","properties":{"zoneId":"privas_071860102_chaumette_ouveze_rive_gauche","label":"Chaumette Ouvèze Rive Gauche","districtCode":"071860102","arrondissementCode":"07186","colorIndex":1,"parentZoneId":"privas_parent_07186_privas","parentCode":"07186","parentLabel":"Privas","territoryType":"iris","source":"IGN / INSEE - Contours IRIS WFS Géoplateforme","sourceYear":"2026","officialId":"071860102","sourceCleabs":"IRIS____0000000071860102","communeCode":"07186","communeName":"Privas","irisCode":"0102","irisType":"H","officialAreaM2":1164970.7689208984,"labelLng":4.603380995882856,"labelLat":44.73215255,"bbox":[4.58072328,44.72502585,4.61580726,44.73927925]},"geometry":{"type":"MultiPolygon","coordinates":[[[[4.59723701,44.7378606],[4.59777233,44.7378925],[4.59816043,44.73847942],[4.59851711,44.7387156],[4.5999254,44.73901224],[4.60046241,44.73892524],[4.60150641,44.73849593],[4.60223548,44.73863216],[4.60283272,44.73901884],[4.60308733,44.73908629],[4.60378108,44.73904653],[4.60433209,44.73878642],[4.60567638,44.73874263],[4.605778,44.73858447],[4.60602716,44.73846109],[4.60706942,44.73854773],[4.60751075,44.73865028],[4.60806258,44.73917086],[4.60847377,44.73927925],[4.60880146,44.73911871],[4.60894908,44.73858168],[4.60947497,44.73815081],[4.61027317,44.73809688],[4.61092641,44.73770198],[4.61125953,44.73759898],[4.61147099,44.73770396],[4.61177166,44.73832092],[4.61209953,44.73865203],[4.61296307,44.73893843],[4.61338622,44.73897909],[4.61354733,44.73891371],[4.61374253,44.73875958],[4.61418892,44.73780486],[4.61473867,44.73719443],[4.61570276,44.73640685],[4.61580726,44.73569034],[4.61575895,44.73554786],[4.61535142,44.73622647],[4.6149688,44.73645267],[4.61478207,44.73641757],[4.61447259,44.73619876],[4.61434856,44.7358827],[4.61395363,44.73550395],[4.61333804,44.73535983],[4.61206889,44.73550978],[4.61169705,44.73545126],[4.61151472,44.73517206],[4.6115126,44.73465701],[4.61134514,44.73423532],[4.61121613,44.7340535],[4.61065385,44.73378522],[4.61041604,44.73377427],[4.61013192,44.73369016],[4.60988168,44.73368659],[4.60965572,44.73378082],[4.60937426,44.73405506],[4.60898107,44.73413281],[4.60823547,44.73390321],[4.60794473,44.73363188],[4.60820321,44.73321661],[4.60852305,44.73234029],[4.60833511,44.73217373],[4.60801652,44.73212073],[4.6069716,44.73224665],[4.60654796,44.73223119],[4.60643873,44.73216614],[4.60593874,44.73151153],[4.60552941,44.73106722],[4.60545561,44.73100436],[4.60521817,44.73091775],[4.60484013,44.73090612],[4.60425393,44.7310812],[4.60378707,44.73114469],[4.60374264,44.73118136],[4.60323951,44.73103556],[4.60270212,44.73061831],[4.60213087,44.73003225],[4.60164799,44.72966554],[4.60139339,44.72955216],[4.60085777,44.72946265],[4.60056969,44.72937136],[4.59995268,44.72895165],[4.59968112,44.72886372],[4.5995677,44.72878432],[4.59935138,44.72850649],[4.59926999,44.72822041],[4.59935042,44.72758351],[4.59869986,44.72767124],[4.59846619,44.72776106],[4.59845824,44.7276144],[4.59853546,44.72753134],[4.59848932,44.72746357],[4.59825492,44.72743814],[4.59783131,44.72746676],[4.59761894,44.7274167],[4.59724204,44.7271772],[4.59725245,44.72696544],[4.59719384,44.7268141],[4.59671771,44.72619334],[4.59651256,44.72613056],[4.59587937,44.72607305],[4.59558288,44.72599628],[4.59513876,44.72579106],[4.59475046,44.72554992],[4.5944339,44.72552206],[4.59322474,44.72600051],[4.59280911,44.72608753],[4.59256571,44.72610094],[4.59014771,44.72568544],[4.58964208,44.72562697],[4.58892503,44.72541754],[4.58837384,44.72517692],[4.58785675,44.72502585],[4.58684121,44.72511514],[4.58594193,44.7250722],[4.58510334,44.7250761],[4.5845574,44.72511092],[4.58429032,44.72518048],[4.58410258,44.72533174],[4.58396713,44.72559032],[4.58383388,44.72570298],[4.58322295,44.72589722],[4.58311773,44.72597346],[4.58278279,44.72578645],[4.58231759,44.72563821],[4.5807254,44.72529986],[4.58072328,44.72540434],[4.5808901,44.72549741],[4.58090281,44.72554496],[4.58159399,44.72564404],[4.58259298,44.72631324],[4.583459,44.72674479],[4.58408862,44.72698972],[4.58534192,44.72726805],[4.58623159,44.72737237],[4.58842938,44.72754798],[4.58890954,44.72764285],[4.58982928,44.7279169],[4.59008304,44.72876151],[4.59018577,44.72891041],[4.59105336,44.72975161],[4.591189,44.72914274],[4.59113054,44.72890675],[4.5911752,44.72874402],[4.59182165,44.72824217],[4.59198562,44.72801019],[4.5919855,44.72769322],[4.59183942,44.72730722],[4.59166802,44.72714219],[4.59142046,44.72700888],[4.59142378,44.72681342],[4.59159112,44.72701363],[4.59180054,44.72713849],[4.5919688,44.72732607],[4.59224121,44.72789125],[4.59238892,44.7280224],[4.59252986,44.72827161],[4.59316677,44.72903956],[4.5934695,44.72911355],[4.59370401,44.72909757],[4.59505377,44.72894307],[4.59557636,44.72879596],[4.59654897,44.72870541],[4.59676936,44.72872654],[4.59694275,44.72887172],[4.59697824,44.72905401],[4.59687644,44.72969572],[4.59665118,44.73003755],[4.59656968,44.73032597],[4.59678683,44.73063351],[4.59742144,44.73091702],[4.59758739,44.7310668],[4.59773918,44.73102949],[4.59849089,44.73067647],[4.59921822,44.73026615],[4.59906779,44.73044032],[4.59864747,44.73076335],[4.59863845,44.73089045],[4.59889757,44.73098486],[4.60024734,44.73096267],[4.60036946,44.73099242],[4.60042416,44.73105016],[4.60032143,44.73121373],[4.59975,44.73150924],[4.60040076,44.73222653],[4.60076183,44.73248515],[4.60154938,44.7329033],[4.60214316,44.73228328],[4.60241462,44.73218931],[4.60259067,44.73224979],[4.60155708,44.73383969],[4.60153222,44.73407598],[4.60163763,44.73422843],[4.60162367,44.73431508],[4.60125213,44.73444382],[4.6011371,44.73453013],[4.60110587,44.73463144],[4.60141463,44.73469361],[4.60146039,44.73607969],[4.60124661,44.73620345],[4.59938064,44.73629254],[4.59856522,44.73636194],[4.59832583,44.73642933],[4.5982019,44.73638069],[4.598035,44.73637589],[4.59744161,44.73643398],[4.59749162,44.73668269],[4.5978447,44.73692613],[4.59780318,44.73702128],[4.59753242,44.73700718],[4.59752317,44.73708205],[4.59857932,44.7381483],[4.5985203,44.73816086],[4.59844459,44.73811962],[4.59791143,44.73776352],[4.59771564,44.73772042],[4.59745535,44.73767465],[4.59723958,44.73768406],[4.59723701,44.7378606]]]]}},{"type":"Feature","id":"privas_071860103_charalon_argevillieres","properties":{"zoneId":"privas_071860103_charalon_argevillieres","label":"Charalon Argevillières","districtCode":"071860103","arrondissementCode":"07186","colorIndex":2,"parentZoneId":"privas_parent_07186_privas","parentCode":"07186","parentLabel":"Privas","territoryType":"iris","source":"IGN / INSEE - Contours IRIS WFS Géoplateforme","sourceYear":"2026","officialId":"071860103","sourceCleabs":"IRIS____0000000071860103","communeCode":"07186","communeName":"Privas","irisCode":"0103","irisType":"H","officialAreaM2":2564356.5288085938,"labelLng":4.583392366190339,"labelLat":44.7349351106059,"bbox":[4.57012851,44.72422318,4.59857932,44.74580442]},"geometry":{"type":"MultiPolygon","coordinates":[[[[4.57773703,44.72422318],[4.57526888,44.72444561],[4.5739963,44.72555148],[4.57371557,44.72662433],[4.57395441,44.72689919],[4.57442014,44.72702133],[4.57449244,44.72689694],[4.57519842,44.72680226],[4.57604273,44.72691181],[4.57706681,44.72753117],[4.57635051,44.72811407],[4.57579081,44.72829042],[4.57559609,44.72945661],[4.57613878,44.72957495],[4.57687522,44.73016058],[4.57937304,44.73053651],[4.57874988,44.73097312],[4.57875309,44.73149265],[4.57850379,44.73183749],[4.57832652,44.73240821],[4.57778979,44.73295435],[4.57731338,44.73326459],[4.57797901,44.73375578],[4.5774506,44.73419373],[4.57641406,44.73475778],[4.57666077,44.73531167],[4.57733937,44.73572433],[4.57732598,44.73601267],[4.57719045,44.73609024],[4.57694546,44.73609373],[4.57618895,44.7359217],[4.57573061,44.73593092],[4.57494421,44.73599974],[4.5742561,44.73615],[4.57386939,44.73650668],[4.57381867,44.7372683],[4.57389647,44.73747521],[4.57461457,44.73749292],[4.57536835,44.73716073],[4.57523421,44.73751382],[4.57430239,44.73807546],[4.57318357,44.73832098],[4.57300172,44.73850456],[4.57266821,44.73963579],[4.57074366,44.74075448],[4.5703774,44.74107664],[4.57026623,44.74143931],[4.57012851,44.7456501],[4.57042217,44.74580442],[4.57123935,44.74488695],[4.57179142,44.74452163],[4.57176453,44.74306143],[4.57247064,44.74305501],[4.57294756,44.74325625],[4.57335712,44.74326304],[4.57396806,44.74324176],[4.5744552,44.74299531],[4.57511447,44.74289499],[4.57767915,44.74293233],[4.5780545,44.74270997],[4.57904493,44.74265984],[4.579353,44.74247175],[4.5799245,44.74239606],[4.5822146,44.74156555],[4.58315557,44.74141974],[4.58347,44.74141344],[4.58468101,44.74170409],[4.5860246,44.7421261],[4.58652846,44.74211618],[4.58715351,44.74196856],[4.58814722,44.74154279],[4.5886498,44.74148786],[4.59035577,44.74154263],[4.59085707,44.74144268],[4.59154017,44.74115912],[4.59234259,44.74027052],[4.59324356,44.74031969],[4.59350334,44.7402133],[4.59372894,44.73956891],[4.59359261,44.73935026],[4.59374693,44.73931202],[4.59365515,44.73914945],[4.59416756,44.73868463],[4.59415462,44.73836154],[4.59432878,44.73799794],[4.59450928,44.73776932],[4.59487942,44.73754518],[4.59591998,44.73721682],[4.59624927,44.73764611],[4.59653354,44.73782481],[4.59723701,44.7378606],[4.59723958,44.73768406],[4.59745535,44.73767465],[4.59771564,44.73772042],[4.59791143,44.73776352],[4.59844459,44.73811962],[4.5985203,44.73816086],[4.59857932,44.7381483],[4.59752317,44.73708205],[4.59753242,44.73700718],[4.59780318,44.73702128],[4.5978447,44.73692613],[4.59749162,44.73668269],[4.59744161,44.73643398],[4.59641284,44.73650914],[4.59613927,44.73648517],[4.59464915,44.73601767],[4.59489928,44.73579435],[4.59630657,44.73516806],[4.5962581,44.7350625],[4.59579424,44.73514392],[4.59544189,44.7351481],[4.59506095,44.73507974],[4.59467591,44.73495562],[4.59431114,44.73469973],[4.5941765,44.73454048],[4.59395167,44.73378371],[4.59382457,44.73313179],[4.59357379,44.73288596],[4.59106736,44.73154246],[4.59044755,44.73137937],[4.58992416,44.73132025],[4.58947581,44.73132398],[4.5894406,44.73128487],[4.58940487,44.73078021],[4.58948399,44.7306296],[4.591373,44.73006578],[4.59294726,44.73168293],[4.59319558,44.73184234],[4.59332532,44.7318738],[4.59354102,44.73186259],[4.59410574,44.7317302],[4.59444442,44.73177935],[4.59441975,44.73171127],[4.59423719,44.73164366],[4.59408567,44.73146754],[4.59407338,44.73130113],[4.59394516,44.73123454],[4.59374964,44.73102124],[4.59371357,44.7307291],[4.59383054,44.73039874],[4.59381212,44.73014958],[4.59356534,44.72959843],[4.59316677,44.72903956],[4.59252986,44.72827161],[4.59238892,44.7280224],[4.59224121,44.72789125],[4.5919688,44.72732607],[4.59180054,44.72713849],[4.59159112,44.72701363],[4.59142378,44.72681342],[4.59142046,44.72700888],[4.59166802,44.72714219],[4.59183942,44.72730722],[4.5919855,44.72769322],[4.59198562,44.72801019],[4.59182165,44.72824217],[4.5911752,44.72874402],[4.59113054,44.72890675],[4.591189,44.72914274],[4.59105336,44.72975161],[4.59018577,44.72891041],[4.59008304,44.72876151],[4.58982928,44.7279169],[4.58890954,44.72764285],[4.58842938,44.72754798],[4.58623159,44.72737237],[4.58534192,44.72726805],[4.58408862,44.72698972],[4.583459,44.72674479],[4.58259298,44.72631324],[4.58159399,44.72564404],[4.58090281,44.72554496],[4.5808901,44.72549741],[4.58072328,44.72540434],[4.5807254,44.72529986],[4.57922786,44.72495743],[4.57868588,44.72472833],[4.57773703,44.72422318]]]]}},{"type":"Feature","id":"privas_071860104_centre_ville","properties":{"zoneId":"privas_071860104_centre_ville","label":"Rue de la Recluse","districtCode":"071860104","arrondissementCode":"07186","colorIndex":3,"parentZoneId":"privas_parent_07186_privas","parentCode":"07186","parentLabel":"Privas","territoryType":"iris","source":"IGN / INSEE - Contours IRIS WFS Géoplateforme","sourceYear":"2026","officialId":"071860104","sourceCleabs":"IRIS____0000000071860104","communeCode":"07186","communeName":"Privas","irisCode":"0104","irisType":"H","officialAreaM2":426532.61279296875,"labelLng":4.59680784093124,"labelLat":44.732886205497685,"bbox":[4.58940487,44.72870541,4.60259067,44.73650914],"curationOperationId":"privas-071860104-rename-rue-de-la-recluse","curationRevision":1,"curationEvidenceRefs":["ign-insee-contours-iris-2026","ign-geoplateforme-toponymy-2026","guide-alpha-editorial-recovery-2026-07-14"],"curationRationale":"The exact official IGN BD TOPO named road has a deterministic evidence point strictly inside this exact IRIS. The 1:1 label is emitted without nearest assignment, invented geometry, split or dropped source cell.","semanticLabelReviewed":true,"semanticLabelAccepted":false,"semanticResolution":"rename"},"geometry":{"type":"MultiPolygon","coordinates":[[[[4.59744161,44.73643398],[4.598035,44.73637589],[4.5982019,44.73638069],[4.59832583,44.73642933],[4.59856522,44.73636194],[4.59938064,44.73629254],[4.60124661,44.73620345],[4.60146039,44.73607969],[4.60141463,44.73469361],[4.60110587,44.73463144],[4.6011371,44.73453013],[4.60125213,44.73444382],[4.60162367,44.73431508],[4.60163763,44.73422843],[4.60153222,44.73407598],[4.60155708,44.73383969],[4.60259067,44.73224979],[4.60241462,44.73218931],[4.60214316,44.73228328],[4.60154938,44.7329033],[4.60076183,44.73248515],[4.60040076,44.73222653],[4.59975,44.73150924],[4.60032143,44.73121373],[4.60042416,44.73105016],[4.60036946,44.73099242],[4.60024734,44.73096267],[4.59889757,44.73098486],[4.59863845,44.73089045],[4.59864747,44.73076335],[4.59906779,44.73044032],[4.59921822,44.73026615],[4.59849089,44.73067647],[4.59773918,44.73102949],[4.59758739,44.7310668],[4.59742144,44.73091702],[4.59678683,44.73063351],[4.59656968,44.73032597],[4.59665118,44.73003755],[4.59687644,44.72969572],[4.59697824,44.72905401],[4.59694275,44.72887172],[4.59676936,44.72872654],[4.59654897,44.72870541],[4.59557636,44.72879596],[4.59505377,44.72894307],[4.59370401,44.72909757],[4.5934695,44.72911355],[4.59316677,44.72903956],[4.59356534,44.72959843],[4.59381212,44.73014958],[4.59383054,44.73039874],[4.59371357,44.7307291],[4.59374964,44.73102124],[4.59394516,44.73123454],[4.59407338,44.73130113],[4.59408567,44.73146754],[4.59423719,44.73164366],[4.59441975,44.73171127],[4.59444442,44.73177935],[4.59410574,44.7317302],[4.59354102,44.73186259],[4.59332532,44.7318738],[4.59319558,44.73184234],[4.59294726,44.73168293],[4.591373,44.73006578],[4.58948399,44.7306296],[4.58940487,44.73078021],[4.5894406,44.73128487],[4.58947581,44.73132398],[4.58992416,44.73132025],[4.59044755,44.73137937],[4.59106736,44.73154246],[4.59357379,44.73288596],[4.59382457,44.73313179],[4.59395167,44.73378371],[4.5941765,44.73454048],[4.59431114,44.73469973],[4.59467591,44.73495562],[4.59506095,44.73507974],[4.59544189,44.7351481],[4.59579424,44.73514392],[4.5962581,44.7350625],[4.59630657,44.73516806],[4.59489928,44.73579435],[4.59464915,44.73601767],[4.59613927,44.73648517],[4.59641284,44.73650914],[4.59744161,44.73643398]]]]}}]}
