{"type":"FeatureCollection","metadata":{"generatedAt":"2026-07-14T18:56:03.503Z","source":"IGN / INSEE - Contours IRIS WFS Géoplateforme","datasetId":"STATISTICALUNITS.IRIS:contours_iris","datasetUrl":"https://geoservices.ign.fr/contoursiris","sourceFileUrl":"https://data.geopf.fr/wfs/ows?SERVICE=WFS&VERSION=2.0.0&REQUEST=GetFeature&TYPENAMES=STATISTICALUNITS.IRIS%3Acontours_iris&OUTPUTFORMAT=application%2Fjson&COUNT=1000&CQL_FILTER=code_insee%3D%2716291%27&SRSNAME=EPSG%3A4326","license":"Licence Ouverte / Open Licence 2.0","sourceYear":"2026","communeCode":"16291","communeName":"Ruelle-sur-Touvre","featureCount":3,"parentCount":1,"parentContract":"technical commune group; not selectable and not displayed as a district","sourceFeatureCount":3,"humanLabelContract":"one visible plate per unique official human place name","groupingContract":"only exact source-ID groups approved by the resolved curation, or source zones sharing the same official name and parent, are merged","groupedZoneCount":0,"groupedSourceFeatureCount":0,"curationStatus":"resolved","curationRevision":1,"curationSources":[{"id":"ign-insee-contours-iris-2026","provider":"IGN / INSEE - Contours IRIS WFS Géoplateforme","datasetUrl":"https://geoservices.ign.fr/contoursiris","role":"official geometry, source identifiers and source labels","vintage":"2026","license":"Licence Ouverte / Open Licence 2.0"},{"id":"ign-geoplateforme-toponymy-2026","provider":"IGN Géoplateforme - reverse geocoding, addresses and named places","datasetUrl":"https://geoservices.ign.fr/geocodage-geoplateforme","role":"official address, street and named-place evidence","vintage":"2026","license":"Licence Ouverte / Open Licence 2.0"},{"id":"guide-alpha-editorial-recovery-2026-07-14","provider":"Meewav Guide Alpha editorial review","datasetUrl":"docs/geospatial/france-semantic-recovery.md","role":"versioned mapping of exact official IRIS identifiers to coherent human place names","vintage":"2026-07-14","license":"Project documentation"}],"sourceCorrections":[{"operationId":"ruelle_sur_touvre-162910102-rename-rue-gabriel-quement","type":"rename","sourceIds":["162910102"],"expectedLabels":["Centre"],"outputLabel":"Rue Gabriel Quement","evidenceRefs":["ign-insee-contours-iris-2026","ign-geoplateforme-toponymy-2026","guide-alpha-editorial-recovery-2026-07-14"],"rationale":"The exact official IGN BD TOPO named road has a deterministic evidence point strictly inside this exact IRIS. The 1:1 label is emitted without nearest assignment, invented geometry, split or dropped source cell."}],"bbox":[0.18125364,45.67073611,0.26907283,45.70225861],"areaStatsM2":{"minimum":1433236.558013916,"average":3517336.3257395425,"maximum":6437379.095611572}},"features":[{"type":"Feature","id":"ruelle_sur_touvre_162910101_fissac","properties":{"zoneId":"ruelle_sur_touvre_162910101_fissac","label":"Fissac","districtCode":"162910101","arrondissementCode":"16291","colorIndex":0,"parentZoneId":"ruelle_sur_touvre_parent_16291_ruelle_sur_touvre","parentCode":"16291","parentLabel":"Ruelle-sur-Touvre","territoryType":"iris","source":"IGN / INSEE - Contours IRIS WFS Géoplateforme","sourceYear":"2026","officialId":"162910101","sourceCleabs":"IRIS____0000000162910101","communeCode":"16291","communeName":"Ruelle-sur-Touvre","irisCode":"0101","irisType":"H","officialAreaM2":2681393.3235931396,"labelLng":0.202531539123657,"labelLat":45.6801198797524,"bbox":[0.18125364,45.6731383,0.22406443,45.69094265]},"geometry":{"type":"MultiPolygon","coordinates":[[[[0.21017513,45.67322548],[0.20896067,45.67345218],[0.20895002,45.67325548],[0.20425934,45.67347249],[0.2022115,45.67342883],[0.20074555,45.6731383],[0.20016144,45.67487721],[0.19820179,45.67430946],[0.1969638,45.67413628],[0.19653568,45.67424005],[0.19451168,45.67425812],[0.19195908,45.67405482],[0.19199784,45.67443063],[0.19099599,45.67456873],[0.18990641,45.67456136],[0.18825527,45.67429848],[0.18537659,45.67471943],[0.18418372,45.67472114],[0.18383658,45.67479896],[0.18277635,45.67550229],[0.18279408,45.67641641],[0.18220718,45.67635577],[0.1821855,45.6765039],[0.1818802,45.67681974],[0.18186544,45.67703382],[0.18142425,45.67731742],[0.18125364,45.6776132],[0.18147207,45.67769075],[0.18154025,45.67794205],[0.18233848,45.67794221],[0.18384215,45.67819968],[0.18500467,45.67831616],[0.1850199,45.67844629],[0.18598505,45.67923361],[0.18714488,45.67968158],[0.18843178,45.68051296],[0.18897112,45.68077691],[0.19078346,45.68146369],[0.19265756,45.68230246],[0.19466451,45.6826264],[0.19556734,45.68289757],[0.1970962,45.68362585],[0.19816628,45.68392009],[0.19948503,45.68458453],[0.20129127,45.68529531],[0.20311956,45.68577414],[0.20433743,45.68596927],[0.20439375,45.68620314],[0.20762203,45.68617421],[0.20988561,45.68635916],[0.21250487,45.68678264],[0.21842968,45.68799417],[0.21834122,45.688347],[0.21989263,45.68912146],[0.22165133,45.68986497],[0.22252942,45.69045428],[0.22311236,45.69072546],[0.22357612,45.69088646],[0.22406443,45.69094265],[0.22228305,45.6900094],[0.22195524,45.68975263],[0.22168496,45.68945132],[0.22147899,45.68904708],[0.22139095,45.68849617],[0.22159509,45.68696583],[0.22080993,45.68509121],[0.2206217,45.6840783],[0.22058992,45.68355941],[0.22064812,45.68268233],[0.2208855,45.68210252],[0.22081072,45.68210698],[0.22075126,45.68206226],[0.21819367,45.68200091],[0.2178569,45.68202593],[0.21522437,45.68245733],[0.21273141,45.68223527],[0.210159,45.68216165],[0.21044783,45.6806145],[0.21024395,45.67943178],[0.21005386,45.67935229],[0.2100415,45.67878162],[0.21021419,45.67803352],[0.21060623,45.67739629],[0.21093713,45.67529423],[0.21105842,45.674061],[0.21056801,45.67364158],[0.21017513,45.67322548]]]]}},{"type":"Feature","id":"ruelle_sur_touvre_162910102_centre","properties":{"zoneId":"ruelle_sur_touvre_162910102_centre","label":"Rue Gabriel Quement","districtCode":"162910102","arrondissementCode":"16291","colorIndex":1,"parentZoneId":"ruelle_sur_touvre_parent_16291_ruelle_sur_touvre","parentCode":"16291","parentLabel":"Ruelle-sur-Touvre","territoryType":"iris","source":"IGN / INSEE - Contours IRIS WFS Géoplateforme","sourceYear":"2026","officialId":"162910102","sourceCleabs":"IRIS____0000000162910102","communeCode":"16291","communeName":"Ruelle-sur-Touvre","irisCode":"0102","irisType":"H","officialAreaM2":1433236.558013916,"labelLng":0.2193680925144473,"labelLat":45.67727971378779,"bbox":[0.2100415,45.67073611,0.23254738,45.68245733],"curationOperationId":"ruelle_sur_touvre-162910102-rename-rue-gabriel-quement","curationRevision":1,"curationEvidenceRefs":["ign-insee-contours-iris-2026","ign-geoplateforme-toponymy-2026","guide-alpha-editorial-recovery-2026-07-14"],"curationRationale":"The exact official IGN BD TOPO named road has a deterministic evidence point strictly inside this exact IRIS. The 1:1 label is emitted without nearest assignment, invented geometry, split or dropped source cell.","semanticLabelReviewed":true,"semanticLabelAccepted":false,"semanticResolution":"rename"},"geometry":{"type":"MultiPolygon","coordinates":[[[[0.23171132,45.6760493],[0.23075122,45.67558598],[0.22957392,45.67553359],[0.22696494,45.67568291],[0.22630381,45.6758973],[0.22582108,45.67616833],[0.22521785,45.67702207],[0.22469846,45.67722912],[0.22376753,45.67808108],[0.22342454,45.67797441],[0.22335623,45.67695365],[0.22217797,45.67261851],[0.2220316,45.67120747],[0.22115047,45.67073611],[0.21760109,45.67111158],[0.21766337,45.6713555],[0.21346671,45.67220501],[0.21183917,45.6727486],[0.21188259,45.67283077],[0.21017513,45.67322548],[0.21056801,45.67364158],[0.21105842,45.674061],[0.21093713,45.67529423],[0.21060623,45.67739629],[0.21021419,45.67803352],[0.2100415,45.67878162],[0.21005386,45.67935229],[0.21024395,45.67943178],[0.21044783,45.6806145],[0.210159,45.68216165],[0.21273141,45.68223527],[0.21522437,45.68245733],[0.2178569,45.68202593],[0.21819367,45.68200091],[0.22075126,45.68206226],[0.22081072,45.68210698],[0.2208855,45.68210252],[0.22095146,45.682069],[0.22096163,45.68199447],[0.22146571,45.6816582],[0.22272607,45.68095495],[0.2230228,45.68080548],[0.22321795,45.68075894],[0.22584287,45.68073263],[0.22690414,45.68099935],[0.2272418,45.68100767],[0.22743001,45.68094562],[0.22777793,45.68072352],[0.22930125,45.67966986],[0.23129111,45.6802342],[0.2316701,45.68041832],[0.23241692,45.67972486],[0.23251816,45.67952551],[0.23254738,45.67919825],[0.232421,45.67769041],[0.23137659,45.67695923],[0.23141005,45.67675281],[0.23156045,45.67652134],[0.23171132,45.6760493]]]]}},{"type":"Feature","id":"ruelle_sur_touvre_162910103_foch","properties":{"zoneId":"ruelle_sur_touvre_162910103_foch","label":"Foch","districtCode":"162910103","arrondissementCode":"16291","colorIndex":2,"parentZoneId":"ruelle_sur_touvre_parent_16291_ruelle_sur_touvre","parentCode":"16291","parentLabel":"Ruelle-sur-Touvre","territoryType":"iris","source":"IGN / INSEE - Contours IRIS WFS Géoplateforme","sourceYear":"2026","officialId":"162910103","sourceCleabs":"IRIS____0000000162910103","communeCode":"16291","communeName":"Ruelle-sur-Touvre","irisCode":"0103","irisType":"H","officialAreaM2":6437379.095611572,"labelLng":0.24488033853911118,"labelLat":45.68670936548313,"bbox":[0.22058992,45.67112395,0.26907283,45.70225861]},"geometry":{"type":"MultiPolygon","coordinates":[[[[0.26731859,45.70225861],[0.26829433,45.7015092],[0.26619615,45.70108437],[0.26613921,45.7008316],[0.26593195,45.70060222],[0.26469014,45.69976295],[0.26427975,45.69932499],[0.26402189,45.69871504],[0.26377535,45.69564106],[0.26436232,45.69552377],[0.26523889,45.69490623],[0.26669006,45.6953316],[0.26682817,45.69498265],[0.26664829,45.69474582],[0.26700079,45.69406509],[0.26813786,45.69418548],[0.26850839,45.69313937],[0.26860178,45.69236765],[0.26907283,45.69056081],[0.26777295,45.69053649],[0.26472631,45.69000933],[0.26440821,45.68999439],[0.26405325,45.69007497],[0.26194577,45.69002916],[0.26138993,45.68975255],[0.26074931,45.68955226],[0.26074762,45.68735371],[0.26049497,45.68736739],[0.26017997,45.68723809],[0.25939244,45.68727929],[0.26003255,45.68676236],[0.2600346,45.68485223],[0.25996986,45.68475785],[0.25962267,45.68470796],[0.25939752,45.68432225],[0.25939747,45.68344104],[0.2591779,45.68283922],[0.25863542,45.68232054],[0.25813767,45.68204081],[0.2573087,45.68167463],[0.25628738,45.681429],[0.25556849,45.68107269],[0.25544998,45.68074093],[0.25467579,45.68012648],[0.25348646,45.67945955],[0.25322975,45.67826122],[0.25349136,45.67762607],[0.25294187,45.67696573],[0.25234194,45.67602754],[0.25152392,45.67508131],[0.25170396,45.67450995],[0.25208483,45.67413901],[0.25029522,45.67236444],[0.2501889,45.67227985],[0.24936613,45.67272378],[0.24882939,45.67292061],[0.2462449,45.67327911],[0.24505519,45.67381225],[0.2420932,45.67127361],[0.24164826,45.67112395],[0.24115639,45.67212195],[0.24060721,45.67287707],[0.24024598,45.6738062],[0.24023729,45.6740835],[0.2398513,45.67458132],[0.23821312,45.67485291],[0.2372134,45.67525998],[0.23637513,45.67580526],[0.23554511,45.67613358],[0.23367888,45.6763121],[0.23262602,45.67634119],[0.2321548,45.67625392],[0.23171132,45.6760493],[0.23156045,45.67652134],[0.23141005,45.67675281],[0.23137659,45.67695923],[0.232421,45.67769041],[0.23254738,45.67919825],[0.23251816,45.67952551],[0.23241692,45.67972486],[0.2316701,45.68041832],[0.23129111,45.6802342],[0.22930125,45.67966986],[0.22777793,45.68072352],[0.22743001,45.68094562],[0.2272418,45.68100767],[0.22690414,45.68099935],[0.22584287,45.68073263],[0.22321795,45.68075894],[0.2230228,45.68080548],[0.22272607,45.68095495],[0.22146571,45.6816582],[0.22096163,45.68199447],[0.22095146,45.682069],[0.2208855,45.68210252],[0.22064812,45.68268233],[0.22058992,45.68355941],[0.2206217,45.6840783],[0.22080993,45.68509121],[0.22159509,45.68696583],[0.22139095,45.68849617],[0.22147899,45.68904708],[0.22168496,45.68945132],[0.22195524,45.68975263],[0.22228305,45.6900094],[0.22406443,45.69094265],[0.22428166,45.69104622],[0.22451278,45.69102668],[0.22479383,45.6911138],[0.22544428,45.69137221],[0.22929152,45.69362221],[0.22984258,45.69422324],[0.23018124,45.69439285],[0.23160089,45.69331047],[0.23222252,45.69273286],[0.23289433,45.69189699],[0.23353287,45.69080079],[0.23394104,45.69063422],[0.23516004,45.69186523],[0.23528596,45.69222694],[0.23560461,45.69228251],[0.23669813,45.6927067],[0.23815779,45.6928281],[0.23812898,45.69304455],[0.2391378,45.6932603],[0.23948239,45.69251278],[0.24126556,45.69238617],[0.24181589,45.69205005],[0.24308543,45.69281277],[0.24354838,45.69319803],[0.24449232,45.69409694],[0.24540119,45.69513283],[0.24656462,45.69573073],[0.24749763,45.69638606],[0.24779016,45.69707078],[0.24950835,45.69771014],[0.24945559,45.6978404],[0.25047997,45.69862498],[0.25067341,45.69853599],[0.25134562,45.69892993],[0.25344952,45.6992876],[0.25941615,45.69959421],[0.26081964,45.70036088],[0.26218928,45.70142225],[0.26731859,45.70225861]]]]}}]}
