{"type":"FeatureCollection","metadata":{"generatedAt":"2026-07-14T18:47:30.899Z","source":"IGN / INSEE - Contours IRIS WFS Géoplateforme","datasetId":"STATISTICALUNITS.IRIS:contours_iris","datasetUrl":"https://geoservices.ign.fr/contoursiris","sourceFileUrl":"https://data.geopf.fr/wfs/ows?SERVICE=WFS&VERSION=2.0.0&REQUEST=GetFeature&TYPENAMES=STATISTICALUNITS.IRIS%3Acontours_iris&OUTPUTFORMAT=application%2Fjson&COUNT=1000&CQL_FILTER=code_insee%3D%2717385%27&SRSNAME=EPSG%3A4326","license":"Licence Ouverte / Open Licence 2.0","sourceYear":"2026","communeCode":"17385","communeName":"Saint-Pierre-d'Oléron","featureCount":3,"parentCount":1,"parentContract":"technical commune group; not selectable and not displayed as a district","bbox":[-1.3758114,45.89995973,-1.22574054,45.97074844],"areaStatsM2":{"minimum":1219201.4036254883,"average":13405073.142791748,"maximum":31251540.398773193}},"features":[{"type":"Feature","id":"saint_pierre_d_oleron_173850101_bourg_saint_pierre","properties":{"zoneId":"saint_pierre_d_oleron_173850101_bourg_saint_pierre","label":"Bourg Saint-Pierre","districtCode":"173850101","arrondissementCode":"17385","colorIndex":0,"parentZoneId":"saint_pierre_d_oleron_parent_17385_saint_pierre_d_oleron","parentCode":"17385","parentLabel":"Saint-Pierre-d'Oléron","territoryType":"iris","source":"IGN / INSEE - Contours IRIS WFS Géoplateforme","sourceYear":"2026","officialId":"173850101","sourceCleabs":"IRIS____0000000173850101","communeCode":"17385","communeName":"Saint-Pierre-d'Oléron","irisCode":"0101","irisType":"H","officialAreaM2":1219201.4036254883,"labelLng":-1.3021668219451694,"labelLat":45.9430130990819,"bbox":[-1.31137593,45.93572163,-1.2938715,45.95047971]},"geometry":{"type":"MultiPolygon","coordinates":[[[[-1.31137593,45.94210444],[-1.31074566,45.94287069],[-1.3107796,45.9429244],[-1.31069371,45.94295022],[-1.31002996,45.94385031],[-1.30968974,45.94442512],[-1.30963188,45.9447592],[-1.30881094,45.94601337],[-1.30702357,45.95047971],[-1.30679412,45.95043885],[-1.30320817,45.94933714],[-1.3029095,45.95003119],[-1.30211165,45.94978108],[-1.30187492,45.94968006],[-1.30173622,45.94957621],[-1.30169153,45.94948412],[-1.30172123,45.94935133],[-1.30212828,45.94858822],[-1.30087577,45.94822734],[-1.30049743,45.94816687],[-1.29820128,45.94804946],[-1.29731661,45.9478955],[-1.29554302,45.94748311],[-1.29628742,45.94661884],[-1.29667005,45.94635359],[-1.29712015,45.94612456],[-1.29770058,45.94597534],[-1.29930433,45.94593512],[-1.29957318,45.94590145],[-1.29976835,45.94581828],[-1.30052164,45.94521787],[-1.30090918,45.94437074],[-1.29640297,45.94346256],[-1.29473928,45.94291613],[-1.295053,45.94252995],[-1.29508543,45.94234926],[-1.29505037,45.94206561],[-1.29488868,45.94176604],[-1.29476764,45.94110959],[-1.29429952,45.94054389],[-1.29436795,45.94006242],[-1.29420553,45.93963752],[-1.2938715,45.93953117],[-1.29503392,45.93758146],[-1.29532985,45.93691819],[-1.29546292,45.93638737],[-1.29539674,45.93572163],[-1.29789251,45.93618411],[-1.29986806,45.93698558],[-1.30361528,45.93799554],[-1.30453828,45.93832745],[-1.30585765,45.93901672],[-1.30612605,45.93927524],[-1.30622277,45.9395367],[-1.30621383,45.93973634],[-1.30589909,45.9404716],[-1.30837694,45.94127904],[-1.30857202,45.94129416],[-1.31137593,45.94210444]]]]}},{"type":"Feature","id":"saint_pierre_d_oleron_173850102_cote_ouest","properties":{"zoneId":"saint_pierre_d_oleron_173850102_cote_ouest","label":"Côte Ouest","districtCode":"173850102","arrondissementCode":"17385","colorIndex":1,"parentZoneId":"saint_pierre_d_oleron_parent_17385_saint_pierre_d_oleron","parentCode":"17385","parentLabel":"Saint-Pierre-d'Oléron","territoryType":"iris","source":"IGN / INSEE - Contours IRIS WFS Géoplateforme","sourceYear":"2026","officialId":"173850102","sourceCleabs":"IRIS____0000000173850102","communeCode":"17385","communeName":"Saint-Pierre-d'Oléron","irisCode":"0102","irisType":"H","officialAreaM2":7744477.6259765625,"labelLng":-1.3364121485292852,"labelLat":45.92636133703711,"bbox":[-1.36783236,45.89995973,-1.29683434,45.9471572]},"geometry":{"type":"MultiPolygon","coordinates":[[[[-1.30116827,45.9029786],[-1.29895491,45.90343439],[-1.2976437,45.9034996],[-1.29740644,45.90345541],[-1.29711438,45.90327173],[-1.29690677,45.90302801],[-1.29683434,45.90262945],[-1.29686966,45.90255236],[-1.29740566,45.90233627],[-1.29782438,45.90227255],[-1.29830977,45.90230188],[-1.29856294,45.90213624],[-1.29927277,45.90131742],[-1.30065867,45.89995973],[-1.30088573,45.89997273],[-1.30084517,45.90001576],[-1.30134712,45.90025728],[-1.30237272,45.90063759],[-1.30319066,45.90110425],[-1.30359903,45.90120593],[-1.30435183,45.90125211],[-1.30488769,45.90141476],[-1.30618069,45.90227364],[-1.30754007,45.90295682],[-1.30871895,45.90397423],[-1.31242065,45.9065737],[-1.31378063,45.90714676],[-1.31411678,45.90738103],[-1.31579359,45.90912789],[-1.31597842,45.90942566],[-1.31625309,45.90938631],[-1.31616813,45.90947252],[-1.31673671,45.9101335],[-1.31822306,45.91094879],[-1.31833744,45.91092458],[-1.31917401,45.91118029],[-1.3193543,45.91120587],[-1.31946223,45.9111323],[-1.31993637,45.91137932],[-1.32086274,45.91165955],[-1.32188691,45.91234637],[-1.32245836,45.91263114],[-1.32296015,45.9126868],[-1.32323511,45.91266726],[-1.32336783,45.91221848],[-1.32535785,45.91038102],[-1.3258896,45.9103742],[-1.32759794,45.91080661],[-1.32762928,45.91095872],[-1.32747983,45.91099691],[-1.32730723,45.91085562],[-1.32692815,45.91075019],[-1.32687259,45.91084881],[-1.32699172,45.91093444],[-1.32637934,45.91078653],[-1.32551658,45.91251683],[-1.32759605,45.91300177],[-1.32770532,45.91307695],[-1.32767692,45.91320881],[-1.32747343,45.91324997],[-1.3273186,45.91308815],[-1.32612174,45.91281923],[-1.32595143,45.91295381],[-1.32596529,45.91298214],[-1.32592249,45.91298017],[-1.32584429,45.91303728],[-1.32585557,45.91306571],[-1.3258102,45.91306383],[-1.32509824,45.91362227],[-1.32523762,45.91371885],[-1.32514786,45.91380976],[-1.32569628,45.91396553],[-1.32570164,45.9140501],[-1.32700784,45.91455924],[-1.32786324,45.91388617],[-1.32789993,45.91397495],[-1.32716195,45.9148762],[-1.32733683,45.9149642],[-1.32723773,45.91510056],[-1.32840326,45.91554563],[-1.32953744,45.91550941],[-1.32989897,45.91544054],[-1.32984775,45.91534781],[-1.33007348,45.91524447],[-1.32848924,45.91353303],[-1.32828706,45.91341],[-1.32845175,45.91198779],[-1.32859397,45.91180829],[-1.3286249,45.91113342],[-1.32828986,45.91048701],[-1.32760759,45.9096636],[-1.32767345,45.90956458],[-1.32777131,45.9095933],[-1.32834279,45.91028928],[-1.32868423,45.91104999],[-1.32866561,45.91179923],[-1.32851842,45.91230991],[-1.32861819,45.91280661],[-1.32979935,45.91333584],[-1.33160225,45.91442653],[-1.33501314,45.91680469],[-1.33616556,45.91747565],[-1.33708672,45.91778572],[-1.33727558,45.91778839],[-1.33759328,45.91758951],[-1.33839085,45.91826595],[-1.33945068,45.9188268],[-1.34032656,45.91887343],[-1.34062324,45.91873578],[-1.34072314,45.91856059],[-1.34107608,45.91897271],[-1.34230416,45.91970023],[-1.34290084,45.91989285],[-1.34331999,45.9204395],[-1.34359792,45.92111243],[-1.34376268,45.92110429],[-1.34383344,45.92134597],[-1.34418663,45.92177702],[-1.34701669,45.92403649],[-1.34822427,45.924551],[-1.3483558,45.92458021],[-1.34851449,45.92446227],[-1.3488708,45.92467042],[-1.35027288,45.92517653],[-1.35066931,45.92523793],[-1.35089943,45.92510822],[-1.35298088,45.92667127],[-1.35396812,45.92756848],[-1.35416762,45.92755809],[-1.35517416,45.92843742],[-1.35637888,45.92959949],[-1.35671278,45.93011151],[-1.35688615,45.93011385],[-1.35735199,45.93095357],[-1.35914844,45.93284587],[-1.36011489,45.93346155],[-1.36106731,45.93391633],[-1.36131485,45.93394105],[-1.36201364,45.93466896],[-1.3641965,45.93621439],[-1.36471774,45.93667497],[-1.36483515,45.93667224],[-1.36583062,45.93763578],[-1.36646925,45.93804401],[-1.36783236,45.93916019],[-1.36719367,45.93941935],[-1.36744249,45.93959011],[-1.36717342,45.93992969],[-1.36653446,45.94057666],[-1.36610056,45.9409244],[-1.36567047,45.94118992],[-1.36508219,45.9417754],[-1.36449587,45.94204335],[-1.36387536,45.94215748],[-1.36284591,45.94260846],[-1.3627128,45.94262532],[-1.3623278,45.94287286],[-1.361887,45.94373762],[-1.36159246,45.94463732],[-1.36136072,45.94491051],[-1.36098066,45.94509021],[-1.36068573,45.94512052],[-1.35958615,45.94507905],[-1.35912189,45.94489764],[-1.35892914,45.94473281],[-1.35864564,45.94430363],[-1.35838843,45.94402675],[-1.35775312,45.94354619],[-1.35612871,45.94254097],[-1.35615135,45.94264742],[-1.3560223,45.94315654],[-1.35588393,45.94340086],[-1.35552058,45.94380807],[-1.35516196,45.94491224],[-1.35494813,45.94511798],[-1.35400412,45.94583344],[-1.35332826,45.946654],[-1.35203278,45.94644053],[-1.35125399,45.94649936],[-1.3508399,45.94662532],[-1.35035378,45.94688662],[-1.34987069,45.94708828],[-1.34929824,45.9471572],[-1.34762078,45.94690335],[-1.34742692,45.94683865],[-1.3469425,45.94653261],[-1.34670653,45.94647494],[-1.34659103,45.94625662],[-1.346416,45.94608659],[-1.34571347,45.9454904],[-1.34495342,45.94495144],[-1.34433275,45.94457306],[-1.34353354,45.94416005],[-1.34270587,45.94361555],[-1.34169454,45.94310245],[-1.34105481,45.94271126],[-1.34077841,45.94246845],[-1.34043746,45.94199724],[-1.33950426,45.94042506],[-1.33808026,45.93618417],[-1.33773604,45.9356707],[-1.33498857,45.93351063],[-1.33348922,45.93265634],[-1.33266164,45.93207661],[-1.33096235,45.93124258],[-1.32924729,45.93048669],[-1.33020564,45.9283595],[-1.32844642,45.92733654],[-1.32810834,45.92698153],[-1.32803515,45.92680667],[-1.32897717,45.92578668],[-1.32924749,45.92500074],[-1.32922453,45.92490602],[-1.3290318,45.92465728],[-1.32839818,45.92425767],[-1.32735191,45.92381976],[-1.32661165,45.923362],[-1.326434,45.9232227],[-1.32609065,45.92281648],[-1.32604552,45.92285068],[-1.32559373,45.92259381],[-1.3254351,45.92220306],[-1.3253016,45.92201698],[-1.32480323,45.92154545],[-1.32432258,45.92118416],[-1.32382417,45.92090923],[-1.32218813,45.92026566],[-1.32103391,45.91970195],[-1.31784831,45.91865851],[-1.31748525,45.91865886],[-1.31603862,45.91881421],[-1.31573183,45.91879076],[-1.3155248,45.9187211],[-1.31506415,45.91846543],[-1.31414964,45.91818921],[-1.31347698,45.91761877],[-1.31330031,45.91754074],[-1.31310451,45.91748238],[-1.31203932,45.91742653],[-1.31157504,45.91733872],[-1.31136352,45.91726112],[-1.31069006,45.91684491],[-1.31011709,45.91642486],[-1.30973043,45.91604099],[-1.30935427,45.91546103],[-1.30920986,45.9153493],[-1.30850709,45.9149874],[-1.30908914,45.91388932],[-1.30846356,45.91393572],[-1.30724105,45.91411398],[-1.30670462,45.91406138],[-1.30411625,45.91309673],[-1.30262108,45.91239793],[-1.30195095,45.91194006],[-1.30165403,45.91161227],[-1.30145904,45.91146458],[-1.30154958,45.91130061],[-1.302536,45.90992023],[-1.30300704,45.90903744],[-1.3041715,45.90734093],[-1.30494234,45.90657567],[-1.30567504,45.90600034],[-1.30283268,45.90401186],[-1.30116827,45.9029786]]]]}},{"type":"Feature","id":"saint_pierre_d_oleron_173850103_les_ecarts","properties":{"zoneId":"saint_pierre_d_oleron_173850103_les_ecarts","label":"Les Écarts","districtCode":"173850103","arrondissementCode":"17385","colorIndex":2,"parentZoneId":"saint_pierre_d_oleron_parent_17385_saint_pierre_d_oleron","parentCode":"17385","parentLabel":"Saint-Pierre-d'Oléron","territoryType":"iris","source":"IGN / INSEE - Contours IRIS WFS Géoplateforme","sourceYear":"2026","officialId":"173850103","sourceCleabs":"IRIS____0000000173850103","communeCode":"17385","communeName":"Saint-Pierre-d'Oléron","irisCode":"0103","irisType":"H","officialAreaM2":31251540.398773193,"labelLng":-1.300847755,"labelLat":45.93686352,"bbox":[-1.3758114,45.9029786,-1.22574054,45.97074844]},"geometry":{"type":"MultiPolygon","coordinates":[[[[-1.22823612,45.935023],[-1.22820355,45.93496921],[-1.22807373,45.93497858],[-1.22809845,45.93499749],[-1.22797941,45.93504613],[-1.22818982,45.93514377],[-1.2279903,45.93537307],[-1.227884,45.93536893],[-1.22784087,45.93522806],[-1.22776615,45.93524799],[-1.22778677,45.93529772],[-1.22762582,45.93550754],[-1.22745246,45.93532014],[-1.22711649,45.93542198],[-1.22690314,45.9356058],[-1.22712835,45.93576151],[-1.22690567,45.93572294],[-1.22669236,45.93578953],[-1.22649456,45.93609181],[-1.22644255,45.93610457],[-1.22645539,45.93617082],[-1.22616542,45.93653516],[-1.22637192,45.93644719],[-1.22631683,45.93673962],[-1.22622137,45.93677565],[-1.22619881,45.93695324],[-1.22590545,45.93737452],[-1.22604229,45.93824774],[-1.22578946,45.93753036],[-1.22574054,45.93685945],[-1.22599413,45.93612224],[-1.22628187,45.93566149],[-1.22668211,45.93528582],[-1.22752004,45.93483696],[-1.22808358,45.93478703],[-1.22830172,45.93483388],[-1.22851398,45.93503967],[-1.22846671,45.93509734],[-1.22841831,45.935073],[-1.22828778,45.93500574],[-1.22823612,45.935023]]],[[[-1.23127486,45.94154918],[-1.23144349,45.94224626],[-1.23202114,45.94321932],[-1.23297235,45.94395655],[-1.23313229,45.94467469],[-1.23375408,45.94472536],[-1.23448371,45.94461508],[-1.2348577,45.94477151],[-1.23535639,45.94520463],[-1.23632768,45.9450934],[-1.23966598,45.94370848],[-1.2396288,45.94357822],[-1.24014091,45.94326232],[-1.24027546,45.94297862],[-1.2424509,45.94270945],[-1.24282735,45.94254563],[-1.24310553,45.94228089],[-1.24310995,45.94175137],[-1.24255474,45.94100477],[-1.24283381,45.94070122],[-1.24321774,45.94051727],[-1.24327241,45.94067304],[-1.24382806,45.94098946],[-1.24456437,45.94158676],[-1.24634252,45.94218372],[-1.24773421,45.94289798],[-1.24819076,45.94300167],[-1.24962724,45.94303967],[-1.25022656,45.94320111],[-1.25064199,45.94340824],[-1.25115874,45.94325355],[-1.25114159,45.94299808],[-1.24946682,45.94186615],[-1.24974122,45.9414356],[-1.25051754,45.94096003],[-1.25097688,45.94084897],[-1.25231077,45.94109912],[-1.25308959,45.94107433],[-1.25320655,45.94129989],[-1.25317139,45.94151404],[-1.25307572,45.94161413],[-1.25247085,45.94183257],[-1.2523977,45.94215727],[-1.253224,45.9430812],[-1.25386183,45.94322223],[-1.25431508,45.94318263],[-1.2547527,45.94284062],[-1.25495066,45.94222445],[-1.25478248,45.94182136],[-1.2549452,45.94133458],[-1.25518635,45.94114334],[-1.25555497,45.9410961],[-1.25614157,45.94127693],[-1.25670738,45.94182377],[-1.25929803,45.94216088],[-1.2611247,45.9422634],[-1.26149892,45.94237194],[-1.26177598,45.94264467],[-1.26257328,45.94259117],[-1.26320521,45.94228869],[-1.26342158,45.94189455],[-1.26387599,45.94163664],[-1.26454417,45.94091795],[-1.26366296,45.93965438],[-1.2641393,45.9392793],[-1.26424477,45.93893895],[-1.26449915,45.9388022],[-1.26412463,45.93843937],[-1.26410714,45.93791338],[-1.26442683,45.93726825],[-1.26490349,45.93703113],[-1.26662033,45.93671926],[-1.26729698,45.93649442],[-1.27145346,45.93595871],[-1.27150891,45.93569058],[-1.27191744,45.93545871],[-1.2720269,45.9351705],[-1.27414261,45.93343841],[-1.27416406,45.93286585],[-1.27378922,45.93254906],[-1.2734296,45.93246165],[-1.27312814,45.93214118],[-1.2726552,45.93184252],[-1.27272158,45.93158209],[-1.27249417,45.93143287],[-1.27230535,45.93109822],[-1.27246821,45.93091531],[-1.27236543,45.9306234],[-1.27274148,45.93035668],[-1.27285815,45.93014485],[-1.27339955,45.93021006],[-1.27356407,45.93001536],[-1.27383601,45.93008895],[-1.27417796,45.9300156],[-1.27452631,45.93010794],[-1.27455674,45.92988404],[-1.27472597,45.92973335],[-1.27476672,45.9295758],[-1.27431226,45.92934859],[-1.27348308,45.92930509],[-1.27410195,45.92818779],[-1.27387143,45.9266003],[-1.27397591,45.92621488],[-1.27413706,45.92612672],[-1.27470179,45.92606027],[-1.27645182,45.92629709],[-1.27911925,45.9271638],[-1.27961836,45.92666874],[-1.28185638,45.92490481],[-1.28129319,45.9242597],[-1.28257664,45.92336607],[-1.28338794,45.92259945],[-1.28386028,45.92254187],[-1.28457233,45.92182859],[-1.28616773,45.91961546],[-1.28644275,45.91962938],[-1.2866464,45.91952336],[-1.28649839,45.91886703],[-1.28656882,45.91849371],[-1.28674558,45.91829131],[-1.28666591,45.91784884],[-1.28677522,45.91770942],[-1.28775394,45.91705364],[-1.28793905,45.91724051],[-1.28913306,45.9177399],[-1.28970278,45.91702568],[-1.28970054,45.91691394],[-1.28947665,45.91676011],[-1.28945665,45.91665265],[-1.29022059,45.91546301],[-1.29015318,45.91537719],[-1.2895791,45.91520599],[-1.28970397,45.91508401],[-1.29094146,45.91433451],[-1.29336563,45.91259932],[-1.29377649,45.91253321],[-1.29417526,45.91259381],[-1.29479202,45.91296447],[-1.29427648,45.91185407],[-1.29444236,45.91131389],[-1.29459092,45.91113149],[-1.29529407,45.91070525],[-1.29597246,45.91045852],[-1.29620818,45.91026739],[-1.29682557,45.90902374],[-1.2966853,45.90848437],[-1.29684159,45.90810327],[-1.29722897,45.90760426],[-1.2980804,45.9067945],[-1.29780164,45.90646692],[-1.29756712,45.90597803],[-1.29743503,45.90547713],[-1.29751308,45.90497094],[-1.29791568,45.90460121],[-1.30097734,45.9031473],[-1.30116827,45.9029786],[-1.30283268,45.90401186],[-1.30567504,45.90600034],[-1.30494234,45.90657567],[-1.3041715,45.90734093],[-1.30300704,45.90903744],[-1.302536,45.90992023],[-1.30154958,45.91130061],[-1.30145904,45.91146458],[-1.30165403,45.91161227],[-1.30195095,45.91194006],[-1.30262108,45.91239793],[-1.30411625,45.91309673],[-1.30670462,45.91406138],[-1.30724105,45.91411398],[-1.30846356,45.91393572],[-1.30908914,45.91388932],[-1.30850709,45.9149874],[-1.30920986,45.9153493],[-1.30935427,45.91546103],[-1.30973043,45.91604099],[-1.31011709,45.91642486],[-1.31069006,45.91684491],[-1.31136352,45.91726112],[-1.31157504,45.91733872],[-1.31203932,45.91742653],[-1.31310451,45.91748238],[-1.31330031,45.91754074],[-1.31347698,45.91761877],[-1.31414964,45.91818921],[-1.31506415,45.91846543],[-1.3155248,45.9187211],[-1.31573183,45.91879076],[-1.31603862,45.91881421],[-1.31748525,45.91865886],[-1.31784831,45.91865851],[-1.32103391,45.91970195],[-1.32218813,45.92026566],[-1.32382417,45.92090923],[-1.32432258,45.92118416],[-1.32480323,45.92154545],[-1.3253016,45.92201698],[-1.3254351,45.92220306],[-1.32559373,45.92259381],[-1.32604552,45.92285068],[-1.32609065,45.92281648],[-1.326434,45.9232227],[-1.32661165,45.923362],[-1.32735191,45.92381976],[-1.32839818,45.92425767],[-1.3290318,45.92465728],[-1.32922453,45.92490602],[-1.32924749,45.92500074],[-1.32897717,45.92578668],[-1.32803515,45.92680667],[-1.32810834,45.92698153],[-1.32844642,45.92733654],[-1.33020564,45.9283595],[-1.32924729,45.93048669],[-1.33096235,45.93124258],[-1.33266164,45.93207661],[-1.33348922,45.93265634],[-1.33498857,45.93351063],[-1.33773604,45.9356707],[-1.33808026,45.93618417],[-1.33950426,45.94042506],[-1.34043746,45.94199724],[-1.34077841,45.94246845],[-1.34105481,45.94271126],[-1.34169454,45.94310245],[-1.34270587,45.94361555],[-1.34353354,45.94416005],[-1.34433275,45.94457306],[-1.34495342,45.94495144],[-1.34571347,45.9454904],[-1.346416,45.94608659],[-1.34659103,45.94625662],[-1.34670653,45.94647494],[-1.3469425,45.94653261],[-1.34742692,45.94683865],[-1.34762078,45.94690335],[-1.34929824,45.9471572],[-1.34987069,45.94708828],[-1.35035378,45.94688662],[-1.3508399,45.94662532],[-1.35125399,45.94649936],[-1.35203278,45.94644053],[-1.35332826,45.946654],[-1.35400412,45.94583344],[-1.35494813,45.94511798],[-1.35516196,45.94491224],[-1.35552058,45.94380807],[-1.35588393,45.94340086],[-1.3560223,45.94315654],[-1.35615135,45.94264742],[-1.35612871,45.94254097],[-1.35775312,45.94354619],[-1.35838843,45.94402675],[-1.35864564,45.94430363],[-1.35892914,45.94473281],[-1.35912189,45.94489764],[-1.35958615,45.94507905],[-1.36068573,45.94512052],[-1.36098066,45.94509021],[-1.36136072,45.94491051],[-1.36159246,45.94463732],[-1.361887,45.94373762],[-1.3623278,45.94287286],[-1.3627128,45.94262532],[-1.36284591,45.94260846],[-1.36387536,45.94215748],[-1.36449587,45.94204335],[-1.36508219,45.9417754],[-1.36567047,45.94118992],[-1.36610056,45.9409244],[-1.36653446,45.94057666],[-1.36717342,45.93992969],[-1.36744249,45.93959011],[-1.36719367,45.93941935],[-1.36783236,45.93916019],[-1.36831847,45.93950306],[-1.36846919,45.93946387],[-1.36852585,45.93964025],[-1.36876528,45.93985556],[-1.36927021,45.94027256],[-1.36966637,45.9404755],[-1.36995054,45.94076574],[-1.37024333,45.94095284],[-1.37056241,45.9410803],[-1.37065041,45.94104894],[-1.37076013,45.94122597],[-1.37141868,45.94159102],[-1.37237237,45.94227024],[-1.37249366,45.94228358],[-1.37327247,45.94289289],[-1.3750407,45.94440187],[-1.3758114,45.94570502],[-1.37534941,45.94579685],[-1.37320862,45.94586344],[-1.3722592,45.9460688],[-1.37144935,45.94655015],[-1.37037543,45.94756478],[-1.36929507,45.94810797],[-1.36808633,45.94905384],[-1.36765502,45.94915798],[-1.36662641,45.94906693],[-1.36612406,45.94913954],[-1.36320643,45.950384],[-1.36069675,45.95242162],[-1.35859512,45.95354069],[-1.35613424,45.95516957],[-1.35409552,45.95456988],[-1.352306,45.95450438],[-1.35132681,45.95438514],[-1.35074891,45.95422249],[-1.34979619,45.95381632],[-1.34886441,45.9539694],[-1.34652665,45.95454177],[-1.34508634,45.95475584],[-1.34402995,45.95518151],[-1.34301725,45.95578407],[-1.34247989,45.95621685],[-1.341532,45.95724799],[-1.34075029,45.95838637],[-1.34008194,45.95886385],[-1.34041727,45.95922976],[-1.33999015,45.95929034],[-1.3393299,45.95926427],[-1.338418,45.95939214],[-1.33785662,45.95960306],[-1.33653102,45.9603393],[-1.33543036,45.95930288],[-1.33382284,45.9582498],[-1.33218818,45.95962642],[-1.33111151,45.96070027],[-1.33104643,45.96059634],[-1.3293922,45.95960632],[-1.32888585,45.95915313],[-1.32809046,45.96036769],[-1.32762622,45.96028535],[-1.32701531,45.9605414],[-1.32637233,45.96099798],[-1.32566412,45.96100342],[-1.32535932,45.9611233],[-1.32478405,45.96166837],[-1.32448261,45.96219304],[-1.32380866,45.96263456],[-1.32207297,45.96179183],[-1.32162871,45.96222726],[-1.32017038,45.96285745],[-1.31901806,45.96305386],[-1.31890331,45.96294281],[-1.31785944,45.96257683],[-1.31720212,45.96272006],[-1.31636829,45.96245969],[-1.3157464,45.9620821],[-1.31562429,45.96207504],[-1.31543398,45.96184151],[-1.31520132,45.96174396],[-1.31398183,45.96194109],[-1.31324365,45.96191062],[-1.31214946,45.96151224],[-1.31188105,45.9614864],[-1.31131289,45.96162891],[-1.3112235,45.9615773],[-1.31089628,45.96160961],[-1.31039287,45.96120854],[-1.30972805,45.96110762],[-1.30935949,45.96137147],[-1.30865456,45.9613857],[-1.30866468,45.96110214],[-1.30900951,45.96074991],[-1.30889325,45.96060283],[-1.30802377,45.960167],[-1.30762798,45.9598024],[-1.3069799,45.95958448],[-1.30688971,45.95944002],[-1.30655131,45.95923015],[-1.30606037,45.95926868],[-1.30528459,45.95895552],[-1.30496235,45.95901829],[-1.30479925,45.95888381],[-1.30437128,45.95901643],[-1.30418969,45.95929028],[-1.3042624,45.9593768],[-1.30412736,45.95950188],[-1.30325664,45.9598759],[-1.30280139,45.95984182],[-1.30235975,45.95941943],[-1.30192171,45.95942346],[-1.30201271,45.95904935],[-1.30232414,45.95893109],[-1.30206039,45.95881576],[-1.30177498,45.95896911],[-1.30148,45.95900017],[-1.30103163,45.95916963],[-1.30054863,45.95921054],[-1.30008848,45.9589647],[-1.29988932,45.95871615],[-1.29960101,45.95855126],[-1.29814494,45.95835138],[-1.29691286,45.95803927],[-1.29675516,45.95817242],[-1.29622699,45.95816452],[-1.29555157,45.95878809],[-1.29484303,45.95897101],[-1.29466927,45.95879905],[-1.29456189,45.95881485],[-1.29395744,45.9584428],[-1.29009461,45.95860201],[-1.28878795,45.95824484],[-1.28818546,45.9581793],[-1.28748387,45.95826903],[-1.28653,45.95853966],[-1.28593595,45.95856577],[-1.28505898,45.95839609],[-1.2840226,45.95790598],[-1.28350739,45.95789844],[-1.28269787,45.95806347],[-1.28243054,45.95825035],[-1.28267853,45.95917705],[-1.28244951,45.95975657],[-1.28244653,45.96001731],[-1.28224002,45.95998905],[-1.2819044,45.95968071],[-1.28146111,45.95961723],[-1.28089747,45.95991813],[-1.28101987,45.9603112],[-1.28078675,45.96053916],[-1.28053643,45.96069563],[-1.28006108,45.96076863],[-1.27932622,45.9610796],[-1.2786807,45.96107607],[-1.27796043,45.96180763],[-1.27718751,45.96186211],[-1.27638372,45.96165262],[-1.27583963,45.96182289],[-1.27500725,45.96129523],[-1.27450705,45.96048266],[-1.27410416,45.9607062],[-1.27390661,45.96104283],[-1.27352221,45.96115475],[-1.27228328,45.96090305],[-1.27182743,45.96096085],[-1.27148351,45.96127775],[-1.2715357,45.96175013],[-1.26992894,45.96229056],[-1.26936514,45.96290703],[-1.26892525,45.9632041],[-1.26890463,45.96330498],[-1.26947646,45.96374151],[-1.26956353,45.96403041],[-1.26954084,45.96430452],[-1.26924045,45.96464953],[-1.26923005,45.96531546],[-1.26939929,45.96581318],[-1.26929572,45.96612821],[-1.26855001,45.96656758],[-1.26801235,45.96663837],[-1.26725965,45.96698781],[-1.26660732,45.96753095],[-1.26568682,45.96781817],[-1.26536965,45.9678139],[-1.26476091,45.96765198],[-1.26386899,45.96724011],[-1.26190545,45.9665169],[-1.26094938,45.96597757],[-1.25909219,45.96562456],[-1.25713409,45.96580558],[-1.25675383,45.96573783],[-1.2558314,45.96529819],[-1.25525502,45.9647346],[-1.25530031,45.96369853],[-1.25552949,45.96336796],[-1.2562254,45.96286924],[-1.25636263,45.96265395],[-1.25643737,45.96245004],[-1.25630818,45.96203376],[-1.25550543,45.96146877],[-1.25481077,45.96081314],[-1.25263883,45.96004893],[-1.25217083,45.95999979],[-1.25177278,45.96005263],[-1.25128284,45.96025502],[-1.24923292,45.96133755],[-1.24749647,45.96242811],[-1.24589711,45.96331871],[-1.24440019,45.96429742],[-1.24418848,45.96411779],[-1.24405142,45.96413466],[-1.24373583,45.96441884],[-1.23911795,45.96715308],[-1.23824808,45.96761222],[-1.2381742,45.96745897],[-1.23805633,45.96747331],[-1.23808993,45.96769119],[-1.23798279,45.9677944],[-1.23771928,45.96786559],[-1.23688249,45.96835143],[-1.23032655,45.97074844],[-1.23387399,45.96942087],[-1.23389921,45.96912684],[-1.23430766,45.96907368],[-1.23443853,45.96921126],[-1.23645536,45.96848106],[-1.23639583,45.96843008],[-1.23641699,45.96841937],[-1.23660325,45.96803364],[-1.23660172,45.96774512],[-1.23707903,45.96618519],[-1.2368281,45.96613416],[-1.23656688,45.96640276],[-1.23637545,45.96646945],[-1.23631603,45.96640314],[-1.23636247,45.96628417],[-1.23732542,45.96553929],[-1.23724452,45.96541247],[-1.23741642,45.96536094],[-1.23735628,45.9652685],[-1.23697403,45.96534234],[-1.23699789,45.96528283],[-1.23693351,45.96525277],[-1.23718637,45.96524511],[-1.23768985,45.964999],[-1.23802287,45.96468893],[-1.23954194,45.96369414],[-1.23993523,45.96284074],[-1.24050867,45.96227816],[-1.24086688,45.9617417],[-1.24147792,45.95997291],[-1.24191091,45.9598701],[-1.24332613,45.96004608],[-1.24332539,45.95996945],[-1.24289245,45.9599388],[-1.24282481,45.95986649],[-1.24277026,45.95991362],[-1.24204987,45.95981079],[-1.24214854,45.95939677],[-1.24208324,45.9593884],[-1.24196698,45.95979225],[-1.24139067,45.95986436],[-1.24188499,45.95916497],[-1.24216995,45.95838325],[-1.24227996,45.95722753],[-1.24218198,45.95661077],[-1.24180021,45.95539865],[-1.24111581,45.95401752],[-1.23995826,45.95251886],[-1.2384594,45.95088508],[-1.23513079,45.94779941],[-1.22614964,45.94104287],[-1.22588411,45.94068216],[-1.22629838,45.93961339],[-1.22623461,45.93879966],[-1.22650775,45.93932692],[-1.2263196,45.94020958],[-1.22679543,45.94081763],[-1.22720788,45.94115571],[-1.22722399,45.94133186],[-1.22751096,45.94148345],[-1.22743316,45.94154768],[-1.22746942,45.94176727],[-1.22854159,45.94271734],[-1.22880172,45.94268777],[-1.22896894,45.94229014],[-1.22836676,45.94055959],[-1.22859098,45.94066844],[-1.22853135,45.94076716],[-1.22861681,45.94080274],[-1.22882713,45.94042785],[-1.23078575,45.94023103],[-1.23118433,45.94030449],[-1.23133168,45.94059026],[-1.23127486,45.94154918]],[[-1.30837694,45.94127904],[-1.30589909,45.9404716],[-1.30621383,45.93973634],[-1.30622277,45.9395367],[-1.30612605,45.93927524],[-1.30585765,45.93901672],[-1.30453828,45.93832745],[-1.30361528,45.93799554],[-1.29986806,45.93698558],[-1.29789251,45.93618411],[-1.29539674,45.93572163],[-1.29546292,45.93638737],[-1.29532985,45.93691819],[-1.29503392,45.93758146],[-1.2938715,45.93953117],[-1.29420553,45.93963752],[-1.29436795,45.94006242],[-1.29429952,45.94054389],[-1.29476764,45.94110959],[-1.29488868,45.94176604],[-1.29505037,45.94206561],[-1.29508543,45.94234926],[-1.295053,45.94252995],[-1.29473928,45.94291613],[-1.29640297,45.94346256],[-1.30090918,45.94437074],[-1.30052164,45.94521787],[-1.29976835,45.94581828],[-1.29957318,45.94590145],[-1.29930433,45.94593512],[-1.29770058,45.94597534],[-1.29712015,45.94612456],[-1.29667005,45.94635359],[-1.29628742,45.94661884],[-1.29554302,45.94748311],[-1.29731661,45.9478955],[-1.29820128,45.94804946],[-1.30049743,45.94816687],[-1.30087577,45.94822734],[-1.30212828,45.94858822],[-1.30172123,45.94935133],[-1.30169153,45.94948412],[-1.30173622,45.94957621],[-1.30187492,45.94968006],[-1.30211165,45.94978108],[-1.3029095,45.95003119],[-1.30320817,45.94933714],[-1.30679412,45.95043885],[-1.30702357,45.95047971],[-1.30881094,45.94601337],[-1.30963188,45.9447592],[-1.30968974,45.94442512],[-1.31002996,45.94385031],[-1.31069371,45.94295022],[-1.3107796,45.9429244],[-1.31074566,45.94287069],[-1.31137593,45.94210444],[-1.30857202,45.94129416],[-1.30837694,45.94127904]]],[[[-1.23542382,45.96035758],[-1.23541002,45.96043024],[-1.2355867,45.96040739],[-1.23571249,45.96047934],[-1.23568068,45.96053644],[-1.2350889,45.96084446],[-1.23482601,45.96120871],[-1.2343432,45.9626471],[-1.23417573,45.96289054],[-1.23412927,45.96272365],[-1.23508919,45.96049546],[-1.23535883,45.96023557],[-1.23558864,45.96016384],[-1.2357601,45.96019078],[-1.23567266,45.9602139],[-1.23566321,45.96029271],[-1.23559934,45.96028608],[-1.23542382,45.96035758]]],[[[-1.23350154,45.96683314],[-1.23298826,45.96550688],[-1.2324778,45.96475496],[-1.23307664,45.9639498],[-1.23357861,45.96346569],[-1.23319006,45.96414665],[-1.23321693,45.96427731],[-1.23335022,45.96422813],[-1.23331068,45.96438652],[-1.23313824,45.96439748],[-1.23319284,45.96515745],[-1.23340525,45.96620369],[-1.23358221,45.96640268],[-1.23355939,45.96652617],[-1.23403519,45.96608813],[-1.23415981,45.96609429],[-1.23379864,45.96639187],[-1.2336721,45.9671505],[-1.23359326,45.96716788],[-1.23362475,45.96730828],[-1.23353199,45.96741366],[-1.23350154,45.96683314]]],[[[-1.23426213,45.96712121],[-1.23421272,45.96748738],[-1.23430991,45.96789315],[-1.23423312,45.96797088],[-1.2338393,45.96804603],[-1.23391267,45.96836072],[-1.23401296,45.96830286],[-1.23415252,45.96840224],[-1.23419052,45.96857667],[-1.23402019,45.96859837],[-1.23404821,45.96872718],[-1.23432124,45.96898119],[-1.23388074,45.96907162],[-1.23357997,45.9681883],[-1.23352381,45.96752579],[-1.23363835,45.96787139],[-1.23399906,45.96739979],[-1.23397707,45.96721484],[-1.23422938,45.96683025],[-1.2342937,45.96654017],[-1.23475139,45.96593417],[-1.23442279,45.96536121],[-1.23437984,45.96441684],[-1.23473496,45.9653847],[-1.23481171,45.96587781],[-1.23467909,45.96623808],[-1.23472531,45.96641851],[-1.23459488,45.96652169],[-1.23472586,45.96656007],[-1.23448837,45.96673399],[-1.23426213,45.96712121]]]]}}]}
