{"type":"FeatureCollection","metadata":{"generatedAt":"2026-07-14T19:00:28.525Z","source":"IGN / INSEE - Contours IRIS WFS Géoplateforme","datasetId":"STATISTICALUNITS.IRIS:contours_iris","datasetUrl":"https://geoservices.ign.fr/contoursiris","sourceFileUrl":"https://data.geopf.fr/wfs/ows?SERVICE=WFS&VERSION=2.0.0&REQUEST=GetFeature&TYPENAMES=STATISTICALUNITS.IRIS%3Acontours_iris&OUTPUTFORMAT=application%2Fjson&COUNT=1000&CQL_FILTER=code_insee%3D%2785234%27&SRSNAME=EPSG%3A4326","license":"Licence Ouverte / Open Licence 2.0","sourceYear":"2026","communeCode":"85234","communeName":"Saint-Jean-de-Monts","featureCount":2,"parentCount":1,"parentContract":"technical commune group; not selectable and not displayed as a district","sourceFeatureCount":2,"humanLabelContract":"one visible plate per unique official human place name","groupingContract":"only exact source-ID groups approved by the resolved curation, or source zones sharing the same official name and parent, are merged","groupedZoneCount":0,"groupedSourceFeatureCount":0,"curationStatus":"resolved","curationRevision":1,"curationSources":[{"id":"ign-insee-contours-iris-2026","provider":"IGN / INSEE - Contours IRIS WFS Géoplateforme","datasetUrl":"https://geoservices.ign.fr/contoursiris","role":"official geometry, source identifiers and source labels","vintage":"2026","license":"Licence Ouverte / Open Licence 2.0"},{"id":"ign-geoplateforme-toponymy-2026","provider":"IGN Géoplateforme - reverse geocoding, addresses and named places","datasetUrl":"https://geoservices.ign.fr/geocodage-geoplateforme","role":"official address, street and named-place evidence","vintage":"2026","license":"Licence Ouverte / Open Licence 2.0"},{"id":"guide-alpha-editorial-recovery-2026-07-14","provider":"Meewav Guide Alpha editorial review","datasetUrl":"docs/geospatial/france-semantic-recovery.md","role":"versioned mapping of exact official IRIS identifiers to coherent human place names","vintage":"2026-07-14","license":"Project documentation"}],"sourceCorrections":[{"operationId":"saint_jean_de_monts-852340102-rename-le-vieux-cerne","type":"rename","sourceIds":["852340102"],"expectedLabels":["Périphérie"],"outputLabel":"le Vieux Cerne","evidenceRefs":["ign-insee-contours-iris-2026","ign-geoplateforme-toponymy-2026","guide-alpha-editorial-recovery-2026-07-14"],"rationale":"The exact official IGN BD TOPO habitation toponym has a deterministic evidence point strictly inside this exact IRIS. The 1:1 label is emitted without nearest assignment, invented geometry, split or dropped source cell."}],"bbox":[-2.14189949,46.74676323,-1.96355994,46.85512895],"areaStatsM2":{"minimum":9821430.922851562,"average":30995551.668121338,"maximum":52169672.41339111}},"features":[{"type":"Feature","id":"saint_jean_de_monts_852340101_centre_ville_plage","properties":{"zoneId":"saint_jean_de_monts_852340101_centre_ville_plage","label":"Centre Ville-Plage","districtCode":"852340101","arrondissementCode":"85234","colorIndex":0,"parentZoneId":"saint_jean_de_monts_parent_85234_saint_jean_de_monts","parentCode":"85234","parentLabel":"Saint-Jean-de-Monts","territoryType":"iris","source":"IGN / INSEE - Contours IRIS WFS Géoplateforme","sourceYear":"2026","officialId":"852340101","sourceCleabs":"IRIS____0000000852340101","communeCode":"85234","communeName":"Saint-Jean-de-Monts","irisCode":"0101","irisType":"H","officialAreaM2":9821430.922851562,"labelLng":-2.0618168397471828,"labelLat":46.788624776338885,"bbox":[-2.10323368,46.76817185,-2.0192882,46.80588721]},"geometry":{"type":"MultiPolygon","coordinates":[[[[-2.02751822,46.76817185],[-2.02798243,46.76822188],[-2.03072459,46.76944333],[-2.03200515,46.77042204],[-2.03399521,46.77143279],[-2.03597352,46.77258476],[-2.03667643,46.77318187],[-2.03704458,46.77365292],[-2.03780265,46.77577509],[-2.03793759,46.77579984],[-2.03818205,46.77629616],[-2.03890453,46.77711706],[-2.03911335,46.77748412],[-2.04011935,46.77828896],[-2.04026451,46.77826815],[-2.04047486,46.77838342],[-2.04134598,46.77898033],[-2.04194977,46.77914599],[-2.04393369,46.7794504],[-2.0448445,46.77942932],[-2.04530287,46.77933068],[-2.04617061,46.77901645],[-2.04842055,46.7778628],[-2.05018995,46.77737354],[-2.05250918,46.77634487],[-2.05432585,46.77596895],[-2.05603787,46.77571039],[-2.0585335,46.77512404],[-2.06012604,46.77604722],[-2.06013826,46.77616397],[-2.06099198,46.77665686],[-2.06099829,46.77676665],[-2.06135413,46.77701893],[-2.06154057,46.77710274],[-2.06168878,46.77703034],[-2.06169954,46.77718776],[-2.06213933,46.77746701],[-2.06228268,46.77751121],[-2.06238598,46.77746425],[-2.06244165,46.77759623],[-2.06290659,46.77789151],[-2.06310801,46.77788263],[-2.06313876,46.77798683],[-2.06362054,46.77827956],[-2.06598364,46.7794213],[-2.06704386,46.78005661],[-2.06919707,46.78117146],[-2.07057071,46.78201124],[-2.07081196,46.78206284],[-2.07115581,46.78232645],[-2.07240707,46.78284049],[-2.07345275,46.78343127],[-2.07475798,46.78396004],[-2.07501707,46.78410378],[-2.07503985,46.78415059],[-2.07512238,46.78413431],[-2.07626697,46.7846025],[-2.07629389,46.7843992],[-2.07681705,46.78455742],[-2.07740098,46.78490152],[-2.07863897,46.78545488],[-2.07908059,46.78551384],[-2.0795664,46.78581987],[-2.08136098,46.78638286],[-2.08272719,46.78702795],[-2.0828967,46.78702856],[-2.08294624,46.78710848],[-2.08500763,46.78469205],[-2.08493796,46.78466356],[-2.08507025,46.78451965],[-2.08525583,46.78459353],[-2.08512772,46.78473996],[-2.08506379,46.78471663],[-2.08300118,46.78713401],[-2.0846142,46.78788906],[-2.08516527,46.78806405],[-2.08522961,46.78817579],[-2.08514449,46.7885143],[-2.08567814,46.78826599],[-2.08737049,46.78891373],[-2.08886196,46.7896741],[-2.09141015,46.79116626],[-2.09357369,46.79232445],[-2.09538854,46.79316875],[-2.09935639,46.79481879],[-2.10323368,46.79659273],[-2.10280294,46.79705489],[-2.10268966,46.79735857],[-2.10242778,46.79753533],[-2.10217898,46.79786489],[-2.10205302,46.79793635],[-2.10183359,46.79793618],[-2.10174766,46.79797248],[-2.1016415,46.79822622],[-2.09591709,46.80351869],[-2.09441073,46.80588721],[-2.09377307,46.80554827],[-2.09146836,46.80448746],[-2.08985881,46.80394346],[-2.08902176,46.80384522],[-2.08838399,46.80361634],[-2.08795133,46.80362649],[-2.0874201,46.8037204],[-2.08720474,46.80372182],[-2.08575354,46.80346399],[-2.08456624,46.80341371],[-2.08356717,46.80319899],[-2.08227968,46.80303312],[-2.08193382,46.80290407],[-2.08149482,46.80263657],[-2.08121295,46.80251732],[-2.08033229,46.80245793],[-2.07991089,46.80230786],[-2.07924187,46.80196933],[-2.07806337,46.80153604],[-2.07769587,46.80144221],[-2.07568441,46.80117745],[-2.07598815,46.8003529],[-2.07636863,46.79966029],[-2.07369045,46.79885565],[-2.07296562,46.79856557],[-2.07259109,46.79836829],[-2.07038367,46.79689316],[-2.07022013,46.79674609],[-2.0698105,46.79653862],[-2.06951005,46.79626226],[-2.06892267,46.79591015],[-2.06780326,46.79512318],[-2.06763429,46.79460913],[-2.06731027,46.79239578],[-2.06724691,46.79221],[-2.06700163,46.79187707],[-2.06673672,46.79167132],[-2.06586496,46.79136783],[-2.06552101,46.79179173],[-2.06475106,46.7922678],[-2.06447232,46.79274295],[-2.06409904,46.79354166],[-2.06379507,46.79390153],[-2.06293584,46.79560136],[-2.06234402,46.7960443],[-2.06199278,46.79651722],[-2.06202701,46.79660233],[-2.0619214,46.79662503],[-2.06128132,46.79757804],[-2.06083898,46.79839783],[-2.06067742,46.79905908],[-2.06030662,46.79977286],[-2.05580447,46.79853931],[-2.05525234,46.79850768],[-2.0550885,46.79856813],[-2.05486764,46.79855259],[-2.05472997,46.79847113],[-2.05467635,46.79834718],[-2.0543081,46.79814595],[-2.05096508,46.7972654],[-2.0501976,46.79715029],[-2.04944852,46.79710564],[-2.04787628,46.79720815],[-2.04745518,46.79717253],[-2.04712183,46.79706358],[-2.04700518,46.79693969],[-2.04691454,46.79681285],[-2.04695978,46.79659342],[-2.04679793,46.79640745],[-2.04658818,46.79634179],[-2.04624857,46.79632062],[-2.0459972,46.79625949],[-2.0458312,46.79615581],[-2.04561318,46.796086],[-2.04516912,46.79605769],[-2.04365674,46.7960691],[-2.04273817,46.79599576],[-2.0380171,46.79518258],[-2.03668039,46.79502018],[-2.03498074,46.79489623],[-2.03375119,46.79469933],[-2.03419186,46.79425325],[-2.03471786,46.79345337],[-2.03490936,46.79298394],[-2.03511845,46.79218081],[-2.03530936,46.79174749],[-2.03569543,46.79120907],[-2.03674497,46.78999374],[-2.03745819,46.78999312],[-2.03813837,46.78990554],[-2.03816749,46.78962547],[-2.03842581,46.78885806],[-2.03857239,46.7882309],[-2.03907437,46.78710363],[-2.03903273,46.78600654],[-2.03875324,46.78499297],[-2.03876985,46.78495976],[-2.03884046,46.78498463],[-2.0390934,46.78439971],[-2.03933571,46.78409585],[-2.03876151,46.78390993],[-2.03837338,46.78383223],[-2.03677189,46.78392687],[-2.03645596,46.7838487],[-2.03719946,46.78295986],[-2.03612184,46.78189379],[-2.03556424,46.78110895],[-2.02967451,46.77852877],[-2.02864887,46.77803417],[-2.02419027,46.77613716],[-2.02127288,46.77481225],[-2.02065023,46.77459769],[-2.02037575,46.77442745],[-2.0192882,46.77397157],[-2.01981307,46.77355615],[-2.02005297,46.77319741],[-2.02015883,46.77285174],[-2.02019078,46.77211954],[-2.02031663,46.77194712],[-2.02061304,46.77180153],[-2.02079748,46.77176549],[-2.0220292,46.7717513],[-2.02300591,46.77166345],[-2.02366511,46.77152182],[-2.0241657,46.77132668],[-2.0252735,46.77058527],[-2.02440524,46.77004406],[-2.02596625,46.76892281],[-2.02642672,46.76866355],[-2.02751822,46.76817185]]]]}},{"type":"Feature","id":"saint_jean_de_monts_852340102_peripherie","properties":{"zoneId":"saint_jean_de_monts_852340102_peripherie","label":"le Vieux Cerne","districtCode":"852340102","arrondissementCode":"85234","colorIndex":1,"parentZoneId":"saint_jean_de_monts_parent_85234_saint_jean_de_monts","parentCode":"85234","parentLabel":"Saint-Jean-de-Monts","territoryType":"iris","source":"IGN / INSEE - Contours IRIS WFS Géoplateforme","sourceYear":"2026","officialId":"852340102","sourceCleabs":"IRIS____0000000852340102","communeCode":"85234","communeName":"Saint-Jean-de-Monts","irisCode":"0102","irisType":"H","officialAreaM2":52169672.41339111,"labelLng":-2.0460107714195996,"labelLat":46.80472093664703,"bbox":[-2.14189949,46.74676323,-1.96355994,46.85512895],"curationOperationId":"saint_jean_de_monts-852340102-rename-le-vieux-cerne","curationRevision":1,"curationEvidenceRefs":["ign-insee-contours-iris-2026","ign-geoplateforme-toponymy-2026","guide-alpha-editorial-recovery-2026-07-14"],"curationRationale":"The exact official IGN BD TOPO habitation toponym has a deterministic evidence point strictly inside this exact IRIS. The 1:1 label is emitted without nearest assignment, invented geometry, split or dropped source cell.","semanticLabelReviewed":true,"semanticLabelAccepted":false,"semanticResolution":"rename"},"geometry":{"type":"MultiPolygon","coordinates":[[[[-2.02954713,46.84760095],[-2.02945062,46.84746804],[-2.02975831,46.84693039],[-2.0298018,46.84667677],[-2.02976175,46.84635914],[-2.02958148,46.84613155],[-2.02836502,46.84539444],[-2.02719206,46.84519585],[-2.02645575,46.84523888],[-2.02592446,46.84516738],[-2.02561279,46.8450538],[-2.02487695,46.84457803],[-2.0245924,46.84433154],[-2.02504788,46.84394082],[-2.02504594,46.84335356],[-2.02519209,46.84328492],[-2.02501348,46.84314567],[-2.02468808,46.84238851],[-2.02432619,46.84196045],[-2.02338251,46.84129888],[-2.02205166,46.84065874],[-2.02099105,46.83984167],[-2.01946024,46.83901537],[-2.01839786,46.83812167],[-2.01806831,46.83799893],[-2.01747127,46.83796906],[-2.01614079,46.83822473],[-2.01561791,46.83875368],[-2.01511514,46.83948566],[-2.01491193,46.83954866],[-2.0144378,46.83945477],[-2.0147667,46.83896045],[-2.01442389,46.83868039],[-2.01352844,46.83750149],[-2.01351875,46.83711306],[-2.0141647,46.83552858],[-2.01506273,46.83453666],[-2.01608752,46.83315396],[-2.01649498,46.8329404],[-2.0178591,46.83276535],[-2.01881901,46.83224346],[-2.01924686,46.83117279],[-2.02036487,46.83008822],[-2.02184028,46.82972511],[-2.02260901,46.83018952],[-2.02382524,46.83065963],[-2.02450297,46.83055421],[-2.02505269,46.83034432],[-2.02597479,46.82947305],[-2.02704124,46.82883995],[-2.02730051,46.82858862],[-2.02723559,46.82757828],[-2.02744115,46.82735726],[-2.02740599,46.82665327],[-2.02751495,46.82649603],[-2.02686729,46.82591988],[-2.02616898,46.82587375],[-2.02428208,46.82599417],[-2.02440653,46.82580558],[-2.02394174,46.82532969],[-2.02277701,46.82518664],[-2.02208757,46.82553346],[-2.02078312,46.82507441],[-2.02038837,46.82463063],[-2.02019832,46.82455142],[-2.01928892,46.82465251],[-2.0187354,46.82462256],[-2.01835396,46.82439292],[-2.01815383,46.82400649],[-2.01798921,46.82286878],[-2.01800177,46.82225293],[-2.01818827,46.82176932],[-2.01869455,46.82096409],[-2.0187306,46.81990693],[-2.01900735,46.81958899],[-2.01984955,46.81927431],[-2.02056722,46.81882161],[-2.02083302,46.81847076],[-2.02109447,46.8178747],[-2.02124226,46.8167901],[-2.02088155,46.81587659],[-2.02078927,46.81534922],[-2.02106446,46.81427799],[-2.01948067,46.81328351],[-2.01870057,46.81226833],[-2.01861371,46.81198342],[-2.01870111,46.81160789],[-2.01929918,46.81081577],[-2.01987674,46.80970337],[-2.01992704,46.80940976],[-2.01982818,46.8091371],[-2.01882863,46.8082488],[-2.01819166,46.80781289],[-2.01625747,46.80744448],[-2.01577288,46.80723468],[-2.01527682,46.80660314],[-2.0150168,46.80558327],[-2.0150488,46.80482221],[-2.01528862,46.80420546],[-2.01552693,46.80392709],[-2.01616811,46.80361489],[-2.01742467,46.80349233],[-2.01771807,46.80339741],[-2.01813189,46.80301393],[-2.01840424,46.80260686],[-2.018538,46.80217878],[-2.01848192,46.80150277],[-2.01779267,46.80006228],[-2.01741124,46.79953311],[-2.01596834,46.79830959],[-2.0136039,46.79689443],[-2.0126071,46.79645798],[-2.01055491,46.79618666],[-2.01031007,46.79663582],[-2.00965432,46.79728695],[-2.00954208,46.79720975],[-2.00998828,46.79659392],[-2.00992349,46.79620609],[-2.00966207,46.79600728],[-2.00833378,46.79557984],[-2.0078049,46.79524473],[-2.00756336,46.79499092],[-2.00751882,46.79388405],[-2.00731065,46.79323813],[-2.00670861,46.79290711],[-2.00563433,46.79269682],[-2.00507805,46.79250544],[-2.00393659,46.79196606],[-2.00359665,46.79167051],[-2.003454,46.79129239],[-2.00339968,46.79014986],[-2.00308713,46.78894189],[-2.00322316,46.78802564],[-2.00386077,46.78705054],[-2.00400739,46.78659034],[-2.00401795,46.78612163],[-2.00383473,46.78590136],[-2.00300442,46.78533036],[-2.00276006,46.78494585],[-2.00255094,46.78418899],[-2.0020463,46.78347478],[-2.0009202,46.78257292],[-2.00045618,46.78199948],[-1.99995184,46.78160102],[-2.00043054,46.78072578],[-2.00052177,46.78016334],[-2.00020779,46.77952202],[-1.99966407,46.77899536],[-1.99892519,46.778645],[-1.99768631,46.77836964],[-1.99739787,46.77823244],[-1.99708262,46.7779755],[-1.99662882,46.77721304],[-1.99614509,46.77662421],[-1.99589487,46.77644564],[-1.99501217,46.77610152],[-1.99466304,46.77633144],[-1.99426686,46.77680609],[-1.9933946,46.77718778],[-1.99259481,46.77775758],[-1.99212421,46.77788089],[-1.99170838,46.77764366],[-1.99127276,46.77712038],[-1.9904213,46.77677306],[-1.98864527,46.77668155],[-1.98811391,46.77648722],[-1.98789085,46.77623257],[-1.98780717,46.77536649],[-1.98795288,46.77396806],[-1.98817446,46.77347937],[-1.98802821,46.77273239],[-1.98791306,46.7725371],[-1.98737422,46.77211844],[-1.98748442,46.77181773],[-1.98675046,46.7709339],[-1.98592336,46.77030762],[-1.98527807,46.7699874],[-1.98466211,46.76988604],[-1.98362046,46.76996737],[-1.98290107,46.76984072],[-1.98217316,46.76943566],[-1.98203191,46.76918467],[-1.98209882,46.76898418],[-1.98093195,46.76880297],[-1.98012573,46.76888848],[-1.97935654,46.7691483],[-1.97914717,46.76929903],[-1.97927808,46.76969482],[-1.97975537,46.7702019],[-1.9796529,46.77058707],[-1.97816815,46.7712767],[-1.97691284,46.7716054],[-1.97638087,46.77154637],[-1.97538057,46.77157801],[-1.97339297,46.77103894],[-1.97341356,46.77081972],[-1.9738946,46.76980917],[-1.97382607,46.76937729],[-1.97247813,46.76785236],[-1.97179703,46.76728371],[-1.97157156,46.76724476],[-1.97085792,46.76748047],[-1.96948554,46.76773478],[-1.96921667,46.767695],[-1.96891133,46.76741501],[-1.9681816,46.76601483],[-1.96718782,46.76552917],[-1.96600108,46.76455655],[-1.9656431,46.76410291],[-1.96591583,46.76372662],[-1.96600257,46.76339808],[-1.96505377,46.76260011],[-1.96487548,46.76231642],[-1.96485528,46.76205295],[-1.96488175,46.76178295],[-1.96578863,46.76081988],[-1.96608892,46.76037203],[-1.96585989,46.7592479],[-1.96541627,46.75912004],[-1.96401831,46.75846238],[-1.96383723,46.75774667],[-1.96356817,46.75720256],[-1.96355994,46.75698369],[-1.96443249,46.75646327],[-1.96464444,46.75615457],[-1.96420871,46.75531004],[-1.9643569,46.75472081],[-1.9643194,46.75436878],[-1.96461501,46.75391302],[-1.96543407,46.7543855],[-1.96626306,46.75453638],[-1.96668577,46.75450816],[-1.96698314,46.75437259],[-1.96773365,46.7536815],[-1.96798567,46.75356683],[-1.96818403,46.7534969],[-1.96944104,46.7534199],[-1.96995338,46.75326689],[-1.97037631,46.75309791],[-1.97138738,46.75244332],[-1.97221028,46.75215595],[-1.97225026,46.7517762],[-1.97214518,46.75157505],[-1.97070836,46.7511366],[-1.9700793,46.75057472],[-1.96992205,46.75009074],[-1.9699885,46.749155],[-1.97027076,46.74875483],[-1.97050442,46.74861208],[-1.97213189,46.74833947],[-1.97246109,46.74822235],[-1.97307035,46.74715211],[-1.97362965,46.74686803],[-1.97419491,46.74676323],[-1.97517452,46.74686871],[-1.97624277,46.74723919],[-1.9762433,46.74803129],[-1.97654957,46.74842219],[-1.97787012,46.74872397],[-1.9787456,46.74928143],[-1.97976389,46.74970728],[-1.98039011,46.7496801],[-1.98073144,46.74952363],[-1.98150822,46.74887822],[-1.98229247,46.7486141],[-1.98232329,46.7487923],[-1.9839103,46.74920785],[-1.98401681,46.75060885],[-1.98509755,46.75091375],[-1.98619573,46.75139382],[-1.9864965,46.75168118],[-1.98829853,46.7542463],[-1.98844213,46.75433749],[-1.98958035,46.75458121],[-1.99067775,46.75442432],[-1.99137075,46.75450875],[-1.99311918,46.75439388],[-1.99304401,46.75357795],[-1.99341658,46.75310522],[-1.99370152,46.7529638],[-1.99500812,46.75264168],[-1.99614227,46.75244253],[-1.99637296,46.75251007],[-1.99719642,46.75335477],[-1.99769071,46.75359037],[-1.99952355,46.75394989],[-2.00135995,46.75370746],[-2.00232097,46.75335339],[-2.0026808,46.75301381],[-2.0026443,46.75189305],[-2.00300509,46.75046896],[-2.00343204,46.74993247],[-2.00558774,46.7479898],[-2.0065132,46.74747936],[-2.00730594,46.74730853],[-2.00789869,46.74733137],[-2.00878862,46.74768679],[-2.00961385,46.74788172],[-2.01006734,46.74810191],[-2.01051237,46.74855704],[-2.01067393,46.74878546],[-2.01093633,46.74960765],[-2.01106381,46.74972298],[-2.01146702,46.74996701],[-2.01336268,46.75075032],[-2.01452531,46.75178218],[-2.01606307,46.75286709],[-2.01641205,46.75324791],[-2.01682619,46.75319823],[-2.01714063,46.75303561],[-2.01874765,46.75434302],[-2.01888372,46.75429557],[-2.01958962,46.75444784],[-2.02030807,46.75414032],[-2.02098217,46.75461517],[-2.0207257,46.7547942],[-2.02105609,46.75527146],[-2.02106946,46.75582664],[-2.02027114,46.75666095],[-2.01972864,46.75694092],[-2.01922128,46.75737362],[-2.01856708,46.75826206],[-2.01851907,46.75883526],[-2.01869453,46.75926968],[-2.01898306,46.75983358],[-2.01999563,46.76126893],[-2.02049495,46.76249215],[-2.02125872,46.76387703],[-2.02189555,46.76451501],[-2.02241789,46.764881],[-2.02222878,46.76503634],[-2.02334305,46.765768],[-2.02578448,46.76701985],[-2.0260224,46.7672774],[-2.02697359,46.76794849],[-2.02751822,46.76817185],[-2.02642672,46.76866355],[-2.02596625,46.76892281],[-2.02440524,46.77004406],[-2.0252735,46.77058527],[-2.0241657,46.77132668],[-2.02366511,46.77152182],[-2.02300591,46.77166345],[-2.0220292,46.7717513],[-2.02079748,46.77176549],[-2.02061304,46.77180153],[-2.02031663,46.77194712],[-2.02019078,46.77211954],[-2.02015883,46.77285174],[-2.02005297,46.77319741],[-2.01981307,46.77355615],[-2.0192882,46.77397157],[-2.02037575,46.77442745],[-2.02065023,46.77459769],[-2.02127288,46.77481225],[-2.02419027,46.77613716],[-2.02864887,46.77803417],[-2.02967451,46.77852877],[-2.03556424,46.78110895],[-2.03612184,46.78189379],[-2.03719946,46.78295986],[-2.03645596,46.7838487],[-2.03677189,46.78392687],[-2.03837338,46.78383223],[-2.03876151,46.78390993],[-2.03933571,46.78409585],[-2.0390934,46.78439971],[-2.03884046,46.78498463],[-2.03876985,46.78495976],[-2.03875324,46.78499297],[-2.03903273,46.78600654],[-2.03907437,46.78710363],[-2.03857239,46.7882309],[-2.03842581,46.78885806],[-2.03816749,46.78962547],[-2.03813837,46.78990554],[-2.03745819,46.78999312],[-2.03674497,46.78999374],[-2.03569543,46.79120907],[-2.03530936,46.79174749],[-2.03511845,46.79218081],[-2.03490936,46.79298394],[-2.03471786,46.79345337],[-2.03419186,46.79425325],[-2.03375119,46.79469933],[-2.03498074,46.79489623],[-2.03668039,46.79502018],[-2.0380171,46.79518258],[-2.04273817,46.79599576],[-2.04365674,46.7960691],[-2.04516912,46.79605769],[-2.04561318,46.796086],[-2.0458312,46.79615581],[-2.0459972,46.79625949],[-2.04624857,46.79632062],[-2.04658818,46.79634179],[-2.04679793,46.79640745],[-2.04695978,46.79659342],[-2.04691454,46.79681285],[-2.04700518,46.79693969],[-2.04712183,46.79706358],[-2.04745518,46.79717253],[-2.04787628,46.79720815],[-2.04944852,46.79710564],[-2.0501976,46.79715029],[-2.05096508,46.7972654],[-2.0543081,46.79814595],[-2.05467635,46.79834718],[-2.05472997,46.79847113],[-2.05486764,46.79855259],[-2.0550885,46.79856813],[-2.05525234,46.79850768],[-2.05580447,46.79853931],[-2.06030662,46.79977286],[-2.06067742,46.79905908],[-2.06083898,46.79839783],[-2.06128132,46.79757804],[-2.0619214,46.79662503],[-2.06202701,46.79660233],[-2.06199278,46.79651722],[-2.06234402,46.7960443],[-2.06293584,46.79560136],[-2.06379507,46.79390153],[-2.06409904,46.79354166],[-2.06447232,46.79274295],[-2.06475106,46.7922678],[-2.06552101,46.79179173],[-2.06586496,46.79136783],[-2.06673672,46.79167132],[-2.06700163,46.79187707],[-2.06724691,46.79221],[-2.06731027,46.79239578],[-2.06763429,46.79460913],[-2.06780326,46.79512318],[-2.06892267,46.79591015],[-2.06951005,46.79626226],[-2.0698105,46.79653862],[-2.07022013,46.79674609],[-2.07038367,46.79689316],[-2.07259109,46.79836829],[-2.07296562,46.79856557],[-2.07369045,46.79885565],[-2.07636863,46.79966029],[-2.07598815,46.8003529],[-2.07568441,46.80117745],[-2.07769587,46.80144221],[-2.07806337,46.80153604],[-2.07924187,46.80196933],[-2.07991089,46.80230786],[-2.08033229,46.80245793],[-2.08121295,46.80251732],[-2.08149482,46.80263657],[-2.08193382,46.80290407],[-2.08227968,46.80303312],[-2.08356717,46.80319899],[-2.08456624,46.80341371],[-2.08575354,46.80346399],[-2.08720474,46.80372182],[-2.0874201,46.8037204],[-2.08795133,46.80362649],[-2.08838399,46.80361634],[-2.08902176,46.80384522],[-2.08985881,46.80394346],[-2.09146836,46.80448746],[-2.09377307,46.80554827],[-2.09441073,46.80588721],[-2.09591709,46.80351869],[-2.1016415,46.79822622],[-2.10174766,46.79797248],[-2.10183359,46.79793618],[-2.10205302,46.79793635],[-2.10217898,46.79786489],[-2.10242778,46.79753533],[-2.10268966,46.79735857],[-2.10280294,46.79705489],[-2.10323368,46.79659273],[-2.1060649,46.79792945],[-2.11166888,46.80096712],[-2.11624217,46.80304712],[-2.1256568,46.80797245],[-2.13703944,46.81569641],[-2.14034484,46.81743885],[-2.14124796,46.81815997],[-2.14189949,46.8189167],[-2.14044612,46.81936343],[-2.13966058,46.81978386],[-2.13761934,46.82047701],[-2.13477432,46.82018014],[-2.13206988,46.82046432],[-2.13149578,46.81951098],[-2.13094731,46.81967353],[-2.13053634,46.82062125],[-2.13003624,46.82083667],[-2.12704168,46.82098661],[-2.12588359,46.82069452],[-2.12540137,46.82065468],[-2.12402716,46.82093976],[-2.12305582,46.82103722],[-2.12238501,46.82125481],[-2.12117877,46.82124543],[-2.11897911,46.82078045],[-2.11816279,46.82084931],[-2.11762876,46.8213459],[-2.11726935,46.82097844],[-2.11553243,46.82004074],[-2.11521485,46.81976796],[-2.11477702,46.81823643],[-2.11434115,46.81806095],[-2.11262687,46.81791801],[-2.11267209,46.81810457],[-2.1124125,46.81890472],[-2.11140768,46.81955216],[-2.11103422,46.82014894],[-2.11075519,46.82089671],[-2.11013536,46.82134835],[-2.10996344,46.82220053],[-2.10956799,46.82249512],[-2.10916085,46.82301399],[-2.10861196,46.82451001],[-2.10827191,46.82496003],[-2.10836672,46.82532394],[-2.10831087,46.82558176],[-2.10802798,46.82589931],[-2.10764595,46.8261554],[-2.10751085,46.82679931],[-2.10598957,46.8282032],[-2.10593289,46.82841053],[-2.10607965,46.82892101],[-2.105973,46.82936516],[-2.10523536,46.8300187],[-2.10461967,46.83124066],[-2.10321651,46.83283955],[-2.10235039,46.83408345],[-2.10024024,46.83625956],[-2.09921063,46.83698376],[-2.09944239,46.83739212],[-2.09936336,46.83755804],[-2.09895655,46.83783143],[-2.09727038,46.83712759],[-2.09343003,46.83598419],[-2.09183457,46.83560017],[-2.0905349,46.8350758],[-2.09005815,46.83506714],[-2.08932798,46.83488024],[-2.08910363,46.8348992],[-2.08851129,46.83532513],[-2.08669195,46.83538403],[-2.08632658,46.83703599],[-2.08634528,46.83744479],[-2.08650692,46.83789147],[-2.08638831,46.83800048],[-2.08602334,46.83802024],[-2.08418822,46.83760431],[-2.08245427,46.83743921],[-2.08234616,46.83726805],[-2.08190092,46.83700715],[-2.079903,46.83664888],[-2.07934588,46.83644253],[-2.07909127,46.83620927],[-2.07804775,46.83590532],[-2.0775056,46.83595635],[-2.07665515,46.83630881],[-2.07620975,46.83600368],[-2.07583568,46.83553389],[-2.07551506,46.8353676],[-2.07340173,46.83515146],[-2.07163732,46.83466004],[-2.07072019,46.83452548],[-2.06974715,46.83410286],[-2.06864506,46.83402878],[-2.06610434,46.83364189],[-2.06369987,46.83294037],[-2.06242708,46.83275556],[-2.06169291,46.83279152],[-2.06272232,46.83519484],[-2.06267767,46.83689571],[-2.0610312,46.84011073],[-2.06093399,46.84005546],[-2.06040308,46.84024124],[-2.05986951,46.8406518],[-2.05977629,46.84089229],[-2.06028942,46.84157073],[-2.0602884,46.84260022],[-2.06260528,46.84271291],[-2.06253466,46.8431527],[-2.06265522,46.84361204],[-2.06347304,46.8445387],[-2.06354572,46.84479534],[-2.06375181,46.84725027],[-2.06384665,46.84733631],[-2.0635677,46.84764363],[-2.06163247,46.8482251],[-2.06097714,46.84851561],[-2.06148568,46.85069015],[-2.061454,46.85112462],[-2.0610792,46.85175735],[-2.05995173,46.85266681],[-2.05970809,46.85297257],[-2.05937817,46.85402917],[-2.0593964,46.85439286],[-2.05961783,46.85498851],[-2.05964962,46.85503313],[-2.05880502,46.85512895],[-2.0577476,46.85497428],[-2.05284127,46.85310862],[-2.05181072,46.85279032],[-2.05099344,46.8523616],[-2.04905032,46.85225569],[-2.04652114,46.85147808],[-2.04538224,46.85160476],[-2.04313576,46.85079753],[-2.04210997,46.85086779],[-2.04069325,46.85060964],[-2.03893135,46.84952575],[-2.0347722,46.84801726],[-2.03383623,46.8480348],[-2.03336445,46.84840552],[-2.03326703,46.84857399],[-2.03327793,46.84887485],[-2.03282951,46.84927071],[-2.03266189,46.84954691],[-2.03216826,46.84989512],[-2.03173876,46.84987242],[-2.03150848,46.84974357],[-2.03137209,46.84939406],[-2.03139711,46.84881465],[-2.03111128,46.84839952],[-2.03051721,46.84800689],[-2.02954713,46.84760095]]]]}}]}
