{"type":"FeatureCollection","metadata":{"generatedAt":"2026-07-14T18:47:37.770Z","source":"IGN / INSEE - Contours IRIS WFS Géoplateforme","datasetId":"STATISTICALUNITS.IRIS:contours_iris","datasetUrl":"https://geoservices.ign.fr/contoursiris","sourceFileUrl":"https://data.geopf.fr/wfs/ows?SERVICE=WFS&VERSION=2.0.0&REQUEST=GetFeature&TYPENAMES=STATISTICALUNITS.IRIS%3Acontours_iris&OUTPUTFORMAT=application%2Fjson&COUNT=1000&CQL_FILTER=code_insee%3D%2751507%27&SRSNAME=EPSG%3A4326","license":"Licence Ouverte / Open Licence 2.0","sourceYear":"2026","communeCode":"51507","communeName":"Sainte-Menehould","featureCount":2,"parentCount":1,"parentContract":"technical commune group; not selectable and not displayed as a district","bbox":[4.86622597,49.04032728,5.00403048,49.1285656],"areaStatsM2":{"minimum":896252.7697753906,"average":28300697.686645508,"maximum":55705142.603515625}},"features":[{"type":"Feature","id":"sainte_menehould_515070101_centre_est","properties":{"zoneId":"sainte_menehould_515070101_centre_est","label":"Centre Est","districtCode":"515070101","arrondissementCode":"51507","colorIndex":0,"parentZoneId":"sainte_menehould_parent_51507_sainte_menehould","parentCode":"51507","parentLabel":"Sainte-Menehould","territoryType":"iris","source":"IGN / INSEE - Contours IRIS WFS Géoplateforme","sourceYear":"2026","officialId":"515070101","sourceCleabs":"IRIS____0000000515070101","communeCode":"51507","communeName":"Sainte-Menehould","irisCode":"0101","irisType":"H","officialAreaM2":896252.7697753906,"labelLng":4.91373312,"labelLat":49.093195345,"bbox":[4.89972004,49.08784026,4.9277462,49.09855043]},"geometry":{"type":"MultiPolygon","coordinates":[[[[4.89972004,49.08814125],[4.90009526,49.08847799],[4.90038146,49.08881433],[4.90053645,49.0890826],[4.90065693,49.08967968],[4.90096197,49.09071634],[4.90102737,49.09126753],[4.90129417,49.09189558],[4.90224759,49.09182833],[4.90228947,49.09185015],[4.90321367,49.09180764],[4.90333129,49.09404165],[4.90253139,49.09486015],[4.90520485,49.09594384],[4.90520875,49.09604991],[4.90471257,49.09626283],[4.90299551,49.09619918],[4.90298752,49.09661572],[4.90418657,49.09663361],[4.90684926,49.09719759],[4.90647534,49.09611707],[4.9061514,49.09550163],[4.90634349,49.09551118],[4.90738553,49.09576626],[4.90819128,49.0960017],[4.90843979,49.09612997],[4.90850043,49.0959914],[4.90847783,49.0957867],[4.90804821,49.09475653],[4.90784639,49.09440808],[4.90858022,49.09425253],[4.90927711,49.09432151],[4.90938413,49.09414083],[4.9098251,49.09410325],[4.90987506,49.09393517],[4.90972197,49.09357155],[4.90974728,49.09344074],[4.91205031,49.09357591],[4.9131984,49.09351357],[4.91417067,49.09369686],[4.91455694,49.09373568],[4.91566091,49.09396183],[4.91579036,49.09401822],[4.91566453,49.09409668],[4.91536235,49.09403583],[4.91512643,49.09439665],[4.914724,49.09432841],[4.91392784,49.0946127],[4.91401755,49.09503938],[4.91399125,49.09514323],[4.91458007,49.09584527],[4.91446779,49.09603143],[4.9146008,49.09629553],[4.91475165,49.09637497],[4.91541579,49.09629783],[4.91546641,49.09659292],[4.91586399,49.09660368],[4.91617563,49.09666077],[4.91616234,49.09670865],[4.91639248,49.09678412],[4.91644188,49.09663854],[4.91685701,49.09675334],[4.91686159,49.09687738],[4.91852393,49.09720072],[4.91849838,49.09728747],[4.9190117,49.0973908],[4.9189616,49.09755439],[4.91923149,49.09759325],[4.91917865,49.09775688],[4.91955028,49.09825011],[4.92030213,49.09828487],[4.92171818,49.09853925],[4.92220071,49.09855043],[4.92360565,49.09654841],[4.92422861,49.09665356],[4.92721968,49.09790256],[4.9277462,49.09692369],[4.92771965,49.09676222],[4.92501941,49.09559851],[4.92073555,49.09353279],[4.92057094,49.09348865],[4.92039541,49.09351934],[4.91950082,49.09232755],[4.91891992,49.09165508],[4.91859018,49.09140402],[4.91783898,49.09101398],[4.91715349,49.09080816],[4.91560378,49.09056215],[4.91494996,49.09047184],[4.9140332,49.09041809],[4.91239588,49.09046933],[4.9107117,49.09069847],[4.91025049,49.09074358],[4.90989529,49.09072944],[4.90843353,49.09041628],[4.90817086,49.0899024],[4.90697355,49.09011387],[4.90616808,49.09018151],[4.90565702,49.09017433],[4.90476779,49.09008679],[4.90415076,49.08995356],[4.90346492,49.08973598],[4.9020627,49.088991],[4.90123535,49.08846176],[4.90009928,49.08784026],[4.89972004,49.08814125]]]]}},{"type":"Feature","id":"sainte_menehould_515070102_centre_o_s_e_n","properties":{"zoneId":"sainte_menehould_515070102_centre_o_s_e_n","label":"Centre O-S-E-N","districtCode":"515070102","arrondissementCode":"51507","colorIndex":1,"parentZoneId":"sainte_menehould_parent_51507_sainte_menehould","parentCode":"51507","parentLabel":"Sainte-Menehould","territoryType":"iris","source":"IGN / INSEE - Contours IRIS WFS Géoplateforme","sourceYear":"2026","officialId":"515070102","sourceCleabs":"IRIS____0000000515070102","communeCode":"51507","communeName":"Sainte-Menehould","irisCode":"0102","irisType":"H","officialAreaM2":55705142.603515625,"labelLng":4.942725135612878,"labelLat":49.08700215850274,"bbox":[4.86622597,49.04032728,5.00403048,49.1285656]},"geometry":{"type":"MultiPolygon","coordinates":[[[[4.99786671,49.09226396],[4.99769696,49.09151937],[4.99749783,49.09122047],[4.99685781,49.08935943],[4.99667263,49.08832009],[4.99674607,49.08766679],[4.99732341,49.08623073],[4.99863285,49.0846053],[4.99898805,49.08358935],[4.9989928,49.08211423],[4.99840863,49.07857393],[4.99871467,49.07813082],[4.99917648,49.07608145],[4.99972809,49.07479958],[5.00037919,49.07382636],[5.00202151,49.07228797],[5.0024974,49.07195535],[5.00345872,49.07019083],[5.00372128,49.06912062],[5.00377666,49.06796753],[5.00401043,49.06728636],[5.00400906,49.06640044],[5.00389328,49.06595445],[5.00403048,49.06571471],[5.0038648,49.0656779],[5.00281868,49.06577539],[4.99887738,49.06544348],[4.99656576,49.06513114],[4.99561435,49.06566232],[4.99270343,49.06446492],[4.98905915,49.06316447],[4.97935065,49.0601867],[4.97837416,49.06002649],[4.97240666,49.05793451],[4.97191767,49.0576718],[4.97155239,49.05735131],[4.97120204,49.0568111],[4.97092327,49.05610152],[4.97041678,49.05544965],[4.96562931,49.0508888],[4.95598812,49.04767421],[4.95537292,49.04757989],[4.94832954,49.04767187],[4.94644374,49.04868643],[4.94433275,49.04949953],[4.93911143,49.04603029],[4.93788179,49.04505266],[4.93724499,49.04485427],[4.93460691,49.04375002],[4.93193768,49.04092379],[4.93004138,49.04062779],[4.9289275,49.04032728],[4.92873856,49.04050751],[4.92784128,49.04062355],[4.92756896,49.04076913],[4.92744854,49.04095275],[4.92722187,49.04096449],[4.92709874,49.04089091],[4.92690548,49.04095517],[4.92705351,49.04180996],[4.92732504,49.04249007],[4.9271462,49.04316392],[4.92747232,49.04457709],[4.92772256,49.0446837],[4.92798934,49.04464614],[4.92812767,49.04498121],[4.92789347,49.04501195],[4.92777065,49.04531523],[4.92776672,49.04557793],[4.92803883,49.04594142],[4.92812319,49.04618651],[4.92804118,49.04633624],[4.9282161,49.04658797],[4.92818377,49.04770648],[4.92807118,49.04802758],[4.92767726,49.04839997],[4.92664953,49.04887607],[4.9259622,49.049344],[4.92411907,49.05012007],[4.92369371,49.05071601],[4.92332092,49.0516232],[4.92199462,49.05257533],[4.92108464,49.05298294],[4.92046423,49.05337601],[4.92025079,49.05363576],[4.91953161,49.05387481],[4.9189594,49.05383269],[4.91888862,49.05402809],[4.91790465,49.05506375],[4.91680372,49.05552743],[4.91627613,49.05602693],[4.91610872,49.0564964],[4.91596218,49.05664175],[4.91536397,49.05685995],[4.91474851,49.05738963],[4.91451882,49.05772967],[4.91442555,49.05816917],[4.91426815,49.05820586],[4.91410645,49.05838562],[4.91431128,49.05855864],[4.91429633,49.05870998],[4.91358043,49.05937436],[4.91393833,49.05950447],[4.91356484,49.0596939],[4.91331644,49.05993531],[4.91367796,49.0604602],[4.91409857,49.06084295],[4.91613254,49.06162539],[4.91644962,49.06064987],[4.91777727,49.05831898],[4.92278031,49.05749249],[4.92325139,49.05798053],[4.92502278,49.05884078],[4.92654991,49.05971931],[4.92768701,49.06004465],[4.92814956,49.06052201],[4.92820266,49.06084585],[4.92822113,49.0612323],[4.92797059,49.06152504],[4.9274356,49.06186101],[4.92620553,49.06235023],[4.92571155,49.06272242],[4.92562735,49.06351435],[4.92579317,49.06370417],[4.9257945,49.06403513],[4.9258651,49.06413024],[4.92632409,49.06425329],[4.92639279,49.06451842],[4.92627305,49.06479556],[4.92605595,49.06495734],[4.92547724,49.06514919],[4.92551017,49.06552012],[4.92540604,49.0656648],[4.92553403,49.06568343],[4.92593925,49.06612754],[4.92484192,49.06713538],[4.92352975,49.06748198],[4.9227057,49.06755543],[4.92082885,49.06747662],[4.9196409,49.06729684],[4.9194189,49.06740112],[4.91887832,49.06721908],[4.91741578,49.06723883],[4.91569599,49.06763142],[4.91510909,49.06786293],[4.91511208,49.06812911],[4.91567241,49.06825329],[4.9157205,49.06874],[4.91619206,49.06994398],[4.91694312,49.07004263],[4.91685505,49.07036333],[4.91711564,49.07045091],[4.91739707,49.0701766],[4.91929384,49.07049528],[4.91922771,49.07015097],[4.92054611,49.06985918],[4.92258012,49.06970703],[4.92291102,49.06988162],[4.923565,49.07061046],[4.92397598,49.07124606],[4.92406412,49.07203523],[4.92361596,49.07224297],[4.92368767,49.07233086],[4.92350533,49.07247139],[4.92385884,49.07270138],[4.92288189,49.07385926],[4.92227908,49.07436448],[4.9220293,49.07449529],[4.92170244,49.07428286],[4.92052528,49.07476847],[4.92099541,49.07515309],[4.92023084,49.07546841],[4.91972428,49.07506098],[4.91899785,49.07533431],[4.91915702,49.07545499],[4.91921436,49.07567263],[4.91863301,49.07579703],[4.91741053,49.07587321],[4.91618521,49.07572456],[4.91479564,49.0753168],[4.91303688,49.07458661],[4.91212381,49.07399405],[4.91149855,49.07374407],[4.91132537,49.07357684],[4.91090732,49.07352593],[4.91018613,49.07316144],[4.908958,49.07330598],[4.90845165,49.07308737],[4.90794465,49.07303696],[4.90757442,49.073095],[4.90723569,49.07326497],[4.90672494,49.07296368],[4.90757571,49.07197613],[4.90939019,49.07080327],[4.90983336,49.07057047],[4.91027283,49.07053471],[4.91082702,49.07060324],[4.91145494,49.07003473],[4.91170341,49.07009103],[4.91188875,49.06940004],[4.91215973,49.0691385],[4.91162937,49.06897335],[4.91084574,49.06895614],[4.90952906,49.06910928],[4.90905706,49.06926518],[4.90834688,49.06964432],[4.90742371,49.06996478],[4.90705132,49.07018654],[4.90683875,49.0702133],[4.90351985,49.06993315],[4.90223569,49.06970525],[4.90183714,49.06951279],[4.90143026,49.06957859],[4.9005432,49.06946581],[4.90036498,49.06863668],[4.89986332,49.06869318],[4.89816289,49.06846013],[4.89740321,49.06823648],[4.89495962,49.0672938],[4.89487253,49.06723311],[4.89497367,49.06677912],[4.89525486,49.06612082],[4.89549036,49.06582299],[4.89496632,49.06571614],[4.88848301,49.06561855],[4.88589554,49.0654919],[4.88363855,49.06621085],[4.88348942,49.06689134],[4.88329355,49.06707609],[4.88154984,49.06708002],[4.88168869,49.06792688],[4.88162586,49.06879848],[4.88151995,49.06938835],[4.88125446,49.06976755],[4.88395769,49.0698727],[4.88338757,49.07192777],[4.88188169,49.0720395],[4.88198005,49.07309025],[4.88153209,49.07474226],[4.88001437,49.07475612],[4.8800736,49.07480376],[4.87960081,49.07475269],[4.87950663,49.07502488],[4.87887519,49.07478922],[4.8784745,49.07442314],[4.87608847,49.07378317],[4.87571898,49.07390046],[4.87531608,49.07385099],[4.87362127,49.07407799],[4.87356466,49.0743298],[4.87371542,49.07494084],[4.87346048,49.07515977],[4.87348202,49.07537708],[4.87333657,49.07555743],[4.8728062,49.07561786],[4.87212743,49.07596661],[4.87148417,49.07608545],[4.87010458,49.07655213],[4.86999962,49.07671655],[4.86990809,49.07748156],[4.86836632,49.0778563],[4.86782361,49.07833511],[4.86731956,49.07829078],[4.86681702,49.07779403],[4.86654441,49.0777515],[4.86622597,49.07780501],[4.86624667,49.07891273],[4.86668796,49.08018031],[4.87037029,49.08847561],[4.87147406,49.09090563],[4.87194869,49.09157278],[4.87461828,49.09268597],[4.8757936,49.09356522],[4.87633769,49.09368983],[4.87936173,49.09475242],[4.88042621,49.09385619],[4.88076817,49.093769],[4.88132985,49.09415144],[4.88194728,49.09418314],[4.88278684,49.09418439],[4.88511767,49.0938052],[4.88521953,49.09404553],[4.8850437,49.09478398],[4.88512986,49.0951199],[4.885335,49.0952246],[4.88527043,49.09548284],[4.88544731,49.09590277],[4.88579047,49.09637586],[4.88689059,49.09747652],[4.88725118,49.09748705],[4.88770125,49.09766075],[4.88818961,49.0990732],[4.8881896,49.09944913],[4.88877697,49.10087171],[4.88955839,49.1010411],[4.88919584,49.10150368],[4.88941179,49.10280618],[4.889266,49.10354145],[4.88941916,49.1048872],[4.88932202,49.10504072],[4.88875598,49.10533291],[4.88867293,49.10557255],[4.88897411,49.10571801],[4.88953565,49.10552752],[4.88988731,49.10559214],[4.89007357,49.10581676],[4.8901402,49.10647944],[4.89070992,49.1067385],[4.89081362,49.10691494],[4.89038321,49.10773384],[4.88979963,49.10829702],[4.88998826,49.10839838],[4.89076176,49.10845997],[4.89145975,49.10862976],[4.89160062,49.10952422],[4.89179835,49.10972436],[4.892009,49.10971565],[4.89203894,49.11004794],[4.89214249,49.11010747],[4.89223602,49.11000527],[4.89294538,49.1101479],[4.89300014,49.11025946],[4.89347559,49.11044893],[4.89381143,49.11105431],[4.89382432,49.11125737],[4.90019156,49.11498282],[4.90099336,49.11525255],[4.90295002,49.11611557],[4.90357545,49.11628285],[4.90521725,49.11651767],[4.90786299,49.11674194],[4.90941683,49.11663364],[4.91158759,49.11627539],[4.91243086,49.11621881],[4.91304426,49.1162819],[4.91429611,49.11656687],[4.91481021,49.11657488],[4.91547067,49.11628016],[4.91600523,49.11558183],[4.91713295,49.11602973],[4.91739716,49.11602372],[4.91750285,49.11588084],[4.91770139,49.11595142],[4.91782976,49.11575511],[4.91772781,49.11548063],[4.91782725,49.1153909],[4.91895865,49.115309],[4.91906257,49.11515535],[4.91896877,49.11502734],[4.91909963,49.11493531],[4.91956239,49.11481551],[4.92056727,49.11475809],[4.92116656,49.11451469],[4.92145895,49.11412329],[4.92203216,49.11417438],[4.92274928,49.11404241],[4.92426498,49.11394262],[4.92456357,49.11382991],[4.92482643,49.11382481],[4.92556486,49.11400815],[4.9266867,49.11374376],[4.92735465,49.11368988],[4.92794289,49.11370294],[4.92855701,49.1138226],[4.93012678,49.11363014],[4.93083822,49.1136403],[4.93141735,49.1134826],[4.93155102,49.11331947],[4.93155991,49.11308009],[4.93171846,49.1129966],[4.93198178,49.11300407],[4.93233406,49.1131558],[4.93338341,49.11307957],[4.93363145,49.11315473],[4.93409875,49.11315801],[4.93510357,49.11298985],[4.93625369,49.11289759],[4.93711762,49.1126993],[4.93748695,49.11286693],[4.93776077,49.11319169],[4.93832158,49.11375376],[4.93958802,49.11471905],[4.94015909,49.11548061],[4.94033577,49.11632047],[4.94068186,49.11674478],[4.94184659,49.11740591],[4.94290573,49.11784479],[4.94318021,49.11855085],[4.94385595,49.11914161],[4.943664,49.11961329],[4.9437313,49.11980017],[4.94582666,49.12137706],[4.95597557,49.12306606],[4.95839786,49.1228009],[4.95990311,49.12285463],[4.96058165,49.12271586],[4.96221831,49.12272964],[4.96294783,49.1232133],[4.96537907,49.12412423],[4.96605443,49.12393782],[4.96804892,49.12485674],[4.96915015,49.12513101],[4.97094669,49.12574284],[4.97163421,49.12609222],[4.97408636,49.12696847],[4.97579219,49.1278938],[4.9784688,49.12839932],[4.97902196,49.1285656],[4.97939936,49.12800538],[4.98013357,49.12749414],[4.98082943,49.12680456],[4.98086411,49.12627785],[4.98149592,49.12581326],[4.98201008,49.12521121],[4.98498679,49.12249906],[4.9853119,49.12218611],[4.98571081,49.12201134],[4.98606739,49.12162591],[4.98706905,49.12094653],[4.98813728,49.11993146],[4.98892079,49.11896066],[4.98996601,49.11806198],[4.99122358,49.11655718],[4.99263082,49.11438613],[4.99408434,49.11178259],[4.9942766,49.11126045],[4.99473148,49.11062063],[4.99527804,49.10940907],[4.99597152,49.10834887],[4.99602927,49.10789192],[4.99632145,49.10747515],[4.99634628,49.10719502],[4.99725008,49.10515997],[4.99752161,49.10342591],[4.99749737,49.10027301],[4.99824161,49.09463576],[4.99819833,49.0935482],[4.99786671,49.09226396]],[[4.89972004,49.08814125],[4.90009928,49.08784026],[4.90123535,49.08846176],[4.9020627,49.088991],[4.90346492,49.08973598],[4.90415076,49.08995356],[4.90476779,49.09008679],[4.90565702,49.09017433],[4.90616808,49.09018151],[4.90697355,49.09011387],[4.90817086,49.0899024],[4.90843353,49.09041628],[4.90989529,49.09072944],[4.91025049,49.09074358],[4.9107117,49.09069847],[4.91239588,49.09046933],[4.9140332,49.09041809],[4.91494996,49.09047184],[4.91560378,49.09056215],[4.91715349,49.09080816],[4.91783898,49.09101398],[4.91859018,49.09140402],[4.91891992,49.09165508],[4.91950082,49.09232755],[4.92039541,49.09351934],[4.92057094,49.09348865],[4.92073555,49.09353279],[4.92501941,49.09559851],[4.92771965,49.09676222],[4.9277462,49.09692369],[4.92721968,49.09790256],[4.92422861,49.09665356],[4.92360565,49.09654841],[4.92220071,49.09855043],[4.92171818,49.09853925],[4.92030213,49.09828487],[4.91955028,49.09825011],[4.91917865,49.09775688],[4.91923149,49.09759325],[4.9189616,49.09755439],[4.9190117,49.0973908],[4.91849838,49.09728747],[4.91852393,49.09720072],[4.91686159,49.09687738],[4.91685701,49.09675334],[4.91644188,49.09663854],[4.91639248,49.09678412],[4.91616234,49.09670865],[4.91617563,49.09666077],[4.91586399,49.09660368],[4.91546641,49.09659292],[4.91541579,49.09629783],[4.91475165,49.09637497],[4.9146008,49.09629553],[4.91446779,49.09603143],[4.91458007,49.09584527],[4.91399125,49.09514323],[4.91401755,49.09503938],[4.91392784,49.0946127],[4.914724,49.09432841],[4.91512643,49.09439665],[4.91536235,49.09403583],[4.91566453,49.09409668],[4.91579036,49.09401822],[4.91566091,49.09396183],[4.91455694,49.09373568],[4.91417067,49.09369686],[4.9131984,49.09351357],[4.91205031,49.09357591],[4.90974728,49.09344074],[4.90972197,49.09357155],[4.90987506,49.09393517],[4.9098251,49.09410325],[4.90938413,49.09414083],[4.90927711,49.09432151],[4.90858022,49.09425253],[4.90784639,49.09440808],[4.90804821,49.09475653],[4.90847783,49.0957867],[4.90850043,49.0959914],[4.90843979,49.09612997],[4.90819128,49.0960017],[4.90738553,49.09576626],[4.90634349,49.09551118],[4.9061514,49.09550163],[4.90647534,49.09611707],[4.90684926,49.09719759],[4.90418657,49.09663361],[4.90298752,49.09661572],[4.90299551,49.09619918],[4.90471257,49.09626283],[4.90520875,49.09604991],[4.90520485,49.09594384],[4.90253139,49.09486015],[4.90333129,49.09404165],[4.90321367,49.09180764],[4.90228947,49.09185015],[4.90224759,49.09182833],[4.90129417,49.09189558],[4.90102737,49.09126753],[4.90096197,49.09071634],[4.90065693,49.08967968],[4.90053645,49.0890826],[4.90038146,49.08881433],[4.90009526,49.08847799],[4.89972004,49.08814125]]]]}}]}
