{"type":"FeatureCollection","metadata":{"generatedAt":"2026-07-14T18:56:03.503Z","source":"IGN / INSEE - Contours IRIS WFS Géoplateforme","datasetId":"STATISTICALUNITS.IRIS:contours_iris","datasetUrl":"https://geoservices.ign.fr/contoursiris","sourceFileUrl":"https://data.geopf.fr/wfs/ows?SERVICE=WFS&VERSION=2.0.0&REQUEST=GetFeature&TYPENAMES=STATISTICALUNITS.IRIS%3Acontours_iris&OUTPUTFORMAT=application%2Fjson&COUNT=1000&CQL_FILTER=code_insee%3D%2777438%27&SRSNAME=EPSG%3A4326","license":"Licence Ouverte / Open Licence 2.0","sourceYear":"2026","communeCode":"77438","communeName":"Saint-Thibault-des-Vignes","featureCount":2,"parentCount":1,"parentContract":"technical commune group; not selectable and not displayed as a district","sourceFeatureCount":2,"humanLabelContract":"one visible plate per unique official human place name","groupingContract":"only exact source-ID groups approved by the resolved curation, or source zones sharing the same official name and parent, are merged","groupedZoneCount":0,"groupedSourceFeatureCount":0,"curationStatus":"resolved","curationRevision":1,"curationSources":[{"id":"ign-insee-contours-iris-2026","provider":"IGN / INSEE - Contours IRIS WFS Géoplateforme","datasetUrl":"https://geoservices.ign.fr/contoursiris","role":"official geometry, source identifiers and source labels","vintage":"2026","license":"Licence Ouverte / Open Licence 2.0"},{"id":"ign-geoplateforme-toponymy-2026","provider":"IGN Géoplateforme - reverse geocoding, addresses and named places","datasetUrl":"https://geoservices.ign.fr/geocodage-geoplateforme","role":"official address, street and named-place evidence","vintage":"2026","license":"Licence Ouverte / Open Licence 2.0"},{"id":"guide-alpha-editorial-recovery-2026-07-14","provider":"Meewav Guide Alpha editorial review","datasetUrl":"docs/geospatial/france-semantic-recovery.md","role":"versioned mapping of exact official IRIS identifiers to coherent human place names","vintage":"2026-07-14","license":"Project documentation"}],"sourceCorrections":[{"operationId":"saint_thibault_des_vignes-774380102-rename-les-sablons","type":"rename","sourceIds":["774380102"],"expectedLabels":["ZAC de Saint-Thibault"],"outputLabel":"les Sablons","evidenceRefs":["ign-insee-contours-iris-2026","ign-geoplateforme-toponymy-2026","guide-alpha-editorial-recovery-2026-07-14"],"rationale":"The exact official IGN BD TOPO habitation toponym has a deterministic evidence point strictly inside this exact IRIS. The 1:1 label is emitted without nearest assignment, invented geometry, split or dropped source cell."}],"bbox":[2.66166754,48.84901935,2.69664772,48.87662724],"areaStatsM2":{"minimum":1296851.6481323242,"average":2294048.778198242,"maximum":3291245.90826416}},"features":[{"type":"Feature","id":"saint_thibault_des_vignes_774380101_bourg_de_saint_thibault","properties":{"zoneId":"saint_thibault_des_vignes_774380101_bourg_de_saint_thibault","label":"Bourg de Saint-Thibault","districtCode":"774380101","arrondissementCode":"77438","colorIndex":0,"parentZoneId":"saint_thibault_des_vignes_parent_77438_saint_thibault_des_vignes","parentCode":"77438","parentLabel":"Saint-Thibault-des-Vignes","territoryType":"iris","source":"IGN / INSEE - Contours IRIS WFS Géoplateforme","sourceYear":"2026","officialId":"774380101","sourceCleabs":"IRIS____0000000774380101","communeCode":"77438","communeName":"Saint-Thibault-des-Vignes","irisCode":"0101","irisType":"H","officialAreaM2":3291245.90826416,"labelLng":2.6787471941433183,"labelLat":48.86738985644142,"bbox":[2.66166754,48.8578706,2.69664772,48.87662724]},"geometry":{"type":"MultiPolygon","coordinates":[[[[2.66166754,48.87453003],[2.66255636,48.87475557],[2.66326343,48.8748367],[2.66393263,48.87487006],[2.66681274,48.87476659],[2.66757306,48.87483616],[2.66833421,48.87498935],[2.67109339,48.87590077],[2.67431738,48.87662724],[2.67449661,48.8758732],[2.67744009,48.87302765],[2.67763976,48.87292656],[2.67945568,48.87093766],[2.68031411,48.87034191],[2.68115711,48.86959053],[2.68284228,48.87022722],[2.68338647,48.87063516],[2.68602183,48.87196229],[2.68630408,48.87218157],[2.68680416,48.87290413],[2.68713438,48.87308216],[2.68772739,48.87331573],[2.68868865,48.87352507],[2.68979831,48.8739983],[2.69178142,48.8745556],[2.69252539,48.87462766],[2.69271659,48.87457149],[2.69352499,48.87481638],[2.69414562,48.87499873],[2.69633259,48.86936649],[2.69664772,48.86651915],[2.69605435,48.86658689],[2.69613278,48.86622826],[2.69603127,48.8661048],[2.69525702,48.86610193],[2.69215279,48.86546806],[2.69095133,48.86533096],[2.69141524,48.86387436],[2.69235653,48.86259075],[2.69197992,48.8624306],[2.69131694,48.8622904],[2.69112413,48.8621649],[2.69096654,48.8616177],[2.69035129,48.86101896],[2.69022086,48.86048892],[2.68853526,48.86064552],[2.685473,48.8601267],[2.68404413,48.86020207],[2.68406047,48.85953122],[2.68385824,48.85938949],[2.68320089,48.85923127],[2.68309513,48.85914106],[2.68277325,48.85917708],[2.68277256,48.85929129],[2.68194229,48.85932776],[2.68183983,48.85914222],[2.68170197,48.85917603],[2.68115875,48.85907656],[2.68088192,48.85887887],[2.6803408,48.85888282],[2.68020666,48.85897599],[2.67994187,48.8588161],[2.67968078,48.85894041],[2.67941141,48.85885875],[2.67916574,48.85891385],[2.67777371,48.85854588],[2.67750255,48.85853616],[2.67703297,48.85821383],[2.67680703,48.85816286],[2.67669382,48.85817784],[2.67667513,48.85811484],[2.67651827,48.8581342],[2.67648049,48.85807205],[2.67637676,48.85809695],[2.67621253,48.85798588],[2.67628373,48.85793392],[2.67614919,48.8578706],[2.67602215,48.85791702],[2.67542315,48.85889926],[2.67427321,48.8601453],[2.67408721,48.86002788],[2.67369331,48.86024445],[2.67311667,48.8604776],[2.67302629,48.86076154],[2.67286325,48.86089599],[2.67267765,48.86093235],[2.67210563,48.86086154],[2.67143667,48.86103417],[2.67076142,48.86112225],[2.66669939,48.86116137],[2.66594931,48.86122673],[2.66547988,48.86131175],[2.66605626,48.86134034],[2.66218924,48.87397303],[2.66207306,48.87422811],[2.66166754,48.87453003]]]]}},{"type":"Feature","id":"saint_thibault_des_vignes_774380102_zac_de_saint_thibault","properties":{"zoneId":"saint_thibault_des_vignes_774380102_zac_de_saint_thibault","label":"les Sablons","districtCode":"774380102","arrondissementCode":"77438","colorIndex":1,"parentZoneId":"saint_thibault_des_vignes_parent_77438_saint_thibault_des_vignes","parentCode":"77438","parentLabel":"Saint-Thibault-des-Vignes","territoryType":"iris","source":"IGN / INSEE - Contours IRIS WFS Géoplateforme","sourceYear":"2026","officialId":"774380102","sourceCleabs":"IRIS____0000000774380102","communeCode":"77438","communeName":"Saint-Thibault-des-Vignes","irisCode":"0102","irisType":"A","officialAreaM2":1296851.6481323242,"labelLng":2.6705140543557717,"labelLat":48.85501226923355,"bbox":[2.66181981,48.84901935,2.68294442,48.86131175],"curationOperationId":"saint_thibault_des_vignes-774380102-rename-les-sablons","curationRevision":1,"curationEvidenceRefs":["ign-insee-contours-iris-2026","ign-geoplateforme-toponymy-2026","guide-alpha-editorial-recovery-2026-07-14"],"curationRationale":"The exact official IGN BD TOPO habitation toponym has a deterministic evidence point strictly inside this exact IRIS. The 1:1 label is emitted without nearest assignment, invented geometry, split or dropped source cell.","semanticLabelReviewed":true,"semanticLabelAccepted":false,"semanticResolution":"rename"},"geometry":{"type":"MultiPolygon","coordinates":[[[[2.67628373,48.85793392],[2.67732684,48.85697715],[2.67730173,48.85685118],[2.67750694,48.85672582],[2.67746922,48.85665468],[2.67764259,48.85660838],[2.67762692,48.85649862],[2.67777312,48.85643786],[2.67872494,48.85502667],[2.67729502,48.85485285],[2.67610965,48.85458345],[2.67582192,48.85439291],[2.67586742,48.85430849],[2.67569197,48.85425046],[2.67620718,48.85380309],[2.67686655,48.85383995],[2.67755564,48.85348028],[2.67790367,48.85339847],[2.67819439,48.85288574],[2.67947851,48.85149702],[2.68035626,48.85103082],[2.68131935,48.85064667],[2.68161893,48.85023737],[2.68222733,48.84991163],[2.68280784,48.84924137],[2.68294442,48.84919137],[2.68290829,48.84908156],[2.68285144,48.84901935],[2.68206605,48.84909641],[2.67326209,48.85011232],[2.6647475,48.85036486],[2.66257405,48.85013751],[2.66265939,48.85042824],[2.66302335,48.85083127],[2.66313051,48.85175159],[2.6630622,48.85198972],[2.66265563,48.85227186],[2.66343632,48.8535655],[2.66365048,48.85374687],[2.66259468,48.85389678],[2.66188172,48.85413849],[2.66181981,48.85548821],[2.66200935,48.85589254],[2.66328906,48.85631884],[2.66341235,48.8564334],[2.66341851,48.85864397],[2.66287884,48.85989881],[2.66397534,48.86106382],[2.66456463,48.86120397],[2.66547988,48.86131175],[2.66594931,48.86122673],[2.66669939,48.86116137],[2.67076142,48.86112225],[2.67143667,48.86103417],[2.67210563,48.86086154],[2.67267765,48.86093235],[2.67286325,48.86089599],[2.67302629,48.86076154],[2.67311667,48.8604776],[2.67369331,48.86024445],[2.67408721,48.86002788],[2.67427321,48.8601453],[2.67542315,48.85889926],[2.67602215,48.85791702],[2.67614919,48.8578706],[2.67628373,48.85793392]]]]}}]}
