{"type":"FeatureCollection","metadata":{"generatedAt":"2026-07-14T17:30:20.866Z","source":"IGN / INSEE - Contours IRIS WFS Géoplateforme","datasetId":"STATISTICALUNITS.IRIS:contours_iris","datasetUrl":"https://geoservices.ign.fr/contoursiris","sourceFileUrl":"https://data.geopf.fr/wfs/ows?SERVICE=WFS&VERSION=2.0.0&REQUEST=GetFeature&TYPENAMES=STATISTICALUNITS.IRIS%3Acontours_iris&OUTPUTFORMAT=application%2Fjson&COUNT=1000&CQL_FILTER=code_insee%3D%2737214%27&SRSNAME=EPSG%3A4326","license":"Licence Ouverte / Open Licence 2.0","sourceYear":"2026","communeCode":"37214","communeName":"Saint-Cyr-sur-Loire","featureCount":5,"parentCount":1,"parentContract":"technical commune group; not selectable and not displayed as a district","sourceFeatureCount":6,"humanLabelContract":"one visible plate per unique official human place name","groupingContract":"only exact source-ID groups approved by the resolved curation, or source zones sharing the same official name and parent, are merged","groupedZoneCount":1,"groupedSourceFeatureCount":2,"curationStatus":"resolved","curationRevision":1,"curationSources":[{"id":"ign-insee-contours-iris-2026","provider":"IGN / INSEE - Contours IRIS WFS Géoplateforme","datasetUrl":"https://geoservices.ign.fr/contoursiris","role":"official geometry, source identifiers and source labels","vintage":"2026","license":"Licence Ouverte / Open Licence 2.0"},{"id":"ign-geoplateforme-toponymy-2026","provider":"IGN Géoplateforme - reverse geocoding, addresses and named places","datasetUrl":"https://geoservices.ign.fr/geocodage-geoplateforme","role":"official address, street and named-place evidence","vintage":"2026","license":"Licence Ouverte / Open Licence 2.0"},{"id":"guide-alpha-editorial-recovery-2026-07-14","provider":"Meewav Guide Alpha editorial review","datasetUrl":"docs/geospatial/france-semantic-recovery.md","role":"versioned mapping of exact official IRIS identifiers to coherent human place names","vintage":"2026-07-14","license":"Project documentation"}],"sourceCorrections":[{"operationId":"saint_cyr_sur_loire-la-bechellerie-merge","type":"merge","sourceIds":["372140101","372140102"],"expectedLabels":["Ouest 1","Ouest 2"],"outputLabel":"La Béchellerie","evidenceRefs":["ign-insee-contours-iris-2026","ign-geoplateforme-toponymy-2026","guide-alpha-editorial-recovery-2026-07-14"],"rationale":"The exhaustive Ouest 1/Ouest 2 exact-ID family forms one connected official polygon graph. The final human label is the official IGN habitation toponym La Béchellerie, whose geometry has strictly contained vertices in both exact source IRIS; no directional-only label or unrelated cell remains."},{"operationId":"saint_cyr_sur_loire-372140103-rename-la-grenadiere","type":"rename","sourceIds":["372140103"],"expectedLabels":["Historique"],"outputLabel":"La Grenadière","evidenceRefs":["ign-insee-contours-iris-2026","ign-geoplateforme-toponymy-2026","guide-alpha-editorial-recovery-2026-07-14"],"rationale":"Official IGN BD TOPO evidence is strictly inside this exact IRIS. The human label is assigned 1:1 with no nearest-point inference and no invented geometry."},{"operationId":"saint_cyr_sur_loire-372140104-rename-la-mesangerie","type":"rename","sourceIds":["372140104"],"expectedLabels":["Collectif"],"outputLabel":"La Mésangerie","evidenceRefs":["ign-insee-contours-iris-2026","ign-geoplateforme-toponymy-2026","guide-alpha-editorial-recovery-2026-07-14"],"rationale":"Official IGN BD TOPO evidence is strictly inside this exact IRIS. The human label is assigned 1:1 with no nearest-point inference and no invented geometry."},{"operationId":"saint_cyr_sur_loire-372140106-rename-la-rabelais","type":"rename","sourceIds":["372140106"],"expectedLabels":["Économique"],"outputLabel":"La Rabelais","evidenceRefs":["ign-insee-contours-iris-2026","ign-geoplateforme-toponymy-2026","guide-alpha-editorial-recovery-2026-07-14"],"rationale":"Official IGN BD TOPO evidence is strictly inside this exact IRIS. The human label is assigned 1:1 with no nearest-point inference and no invented geometry."}],"bbox":[0.63036141,47.39160936,0.68041316,47.44604199],"areaStatsM2":{"minimum":423056.575302124,"average":2677270.1050933837,"maximum":5866822.191574097}},"features":[{"type":"Feature","id":"saint_cyr_sur_loire_37214_group_la_bechellerie","properties":{"zoneId":"saint_cyr_sur_loire_37214_group_la_bechellerie","label":"La Béchellerie","districtCode":"group:372140101+372140102","arrondissementCode":"37214","colorIndex":0,"parentZoneId":"saint_cyr_sur_loire_parent_37214_saint_cyr_sur_loire","parentCode":"37214","parentLabel":"Saint-Cyr-sur-Loire","territoryType":"quartier","source":"IGN / INSEE - Contours IRIS WFS Géoplateforme / regroupement déterministe par nom officiel","sourceYear":"2026","officialId":"iris-group:372140101+372140102","communeCode":"37214","communeName":"Saint-Cyr-sur-Loire","officialAreaM2":5866822.191574097,"labelLng":0.6494345943100063,"labelLat":47.415216949592605,"bbox":[0.63036141,47.39646702,0.66829415,47.43598147],"groupingRule":"curated-exact-source-id-group","sourceZoneCount":2,"sourceIrisIds":["372140101","372140102"],"sourceIrisLabels":["Ouest 1","Ouest 2"],"curationOperationId":"saint_cyr_sur_loire-la-bechellerie-merge","curationRevision":1,"curationEvidenceRefs":["ign-insee-contours-iris-2026","ign-geoplateforme-toponymy-2026","guide-alpha-editorial-recovery-2026-07-14"],"curationRationale":"The exhaustive Ouest 1/Ouest 2 exact-ID family forms one connected official polygon graph. The final human label is the official IGN habitation toponym La Béchellerie, whose geometry has strictly contained vertices in both exact source IRIS; no directional-only label or unrelated cell remains.","semanticLabelReviewed":true,"semanticLabelAccepted":false,"semanticResolution":"merge"},"geometry":{"type":"Polygon","coordinates":[[[0.63036141,47.42296574],[0.63038972,47.42283573],[0.63064813,47.4225438],[0.63073157,47.4222474],[0.63106349,47.42203351],[0.63138704,47.4214385],[0.63200209,47.42112321],[0.63225378,47.42086266],[0.6325212,47.42072671],[0.63301132,47.42071597],[0.63371795,47.42106087],[0.63433182,47.42083199],[0.63463262,47.42087143],[0.63501456,47.42078644],[0.63916884,47.41883819],[0.63976079,47.41844314],[0.63986501,47.41800486],[0.63954052,47.41790101],[0.63947326,47.41780148],[0.63962594,47.4173777],[0.63921301,47.41675151],[0.6389992,47.41678589],[0.63893942,47.4162155],[0.63843185,47.41520823],[0.63825646,47.41512362],[0.63782499,47.41524994],[0.63745835,47.41516955],[0.6369116,47.41466041],[0.63699526,47.41417759],[0.6365777,47.41380796],[0.63655248,47.41329681],[0.63670239,47.41299635],[0.63725428,47.41302738],[0.63728686,47.41207791],[0.6377635,47.4119498],[0.63784377,47.41169386],[0.6377593,47.41141296],[0.63741218,47.41119157],[0.63753694,47.41091942],[0.63733994,47.41057319],[0.63744272,47.41034832],[0.63724997,47.41029668],[0.63676743,47.40995725],[0.63687501,47.40923265],[0.63709872,47.40891298],[0.63750144,47.40874555],[0.63763176,47.40849783],[0.63777266,47.40843134],[0.63805837,47.40845066],[0.63829085,47.40811225],[0.6387734,47.40778883],[0.63928237,47.40758842],[0.63929848,47.40731316],[0.63959953,47.40722471],[0.63970686,47.40683603],[0.63960706,47.40657193],[0.64016685,47.40636175],[0.6407519,47.40654203],[0.64105196,47.40653641],[0.64123663,47.40640957],[0.64164547,47.40643407],[0.64182089,47.40627642],[0.64174281,47.40615146],[0.64181366,47.40589802],[0.64205433,47.40573449],[0.64348322,47.4058211],[0.64360526,47.40579115],[0.64365689,47.4056427],[0.64352356,47.40523563],[0.64398586,47.40503966],[0.64402224,47.40484586],[0.64440311,47.40457079],[0.64446775,47.40442801],[0.64489639,47.40418272],[0.64473077,47.40384614],[0.64514913,47.4038348],[0.64522816,47.40348517],[0.64628593,47.40326162],[0.64639064,47.4030521],[0.64617383,47.40279374],[0.64619742,47.40264923],[0.64766982,47.40258896],[0.64773611,47.40240838],[0.64805035,47.40244176],[0.64815184,47.40233574],[0.64811152,47.40207555],[0.6486893,47.40205842],[0.6486989,47.40174881],[0.64916172,47.40193288],[0.64935623,47.40194402],[0.64951664,47.4018554],[0.64935206,47.40149454],[0.64946206,47.40128512],[0.64942529,47.40109525],[0.64983098,47.40094855],[0.65024641,47.40045891],[0.65084146,47.40013772],[0.65166216,47.3989655],[0.65174973,47.39890423],[0.65226361,47.39898215],[0.65247841,47.39892345],[0.65244286,47.39867507],[0.65147424,47.39771438],[0.65146224,47.39756463],[0.65167813,47.39748074],[0.65166407,47.39737778],[0.65083587,47.39720885],[0.65105021,47.39703937],[0.65125037,47.39646702],[0.65608818,47.39711943],[0.65604777,47.39822545],[0.65630285,47.39961121],[0.65707187,47.40086233],[0.65703711,47.40092918],[0.65715532,47.40125938],[0.65894268,47.40060732],[0.66040797,47.39991814],[0.66171306,47.39973816],[0.66153021,47.40000736],[0.66138034,47.40049337],[0.66129543,47.40128419],[0.66101144,47.40171256],[0.66054166,47.40217322],[0.66048748,47.40229011],[0.66091035,47.40250936],[0.66090451,47.40258219],[0.66256323,47.40290284],[0.66687806,47.40385317],[0.66829415,47.40420309],[0.66688791,47.40575992],[0.66653049,47.40626068],[0.66629743,47.40667748],[0.66612091,47.4075322],[0.66603981,47.40845008],[0.66607399,47.40867051],[0.66737579,47.40975933],[0.66749055,47.4100183],[0.66761131,47.41007836],[0.66759527,47.4101726],[0.66746801,47.41020066],[0.66740885,47.41052369],[0.66721165,47.41301166],[0.66594395,47.41302675],[0.66424739,47.41289723],[0.66186792,47.41239461],[0.66107331,47.41497594],[0.6604674,47.41581661],[0.65987726,47.41614426],[0.65970581,47.41739623],[0.659637,47.41748311],[0.65926712,47.41762786],[0.65893593,47.41892165],[0.65841384,47.41887511],[0.65835625,47.41897842],[0.65827549,47.41900471],[0.65673849,47.41889361],[0.65668479,47.41881687],[0.65677648,47.41781276],[0.65635333,47.4177493],[0.6558467,47.41916923],[0.65590621,47.41926499],[0.6557842,47.41935439],[0.65484896,47.42177433],[0.65510631,47.42180654],[0.65545825,47.42176951],[0.65699851,47.42132233],[0.65846386,47.42110057],[0.65951482,47.42088757],[0.66113469,47.4206824],[0.66146501,47.42065392],[0.66162429,47.42068324],[0.65674581,47.42436933],[0.65551241,47.42535314],[0.65376999,47.42662566],[0.65366308,47.42667304],[0.65355315,47.42666812],[0.65309552,47.42705694],[0.65294949,47.42727014],[0.6507968,47.42890718],[0.65056867,47.42902506],[0.65031013,47.42904955],[0.65013495,47.42910996],[0.65003575,47.42922323],[0.65010168,47.42941458],[0.64998888,47.42965636],[0.64959499,47.42986185],[0.6480393,47.4310462],[0.6462123,47.43203051],[0.64413052,47.43322308],[0.64400163,47.43337717],[0.64403823,47.43348058],[0.64493524,47.43387789],[0.64502077,47.43407595],[0.64495754,47.43415572],[0.64392516,47.43366742],[0.64328684,47.43330326],[0.64269189,47.43288864],[0.64191053,47.43224689],[0.64149081,47.43312817],[0.64124496,47.43415976],[0.64123932,47.43464957],[0.64145808,47.43598147],[0.64009384,47.43549361],[0.63992381,47.43534606],[0.64001021,47.4344094],[0.63954292,47.43347772],[0.63937711,47.43290338],[0.63955651,47.43172364],[0.63889545,47.43016031],[0.63877756,47.43009488],[0.63877461,47.4297706],[0.63854533,47.42955251],[0.63820446,47.42945733],[0.63779391,47.42919683],[0.63703175,47.42827265],[0.63603201,47.42737967],[0.63556936,47.42724778],[0.6353659,47.4270167],[0.63504573,47.42666346],[0.63447963,47.42644031],[0.63423878,47.42600403],[0.63394791,47.42594948],[0.63389511,47.42561248],[0.63256643,47.42489829],[0.63227517,47.42443216],[0.63186568,47.4242392],[0.63152265,47.42431417],[0.6309742,47.42405264],[0.63070404,47.42316995],[0.6305904,47.42300913],[0.63036141,47.42296574]]]}},{"type":"Feature","id":"saint_cyr_sur_loire_372140103_historique","properties":{"zoneId":"saint_cyr_sur_loire_372140103_historique","label":"La Grenadière","districtCode":"372140103","arrondissementCode":"37214","colorIndex":1,"parentZoneId":"saint_cyr_sur_loire_parent_37214_saint_cyr_sur_loire","parentCode":"37214","parentLabel":"Saint-Cyr-sur-Loire","territoryType":"iris","source":"IGN / INSEE - Contours IRIS WFS Géoplateforme","sourceYear":"2026","officialId":"372140103","sourceCleabs":"IRIS____0000000372140103","communeCode":"37214","communeName":"Saint-Cyr-sur-Loire","irisCode":"0103","irisType":"H","officialAreaM2":1647199.1000976562,"labelLng":0.6642004492301248,"labelLat":47.39934807167139,"bbox":[0.64584743,47.39160936,0.68041316,47.40843057],"curationOperationId":"saint_cyr_sur_loire-372140103-rename-la-grenadiere","curationRevision":1,"curationEvidenceRefs":["ign-insee-contours-iris-2026","ign-geoplateforme-toponymy-2026","guide-alpha-editorial-recovery-2026-07-14"],"curationRationale":"Official IGN BD TOPO evidence is strictly inside this exact IRIS. The human label is assigned 1:1 with no nearest-point inference and no invented geometry.","semanticLabelReviewed":true,"semanticLabelAccepted":false,"semanticResolution":"rename"},"geometry":{"type":"MultiPolygon","coordinates":[[[[0.67928303,47.40754257],[0.67910658,47.40735893],[0.67913199,47.40677225],[0.67943573,47.40603803],[0.67875689,47.40290575],[0.6799092,47.402854],[0.6798467,47.40245919],[0.67994775,47.4015345],[0.68041316,47.4004964],[0.67862317,47.40041925],[0.67520517,47.39965029],[0.669359,47.39786625],[0.66381024,47.3970272],[0.66418281,47.39541721],[0.65780926,47.39394438],[0.64852908,47.39174239],[0.64796331,47.39160936],[0.64702754,47.3933493],[0.64681988,47.39403136],[0.64621296,47.39477468],[0.64594143,47.39527982],[0.64621248,47.39584278],[0.64584743,47.39636315],[0.64641446,47.39701225],[0.64709921,47.39712518],[0.64761765,47.39709875],[0.6492511,47.39732452],[0.65040843,47.3970354],[0.65083587,47.39720885],[0.65105021,47.39703937],[0.65125037,47.39646702],[0.65608818,47.39711943],[0.65604777,47.39822545],[0.65630285,47.39961121],[0.65707187,47.40086233],[0.65703711,47.40092918],[0.65715532,47.40125938],[0.65894268,47.40060732],[0.66040797,47.39991814],[0.66171306,47.39973816],[0.66153021,47.40000736],[0.66138034,47.40049337],[0.66129543,47.40128419],[0.66101144,47.40171256],[0.66054166,47.40217322],[0.66048748,47.40229011],[0.66091035,47.40250936],[0.66090451,47.40258219],[0.66256323,47.40290284],[0.66687806,47.40385317],[0.66829415,47.40420309],[0.67262271,47.40514717],[0.67231162,47.40565158],[0.67280826,47.40560928],[0.67422799,47.40535761],[0.67537594,47.40534634],[0.67590738,47.40541911],[0.67622201,47.40550555],[0.67623231,47.40615508],[0.6768938,47.40843057],[0.67913372,47.40752878],[0.67918557,47.40755683],[0.67928303,47.40754257]]]]}},{"type":"Feature","id":"saint_cyr_sur_loire_372140104_collectif","properties":{"zoneId":"saint_cyr_sur_loire_372140104_collectif","label":"La Mésangerie","districtCode":"372140104","arrondissementCode":"37214","colorIndex":2,"parentZoneId":"saint_cyr_sur_loire_parent_37214_saint_cyr_sur_loire","parentCode":"37214","parentLabel":"Saint-Cyr-sur-Loire","territoryType":"iris","source":"IGN / INSEE - Contours IRIS WFS Géoplateforme","sourceYear":"2026","officialId":"372140104","sourceCleabs":"IRIS____0000000372140104","communeCode":"37214","communeName":"Saint-Cyr-sur-Loire","irisCode":"0104","irisType":"H","officialAreaM2":423056.575302124,"labelLng":0.6712458290734332,"labelLat":47.40758721532035,"bbox":[0.66603981,47.40420309,0.6768938,47.41058752],"curationOperationId":"saint_cyr_sur_loire-372140104-rename-la-mesangerie","curationRevision":1,"curationEvidenceRefs":["ign-insee-contours-iris-2026","ign-geoplateforme-toponymy-2026","guide-alpha-editorial-recovery-2026-07-14"],"curationRationale":"Official IGN BD TOPO evidence is strictly inside this exact IRIS. The human label is assigned 1:1 with no nearest-point inference and no invented geometry.","semanticLabelReviewed":true,"semanticLabelAccepted":false,"semanticResolution":"rename"},"geometry":{"type":"MultiPolygon","coordinates":[[[[0.66829415,47.40420309],[0.66688791,47.40575992],[0.66653049,47.40626068],[0.66629743,47.40667748],[0.66612091,47.4075322],[0.66603981,47.40845008],[0.66607399,47.40867051],[0.66737579,47.40975933],[0.66749055,47.4100183],[0.66761131,47.41007836],[0.66759527,47.4101726],[0.66911937,47.41023918],[0.67374229,47.41058752],[0.67403338,47.41033037],[0.67663614,47.40865147],[0.67679088,47.40844833],[0.6768938,47.40843057],[0.67623231,47.40615508],[0.67622201,47.40550555],[0.67590738,47.40541911],[0.67537594,47.40534634],[0.67422799,47.40535761],[0.67280826,47.40560928],[0.67231162,47.40565158],[0.67262271,47.40514717],[0.66829415,47.40420309]]]]}},{"type":"Feature","id":"saint_cyr_sur_loire_372140105_de_gaulle_menardiere","properties":{"zoneId":"saint_cyr_sur_loire_372140105_de_gaulle_menardiere","label":"de Gaulle-Ménardière","districtCode":"372140105","arrondissementCode":"37214","colorIndex":3,"parentZoneId":"saint_cyr_sur_loire_parent_37214_saint_cyr_sur_loire","parentCode":"37214","parentLabel":"Saint-Cyr-sur-Loire","territoryType":"iris","source":"IGN / INSEE - Contours IRIS WFS Géoplateforme","sourceYear":"2026","officialId":"372140105","sourceCleabs":"IRIS____0000000372140105","communeCode":"37214","communeName":"Saint-Cyr-sur-Loire","irisCode":"0105","irisType":"H","officialAreaM2":1464769.0922698975,"labelLng":0.6710470664710313,"labelLat":47.41812923724445,"bbox":[0.66322995,47.40752878,0.67946494,47.42967619]},"geometry":{"type":"MultiPolygon","coordinates":[[[[0.67259313,47.42806558],[0.67259155,47.42452807],[0.6730215,47.42238968],[0.67377622,47.41943285],[0.67440181,47.41844031],[0.67622816,47.4181517],[0.67650204,47.4180473],[0.67683333,47.41744513],[0.67757892,47.41683501],[0.6781832,47.41575017],[0.67819506,47.41547662],[0.6776733,47.41542298],[0.67765131,47.41473629],[0.67789938,47.41271673],[0.67815315,47.41200403],[0.67732249,47.41188478],[0.67844025,47.41092006],[0.67906975,47.41007797],[0.67904939,47.40993527],[0.67946494,47.40974453],[0.67928303,47.40754257],[0.67918557,47.40755683],[0.67913372,47.40752878],[0.6768938,47.40843057],[0.67679088,47.40844833],[0.67663614,47.40865147],[0.67403338,47.41033037],[0.67374229,47.41058752],[0.66911937,47.41023918],[0.66759527,47.4101726],[0.66746801,47.41020066],[0.66740885,47.41052369],[0.66721165,47.41301166],[0.66717742,47.41355403],[0.66691874,47.41480246],[0.66674238,47.4161408],[0.66656378,47.41646413],[0.66658359,47.41658791],[0.66672421,47.41667989],[0.66677995,47.41677107],[0.66672584,47.41691678],[0.66664414,47.41699529],[0.66649881,47.41704191],[0.66624457,47.41727366],[0.66336818,47.41945927],[0.66322995,47.4196168],[0.66329115,47.41982606],[0.66396956,47.41993965],[0.66536518,47.41967228],[0.66540759,47.41973438],[0.66523675,47.41978768],[0.66521904,47.41982875],[0.66503435,47.42083911],[0.66547429,47.42274097],[0.66491118,47.42345194],[0.66448723,47.42419721],[0.66443381,47.42444831],[0.66451765,47.42493],[0.66471223,47.42530675],[0.66630706,47.42647079],[0.66647411,47.42668758],[0.66671909,47.42746159],[0.66735202,47.42846943],[0.6675304,47.42967619],[0.66881789,47.42933726],[0.66938136,47.42910629],[0.67072799,47.42844432],[0.67259313,47.42806558]]]]}},{"type":"Feature","id":"saint_cyr_sur_loire_372140106_economique","properties":{"zoneId":"saint_cyr_sur_loire_372140106_economique","label":"La Rabelais","districtCode":"372140106","arrondissementCode":"37214","colorIndex":4,"parentZoneId":"saint_cyr_sur_loire_parent_37214_saint_cyr_sur_loire","parentCode":"37214","parentLabel":"Saint-Cyr-sur-Loire","territoryType":"iris","source":"IGN / INSEE - Contours IRIS WFS Géoplateforme","sourceYear":"2026","officialId":"372140106","sourceCleabs":"IRIS____0000000372140106","communeCode":"37214","communeName":"Saint-Cyr-sur-Loire","irisCode":"0106","irisType":"A","officialAreaM2":3984503.5662231445,"labelLng":0.6613542473151599,"labelLat":47.43167547906316,"bbox":[0.64123932,47.41239461,0.67584024,47.44604199],"curationOperationId":"saint_cyr_sur_loire-372140106-rename-la-rabelais","curationRevision":1,"curationEvidenceRefs":["ign-insee-contours-iris-2026","ign-geoplateforme-toponymy-2026","guide-alpha-editorial-recovery-2026-07-14"],"curationRationale":"Official IGN BD TOPO evidence is strictly inside this exact IRIS. The human label is assigned 1:1 with no nearest-point inference and no invented geometry.","semanticLabelReviewed":true,"semanticLabelAccepted":false,"semanticResolution":"rename"},"geometry":{"type":"MultiPolygon","coordinates":[[[[0.64145808,47.43598147],[0.64158811,47.43604265],[0.64207113,47.43577415],[0.64227481,47.43542885],[0.64202271,47.43494463],[0.6425336,47.43485682],[0.64288403,47.43470542],[0.64313951,47.43511316],[0.64409715,47.43497765],[0.64479435,47.43508993],[0.64692073,47.43608578],[0.64876354,47.43758649],[0.6486168,47.43787531],[0.64871844,47.43803947],[0.64983779,47.43878706],[0.65010989,47.4391807],[0.65160046,47.43996999],[0.65193837,47.44055859],[0.65212251,47.44059743],[0.6522038,47.44059006],[0.65247326,47.44086297],[0.65280486,47.44095972],[0.65317804,47.4408952],[0.65333384,47.44073263],[0.65380935,47.4405441],[0.65548919,47.44046899],[0.6575952,47.44102924],[0.65819326,47.44086116],[0.65951338,47.44108945],[0.66057339,47.44073883],[0.66136877,47.44021627],[0.66179115,47.44021035],[0.66215626,47.4400871],[0.66259485,47.44013554],[0.66268002,47.4402219],[0.66383144,47.44011805],[0.66393824,47.44025618],[0.66458232,47.44031054],[0.66508109,47.4405619],[0.66528112,47.44057132],[0.66589697,47.44081692],[0.66985682,47.44319366],[0.67045861,47.44300038],[0.67120881,47.4433324],[0.67172279,47.44341833],[0.67262657,47.44382096],[0.67340158,47.44434618],[0.67380912,47.44449932],[0.67387772,47.44472313],[0.67440972,47.44518946],[0.67496288,47.44547429],[0.6752359,47.44597415],[0.67556617,47.44604199],[0.6755932,47.44364521],[0.67584024,47.44134827],[0.67574619,47.44057911],[0.67512646,47.43809825],[0.67501392,47.43552305],[0.67433183,47.43374699],[0.6737386,47.43270667],[0.67300684,47.43070085],[0.67287623,47.43031639],[0.67259313,47.42806558],[0.67072799,47.42844432],[0.66938136,47.42910629],[0.66881789,47.42933726],[0.6675304,47.42967619],[0.66735202,47.42846943],[0.66671909,47.42746159],[0.66647411,47.42668758],[0.66630706,47.42647079],[0.66471223,47.42530675],[0.66451765,47.42493],[0.66443381,47.42444831],[0.66448723,47.42419721],[0.66491118,47.42345194],[0.66547429,47.42274097],[0.66503435,47.42083911],[0.66521904,47.41982875],[0.66523675,47.41978768],[0.66540759,47.41973438],[0.66536518,47.41967228],[0.66396956,47.41993965],[0.66329115,47.41982606],[0.66322995,47.4196168],[0.66336818,47.41945927],[0.66624457,47.41727366],[0.66649881,47.41704191],[0.66664414,47.41699529],[0.66672584,47.41691678],[0.66677995,47.41677107],[0.66672421,47.41667989],[0.66658359,47.41658791],[0.66656378,47.41646413],[0.66674238,47.4161408],[0.66691874,47.41480246],[0.66717742,47.41355403],[0.66721165,47.41301166],[0.66594395,47.41302675],[0.66424739,47.41289723],[0.66186792,47.41239461],[0.66107331,47.41497594],[0.6604674,47.41581661],[0.65987726,47.41614426],[0.65970581,47.41739623],[0.659637,47.41748311],[0.65926712,47.41762786],[0.65893593,47.41892165],[0.65841384,47.41887511],[0.65835625,47.41897842],[0.65827549,47.41900471],[0.65673849,47.41889361],[0.65668479,47.41881687],[0.65677648,47.41781276],[0.65635333,47.4177493],[0.6558467,47.41916923],[0.65590621,47.41926499],[0.6557842,47.41935439],[0.65484896,47.42177433],[0.65510631,47.42180654],[0.65545825,47.42176951],[0.65699851,47.42132233],[0.65846386,47.42110057],[0.65951482,47.42088757],[0.66113469,47.4206824],[0.66146501,47.42065392],[0.66162429,47.42068324],[0.65674581,47.42436933],[0.65551241,47.42535314],[0.65376999,47.42662566],[0.65366308,47.42667304],[0.65355315,47.42666812],[0.65309552,47.42705694],[0.65294949,47.42727014],[0.6507968,47.42890718],[0.65056867,47.42902506],[0.65031013,47.42904955],[0.65013495,47.42910996],[0.65003575,47.42922323],[0.65010168,47.42941458],[0.64998888,47.42965636],[0.64959499,47.42986185],[0.6480393,47.4310462],[0.6462123,47.43203051],[0.64413052,47.43322308],[0.64400163,47.43337717],[0.64403823,47.43348058],[0.64493524,47.43387789],[0.64502077,47.43407595],[0.64495754,47.43415572],[0.64392516,47.43366742],[0.64328684,47.43330326],[0.64269189,47.43288864],[0.64191053,47.43224689],[0.64149081,47.43312817],[0.64124496,47.43415976],[0.64123932,47.43464957],[0.64145808,47.43598147]]]]}}]}
