{"type":"FeatureCollection","metadata":{"generatedAt":"2026-07-14T18:56:03.503Z","source":"IGN / INSEE - Contours IRIS WFS Géoplateforme","datasetId":"STATISTICALUNITS.IRIS:contours_iris","datasetUrl":"https://geoservices.ign.fr/contoursiris","sourceFileUrl":"https://data.geopf.fr/wfs/ows?SERVICE=WFS&VERSION=2.0.0&REQUEST=GetFeature&TYPENAMES=STATISTICALUNITS.IRIS%3Acontours_iris&OUTPUTFORMAT=application%2Fjson&COUNT=1000&CQL_FILTER=code_insee%3D%2762767%27&SRSNAME=EPSG%3A4326","license":"Licence Ouverte / Open Licence 2.0","sourceYear":"2026","communeCode":"62767","communeName":"Saint-Pol-sur-Ternoise","featureCount":2,"parentCount":1,"parentContract":"technical commune group; not selectable and not displayed as a district","sourceFeatureCount":2,"humanLabelContract":"one visible plate per unique official human place name","groupingContract":"only exact source-ID groups approved by the resolved curation, or source zones sharing the same official name and parent, are merged","groupedZoneCount":0,"groupedSourceFeatureCount":0,"curationStatus":"resolved","curationRevision":1,"curationSources":[{"id":"ign-insee-contours-iris-2026","provider":"IGN / INSEE - Contours IRIS WFS Géoplateforme","datasetUrl":"https://geoservices.ign.fr/contoursiris","role":"official geometry, source identifiers and source labels","vintage":"2026","license":"Licence Ouverte / Open Licence 2.0"},{"id":"ign-geoplateforme-toponymy-2026","provider":"IGN Géoplateforme - reverse geocoding, addresses and named places","datasetUrl":"https://geoservices.ign.fr/geocodage-geoplateforme","role":"official address, street and named-place evidence","vintage":"2026","license":"Licence Ouverte / Open Licence 2.0"},{"id":"guide-alpha-editorial-recovery-2026-07-14","provider":"Meewav Guide Alpha editorial review","datasetUrl":"docs/geospatial/france-semantic-recovery.md","role":"versioned mapping of exact official IRIS identifiers to coherent human place names","vintage":"2026-07-14","license":"Project documentation"}],"sourceCorrections":[{"operationId":"saint_pol_sur_ternoise-627670101-rename-route-d-ostreville","type":"rename","sourceIds":["627670101"],"expectedLabels":["Nord"],"outputLabel":"Route d'Ostreville","evidenceRefs":["ign-insee-contours-iris-2026","ign-geoplateforme-toponymy-2026","guide-alpha-editorial-recovery-2026-07-14"],"rationale":"The exact official IGN BD TOPO named road has a deterministic evidence point strictly inside this exact IRIS. The 1:1 label is emitted without nearest assignment, invented geometry, split or dropped source cell."},{"operationId":"saint_pol_sur_ternoise-627670102-rename-rue-de-canteraine","type":"rename","sourceIds":["627670102"],"expectedLabels":["Sud"],"outputLabel":"Rue de Canteraine","evidenceRefs":["ign-insee-contours-iris-2026","ign-geoplateforme-toponymy-2026","guide-alpha-editorial-recovery-2026-07-14"],"rationale":"The exact official IGN BD TOPO named road has a deterministic evidence point strictly inside this exact IRIS. The 1:1 label is emitted without nearest assignment, invented geometry, split or dropped source cell."}],"bbox":[2.3212109,50.36516999,2.38224987,50.40998446],"areaStatsM2":{"minimum":1395630.8527832031,"average":4080441.2446289062,"maximum":6765251.636474609}},"features":[{"type":"Feature","id":"saint_pol_sur_ternoise_627670101_nord","properties":{"zoneId":"saint_pol_sur_ternoise_627670101_nord","label":"Route d'Ostreville","districtCode":"627670101","arrondissementCode":"62767","colorIndex":0,"parentZoneId":"saint_pol_sur_ternoise_parent_62767_saint_pol_sur_ternoise","parentCode":"62767","parentLabel":"Saint-Pol-sur-Ternoise","territoryType":"iris","source":"IGN / INSEE - Contours IRIS WFS Géoplateforme","sourceYear":"2026","officialId":"627670101","sourceCleabs":"IRIS____0000000627670101","communeCode":"62767","communeName":"Saint-Pol-sur-Ternoise","irisCode":"0101","irisType":"H","officialAreaM2":6765251.636474609,"labelLng":2.353917340389816,"labelLat":50.39153726768806,"bbox":[2.32136001,50.37701307,2.38224987,50.40998446],"curationOperationId":"saint_pol_sur_ternoise-627670101-rename-route-d-ostreville","curationRevision":1,"curationEvidenceRefs":["ign-insee-contours-iris-2026","ign-geoplateforme-toponymy-2026","guide-alpha-editorial-recovery-2026-07-14"],"curationRationale":"The exact official IGN BD TOPO named road has a deterministic evidence point strictly inside this exact IRIS. The 1:1 label is emitted without nearest assignment, invented geometry, split or dropped source cell.","semanticLabelReviewed":true,"semanticLabelAccepted":false,"semanticResolution":"rename"},"geometry":{"type":"MultiPolygon","coordinates":[[[[2.37960113,50.39581587],[2.38189035,50.3936395],[2.38060458,50.39312851],[2.38224987,50.3912299],[2.38181218,50.39096287],[2.38094931,50.39101331],[2.37837032,50.39140974],[2.37785684,50.39125453],[2.37808192,50.39145138],[2.37760094,50.39150821],[2.37663232,50.39147819],[2.37517153,50.39127419],[2.3752951,50.39082145],[2.37358767,50.39001199],[2.37368581,50.38979882],[2.37347601,50.38984354],[2.37277447,50.38979509],[2.37259112,50.39019816],[2.37245714,50.39024416],[2.37159428,50.38984296],[2.37062904,50.38976981],[2.37027941,50.38954179],[2.37016045,50.38928442],[2.37030752,50.38897724],[2.37104297,50.38934638],[2.37202591,50.38822109],[2.3717478,50.38811373],[2.3708078,50.38872302],[2.36958629,50.38825803],[2.37017234,50.3875437],[2.36917418,50.3867378],[2.36939242,50.3860162],[2.36883285,50.38562371],[2.36819738,50.38534933],[2.36957737,50.38436165],[2.36901869,50.38412358],[2.36776857,50.38393494],[2.36669193,50.38312591],[2.36546672,50.38263392],[2.36429923,50.38157392],[2.36470685,50.38142699],[2.3637166,50.38078985],[2.36247846,50.38021697],[2.36049041,50.37965904],[2.35900494,50.3787769],[2.35844323,50.37867612],[2.35814041,50.3785309],[2.35767363,50.37858324],[2.35680671,50.37852486],[2.35691134,50.37846705],[2.35679341,50.3783569],[2.35628151,50.37842426],[2.35675643,50.37916561],[2.35862242,50.38026433],[2.35803808,50.38050639],[2.35518783,50.37897249],[2.35447118,50.37869133],[2.35399962,50.37889715],[2.35349401,50.37934968],[2.35328638,50.37966551],[2.35332069,50.37983717],[2.35267208,50.38005283],[2.35233101,50.37960664],[2.35067589,50.38035567],[2.34985487,50.38098339],[2.34857402,50.38133845],[2.34886577,50.38201422],[2.34491216,50.38112875],[2.34464557,50.3805743],[2.34441078,50.38059909],[2.34435862,50.38039861],[2.34428551,50.3804063],[2.34435226,50.38023966],[2.34449153,50.38021886],[2.34444716,50.38006779],[2.34468341,50.38003852],[2.34443194,50.37940156],[2.3445004,50.37899522],[2.34370914,50.37905746],[2.34348886,50.37872231],[2.34336708,50.37815426],[2.33634293,50.37944543],[2.33529809,50.37967862],[2.33267025,50.38017439],[2.33102367,50.38014932],[2.33035075,50.38007295],[2.32987467,50.3799761],[2.32738448,50.37919765],[2.32584846,50.37867574],[2.32143001,50.37701307],[2.32136001,50.37710337],[2.32307526,50.37775829],[2.32333684,50.37803984],[2.32366115,50.37814486],[2.32398182,50.37810262],[2.32430012,50.37823724],[2.32477563,50.37858459],[2.32482848,50.37872763],[2.3261392,50.37950868],[2.32775366,50.38089019],[2.32797171,50.3809641],[2.32856393,50.38088024],[2.32871059,50.38093759],[2.32905405,50.38140002],[2.32984995,50.38215579],[2.3299696,50.38255595],[2.32990458,50.38301167],[2.33005628,50.38374778],[2.33001353,50.38400701],[2.32968686,50.38449901],[2.32924582,50.38493204],[2.33068241,50.38587442],[2.33215375,50.38716621],[2.33069578,50.38857321],[2.3327092,50.38944418],[2.33326656,50.38977397],[2.33059747,50.39132705],[2.3300368,50.39177649],[2.3296632,50.39209676],[2.33037543,50.39229185],[2.33038718,50.39235924],[2.32958602,50.39283251],[2.32966216,50.39302146],[2.33035375,50.39371469],[2.33056093,50.39365926],[2.3313728,50.39492143],[2.33144971,50.39526479],[2.3325351,50.39687676],[2.33440055,50.39685451],[2.33459614,50.39469554],[2.33476632,50.39446393],[2.33961637,50.39484817],[2.33988811,50.39447346],[2.34091262,50.39560383],[2.34188257,50.39510535],[2.34153147,50.39456662],[2.34174283,50.39429752],[2.34237323,50.39388072],[2.34339322,50.39341841],[2.34361231,50.39341778],[2.34471897,50.39417508],[2.34522351,50.39436449],[2.34685946,50.39524758],[2.34899621,50.39432967],[2.34987203,50.39535235],[2.35085001,50.39629745],[2.35097531,50.39660156],[2.35158247,50.39678699],[2.35361226,50.39774926],[2.35396527,50.39760207],[2.35546651,50.39728582],[2.35719004,50.39671754],[2.36134636,50.40189762],[2.36262329,50.4021098],[2.36173348,50.40238531],[2.36146997,50.4025635],[2.36065276,50.40287259],[2.35751286,50.4035745],[2.35672518,50.40398876],[2.35537329,50.40425463],[2.35438569,50.40426294],[2.35363453,50.40412614],[2.35252364,50.4034524],[2.35123652,50.40315926],[2.34989008,50.40311089],[2.34857955,50.40354478],[2.34831551,50.40365022],[2.34625649,50.40504253],[2.34607743,50.40541864],[2.34606652,50.40582706],[2.34561497,50.4076085],[2.34456565,50.40857789],[2.34502448,50.4092689],[2.34714104,50.40996059],[2.34841222,50.40954177],[2.35228005,50.40776571],[2.35496649,50.40882654],[2.35613879,50.40998446],[2.35737764,50.40934005],[2.35811683,50.40854759],[2.35863385,50.40821182],[2.3594013,50.40795635],[2.36095162,50.40777945],[2.3609379,50.40742117],[2.36179813,50.40704767],[2.36225429,50.40674479],[2.36254819,50.40638721],[2.36294256,50.40619353],[2.36525883,50.40676385],[2.36484398,50.40624102],[2.36480803,50.40597241],[2.36492858,50.40576924],[2.36431132,50.40537016],[2.36430534,50.40517532],[2.36600107,50.40437336],[2.36738503,50.40513098],[2.36841996,50.4044845],[2.36971656,50.40526678],[2.37052854,50.40447372],[2.36987001,50.40411485],[2.36954108,50.40379627],[2.37023472,50.40291731],[2.37034796,50.40205964],[2.3704088,50.40213716],[2.37051457,50.40210268],[2.3745056,50.39923039],[2.37224713,50.39877544],[2.37215792,50.39849488],[2.37144521,50.39854423],[2.3705294,50.39809876],[2.37136911,50.39721156],[2.37214745,50.39820755],[2.37258715,50.39808769],[2.37416576,50.39831924],[2.37504345,50.39798971],[2.37632771,50.39794683],[2.37632737,50.39751949],[2.37665333,50.39671405],[2.3763024,50.39647168],[2.37604978,50.39588865],[2.37480139,50.39508064],[2.37609441,50.39432318],[2.37960113,50.39581587]]]]}},{"type":"Feature","id":"saint_pol_sur_ternoise_627670102_sud","properties":{"zoneId":"saint_pol_sur_ternoise_627670102_sud","label":"Rue de Canteraine","districtCode":"627670102","arrondissementCode":"62767","colorIndex":1,"parentZoneId":"saint_pol_sur_ternoise_parent_62767_saint_pol_sur_ternoise","parentCode":"62767","parentLabel":"Saint-Pol-sur-Ternoise","territoryType":"iris","source":"IGN / INSEE - Contours IRIS WFS Géoplateforme","sourceYear":"2026","officialId":"627670102","sourceCleabs":"IRIS____0000000627670102","communeCode":"62767","communeName":"Saint-Pol-sur-Ternoise","irisCode":"0102","irisType":"H","officialAreaM2":1395630.8527832031,"labelLng":2.331190732280706,"labelLat":50.373814845344484,"bbox":[2.3212109,50.36516999,2.34336708,50.38017439],"curationOperationId":"saint_pol_sur_ternoise-627670102-rename-rue-de-canteraine","curationRevision":1,"curationEvidenceRefs":["ign-insee-contours-iris-2026","ign-geoplateforme-toponymy-2026","guide-alpha-editorial-recovery-2026-07-14"],"curationRationale":"The exact official IGN BD TOPO named road has a deterministic evidence point strictly inside this exact IRIS. The 1:1 label is emitted without nearest assignment, invented geometry, split or dropped source cell.","semanticLabelReviewed":true,"semanticLabelAccepted":false,"semanticResolution":"rename"},"geometry":{"type":"MultiPolygon","coordinates":[[[[2.34336708,50.37815426],[2.34312359,50.37701367],[2.34031612,50.37762806],[2.33925588,50.37636099],[2.33897036,50.37575705],[2.33744475,50.37358519],[2.33599483,50.37185813],[2.33622146,50.37181087],[2.33613375,50.37154195],[2.33663492,50.37154016],[2.33683256,50.36728655],[2.333731,50.36703373],[2.33125612,50.36652117],[2.33080073,50.36561372],[2.33116856,50.36550169],[2.33092732,50.36516999],[2.33053227,50.36521813],[2.32707867,50.36579908],[2.32764634,50.36712464],[2.32611167,50.36726441],[2.32651772,50.36807734],[2.32764033,50.37147714],[2.32592085,50.37209622],[2.32197434,50.37275604],[2.32156156,50.37338761],[2.32189281,50.37360041],[2.3212109,50.37482754],[2.3213316,50.37514333],[2.32223127,50.37557742],[2.32155899,50.37608636],[2.32258495,50.37673661],[2.3222329,50.37702556],[2.32156525,50.37676962],[2.32143001,50.37701307],[2.32584846,50.37867574],[2.32738448,50.37919765],[2.32987467,50.3799761],[2.33035075,50.38007295],[2.33102367,50.38014932],[2.33267025,50.38017439],[2.33529809,50.37967862],[2.33634293,50.37944543],[2.34336708,50.37815426]]]]}}]}
