{"type":"FeatureCollection","metadata":{"generatedAt":"2026-07-14T18:44:59.074Z","source":"IGN / INSEE - Contours IRIS WFS Géoplateforme","datasetId":"STATISTICALUNITS.IRIS:contours_iris","datasetUrl":"https://geoservices.ign.fr/contoursiris","sourceFileUrl":"https://data.geopf.fr/wfs/ows?SERVICE=WFS&VERSION=2.0.0&REQUEST=GetFeature&TYPENAMES=STATISTICALUNITS.IRIS%3Acontours_iris&OUTPUTFORMAT=application%2Fjson&COUNT=1000&CQL_FILTER=code_insee%3D%2744188%27&SRSNAME=EPSG%3A4326","license":"Licence Ouverte / Open Licence 2.0","sourceYear":"2026","communeCode":"44188","communeName":"Saint-Philbert-de-Grand-Lieu","featureCount":3,"parentCount":1,"parentContract":"technical commune group; not selectable and not displayed as a district","bbox":[-1.73029145,47.00265946,-1.55826199,47.13509047],"areaStatsM2":{"minimum":5277681.601135254,"average":32421106.5359904,"maximum":60444899.93078613}},"features":[{"type":"Feature","id":"saint_philbert_de_grand_lieu_441880101_nord_boulogne_nord_bourg","properties":{"zoneId":"saint_philbert_de_grand_lieu_441880101_nord_boulogne_nord_bourg","label":"Nord Boulogne-Nord Bourg","districtCode":"441880101","arrondissementCode":"44188","colorIndex":0,"parentZoneId":"saint_philbert_de_grand_lieu_parent_44188_saint_philbert_de_grand_lieu","parentCode":"44188","parentLabel":"Saint-Philbert-de-Grand-Lieu","territoryType":"iris","source":"IGN / INSEE - Contours IRIS WFS Géoplateforme","sourceYear":"2026","officialId":"441880101","sourceCleabs":"IRIS____0000000441880101","communeCode":"44188","communeName":"Saint-Philbert-de-Grand-Lieu","irisCode":"0101","irisType":"H","officialAreaM2":60444899.93078613,"labelLng":-1.6582318300307555,"labelLat":47.081004792068725,"bbox":[-1.73029145,47.03614552,-1.55826199,47.13509047]},"geometry":{"type":"MultiPolygon","coordinates":[[[[-1.64210451,47.10223856],[-1.63920902,47.10065577],[-1.63883437,47.1000323],[-1.63960852,47.09971261],[-1.63990435,47.0992525],[-1.63994066,47.0988461],[-1.63965025,47.09849522],[-1.63834155,47.09772979],[-1.63831461,47.09737103],[-1.63862708,47.09713481],[-1.63876528,47.09691462],[-1.63873547,47.09673725],[-1.64007201,47.09623173],[-1.64055803,47.09587941],[-1.64069359,47.09561332],[-1.64074582,47.09456416],[-1.63875192,47.09438272],[-1.63740963,47.09406956],[-1.63699919,47.09385787],[-1.63626222,47.09370348],[-1.63699444,47.09291291],[-1.63769797,47.09261771],[-1.63813188,47.09224314],[-1.63815783,47.09170098],[-1.63784441,47.09103626],[-1.63741735,47.09060068],[-1.63680823,47.09039696],[-1.63646238,47.09018358],[-1.63613229,47.08929406],[-1.6356356,47.08881617],[-1.63412199,47.08796784],[-1.632967,47.08751185],[-1.6324845,47.08721375],[-1.63238787,47.08681178],[-1.63250926,47.08667254],[-1.63369663,47.0866763],[-1.63389154,47.08662429],[-1.63393685,47.08635282],[-1.63436679,47.08593243],[-1.63546809,47.08571867],[-1.63619981,47.08510759],[-1.63718072,47.08501409],[-1.63808965,47.08501997],[-1.64090349,47.08473015],[-1.6410401,47.08462996],[-1.64128551,47.08376964],[-1.64249014,47.08345335],[-1.64376679,47.08383492],[-1.64529839,47.08473831],[-1.64679582,47.08492337],[-1.64883074,47.08472693],[-1.649414,47.08455463],[-1.65053992,47.08329627],[-1.65138256,47.08079118],[-1.65173715,47.08064702],[-1.65100481,47.07944366],[-1.64728366,47.07570099],[-1.6466376,47.07488374],[-1.64557358,47.07399582],[-1.64176698,47.07378819],[-1.6400796,47.07424473],[-1.63920878,47.07403532],[-1.63856849,47.07378958],[-1.63744597,47.07304825],[-1.63704132,47.07314747],[-1.63661084,47.07313049],[-1.63597112,47.07275305],[-1.63553192,47.07237386],[-1.63436901,47.07232856],[-1.63148449,47.07174266],[-1.62939095,47.07151279],[-1.62856416,47.07135384],[-1.62764263,47.07095248],[-1.62382656,47.07021525],[-1.62305995,47.06997269],[-1.62252386,47.06973983],[-1.62167893,47.06910718],[-1.62083487,47.06914638],[-1.61890787,47.06944085],[-1.61778412,47.06938931],[-1.61698176,47.06923742],[-1.61389044,47.06754197],[-1.6128307,47.06658777],[-1.61272535,47.06605087],[-1.61235039,47.06543275],[-1.61199212,47.06504032],[-1.61151492,47.06483122],[-1.61064428,47.06463603],[-1.60966751,47.0648049],[-1.60936525,47.06517501],[-1.60803784,47.06504043],[-1.60757723,47.06505611],[-1.60723596,47.06578851],[-1.60698931,47.06602201],[-1.60639079,47.06595301],[-1.60459436,47.06541142],[-1.60280728,47.06471612],[-1.60177472,47.06452551],[-1.60021718,47.06406001],[-1.59559086,47.06592895],[-1.59320171,47.06736688],[-1.59181375,47.06831854],[-1.59141401,47.06754623],[-1.59096957,47.06598568],[-1.59033536,47.06452105],[-1.58960501,47.06355446],[-1.5892378,47.06339591],[-1.58877336,47.06263788],[-1.58842863,47.06302225],[-1.58827221,47.06307626],[-1.58035567,47.06474794],[-1.57820126,47.0652708],[-1.57558112,47.06623143],[-1.57387194,47.0671027],[-1.5726417,47.06789454],[-1.57157953,47.06870768],[-1.57065181,47.06958131],[-1.56984587,47.07050603],[-1.56869063,47.0723554],[-1.5677159,47.07474684],[-1.56676813,47.07470046],[-1.5665695,47.07463076],[-1.55826199,47.07133284],[-1.55923815,47.07071712],[-1.56116153,47.06922258],[-1.56326091,47.06784369],[-1.56811105,47.06327619],[-1.5662067,47.06045758],[-1.56710532,47.06009827],[-1.56781902,47.05969035],[-1.56822366,47.05926401],[-1.56810797,47.05911347],[-1.56831894,47.05864428],[-1.56919747,47.05823525],[-1.56948764,47.05765741],[-1.56977982,47.0574303],[-1.56988724,47.0571564],[-1.57023669,47.05702893],[-1.56979949,47.05633921],[-1.57296467,47.05477722],[-1.57204739,47.05363937],[-1.57580962,47.05186966],[-1.57540586,47.05132563],[-1.57661105,47.04884468],[-1.58046668,47.04659582],[-1.58085127,47.04649488],[-1.58192584,47.04584978],[-1.58399267,47.04553231],[-1.58407127,47.04302747],[-1.58523985,47.04246518],[-1.58573736,47.04232727],[-1.58597105,47.0426706],[-1.58655243,47.04289821],[-1.58959021,47.04048942],[-1.59398834,47.03734367],[-1.59341985,47.03709666],[-1.59384735,47.03672611],[-1.59444711,47.03647315],[-1.59471053,47.03625163],[-1.59554046,47.03614552],[-1.59660489,47.03629882],[-1.59732933,47.03630152],[-1.59908833,47.03658674],[-1.59989166,47.03657095],[-1.60074689,47.03665318],[-1.60139368,47.03679694],[-1.60214995,47.03684794],[-1.60309585,47.0366632],[-1.60380904,47.03637952],[-1.60423733,47.03632815],[-1.60465173,47.03636122],[-1.60529863,47.03656808],[-1.60669151,47.03712212],[-1.60715072,47.03723185],[-1.60741155,47.03725841],[-1.60822774,47.03722311],[-1.60844274,47.03720731],[-1.60907316,47.03706668],[-1.60936191,47.0370804],[-1.60970396,47.03719299],[-1.61075022,47.03773469],[-1.61210281,47.03814058],[-1.61245614,47.03830773],[-1.61258486,47.038409],[-1.61338476,47.03961709],[-1.61355748,47.04004758],[-1.61359771,47.04065654],[-1.61369255,47.04093232],[-1.61399614,47.04118082],[-1.61426861,47.04132775],[-1.6149926,47.04161716],[-1.61783592,47.04234393],[-1.61861824,47.04268239],[-1.61935335,47.04290097],[-1.61981902,47.04290036],[-1.62065472,47.04304547],[-1.62153947,47.04291624],[-1.62183226,47.04299199],[-1.6228041,47.04283221],[-1.62343707,47.04279783],[-1.62384043,47.0427014],[-1.62448733,47.04261415],[-1.6247365,47.04268893],[-1.62558117,47.04316914],[-1.62586761,47.04327851],[-1.62639552,47.04338812],[-1.62748239,47.04344644],[-1.62829913,47.04338573],[-1.62880844,47.04327871],[-1.62949756,47.04286867],[-1.63024179,47.04251684],[-1.63070964,47.04238803],[-1.63109388,47.04233022],[-1.63116475,47.04217225],[-1.6315337,47.04189049],[-1.6318898,47.04167417],[-1.6325418,47.04144688],[-1.63338354,47.04090983],[-1.63447464,47.03995871],[-1.63476639,47.03950056],[-1.63498031,47.03944146],[-1.63528479,47.03939225],[-1.63654768,47.03945785],[-1.63742947,47.0394179],[-1.63923062,47.03919217],[-1.6394723,47.03919508],[-1.63985542,47.03935464],[-1.64102769,47.04006868],[-1.64125785,47.04016764],[-1.64144724,47.03977762],[-1.64144058,47.03957767],[-1.64107816,47.03895372],[-1.64084854,47.03840108],[-1.64125263,47.03659729],[-1.64121752,47.03646522],[-1.64136081,47.03630614],[-1.64269241,47.0368487],[-1.6436738,47.03733771],[-1.64422388,47.03750587],[-1.64459648,47.03755851],[-1.64570412,47.03753736],[-1.64741425,47.03737378],[-1.64782186,47.03729694],[-1.64783136,47.03725416],[-1.6479087,47.03726368],[-1.64955971,47.03662896],[-1.64964548,47.0366751],[-1.64972776,47.03666547],[-1.64981911,47.036761],[-1.65085921,47.03739459],[-1.6517354,47.03813129],[-1.65195467,47.03824149],[-1.6524671,47.03863029],[-1.64998289,47.04227036],[-1.64910706,47.04340506],[-1.64833996,47.04422512],[-1.65156545,47.04657533],[-1.65187556,47.04634637],[-1.65193161,47.0459103],[-1.65117345,47.04507505],[-1.65173835,47.04500087],[-1.65318658,47.04637107],[-1.6530058,47.04753278],[-1.65453894,47.0465384],[-1.65713275,47.04844496],[-1.65823712,47.04839858],[-1.65842637,47.04877154],[-1.65971331,47.04899014],[-1.6615205,47.04973156],[-1.66360418,47.05095332],[-1.66421312,47.05370564],[-1.66499567,47.05454434],[-1.66697532,47.05451571],[-1.66687296,47.05479673],[-1.67641851,47.05688514],[-1.67735995,47.055385],[-1.67985834,47.05529634],[-1.68039375,47.05489673],[-1.68289212,47.054808],[-1.68308986,47.05454745],[-1.68323591,47.05425381],[-1.68873747,47.05551135],[-1.68862292,47.05562063],[-1.68989063,47.05722232],[-1.68962569,47.05749916],[-1.69224275,47.05802953],[-1.69238742,47.05811474],[-1.69350627,47.05953576],[-1.69638302,47.06219664],[-1.699424,47.06401288],[-1.70189933,47.06593958],[-1.7047997,47.06709311],[-1.70807774,47.06924402],[-1.70989694,47.07086181],[-1.71421107,47.07520796],[-1.71502101,47.07974132],[-1.71541125,47.07937273],[-1.71544229,47.07948601],[-1.71586238,47.08276177],[-1.71625149,47.0836018],[-1.71853214,47.08655983],[-1.72419043,47.0886374],[-1.73029145,47.09248781],[-1.73016459,47.093284],[-1.72899162,47.09332663],[-1.72826273,47.09358376],[-1.72796307,47.09387111],[-1.72737111,47.09412353],[-1.72650249,47.0944441],[-1.72573703,47.09460079],[-1.72495352,47.09528945],[-1.7244374,47.09544315],[-1.72417404,47.09545212],[-1.7234171,47.09502851],[-1.72242964,47.09506348],[-1.72154998,47.09563519],[-1.72118645,47.09605321],[-1.72101043,47.09648611],[-1.72069209,47.09684726],[-1.72079639,47.09701256],[-1.7204142,47.09806178],[-1.71958986,47.09849683],[-1.71947917,47.09877102],[-1.71950271,47.09908483],[-1.72080735,47.09975936],[-1.72088635,47.09993742],[-1.72085066,47.10034384],[-1.71948189,47.10300723],[-1.71946319,47.10407496],[-1.71931647,47.10445074],[-1.71934968,47.10528185],[-1.71945493,47.10560856],[-1.71917394,47.10561282],[-1.71863412,47.10521097],[-1.7181201,47.10454561],[-1.71757971,47.10437828],[-1.71675908,47.10429905],[-1.71620912,47.10393188],[-1.71582505,47.10402603],[-1.71527758,47.10432076],[-1.71408234,47.10563583],[-1.71373026,47.10608041],[-1.71380379,47.10752408],[-1.71338072,47.10833503],[-1.71330421,47.10866825],[-1.71376183,47.10994202],[-1.71469311,47.11051461],[-1.71466129,47.11096596],[-1.71400897,47.11193508],[-1.71370532,47.11260135],[-1.71388607,47.11305125],[-1.71391768,47.11345762],[-1.7138093,47.11365325],[-1.71304724,47.11397295],[-1.71265415,47.1140404],[-1.7122893,47.11391729],[-1.71132888,47.11311768],[-1.70935073,47.11421569],[-1.70801102,47.11462293],[-1.70700262,47.11517811],[-1.70685693,47.11541583],[-1.70713564,47.1158383],[-1.70752875,47.11601258],[-1.70773681,47.11623138],[-1.70808134,47.11687754],[-1.70817571,47.11769984],[-1.70781271,47.1181268],[-1.70709982,47.11826949],[-1.70688243,47.11821611],[-1.70598472,47.11866305],[-1.70515907,47.11926938],[-1.70424094,47.11975501],[-1.70410736,47.12061545],[-1.70409948,47.12224912],[-1.70304403,47.12312995],[-1.70158992,47.12484772],[-1.70149214,47.12530174],[-1.70180837,47.12627465],[-1.69948692,47.13069819],[-1.6985477,47.13089962],[-1.69794372,47.13164118],[-1.69777457,47.13247419],[-1.69621426,47.13232836],[-1.69487945,47.13231315],[-1.69420978,47.1323629],[-1.69350197,47.13255128],[-1.69238661,47.13227911],[-1.69176868,47.13248277],[-1.69117105,47.13237355],[-1.6908465,47.13250126],[-1.69029939,47.13371486],[-1.68702856,47.13487029],[-1.68589129,47.13509047],[-1.6853867,47.13507846],[-1.68482986,47.13493689],[-1.68363202,47.13433968],[-1.68140844,47.13298045],[-1.68087341,47.132755],[-1.68024984,47.13263595],[-1.67874888,47.13276166],[-1.67711702,47.13316051],[-1.67638794,47.13348492],[-1.67582345,47.13389377],[-1.67548857,47.13393347],[-1.6746613,47.1344819],[-1.67393656,47.13450671],[-1.67350652,47.13402897],[-1.6736812,47.13302713],[-1.67350648,47.13224776],[-1.6732724,47.13180448],[-1.67312892,47.1316741],[-1.67221059,47.1312648],[-1.67177022,47.13080461],[-1.67046647,47.12976062],[-1.67038743,47.12891064],[-1.67021235,47.1284767],[-1.67030345,47.12739437],[-1.67044304,47.12712989],[-1.67139372,47.12698414],[-1.67088599,47.12637155],[-1.67018958,47.12658458],[-1.66903411,47.12575555],[-1.66893489,47.12534289],[-1.66837982,47.12491528],[-1.66872788,47.1245558],[-1.66851129,47.12423717],[-1.66878013,47.12378709],[-1.66829189,47.12344426],[-1.66802191,47.12336318],[-1.6648629,47.12347361],[-1.6643062,47.12308754],[-1.66350673,47.12298001],[-1.66304564,47.12299592],[-1.66255876,47.12355308],[-1.66167102,47.12541699],[-1.66096512,47.12518482],[-1.66026771,47.12466912],[-1.65997703,47.12431829],[-1.66040457,47.12385372],[-1.66032184,47.12363069],[-1.65982719,47.1231979],[-1.65950174,47.12325431],[-1.65929123,47.12308152],[-1.65936608,47.12231282],[-1.65977548,47.12162351],[-1.66026876,47.12115539],[-1.6603773,47.12083716],[-1.66003505,47.12066878],[-1.65852141,47.1207208],[-1.65811591,47.12060006],[-1.65733329,47.12071729],[-1.65692521,47.12055156],[-1.6564263,47.12017574],[-1.65583773,47.1201228],[-1.65579034,47.11989564],[-1.65567306,47.11983813],[-1.65548007,47.11991355],[-1.65530572,47.12014334],[-1.65462113,47.12043156],[-1.65426244,47.12042436],[-1.65353873,47.12071866],[-1.65328331,47.121096],[-1.65256963,47.12162889],[-1.64969279,47.12179248],[-1.64901875,47.12159143],[-1.6486662,47.12128816],[-1.64829045,47.12067017],[-1.64826344,47.12031141],[-1.64746016,47.12015884],[-1.64581945,47.12037633],[-1.64486742,47.11889767],[-1.64481958,47.11835848],[-1.64423066,47.11842364],[-1.64275589,47.11875707],[-1.64249743,47.11870162],[-1.6409548,47.11893765],[-1.63657895,47.1189068],[-1.63616504,47.11911731],[-1.63601687,47.11928378],[-1.63610299,47.11937863],[-1.63517848,47.12004251],[-1.63444595,47.12083396],[-1.63357391,47.12153991],[-1.63313084,47.12178044],[-1.63246053,47.12192906],[-1.63228227,47.12165393],[-1.63181635,47.12132178],[-1.63155137,47.12091395],[-1.63058214,47.12033683],[-1.6314012,47.11981339],[-1.6324026,47.11953606],[-1.63345572,47.11803283],[-1.63470528,47.11717014],[-1.63522632,47.11653147],[-1.63614609,47.11618162],[-1.63801847,47.11457512],[-1.64368144,47.11012602],[-1.64827106,47.10621402],[-1.64791862,47.10591075],[-1.64210451,47.10223856]]]]}},{"type":"Feature","id":"saint_philbert_de_grand_lieu_441880102_sud_boulogne","properties":{"zoneId":"saint_philbert_de_grand_lieu_441880102_sud_boulogne","label":"Sud Boulogne","districtCode":"441880102","arrondissementCode":"44188","colorIndex":1,"parentZoneId":"saint_philbert_de_grand_lieu_parent_44188_saint_philbert_de_grand_lieu","parentCode":"44188","parentLabel":"Saint-Philbert-de-Grand-Lieu","territoryType":"iris","source":"IGN / INSEE - Contours IRIS WFS Géoplateforme","sourceYear":"2026","officialId":"441880102","sourceCleabs":"IRIS____0000000441880102","communeCode":"44188","communeName":"Saint-Philbert-de-Grand-Lieu","irisCode":"0102","irisType":"H","officialAreaM2":31540738.076049805,"labelLng":-1.6576355283455004,"labelLat":47.02518603819896,"bbox":[-1.71664628,47.00265946,-1.58904528,47.05688514]},"geometry":{"type":"MultiPolygon","coordinates":[[[[-1.59989166,47.03657095],[-1.59990686,47.03640891],[-1.59967366,47.03625768],[-1.59928338,47.03624438],[-1.59901452,47.03610809],[-1.598922,47.0354408],[-1.59851582,47.03528744],[-1.59793923,47.03520851],[-1.59780947,47.03510997],[-1.59798023,47.03479202],[-1.59794174,47.03466549],[-1.59741066,47.03423844],[-1.59728621,47.03378435],[-1.5963035,47.03352138],[-1.59638731,47.0332511],[-1.59621719,47.03277177],[-1.5958186,47.03264516],[-1.59510721,47.0326248],[-1.59453656,47.03241395],[-1.59377404,47.0315145],[-1.59417272,47.03097645],[-1.59416428,47.03061424],[-1.59391154,47.03031046],[-1.59387407,47.03008739],[-1.59496488,47.029685],[-1.59515601,47.02932747],[-1.59508789,47.02894599],[-1.59534124,47.02869961],[-1.5946868,47.02776791],[-1.59472391,47.02758426],[-1.59521575,47.02738159],[-1.59499659,47.02714682],[-1.59507747,47.02667192],[-1.59469629,47.02592864],[-1.59519425,47.02550387],[-1.59560085,47.02493574],[-1.59564093,47.02422979],[-1.59554711,47.02408833],[-1.59527704,47.02401431],[-1.59515356,47.02364857],[-1.59520557,47.02329928],[-1.59546277,47.02294362],[-1.59532624,47.02274975],[-1.59431692,47.02248152],[-1.59398974,47.02229434],[-1.59401469,47.02131754],[-1.59375823,47.0211555],[-1.59312643,47.02099939],[-1.59308074,47.02064858],[-1.59248902,47.02011119],[-1.5921318,47.01998923],[-1.59146943,47.01998494],[-1.59028681,47.01977138],[-1.58998292,47.01951652],[-1.58966145,47.01886916],[-1.58965972,47.01864737],[-1.58993202,47.018283],[-1.58999993,47.01799622],[-1.58961561,47.01744695],[-1.589554,47.0171103],[-1.58987836,47.016614],[-1.58997887,47.01592008],[-1.58925096,47.01503637],[-1.58904528,47.01460264],[-1.58905469,47.01429473],[-1.5893268,47.01361833],[-1.58941567,47.01272556],[-1.58958093,47.01231225],[-1.5900742,47.01201935],[-1.5902639,47.01141297],[-1.59076972,47.0109888],[-1.59114446,47.01105414],[-1.5925887,47.01099753],[-1.59401775,47.01079361],[-1.59504803,47.01049011],[-1.59565309,47.01011698],[-1.59581896,47.00868993],[-1.59598631,47.00828644],[-1.59717441,47.00762311],[-1.59759242,47.00720601],[-1.59841292,47.00680894],[-1.60117793,47.00650293],[-1.60177028,47.00615191],[-1.60290119,47.00588581],[-1.60436054,47.00600792],[-1.60542803,47.00591027],[-1.60707196,47.0062793],[-1.60764833,47.00648264],[-1.60835887,47.00711441],[-1.61052886,47.00782221],[-1.61186323,47.00839385],[-1.61386801,47.00857159],[-1.61419799,47.00852952],[-1.61494648,47.00820105],[-1.61571121,47.00800088],[-1.6168365,47.00796214],[-1.61762259,47.00728763],[-1.61808271,47.0072719],[-1.61868989,47.0074956],[-1.61887789,47.00781275],[-1.62043629,47.00719656],[-1.62130858,47.00674403],[-1.62163323,47.00640904],[-1.62179927,47.00585404],[-1.62215764,47.0054203],[-1.62261369,47.0052496],[-1.62275542,47.00528811],[-1.62313609,47.00519168],[-1.62468313,47.00469042],[-1.62502591,47.00432133],[-1.62539259,47.00418486],[-1.62606525,47.00403432],[-1.62636732,47.00418995],[-1.62809064,47.0041307],[-1.62867138,47.00364653],[-1.62946448,47.00407014],[-1.63073757,47.0037728],[-1.63137626,47.00376428],[-1.63307824,47.00425507],[-1.63392819,47.00461864],[-1.63482542,47.00534829],[-1.63524987,47.00551611],[-1.639162,47.00639414],[-1.63961769,47.00643443],[-1.64023067,47.00637188],[-1.64101384,47.00646392],[-1.64055625,47.00816437],[-1.64246953,47.00847246],[-1.64372784,47.00853904],[-1.64558284,47.00844538],[-1.64935576,47.00807053],[-1.65172595,47.00798847],[-1.65217282,47.00786491],[-1.65264941,47.00761209],[-1.65389235,47.00658336],[-1.65443108,47.0064092],[-1.65588394,47.00634693],[-1.65682963,47.00654955],[-1.65729506,47.00676344],[-1.65709977,47.00706715],[-1.65733119,47.00735002],[-1.65876316,47.00654179],[-1.65922113,47.00619589],[-1.6619177,47.00334599],[-1.66227894,47.00265946],[-1.66631903,47.00580603],[-1.66965574,47.00712752],[-1.67011526,47.00704398],[-1.67110471,47.00583231],[-1.6713466,47.00541304],[-1.67139692,47.00489781],[-1.6766035,47.00357467],[-1.67835982,47.00328785],[-1.67781144,47.00474867],[-1.67895725,47.00511435],[-1.67879763,47.00561508],[-1.68041821,47.00624018],[-1.68168069,47.00501732],[-1.68466911,47.00341678],[-1.68584079,47.00383726],[-1.68783372,47.00493867],[-1.68859952,47.0054974],[-1.68918241,47.00624213],[-1.69335757,47.00573583],[-1.69475267,47.00676766],[-1.69557932,47.00755476],[-1.6962399,47.00790306],[-1.69642293,47.00841511],[-1.6986195,47.01006365],[-1.70025953,47.01062004],[-1.70129267,47.01130849],[-1.70182015,47.01118777],[-1.70240988,47.01169045],[-1.70356211,47.01342658],[-1.70467953,47.01456614],[-1.70555773,47.01500382],[-1.70676458,47.01539922],[-1.70773449,47.01613169],[-1.70778854,47.01620705],[-1.70751956,47.01647959],[-1.70753984,47.01656084],[-1.70989756,47.0188538],[-1.70998569,47.01915326],[-1.70975798,47.01947553],[-1.70976542,47.01966643],[-1.71098918,47.02111457],[-1.71313244,47.02337926],[-1.71375279,47.02483308],[-1.71664628,47.02627695],[-1.71477786,47.02723454],[-1.71432904,47.0273061],[-1.71215918,47.02828678],[-1.7112314,47.02850777],[-1.70978238,47.02996495],[-1.70892631,47.03180827],[-1.7080154,47.03325067],[-1.70806501,47.03347142],[-1.70775161,47.0334779],[-1.7069562,47.03420394],[-1.70606543,47.03468403],[-1.70599326,47.03479431],[-1.70475135,47.03530224],[-1.70379901,47.03593906],[-1.70138784,47.03810727],[-1.70023747,47.03945472],[-1.69954725,47.04078431],[-1.69975113,47.040868],[-1.69983774,47.04113505],[-1.69888247,47.04157351],[-1.69830755,47.04357575],[-1.69834727,47.0449703],[-1.69806144,47.04556639],[-1.69816237,47.04776928],[-1.69789739,47.04863509],[-1.69741937,47.04928229],[-1.69672316,47.04966689],[-1.69408613,47.05052458],[-1.69352146,47.05090471],[-1.69305639,47.05173175],[-1.69122196,47.0532007],[-1.68873747,47.05551135],[-1.68323591,47.05425381],[-1.68308986,47.05454745],[-1.68289212,47.054808],[-1.68039375,47.05489673],[-1.67985834,47.05529634],[-1.67735995,47.055385],[-1.67641851,47.05688514],[-1.66687296,47.05479673],[-1.66697532,47.05451571],[-1.66499567,47.05454434],[-1.66421312,47.05370564],[-1.66360418,47.05095332],[-1.6615205,47.04973156],[-1.65971331,47.04899014],[-1.65842637,47.04877154],[-1.65823712,47.04839858],[-1.65713275,47.04844496],[-1.65453894,47.0465384],[-1.6530058,47.04753278],[-1.65318658,47.04637107],[-1.65173835,47.04500087],[-1.65117345,47.04507505],[-1.65193161,47.0459103],[-1.65187556,47.04634637],[-1.65156545,47.04657533],[-1.64833996,47.04422512],[-1.64910706,47.04340506],[-1.64998289,47.04227036],[-1.6524671,47.03863029],[-1.65435573,47.03594944],[-1.65488808,47.03539224],[-1.65564317,47.03477193],[-1.65608703,47.03447352],[-1.65701334,47.03395722],[-1.65769891,47.03366258],[-1.6603218,47.03269083],[-1.65693652,47.02594966],[-1.65677172,47.02584358],[-1.65523578,47.02540773],[-1.65434898,47.02488254],[-1.65141364,47.02458338],[-1.65117552,47.02462094],[-1.65019478,47.02462711],[-1.65012188,47.02463817],[-1.65027752,47.02505128],[-1.65023562,47.02508543],[-1.64907697,47.02510869],[-1.64855826,47.02459928],[-1.64826598,47.024437],[-1.64791096,47.02446483],[-1.64714515,47.02442444],[-1.64704346,47.02538725],[-1.64719433,47.02721472],[-1.64666122,47.02721185],[-1.64647892,47.02730036],[-1.64629175,47.02745491],[-1.64591076,47.02718165],[-1.64571426,47.02687571],[-1.64559402,47.02679667],[-1.64556656,47.0266156],[-1.64540133,47.02658077],[-1.64524954,47.02644167],[-1.64427656,47.02632393],[-1.64442176,47.0253756],[-1.64491186,47.02460369],[-1.64518018,47.0227422],[-1.64571095,47.02157001],[-1.64578263,47.02105484],[-1.6441441,47.02159974],[-1.64368542,47.02163354],[-1.64334246,47.02155626],[-1.64272297,47.02148379],[-1.64218714,47.0215252],[-1.64140631,47.02167748],[-1.64078118,47.02189203],[-1.63904833,47.02261381],[-1.63901547,47.02238515],[-1.63886247,47.02210902],[-1.63707034,47.020086],[-1.63565492,47.01867012],[-1.63410584,47.0173092],[-1.63386738,47.01714291],[-1.63219469,47.01871806],[-1.63154478,47.01921224],[-1.63064336,47.01977243],[-1.63106229,47.02028953],[-1.63329722,47.02357011],[-1.6338288,47.02455345],[-1.6327709,47.02453642],[-1.63178815,47.0245804],[-1.63053037,47.0247238],[-1.63022906,47.02477828],[-1.6300069,47.02495585],[-1.62911879,47.02534955],[-1.62818522,47.02596692],[-1.6244564,47.029825],[-1.62430647,47.02984544],[-1.62449756,47.02999741],[-1.62448431,47.03010436],[-1.62420815,47.03025252],[-1.6215034,47.03139807],[-1.61415792,47.03329744],[-1.61501916,47.03371212],[-1.61544349,47.03398465],[-1.61614615,47.03493506],[-1.61493326,47.03539033],[-1.61370626,47.03571177],[-1.61242638,47.03643304],[-1.612643,47.03657499],[-1.61235178,47.03684096],[-1.61343996,47.03725559],[-1.61210281,47.03814058],[-1.61075022,47.03773469],[-1.60970396,47.03719299],[-1.60936191,47.0370804],[-1.60907316,47.03706668],[-1.60844274,47.03720731],[-1.60822774,47.03722311],[-1.60741155,47.03725841],[-1.60715072,47.03723185],[-1.60669151,47.03712212],[-1.60529863,47.03656808],[-1.60465173,47.03636122],[-1.60423733,47.03632815],[-1.60380904,47.03637952],[-1.60309585,47.0366632],[-1.60214995,47.03684794],[-1.60139368,47.03679694],[-1.60074689,47.03665318],[-1.59989166,47.03657095]]]]}},{"type":"Feature","id":"saint_philbert_de_grand_lieu_441880103_sud_bourg","properties":{"zoneId":"saint_philbert_de_grand_lieu_441880103_sud_bourg","label":"Sud Bourg","districtCode":"441880103","arrondissementCode":"44188","colorIndex":2,"parentZoneId":"saint_philbert_de_grand_lieu_parent_44188_saint_philbert_de_grand_lieu","parentCode":"44188","parentLabel":"Saint-Philbert-de-Grand-Lieu","territoryType":"iris","source":"IGN / INSEE - Contours IRIS WFS Géoplateforme","sourceYear":"2026","officialId":"441880103","sourceCleabs":"IRIS____0000000441880103","communeCode":"44188","communeName":"Saint-Philbert-de-Grand-Lieu","irisCode":"0103","irisType":"H","officialAreaM2":5277681.601135254,"labelLng":-1.636024384333708,"labelLat":47.03232606990416,"bbox":[-1.6603218,47.01714291,-1.61210281,47.04344644]},"geometry":{"type":"MultiPolygon","coordinates":[[[[-1.6524671,47.03863029],[-1.65195467,47.03824149],[-1.6517354,47.03813129],[-1.65085921,47.03739459],[-1.64981911,47.036761],[-1.64972776,47.03666547],[-1.64964548,47.0366751],[-1.64955971,47.03662896],[-1.6479087,47.03726368],[-1.64783136,47.03725416],[-1.64782186,47.03729694],[-1.64741425,47.03737378],[-1.64570412,47.03753736],[-1.64459648,47.03755851],[-1.64422388,47.03750587],[-1.6436738,47.03733771],[-1.64269241,47.0368487],[-1.64136081,47.03630614],[-1.64121752,47.03646522],[-1.64125263,47.03659729],[-1.64084854,47.03840108],[-1.64107816,47.03895372],[-1.64144058,47.03957767],[-1.64144724,47.03977762],[-1.64125785,47.04016764],[-1.64102769,47.04006868],[-1.63985542,47.03935464],[-1.6394723,47.03919508],[-1.63923062,47.03919217],[-1.63742947,47.0394179],[-1.63654768,47.03945785],[-1.63528479,47.03939225],[-1.63498031,47.03944146],[-1.63476639,47.03950056],[-1.63447464,47.03995871],[-1.63338354,47.04090983],[-1.6325418,47.04144688],[-1.6318898,47.04167417],[-1.6315337,47.04189049],[-1.63116475,47.04217225],[-1.63109388,47.04233022],[-1.63070964,47.04238803],[-1.63024179,47.04251684],[-1.62949756,47.04286867],[-1.62880844,47.04327871],[-1.62829913,47.04338573],[-1.62748239,47.04344644],[-1.62639552,47.04338812],[-1.62586761,47.04327851],[-1.62558117,47.04316914],[-1.6247365,47.04268893],[-1.62448733,47.04261415],[-1.62384043,47.0427014],[-1.62343707,47.04279783],[-1.6228041,47.04283221],[-1.62183226,47.04299199],[-1.62153947,47.04291624],[-1.62065472,47.04304547],[-1.61981902,47.04290036],[-1.61935335,47.04290097],[-1.61861824,47.04268239],[-1.61783592,47.04234393],[-1.6149926,47.04161716],[-1.61426861,47.04132775],[-1.61399614,47.04118082],[-1.61369255,47.04093232],[-1.61359771,47.04065654],[-1.61355748,47.04004758],[-1.61338476,47.03961709],[-1.61258486,47.038409],[-1.61245614,47.03830773],[-1.61210281,47.03814058],[-1.61343996,47.03725559],[-1.61235178,47.03684096],[-1.612643,47.03657499],[-1.61242638,47.03643304],[-1.61370626,47.03571177],[-1.61493326,47.03539033],[-1.61614615,47.03493506],[-1.61544349,47.03398465],[-1.61501916,47.03371212],[-1.61415792,47.03329744],[-1.6215034,47.03139807],[-1.62420815,47.03025252],[-1.62448431,47.03010436],[-1.62449756,47.02999741],[-1.62430647,47.02984544],[-1.6244564,47.029825],[-1.62818522,47.02596692],[-1.62911879,47.02534955],[-1.6300069,47.02495585],[-1.63022906,47.02477828],[-1.63053037,47.0247238],[-1.63178815,47.0245804],[-1.6327709,47.02453642],[-1.6338288,47.02455345],[-1.63329722,47.02357011],[-1.63106229,47.02028953],[-1.63064336,47.01977243],[-1.63154478,47.01921224],[-1.63219469,47.01871806],[-1.63386738,47.01714291],[-1.63410584,47.0173092],[-1.63565492,47.01867012],[-1.63707034,47.020086],[-1.63886247,47.02210902],[-1.63901547,47.02238515],[-1.63904833,47.02261381],[-1.64078118,47.02189203],[-1.64140631,47.02167748],[-1.64218714,47.0215252],[-1.64272297,47.02148379],[-1.64334246,47.02155626],[-1.64368542,47.02163354],[-1.6441441,47.02159974],[-1.64578263,47.02105484],[-1.64571095,47.02157001],[-1.64518018,47.0227422],[-1.64491186,47.02460369],[-1.64442176,47.0253756],[-1.64427656,47.02632393],[-1.64524954,47.02644167],[-1.64540133,47.02658077],[-1.64556656,47.0266156],[-1.64559402,47.02679667],[-1.64571426,47.02687571],[-1.64591076,47.02718165],[-1.64629175,47.02745491],[-1.64647892,47.02730036],[-1.64666122,47.02721185],[-1.64719433,47.02721472],[-1.64704346,47.02538725],[-1.64714515,47.02442444],[-1.64791096,47.02446483],[-1.64826598,47.024437],[-1.64855826,47.02459928],[-1.64907697,47.02510869],[-1.65023562,47.02508543],[-1.65027752,47.02505128],[-1.65012188,47.02463817],[-1.65019478,47.02462711],[-1.65117552,47.02462094],[-1.65141364,47.02458338],[-1.65434898,47.02488254],[-1.65523578,47.02540773],[-1.65677172,47.02584358],[-1.65693652,47.02594966],[-1.6603218,47.03269083],[-1.65769891,47.03366258],[-1.65701334,47.03395722],[-1.65608703,47.03447352],[-1.65564317,47.03477193],[-1.65488808,47.03539224],[-1.65435573,47.03594944],[-1.6524671,47.03863029]]]]}}]}
