{"type":"FeatureCollection","metadata":{"generatedAt":"2026-07-14T18:56:03.503Z","source":"IGN / INSEE - Contours IRIS WFS Géoplateforme","datasetId":"STATISTICALUNITS.IRIS:contours_iris","datasetUrl":"https://geoservices.ign.fr/contoursiris","sourceFileUrl":"https://data.geopf.fr/wfs/ows?SERVICE=WFS&VERSION=2.0.0&REQUEST=GetFeature&TYPENAMES=STATISTICALUNITS.IRIS%3Acontours_iris&OUTPUTFORMAT=application%2Fjson&COUNT=1000&CQL_FILTER=code_insee%3D%2779270%27&SRSNAME=EPSG%3A4326","license":"Licence Ouverte / Open Licence 2.0","sourceYear":"2026","communeCode":"79270","communeName":"Saint-Maixent-l'École","featureCount":4,"parentCount":1,"parentContract":"technical commune group; not selectable and not displayed as a district","sourceFeatureCount":4,"humanLabelContract":"one visible plate per unique official human place name","groupingContract":"only exact source-ID groups approved by the resolved curation, or source zones sharing the same official name and parent, are merged","groupedZoneCount":0,"groupedSourceFeatureCount":0,"curationStatus":"resolved","curationRevision":1,"curationSources":[{"id":"ign-insee-contours-iris-2026","provider":"IGN / INSEE - Contours IRIS WFS Géoplateforme","datasetUrl":"https://geoservices.ign.fr/contoursiris","role":"official geometry, source identifiers and source labels","vintage":"2026","license":"Licence Ouverte / Open Licence 2.0"},{"id":"ign-geoplateforme-toponymy-2026","provider":"IGN Géoplateforme - reverse geocoding, addresses and named places","datasetUrl":"https://geoservices.ign.fr/geocodage-geoplateforme","role":"official address, street and named-place evidence","vintage":"2026","license":"Licence Ouverte / Open Licence 2.0"},{"id":"guide-alpha-editorial-recovery-2026-07-14","provider":"Meewav Guide Alpha editorial review","datasetUrl":"docs/geospatial/france-semantic-recovery.md","role":"versioned mapping of exact official IRIS identifiers to coherent human place names","vintage":"2026-07-14","license":"Project documentation"}],"sourceCorrections":[{"operationId":"saint_maixent_l_ecole-792700101-rename-rue-chaigneau","type":"rename","sourceIds":["792700101"],"expectedLabels":["Centre Ville"],"outputLabel":"Rue Chaigneau","evidenceRefs":["ign-insee-contours-iris-2026","ign-geoplateforme-toponymy-2026","guide-alpha-editorial-recovery-2026-07-14"],"rationale":"The exact official IGN BD TOPO named road has a deterministic evidence point strictly inside this exact IRIS. The 1:1 label is emitted without nearest assignment, invented geometry, split or dropped source cell."},{"operationId":"saint_maixent_l_ecole-792700102-rename-rue-de-la-grange-aux-moines","type":"rename","sourceIds":["792700102"],"expectedLabels":["Sud"],"outputLabel":"Rue de la Grange aux Moines","evidenceRefs":["ign-insee-contours-iris-2026","ign-geoplateforme-toponymy-2026","guide-alpha-editorial-recovery-2026-07-14"],"rationale":"The exact official IGN BD TOPO named road has a deterministic evidence point strictly inside this exact IRIS. The 1:1 label is emitted without nearest assignment, invented geometry, split or dropped source cell."},{"operationId":"saint_maixent_l_ecole-792700103-rename-rue-georges-clemenceau","type":"rename","sourceIds":["792700103"],"expectedLabels":["Nord"],"outputLabel":"Rue Georges Clémenceau","evidenceRefs":["ign-insee-contours-iris-2026","ign-geoplateforme-toponymy-2026","guide-alpha-editorial-recovery-2026-07-14"],"rationale":"The exact official IGN BD TOPO named road has a deterministic evidence point strictly inside this exact IRIS. The 1:1 label is emitted without nearest assignment, invented geometry, split or dropped source cell."}],"bbox":[-0.23353612,46.39902353,-0.19081603,46.42994905],"areaStatsM2":{"minimum":557575.0967025757,"average":1294869.1422290802,"maximum":1914618.0865402222}},"features":[{"type":"Feature","id":"saint_maixent_l_ecole_792700101_centre_ville","properties":{"zoneId":"saint_maixent_l_ecole_792700101_centre_ville","label":"Rue Chaigneau","districtCode":"792700101","arrondissementCode":"79270","colorIndex":0,"parentZoneId":"saint_maixent_l_ecole_parent_79270_saint_maixent_l_ecole","parentCode":"79270","parentLabel":"Saint-Maixent-l'École","territoryType":"iris","source":"IGN / INSEE - Contours IRIS WFS Géoplateforme","sourceYear":"2026","officialId":"792700101","sourceCleabs":"IRIS____0000000792700101","communeCode":"79270","communeName":"Saint-Maixent-l'École","irisCode":"0101","irisType":"H","officialAreaM2":557575.0967025757,"labelLng":-0.20668995605090743,"labelLat":46.41067741464063,"bbox":[-0.21634117,46.40570373,-0.19953931,46.41503021],"curationOperationId":"saint_maixent_l_ecole-792700101-rename-rue-chaigneau","curationRevision":1,"curationEvidenceRefs":["ign-insee-contours-iris-2026","ign-geoplateforme-toponymy-2026","guide-alpha-editorial-recovery-2026-07-14"],"curationRationale":"The exact official IGN BD TOPO named road has a deterministic evidence point strictly inside this exact IRIS. The 1:1 label is emitted without nearest assignment, invented geometry, split or dropped source cell.","semanticLabelReviewed":true,"semanticLabelAccepted":false,"semanticResolution":"rename"},"geometry":{"type":"MultiPolygon","coordinates":[[[[-0.21634117,46.41000257],[-0.21406983,46.41090289],[-0.20761055,46.41270774],[-0.20615711,46.41311809],[-0.20545792,46.41339277],[-0.20467778,46.413576],[-0.20423811,46.41372173],[-0.20179659,46.4145698],[-0.2011985,46.41483622],[-0.20102245,46.41501148],[-0.20080465,46.41503021],[-0.20067567,46.41491938],[-0.20069261,46.41483058],[-0.20076848,46.41476898],[-0.20077041,46.41464636],[-0.20064533,46.41426866],[-0.19979937,46.41357413],[-0.19964939,46.41334943],[-0.19953931,46.41298302],[-0.19955403,46.41270053],[-0.19964552,46.41239426],[-0.20074441,46.41000319],[-0.20076734,46.40972768],[-0.20064337,46.4092355],[-0.20083721,46.40927512],[-0.20116343,46.40926146],[-0.20258004,46.40893512],[-0.20345188,46.40885027],[-0.20364581,46.40886915],[-0.2036106,46.4091351],[-0.20365806,46.40914458],[-0.20420358,46.40900489],[-0.20458308,46.40870044],[-0.20481588,46.40860468],[-0.20512175,46.40859969],[-0.20546966,46.40864489],[-0.20593078,46.40851027],[-0.20649019,46.40849636],[-0.20694949,46.4083753],[-0.20708099,46.40828509],[-0.2071651,46.40814214],[-0.20758526,46.40806454],[-0.20813646,46.40784447],[-0.20845685,46.40762097],[-0.20855849,46.40748834],[-0.20861662,46.40701447],[-0.20892447,46.40620103],[-0.2088879,46.40571181],[-0.20914277,46.40570373],[-0.20934615,46.40603867],[-0.20962329,46.4073178],[-0.21070245,46.4074136],[-0.21163057,46.40766595],[-0.21250308,46.40781442],[-0.21300804,46.40798224],[-0.21339856,46.40817582],[-0.21330137,46.40862736],[-0.21289335,46.40948689],[-0.2151046,46.40960213],[-0.21634117,46.41000257]]]]}},{"type":"Feature","id":"saint_maixent_l_ecole_792700102_sud","properties":{"zoneId":"saint_maixent_l_ecole_792700102_sud","label":"Rue de la Grange aux Moines","districtCode":"792700102","arrondissementCode":"79270","colorIndex":1,"parentZoneId":"saint_maixent_l_ecole_parent_79270_saint_maixent_l_ecole","parentCode":"79270","parentLabel":"Saint-Maixent-l'École","territoryType":"iris","source":"IGN / INSEE - Contours IRIS WFS Géoplateforme","sourceYear":"2026","officialId":"792700102","sourceCleabs":"IRIS____0000000792700102","communeCode":"79270","communeName":"Saint-Maixent-l'École","irisCode":"0102","irisType":"H","officialAreaM2":1914618.0865402222,"labelLng":-0.20675865438690902,"labelLat":46.406562678618265,"bbox":[-0.22333503,46.39902353,-0.19081603,46.41776538],"curationOperationId":"saint_maixent_l_ecole-792700102-rename-rue-de-la-grange-aux-moines","curationRevision":1,"curationEvidenceRefs":["ign-insee-contours-iris-2026","ign-geoplateforme-toponymy-2026","guide-alpha-editorial-recovery-2026-07-14"],"curationRationale":"The exact official IGN BD TOPO named road has a deterministic evidence point strictly inside this exact IRIS. The 1:1 label is emitted without nearest assignment, invented geometry, split or dropped source cell.","semanticLabelReviewed":true,"semanticLabelAccepted":false,"semanticResolution":"rename"},"geometry":{"type":"MultiPolygon","coordinates":[[[[-0.19269714,46.41776538],[-0.19252872,46.41733662],[-0.19267749,46.41709544],[-0.19380178,46.41620063],[-0.19499001,46.41579788],[-0.19542598,46.4154324],[-0.19589819,46.4148406],[-0.19707389,46.4139353],[-0.19736445,46.41240053],[-0.19773473,46.41207113],[-0.19534037,46.41181107],[-0.19545399,46.41119237],[-0.19471169,46.4112429],[-0.19361923,46.41147715],[-0.19336742,46.41135983],[-0.19340743,46.41081889],[-0.19367545,46.4105897],[-0.19388767,46.41056483],[-0.19406776,46.41043633],[-0.19447776,46.40982825],[-0.19534964,46.40938748],[-0.19467044,46.40909108],[-0.19398846,46.40896959],[-0.19307091,46.40865192],[-0.19252596,46.40873476],[-0.19174119,46.40863775],[-0.19155315,46.40847449],[-0.1919511,46.40810558],[-0.19195924,46.4079107],[-0.1916334,46.40784141],[-0.19131955,46.40815569],[-0.19100204,46.4081844],[-0.19081603,46.40801117],[-0.19098652,46.40749542],[-0.19379739,46.40801967],[-0.19438028,46.40796189],[-0.19515302,46.40776452],[-0.19606706,46.40768845],[-0.19756187,46.40640651],[-0.19430118,46.40476214],[-0.19591473,46.40297223],[-0.19619097,46.4027509],[-0.19724102,46.40359745],[-0.1977556,46.403264],[-0.19901984,46.40218496],[-0.20116517,46.40242578],[-0.20171252,46.40156329],[-0.20243822,46.401232],[-0.2028577,46.40132116],[-0.20297887,46.40152143],[-0.20323059,46.40094931],[-0.20383675,46.40015725],[-0.20430977,46.40044857],[-0.20508983,46.39973453],[-0.2061462,46.39902353],[-0.20632637,46.39905271],[-0.20758117,46.40041161],[-0.20842502,46.40080604],[-0.20868787,46.4008455],[-0.20958662,46.40060033],[-0.21260268,46.40018648],[-0.21347493,46.40019977],[-0.21418756,46.40028964],[-0.2153555,46.40063433],[-0.21549772,46.4010584],[-0.21543118,46.40158748],[-0.21522525,46.40200604],[-0.21527144,46.40267974],[-0.21549504,46.40302582],[-0.21650115,46.40393922],[-0.21674137,46.40443442],[-0.21685427,46.40495754],[-0.21834969,46.40393845],[-0.21896593,46.40449153],[-0.21966195,46.40595529],[-0.21993279,46.40617385],[-0.22051163,46.40602593],[-0.22182231,46.40761652],[-0.22243617,46.40750996],[-0.22320062,46.4075929],[-0.22325623,46.40767425],[-0.22333503,46.40808207],[-0.22227853,46.41029105],[-0.22246164,46.4105238],[-0.22207967,46.4117341],[-0.21965666,46.41112298],[-0.21634117,46.41000257],[-0.2151046,46.40960213],[-0.21289335,46.40948689],[-0.21330137,46.40862736],[-0.21339856,46.40817582],[-0.21300804,46.40798224],[-0.21250308,46.40781442],[-0.21163057,46.40766595],[-0.21070245,46.4074136],[-0.20962329,46.4073178],[-0.20934615,46.40603867],[-0.20914277,46.40570373],[-0.2088879,46.40571181],[-0.20892447,46.40620103],[-0.20861662,46.40701447],[-0.20855849,46.40748834],[-0.20845685,46.40762097],[-0.20813646,46.40784447],[-0.20758526,46.40806454],[-0.2071651,46.40814214],[-0.20708099,46.40828509],[-0.20694949,46.4083753],[-0.20649019,46.40849636],[-0.20593078,46.40851027],[-0.20546966,46.40864489],[-0.20512175,46.40859969],[-0.20481588,46.40860468],[-0.20458308,46.40870044],[-0.20420358,46.40900489],[-0.20365806,46.40914458],[-0.2036106,46.4091351],[-0.20364581,46.40886915],[-0.20345188,46.40885027],[-0.20258004,46.40893512],[-0.20116343,46.40926146],[-0.20083721,46.40927512],[-0.20064337,46.4092355],[-0.20076734,46.40972768],[-0.20074441,46.41000319],[-0.19964552,46.41239426],[-0.19955403,46.41270053],[-0.19953931,46.41298302],[-0.19964939,46.41334943],[-0.19979937,46.41357413],[-0.20064533,46.41426866],[-0.20077041,46.41464636],[-0.20076848,46.41476898],[-0.20069261,46.41483058],[-0.20067567,46.41491938],[-0.20080465,46.41503021],[-0.20064846,46.41505532],[-0.19938896,46.41548627],[-0.19873478,46.41564069],[-0.19269714,46.41776538]]]]}},{"type":"Feature","id":"saint_maixent_l_ecole_792700103_nord","properties":{"zoneId":"saint_maixent_l_ecole_792700103_nord","label":"Rue Georges Clémenceau","districtCode":"792700103","arrondissementCode":"79270","colorIndex":2,"parentZoneId":"saint_maixent_l_ecole_parent_79270_saint_maixent_l_ecole","parentCode":"79270","parentLabel":"Saint-Maixent-l'École","territoryType":"iris","source":"IGN / INSEE - Contours IRIS WFS Géoplateforme","sourceYear":"2026","officialId":"792700103","sourceCleabs":"IRIS____0000000792700103","communeCode":"79270","communeName":"Saint-Maixent-l'École","irisCode":"0103","irisType":"H","officialAreaM2":1149080.7960357666,"labelLng":-0.20510817184375116,"labelLat":46.41966307907582,"bbox":[-0.21472306,46.41270774,-0.19258127,46.42994905],"curationOperationId":"saint_maixent_l_ecole-792700103-rename-rue-georges-clemenceau","curationRevision":1,"curationEvidenceRefs":["ign-insee-contours-iris-2026","ign-geoplateforme-toponymy-2026","guide-alpha-editorial-recovery-2026-07-14"],"curationRationale":"The exact official IGN BD TOPO named road has a deterministic evidence point strictly inside this exact IRIS. The 1:1 label is emitted without nearest assignment, invented geometry, split or dropped source cell.","semanticLabelReviewed":true,"semanticLabelAccepted":false,"semanticResolution":"rename"},"geometry":{"type":"MultiPolygon","coordinates":[[[[-0.20277371,46.42862457],[-0.20594271,46.42286703],[-0.20263658,46.42175765],[-0.20187191,46.42129607],[-0.2020826,46.42106666],[-0.19947866,46.41959503],[-0.19744167,46.41919071],[-0.19671398,46.41893623],[-0.19654759,46.41869847],[-0.19581911,46.41843049],[-0.19542853,46.41845855],[-0.19476763,46.41829862],[-0.19358273,46.41878149],[-0.19325869,46.41878875],[-0.19258127,46.4181237],[-0.19277705,46.41797313],[-0.19269714,46.41776538],[-0.19873478,46.41564069],[-0.19938896,46.41548627],[-0.20064846,46.41505532],[-0.20080465,46.41503021],[-0.20102245,46.41501148],[-0.2011985,46.41483622],[-0.20179659,46.4145698],[-0.20423811,46.41372173],[-0.20467778,46.413576],[-0.20545792,46.41339277],[-0.20615711,46.41311809],[-0.20761055,46.41270774],[-0.20811769,46.41428681],[-0.20857415,46.41424965],[-0.2089796,46.41587123],[-0.21014913,46.41599424],[-0.21070458,46.41611109],[-0.21081038,46.41618201],[-0.21055374,46.41698049],[-0.21028962,46.41747458],[-0.21140324,46.41806417],[-0.21152118,46.41818612],[-0.21121921,46.41876779],[-0.21104869,46.41899248],[-0.21159162,46.41925027],[-0.21202284,46.41953643],[-0.21214138,46.41942495],[-0.21472306,46.42044631],[-0.21412118,46.42111304],[-0.21285099,46.42286831],[-0.21122854,46.42207135],[-0.21080627,46.42244732],[-0.2106881,46.4227201],[-0.20939052,46.42418952],[-0.20829245,46.4249747],[-0.207887,46.42550429],[-0.20761902,46.42617781],[-0.20588918,46.42863353],[-0.20480648,46.42994905],[-0.20329511,46.42920292],[-0.20303464,46.42900656],[-0.20277371,46.42862457]]]]}},{"type":"Feature","id":"saint_maixent_l_ecole_792700104_coiffe","properties":{"zoneId":"saint_maixent_l_ecole_792700104_coiffe","label":"Coiffe","districtCode":"792700104","arrondissementCode":"79270","colorIndex":3,"parentZoneId":"saint_maixent_l_ecole_parent_79270_saint_maixent_l_ecole","parentCode":"79270","parentLabel":"Saint-Maixent-l'École","territoryType":"iris","source":"IGN / INSEE - Contours IRIS WFS Géoplateforme","sourceYear":"2026","officialId":"792700104","sourceCleabs":"IRIS____0000000792700104","communeCode":"79270","communeName":"Saint-Maixent-l'École","irisCode":"0104","irisType":"H","officialAreaM2":1558202.5896377563,"labelLng":-0.22000596050840887,"labelLat":46.41593189001053,"bbox":[-0.23353612,46.41000257,-0.20761055,46.42275589]},"geometry":{"type":"MultiPolygon","coordinates":[[[[-0.22207967,46.4117341],[-0.2227257,46.41177443],[-0.22347777,46.41202175],[-0.22607783,46.41234209],[-0.22696092,46.41253521],[-0.22756531,46.41279659],[-0.23141223,46.41496328],[-0.23246987,46.41535239],[-0.23353612,46.41560066],[-0.23325689,46.41574826],[-0.23179817,46.41613385],[-0.23135494,46.4163726],[-0.23054752,46.41743727],[-0.22964638,46.41927512],[-0.22885027,46.41993751],[-0.22681201,46.42090449],[-0.22527139,46.42173751],[-0.22362596,46.42218684],[-0.22217653,46.42275589],[-0.22146351,46.42162697],[-0.22091738,46.42113951],[-0.2196932,46.42040172],[-0.21875106,46.41971724],[-0.21693855,46.41918888],[-0.21592815,46.41860544],[-0.21508897,46.42002145],[-0.21472306,46.42044631],[-0.21214138,46.41942495],[-0.21202284,46.41953643],[-0.21159162,46.41925027],[-0.21104869,46.41899248],[-0.21121921,46.41876779],[-0.21152118,46.41818612],[-0.21140324,46.41806417],[-0.21028962,46.41747458],[-0.21055374,46.41698049],[-0.21081038,46.41618201],[-0.21070458,46.41611109],[-0.21014913,46.41599424],[-0.2089796,46.41587123],[-0.20857415,46.41424965],[-0.20811769,46.41428681],[-0.20761055,46.41270774],[-0.21406983,46.41090289],[-0.21634117,46.41000257],[-0.21965666,46.41112298],[-0.22207967,46.4117341]]]]}}]}
