{"type":"FeatureCollection","metadata":{"generatedAt":"2026-07-14T13:59:03.086Z","source":"IGN / INSEE - Contours IRIS WFS Géoplateforme","datasetId":"STATISTICALUNITS.IRIS:contours_iris","datasetUrl":"https://geoservices.ign.fr/contoursiris","sourceFileUrl":"https://data.geopf.fr/wfs/ows?SERVICE=WFS&VERSION=2.0.0&REQUEST=GetFeature&TYPENAMES=STATISTICALUNITS.IRIS%3Acontours_iris&OUTPUTFORMAT=application%2Fjson&COUNT=1000&CQL_FILTER=code_insee%3D%2777445%27&SRSNAME=EPSG%3A4326","license":"Licence Ouverte / Open Licence 2.0","sourceYear":"2026","communeCode":"77445","communeName":"Savigny-le-Temple","featureCount":9,"parentCount":1,"parentContract":"technical commune group; not selectable and not displayed as a district","sourceFeatureCount":9,"humanLabelContract":"one visible plate per unique official human place name","groupingContract":"only exact source-ID groups approved by the resolved curation, or source zones sharing the same official name and parent, are merged","groupedZoneCount":0,"groupedSourceFeatureCount":0,"curationStatus":"resolved","curationRevision":1,"curationSources":[{"id":"ign-insee-contours-iris-2026","provider":"IGN / INSEE - Contours IRIS WFS Géoplateforme","datasetUrl":"https://geoservices.ign.fr/contoursiris","role":"official geometry, source identifiers and source labels","vintage":"2026","license":"Licence Ouverte / Open Licence 2.0"},{"id":"ign-geoplateforme-toponymy-2026","provider":"IGN Géoplateforme - reverse geocoding, addresses and named places","datasetUrl":"https://geoservices.ign.fr/geocodage-geoplateforme","role":"official address, street and named-place evidence","vintage":"2026","license":"Licence Ouverte / Open Licence 2.0"},{"id":"guide-alpha-editorial-recovery-2026-07-14","provider":"Meewav Guide Alpha editorial review","datasetUrl":"docs/geospatial/france-semantic-recovery.md","role":"versioned mapping of exact official IRIS identifiers to coherent human place names","vintage":"2026-07-14","license":"Project documentation"}],"sourceCorrections":[{"operationId":"savigny_le_temple-774450203-centre","type":"accept","sourceIds":["774450203"],"expectedLabels":["Centre"],"outputLabel":"Centre","evidenceRefs":["ign-insee-contours-iris-2026","guide-alpha-editorial-recovery-2026-07-14"],"rationale":"Retain the exact unique centre IRIS label after IGN/INSEE plus Guide Alpha editorial review; no safer official polygon crosswalk was found."}],"bbox":[2.54151041,48.55942728,2.59855897,48.60986223],"areaStatsM2":{"minimum":505402.95446777344,"average":1325321.5180324977,"maximum":4056608.1326904297}},"features":[{"type":"Feature","id":"savigny_le_temple_774450101_plessis_la_foret","properties":{"zoneId":"savigny_le_temple_774450101_plessis_la_foret","label":"Plessis La Forêt","districtCode":"774450101","arrondissementCode":"77445","colorIndex":0,"parentZoneId":"savigny_le_temple_parent_77445_savigny_le_temple","parentCode":"77445","parentLabel":"Savigny-le-Temple","territoryType":"iris","source":"IGN / INSEE - Contours IRIS WFS Géoplateforme","sourceYear":"2026","officialId":"774450101","sourceCleabs":"IRIS____0000000774450101","communeCode":"77445","communeName":"Savigny-le-Temple","irisCode":"0101","irisType":"H","officialAreaM2":533792.5182495117,"labelLng":2.551426039265113,"labelLat":48.606040399508544,"bbox":[2.54246277,48.60264447,2.56237183,48.60907095]},"geometry":{"type":"MultiPolygon","coordinates":[[[[2.54300249,48.60706352],[2.54246277,48.60875526],[2.5437782,48.60894921],[2.54526925,48.60907095],[2.54623661,48.60904856],[2.55336597,48.60780088],[2.55395319,48.60781478],[2.55450023,48.60792657],[2.55573239,48.60850597],[2.55665594,48.60660601],[2.55698544,48.60613768],[2.55736046,48.60573789],[2.5581633,48.60607639],[2.55932422,48.60641622],[2.56016021,48.60652366],[2.56019389,48.60606592],[2.5595476,48.60598258],[2.55899972,48.60580964],[2.55859333,48.60558685],[2.55860648,48.60547535],[2.55905931,48.60517569],[2.55935176,48.60507692],[2.55968436,48.60488116],[2.55985637,48.60474866],[2.55991432,48.60463194],[2.56019784,48.60446567],[2.56133135,48.60451213],[2.56201945,48.60478453],[2.56234704,48.60453836],[2.56237183,48.60449257],[2.56046379,48.60396832],[2.56032282,48.6039579],[2.55990023,48.60404899],[2.5595481,48.60398832],[2.55936217,48.60384011],[2.55930766,48.60370948],[2.5593541,48.60350905],[2.5595113,48.60336391],[2.55930782,48.60336765],[2.55900989,48.60331348],[2.55748331,48.6027573],[2.55689428,48.60264447],[2.55623783,48.60264472],[2.55469083,48.60290071],[2.55403381,48.60312583],[2.55373238,48.6033244],[2.55254508,48.60449653],[2.55231847,48.60466659],[2.55179845,48.60488861],[2.5512321,48.60497553],[2.55068035,48.60494287],[2.54818812,48.60454034],[2.54762434,48.60433041],[2.5467494,48.6037154],[2.54612938,48.60404856],[2.54590549,48.60421592],[2.54542474,48.60491033],[2.54532152,48.60492612],[2.54477151,48.60484936],[2.54430025,48.60616537],[2.54389097,48.60643726],[2.54371071,48.60673161],[2.54356566,48.60718892],[2.54300249,48.60706352]]]]}},{"type":"Feature","id":"savigny_le_temple_774450102_tourailles","properties":{"zoneId":"savigny_le_temple_774450102_tourailles","label":"Tourailles","districtCode":"774450102","arrondissementCode":"77445","colorIndex":1,"parentZoneId":"savigny_le_temple_parent_77445_savigny_le_temple","parentCode":"77445","parentLabel":"Savigny-le-Temple","territoryType":"iris","source":"IGN / INSEE - Contours IRIS WFS Géoplateforme","sourceYear":"2026","officialId":"774450102","sourceCleabs":"IRIS____0000000774450102","communeCode":"77445","communeName":"Savigny-le-Temple","irisCode":"0102","irisType":"H","officialAreaM2":1643365.7917480469,"labelLng":2.553704869030516,"labelLat":48.598406136127664,"bbox":[2.54151041,48.59006937,2.56440087,48.60718892]},"geometry":{"type":"MultiPolygon","coordinates":[[[[2.56429134,48.59190703],[2.56398707,48.59099199],[2.56325873,48.59052425],[2.56284624,48.59006937],[2.54336485,48.59755236],[2.54151041,48.59699651],[2.54241769,48.59978856],[2.54239576,48.59997108],[2.54393459,48.60407616],[2.54300249,48.60706352],[2.54356566,48.60718892],[2.54371071,48.60673161],[2.54389097,48.60643726],[2.54430025,48.60616537],[2.54477151,48.60484936],[2.54532152,48.60492612],[2.54542474,48.60491033],[2.54590549,48.60421592],[2.54612938,48.60404856],[2.5467494,48.6037154],[2.54762434,48.60433041],[2.54818812,48.60454034],[2.55068035,48.60494287],[2.5512321,48.60497553],[2.55179845,48.60488861],[2.55231847,48.60466659],[2.55254508,48.60449653],[2.55373238,48.6033244],[2.55403381,48.60312583],[2.55469083,48.60290071],[2.55623783,48.60264472],[2.55689428,48.60264447],[2.55748331,48.6027573],[2.55900989,48.60331348],[2.55930782,48.60336765],[2.5595113,48.60336391],[2.55999546,48.60320828],[2.56053095,48.6027533],[2.56109226,48.60212929],[2.56139749,48.60163568],[2.56166767,48.60095393],[2.56257578,48.59728807],[2.56311471,48.5964121],[2.56376076,48.59553382],[2.56413908,48.59521228],[2.56426897,48.5949222],[2.56422388,48.5947997],[2.56427384,48.59466225],[2.56440087,48.59243276],[2.56429134,48.59190703]]]]}},{"type":"Feature","id":"savigny_le_temple_774450201_plessis_le_roi","properties":{"zoneId":"savigny_le_temple_774450201_plessis_le_roi","label":"Plessis le Roi","districtCode":"774450201","arrondissementCode":"77445","colorIndex":2,"parentZoneId":"savigny_le_temple_parent_77445_savigny_le_temple","parentCode":"77445","parentLabel":"Savigny-le-Temple","territoryType":"iris","source":"IGN / INSEE - Contours IRIS WFS Géoplateforme","sourceYear":"2026","officialId":"774450201","sourceCleabs":"IRIS____0000000774450201","communeCode":"77445","communeName":"Savigny-le-Temple","irisCode":"0201","irisType":"H","officialAreaM2":941738.0571289062,"labelLng":2.5659994454700223,"labelLat":48.605801877069425,"bbox":[2.55573239,48.60036462,2.57885199,48.60986223]},"geometry":{"type":"MultiPolygon","coordinates":[[[[2.55573239,48.60850597],[2.55767873,48.60916717],[2.5602582,48.60971464],[2.56222929,48.60986223],[2.56475584,48.60976895],[2.56733362,48.60938345],[2.56987863,48.60869014],[2.57392609,48.60804714],[2.57486523,48.60782022],[2.57866641,48.60641338],[2.57885199,48.60576997],[2.5787085,48.60573348],[2.57863086,48.60560547],[2.57544513,48.60539086],[2.57510587,48.60524483],[2.57508573,48.60505136],[2.57526692,48.60378277],[2.57531702,48.60362643],[2.57548613,48.60351189],[2.57532377,48.60346274],[2.57433684,48.60357256],[2.57402534,48.60351657],[2.57371068,48.60351545],[2.57368544,48.60378431],[2.57337134,48.60454689],[2.57391256,48.60454253],[2.57390387,48.60494279],[2.57202767,48.60482092],[2.57165445,48.60484836],[2.56607031,48.60485333],[2.56597887,48.60492136],[2.56588662,48.60492372],[2.56568131,48.60482043],[2.56567074,48.60462249],[2.56585666,48.60411943],[2.5659926,48.60391933],[2.56623175,48.60370252],[2.56650039,48.60352809],[2.56688259,48.60339815],[2.56720447,48.60334535],[2.56872177,48.60323212],[2.56931196,48.60304265],[2.56953815,48.60291664],[2.5698141,48.60267566],[2.57065843,48.60159567],[2.57038181,48.60142376],[2.57030143,48.60146755],[2.56982616,48.60120767],[2.56917826,48.60099484],[2.56830587,48.60086934],[2.5680694,48.60092785],[2.56785783,48.60092708],[2.56686715,48.60067341],[2.56601296,48.60064422],[2.5649589,48.60051174],[2.56472127,48.60038313],[2.56457902,48.60036462],[2.56410973,48.6003683],[2.56349821,48.6006764],[2.5633597,48.6008603],[2.56327667,48.60089597],[2.56223839,48.60098481],[2.5621729,48.60087033],[2.56188835,48.6008387],[2.5616726,48.60166098],[2.56139749,48.60163568],[2.56109226,48.60212929],[2.56053095,48.6027533],[2.55999546,48.60320828],[2.5595113,48.60336391],[2.5593541,48.60350905],[2.55930766,48.60370948],[2.55936217,48.60384011],[2.5595481,48.60398832],[2.55990023,48.60404899],[2.56032282,48.6039579],[2.56046379,48.60396832],[2.56237183,48.60449257],[2.56234704,48.60453836],[2.56201945,48.60478453],[2.56133135,48.60451213],[2.56019784,48.60446567],[2.55991432,48.60463194],[2.55985637,48.60474866],[2.55968436,48.60488116],[2.55935176,48.60507692],[2.55905931,48.60517569],[2.55860648,48.60547535],[2.55859333,48.60558685],[2.55899972,48.60580964],[2.5595476,48.60598258],[2.56019389,48.60606592],[2.56016021,48.60652366],[2.55932422,48.60641622],[2.5581633,48.60607639],[2.55736046,48.60573789],[2.55698544,48.60613768],[2.55665594,48.60660601],[2.55573239,48.60850597]]]]}},{"type":"Feature","id":"savigny_le_temple_774450202_rougeau","properties":{"zoneId":"savigny_le_temple_774450202_rougeau","label":"Rougeau","districtCode":"774450202","arrondissementCode":"77445","colorIndex":3,"parentZoneId":"savigny_le_temple_parent_77445_savigny_le_temple","parentCode":"77445","parentLabel":"Savigny-le-Temple","territoryType":"iris","source":"IGN / INSEE - Contours IRIS WFS Géoplateforme","sourceYear":"2026","officialId":"774450202","sourceCleabs":"IRIS____0000000774450202","communeCode":"77445","communeName":"Savigny-le-Temple","irisCode":"0202","irisType":"H","officialAreaM2":684773.454284668,"labelLng":2.568704225419177,"labelLat":48.59949449990585,"bbox":[2.56139749,48.59424867,2.57713037,48.60494279]},"geometry":{"type":"MultiPolygon","coordinates":[[[[2.56139749,48.60163568],[2.5616726,48.60166098],[2.56188835,48.6008387],[2.5621729,48.60087033],[2.56223839,48.60098481],[2.56327667,48.60089597],[2.5633597,48.6008603],[2.56349821,48.6006764],[2.56410973,48.6003683],[2.56457902,48.60036462],[2.56472127,48.60038313],[2.5649589,48.60051174],[2.56601296,48.60064422],[2.56686715,48.60067341],[2.56785783,48.60092708],[2.5680694,48.60092785],[2.56830587,48.60086934],[2.56917826,48.60099484],[2.56982616,48.60120767],[2.57030143,48.60146755],[2.57038181,48.60142376],[2.57065843,48.60159567],[2.5698141,48.60267566],[2.56953815,48.60291664],[2.56931196,48.60304265],[2.56872177,48.60323212],[2.56720447,48.60334535],[2.56688259,48.60339815],[2.56650039,48.60352809],[2.56623175,48.60370252],[2.5659926,48.60391933],[2.56585666,48.60411943],[2.56567074,48.60462249],[2.56568131,48.60482043],[2.56588662,48.60492372],[2.56597887,48.60492136],[2.56607031,48.60485333],[2.57165445,48.60484836],[2.57202767,48.60482092],[2.57390387,48.60494279],[2.57391256,48.60454253],[2.57337134,48.60454689],[2.57368544,48.60378431],[2.57371068,48.60351545],[2.57402534,48.60351657],[2.57433684,48.60357256],[2.57532377,48.60346274],[2.57548613,48.60351189],[2.57588828,48.60342877],[2.57713037,48.60329646],[2.57700583,48.6027635],[2.57688666,48.60274059],[2.5768613,48.60269012],[2.57633009,48.60263336],[2.57601226,48.60252249],[2.57569256,48.60230726],[2.57521101,48.6018144],[2.57496236,48.60170287],[2.57195849,48.60133769],[2.5719965,48.60116692],[2.57266639,48.60034895],[2.57279576,48.60011823],[2.57285746,48.59970287],[2.57278012,48.59904234],[2.57305809,48.59838308],[2.57296105,48.59797614],[2.57254728,48.59766072],[2.57289575,48.59750185],[2.57240109,48.59696215],[2.57235466,48.59666964],[2.57224165,48.59639217],[2.57205367,48.59616302],[2.57164736,48.59593217],[2.57131211,48.59580233],[2.57076078,48.59523094],[2.57120971,48.59472612],[2.57056429,48.59455198],[2.56993065,48.59442916],[2.56828043,48.59424867],[2.56785537,48.59432179],[2.56638972,48.59478062],[2.56506762,48.59493232],[2.56467188,48.5950667],[2.56442133,48.59502711],[2.56426897,48.5949222],[2.56413908,48.59521228],[2.56376076,48.59553382],[2.56311471,48.5964121],[2.56257578,48.59728807],[2.56166767,48.60095393],[2.56139749,48.60163568]]]]}},{"type":"Feature","id":"savigny_le_temple_774450203_centre","properties":{"zoneId":"savigny_le_temple_774450203_centre","label":"Centre","districtCode":"774450203","arrondissementCode":"77445","colorIndex":4,"parentZoneId":"savigny_le_temple_parent_77445_savigny_le_temple","parentCode":"77445","parentLabel":"Savigny-le-Temple","territoryType":"iris","source":"IGN / INSEE - Contours IRIS WFS Géoplateforme","sourceYear":"2026","officialId":"774450203","sourceCleabs":"IRIS____0000000774450203","communeCode":"77445","communeName":"Savigny-le-Temple","irisCode":"0203","irisType":"H","officialAreaM2":589995.0098266602,"labelLng":2.578206382170357,"labelLat":48.59997798285963,"bbox":[2.57195849,48.59519816,2.58405089,48.60641338],"curationOperationId":"savigny_le_temple-774450203-centre","curationRevision":1,"curationEvidenceRefs":["ign-insee-contours-iris-2026","guide-alpha-editorial-recovery-2026-07-14"],"curationRationale":"Retain the exact unique centre IRIS label after IGN/INSEE plus Guide Alpha editorial review; no safer official polygon crosswalk was found.","semanticLabelReviewed":true,"semanticLabelAccepted":true,"semanticResolution":"accept"},"geometry":{"type":"MultiPolygon","coordinates":[[[[2.57866641,48.60641338],[2.57920577,48.60630554],[2.58207926,48.5999344],[2.58405089,48.59536448],[2.58362854,48.59526855],[2.58330635,48.59519816],[2.58321329,48.59530398],[2.58293797,48.59547842],[2.58249526,48.59555603],[2.58239363,48.59554668],[2.58225067,48.59544723],[2.58222903,48.59527084],[2.57820456,48.59538348],[2.57803052,48.59544044],[2.57777144,48.59561673],[2.57673229,48.59700462],[2.57513091,48.5966418],[2.57479663,48.5972253],[2.57407931,48.59771478],[2.57393868,48.59799763],[2.57379015,48.59808436],[2.57338931,48.59817917],[2.57305809,48.59838308],[2.57278012,48.59904234],[2.57285746,48.59970287],[2.57279576,48.60011823],[2.57266639,48.60034895],[2.5719965,48.60116692],[2.57195849,48.60133769],[2.57496236,48.60170287],[2.57521101,48.6018144],[2.57569256,48.60230726],[2.57601226,48.60252249],[2.57633009,48.60263336],[2.5768613,48.60269012],[2.57688666,48.60274059],[2.57700583,48.6027635],[2.57713037,48.60329646],[2.57588828,48.60342877],[2.57548613,48.60351189],[2.57531702,48.60362643],[2.57526692,48.60378277],[2.57508573,48.60505136],[2.57510587,48.60524483],[2.57544513,48.60539086],[2.57863086,48.60560547],[2.5787085,48.60573348],[2.57885199,48.60576997],[2.57866641,48.60641338]]]]}},{"type":"Feature","id":"savigny_le_temple_774450301_parc_des_sports","properties":{"zoneId":"savigny_le_temple_774450301_parc_des_sports","label":"Parc des Sports","districtCode":"774450301","arrondissementCode":"77445","colorIndex":5,"parentZoneId":"savigny_le_temple_parent_77445_savigny_le_temple","parentCode":"77445","parentLabel":"Savigny-le-Temple","territoryType":"iris","source":"IGN / INSEE - Contours IRIS WFS Géoplateforme","sourceYear":"2026","officialId":"774450301","sourceCleabs":"IRIS____0000000774450301","communeCode":"77445","communeName":"Savigny-le-Temple","irisCode":"0301","irisType":"H","officialAreaM2":915767.2290649414,"labelLng":2.574970916173404,"labelLat":48.59275598276586,"bbox":[2.56422388,48.58844668,2.58384706,48.59838308]},"geometry":{"type":"MultiPolygon","coordinates":[[[[2.57616656,48.58848398],[2.57519292,48.58999894],[2.57425068,48.58998028],[2.57399995,48.58963126],[2.57112712,48.58907942],[2.56838319,48.59099362],[2.56429134,48.59190703],[2.56440087,48.59243276],[2.56427384,48.59466225],[2.56422388,48.5947997],[2.56426897,48.5949222],[2.56442133,48.59502711],[2.56467188,48.5950667],[2.56506762,48.59493232],[2.56638972,48.59478062],[2.56785537,48.59432179],[2.56828043,48.59424867],[2.56993065,48.59442916],[2.57056429,48.59455198],[2.57120971,48.59472612],[2.57076078,48.59523094],[2.57131211,48.59580233],[2.57164736,48.59593217],[2.57205367,48.59616302],[2.57224165,48.59639217],[2.57235466,48.59666964],[2.57240109,48.59696215],[2.57289575,48.59750185],[2.57254728,48.59766072],[2.57296105,48.59797614],[2.57305809,48.59838308],[2.57338931,48.59817917],[2.57379015,48.59808436],[2.57393868,48.59799763],[2.57407931,48.59771478],[2.57479663,48.5972253],[2.57513091,48.5966418],[2.57673229,48.59700462],[2.57777144,48.59561673],[2.57803052,48.59544044],[2.57820456,48.59538348],[2.58222903,48.59527084],[2.58225067,48.59544723],[2.58239363,48.59554668],[2.58249526,48.59555603],[2.58293797,48.59547842],[2.58321329,48.59530398],[2.58330635,48.59519816],[2.58362854,48.59526855],[2.58384706,48.59473319],[2.58373178,48.59183448],[2.58361442,48.59141578],[2.58348226,48.59115356],[2.58324533,48.59076682],[2.58284209,48.59032014],[2.58224781,48.58985569],[2.58151766,48.58942675],[2.58093532,48.58916743],[2.57967339,48.58877168],[2.57877452,48.58858949],[2.57791433,48.5884866],[2.57706042,48.58844668],[2.57616656,48.58848398]]]]}},{"type":"Feature","id":"savigny_le_temple_774450302_parc_des_sports_grange_du_bois_sud","properties":{"zoneId":"savigny_le_temple_774450302_parc_des_sports_grange_du_bois_sud","label":"Parc des Sports Grange du Bois Sud","districtCode":"774450302","arrondissementCode":"77445","colorIndex":6,"parentZoneId":"savigny_le_temple_parent_77445_savigny_le_temple","parentCode":"77445","parentLabel":"Savigny-le-Temple","territoryType":"iris","source":"IGN / INSEE - Contours IRIS WFS Géoplateforme","sourceYear":"2026","officialId":"774450302","sourceCleabs":"IRIS____0000000774450302","communeCode":"77445","communeName":"Savigny-le-Temple","irisCode":"0302","irisType":"H","officialAreaM2":505402.95446777344,"labelLng":2.5824132481396385,"labelLat":48.58759232151018,"bbox":[2.57585598,48.58400008,2.58789756,48.59536448]},"geometry":{"type":"MultiPolygon","coordinates":[[[[2.5768542,48.58426488],[2.57681797,48.58438529],[2.5758587,48.58464004],[2.57585598,48.58480825],[2.57698484,48.58638826],[2.57716828,48.58667497],[2.57616656,48.58848398],[2.57706042,48.58844668],[2.57791433,48.5884866],[2.57877452,48.58858949],[2.57967339,48.58877168],[2.58093532,48.58916743],[2.58151766,48.58942675],[2.58224781,48.58985569],[2.58284209,48.59032014],[2.58324533,48.59076682],[2.58348226,48.59115356],[2.58361442,48.59141578],[2.58373178,48.59183448],[2.58384706,48.59473319],[2.58362854,48.59526855],[2.58405089,48.59536448],[2.58501088,48.59315587],[2.58542137,48.59252043],[2.58576325,48.59181368],[2.58662025,48.58975222],[2.58789756,48.58561606],[2.58254936,48.58417435],[2.58252568,48.58425342],[2.5822259,48.58427126],[2.58194572,48.58438182],[2.58179237,48.58440017],[2.58158667,48.58435177],[2.58144689,48.58419836],[2.58107805,48.58403604],[2.5792968,48.58400008],[2.57804607,48.5840838],[2.5768542,48.58426488]]]]}},{"type":"Feature","id":"savigny_le_temple_774450401_le_bourg","properties":{"zoneId":"savigny_le_temple_774450401_le_bourg","label":"Le Bourg","districtCode":"774450401","arrondissementCode":"77445","colorIndex":7,"parentZoneId":"savigny_le_temple_parent_77445_savigny_le_temple","parentCode":"77445","parentLabel":"Savigny-le-Temple","territoryType":"iris","source":"IGN / INSEE - Contours IRIS WFS Géoplateforme","sourceYear":"2026","officialId":"774450401","sourceCleabs":"IRIS____0000000774450401","communeCode":"77445","communeName":"Savigny-le-Temple","irisCode":"0401","irisType":"H","officialAreaM2":4056608.1326904297,"labelLng":2.5783579536677306,"labelLat":48.57201911955119,"bbox":[2.56055983,48.55942728,2.59225725,48.58561606]},"geometry":{"type":"MultiPolygon","coordinates":[[[[2.59225725,48.57177446],[2.58947555,48.56903475],[2.59013347,48.56879234],[2.59063405,48.56804293],[2.59048232,48.56768709],[2.58990049,48.56721371],[2.58886885,48.5667208],[2.58888098,48.56655712],[2.588534,48.56621229],[2.58693073,48.56344779],[2.5863787,48.5629862],[2.58594987,48.56322939],[2.58478829,48.5618751],[2.58512923,48.56177734],[2.58487421,48.5614652],[2.58366433,48.56073952],[2.58315794,48.56136295],[2.57985051,48.56026464],[2.57988839,48.55942728],[2.57947204,48.55963451],[2.57849864,48.55985056],[2.5780704,48.56052461],[2.57751255,48.5607988],[2.5749175,48.56144443],[2.57403099,48.56213572],[2.5719832,48.56313228],[2.57012951,48.56342335],[2.5668442,48.56376496],[2.56633334,48.563755],[2.56629987,48.56370451],[2.56649839,48.56362697],[2.56615205,48.5632254],[2.56557993,48.56341222],[2.56533969,48.56296426],[2.56322024,48.56310403],[2.56392305,48.56431381],[2.5630229,48.56466584],[2.56299612,48.56511462],[2.56055983,48.56633804],[2.56397734,48.5673995],[2.5645921,48.56746922],[2.56425641,48.56839363],[2.5637173,48.56916707],[2.56373394,48.57123881],[2.56362875,48.57247621],[2.56378294,48.57398172],[2.56515735,48.57350729],[2.5657597,48.57426602],[2.56518198,48.57445911],[2.56630143,48.57547159],[2.56660053,48.57536654],[2.56795142,48.57659484],[2.56831727,48.57645044],[2.56964716,48.57743666],[2.569726,48.57741086],[2.57053828,48.57771155],[2.57190981,48.57659745],[2.57163136,48.57699585],[2.57195904,48.57820422],[2.57264855,48.57893353],[2.5740403,48.57983357],[2.57413408,48.58013706],[2.57461774,48.58084583],[2.57552094,48.58181517],[2.57590408,48.58288609],[2.57696837,48.58406199],[2.5768542,48.58426488],[2.57804607,48.5840838],[2.5792968,48.58400008],[2.58107805,48.58403604],[2.58144689,48.58419836],[2.58158667,48.58435177],[2.58179237,48.58440017],[2.58194572,48.58438182],[2.5822259,48.58427126],[2.58252568,48.58425342],[2.58254936,48.58417435],[2.58789756,48.58561606],[2.59197309,48.57223315],[2.59212036,48.57177219],[2.59225725,48.57177446]]]]}},{"type":"Feature","id":"savigny_le_temple_774450402_parc_d_activites","properties":{"zoneId":"savigny_le_temple_774450402_parc_d_activites","label":"Parc d'Activités","districtCode":"774450402","arrondissementCode":"77445","colorIndex":0,"parentZoneId":"savigny_le_temple_parent_77445_savigny_le_temple","parentCode":"77445","parentLabel":"Savigny-le-Temple","territoryType":"iris","source":"IGN / INSEE - Contours IRIS WFS Géoplateforme","sourceYear":"2026","officialId":"774450402","sourceCleabs":"IRIS____0000000774450402","communeCode":"77445","communeName":"Savigny-le-Temple","irisCode":"0402","irisType":"A","officialAreaM2":2056450.514831543,"labelLng":2.5903417968500753,"labelLat":48.589783253912316,"bbox":[2.57920577,48.57177219,2.59855897,48.60630554]},"geometry":{"type":"MultiPolygon","coordinates":[[[[2.58627896,48.60240479],[2.59626205,48.59385392],[2.59488513,48.59304416],[2.5975917,48.59076132],[2.59855897,48.58981827],[2.59835835,48.58963319],[2.59685558,48.58703833],[2.59666451,48.58702419],[2.59671188,48.58685974],[2.59604989,48.5840869],[2.59641191,48.58373281],[2.59655765,48.58329433],[2.59644667,48.58238811],[2.59655824,48.57617442],[2.59441975,48.57398845],[2.59225725,48.57177446],[2.59212036,48.57177219],[2.59197309,48.57223315],[2.58789756,48.58561606],[2.58662025,48.58975222],[2.58576325,48.59181368],[2.58542137,48.59252043],[2.58501088,48.59315587],[2.58405089,48.59536448],[2.58207926,48.5999344],[2.57920577,48.60630554],[2.58237755,48.60572662],[2.58627896,48.60240479]]]]}}]}
