{"type":"FeatureCollection","metadata":{"generatedAt":"2026-07-14T16:00:48.864Z","source":"IGN / INSEE - Contours IRIS WFS Géoplateforme","datasetId":"STATISTICALUNITS.IRIS:contours_iris","datasetUrl":"https://geoservices.ign.fr/contoursiris","sourceFileUrl":"https://data.geopf.fr/wfs/ows?SERVICE=WFS&VERSION=2.0.0&REQUEST=GetFeature&TYPENAMES=STATISTICALUNITS.IRIS%3Acontours_iris&OUTPUTFORMAT=application%2Fjson&COUNT=1000&CQL_FILTER=code_insee%3D%2767447%27&SRSNAME=EPSG%3A4326","license":"Licence Ouverte / Open Licence 2.0","sourceYear":"2026","communeCode":"67447","communeName":"Schiltigheim","featureCount":11,"parentCount":1,"parentContract":"technical commune group; not selectable and not displayed as a district","sourceFeatureCount":12,"humanLabelContract":"one visible plate per unique official human place name","groupingContract":"only exact source-ID groups approved by the resolved curation, or source zones sharing the same official name and parent, are merged","groupedZoneCount":1,"groupedSourceFeatureCount":2,"curationStatus":"resolved","curationRevision":1,"curationSources":[{"id":"ign-insee-contours-iris-2026","provider":"IGN / INSEE - Contours IRIS WFS Géoplateforme","datasetUrl":"https://geoservices.ign.fr/contoursiris","role":"official geometry, source identifiers and source labels","vintage":"2026","license":"Licence Ouverte / Open Licence 2.0"},{"id":"ign-geoplateforme-toponymy-2026","provider":"IGN Géoplateforme - reverse geocoding, addresses and named places","datasetUrl":"https://geoservices.ign.fr/geocodage-geoplateforme","role":"official address, street and named-place evidence","vintage":"2026","license":"Licence Ouverte / Open Licence 2.0"},{"id":"guide-alpha-editorial-recovery-2026-07-14","provider":"Meewav Guide Alpha editorial review","datasetUrl":"docs/geospatial/france-semantic-recovery.md","role":"versioned mapping of exact official IRIS identifiers to coherent human place names","vintage":"2026-07-14","license":"Project documentation"}],"sourceCorrections":[{"operationId":"schiltigheim-674470101-accept-nord-nord-est","type":"accept","sourceIds":["674470101"],"expectedLabels":["Nord-Nord-Est"],"outputLabel":"Nord-Nord-Est","evidenceRefs":["ign-insee-contours-iris-2026","guide-alpha-editorial-recovery-2026-07-14"],"rationale":"The directional wording is the exact official IGN/INSEE IRIS sector label. No licensed municipal polygon crosswalk proves a safer replacement, so it is explicitly retained instead of inventing a neighborhood."},{"operationId":"schiltigheim-674470102-accept-est","type":"accept","sourceIds":["674470102"],"expectedLabels":["Est"],"outputLabel":"Est","evidenceRefs":["ign-insee-contours-iris-2026","guide-alpha-editorial-recovery-2026-07-14"],"rationale":"The directional wording is the exact official IGN/INSEE IRIS sector label. No licensed municipal polygon crosswalk proves a safer replacement, so it is explicitly retained instead of inventing a neighborhood."},{"operationId":"schiltigheim-674470103-accept-sud-est","type":"accept","sourceIds":["674470103"],"expectedLabels":["Sud-Est"],"outputLabel":"Sud-Est","evidenceRefs":["ign-insee-contours-iris-2026","guide-alpha-editorial-recovery-2026-07-14"],"rationale":"The directional wording is the exact official IGN/INSEE IRIS sector label. No licensed municipal polygon crosswalk proves a safer replacement, so it is explicitly retained instead of inventing a neighborhood."},{"operationId":"schiltigheim-674470201-accept-nord-est","type":"accept","sourceIds":["674470201"],"expectedLabels":["Nord-Est"],"outputLabel":"Nord-Est","evidenceRefs":["ign-insee-contours-iris-2026","guide-alpha-editorial-recovery-2026-07-14"],"rationale":"The directional wording is the exact official IGN/INSEE IRIS sector label. No licensed municipal polygon crosswalk proves a safer replacement, so it is explicitly retained instead of inventing a neighborhood."},{"operationId":"schiltigheim-674470202-accept-centre-sud-est","type":"accept","sourceIds":["674470202"],"expectedLabels":["Centre Sud-Est"],"outputLabel":"Centre Sud-Est","evidenceRefs":["ign-insee-contours-iris-2026","guide-alpha-editorial-recovery-2026-07-14"],"rationale":"The directional wording is the exact official IGN/INSEE IRIS sector label. No licensed municipal polygon crosswalk proves a safer replacement, so it is explicitly retained instead of inventing a neighborhood."},{"operationId":"schiltigheim-674470203-accept-centre-nord-est","type":"accept","sourceIds":["674470203"],"expectedLabels":["Centre Nord-Est"],"outputLabel":"Centre Nord-Est","evidenceRefs":["ign-insee-contours-iris-2026","guide-alpha-editorial-recovery-2026-07-14"],"rationale":"The directional wording is the exact official IGN/INSEE IRIS sector label. No licensed municipal polygon crosswalk proves a safer replacement, so it is explicitly retained instead of inventing a neighborhood."},{"operationId":"schiltigheim-674470301-accept-centre-centre-nord","type":"accept","sourceIds":["674470301"],"expectedLabels":["Centre-Centre Nord"],"outputLabel":"Centre-Centre Nord","evidenceRefs":["ign-insee-contours-iris-2026","guide-alpha-editorial-recovery-2026-07-14"],"rationale":"The directional wording is the exact official IGN/INSEE IRIS sector label. No licensed municipal polygon crosswalk proves a safer replacement, so it is explicitly retained instead of inventing a neighborhood."},{"operationId":"schiltigheim-674470402-accept-centre-nord-ouest","type":"accept","sourceIds":["674470402"],"expectedLabels":["Centre Nord-Ouest"],"outputLabel":"Centre Nord-Ouest","evidenceRefs":["ign-insee-contours-iris-2026","guide-alpha-editorial-recovery-2026-07-14"],"rationale":"The directional wording is the exact official IGN/INSEE IRIS sector label. No licensed municipal polygon crosswalk proves a safer replacement, so it is explicitly retained instead of inventing a neighborhood."},{"operationId":"schiltigheim-674470501-accept-centre-sud","type":"accept","sourceIds":["674470501"],"expectedLabels":["Centre Sud"],"outputLabel":"Centre Sud","evidenceRefs":["ign-insee-contours-iris-2026","guide-alpha-editorial-recovery-2026-07-14"],"rationale":"The directional wording is the exact official IGN/INSEE IRIS sector label. No licensed municipal polygon crosswalk proves a safer replacement, so it is explicitly retained instead of inventing a neighborhood."},{"operationId":"schiltigheim-674470502-accept-ouest","type":"accept","sourceIds":["674470502"],"expectedLabels":["Ouest"],"outputLabel":"Ouest","evidenceRefs":["ign-insee-contours-iris-2026","guide-alpha-editorial-recovery-2026-07-14"],"rationale":"The directional wording is the exact official IGN/INSEE IRIS sector label. No licensed municipal polygon crosswalk proves a safer replacement, so it is explicitly retained instead of inventing a neighborhood."},{"operationId":"schiltigheim-centre-nord-merge","type":"merge","sourceIds":["674470302","674470401"],"expectedLabels":["Centre Nord 1","Centre Nord 2"],"outputLabel":"Centre Nord","evidenceRefs":["ign-insee-contours-iris-2026","ign-geoplateforme-toponymy-2026","guide-alpha-editorial-recovery-2026-07-14"],"rationale":"The exact numbered IRIS cells share the same human base name and form one connected geometry; only the statistical suffix is removed."}],"bbox":[7.70107669,48.5980558,7.80368599,48.63506545],"areaStatsM2":{"minimum":203703.19140625,"average":686857.2112260298,"maximum":2437417.1501464844}},"features":[{"type":"Feature","id":"schiltigheim_674470101_nord_nord_est","properties":{"zoneId":"schiltigheim_674470101_nord_nord_est","label":"Nord-Nord-Est","districtCode":"674470101","arrondissementCode":"67447","colorIndex":0,"parentZoneId":"schiltigheim_parent_67447_schiltigheim","parentCode":"67447","parentLabel":"Schiltigheim","territoryType":"iris","source":"IGN / INSEE - Contours IRIS WFS Géoplateforme","sourceYear":"2026","officialId":"674470101","sourceCleabs":"IRIS____0000000674470101","communeCode":"67447","communeName":"Schiltigheim","irisCode":"0101","irisType":"A","officialAreaM2":1859936.3513183594,"labelLng":7.782453801787948,"labelLat":48.62510628891556,"bbox":[7.75429868,48.61243333,7.80368599,48.63506545],"curationOperationId":"schiltigheim-674470101-accept-nord-nord-est","curationRevision":1,"curationEvidenceRefs":["ign-insee-contours-iris-2026","guide-alpha-editorial-recovery-2026-07-14"],"curationRationale":"The directional wording is the exact official IGN/INSEE IRIS sector label. No licensed municipal polygon crosswalk proves a safer replacement, so it is explicitly retained instead of inventing a neighborhood.","semanticLabelReviewed":true,"semanticLabelAccepted":true,"semanticResolution":"accept"},"geometry":{"type":"MultiPolygon","coordinates":[[[[7.76577645,48.61818495],[7.76436907,48.61889376],[7.76468418,48.61923439],[7.76675019,48.61807204],[7.76577645,48.61818495]]],[[[7.76645928,48.61371763],[7.76778164,48.6167736],[7.76793331,48.61657377],[7.76929634,48.62080409],[7.7701595,48.62214553],[7.77123494,48.62310178],[7.77246337,48.62382749],[7.77396833,48.62455921],[7.77676033,48.62585293],[7.77837413,48.62648021],[7.78195696,48.62757443],[7.77926704,48.62878282],[7.77799496,48.62944129],[7.78338204,48.63371525],[7.78383708,48.63391864],[7.78532476,48.63506545],[7.78604739,48.63471648],[7.78963008,48.63342696],[7.78959758,48.63323542],[7.7903584,48.63305159],[7.78987,48.63103015],[7.79262654,48.63103899],[7.79322592,48.63032546],[7.79491272,48.62872102],[7.79652811,48.62796922],[7.79733264,48.62780341],[7.79847824,48.62778425],[7.79849658,48.62844316],[7.79857544,48.62859137],[7.79879716,48.62871129],[7.80056945,48.62878038],[7.80102869,48.62897002],[7.80279047,48.62922062],[7.80328597,48.6284139],[7.80368599,48.62724877],[7.8021706,48.62639436],[7.80128381,48.62615259],[7.80008627,48.6260351],[7.79967803,48.62604527],[7.79739694,48.62643015],[7.79609726,48.62687366],[7.79374367,48.62801026],[7.79206482,48.62857443],[7.79156788,48.62867014],[7.79043772,48.62869492],[7.7892367,48.62856935],[7.78876685,48.62847112],[7.78789062,48.62812159],[7.78723501,48.62767216],[7.78670358,48.62709428],[7.78527275,48.62494761],[7.78501405,48.62434884],[7.7848888,48.62360412],[7.78493701,48.62306148],[7.78521259,48.6221961],[7.78588165,48.62078861],[7.78587283,48.61977156],[7.78566907,48.61929764],[7.78488194,48.61849393],[7.78421826,48.61810338],[7.78334762,48.61773828],[7.78212252,48.61750999],[7.78072821,48.61739301],[7.7798663,48.61742044],[7.77840042,48.61771003],[7.77750061,48.61817062],[7.77668561,48.61853318],[7.7745057,48.61910101],[7.77303468,48.61918618],[7.77190043,48.61880634],[7.77131946,48.61841241],[7.77053748,48.61769222],[7.76804893,48.61515884],[7.76765472,48.61465107],[7.76753242,48.61421892],[7.76754848,48.61378392],[7.76786079,48.61302074],[7.76813213,48.61267283],[7.76761803,48.61251952],[7.76716035,48.61243333],[7.76695607,48.61369592],[7.76645928,48.61371763]]],[[[7.756156,48.62979095],[7.75634636,48.62989598],[7.75643812,48.63048615],[7.75619061,48.6314116],[7.75800895,48.63174801],[7.75825966,48.6308729],[7.75892726,48.62926111],[7.75443721,48.62667685],[7.75429868,48.627889],[7.75440132,48.62825526],[7.7545483,48.62824218],[7.75478482,48.62861571],[7.75616667,48.62960939],[7.756156,48.62979095]]]]}},{"type":"Feature","id":"schiltigheim_674470102_est","properties":{"zoneId":"schiltigheim_674470102_est","label":"Est","districtCode":"674470102","arrondissementCode":"67447","colorIndex":1,"parentZoneId":"schiltigheim_parent_67447_schiltigheim","parentCode":"67447","parentLabel":"Schiltigheim","territoryType":"iris","source":"IGN / INSEE - Contours IRIS WFS Géoplateforme","sourceYear":"2026","officialId":"674470102","sourceCleabs":"IRIS____0000000674470102","communeCode":"67447","communeName":"Schiltigheim","irisCode":"0102","irisType":"H","officialAreaM2":490563.2829589844,"labelLng":7.764208374504176,"labelLat":48.60657042549785,"bbox":[7.75446194,48.59982027,7.77054753,48.61267283],"curationOperationId":"schiltigheim-674470102-accept-est","curationRevision":1,"curationEvidenceRefs":["ign-insee-contours-iris-2026","guide-alpha-editorial-recovery-2026-07-14"],"curationRationale":"The directional wording is the exact official IGN/INSEE IRIS sector label. No licensed municipal polygon crosswalk proves a safer replacement, so it is explicitly retained instead of inventing a neighborhood.","semanticLabelReviewed":true,"semanticLabelAccepted":true,"semanticResolution":"accept"},"geometry":{"type":"MultiPolygon","coordinates":[[[[7.76243447,48.60924785],[7.76288882,48.60952163],[7.7644779,48.60904975],[7.76610406,48.61028226],[7.76646195,48.6106455],[7.76706907,48.61184944],[7.76716035,48.61243333],[7.76761803,48.61251952],[7.76813213,48.61267283],[7.76863175,48.61219051],[7.77035244,48.60995783],[7.77052835,48.60939837],[7.77054753,48.60881906],[7.7703173,48.60826146],[7.76985916,48.60766345],[7.76885692,48.60692504],[7.76803322,48.60654984],[7.76654028,48.60609243],[7.7658586,48.60567999],[7.76540419,48.60527105],[7.76508961,48.60435366],[7.76515456,48.60373917],[7.76539575,48.60312032],[7.76469511,48.60308081],[7.76277826,48.60265205],[7.76286621,48.60252868],[7.76188008,48.60253212],[7.76094003,48.60214622],[7.76051608,48.60207128],[7.75907026,48.60214447],[7.75752986,48.60234308],[7.75654125,48.6021997],[7.75569016,48.60179037],[7.75495445,48.60118538],[7.7548339,48.60072611],[7.75495976,48.59983885],[7.75483851,48.59982027],[7.75457385,48.59995791],[7.75461309,48.60009062],[7.75455262,48.60018765],[7.75446194,48.60099871],[7.75456573,48.60107927],[7.75459451,48.60120158],[7.75631312,48.60257469],[7.75767335,48.60374134],[7.75892101,48.60473044],[7.76120878,48.60644208],[7.76271847,48.60763603],[7.76259509,48.60790771],[7.76243447,48.60924785]]]]}},{"type":"Feature","id":"schiltigheim_674470103_sud_est","properties":{"zoneId":"schiltigheim_674470103_sud_est","label":"Sud-Est","districtCode":"674470103","arrondissementCode":"67447","colorIndex":2,"parentZoneId":"schiltigheim_parent_67447_schiltigheim","parentCode":"67447","parentLabel":"Schiltigheim","territoryType":"iris","source":"IGN / INSEE - Contours IRIS WFS Géoplateforme","sourceYear":"2026","officialId":"674470103","sourceCleabs":"IRIS____0000000674470103","communeCode":"67447","communeName":"Schiltigheim","irisCode":"0103","irisType":"H","officialAreaM2":384875.4592285156,"labelLng":7.749155409757902,"labelLat":48.60130272988613,"bbox":[7.74209973,48.59855983,7.75631312,48.60449429],"curationOperationId":"schiltigheim-674470103-accept-sud-est","curationRevision":1,"curationEvidenceRefs":["ign-insee-contours-iris-2026","guide-alpha-editorial-recovery-2026-07-14"],"curationRationale":"The directional wording is the exact official IGN/INSEE IRIS sector label. No licensed municipal polygon crosswalk proves a safer replacement, so it is explicitly retained instead of inventing a neighborhood.","semanticLabelReviewed":true,"semanticLabelAccepted":true,"semanticResolution":"accept"},"geometry":{"type":"MultiPolygon","coordinates":[[[[7.75457385,48.59995791],[7.75441002,48.60002394],[7.75380435,48.59990758],[7.74918072,48.5994426],[7.74902554,48.59908023],[7.74844143,48.59909635],[7.74781803,48.59855983],[7.74662005,48.5986383],[7.74209973,48.59862131],[7.74245968,48.59914493],[7.74287157,48.59962684],[7.74512234,48.60173313],[7.74592094,48.60268802],[7.74740149,48.60449429],[7.74805311,48.60420334],[7.74893973,48.60401654],[7.74971178,48.60395957],[7.75025965,48.60399266],[7.75061715,48.60405407],[7.75077592,48.60403692],[7.75271633,48.60348448],[7.75317841,48.60344078],[7.75326353,48.60328598],[7.75359471,48.60314748],[7.75376879,48.60302968],[7.75434691,48.60302189],[7.75513292,48.60287962],[7.75631312,48.60257469],[7.75459451,48.60120158],[7.75456573,48.60107927],[7.75446194,48.60099871],[7.75455262,48.60018765],[7.75461309,48.60009062],[7.75457385,48.59995791]]]]}},{"type":"Feature","id":"schiltigheim_674470201_nord_est","properties":{"zoneId":"schiltigheim_674470201_nord_est","label":"Nord-Est","districtCode":"674470201","arrondissementCode":"67447","colorIndex":3,"parentZoneId":"schiltigheim_parent_67447_schiltigheim","parentCode":"67447","parentLabel":"Schiltigheim","territoryType":"iris","source":"IGN / INSEE - Contours IRIS WFS Géoplateforme","sourceYear":"2026","officialId":"674470201","sourceCleabs":"IRIS____0000000674470201","communeCode":"67447","communeName":"Schiltigheim","irisCode":"0201","irisType":"H","officialAreaM2":228221.93139648438,"labelLng":7.755258607638303,"labelLat":48.609139999885514,"bbox":[7.75007036,48.60728003,7.76110253,48.61117253],"curationOperationId":"schiltigheim-674470201-accept-nord-est","curationRevision":1,"curationEvidenceRefs":["ign-insee-contours-iris-2026","guide-alpha-editorial-recovery-2026-07-14"],"curationRationale":"The directional wording is the exact official IGN/INSEE IRIS sector label. No licensed municipal polygon crosswalk proves a safer replacement, so it is explicitly retained instead of inventing a neighborhood.","semanticLabelReviewed":true,"semanticLabelAccepted":true,"semanticResolution":"accept"},"geometry":{"type":"MultiPolygon","coordinates":[[[[7.75108303,48.61117253],[7.75312084,48.61104605],[7.75502452,48.61046081],[7.75509518,48.61071481],[7.75544073,48.61107767],[7.75811365,48.61014982],[7.76051401,48.60872187],[7.76110253,48.60823061],[7.76089381,48.60793798],[7.76049818,48.60759246],[7.7600447,48.60737271],[7.75954571,48.60728003],[7.75849781,48.60730755],[7.75748858,48.60738667],[7.75399815,48.60804982],[7.75357751,48.60808646],[7.75209295,48.60800431],[7.75007036,48.60819235],[7.7509277,48.61098859],[7.75108303,48.61117253]]]]}},{"type":"Feature","id":"schiltigheim_674470202_centre_sud_est","properties":{"zoneId":"schiltigheim_674470202_centre_sud_est","label":"Centre Sud-Est","districtCode":"674470202","arrondissementCode":"67447","colorIndex":4,"parentZoneId":"schiltigheim_parent_67447_schiltigheim","parentCode":"67447","parentLabel":"Schiltigheim","territoryType":"iris","source":"IGN / INSEE - Contours IRIS WFS Géoplateforme","sourceYear":"2026","officialId":"674470202","sourceCleabs":"IRIS____0000000674470202","communeCode":"67447","communeName":"Schiltigheim","irisCode":"0202","irisType":"H","officialAreaM2":207698.4306640625,"labelLng":7.75307638770193,"labelLat":48.60470856163627,"bbox":[7.74740149,48.60257469,7.75892101,48.60671545],"curationOperationId":"schiltigheim-674470202-accept-centre-sud-est","curationRevision":1,"curationEvidenceRefs":["ign-insee-contours-iris-2026","guide-alpha-editorial-recovery-2026-07-14"],"curationRationale":"The directional wording is the exact official IGN/INSEE IRIS sector label. No licensed municipal polygon crosswalk proves a safer replacement, so it is explicitly retained instead of inventing a neighborhood.","semanticLabelReviewed":true,"semanticLabelAccepted":true,"semanticResolution":"accept"},"geometry":{"type":"MultiPolygon","coordinates":[[[[7.74740149,48.60449429],[7.74916577,48.60671545],[7.75142153,48.60631265],[7.75161978,48.60623624],[7.75186856,48.60632723],[7.75248442,48.60607643],[7.75314899,48.60595796],[7.75340265,48.60587843],[7.75356777,48.60606558],[7.75470057,48.6058662],[7.75697892,48.60533892],[7.75892101,48.60473044],[7.75767335,48.60374134],[7.75631312,48.60257469],[7.75513292,48.60287962],[7.75434691,48.60302189],[7.75376879,48.60302968],[7.75359471,48.60314748],[7.75326353,48.60328598],[7.75317841,48.60344078],[7.75271633,48.60348448],[7.75077592,48.60403692],[7.75061715,48.60405407],[7.75025965,48.60399266],[7.74971178,48.60395957],[7.74893973,48.60401654],[7.74805311,48.60420334],[7.74740149,48.60449429]]]]}},{"type":"Feature","id":"schiltigheim_674470203_centre_nord_est","properties":{"zoneId":"schiltigheim_674470203_centre_nord_est","label":"Centre Nord-Est","districtCode":"674470203","arrondissementCode":"67447","colorIndex":5,"parentZoneId":"schiltigheim_parent_67447_schiltigheim","parentCode":"67447","parentLabel":"Schiltigheim","territoryType":"iris","source":"IGN / INSEE - Contours IRIS WFS Géoplateforme","sourceYear":"2026","officialId":"674470203","sourceCleabs":"IRIS____0000000674470203","communeCode":"67447","communeName":"Schiltigheim","irisCode":"0203","irisType":"H","officialAreaM2":209348.234375,"labelLng":7.756202620717996,"labelLat":48.60683339982429,"bbox":[7.74916577,48.60473044,7.76271847,48.60924785],"curationOperationId":"schiltigheim-674470203-accept-centre-nord-est","curationRevision":1,"curationEvidenceRefs":["ign-insee-contours-iris-2026","guide-alpha-editorial-recovery-2026-07-14"],"curationRationale":"The directional wording is the exact official IGN/INSEE IRIS sector label. No licensed municipal polygon crosswalk proves a safer replacement, so it is explicitly retained instead of inventing a neighborhood.","semanticLabelReviewed":true,"semanticLabelAccepted":true,"semanticResolution":"accept"},"geometry":{"type":"MultiPolygon","coordinates":[[[[7.76110253,48.60823061],[7.76243447,48.60924785],[7.76259509,48.60790771],[7.76271847,48.60763603],[7.76120878,48.60644208],[7.75892101,48.60473044],[7.75697892,48.60533892],[7.75470057,48.6058662],[7.75356777,48.60606558],[7.75340265,48.60587843],[7.75314899,48.60595796],[7.75248442,48.60607643],[7.75186856,48.60632723],[7.75161978,48.60623624],[7.75142153,48.60631265],[7.74916577,48.60671545],[7.75007036,48.60819235],[7.75209295,48.60800431],[7.75357751,48.60808646],[7.75399815,48.60804982],[7.75748858,48.60738667],[7.75849781,48.60730755],[7.75954571,48.60728003],[7.7600447,48.60737271],[7.76049818,48.60759246],[7.76089381,48.60793798],[7.76110253,48.60823061]]]]}},{"type":"Feature","id":"schiltigheim_674470301_centre_centre_nord","properties":{"zoneId":"schiltigheim_674470301_centre_centre_nord","label":"Centre-Centre Nord","districtCode":"674470301","arrondissementCode":"67447","colorIndex":6,"parentZoneId":"schiltigheim_parent_67447_schiltigheim","parentCode":"67447","parentLabel":"Schiltigheim","territoryType":"iris","source":"IGN / INSEE - Contours IRIS WFS Géoplateforme","sourceYear":"2026","officialId":"674470301","sourceCleabs":"IRIS____0000000674470301","communeCode":"67447","communeName":"Schiltigheim","irisCode":"0301","irisType":"H","officialAreaM2":592798.3540039062,"labelLng":7.747398740759355,"labelLat":48.607371155,"bbox":[7.7370266,48.60268802,7.75123259,48.61205429],"curationOperationId":"schiltigheim-674470301-accept-centre-centre-nord","curationRevision":1,"curationEvidenceRefs":["ign-insee-contours-iris-2026","guide-alpha-editorial-recovery-2026-07-14"],"curationRationale":"The directional wording is the exact official IGN/INSEE IRIS sector label. No licensed municipal polygon crosswalk proves a safer replacement, so it is explicitly retained instead of inventing a neighborhood.","semanticLabelReviewed":true,"semanticLabelAccepted":true,"semanticResolution":"accept"},"geometry":{"type":"MultiPolygon","coordinates":[[[[7.74728054,48.61205429],[7.74727725,48.61192826],[7.75123259,48.6117568],[7.75108303,48.61117253],[7.7509277,48.61098859],[7.75007036,48.60819235],[7.74916577,48.60671545],[7.74740149,48.60449429],[7.74592094,48.60268802],[7.7430312,48.60323045],[7.74328952,48.60336704],[7.74264069,48.6034641],[7.74056601,48.60370543],[7.73774036,48.6037865],[7.73765381,48.60413598],[7.7370266,48.60546221],[7.73765736,48.6062454],[7.74032831,48.60997331],[7.74090894,48.60978255],[7.74089689,48.60960461],[7.74100985,48.60948656],[7.74165034,48.6092817],[7.74186704,48.60913879],[7.74190374,48.60900396],[7.74153812,48.60777407],[7.7415641,48.60765588],[7.74167768,48.60757476],[7.74200416,48.60748875],[7.74534765,48.6069724],[7.74468367,48.60922471],[7.74460658,48.61074169],[7.74443867,48.61185679],[7.74728054,48.61205429]]]]}},{"type":"Feature","id":"schiltigheim_67447_group_centre_nord","properties":{"zoneId":"schiltigheim_67447_group_centre_nord","label":"Centre Nord","districtCode":"group:674470302+674470401","arrondissementCode":"67447","colorIndex":7,"parentZoneId":"schiltigheim_parent_67447_schiltigheim","parentCode":"67447","parentLabel":"Schiltigheim","territoryType":"quartier","source":"IGN / INSEE - Contours IRIS WFS Géoplateforme / regroupement déterministe par nom officiel","sourceYear":"2026","officialId":"iris-group:674470302+674470401","communeCode":"67447","communeName":"Schiltigheim","officialAreaM2":454637.11474609375,"labelLng":7.739517923182859,"labelLat":48.610243812860354,"bbox":[7.73328587,48.60546221,7.74729147,48.6132386],"groupingRule":"curated-exact-source-id-group","sourceZoneCount":2,"sourceIrisIds":["674470302","674470401"],"sourceIrisLabels":["Centre Nord 1","Centre Nord 2"],"curationOperationId":"schiltigheim-centre-nord-merge","curationRevision":1,"curationEvidenceRefs":["ign-insee-contours-iris-2026","ign-geoplateforme-toponymy-2026","guide-alpha-editorial-recovery-2026-07-14"],"curationRationale":"The exact numbered IRIS cells share the same human base name and form one connected geometry; only the statistical suffix is removed.","semanticLabelReviewed":true,"semanticLabelAccepted":false,"semanticResolution":"merge"},"geometry":{"type":"Polygon","coordinates":[[[7.73328587,48.61253455],[7.73364426,48.61120914],[7.73440314,48.60957943],[7.73578429,48.60721393],[7.7366022,48.60638746],[7.73693598,48.60564695],[7.7370266,48.60546221],[7.73765736,48.6062454],[7.74032831,48.60997331],[7.74090894,48.60978255],[7.74089689,48.60960461],[7.74100985,48.60948656],[7.74165034,48.6092817],[7.74186704,48.60913879],[7.74190374,48.60900396],[7.74153812,48.60777407],[7.7415641,48.60765588],[7.74167768,48.60757476],[7.74200416,48.60748875],[7.74534765,48.6069724],[7.74468367,48.60922471],[7.74460658,48.61074169],[7.74443867,48.61185679],[7.74728054,48.61205429],[7.74729147,48.61229445],[7.74574924,48.61219199],[7.74568305,48.61302008],[7.74325672,48.61286454],[7.74208809,48.6126408],[7.74127268,48.61267061],[7.74123015,48.61292101],[7.73899093,48.61279038],[7.73896958,48.61291468],[7.73886642,48.61291609],[7.73882362,48.6132386],[7.73736308,48.61307781],[7.73738693,48.61296602],[7.73685319,48.61290978],[7.73687794,48.61280787],[7.73552978,48.61267231],[7.7355059,48.61276878],[7.73500523,48.61271753],[7.73503282,48.61255693],[7.73429489,48.61248177],[7.73425302,48.61263483],[7.73328587,48.61253455]]]}},{"type":"Feature","id":"schiltigheim_674470402_centre_nord_ouest","properties":{"zoneId":"schiltigheim_674470402_centre_nord_ouest","label":"Centre Nord-Ouest","districtCode":"674470402","arrondissementCode":"67447","colorIndex":0,"parentZoneId":"schiltigheim_parent_67447_schiltigheim","parentCode":"67447","parentLabel":"Schiltigheim","territoryType":"iris","source":"IGN / INSEE - Contours IRIS WFS Géoplateforme","sourceYear":"2026","officialId":"674470402","sourceCleabs":"IRIS____0000000674470402","communeCode":"67447","communeName":"Schiltigheim","irisCode":"0402","irisType":"H","officialAreaM2":486229.8232421875,"labelLng":7.730908513655593,"labelLat":48.60939673032389,"bbox":[7.72645124,48.60550226,7.73693598,48.61401146],"curationOperationId":"schiltigheim-674470402-accept-centre-nord-ouest","curationRevision":1,"curationEvidenceRefs":["ign-insee-contours-iris-2026","guide-alpha-editorial-recovery-2026-07-14"],"curationRationale":"The directional wording is the exact official IGN/INSEE IRIS sector label. No licensed municipal polygon crosswalk proves a safer replacement, so it is explicitly retained instead of inventing a neighborhood.","semanticLabelReviewed":true,"semanticLabelAccepted":true,"semanticResolution":"accept"},"geometry":{"type":"MultiPolygon","coordinates":[[[[7.72645124,48.61395888],[7.72834773,48.61401146],[7.72825566,48.61312841],[7.73061481,48.61329323],[7.73296938,48.61369248],[7.73328587,48.61253455],[7.73364426,48.61120914],[7.73440314,48.60957943],[7.73578429,48.60721393],[7.7366022,48.60638746],[7.73693598,48.60564695],[7.73660782,48.60559424],[7.73457553,48.60550936],[7.73366721,48.60550226],[7.73204644,48.60558028],[7.73097606,48.60571929],[7.72886159,48.60619808],[7.72736403,48.606482],[7.72716363,48.60719645],[7.72703338,48.60804058],[7.72664052,48.6116625],[7.72645124,48.61395888]]]]}},{"type":"Feature","id":"schiltigheim_674470501_centre_sud","properties":{"zoneId":"schiltigheim_674470501_centre_sud","label":"Centre Sud","districtCode":"674470501","arrondissementCode":"67447","colorIndex":1,"parentZoneId":"schiltigheim_parent_67447_schiltigheim","parentCode":"67447","parentLabel":"Schiltigheim","territoryType":"iris","source":"IGN / INSEE - Contours IRIS WFS Géoplateforme","sourceYear":"2026","officialId":"674470501","sourceCleabs":"IRIS____0000000674470501","communeCode":"67447","communeName":"Schiltigheim","irisCode":"0501","irisType":"H","officialAreaM2":203703.19140625,"labelLng":7.741533698581158,"labelLat":48.60153116519413,"bbox":[7.73774036,48.59825125,7.74592094,48.6037865],"curationOperationId":"schiltigheim-674470501-accept-centre-sud","curationRevision":1,"curationEvidenceRefs":["ign-insee-contours-iris-2026","guide-alpha-editorial-recovery-2026-07-14"],"curationRationale":"The directional wording is the exact official IGN/INSEE IRIS sector label. No licensed municipal polygon crosswalk proves a safer replacement, so it is explicitly retained instead of inventing a neighborhood.","semanticLabelReviewed":true,"semanticLabelAccepted":true,"semanticResolution":"accept"},"geometry":{"type":"MultiPolygon","coordinates":[[[[7.74209973,48.59862131],[7.74060024,48.59825125],[7.73963238,48.59993983],[7.73847482,48.60229469],[7.73788066,48.60338531],[7.73774036,48.6037865],[7.74056601,48.60370543],[7.74264069,48.6034641],[7.74328952,48.60336704],[7.7430312,48.60323045],[7.74592094,48.60268802],[7.74512234,48.60173313],[7.74287157,48.59962684],[7.74245968,48.59914493],[7.74209973,48.59862131]]]]}},{"type":"Feature","id":"schiltigheim_674470502_ouest","properties":{"zoneId":"schiltigheim_674470502_ouest","label":"Ouest","districtCode":"674470502","arrondissementCode":"67447","colorIndex":2,"parentZoneId":"schiltigheim_parent_67447_schiltigheim","parentCode":"67447","parentLabel":"Schiltigheim","territoryType":"iris","source":"IGN / INSEE - Contours IRIS WFS Géoplateforme","sourceYear":"2026","officialId":"674470502","sourceCleabs":"IRIS____0000000674470502","communeCode":"67447","communeName":"Schiltigheim","irisCode":"0502","irisType":"H","officialAreaM2":2437417.1501464844,"labelLng":7.71885870866275,"labelLat":48.60880609599639,"bbox":[7.70107669,48.5980558,7.74060024,48.61632885],"curationOperationId":"schiltigheim-674470502-accept-ouest","curationRevision":1,"curationEvidenceRefs":["ign-insee-contours-iris-2026","guide-alpha-editorial-recovery-2026-07-14"],"curationRationale":"The directional wording is the exact official IGN/INSEE IRIS sector label. No licensed municipal polygon crosswalk proves a safer replacement, so it is explicitly retained instead of inventing a neighborhood.","semanticLabelReviewed":true,"semanticLabelAccepted":true,"semanticResolution":"accept"},"geometry":{"type":"MultiPolygon","coordinates":[[[[7.74060024,48.59825125],[7.73980677,48.5980558],[7.73939085,48.59827874],[7.7375118,48.59932775],[7.73725511,48.59944882],[7.73685982,48.59950963],[7.73510526,48.60031394],[7.73359295,48.60113831],[7.73081358,48.60174454],[7.72976038,48.6012764],[7.72651723,48.60204335],[7.72396791,48.60265559],[7.72424533,48.60310955],[7.72207316,48.6029336],[7.72301853,48.60448024],[7.72179001,48.6047489],[7.72217382,48.60529777],[7.72185251,48.60539613],[7.72174164,48.60574837],[7.72157036,48.60567226],[7.72118226,48.60624997],[7.72055264,48.60604879],[7.72047824,48.6065041],[7.71852477,48.60566608],[7.71819171,48.60679399],[7.71625177,48.60615094],[7.71615145,48.60633424],[7.71404527,48.60520304],[7.71225431,48.60588047],[7.71032446,48.6042466],[7.70951653,48.60478052],[7.70880535,48.60417069],[7.70557451,48.60598546],[7.70659243,48.60724098],[7.7068365,48.60768819],[7.70548155,48.6080635],[7.70556581,48.6082449],[7.70488759,48.60857541],[7.70107669,48.610185],[7.7015414,48.61045679],[7.70218046,48.6102495],[7.70200767,48.61343634],[7.70307107,48.61345918],[7.70285405,48.61508074],[7.70186215,48.61518843],[7.70214544,48.61632885],[7.70631502,48.61524212],[7.70676115,48.61588047],[7.7077459,48.61528552],[7.70944404,48.61556522],[7.71171683,48.61499762],[7.71364944,48.61460656],[7.71571005,48.61433926],[7.71648593,48.61622156],[7.71807015,48.61602086],[7.7194788,48.61589289],[7.72068698,48.61563679],[7.72100605,48.61564846],[7.72615424,48.61456722],[7.72623599,48.61395301],[7.72645124,48.61395888],[7.72664052,48.6116625],[7.72703338,48.60804058],[7.72716363,48.60719645],[7.72736403,48.606482],[7.72886159,48.60619808],[7.73097606,48.60571929],[7.73204644,48.60558028],[7.73366721,48.60550226],[7.73457553,48.60550936],[7.73660782,48.60559424],[7.73693598,48.60564695],[7.7370266,48.60546221],[7.73765381,48.60413598],[7.73774036,48.6037865],[7.73788066,48.60338531],[7.73847482,48.60229469],[7.73963238,48.59993983],[7.74060024,48.59825125]]]]}}]}
