{"type":"FeatureCollection","metadata":{"generatedAt":"2026-07-14T16:01:42.412Z","source":"IGN / INSEE - Contours IRIS WFS Géoplateforme","datasetId":"STATISTICALUNITS.IRIS:contours_iris","datasetUrl":"https://geoservices.ign.fr/contoursiris","sourceFileUrl":"https://data.geopf.fr/wfs/ows?SERVICE=WFS&VERSION=2.0.0&REQUEST=GetFeature&TYPENAMES=STATISTICALUNITS.IRIS%3Acontours_iris&OUTPUTFORMAT=application%2Fjson&COUNT=1000&CQL_FILTER=code_insee%3D%2734301%27&SRSNAME=EPSG%3A4326","license":"Licence Ouverte / Open Licence 2.0","sourceYear":"2026","communeCode":"34301","communeName":"Sète","featureCount":19,"parentCount":1,"parentContract":"technical commune group; not selectable and not displayed as a district","sourceFeatureCount":20,"humanLabelContract":"one visible plate per unique official human place name","groupingContract":"only source zones sharing the same official name and parent are merged","groupedZoneCount":1,"groupedSourceFeatureCount":2,"bbox":[3.5530176,43.32625,3.7482342,43.43023939],"areaStatsM2":{"minimum":142769.08520507812,"average":2121167.8698537727,"maximum":27801160.026245117}},"features":[{"type":"Feature","id":"sete_343010101_le_conservatoire","properties":{"zoneId":"sete_343010101_le_conservatoire","label":"Le Conservatoire","districtCode":"343010101","arrondissementCode":"34301","colorIndex":0,"parentZoneId":"sete_parent_34301_sete","parentCode":"34301","parentLabel":"Sète","territoryType":"iris","source":"IGN / INSEE - Contours IRIS WFS Géoplateforme","sourceYear":"2026","officialId":"343010101","sourceCleabs":"IRIS____0000000343010101","communeCode":"34301","communeName":"Sète","irisCode":"0101","irisType":"H","officialAreaM2":254205.748046875,"labelLng":3.6885174889895347,"labelLat":43.408969554521654,"bbox":[3.68474845,43.40602174,3.6928101,43.41201468]},"geometry":{"type":"MultiPolygon","coordinates":[[[[3.68791853,43.41201468],[3.68857936,43.41185753],[3.68946116,43.41170617],[3.69203548,43.41150083],[3.69226194,43.41155246],[3.69269299,43.41178632],[3.6928101,43.41167311],[3.69234014,43.41138462],[3.69097307,43.41027865],[3.69216408,43.409572],[3.69088878,43.40839707],[3.68984714,43.40828315],[3.69011894,43.40676547],[3.6910714,43.40685386],[3.69117003,43.40633232],[3.68809248,43.40602174],[3.68787135,43.40610411],[3.6874128,43.40614571],[3.68669922,43.40632387],[3.68651135,43.406505],[3.68525209,43.40738746],[3.68510884,43.40758629],[3.68474845,43.40851523],[3.68627877,43.40997472],[3.68689321,43.41079223],[3.68781862,43.41181288],[3.68791853,43.41201468]]]]}},{"type":"Feature","id":"sete_343010102_le_commissariat","properties":{"zoneId":"sete_343010102_le_commissariat","label":"Le Commissariat","districtCode":"343010102","arrondissementCode":"34301","colorIndex":1,"parentZoneId":"sete_parent_34301_sete","parentCode":"34301","parentLabel":"Sète","territoryType":"iris","source":"IGN / INSEE - Contours IRIS WFS Géoplateforme","sourceYear":"2026","officialId":"343010102","sourceCleabs":"IRIS____0000000343010102","communeCode":"34301","communeName":"Sète","irisCode":"0102","irisType":"H","officialAreaM2":170064.71838378906,"labelLng":3.6929996223811754,"labelLat":43.408433746794934,"bbox":[3.68984714,43.40633232,3.69641592,43.41167311]},"geometry":{"type":"MultiPolygon","coordinates":[[[[3.6928101,43.41167311],[3.69412636,43.41019731],[3.69574522,43.40813656],[3.69641592,43.40686191],[3.69117003,43.40633232],[3.6910714,43.40685386],[3.69011894,43.40676547],[3.68984714,43.40828315],[3.69088878,43.40839707],[3.69216408,43.409572],[3.69097307,43.41027865],[3.69234014,43.41138462],[3.6928101,43.41167311]]]]}},{"type":"Feature","id":"sete_343010103_la_mediatheque","properties":{"zoneId":"sete_343010103_la_mediatheque","label":"La Médiathèque","districtCode":"343010103","arrondissementCode":"34301","colorIndex":2,"parentZoneId":"sete_parent_34301_sete","parentCode":"34301","parentLabel":"Sète","territoryType":"iris","source":"IGN / INSEE - Contours IRIS WFS Géoplateforme","sourceYear":"2026","officialId":"343010103","sourceCleabs":"IRIS____0000000343010103","communeCode":"34301","communeName":"Sète","irisCode":"0103","irisType":"H","officialAreaM2":161990.93188476562,"labelLng":3.693193313866745,"labelLat":43.40534170950437,"bbox":[3.68809248,43.40390397,3.6970608,43.40686191]},"geometry":{"type":"MultiPolygon","coordinates":[[[[3.69641592,43.40686191],[3.69678853,43.40563416],[3.6970608,43.404273],[3.69316082,43.40390397],[3.69314183,43.40396707],[3.69295508,43.40413651],[3.69274886,43.40422599],[3.69068793,43.40399895],[3.68994548,43.40464784],[3.68847976,43.40569719],[3.68809248,43.40602174],[3.69117003,43.40633232],[3.69641592,43.40686191]]]]}},{"type":"Feature","id":"sete_343010104_la_mairie","properties":{"zoneId":"sete_343010104_la_mairie","label":"La Mairie","districtCode":"343010104","arrondissementCode":"34301","colorIndex":3,"parentZoneId":"sete_parent_34301_sete","parentCode":"34301","parentLabel":"Sète","territoryType":"iris","source":"IGN / INSEE - Contours IRIS WFS Géoplateforme","sourceYear":"2026","officialId":"343010104","sourceCleabs":"IRIS____0000000343010104","communeCode":"34301","communeName":"Sète","irisCode":"0104","irisType":"H","officialAreaM2":142769.08520507812,"labelLng":3.694514706844436,"labelLat":43.402697871853285,"bbox":[3.69068793,43.40074542,3.69744235,43.404273]},"geometry":{"type":"MultiPolygon","coordinates":[[[[3.6970608,43.404273],[3.69743788,43.40239835],[3.69744235,43.40174876],[3.69666422,43.4016836],[3.69645969,43.40099397],[3.69626609,43.40100421],[3.69621473,43.4016541],[3.69568125,43.40161794],[3.69573268,43.40097255],[3.69341275,43.40074542],[3.69298076,43.40145172],[3.69286358,43.40145517],[3.69256291,43.40159025],[3.69244743,43.40194006],[3.69229288,43.40222174],[3.69178813,43.40293301],[3.69068793,43.40399895],[3.69274886,43.40422599],[3.69295508,43.40413651],[3.69314183,43.40396707],[3.69316082,43.40390397],[3.6970608,43.404273]]]]}},{"type":"Feature","id":"sete_343010201_ile_sud","properties":{"zoneId":"sete_343010201_ile_sud","label":"Île Sud","districtCode":"343010201","arrondissementCode":"34301","colorIndex":4,"parentZoneId":"sete_parent_34301_sete","parentCode":"34301","parentLabel":"Sète","territoryType":"iris","source":"IGN / INSEE - Contours IRIS WFS Géoplateforme","sourceYear":"2026","officialId":"343010201","sourceCleabs":"IRIS____0000000343010201","communeCode":"34301","communeName":"Sète","irisCode":"0201","irisType":"H","officialAreaM2":332474.1251220703,"labelLng":3.699302243329396,"labelLat":43.40276902926429,"bbox":[3.69678853,43.3943512,3.70276454,43.40780328]},"geometry":{"type":"MultiPolygon","coordinates":[[[[3.69955769,43.3957955],[3.6995959,43.39589422],[3.6996947,43.39590258],[3.69970594,43.39581254],[3.70084321,43.39599411],[3.70107892,43.39610055],[3.70124324,43.39642336],[3.7013047,43.39640497],[3.70149249,43.39662867],[3.70154436,43.39683526],[3.70204091,43.39708395],[3.70239911,43.39711761],[3.70258318,43.39703545],[3.70221565,43.39623713],[3.70239477,43.39575015],[3.70254215,43.39569521],[3.70266672,43.39579337],[3.70276454,43.39572076],[3.70221701,43.39533745],[3.70214745,43.39539998],[3.70195827,43.39536612],[3.70192039,43.39529439],[3.70183699,43.39553784],[3.70172574,43.39552057],[3.70172481,43.3954441],[3.70168417,43.39544977],[3.70062451,43.3952578],[3.70078094,43.39493291],[3.70186162,43.3944203],[3.70183363,43.3943512],[3.70174883,43.39437784],[3.70064459,43.39487981],[3.70036807,43.39547538],[3.70015922,43.3955487],[3.69825678,43.39534507],[3.69805831,43.39525638],[3.69730072,43.3951488],[3.69732819,43.3954815],[3.69955769,43.3957955]]],[[[3.7000846,43.4026026],[3.70014362,43.40035304],[3.70170884,43.40020795],[3.70184313,43.40009013],[3.7019857,43.39963937],[3.70189857,43.39957696],[3.70181297,43.39964049],[3.70168927,43.3996143],[3.69964681,43.39805309],[3.69943861,43.39818039],[3.69970053,43.39841261],[3.69969202,43.39872755],[3.69882841,43.39873313],[3.69882688,43.39860719],[3.6986403,43.39848244],[3.69865711,43.39783457],[3.69907668,43.39784085],[3.69928903,43.3980554],[3.69950957,43.39792803],[3.69914753,43.39757949],[3.69890069,43.39757209],[3.69888922,43.39764414],[3.69859303,43.39763705],[3.69857971,43.39755617],[3.69813558,43.39755903],[3.69812411,43.39763108],[3.69748336,43.39759742],[3.69726057,43.40049309],[3.69744235,43.40174876],[3.69743788,43.40239835],[3.6970608,43.404273],[3.69678853,43.40563416],[3.70152501,43.40780328],[3.70163573,43.40443419],[3.7018648,43.4027782],[3.7000846,43.4026026]]]]}},{"type":"Feature","id":"sete_343010301_zone_portuaire","properties":{"zoneId":"sete_343010301_zone_portuaire","label":"Zone Portuaire","districtCode":"343010301","arrondissementCode":"34301","colorIndex":5,"parentZoneId":"sete_parent_34301_sete","parentCode":"34301","parentLabel":"Sète","territoryType":"iris","source":"IGN / INSEE - Contours IRIS WFS Géoplateforme","sourceYear":"2026","officialId":"343010301","sourceCleabs":"IRIS____0000000343010301","communeCode":"34301","communeName":"Sète","irisCode":"0301","irisType":"A","officialAreaM2":2446677.4373779297,"labelLng":3.712544265492898,"labelLat":43.40833183650133,"bbox":[3.69974542,43.39287164,3.7482342,43.41994275]},"geometry":{"type":"MultiPolygon","coordinates":[[[[3.70249012,43.39325115],[3.70258906,43.39347273],[3.70276286,43.39356157],[3.70291067,43.39354261],[3.70305133,43.39334198],[3.70418306,43.39347767],[3.70452435,43.39374355],[3.70446832,43.39380239],[3.70510859,43.39400155],[3.70497321,43.39392776],[3.70510014,43.39371461],[3.7054001,43.39382871],[3.70626143,43.39424774],[3.70710423,43.39486391],[3.70742275,43.39518301],[3.70771415,43.39590444],[3.70797906,43.39607724],[3.70820675,43.39603167],[3.70827219,43.39593588],[3.71040453,43.39626828],[3.71732792,43.39711871],[3.71752598,43.39717138],[3.71749927,43.39730471],[3.71792683,43.39735855],[3.71794555,43.39727656],[3.71813831,43.39729957],[3.71811335,43.39737621],[3.71839527,43.39742562],[3.71898012,43.39732907],[3.72572771,43.39820892],[3.73052659,43.39883881],[3.73110975,43.39909578],[3.73146581,43.39895843],[3.73147552,43.39875144],[3.7313012,43.39862666],[3.73032577,43.39857026],[3.72102013,43.39737309],[3.71917867,43.39712443],[3.718473,43.39693118],[3.71817748,43.39697813],[3.71736247,43.39692055],[3.71713939,43.39684106],[3.70881055,43.39577132],[3.70852582,43.39569221],[3.7081155,43.39543399],[3.70769009,43.39495095],[3.70766376,43.39481617],[3.70684194,43.39420077],[3.70562505,43.39356095],[3.70395374,43.39308601],[3.70321215,43.39297387],[3.70221305,43.39298935],[3.70094091,43.39287164],[3.70069583,43.39300817],[3.70082073,43.39313332],[3.70117814,43.39310402],[3.70249012,43.39325115]]],[[[3.72422381,43.41764034],[3.72377312,43.41752639],[3.72414352,43.41714425],[3.72447371,43.41631343],[3.72503215,43.41606588],[3.72511843,43.41321601],[3.72513654,43.41269407],[3.72523526,43.41269341],[3.72514219,43.41216322],[3.72547914,43.4075636],[3.72527616,43.40712412],[3.72478328,43.4071814],[3.722969,43.40715754],[3.7229963,43.40638364],[3.72272473,43.40637645],[3.72263875,43.40837431],[3.72277482,43.40840039],[3.72276689,43.40875132],[3.72268187,43.40885985],[3.72243598,43.40893346],[3.72211482,43.40890861],[3.72215048,43.40880042],[3.72202664,43.40876525],[3.72173399,43.4090461],[3.71756003,43.40683364],[3.71721309,43.40671898],[3.71721443,43.40682693],[3.71963649,43.40808841],[3.71940351,43.40820692],[3.71873786,43.40826532],[3.71691145,43.40726978],[3.71698447,43.40718833],[3.7168603,43.40712617],[3.71679458,43.40719948],[3.71469958,43.40613372],[3.71355219,43.40535407],[3.71359151,43.40524045],[3.71415752,43.40511076],[3.71434721,43.40518328],[3.71462398,43.40491426],[3.71457239,43.40483362],[3.714201,43.40473621],[3.71615669,43.40075933],[3.71559468,43.4006119],[3.71465605,43.39884935],[3.71450088,43.39897273],[3.71466529,43.39929552],[3.71414456,43.4002859],[3.71340435,43.40009555],[3.71382905,43.39922007],[3.71361877,43.39917737],[3.71360062,43.39900745],[3.71392713,43.39867242],[3.71394738,43.39851395],[3.71366058,43.39866878],[3.71339075,43.39899804],[3.71316054,43.39893928],[3.71285745,43.39907443],[3.71106624,43.39859948],[3.70919566,43.40239667],[3.7087178,43.40226844],[3.70858667,43.4025419],[3.70733527,43.4022226],[3.70719823,43.40211553],[3.70727049,43.40197112],[3.70702285,43.40190076],[3.70839875,43.39900202],[3.7072426,43.3986965],[3.70710347,43.39841851],[3.70683442,43.39821154],[3.70685891,43.39809532],[3.70672641,43.3980566],[3.70633713,43.39830655],[3.70637536,43.39840526],[3.70657264,43.39839498],[3.70657419,43.39852092],[3.70526348,43.39929419],[3.7049741,43.39984487],[3.70481437,43.39989989],[3.70475423,43.40002624],[3.70461808,43.39999114],[3.70454581,43.40013555],[3.70466963,43.40017073],[3.70452587,43.40052254],[3.70446528,43.4006129],[3.70432913,43.4005778],[3.70426931,43.40073113],[3.70439302,43.40075732],[3.70436933,43.40083844],[3.70423703,43.4011182],[3.70411453,43.40119097],[3.70342827,43.40056566],[3.70423464,43.39890503],[3.70413396,43.39874374],[3.70388689,43.39871836],[3.70377673,43.39879105],[3.70304228,43.40028028],[3.70272052,43.40020139],[3.70240677,43.40077922],[3.70240918,43.40097713],[3.70576651,43.40409516],[3.70487352,43.40473075],[3.70232031,43.40279504],[3.7018648,43.4027782],[3.70163573,43.40443419],[3.70152501,43.40780328],[3.70099264,43.40786251],[3.70092707,43.4079502],[3.70082349,43.40795717],[3.70074247,43.40809355],[3.70060224,43.41107058],[3.70018096,43.41133691],[3.69982248,43.41149128],[3.69974542,43.41205587],[3.70127413,43.41233118],[3.70591129,43.41328621],[3.70616554,43.4125837],[3.70615874,43.41192878],[3.70636685,43.41138942],[3.70743939,43.41139861],[3.70753737,43.41143845],[3.70825104,43.41227049],[3.70878372,43.41203309],[3.70932566,43.41154552],[3.71977467,43.41637625],[3.72080613,43.41684262],[3.72118885,43.41695073],[3.72259535,43.41759903],[3.72300731,43.41797055],[3.72313996,43.41801735],[3.72319264,43.41818254],[3.72383355,43.41830781],[3.72402492,43.4178216],[3.72422381,43.41764034]]],[[[3.73124172,43.41337277],[3.73201494,43.41400632],[3.73267471,43.4144517],[3.7339665,43.41509973],[3.73769948,43.41651386],[3.74586866,43.41927394],[3.74803732,43.41994275],[3.7482342,43.4198964],[3.74822045,43.41978854],[3.73837893,43.41656321],[3.73413732,43.41494562],[3.73254695,43.41411069],[3.73142476,43.41320959],[3.73069875,43.41240478],[3.72587666,43.40581557],[3.7257227,43.40534877],[3.72568679,43.40445833],[3.7257696,43.40221758],[3.72611072,43.40089278],[3.72596142,43.40079481],[3.72582628,43.4008407],[3.72573086,43.40110225],[3.72550903,43.40210237],[3.72549161,43.40267828],[3.72510633,43.40294806],[3.72487106,43.40356861],[3.72504939,43.40420799],[3.72507916,43.40520013],[3.73056609,43.41264859],[3.73124172,43.41337277]]]]}},{"type":"Feature","id":"sete_343010401_la_gendarmerie","properties":{"zoneId":"sete_343010401_la_gendarmerie","label":"La Gendarmerie","districtCode":"343010401","arrondissementCode":"34301","colorIndex":6,"parentZoneId":"sete_parent_34301_sete","parentCode":"34301","parentLabel":"Sète","territoryType":"iris","source":"IGN / INSEE - Contours IRIS WFS Géoplateforme","sourceYear":"2026","officialId":"343010401","sourceCleabs":"IRIS____0000000343010401","communeCode":"34301","communeName":"Sète","irisCode":"0401","irisType":"H","officialAreaM2":294841.7803955078,"labelLng":3.68163602182912,"labelLat":43.41028913010994,"bbox":[3.67506208,43.40729679,3.68791853,43.41292272]},"geometry":{"type":"MultiPolygon","coordinates":[[[[3.68404067,43.41292272],[3.68454233,43.41287007],[3.68791853,43.41201468],[3.68781862,43.41181288],[3.68689321,43.41079223],[3.68627877,43.40997472],[3.68474845,43.40851523],[3.68465627,43.40864987],[3.68380762,43.40940736],[3.68322224,43.40978622],[3.68280599,43.40996248],[3.68249079,43.41002294],[3.68165191,43.40994276],[3.68109811,43.40996693],[3.68068809,43.40994072],[3.68022123,43.41001203],[3.67999905,43.41000803],[3.67988595,43.40994036],[3.67998424,43.40948541],[3.68037706,43.40899712],[3.68051737,43.40865256],[3.68060937,43.40745722],[3.67977625,43.40744356],[3.6785035,43.40729679],[3.67820637,43.40731935],[3.67792321,43.40747946],[3.67656073,43.40851811],[3.67609449,43.40874684],[3.67557198,43.40891294],[3.67540939,43.40904441],[3.67530776,43.40921688],[3.67506208,43.40983918],[3.67770098,43.41051006],[3.68007742,43.41141913],[3.68215786,43.41233631],[3.68228988,43.41243804],[3.68292724,43.41269313],[3.68342511,43.41284114],[3.68404067,43.41292272]]]]}},{"type":"Feature","id":"sete_343010402_chateau_vert","properties":{"zoneId":"sete_343010402_chateau_vert","label":"Château Vert","districtCode":"343010402","arrondissementCode":"34301","colorIndex":7,"parentZoneId":"sete_parent_34301_sete","parentCode":"34301","parentLabel":"Sète","territoryType":"iris","source":"IGN / INSEE - Contours IRIS WFS Géoplateforme","sourceYear":"2026","officialId":"343010402","sourceCleabs":"IRIS____0000000343010402","communeCode":"34301","communeName":"Sète","irisCode":"0402","irisType":"H","officialAreaM2":256298.15283203125,"labelLng":3.680982979301085,"labelLat":43.407599090806436,"bbox":[3.67287164,43.40492954,3.68669922,43.41002294]},"geometry":{"type":"MultiPolygon","coordinates":[[[[3.6731381,43.40930416],[3.67407093,43.40961144],[3.67506208,43.40983918],[3.67530776,43.40921688],[3.67540939,43.40904441],[3.67557198,43.40891294],[3.67609449,43.40874684],[3.67656073,43.40851811],[3.67792321,43.40747946],[3.67820637,43.40731935],[3.6785035,43.40729679],[3.67977625,43.40744356],[3.68060937,43.40745722],[3.68051737,43.40865256],[3.68037706,43.40899712],[3.67998424,43.40948541],[3.67988595,43.40994036],[3.67999905,43.41000803],[3.68022123,43.41001203],[3.68068809,43.40994072],[3.68109811,43.40996693],[3.68165191,43.40994276],[3.68249079,43.41002294],[3.68280599,43.40996248],[3.68322224,43.40978622],[3.68380762,43.40940736],[3.68465627,43.40864987],[3.68474845,43.40851523],[3.68510884,43.40758629],[3.68525209,43.40738746],[3.68651135,43.406505],[3.68669922,43.40632387],[3.68638298,43.40639875],[3.68573883,43.40639743],[3.68570833,43.40632295],[3.68531953,43.40610769],[3.68499227,43.40577509],[3.68474524,43.40565159],[3.68442495,43.40559334],[3.68402348,43.40555629],[3.68309866,43.40571597],[3.68304402,43.40558227],[3.68304194,43.40530338],[3.68315458,43.40512454],[3.68284757,43.405041],[3.68169004,43.40492954],[3.6804636,43.40514777],[3.6805888,43.40717935],[3.68051288,43.40712404],[3.68029056,43.40710745],[3.6797613,43.40711797],[3.67953059,43.40701685],[3.67916223,43.40675466],[3.67859053,43.40672406],[3.67817885,43.4065539],[3.67770785,43.40658654],[3.67656879,43.40626348],[3.67641171,43.40633733],[3.67635655,43.40699894],[3.67591815,43.40760175],[3.67576313,43.40774577],[3.67481337,43.40830859],[3.67458705,43.40837208],[3.67385681,43.408714],[3.67352237,43.40871248],[3.67333271,43.40863899],[3.67287164,43.40920595],[3.6731381,43.40930416]]]]}},{"type":"Feature","id":"sete_343010501_zones_industrielles","properties":{"zoneId":"sete_343010501_zones_industrielles","label":"Zones Industrielles","districtCode":"343010501","arrondissementCode":"34301","colorIndex":0,"parentZoneId":"sete_parent_34301_sete","parentCode":"34301","parentLabel":"Sète","territoryType":"iris","source":"IGN / INSEE - Contours IRIS WFS Géoplateforme","sourceYear":"2026","officialId":"343010501","sourceCleabs":"IRIS____0000000343010501","communeCode":"34301","communeName":"Sète","irisCode":"0501","irisType":"A","officialAreaM2":1752234.8944091797,"labelLng":3.710295432886054,"labelLat":43.41797884867122,"bbox":[3.69289524,43.41138942,3.72383355,43.4237371]},"geometry":{"type":"MultiPolygon","coordinates":[[[[3.70297951,43.4237371],[3.70852065,43.42324576],[3.70864552,43.42316217],[3.70890199,43.4231398],[3.70906809,43.42319629],[3.7209827,43.42217028],[3.72229871,43.42238464],[3.72239188,43.42203854],[3.72383355,43.41830781],[3.72319264,43.41818254],[3.72313996,43.41801735],[3.72300731,43.41797055],[3.72259535,43.41759903],[3.72118885,43.41695073],[3.72080613,43.41684262],[3.71977467,43.41637625],[3.70932566,43.41154552],[3.70878372,43.41203309],[3.70825104,43.41227049],[3.70753737,43.41143845],[3.70743939,43.41139861],[3.70636685,43.41138942],[3.70615874,43.41192878],[3.70616554,43.4125837],[3.70591129,43.41328621],[3.7057049,43.41376618],[3.70555945,43.41388139],[3.7054879,43.41388366],[3.70526617,43.41462284],[3.70483538,43.41572595],[3.70407869,43.41551315],[3.6941499,43.41348008],[3.69346798,43.41332161],[3.69310211,43.4131719],[3.69294309,43.41318732],[3.69299729,43.41358823],[3.69324756,43.41366939],[3.6932568,43.41371972],[3.69290405,43.41404496],[3.69289524,43.41413318],[3.69303312,43.41410441],[3.69337907,43.4138296],[3.69456101,43.41400376],[3.69535164,43.41416962],[3.69539406,43.41410547],[3.69573949,43.41419682],[3.69593192,43.41429095],[3.69601592,43.41450184],[3.6960012,43.41471336],[3.69498628,43.41498348],[3.69473462,43.41509485],[3.69466515,43.41516727],[3.69466734,43.41524643],[3.69473867,43.41532785],[3.69525762,43.41578605],[3.6954952,43.41583761],[3.69616366,43.41610502],[3.6970725,43.41675594],[3.69781623,43.41691849],[3.69799517,43.41691644],[3.69828895,43.41712327],[3.69832337,43.41711225],[3.70044367,43.41913454],[3.7023897,43.42031582],[3.70289703,43.42092522],[3.70293564,43.42186334],[3.70604635,43.4215813],[3.70620386,43.42164235],[3.70642645,43.42187752],[3.70656544,43.42193779],[3.7067133,43.42231919],[3.70672973,43.4225512],[3.70671134,43.42276275],[3.70667404,43.42284127],[3.706598,43.42288135],[3.70623791,43.42300875],[3.70610695,43.42309957],[3.70572291,43.42318755],[3.70521976,43.42312425],[3.70476048,43.4232163],[3.70452305,43.42318096],[3.70435439,43.42321715],[3.70421621,43.42332331],[3.70364147,43.42336213],[3.70307101,43.42344681],[3.70299736,43.42348057],[3.70297951,43.4237371]]]]}},{"type":"Feature","id":"sete_343010601_le_barrou","properties":{"zoneId":"sete_343010601_le_barrou","label":"Le Barrou","districtCode":"343010601","arrondissementCode":"34301","colorIndex":1,"parentZoneId":"sete_parent_34301_sete","parentCode":"34301","parentLabel":"Sète","territoryType":"iris","source":"IGN / INSEE - Contours IRIS WFS Géoplateforme","sourceYear":"2026","officialId":"343010601","sourceCleabs":"IRIS____0000000343010601","communeCode":"34301","communeName":"Sète","irisCode":"0601","irisType":"H","officialAreaM2":593056.7550048828,"labelLng":3.6714293317021305,"labelLat":43.41773291688561,"bbox":[3.66420725,43.41047042,3.67776767,43.42438776]},"geometry":{"type":"MultiPolygon","coordinates":[[[[3.66850437,43.4128182],[3.66731409,43.41223535],[3.66652504,43.41176878],[3.66507649,43.41072506],[3.66478972,43.41047042],[3.66420725,43.41079247],[3.66482854,43.41137435],[3.66560085,43.41199488],[3.6657923,43.41222312],[3.66606731,43.41273964],[3.66680349,43.41343416],[3.66735045,43.41398769],[3.66740343,43.41408633],[3.66748933,43.41564044],[3.66733727,43.41572505],[3.66730603,43.41579812],[3.66713195,43.41579289],[3.66695647,43.41587944],[3.6659531,43.41652169],[3.66584469,43.41685883],[3.66568063,43.4169732],[3.66579951,43.41722078],[3.66599331,43.41722319],[3.66607291,43.41727578],[3.66635632,43.4176627],[3.66645081,43.41793562],[3.66626344,43.41816889],[3.66601678,43.41861125],[3.6660133,43.41895045],[3.66605306,43.41897359],[3.66612296,43.41893448],[3.66626889,43.41842616],[3.66660015,43.41804176],[3.66664093,43.41804601],[3.66714368,43.41829572],[3.66761874,43.41860409],[3.66770528,43.41872321],[3.66755874,43.41885816],[3.66763085,43.4189036],[3.6678083,43.41877296],[3.66805119,43.41885693],[3.66827477,43.4189797],[3.66860239,43.41923859],[3.66871453,43.41943583],[3.6688117,43.4195135],[3.66929987,43.41967423],[3.66959404,43.41960403],[3.66976829,43.41962275],[3.66980108,43.41968282],[3.66993822,43.41969457],[3.67013908,43.4197725],[3.67085158,43.42022423],[3.67151486,43.42089938],[3.67224132,43.42148776],[3.67277693,43.42222038],[3.67285339,43.4222145],[3.67294776,43.4222625],[3.67298151,43.42240444],[3.67318372,43.42249135],[3.67390105,43.42324533],[3.67399863,43.42356681],[3.67398686,43.42372162],[3.67368663,43.42390793],[3.67373733,43.42391571],[3.6739522,43.42381901],[3.67399567,43.42384123],[3.67400326,43.42396264],[3.67406747,43.42396494],[3.67412927,43.42386649],[3.6750318,43.42399042],[3.67551663,43.42438776],[3.67572637,43.42416873],[3.67583935,43.42411944],[3.67593967,43.4241476],[3.67589798,43.42406599],[3.67577016,43.42400831],[3.6758447,43.42394397],[3.67591915,43.42397679],[3.67614819,43.42371985],[3.6762559,43.42374707],[3.67642611,43.42363175],[3.67658008,43.4236038],[3.67728363,43.4236012],[3.67730168,43.42303788],[3.67771946,43.42235241],[3.67776767,43.42193916],[3.67754269,43.42149162],[3.67716779,43.42109991],[3.67669883,43.42089591],[3.67643033,43.42084001],[3.67602881,43.4205978],[3.67577858,43.42052019],[3.67475088,43.41971688],[3.67453395,43.41963726],[3.67437324,43.41951051],[3.67376359,43.4186731],[3.67367983,43.41847659],[3.67360876,43.41778248],[3.67375346,43.41728046],[3.67377059,43.41684581],[3.67411069,43.41616803],[3.67426413,43.41599164],[3.674504,43.41581831],[3.6746302,43.41563399],[3.67482932,43.41545911],[3.67534386,43.41513472],[3.67559924,43.41502157],[3.67594266,43.41494385],[3.67629949,43.41474729],[3.67651131,43.41470818],[3.67646954,43.41451411],[3.6755955,43.41449258],[3.67536876,43.41452188],[3.67504341,43.41445644],[3.67385057,43.41440089],[3.67153448,43.41401221],[3.67172572,43.41390217],[3.66980007,43.4133383],[3.66850437,43.4128182]]]]}},{"type":"Feature","id":"sete_34301_group_ile_de_thau","properties":{"zoneId":"sete_34301_group_ile_de_thau","label":"Île de Thau","districtCode":"group:343010602+343010603","arrondissementCode":"34301","colorIndex":2,"parentZoneId":"sete_parent_34301_sete","parentCode":"34301","parentLabel":"Sète","territoryType":"quartier","source":"IGN / INSEE - Contours IRIS WFS Géoplateforme / regroupement déterministe par nom officiel","sourceYear":"2026","officialId":"iris-group:343010602+343010603","communeCode":"34301","communeName":"Sète","officialAreaM2":268042.28955078125,"labelLng":3.662996747241399,"labelLat":43.41342782635694,"bbox":[3.65762139,43.41017949,3.66729002,43.4171299],"groupingRule":"shared-official-label-with-trailing-number","sourceZoneCount":2,"sourceIrisIds":["343010602","343010603"],"sourceIrisLabels":["Île de Thau 1","Île de Thau 2"]},"geometry":{"type":"Polygon","coordinates":[[[3.65762139,43.41212189],[3.65912658,43.41100795],[3.65920111,43.41083475],[3.65933941,43.41084201],[3.6595693,43.41108802],[3.66057823,43.41179351],[3.6607657,43.41167631],[3.66095223,43.41179933],[3.66080052,43.41191451],[3.66268566,43.41325971],[3.66316772,43.41289599],[3.66315609,43.41285107],[3.66247313,43.41237932],[3.6622483,43.41257413],[3.66171844,43.4122148],[3.66193938,43.41200382],[3.66130873,43.41157133],[3.6610686,43.41172395],[3.66089073,43.41160268],[3.6618498,43.41086718],[3.66180465,43.41058946],[3.66168611,43.41047593],[3.66153411,43.41045796],[3.66143598,43.41050984],[3.66135191,43.41049596],[3.66175798,43.41017949],[3.66196567,43.41021151],[3.6620537,43.41035492],[3.66226681,43.41053625],[3.66233967,43.41054031],[3.66271983,43.41033196],[3.66286643,43.41031037],[3.66294697,43.41033866],[3.66509423,43.41183335],[3.6654717,43.41213872],[3.6655198,43.41234985],[3.66546685,43.41268036],[3.66553602,43.41279239],[3.66693541,43.413849],[3.6671658,43.41413458],[3.66723352,43.41454711],[3.66729002,43.41558769],[3.66712567,43.41567687],[3.66697138,43.41567512],[3.6661988,43.41514367],[3.66605538,43.41522822],[3.66583032,43.41508296],[3.66607385,43.41490422],[3.66528255,43.41435309],[3.66502416,43.41452741],[3.66475678,43.41435092],[3.66497385,43.41412466],[3.66486666,43.41403356],[3.66461427,43.41397933],[3.66440147,43.41404091],[3.66426512,43.41420279],[3.6642435,43.41436126],[3.66553538,43.41529889],[3.66570926,43.41517997],[3.66592955,43.41533965],[3.66577409,43.41545037],[3.66629305,43.41582235],[3.66479455,43.41697954],[3.66477653,43.4171299],[3.66467269,43.41711524],[3.66455484,43.41695582],[3.65779351,43.41217213],[3.65765572,43.41220985],[3.65762139,43.41212189]]]}},{"type":"Feature","id":"sete_343010701_caraussane_jean_vilar","properties":{"zoneId":"sete_343010701_caraussane_jean_vilar","label":"Caraussane-Jean Vilar","districtCode":"343010701","arrondissementCode":"34301","colorIndex":3,"parentZoneId":"sete_parent_34301_sete","parentCode":"34301","parentLabel":"Sète","territoryType":"iris","source":"IGN / INSEE - Contours IRIS WFS Géoplateforme","sourceYear":"2026","officialId":"343010701","sourceCleabs":"IRIS____0000000343010701","communeCode":"34301","communeName":"Sète","irisCode":"0701","irisType":"H","officialAreaM2":1026336.8928222656,"labelLng":3.69109148321488,"labelLat":43.399261925000005,"bbox":[3.67205337,43.3921251,3.69470932,43.40639875]},"geometry":{"type":"MultiPolygon","coordinates":[[[[3.68984601,43.3921251],[3.68890544,43.39228853],[3.68822214,43.39219841],[3.68775206,43.39229766],[3.6877957,43.39233607],[3.68738376,43.39224152],[3.68740831,43.39233493],[3.68696261,43.39240973],[3.68664448,43.39231998],[3.68629704,43.39235817],[3.6860935,43.392256],[3.6857001,43.39237185],[3.68549029,43.39257201],[3.68540884,43.39246546],[3.68525262,43.39250424],[3.68457037,43.39239879],[3.68433048,43.39245519],[3.68425914,43.39236927],[3.68420186,43.39253247],[3.68409854,43.39255832],[3.68409608,43.39276705],[3.68384189,43.39297018],[3.68376169,43.39317761],[3.68355851,43.39331295],[3.68312067,43.39342727],[3.68207102,43.39334302],[3.68177067,43.39319107],[3.68153311,43.39323755],[3.68129163,43.3931608],[3.6811588,43.39319492],[3.68037698,43.3930154],[3.68015448,43.3932921],[3.67990591,43.39386854],[3.67980191,43.39383681],[3.67836519,43.39419759],[3.6762098,43.3949263],[3.67603324,43.39501917],[3.67482065,43.39545498],[3.67470651,43.39540081],[3.67437798,43.39558189],[3.67273723,43.39675446],[3.67205337,43.39714736],[3.67295145,43.39787681],[3.67408188,43.39842667],[3.67495053,43.39864168],[3.67543233,43.39869356],[3.67559986,43.39867092],[3.67651826,43.39818386],[3.67706393,43.3977918],[3.67859533,43.39749972],[3.67904105,43.39731789],[3.67927342,43.3971446],[3.67958479,43.39676478],[3.67929663,43.39670631],[3.67900934,43.39651199],[3.67840121,43.39558015],[3.67814771,43.39500685],[3.67883716,43.39477941],[3.67951843,43.39469687],[3.67990013,43.39473676],[3.68028556,43.39488458],[3.68046073,43.39467386],[3.68110198,43.39517094],[3.68128402,43.39522827],[3.68152327,43.39522047],[3.68342393,43.3946552],[3.68478889,43.39407169],[3.68539267,43.39390593],[3.68591294,43.39366872],[3.68619938,43.39358324],[3.68611208,43.39474705],[3.68616105,43.39481872],[3.68640808,43.3949458],[3.68634264,43.39576941],[3.68658789,43.39616101],[3.6868665,43.39634997],[3.68705613,43.39642164],[3.68776842,43.39655927],[3.68784548,43.39660646],[3.68818351,43.39639829],[3.68838007,43.39632777],[3.68915822,43.39619507],[3.68973823,43.39600064],[3.6899334,43.39581497],[3.69011308,43.39577694],[3.6903946,43.39579583],[3.69013622,43.39544301],[3.69001302,43.39535473],[3.68962155,43.39522048],[3.68960179,43.39511624],[3.69040437,43.39486192],[3.69053807,43.39489975],[3.69083673,43.39521633],[3.69138501,43.39566896],[3.69193641,43.3957644],[3.69291609,43.39659123],[3.69306149,43.39678103],[3.69331434,43.39749194],[3.69329452,43.39769],[3.6931301,43.39786829],[3.69279365,43.39800179],[3.69245161,43.39797879],[3.6916314,43.397796],[3.69113355,43.39784596],[3.6907687,43.39756669],[3.69068958,43.3975537],[3.69025424,43.39767253],[3.69002396,43.39781255],[3.68988596,43.39813641],[3.68936177,43.39835747],[3.688226,43.39912761],[3.68732965,43.39980086],[3.6866639,43.40036198],[3.68501686,43.40193064],[3.68487755,43.40194051],[3.68455665,43.40182918],[3.68435821,43.40184753],[3.68374932,43.40231741],[3.68328597,43.40257494],[3.68164459,43.40327983],[3.68062396,43.40347338],[3.6791831,43.40392146],[3.67928183,43.40434099],[3.67939214,43.40448695],[3.67934519,43.40479583],[3.67937259,43.40492161],[3.67992028,43.40501084],[3.6804636,43.40514777],[3.68169004,43.40492954],[3.68284757,43.405041],[3.68315458,43.40512454],[3.68304194,43.40530338],[3.68304402,43.40558227],[3.68309866,43.40571597],[3.68402348,43.40555629],[3.68442495,43.40559334],[3.68474524,43.40565159],[3.68499227,43.40577509],[3.68531953,43.40610769],[3.68570833,43.40632295],[3.68573883,43.40639743],[3.68638298,43.40639875],[3.68669922,43.40632387],[3.6874128,43.40614571],[3.68787135,43.40610411],[3.68809248,43.40602174],[3.68847976,43.40569719],[3.68994548,43.40464784],[3.69068793,43.40399895],[3.69178813,43.40293301],[3.69229288,43.40222174],[3.69244743,43.40194006],[3.69256291,43.40159025],[3.69286358,43.40145517],[3.69298076,43.40145172],[3.69341275,43.40074542],[3.69380684,43.40006994],[3.69404762,43.40008459],[3.69414411,43.3991843],[3.69470932,43.39755768],[3.6946942,43.39732746],[3.69429888,43.39667144],[3.69366399,43.3958937],[3.69261114,43.39472727],[3.69232145,43.39423431],[3.69207978,43.39393806],[3.69180496,43.39375719],[3.69102193,43.39337713],[3.69015683,43.39304527],[3.68966591,43.39295034],[3.68980801,43.39255718],[3.68984601,43.3921251]]]]}},{"type":"Feature","id":"sete_343010702_saint_clair","properties":{"zoneId":"sete_343010702_saint_clair","label":"Saint-Clair","districtCode":"343010702","arrondissementCode":"34301","colorIndex":4,"parentZoneId":"sete_parent_34301_sete","parentCode":"34301","parentLabel":"Sète","territoryType":"iris","source":"IGN / INSEE - Contours IRIS WFS Géoplateforme","sourceYear":"2026","officialId":"343010702","sourceCleabs":"IRIS____0000000343010702","communeCode":"34301","communeName":"Sète","irisCode":"0702","irisType":"H","officialAreaM2":2001302.8829345703,"labelLng":3.6756290679567947,"labelLat":43.40121405410081,"bbox":[3.6616702,43.39358324,3.69331434,43.40891175]},"geometry":{"type":"MultiPolygon","coordinates":[[[[3.67205337,43.39714736],[3.67088076,43.39763236],[3.66853715,43.3983207],[3.66812705,43.39849237],[3.66801837,43.3985893],[3.66791268,43.39862504],[3.66762015,43.39861515],[3.66752952,43.39867329],[3.66577002,43.39898641],[3.66518349,43.39915915],[3.66467788,43.39939527],[3.66421611,43.39968869],[3.66400726,43.39987351],[3.66376485,43.39971665],[3.66368413,43.3995642],[3.66306414,43.39908308],[3.66291507,43.39920995],[3.66260694,43.39934498],[3.66248144,43.3994825],[3.66183729,43.40044098],[3.6616702,43.40082526],[3.66172926,43.40113259],[3.66183514,43.40122011],[3.6620471,43.40130428],[3.66210561,43.40145687],[3.66204828,43.40162096],[3.66179297,43.40173767],[3.66194409,43.40178893],[3.66205337,43.4019565],[3.66199043,43.40259925],[3.66248979,43.40396189],[3.66276994,43.40450178],[3.66294047,43.40473735],[3.66429646,43.40601107],[3.66523072,43.40655773],[3.66653377,43.40708772],[3.66976453,43.40805653],[3.67200314,43.40891175],[3.67325985,43.40620763],[3.67366966,43.40632473],[3.67528066,43.4065909],[3.67544324,43.4065656],[3.67602004,43.40629479],[3.6762881,43.40621485],[3.67648071,43.40622354],[3.67656879,43.40626348],[3.67770785,43.40658654],[3.67817885,43.4065539],[3.67859053,43.40672406],[3.67916223,43.40675466],[3.67953059,43.40701685],[3.6797613,43.40711797],[3.68029056,43.40710745],[3.68051288,43.40712404],[3.6805888,43.40717935],[3.6804636,43.40514777],[3.67992028,43.40501084],[3.67937259,43.40492161],[3.67934519,43.40479583],[3.67939214,43.40448695],[3.67928183,43.40434099],[3.6791831,43.40392146],[3.68062396,43.40347338],[3.68164459,43.40327983],[3.68328597,43.40257494],[3.68374932,43.40231741],[3.68435821,43.40184753],[3.68455665,43.40182918],[3.68487755,43.40194051],[3.68501686,43.40193064],[3.6866639,43.40036198],[3.68732965,43.39980086],[3.688226,43.39912761],[3.68936177,43.39835747],[3.68988596,43.39813641],[3.69002396,43.39781255],[3.69025424,43.39767253],[3.69068958,43.3975537],[3.6907687,43.39756669],[3.69113355,43.39784596],[3.6916314,43.397796],[3.69245161,43.39797879],[3.69279365,43.39800179],[3.6931301,43.39786829],[3.69329452,43.39769],[3.69331434,43.39749194],[3.69306149,43.39678103],[3.69291609,43.39659123],[3.69193641,43.3957644],[3.69138501,43.39566896],[3.69083673,43.39521633],[3.69053807,43.39489975],[3.69040437,43.39486192],[3.68960179,43.39511624],[3.68962155,43.39522048],[3.69001302,43.39535473],[3.69013622,43.39544301],[3.6903946,43.39579583],[3.69011308,43.39577694],[3.6899334,43.39581497],[3.68973823,43.39600064],[3.68915822,43.39619507],[3.68838007,43.39632777],[3.68818351,43.39639829],[3.68784548,43.39660646],[3.68776842,43.39655927],[3.68705613,43.39642164],[3.6868665,43.39634997],[3.68658789,43.39616101],[3.68634264,43.39576941],[3.68640808,43.3949458],[3.68616105,43.39481872],[3.68611208,43.39474705],[3.68619938,43.39358324],[3.68591294,43.39366872],[3.68539267,43.39390593],[3.68478889,43.39407169],[3.68342393,43.3946552],[3.68152327,43.39522047],[3.68128402,43.39522827],[3.68110198,43.39517094],[3.68046073,43.39467386],[3.68028556,43.39488458],[3.67990013,43.39473676],[3.67951843,43.39469687],[3.67883716,43.39477941],[3.67814771,43.39500685],[3.67840121,43.39558015],[3.67900934,43.39651199],[3.67929663,43.39670631],[3.67958479,43.39676478],[3.67927342,43.3971446],[3.67904105,43.39731789],[3.67859533,43.39749972],[3.67706393,43.3977918],[3.67651826,43.39818386],[3.67559986,43.39867092],[3.67543233,43.39869356],[3.67495053,43.39864168],[3.67408188,43.39842667],[3.67295145,43.39787681],[3.67205337,43.39714736]]]]}},{"type":"Feature","id":"sete_343010801_la_corniche","properties":{"zoneId":"sete_343010801_la_corniche","label":"La Corniche","districtCode":"343010801","arrondissementCode":"34301","colorIndex":5,"parentZoneId":"sete_parent_34301_sete","parentCode":"34301","parentLabel":"Sète","territoryType":"iris","source":"IGN / INSEE - Contours IRIS WFS Géoplateforme","sourceYear":"2026","officialId":"343010801","sourceCleabs":"IRIS____0000000343010801","communeCode":"34301","communeName":"Sète","irisCode":"0801","irisType":"H","officialAreaM2":796649.0477294922,"labelLng":3.6689534964978154,"labelLat":43.39505155109379,"bbox":[3.65914679,43.39068377,3.68037698,43.39987351]},"geometry":{"type":"MultiPolygon","coordinates":[[[[3.68037698,43.3930154],[3.67824364,43.39204816],[3.67785129,43.39173033],[3.67797638,43.39156221],[3.67795983,43.39130951],[3.67780488,43.3912466],[3.67769922,43.39128325],[3.67757114,43.39119679],[3.67730471,43.39130551],[3.67690677,43.3910354],[3.67657956,43.39111572],[3.6763593,43.39095336],[3.6761469,43.39104015],[3.67598571,43.39097099],[3.67580132,43.39102702],[3.67566006,43.39086866],[3.67549219,43.39096597],[3.67546524,43.39087707],[3.67535671,43.39087955],[3.6753902,43.39110515],[3.67515613,43.39102744],[3.67499627,43.39107162],[3.67497218,43.39091073],[3.67480422,43.39089559],[3.67476787,43.39084633],[3.67468802,43.39087472],[3.67451187,43.39079215],[3.67449086,43.3909992],[3.6743446,43.39083547],[3.67400218,43.39088079],[3.67405341,43.39072573],[3.67388725,43.39075825],[3.67388313,43.39082755],[3.67373198,43.39077271],[3.67371244,43.39068377],[3.673598,43.39070877],[3.67355736,43.39071442],[3.6735283,43.39076138],[3.6733696,43.39079926],[3.67344768,43.39093552],[3.67329861,43.3910579],[3.67337308,43.39120228],[3.67321472,43.3913742],[3.67175317,43.39193208],[3.67187726,43.39199428],[3.67255321,43.39177417],[3.67273262,43.3919251],[3.67285625,43.39247492],[3.67257952,43.39297055],[3.67180813,43.39347016],[3.6699262,43.3940603],[3.6696851,43.39401501],[3.66901588,43.39364939],[3.66857248,43.39328776],[3.66827568,43.39290724],[3.66804518,43.39281869],[3.66741778,43.39286575],[3.66648433,43.39279772],[3.66587171,43.39316316],[3.66496758,43.39328477],[3.664558,43.39317842],[3.66424225,43.39297074],[3.66455654,43.39262424],[3.66449372,43.39252566],[3.66365197,43.39334952],[3.66316173,43.39352346],[3.66288682,43.39343428],[3.66298531,43.39330862],[3.66294726,43.39321889],[3.66307031,43.39319114],[3.66426472,43.3919243],[3.66424179,43.39186146],[3.6641652,43.39185293],[3.66329921,43.39271292],[3.66271915,43.39258602],[3.66234418,43.39227074],[3.6621175,43.39229821],[3.66186382,43.39308877],[3.66162362,43.39322878],[3.65914679,43.39585291],[3.66089957,43.39678687],[3.6619908,43.39791019],[3.66248293,43.39832552],[3.6626129,43.39857663],[3.66270388,43.39865614],[3.66290304,43.39870081],[3.66302973,43.39877381],[3.66310419,43.3989182],[3.66306414,43.39908308],[3.66368413,43.3995642],[3.66376485,43.39971665],[3.66400726,43.39987351],[3.66421611,43.39968869],[3.66467788,43.39939527],[3.66518349,43.39915915],[3.66577002,43.39898641],[3.66752952,43.39867329],[3.66762015,43.39861515],[3.66791268,43.39862504],[3.66801837,43.3985893],[3.66812705,43.39849237],[3.66853715,43.3983207],[3.67088076,43.39763236],[3.67205337,43.39714736],[3.67273723,43.39675446],[3.67437798,43.39558189],[3.67470651,43.39540081],[3.67482065,43.39545498],[3.67603324,43.39501917],[3.6762098,43.3949263],[3.67836519,43.39419759],[3.67980191,43.39383681],[3.67990591,43.39386854],[3.68015448,43.3932921],[3.68037698,43.3930154]]]]}},{"type":"Feature","id":"sete_343010901_les_metairies","properties":{"zoneId":"sete_343010901_les_metairies","label":"Les Métairies","districtCode":"343010901","arrondissementCode":"34301","colorIndex":6,"parentZoneId":"sete_parent_34301_sete","parentCode":"34301","parentLabel":"Sète","territoryType":"iris","source":"IGN / INSEE - Contours IRIS WFS Géoplateforme","sourceYear":"2026","officialId":"343010901","sourceCleabs":"IRIS____0000000343010901","communeCode":"34301","communeName":"Sète","irisCode":"0901","irisType":"H","officialAreaM2":472724.361328125,"labelLng":3.675235123651398,"labelLat":43.412165185946414,"bbox":[3.66850437,43.40892078,3.68404067,43.41470818]},"geometry":{"type":"MultiPolygon","coordinates":[[[[3.67506208,43.40983918],[3.67407093,43.40961144],[3.6731381,43.40930416],[3.67271944,43.40959285],[3.6709827,43.40892078],[3.66866487,43.41038089],[3.66856644,43.41040578],[3.66861976,43.41053411],[3.66976998,43.41181264],[3.66921873,43.41227128],[3.66871206,43.41263698],[3.66860498,43.41266193],[3.66850437,43.4128182],[3.66980007,43.4133383],[3.67172572,43.41390217],[3.67153448,43.41401221],[3.67385057,43.41440089],[3.67504341,43.41445644],[3.67536876,43.41452188],[3.6755955,43.41449258],[3.67646954,43.41451411],[3.67651131,43.41470818],[3.67824731,43.41456418],[3.68032478,43.41428394],[3.68139035,43.41401364],[3.68194471,43.41392918],[3.68218454,43.41375493],[3.68265016,43.41368002],[3.6832754,43.41343317],[3.68401864,43.41325034],[3.68404067,43.41292272],[3.68342511,43.41284114],[3.68292724,43.41269313],[3.68228988,43.41243804],[3.68215786,43.41233631],[3.68007742,43.41141913],[3.67770098,43.41051006],[3.67506208,43.40983918]]]]}},{"type":"Feature","id":"sete_343010902_pont_levis_centre_commercial","properties":{"zoneId":"sete_343010902_pont_levis_centre_commercial","label":"Pont-Levis-Centre Commercial","districtCode":"343010902","arrondissementCode":"34301","colorIndex":7,"parentZoneId":"sete_parent_34301_sete","parentCode":"34301","parentLabel":"Sète","territoryType":"iris","source":"IGN / INSEE - Contours IRIS WFS Géoplateforme","sourceYear":"2026","officialId":"343010902","sourceCleabs":"IRIS____0000000343010902","communeCode":"34301","communeName":"Sète","irisCode":"0902","irisType":"H","officialAreaM2":642933.841796875,"labelLng":3.6646947338723184,"labelLat":43.40640679351495,"bbox":[3.65674593,43.39791019,3.67656879,43.4128182]},"geometry":{"type":"MultiPolygon","coordinates":[[[[3.66420725,43.41079247],[3.66478972,43.41047042],[3.66507649,43.41072506],[3.66652504,43.41176878],[3.66731409,43.41223535],[3.66850437,43.4128182],[3.66860498,43.41266193],[3.66871206,43.41263698],[3.66921873,43.41227128],[3.66976998,43.41181264],[3.66861976,43.41053411],[3.66856644,43.41040578],[3.66866487,43.41038089],[3.6709827,43.40892078],[3.67271944,43.40959285],[3.6731381,43.40930416],[3.67287164,43.40920595],[3.67333271,43.40863899],[3.67352237,43.40871248],[3.67385681,43.408714],[3.67458705,43.40837208],[3.67481337,43.40830859],[3.67576313,43.40774577],[3.67591815,43.40760175],[3.67635655,43.40699894],[3.67641171,43.40633733],[3.67656879,43.40626348],[3.67648071,43.40622354],[3.6762881,43.40621485],[3.67602004,43.40629479],[3.67544324,43.4065656],[3.67528066,43.4065909],[3.67366966,43.40632473],[3.67325985,43.40620763],[3.67200314,43.40891175],[3.66976453,43.40805653],[3.66653377,43.40708772],[3.66523072,43.40655773],[3.66429646,43.40601107],[3.66294047,43.40473735],[3.66276994,43.40450178],[3.66248979,43.40396189],[3.66199043,43.40259925],[3.66205337,43.4019565],[3.66194409,43.40178893],[3.66179297,43.40173767],[3.66204828,43.40162096],[3.66210561,43.40145687],[3.6620471,43.40130428],[3.66183514,43.40122011],[3.66172926,43.40113259],[3.6616702,43.40082526],[3.66183729,43.40044098],[3.66248144,43.3994825],[3.66260694,43.39934498],[3.66291507,43.39920995],[3.66306414,43.39908308],[3.66310419,43.3989182],[3.66302973,43.39877381],[3.66290304,43.39870081],[3.66270388,43.39865614],[3.6626129,43.39857663],[3.66248293,43.39832552],[3.6619908,43.39791019],[3.66171994,43.39860458],[3.6590976,43.40060884],[3.65880635,43.40092729],[3.6586969,43.40095855],[3.65846432,43.40122896],[3.65827023,43.40130391],[3.65802214,43.40151235],[3.65799771,43.40164205],[3.65780933,43.40178534],[3.65776967,43.40177028],[3.65732263,43.40216975],[3.65730634,43.40225532],[3.65674593,43.40277693],[3.65750334,43.40329954],[3.65792264,43.4038188],[3.65884485,43.4046148],[3.65917292,43.40503205],[3.65938048,43.40537805],[3.65936127,43.40542406],[3.65943468,43.40547759],[3.65980926,43.40607629],[3.66017483,43.40653379],[3.66179527,43.40805604],[3.66224353,43.40862009],[3.66272555,43.40943495],[3.66294972,43.40961261],[3.66312663,43.40965111],[3.66332084,43.40979837],[3.66346889,43.41000979],[3.66420725,43.41079247]]]]}},{"type":"Feature","id":"sete_343011001_la_gare","properties":{"zoneId":"sete_343011001_la_gare","label":"La Gare","districtCode":"343011001","arrondissementCode":"34301","colorIndex":0,"parentZoneId":"sete_parent_34301_sete","parentCode":"34301","parentLabel":"Sète","territoryType":"iris","source":"IGN / INSEE - Contours IRIS WFS Géoplateforme","sourceYear":"2026","officialId":"343011001","sourceCleabs":"IRIS____0000000343011001","communeCode":"34301","communeName":"Sète","irisCode":"1001","irisType":"H","officialAreaM2":678671.1131591797,"labelLng":3.6966579866734595,"labelLat":43.411684580531954,"bbox":[3.68401864,43.40563416,3.70591129,43.41572595]},"geometry":{"type":"MultiPolygon","coordinates":[[[[3.69678853,43.40563416],[3.69641592,43.40686191],[3.69574522,43.40813656],[3.69412636,43.41019731],[3.6928101,43.41167311],[3.69269299,43.41178632],[3.69226194,43.41155246],[3.69203548,43.41150083],[3.68946116,43.41170617],[3.68857936,43.41185753],[3.68791853,43.41201468],[3.68454233,43.41287007],[3.68404067,43.41292272],[3.68401864,43.41325034],[3.68494381,43.41300698],[3.68532327,43.4129524],[3.68544178,43.41295525],[3.68609018,43.41320305],[3.68615449,43.4133178],[3.686138,43.41338448],[3.68625125,43.41335947],[3.68637169,43.41321386],[3.68648742,43.41319064],[3.68694413,43.41340456],[3.68718374,43.41362706],[3.68719949,43.41370614],[3.6874159,43.41394858],[3.68733531,43.41422799],[3.68754697,43.41427972],[3.68776459,43.41441779],[3.68797827,43.41443173],[3.68813711,43.41460796],[3.68837354,43.41466673],[3.68868554,43.41464676],[3.68897547,43.41453515],[3.68906457,43.41445272],[3.69032754,43.41428273],[3.69052685,43.41433364],[3.69102796,43.41423418],[3.6911621,43.4143053],[3.69128962,43.41423611],[3.69124213,43.41418693],[3.69191798,43.41404586],[3.69249249,43.41379028],[3.69281479,43.41360109],[3.69299729,43.41358823],[3.69294309,43.41318732],[3.69310211,43.4131719],[3.69346798,43.41332161],[3.6941499,43.41348008],[3.70407869,43.41551315],[3.70483538,43.41572595],[3.70526617,43.41462284],[3.7054879,43.41388366],[3.70555945,43.41388139],[3.7057049,43.41376618],[3.70591129,43.41328621],[3.70127413,43.41233118],[3.69974542,43.41205587],[3.69982248,43.41149128],[3.70018096,43.41133691],[3.70060224,43.41107058],[3.70074247,43.40809355],[3.70082349,43.40795717],[3.70092707,43.4079502],[3.70099264,43.40786251],[3.70152501,43.40780328],[3.69678853,43.40563416]]]]}},{"type":"Feature","id":"sete_343011101_le_lido","properties":{"zoneId":"sete_343011101_le_lido","label":"Le Lido","districtCode":"343011101","arrondissementCode":"34301","colorIndex":1,"parentZoneId":"sete_parent_34301_sete","parentCode":"34301","parentLabel":"Sète","territoryType":"iris","source":"IGN / INSEE - Contours IRIS WFS Géoplateforme","sourceYear":"2026","officialId":"343011101","sourceCleabs":"IRIS____0000000343011101","communeCode":"34301","communeName":"Sète","irisCode":"1101","irisType":"D","officialAreaM2":27801160.026245117,"labelLng":3.6256565895286754,"labelLat":43.38523333636643,"bbox":[3.5530176,43.32625,3.70672973,43.43023939]},"geometry":{"type":"MultiPolygon","coordinates":[[[[3.67246824,43.43023939],[3.70037143,43.42405089],[3.70297951,43.4237371],[3.70299736,43.42348057],[3.70307101,43.42344681],[3.70364147,43.42336213],[3.70421621,43.42332331],[3.70435439,43.42321715],[3.70452305,43.42318096],[3.70476048,43.4232163],[3.70521976,43.42312425],[3.70572291,43.42318755],[3.70610695,43.42309957],[3.70623791,43.42300875],[3.706598,43.42288135],[3.70667404,43.42284127],[3.70671134,43.42276275],[3.70672973,43.4225512],[3.7067133,43.42231919],[3.70656544,43.42193779],[3.70642645,43.42187752],[3.70620386,43.42164235],[3.70604635,43.4215813],[3.70293564,43.42186334],[3.70289703,43.42092522],[3.7023897,43.42031582],[3.70044367,43.41913454],[3.69832337,43.41711225],[3.69828895,43.41712327],[3.69799517,43.41691644],[3.69781623,43.41691849],[3.6970725,43.41675594],[3.69616366,43.41610502],[3.6954952,43.41583761],[3.69525762,43.41578605],[3.69473867,43.41532785],[3.69466734,43.41524643],[3.69466515,43.41516727],[3.69473462,43.41509485],[3.69498628,43.41498348],[3.6960012,43.41471336],[3.69601592,43.41450184],[3.69593192,43.41429095],[3.69573949,43.41419682],[3.69539406,43.41410547],[3.69535164,43.41416962],[3.69456101,43.41400376],[3.69337907,43.4138296],[3.69303312,43.41410441],[3.69289524,43.41413318],[3.69290405,43.41404496],[3.6932568,43.41371972],[3.69324756,43.41366939],[3.69299729,43.41358823],[3.69281479,43.41360109],[3.69249249,43.41379028],[3.69191798,43.41404586],[3.69124213,43.41418693],[3.69128962,43.41423611],[3.6911621,43.4143053],[3.69102796,43.41423418],[3.69052685,43.41433364],[3.69032754,43.41428273],[3.68906457,43.41445272],[3.68897547,43.41453515],[3.68868554,43.41464676],[3.68837354,43.41466673],[3.68813711,43.41460796],[3.68797827,43.41443173],[3.68776459,43.41441779],[3.68754697,43.41427972],[3.68733531,43.41422799],[3.6874159,43.41394858],[3.68719949,43.41370614],[3.68718374,43.41362706],[3.68694413,43.41340456],[3.68648742,43.41319064],[3.68637169,43.41321386],[3.68625125,43.41335947],[3.686138,43.41338448],[3.68615449,43.4133178],[3.68609018,43.41320305],[3.68544178,43.41295525],[3.68532327,43.4129524],[3.68494381,43.41300698],[3.68401864,43.41325034],[3.6832754,43.41343317],[3.68265016,43.41368002],[3.68218454,43.41375493],[3.68194471,43.41392918],[3.68139035,43.41401364],[3.68032478,43.41428394],[3.67824731,43.41456418],[3.67651131,43.41470818],[3.67629949,43.41474729],[3.67594266,43.41494385],[3.67559924,43.41502157],[3.67534386,43.41513472],[3.67482932,43.41545911],[3.6746302,43.41563399],[3.674504,43.41581831],[3.67426413,43.41599164],[3.67411069,43.41616803],[3.67377059,43.41684581],[3.67375346,43.41728046],[3.67360876,43.41778248],[3.67367983,43.41847659],[3.67376359,43.4186731],[3.67437324,43.41951051],[3.67453395,43.41963726],[3.67475088,43.41971688],[3.67577858,43.42052019],[3.67602881,43.4205978],[3.67643033,43.42084001],[3.67669883,43.42089591],[3.67716779,43.42109991],[3.67754269,43.42149162],[3.67776767,43.42193916],[3.67771946,43.42235241],[3.67730168,43.42303788],[3.67728363,43.4236012],[3.67658008,43.4236038],[3.67642611,43.42363175],[3.6762559,43.42374707],[3.67614819,43.42371985],[3.67591915,43.42397679],[3.6758447,43.42394397],[3.67577016,43.42400831],[3.67589798,43.42406599],[3.67593967,43.4241476],[3.67583935,43.42411944],[3.67572637,43.42416873],[3.67551663,43.42438776],[3.6750318,43.42399042],[3.67412927,43.42386649],[3.67406747,43.42396494],[3.67400326,43.42396264],[3.67399567,43.42384123],[3.6739522,43.42381901],[3.67373733,43.42391571],[3.67368663,43.42390793],[3.67398686,43.42372162],[3.67399863,43.42356681],[3.67390105,43.42324533],[3.67318372,43.42249135],[3.67298151,43.42240444],[3.67294776,43.4222625],[3.67285339,43.4222145],[3.67277693,43.42222038],[3.67224132,43.42148776],[3.67151486,43.42089938],[3.67085158,43.42022423],[3.67013908,43.4197725],[3.66993822,43.41969457],[3.66980108,43.41968282],[3.66976829,43.41962275],[3.66959404,43.41960403],[3.66929987,43.41967423],[3.6688117,43.4195135],[3.66871453,43.41943583],[3.66860239,43.41923859],[3.66827477,43.4189797],[3.66805119,43.41885693],[3.6678083,43.41877296],[3.66763085,43.4189036],[3.66755874,43.41885816],[3.66770528,43.41872321],[3.66761874,43.41860409],[3.66714368,43.41829572],[3.66664093,43.41804601],[3.66660015,43.41804176],[3.66626889,43.41842616],[3.66612296,43.41893448],[3.66605306,43.41897359],[3.6660133,43.41895045],[3.66601678,43.41861125],[3.66626344,43.41816889],[3.66645081,43.41793562],[3.66635632,43.4176627],[3.66607291,43.41727578],[3.66599331,43.41722319],[3.66579951,43.41722078],[3.66568063,43.4169732],[3.66584469,43.41685883],[3.6659531,43.41652169],[3.66695647,43.41587944],[3.66713195,43.41579289],[3.66730603,43.41579812],[3.66733727,43.41572505],[3.66748933,43.41564044],[3.66740343,43.41408633],[3.66735045,43.41398769],[3.66680349,43.41343416],[3.66606731,43.41273964],[3.6657923,43.41222312],[3.66560085,43.41199488],[3.66482854,43.41137435],[3.66420725,43.41079247],[3.66346889,43.41000979],[3.66332084,43.40979837],[3.66312663,43.40965111],[3.66294972,43.40961261],[3.66272555,43.40943495],[3.66224353,43.40862009],[3.66179527,43.40805604],[3.66017483,43.40653379],[3.65980926,43.40607629],[3.65943468,43.40547759],[3.65936127,43.40542406],[3.65938048,43.40537805],[3.65917292,43.40503205],[3.65884485,43.4046148],[3.65792264,43.4038188],[3.65750334,43.40329954],[3.65674593,43.40277693],[3.65730634,43.40225532],[3.65732263,43.40216975],[3.65776967,43.40177028],[3.65780933,43.40178534],[3.65799771,43.40164205],[3.65802214,43.40151235],[3.65827023,43.40130391],[3.65846432,43.40122896],[3.6586969,43.40095855],[3.65880635,43.40092729],[3.6590976,43.40060884],[3.66171994,43.39860458],[3.6619908,43.39791019],[3.66089957,43.39678687],[3.65914679,43.39585291],[3.66162362,43.39322878],[3.66186382,43.39308877],[3.6621175,43.39229821],[3.66153698,43.392452],[3.66108139,43.3924206],[3.66060894,43.39221026],[3.66041279,43.39199554],[3.66047381,43.39161461],[3.66072166,43.39171206],[3.66078262,43.39164872],[3.6606831,43.39157735],[3.65991478,43.39127615],[3.65985434,43.39138448],[3.66008603,43.39147123],[3.65963431,43.39156125],[3.65928259,43.39144284],[3.65882675,43.3909571],[3.65875503,43.39040335],[3.65896327,43.39005841],[3.6594717,43.39028922],[3.65959413,43.39020751],[3.65834229,43.38969333],[3.6578721,43.38957023],[3.65784826,43.38964235],[3.65841805,43.38984581],[3.65789162,43.39030693],[3.65728041,43.39047348],[3.65667238,43.39037911],[3.6564706,43.38999258],[3.65665655,43.39007242],[3.65675441,43.38999986],[3.65588684,43.38964525],[3.65581365,43.38971767],[3.65613611,43.38986866],[3.65567944,43.39006575],[3.65538219,43.39007025],[3.65453028,43.38989907],[3.6538925,43.38957365],[3.65391343,43.38946106],[3.6538285,43.38947777],[3.65305142,43.38926924],[3.64950569,43.38759831],[3.64723598,43.38639647],[3.64569754,43.38538815],[3.63804421,43.38077422],[3.63539222,43.37886187],[3.63403583,43.37810782],[3.63060665,43.3757042],[3.62538264,43.37221149],[3.62437481,43.37138964],[3.62352555,43.37086015],[3.62130622,43.36918608],[3.61916476,43.36774723],[3.61792873,43.36667383],[3.6178905,43.36655889],[3.61791558,43.36648228],[3.61785892,43.366488],[3.61768827,43.36644399],[3.61680844,43.36581027],[3.61664639,43.3655314],[3.61664346,43.36548824],[3.61654145,43.3655194],[3.61531254,43.36475721],[3.61525589,43.36464867],[3.61524796,43.36459834],[3.61510544,43.36464683],[3.61381302,43.363822],[3.61187562,43.36240435],[3.61034399,43.36145309],[3.6089349,43.36030949],[3.607652,43.35955111],[3.60580997,43.35814632],[3.60502943,43.35743278],[3.60397326,43.3568872],[3.60266128,43.35592832],[3.6023464,43.35564579],[3.602016,43.35517442],[3.60156124,43.35495474],[3.59896231,43.35269759],[3.59712915,43.35139247],[3.59579716,43.35026358],[3.59390446,43.34890925],[3.5925782,43.34772632],[3.59200246,43.34736063],[3.59117124,43.34660229],[3.58948202,43.34535473],[3.58875565,43.34471906],[3.58733255,43.34381098],[3.58581801,43.34239149],[3.58507423,43.34185394],[3.58411228,43.34094963],[3.58239773,43.33984694],[3.58091671,43.33842901],[3.5805421,43.33819172],[3.57920095,43.33694665],[3.57850224,43.33646639],[3.57704691,43.33501049],[3.5755733,43.33393881],[3.57459398,43.33336556],[3.57138907,43.33043991],[3.56910397,43.32865723],[3.56722138,43.32694167],[3.56616593,43.32625],[3.5572976,43.33378801],[3.55662973,43.33443557],[3.55597008,43.33491576],[3.55341218,43.33716352],[3.55304705,43.33751533],[3.5530176,43.33765762],[3.5927947,43.36505742],[3.60252973,43.37317689],[3.60629888,43.3757846],[3.60676415,43.37604829],[3.6109686,43.37756483],[3.6123278,43.37849728],[3.6141996,43.37926398],[3.61905727,43.38149802],[3.60907999,43.38487972],[3.5999396,43.38771338],[3.59372945,43.3893526],[3.60041804,43.39290084],[3.62081755,43.40348367],[3.64299792,43.41493661],[3.66197617,43.42475384],[3.67246824,43.43023939]],[[3.6642435,43.41436126],[3.66553538,43.41529889],[3.66570926,43.41517997],[3.66592955,43.41533965],[3.66577409,43.41545037],[3.66629305,43.41582235],[3.66479455,43.41697954],[3.66477653,43.4171299],[3.66467269,43.41711524],[3.66455484,43.41695582],[3.65779351,43.41217213],[3.65765572,43.41220985],[3.65762139,43.41212189],[3.65912658,43.41100795],[3.65920111,43.41083475],[3.65933941,43.41084201],[3.6595693,43.41108802],[3.66057823,43.41179351],[3.6607657,43.41167631],[3.66095223,43.41179933],[3.66080052,43.41191451],[3.66268566,43.41325971],[3.66316772,43.41289599],[3.66315609,43.41285107],[3.66247313,43.41237932],[3.6622483,43.41257413],[3.66171844,43.4122148],[3.66193938,43.41200382],[3.66130873,43.41157133],[3.6610686,43.41172395],[3.66089073,43.41160268],[3.6618498,43.41086718],[3.66180465,43.41058946],[3.66168611,43.41047593],[3.66153411,43.41045796],[3.66143598,43.41050984],[3.66135191,43.41049596],[3.66175798,43.41017949],[3.66196567,43.41021151],[3.6620537,43.41035492],[3.66226681,43.41053625],[3.66233967,43.41054031],[3.66271983,43.41033196],[3.66286643,43.41031037],[3.66294697,43.41033866],[3.66509423,43.41183335],[3.6654717,43.41213872],[3.6655198,43.41234985],[3.66546685,43.41268036],[3.66553602,43.41279239],[3.66693541,43.413849],[3.6671658,43.41413458],[3.66723352,43.41454711],[3.66729002,43.41558769],[3.66712567,43.41567687],[3.66697138,43.41567512],[3.6661988,43.41514367],[3.66605538,43.41522822],[3.66583032,43.41508296],[3.66607385,43.41490422],[3.66528255,43.41435309],[3.66502416,43.41452741],[3.66475678,43.41435092],[3.66497385,43.41412466],[3.66486666,43.41403356],[3.66461427,43.41397933],[3.66440147,43.41404091],[3.66426512,43.41420279],[3.6642435,43.41436126]]]]}},{"type":"Feature","id":"sete_343011201_la_marine","properties":{"zoneId":"sete_343011201_la_marine","label":"La Marine","districtCode":"343011201","arrondissementCode":"34301","colorIndex":2,"parentZoneId":"sete_parent_34301_sete","parentCode":"34301","parentLabel":"Sète","territoryType":"iris","source":"IGN / INSEE - Contours IRIS WFS Géoplateforme","sourceYear":"2026","officialId":"343011201","sourceCleabs":"IRIS____0000000343011201","communeCode":"34301","communeName":"Sète","irisCode":"1201","irisType":"H","officialAreaM2":209755.44299316406,"labelLng":3.6947499786896185,"labelLat":43.397191916608854,"bbox":[3.68966591,43.39205483,3.69748336,43.40174876]},"geometry":{"type":"MultiPolygon","coordinates":[[[[3.69748336,43.39759742],[3.69713596,43.39753848],[3.69697078,43.39714369],[3.69625503,43.3971303],[3.69616595,43.39690596],[3.69653507,43.39682262],[3.69650975,43.3967688],[3.69614051,43.39684315],[3.69605155,43.3966278],[3.69642067,43.39654445],[3.69639524,43.39648164],[3.69602611,43.39656498],[3.69556862,43.39546133],[3.69567704,43.39524472],[3.69732819,43.3954815],[3.69730072,43.3951488],[3.69532782,43.39493208],[3.69444792,43.39460485],[3.69410196,43.39456208],[3.6940274,43.39451758],[3.69411191,43.39436409],[3.69406711,43.39422943],[3.69361858,43.39407036],[3.69334818,43.39364206],[3.69289766,43.39341912],[3.69280215,43.39327399],[3.69258274,43.39328979],[3.69229414,43.39319447],[3.692145,43.39289763],[3.69228027,43.39286168],[3.69227188,43.3926764],[3.69212674,43.39271242],[3.69209272,43.39265326],[3.69222075,43.39252829],[3.69215592,43.39247202],[3.69197172,43.39254247],[3.69183157,43.39217271],[3.69149522,43.39210738],[3.69110446,43.39213327],[3.69084815,43.39205483],[3.69052131,43.39216488],[3.69010454,43.39207937],[3.68984601,43.3921251],[3.68980801,43.39255718],[3.68966591,43.39295034],[3.69015683,43.39304527],[3.69102193,43.39337713],[3.69180496,43.39375719],[3.69207978,43.39393806],[3.69232145,43.39423431],[3.69261114,43.39472727],[3.69366399,43.3958937],[3.69429888,43.39667144],[3.6946942,43.39732746],[3.69470932,43.39755768],[3.69414411,43.3991843],[3.69404762,43.40008459],[3.69380684,43.40006994],[3.69341275,43.40074542],[3.69573268,43.40097255],[3.69568125,43.40161794],[3.69621473,43.4016541],[3.69626609,43.40100421],[3.69645969,43.40099397],[3.69666422,43.4016836],[3.69744235,43.40174876],[3.69726057,43.40049309],[3.69748336,43.39759742]]]]}}]}
