{"type":"FeatureCollection","metadata":{"generatedAt":"2026-07-14T13:59:03.175Z","source":"IGN / INSEE - Contours IRIS WFS Géoplateforme","datasetId":"STATISTICALUNITS.IRIS:contours_iris","datasetUrl":"https://geoservices.ign.fr/contoursiris","sourceFileUrl":"https://data.geopf.fr/wfs/ows?SERVICE=WFS&VERSION=2.0.0&REQUEST=GetFeature&TYPENAMES=STATISTICALUNITS.IRIS%3Acontours_iris&OUTPUTFORMAT=application%2Fjson&COUNT=1000&CQL_FILTER=code_insee%3D%2731557%27&SRSNAME=EPSG%3A4326","license":"Licence Ouverte / Open Licence 2.0","sourceYear":"2026","communeCode":"31557","communeName":"Tournefeuille","featureCount":9,"parentCount":1,"parentContract":"technical commune group; not selectable and not displayed as a district","bbox":[1.29048987,43.55437293,1.37701908,43.59496131],"areaStatsM2":{"minimum":737975.9140319824,"average":2010890.4804416234,"maximum":5102925.565338135}},"features":[{"type":"Feature","id":"tournefeuille_315570101_centre_ville","properties":{"zoneId":"tournefeuille_315570101_centre_ville","label":"Centre Ville","districtCode":"315570101","arrondissementCode":"31557","colorIndex":0,"parentZoneId":"tournefeuille_parent_31557_tournefeuille","parentCode":"31557","parentLabel":"Tournefeuille","territoryType":"iris","source":"IGN / INSEE - Contours IRIS WFS Géoplateforme","sourceYear":"2026","officialId":"315570101","sourceCleabs":"IRIS____0000000315570101","communeCode":"31557","communeName":"Tournefeuille","irisCode":"0101","irisType":"H","officialAreaM2":857097.6750793457,"labelLng":1.3497445030349893,"labelLat":43.58400516439901,"bbox":[1.33712523,43.57785236,1.36194273,43.5888258]},"geometry":{"type":"MultiPolygon","coordinates":[[[[1.35704074,43.5833086],[1.35673439,43.58345786],[1.35619115,43.58379522],[1.35592218,43.58402243],[1.35554341,43.58423629],[1.35497947,43.58438794],[1.35419965,43.58438332],[1.35381997,43.58432627],[1.35327723,43.58430005],[1.35267063,43.58416935],[1.35249043,43.58406403],[1.35194888,43.58391002],[1.35165477,43.58393435],[1.35124517,43.58384174],[1.3510066,43.58382912],[1.35069365,43.58373347],[1.35048847,43.58359266],[1.35002629,43.58347765],[1.3497585,43.58327559],[1.3491266,43.58264772],[1.34859222,43.58228862],[1.34831561,43.58217822],[1.34816355,43.58204181],[1.34792757,43.58193923],[1.34767391,43.58167708],[1.3472569,43.58106867],[1.34686237,43.58071169],[1.34584555,43.58008334],[1.34486818,43.57941869],[1.34404201,43.57879143],[1.34377662,43.57893677],[1.34300214,43.57836339],[1.34186499,43.57787536],[1.34165521,43.57785236],[1.34111423,43.57819598],[1.34074801,43.57831727],[1.34036831,43.57856256],[1.34019069,43.57879743],[1.33712523,43.58077632],[1.33921617,43.5812457],[1.34065631,43.58170328],[1.34335346,43.58394754],[1.34378788,43.58438074],[1.34398243,43.58437471],[1.34403565,43.58446102],[1.34458322,43.58470605],[1.34578207,43.58533539],[1.34615753,43.58549589],[1.34628236,43.5855032],[1.34682163,43.58590828],[1.34960118,43.58732568],[1.35039747,43.58762036],[1.35065488,43.58766747],[1.35065214,43.58776282],[1.35111418,43.58788413],[1.35171055,43.58798408],[1.35311248,43.58809984],[1.35402176,43.58799573],[1.35571452,43.58798627],[1.35629922,43.58801852],[1.35688416,43.58808587],[1.35764767,43.58822971],[1.35856934,43.58842813],[1.35879445,43.58852243],[1.35888921,43.58849956],[1.35927789,43.58854593],[1.36018745,43.58873515],[1.36034953,43.5888258],[1.36035878,43.58876204],[1.3604857,43.58865326],[1.36072633,43.58863799],[1.36108619,43.58774257],[1.36064098,43.58750817],[1.36042545,43.58729523],[1.36018293,43.5865968],[1.36019425,43.58633059],[1.36034278,43.58607185],[1.36022614,43.58599449],[1.36009992,43.58581889],[1.36026711,43.58577372],[1.36116348,43.58594654],[1.3613521,43.58593139],[1.36157985,43.58610671],[1.36171732,43.58614839],[1.36183648,43.58631127],[1.36194273,43.58610229],[1.36135629,43.58535098],[1.36087225,43.58491621],[1.36054502,43.58471328],[1.35869727,43.58382502],[1.35836525,43.58353022],[1.35753619,43.5832567],[1.35704074,43.5833086]]]]}},{"type":"Feature","id":"tournefeuille_315570102_montjoie","properties":{"zoneId":"tournefeuille_315570102_montjoie","label":"Montjoie","districtCode":"315570102","arrondissementCode":"31557","colorIndex":1,"parentZoneId":"tournefeuille_parent_31557_tournefeuille","parentCode":"31557","parentLabel":"Tournefeuille","territoryType":"iris","source":"IGN / INSEE - Contours IRIS WFS Géoplateforme","sourceYear":"2026","officialId":"315570102","sourceCleabs":"IRIS____0000000315570102","communeCode":"31557","communeName":"Tournefeuille","irisCode":"0102","irisType":"H","officialAreaM2":737975.9140319824,"labelLng":1.346176319206951,"labelLat":43.58919373737595,"bbox":[1.33783825,43.58334445,1.35915524,43.5940143]},"geometry":{"type":"MultiPolygon","coordinates":[[[[1.34012115,43.59400109],[1.34399577,43.5924934],[1.34445986,43.59185791],[1.34544022,43.59105209],[1.34619507,43.59055151],[1.34713072,43.59142521],[1.34873061,43.59236659],[1.35079134,43.59343105],[1.35143805,43.5928154],[1.35430238,43.59133521],[1.35672658,43.59017317],[1.35703336,43.5903992],[1.35915524,43.58928474],[1.35888266,43.58903133],[1.35747096,43.58981815],[1.35632538,43.58995831],[1.35514704,43.59054974],[1.3550197,43.59058651],[1.35475366,43.59058068],[1.35429031,43.59015879],[1.3526225,43.58925335],[1.35311248,43.58809984],[1.35171055,43.58798408],[1.35111418,43.58788413],[1.35065214,43.58776282],[1.35065488,43.58766747],[1.35039747,43.58762036],[1.34960118,43.58732568],[1.34682163,43.58590828],[1.34628236,43.5855032],[1.34615753,43.58549589],[1.34578207,43.58533539],[1.34458322,43.58470605],[1.34403565,43.58446102],[1.34398243,43.58437471],[1.34378788,43.58438074],[1.34374843,43.58441794],[1.34104588,43.58334445],[1.33955674,43.58363757],[1.3391306,43.58368956],[1.33841977,43.58369668],[1.33919178,43.58495493],[1.34074109,43.58626464],[1.34072802,43.58637423],[1.34087381,43.58638456],[1.34155702,43.58699166],[1.34228545,43.58744826],[1.3430654,43.58693549],[1.34365875,43.58640997],[1.34392594,43.58650404],[1.34450234,43.58682331],[1.34506215,43.58707393],[1.34420057,43.58848542],[1.34360487,43.58896322],[1.34333163,43.58916424],[1.3421085,43.58971615],[1.33783825,43.59240476],[1.33998456,43.5940143],[1.34012115,43.59400109]]]]}},{"type":"Feature","id":"tournefeuille_315570103_arc_en_ciel","properties":{"zoneId":"tournefeuille_315570103_arc_en_ciel","label":"Arc-En-Ciel","districtCode":"315570103","arrondissementCode":"31557","colorIndex":2,"parentZoneId":"tournefeuille_parent_31557_tournefeuille","parentCode":"31557","parentLabel":"Tournefeuille","territoryType":"iris","source":"IGN / INSEE - Contours IRIS WFS Géoplateforme","sourceYear":"2026","officialId":"315570103","sourceCleabs":"IRIS____0000000315570103","communeCode":"31557","communeName":"Tournefeuille","irisCode":"0103","irisType":"H","officialAreaM2":1265385.7657470703,"labelLng":1.3651652152089133,"labelLat":43.58612222067929,"bbox":[1.3526225,43.57939372,1.37701908,43.59166362]},"geometry":{"type":"MultiPolygon","coordinates":[[[[1.35915524,43.58928474],[1.36118568,43.59110899],[1.36203781,43.59166362],[1.36564906,43.59081266],[1.36624841,43.5904185],[1.36627683,43.58994195],[1.36694581,43.59005911],[1.36817438,43.59017837],[1.37025403,43.58984511],[1.37125442,43.58980252],[1.37701908,43.5899815],[1.37592628,43.58852075],[1.375268,43.58780715],[1.37374992,43.5865902],[1.37040198,43.58228058],[1.36405149,43.5806615],[1.36209024,43.58023956],[1.35983166,43.57939372],[1.35782164,43.581804],[1.35691448,43.58300521],[1.35704074,43.5833086],[1.35753619,43.5832567],[1.35836525,43.58353022],[1.35869727,43.58382502],[1.36054502,43.58471328],[1.36087225,43.58491621],[1.36135629,43.58535098],[1.36194273,43.58610229],[1.36183648,43.58631127],[1.36171732,43.58614839],[1.36157985,43.58610671],[1.3613521,43.58593139],[1.36116348,43.58594654],[1.36026711,43.58577372],[1.36009992,43.58581889],[1.36022614,43.58599449],[1.36034278,43.58607185],[1.36019425,43.58633059],[1.36018293,43.5865968],[1.36042545,43.58729523],[1.36064098,43.58750817],[1.36108619,43.58774257],[1.36072633,43.58863799],[1.3604857,43.58865326],[1.36035878,43.58876204],[1.36034953,43.5888258],[1.36018745,43.58873515],[1.35927789,43.58854593],[1.35888921,43.58849956],[1.35879445,43.58852243],[1.35856934,43.58842813],[1.35764767,43.58822971],[1.35688416,43.58808587],[1.35629922,43.58801852],[1.35571452,43.58798627],[1.35402176,43.58799573],[1.35311248,43.58809984],[1.3526225,43.58925335],[1.35429031,43.59015879],[1.35475366,43.59058068],[1.3550197,43.59058651],[1.35514704,43.59054974],[1.35632538,43.58995831],[1.35747096,43.58981815],[1.35888266,43.58903133],[1.35915524,43.58928474]]]]}},{"type":"Feature","id":"tournefeuille_315570104_la_ramee","properties":{"zoneId":"tournefeuille_315570104_la_ramee","label":"La Ramée","districtCode":"315570104","arrondissementCode":"31557","colorIndex":3,"parentZoneId":"tournefeuille_parent_31557_tournefeuille","parentCode":"31557","parentLabel":"Tournefeuille","territoryType":"iris","source":"IGN / INSEE - Contours IRIS WFS Géoplateforme","sourceYear":"2026","officialId":"315570104","sourceCleabs":"IRIS____0000000315570104","communeCode":"31557","communeName":"Tournefeuille","irisCode":"0104","irisType":"H","officialAreaM2":5102925.565338135,"labelLng":1.3487095383816108,"labelLat":43.56684631658125,"bbox":[1.32400951,43.55437293,1.3688795,43.57914237]},"geometry":{"type":"MultiPolygon","coordinates":[[[[1.36881574,43.57288567],[1.36854716,43.57149123],[1.36666456,43.57018592],[1.3649233,43.56852722],[1.36210217,43.56667763],[1.36175428,43.56594433],[1.36187537,43.56512722],[1.36158786,43.56405646],[1.36033873,43.56242402],[1.3593534,43.56039688],[1.35920296,43.55678408],[1.35911254,43.55648393],[1.35881275,43.55606273],[1.3580785,43.55542978],[1.35800228,43.55506595],[1.35603487,43.55437293],[1.3522983,43.55656071],[1.35211159,43.55646968],[1.35084162,43.55699935],[1.35063197,43.55697457],[1.34931453,43.55751881],[1.34926305,43.55745863],[1.34673662,43.55808793],[1.3464592,43.55753745],[1.34320961,43.55831044],[1.34206541,43.55872315],[1.34095451,43.55892486],[1.33992277,43.55921327],[1.33848527,43.55945406],[1.33730551,43.55998136],[1.33467758,43.56098681],[1.33251993,43.56173304],[1.33022285,43.55969717],[1.32876081,43.5592058],[1.32855357,43.55952299],[1.32861732,43.55958607],[1.3280535,43.56046203],[1.32419686,43.56577973],[1.32400951,43.56621961],[1.32641831,43.56697222],[1.33037954,43.56830933],[1.33362484,43.56945801],[1.33377623,43.56940184],[1.33403586,43.56941212],[1.33417479,43.56952945],[1.33419472,43.56965305],[1.33521283,43.57009793],[1.33948032,43.57215846],[1.34202686,43.573343],[1.34447796,43.57153101],[1.34493206,43.57187991],[1.34492954,43.57231094],[1.34532734,43.57259509],[1.34558005,43.57284553],[1.34576485,43.57309043],[1.34575256,43.57338812],[1.34605557,43.57378331],[1.3462652,43.57419778],[1.34653554,43.57439538],[1.3471768,43.57465083],[1.34807071,43.57485882],[1.34833319,43.57489971],[1.3497033,43.57494844],[1.35045365,43.57506963],[1.35095397,43.57523382],[1.35126712,43.57545007],[1.35172284,43.57621924],[1.35192536,43.57683967],[1.3523771,43.57770508],[1.35258274,43.57800158],[1.35265357,43.57825104],[1.35279308,43.57826395],[1.35398534,43.5787329],[1.35479708,43.5787875],[1.35570699,43.57874278],[1.35652221,43.57876232],[1.35824142,43.57898722],[1.35897973,43.57914237],[1.36880208,43.57345332],[1.3688795,43.5732988],[1.36881574,43.57288567]]]]}},{"type":"Feature","id":"tournefeuille_315570105_vitarelles","properties":{"zoneId":"tournefeuille_315570105_vitarelles","label":"Vitarelles","districtCode":"315570105","arrondissementCode":"31557","colorIndex":4,"parentZoneId":"tournefeuille_parent_31557_tournefeuille","parentCode":"31557","parentLabel":"Tournefeuille","territoryType":"iris","source":"IGN / INSEE - Contours IRIS WFS Géoplateforme","sourceYear":"2026","officialId":"315570105","sourceCleabs":"IRIS____0000000315570105","communeCode":"31557","communeName":"Tournefeuille","irisCode":"0105","irisType":"H","officialAreaM2":1669985.5887451172,"labelLng":1.3420992102421296,"labelLat":43.575593919143834,"bbox":[1.32385138,43.56621961,1.35983166,43.58438794]},"geometry":{"type":"MultiPolygon","coordinates":[[[[1.32400951,43.56621961],[1.32385138,43.56667614],[1.32394482,43.5715724],[1.32469703,43.57145711],[1.32559408,43.57121356],[1.32659377,43.57101568],[1.32714579,43.57097379],[1.32732453,43.57104134],[1.3278471,43.57141567],[1.32908729,43.57269289],[1.33010181,43.57343205],[1.33056617,43.57385137],[1.33136577,43.57423534],[1.33182009,43.57427652],[1.33210288,43.57434206],[1.33257815,43.57468504],[1.3328305,43.5748185],[1.33326965,43.57491344],[1.33383781,43.57495636],[1.33401938,43.57501224],[1.33418528,43.57509668],[1.33466058,43.57552425],[1.33564221,43.57595057],[1.33591898,43.57601061],[1.33712797,43.57606693],[1.33793415,43.57609817],[1.33848603,43.57606252],[1.33884969,43.57598618],[1.33913,43.57588158],[1.33961055,43.57552985],[1.33972795,43.57549384],[1.33989509,43.5754928],[1.34011064,43.57557259],[1.34026743,43.57592957],[1.34034219,43.57599821],[1.34143568,43.57585382],[1.3416621,43.57585728],[1.34196132,43.57599774],[1.34242176,43.57642774],[1.34287419,43.57709251],[1.34328383,43.5780824],[1.34351402,43.5783847],[1.34404201,43.57879143],[1.34486818,43.57941869],[1.34584555,43.58008334],[1.34686237,43.58071169],[1.3472569,43.58106867],[1.34767391,43.58167708],[1.34792757,43.58193923],[1.34816355,43.58204181],[1.34831561,43.58217822],[1.34859222,43.58228862],[1.3491266,43.58264772],[1.3497585,43.58327559],[1.35002629,43.58347765],[1.35048847,43.58359266],[1.35069365,43.58373347],[1.3510066,43.58382912],[1.35124517,43.58384174],[1.35165477,43.58393435],[1.35194888,43.58391002],[1.35249043,43.58406403],[1.35267063,43.58416935],[1.35327723,43.58430005],[1.35381997,43.58432627],[1.35419965,43.58438332],[1.35497947,43.58438794],[1.35554341,43.58423629],[1.35592218,43.58402243],[1.35619115,43.58379522],[1.35673439,43.58345786],[1.35704074,43.5833086],[1.35691448,43.58300521],[1.35782164,43.581804],[1.35983166,43.57939372],[1.35897973,43.57914237],[1.35824142,43.57898722],[1.35652221,43.57876232],[1.35570699,43.57874278],[1.35479708,43.5787875],[1.35398534,43.5787329],[1.35279308,43.57826395],[1.35265357,43.57825104],[1.35258274,43.57800158],[1.3523771,43.57770508],[1.35192536,43.57683967],[1.35172284,43.57621924],[1.35126712,43.57545007],[1.35095397,43.57523382],[1.35045365,43.57506963],[1.3497033,43.57494844],[1.34833319,43.57489971],[1.34807071,43.57485882],[1.3471768,43.57465083],[1.34653554,43.57439538],[1.3462652,43.57419778],[1.34605557,43.57378331],[1.34575256,43.57338812],[1.34576485,43.57309043],[1.34558005,43.57284553],[1.34532734,43.57259509],[1.34492954,43.57231094],[1.34493206,43.57187991],[1.34447796,43.57153101],[1.34202686,43.573343],[1.33948032,43.57215846],[1.33521283,43.57009793],[1.33419472,43.56965305],[1.33417479,43.56952945],[1.33403586,43.56941212],[1.33377623,43.56940184],[1.33362484,43.56945801],[1.33037954,43.56830933],[1.32641831,43.56697222],[1.32400951,43.56621961]]]]}},{"type":"Feature","id":"tournefeuille_315570106_belbeze","properties":{"zoneId":"tournefeuille_315570106_belbeze","label":"Belbèze","districtCode":"315570106","arrondissementCode":"31557","colorIndex":5,"parentZoneId":"tournefeuille_parent_31557_tournefeuille","parentCode":"31557","parentLabel":"Tournefeuille","territoryType":"iris","source":"IGN / INSEE - Contours IRIS WFS Géoplateforme","sourceYear":"2026","officialId":"315570106","sourceCleabs":"IRIS____0000000315570106","communeCode":"31557","communeName":"Tournefeuille","irisCode":"0106","irisType":"H","officialAreaM2":1626942.662475586,"labelLng":1.3287696105901579,"labelLat":43.576442077926885,"bbox":[1.31280824,43.56864416,1.34404201,43.58441794]},"geometry":{"type":"MultiPolygon","coordinates":[[[[1.32394482,43.5715724],[1.32255691,43.57154286],[1.32140437,43.57176084],[1.32110789,43.57169866],[1.32004687,43.57098839],[1.31923432,43.56965559],[1.31883799,43.56928407],[1.31639494,43.56864416],[1.31540053,43.56942159],[1.31280824,43.57204969],[1.31397897,43.57247826],[1.3198526,43.57483447],[1.31994116,43.57489614],[1.32013697,43.57514216],[1.32008242,43.5753141],[1.31893761,43.57674441],[1.31897697,43.57683771],[1.32290678,43.5782934],[1.3256174,43.5789859],[1.32568598,43.57892666],[1.32580801,43.57894474],[1.32585069,43.57905159],[1.32790928,43.57986176],[1.33097623,43.58128947],[1.33506719,43.58309997],[1.33625504,43.58367704],[1.33841977,43.58369668],[1.3391306,43.58368956],[1.33955674,43.58363757],[1.34104588,43.58334445],[1.34374843,43.58441794],[1.34378788,43.58438074],[1.34335346,43.58394754],[1.34065631,43.58170328],[1.33921617,43.5812457],[1.33712523,43.58077632],[1.34019069,43.57879743],[1.34036831,43.57856256],[1.34074801,43.57831727],[1.34111423,43.57819598],[1.34165521,43.57785236],[1.34186499,43.57787536],[1.34300214,43.57836339],[1.34377662,43.57893677],[1.34404201,43.57879143],[1.34351402,43.5783847],[1.34328383,43.5780824],[1.34287419,43.57709251],[1.34242176,43.57642774],[1.34196132,43.57599774],[1.3416621,43.57585728],[1.34143568,43.57585382],[1.34034219,43.57599821],[1.34026743,43.57592957],[1.34011064,43.57557259],[1.33989509,43.5754928],[1.33972795,43.57549384],[1.33961055,43.57552985],[1.33913,43.57588158],[1.33884969,43.57598618],[1.33848603,43.57606252],[1.33793415,43.57609817],[1.33712797,43.57606693],[1.33591898,43.57601061],[1.33564221,43.57595057],[1.33466058,43.57552425],[1.33418528,43.57509668],[1.33401938,43.57501224],[1.33383781,43.57495636],[1.33326965,43.57491344],[1.3328305,43.5748185],[1.33257815,43.57468504],[1.33210288,43.57434206],[1.33182009,43.57427652],[1.33136577,43.57423534],[1.33056617,43.57385137],[1.33010181,43.57343205],[1.32908729,43.57269289],[1.3278471,43.57141567],[1.32732453,43.57104134],[1.32714579,43.57097379],[1.32659377,43.57101568],[1.32559408,43.57121356],[1.32469703,43.57145711],[1.32394482,43.5715724]]]]}},{"type":"Feature","id":"tournefeuille_315570107_fanjeau","properties":{"zoneId":"tournefeuille_315570107_fanjeau","label":"Fanjeau","districtCode":"315570107","arrondissementCode":"31557","colorIndex":6,"parentZoneId":"tournefeuille_parent_31557_tournefeuille","parentCode":"31557","parentLabel":"Tournefeuille","territoryType":"iris","source":"IGN / INSEE - Contours IRIS WFS Géoplateforme","sourceYear":"2026","officialId":"315570107","sourceCleabs":"IRIS____0000000315570107","communeCode":"31557","communeName":"Tournefeuille","irisCode":"0107","irisType":"H","officialAreaM2":3020807.017944336,"labelLng":1.3121413422252013,"labelLat":43.5796036464075,"bbox":[1.29048987,43.57188762,1.33625504,43.58688034]},"geometry":{"type":"MultiPolygon","coordinates":[[[[1.31280824,43.57204969],[1.31250858,43.57196944],[1.31210474,43.57240144],[1.30775071,43.57196469],[1.30644342,43.57188762],[1.30631983,43.57196488],[1.29889857,43.57591758],[1.29498339,43.57682813],[1.29315473,43.57746268],[1.29064194,43.57895399],[1.29048987,43.57952937],[1.29068672,43.57973676],[1.29110648,43.58098081],[1.29251643,43.58127568],[1.29377167,43.5814862],[1.2946835,43.58158872],[1.29619453,43.58156564],[1.30033693,43.58135336],[1.30134417,43.58124402],[1.30193637,43.58131268],[1.30335415,43.58167952],[1.30389122,43.5818544],[1.30578131,43.58282976],[1.30818173,43.58379864],[1.30973598,43.5847057],[1.31222603,43.58591527],[1.31272332,43.58601389],[1.3140177,43.58607809],[1.31667784,43.58634794],[1.3196308,43.58680855],[1.32037403,43.58688034],[1.3210541,43.58686836],[1.32270736,43.58672741],[1.32299731,43.58676159],[1.32404438,43.58579859],[1.32469511,43.58526416],[1.32504188,43.58504812],[1.32526382,43.58482475],[1.32540197,43.58479988],[1.32668951,43.58407906],[1.32749278,43.58378905],[1.32758733,43.5838157],[1.3306966,43.58375284],[1.33073954,43.58372381],[1.33082885,43.58376028],[1.33314842,43.583777],[1.33331428,43.58373545],[1.33368253,43.5837591],[1.33507002,43.58368498],[1.33519363,43.58386237],[1.33569763,43.5836874],[1.33589651,43.58365985],[1.33625504,43.58367704],[1.33506719,43.58309997],[1.33097623,43.58128947],[1.32790928,43.57986176],[1.32585069,43.57905159],[1.32580801,43.57894474],[1.32568598,43.57892666],[1.3256174,43.5789859],[1.32290678,43.5782934],[1.31897697,43.57683771],[1.31893761,43.57674441],[1.32008242,43.5753141],[1.32013697,43.57514216],[1.31994116,43.57489614],[1.3198526,43.57483447],[1.31397897,43.57247826],[1.31280824,43.57204969]]]]}},{"type":"Feature","id":"tournefeuille_315570108_les_hauts_de_tournefeuille","properties":{"zoneId":"tournefeuille_315570108_les_hauts_de_tournefeuille","label":"Les Hauts de Tournefeuille","districtCode":"315570108","arrondissementCode":"31557","colorIndex":7,"parentZoneId":"tournefeuille_parent_31557_tournefeuille","parentCode":"31557","parentLabel":"Tournefeuille","territoryType":"iris","source":"IGN / INSEE - Contours IRIS WFS Géoplateforme","sourceYear":"2026","officialId":"315570108","sourceCleabs":"IRIS____0000000315570108","communeCode":"31557","communeName":"Tournefeuille","irisCode":"0108","irisType":"H","officialAreaM2":2160523.8287963867,"labelLng":1.308967099049853,"labelLat":43.588362474993204,"bbox":[1.29067318,43.58095661,1.32563032,43.59496131]},"geometry":{"type":"MultiPolygon","coordinates":[[[[1.29110648,43.58098081],[1.29099826,43.58095661],[1.29091107,43.58180571],[1.29067318,43.58214485],[1.29079289,43.5830305],[1.29208456,43.58430627],[1.2929143,43.58496369],[1.29464929,43.5859899],[1.29825334,43.58849524],[1.29981939,43.58879425],[1.30417514,43.58808297],[1.30469578,43.5881037],[1.30607599,43.58836552],[1.30694878,43.58887231],[1.30739147,43.58956318],[1.30741033,43.59022495],[1.30731485,43.59069145],[1.30684207,43.59164974],[1.30553432,43.59304049],[1.30515213,43.5939066],[1.30506614,43.59484752],[1.30942274,43.59496131],[1.31175667,43.59488421],[1.32559393,43.5947699],[1.32563032,43.59475336],[1.32551323,43.59460756],[1.32504317,43.59412423],[1.32456426,43.59330868],[1.32431813,43.59266321],[1.32417643,43.59200315],[1.32394245,43.59132367],[1.32387675,43.59098697],[1.32376558,43.59097806],[1.32368568,43.59087333],[1.32374463,43.59076264],[1.32389772,43.59073531],[1.32401037,43.59022767],[1.3239946,43.58996194],[1.32352147,43.58950105],[1.32320468,43.58911368],[1.32280076,43.58874206],[1.32208707,43.58846375],[1.3215889,43.58818247],[1.32151325,43.5881867],[1.32142844,43.58808099],[1.3208545,43.58776613],[1.32051609,43.58752601],[1.3196308,43.58680855],[1.31667784,43.58634794],[1.3140177,43.58607809],[1.31272332,43.58601389],[1.31222603,43.58591527],[1.30973598,43.5847057],[1.30818173,43.58379864],[1.30578131,43.58282976],[1.30389122,43.5818544],[1.30335415,43.58167952],[1.30193637,43.58131268],[1.30134417,43.58124402],[1.30033693,43.58135336],[1.29619453,43.58156564],[1.2946835,43.58158872],[1.29377167,43.5814862],[1.29251643,43.58127568],[1.29110648,43.58098081]]]]}},{"type":"Feature","id":"tournefeuille_315570109_chateau_d_eau","properties":{"zoneId":"tournefeuille_315570109_chateau_d_eau","label":"Château d'Eau","districtCode":"315570109","arrondissementCode":"31557","colorIndex":0,"parentZoneId":"tournefeuille_parent_31557_tournefeuille","parentCode":"31557","parentLabel":"Tournefeuille","territoryType":"iris","source":"IGN / INSEE - Contours IRIS WFS Géoplateforme","sourceYear":"2026","officialId":"315570109","sourceCleabs":"IRIS____0000000315570109","communeCode":"31557","communeName":"Tournefeuille","irisCode":"0109","irisType":"H","officialAreaM2":1656370.3058166504,"labelLng":1.3323569803006865,"labelLat":43.58911116657552,"bbox":[1.3196308,43.58365985,1.34506215,43.5947699]},"geometry":{"type":"MultiPolygon","coordinates":[[[[1.32559393,43.5947699],[1.32800133,43.59467738],[1.33069708,43.59476024],[1.33883509,43.594669],[1.33903721,43.5944453],[1.34012115,43.59400109],[1.33998456,43.5940143],[1.33783825,43.59240476],[1.3421085,43.58971615],[1.34333163,43.58916424],[1.34360487,43.58896322],[1.34420057,43.58848542],[1.34506215,43.58707393],[1.34450234,43.58682331],[1.34392594,43.58650404],[1.34365875,43.58640997],[1.3430654,43.58693549],[1.34228545,43.58744826],[1.34155702,43.58699166],[1.34087381,43.58638456],[1.34072802,43.58637423],[1.34074109,43.58626464],[1.33919178,43.58495493],[1.33841977,43.58369668],[1.33625504,43.58367704],[1.33589651,43.58365985],[1.33569763,43.5836874],[1.33519363,43.58386237],[1.33507002,43.58368498],[1.33368253,43.5837591],[1.33331428,43.58373545],[1.33314842,43.583777],[1.33082885,43.58376028],[1.33073954,43.58372381],[1.3306966,43.58375284],[1.32758733,43.5838157],[1.32749278,43.58378905],[1.32668951,43.58407906],[1.32540197,43.58479988],[1.32526382,43.58482475],[1.32504188,43.58504812],[1.32469511,43.58526416],[1.32404438,43.58579859],[1.32299731,43.58676159],[1.32270736,43.58672741],[1.3210541,43.58686836],[1.32037403,43.58688034],[1.3196308,43.58680855],[1.32051609,43.58752601],[1.3208545,43.58776613],[1.32142844,43.58808099],[1.32151325,43.5881867],[1.3215889,43.58818247],[1.32208707,43.58846375],[1.32280076,43.58874206],[1.32320468,43.58911368],[1.32352147,43.58950105],[1.3239946,43.58996194],[1.32401037,43.59022767],[1.32389772,43.59073531],[1.32374463,43.59076264],[1.32368568,43.59087333],[1.32376558,43.59097806],[1.32387675,43.59098697],[1.32394245,43.59132367],[1.32417643,43.59200315],[1.32431813,43.59266321],[1.32456426,43.59330868],[1.32504317,43.59412423],[1.32551323,43.59460756],[1.32563032,43.59475336],[1.32559393,43.5947699]]]]}}]}
