{"type":"FeatureCollection","metadata":{"generatedAt":"2026-07-14T18:56:03.503Z","source":"IGN / INSEE - Contours IRIS WFS Géoplateforme","datasetId":"STATISTICALUNITS.IRIS:contours_iris","datasetUrl":"https://geoservices.ign.fr/contoursiris","sourceFileUrl":"https://data.geopf.fr/wfs/ows?SERVICE=WFS&VERSION=2.0.0&REQUEST=GetFeature&TYPENAMES=STATISTICALUNITS.IRIS%3Acontours_iris&OUTPUTFORMAT=application%2Fjson&COUNT=1000&CQL_FILTER=code_insee%3D%2724557%27&SRSNAME=EPSG%3A4326","license":"Licence Ouverte / Open Licence 2.0","sourceYear":"2026","communeCode":"24557","communeName":"Trélissac","featureCount":2,"parentCount":1,"parentContract":"technical commune group; not selectable and not displayed as a district","sourceFeatureCount":2,"humanLabelContract":"one visible plate per unique official human place name","groupingContract":"only exact source-ID groups approved by the resolved curation, or source zones sharing the same official name and parent, are merged","groupedZoneCount":0,"groupedSourceFeatureCount":0,"curationStatus":"resolved","curationRevision":1,"curationSources":[{"id":"ign-insee-contours-iris-2026","provider":"IGN / INSEE - Contours IRIS WFS Géoplateforme","datasetUrl":"https://geoservices.ign.fr/contoursiris","role":"official geometry, source identifiers and source labels","vintage":"2026","license":"Licence Ouverte / Open Licence 2.0"},{"id":"ign-geoplateforme-toponymy-2026","provider":"IGN Géoplateforme - reverse geocoding, addresses and named places","datasetUrl":"https://geoservices.ign.fr/geocodage-geoplateforme","role":"official address, street and named-place evidence","vintage":"2026","license":"Licence Ouverte / Open Licence 2.0"},{"id":"guide-alpha-editorial-recovery-2026-07-14","provider":"Meewav Guide Alpha editorial review","datasetUrl":"docs/geospatial/france-semantic-recovery.md","role":"versioned mapping of exact official IRIS identifiers to coherent human place names","vintage":"2026-07-14","license":"Project documentation"}],"sourceCorrections":[{"operationId":"trelissac-245570101-rename-les-grands-bruts","type":"rename","sourceIds":["245570101"],"expectedLabels":["Ouest"],"outputLabel":"les Grands Bruts","evidenceRefs":["ign-insee-contours-iris-2026","ign-geoplateforme-toponymy-2026","guide-alpha-editorial-recovery-2026-07-14"],"rationale":"The exact official IGN BD TOPO habitation toponym has a deterministic evidence point strictly inside this exact IRIS. The 1:1 label is emitted without nearest assignment, invented geometry, split or dropped source cell."},{"operationId":"trelissac-245570102-rename-avenue-jean-jaures","type":"rename","sourceIds":["245570102"],"expectedLabels":["Est"],"outputLabel":"Avenue Jean Jaurès","evidenceRefs":["ign-insee-contours-iris-2026","ign-geoplateforme-toponymy-2026","guide-alpha-editorial-recovery-2026-07-14"],"rationale":"The exact official IGN BD TOPO named road has a deterministic evidence point strictly inside this exact IRIS. The 1:1 label is emitted without nearest assignment, invented geometry, split or dropped source cell."}],"bbox":[0.72717667,45.18220121,0.82037102,45.24065604],"areaStatsM2":{"minimum":10342548.971282959,"average":11941223.100372314,"maximum":13539897.22946167}},"features":[{"type":"Feature","id":"trelissac_245570101_ouest","properties":{"zoneId":"trelissac_245570101_ouest","label":"les Grands Bruts","districtCode":"245570101","arrondissementCode":"24557","colorIndex":0,"parentZoneId":"trelissac_parent_24557_trelissac","parentCode":"24557","parentLabel":"Trélissac","territoryType":"iris","source":"IGN / INSEE - Contours IRIS WFS Géoplateforme","sourceYear":"2026","officialId":"245570101","sourceCleabs":"IRIS____0000000245570101","communeCode":"24557","communeName":"Trélissac","irisCode":"0101","irisType":"H","officialAreaM2":10342548.971282959,"labelLng":0.7590585113478099,"labelLat":45.20301172618349,"bbox":[0.72717667,45.18220121,0.78579796,45.22487987],"curationOperationId":"trelissac-245570101-rename-les-grands-bruts","curationRevision":1,"curationEvidenceRefs":["ign-insee-contours-iris-2026","ign-geoplateforme-toponymy-2026","guide-alpha-editorial-recovery-2026-07-14"],"curationRationale":"The exact official IGN BD TOPO habitation toponym has a deterministic evidence point strictly inside this exact IRIS. The 1:1 label is emitted without nearest assignment, invented geometry, split or dropped source cell.","semanticLabelReviewed":true,"semanticLabelAccepted":false,"semanticResolution":"rename"},"geometry":{"type":"MultiPolygon","coordinates":[[[[0.73798201,45.19676188],[0.73905325,45.19714479],[0.73957239,45.19747599],[0.74233227,45.19986306],[0.74271959,45.2003357],[0.74625461,45.20628384],[0.74922274,45.21076027],[0.74983628,45.2124526],[0.75012991,45.21275578],[0.75113997,45.21333821],[0.75151422,45.21379163],[0.7516143,45.2143125],[0.75116612,45.2169581],[0.75116184,45.21763361],[0.75238847,45.21856899],[0.75384576,45.22039268],[0.75420936,45.22073238],[0.75515516,45.22126935],[0.76242227,45.22446251],[0.76331894,45.22476602],[0.76419135,45.22487987],[0.76484819,45.22480654],[0.76541331,45.22457283],[0.7662862,45.22397415],[0.76674104,45.22382021],[0.76724181,45.22376086],[0.76839232,45.22393247],[0.76962764,45.22446969],[0.77042089,45.22327938],[0.77138432,45.22328419],[0.77180266,45.22318174],[0.77240652,45.22235966],[0.77287194,45.22203565],[0.77373334,45.22159433],[0.77416684,45.22114357],[0.77496061,45.22089545],[0.77600975,45.22076321],[0.77592332,45.22046964],[0.7751232,45.21985468],[0.77507726,45.21908901],[0.77440453,45.21863602],[0.77426281,45.21822695],[0.77471939,45.21812345],[0.77505737,45.21811757],[0.77546437,45.21797885],[0.77650604,45.21771314],[0.77719108,45.21744123],[0.77749393,45.21729322],[0.77756189,45.21721891],[0.77764306,45.2168449],[0.77889557,45.21502772],[0.77879401,45.21476177],[0.77831986,45.21415513],[0.77818627,45.21350931],[0.77822759,45.21336781],[0.77839023,45.2133161],[0.77965215,45.21314933],[0.78069971,45.21305305],[0.78152693,45.21349825],[0.78235652,45.21372371],[0.78292148,45.21400246],[0.78344136,45.21365156],[0.78405756,45.21337824],[0.78436425,45.21335731],[0.78475265,45.21339654],[0.78560622,45.21369271],[0.78579328,45.21337844],[0.78579796,45.21316415],[0.78562727,45.21248788],[0.78549368,45.21219338],[0.78473936,45.2114524],[0.78438009,45.21083995],[0.78353152,45.21016284],[0.78308597,45.20947752],[0.7828033,45.20931157],[0.7815147,45.20909411],[0.7812073,45.20894118],[0.78099434,45.20872076],[0.7808676,45.20835072],[0.7804696,45.20640704],[0.78030235,45.2060308],[0.77938232,45.20443074],[0.7791262,45.20350235],[0.77898796,45.2032618],[0.77881617,45.2031602],[0.77763889,45.20274313],[0.77580453,45.20193284],[0.77543567,45.201821],[0.77335712,45.20170391],[0.77282597,45.20154019],[0.77157264,45.20098732],[0.77122062,45.2008686],[0.76894447,45.20043671],[0.7694024,45.19981802],[0.77018832,45.19896176],[0.77051533,45.19868545],[0.77226649,45.19758542],[0.77249162,45.19740345],[0.772609,45.19720762],[0.77252726,45.19644663],[0.77256269,45.19610144],[0.77303793,45.19463185],[0.77397136,45.19429015],[0.77436597,45.19420254],[0.7751416,45.19395227],[0.7750801,45.19376908],[0.77180258,45.19127072],[0.77112714,45.1908627],[0.7697032,45.19028209],[0.76899787,45.1900491],[0.76610879,45.1893788],[0.76510999,45.18909488],[0.76483139,45.18911723],[0.76466446,45.18908686],[0.76475622,45.18899052],[0.76477559,45.18885669],[0.76460438,45.18858303],[0.76457202,45.18827791],[0.76469632,45.18787776],[0.76336334,45.18757362],[0.76191208,45.18701127],[0.76157675,45.18676494],[0.7615221,45.18641254],[0.76108144,45.18606141],[0.7575989,45.18453945],[0.75586388,45.18321286],[0.75488506,45.18259416],[0.75419944,45.18231824],[0.75330746,45.18220121],[0.75204891,45.18223622],[0.75144899,45.18233133],[0.75022181,45.18275699],[0.74961677,45.18307358],[0.7486141,45.18383794],[0.74774761,45.18517254],[0.74708727,45.18584831],[0.74621004,45.18643773],[0.74472607,45.18713109],[0.74365275,45.18749674],[0.74258891,45.18775358],[0.74140967,45.18790267],[0.7406957,45.18794948],[0.74051132,45.18762687],[0.73971768,45.18762792],[0.73817679,45.18771111],[0.73605187,45.18828057],[0.73476193,45.18848861],[0.73344922,45.18853583],[0.73198261,45.18838894],[0.7316767,45.18902048],[0.73188871,45.18919504],[0.73173854,45.18941088],[0.73119645,45.18917737],[0.73114098,45.18922579],[0.73100909,45.18917987],[0.7310426,45.18910758],[0.73082359,45.18901125],[0.73062658,45.18903157],[0.73035128,45.18865935],[0.7302743,45.18861004],[0.73013241,45.18871615],[0.72997781,45.18860221],[0.72975432,45.18827158],[0.72953959,45.18850863],[0.72917268,45.1885408],[0.72905787,45.18870151],[0.72882816,45.18864909],[0.72873347,45.18847151],[0.7285993,45.18841924],[0.72818468,45.18843422],[0.72751463,45.18859083],[0.72769028,45.18931414],[0.72718884,45.19005339],[0.72717667,45.19025852],[0.72892541,45.19054813],[0.73373955,45.19180168],[0.73131625,45.19462958],[0.7356299,45.1961395],[0.73798201,45.19676188]]]]}},{"type":"Feature","id":"trelissac_245570102_est","properties":{"zoneId":"trelissac_245570102_est","label":"Avenue Jean Jaurès","districtCode":"245570102","arrondissementCode":"24557","colorIndex":1,"parentZoneId":"trelissac_parent_24557_trelissac","parentCode":"24557","parentLabel":"Trélissac","territoryType":"iris","source":"IGN / INSEE - Contours IRIS WFS Géoplateforme","sourceYear":"2026","officialId":"245570102","sourceCleabs":"IRIS____0000000245570102","communeCode":"24557","communeName":"Trélissac","irisCode":"0102","irisType":"H","officialAreaM2":13539897.22946167,"labelLng":0.7934556285152979,"labelLat":45.214971678063165,"bbox":[0.76457202,45.18787776,0.82037102,45.24065604],"curationOperationId":"trelissac-245570102-rename-avenue-jean-jaures","curationRevision":1,"curationEvidenceRefs":["ign-insee-contours-iris-2026","ign-geoplateforme-toponymy-2026","guide-alpha-editorial-recovery-2026-07-14"],"curationRationale":"The exact official IGN BD TOPO named road has a deterministic evidence point strictly inside this exact IRIS. The 1:1 label is emitted without nearest assignment, invented geometry, split or dropped source cell.","semanticLabelReviewed":true,"semanticLabelAccepted":false,"semanticResolution":"rename"},"geometry":{"type":"MultiPolygon","coordinates":[[[[0.76962764,45.22446969],[0.77179363,45.22554612],[0.77310819,45.22569664],[0.7735052,45.22580994],[0.77402219,45.22614273],[0.77535469,45.22744208],[0.77982238,45.22984957],[0.78163086,45.23204016],[0.78250954,45.23334662],[0.78504999,45.23537783],[0.78696538,45.23713267],[0.79016796,45.23951557],[0.7910392,45.24063175],[0.79333746,45.24013128],[0.79403889,45.24006226],[0.79457277,45.24010343],[0.79582345,45.24052535],[0.79589647,45.24061326],[0.7981776,45.24054564],[0.79898032,45.24065604],[0.79935086,45.24057146],[0.79953902,45.24042383],[0.79950566,45.24007367],[0.80039959,45.23922923],[0.80131656,45.23876987],[0.80164157,45.2387078],[0.80132756,45.23849084],[0.80272123,45.2370635],[0.80306374,45.23616856],[0.80390913,45.23555014],[0.8061091,45.23426652],[0.80734221,45.23364217],[0.81046683,45.23419527],[0.81154882,45.23423718],[0.81221937,45.23371796],[0.81333621,45.23257783],[0.81442318,45.23057236],[0.81450499,45.23011097],[0.81418445,45.22859681],[0.81432795,45.22721153],[0.81483115,45.22572249],[0.81520995,45.22513089],[0.81549563,45.22476896],[0.8157883,45.22458642],[0.81572438,45.22446087],[0.81687278,45.22355012],[0.81935731,45.22230335],[0.82037102,45.22137913],[0.81837154,45.22042581],[0.81953506,45.22013597],[0.81905798,45.2190052],[0.81812854,45.21901317],[0.81728253,45.21842015],[0.81747899,45.21799162],[0.81673743,45.217824],[0.81699118,45.21726688],[0.81616501,45.21753537],[0.81276601,45.21655908],[0.81034303,45.21572073],[0.81098259,45.21364709],[0.81110411,45.21240101],[0.81068784,45.21105791],[0.81063887,45.21022734],[0.8107648,45.20825173],[0.81051858,45.20796676],[0.8103365,45.20793076],[0.81123115,45.20789516],[0.81288014,45.20668981],[0.81292609,45.20639526],[0.81385566,45.2063459],[0.8139551,45.20595421],[0.81197545,45.20581186],[0.81188385,45.20532094],[0.81010316,45.20566166],[0.80946887,45.20555734],[0.80770711,45.20502644],[0.80727436,45.20485221],[0.80718152,45.20458826],[0.80635656,45.20401899],[0.80375045,45.20263732],[0.80242073,45.2011366],[0.80174751,45.20021087],[0.80124956,45.19881479],[0.80108625,45.19749465],[0.80126472,45.19383744],[0.80124217,45.19340733],[0.80101032,45.19276052],[0.80044065,45.19241061],[0.7966067,45.19149369],[0.79338949,45.19080051],[0.78892358,45.1899564],[0.78571569,45.18941812],[0.78416584,45.18924684],[0.77733767,45.18938314],[0.77632427,45.18949627],[0.77549044,45.18967423],[0.77421062,45.1902072],[0.77382418,45.19028237],[0.77185676,45.19029626],[0.77153158,45.19024113],[0.77120309,45.19004541],[0.7693452,45.18945432],[0.76739005,45.18900269],[0.76550311,45.1881209],[0.76469632,45.18787776],[0.76457202,45.18827791],[0.76460438,45.18858303],[0.76477559,45.18885669],[0.76475622,45.18899052],[0.76466446,45.18908686],[0.76483139,45.18911723],[0.76510999,45.18909488],[0.76610879,45.1893788],[0.76899787,45.1900491],[0.7697032,45.19028209],[0.77112714,45.1908627],[0.77180258,45.19127072],[0.7750801,45.19376908],[0.7751416,45.19395227],[0.77436597,45.19420254],[0.77397136,45.19429015],[0.77303793,45.19463185],[0.77256269,45.19610144],[0.77252726,45.19644663],[0.772609,45.19720762],[0.77249162,45.19740345],[0.77226649,45.19758542],[0.77051533,45.19868545],[0.77018832,45.19896176],[0.7694024,45.19981802],[0.76894447,45.20043671],[0.77122062,45.2008686],[0.77157264,45.20098732],[0.77282597,45.20154019],[0.77335712,45.20170391],[0.77543567,45.201821],[0.77580453,45.20193284],[0.77763889,45.20274313],[0.77881617,45.2031602],[0.77898796,45.2032618],[0.7791262,45.20350235],[0.77938232,45.20443074],[0.78030235,45.2060308],[0.7804696,45.20640704],[0.7808676,45.20835072],[0.78099434,45.20872076],[0.7812073,45.20894118],[0.7815147,45.20909411],[0.7828033,45.20931157],[0.78308597,45.20947752],[0.78353152,45.21016284],[0.78438009,45.21083995],[0.78473936,45.2114524],[0.78549368,45.21219338],[0.78562727,45.21248788],[0.78579796,45.21316415],[0.78579328,45.21337844],[0.78560622,45.21369271],[0.78475265,45.21339654],[0.78436425,45.21335731],[0.78405756,45.21337824],[0.78344136,45.21365156],[0.78292148,45.21400246],[0.78235652,45.21372371],[0.78152693,45.21349825],[0.78069971,45.21305305],[0.77965215,45.21314933],[0.77839023,45.2133161],[0.77822759,45.21336781],[0.77818627,45.21350931],[0.77831986,45.21415513],[0.77879401,45.21476177],[0.77889557,45.21502772],[0.77764306,45.2168449],[0.77756189,45.21721891],[0.77749393,45.21729322],[0.77719108,45.21744123],[0.77650604,45.21771314],[0.77546437,45.21797885],[0.77505737,45.21811757],[0.77471939,45.21812345],[0.77426281,45.21822695],[0.77440453,45.21863602],[0.77507726,45.21908901],[0.7751232,45.21985468],[0.77592332,45.22046964],[0.77600975,45.22076321],[0.77496061,45.22089545],[0.77416684,45.22114357],[0.77373334,45.22159433],[0.77287194,45.22203565],[0.77240652,45.22235966],[0.77180266,45.22318174],[0.77138432,45.22328419],[0.77042089,45.22327938],[0.76962764,45.22446969]]]]}}]}
