{"type":"FeatureCollection","metadata":{"generatedAt":"2026-07-14T19:00:28.525Z","source":"IGN / INSEE - Contours IRIS WFS Géoplateforme","datasetId":"STATISTICALUNITS.IRIS:contours_iris","datasetUrl":"https://geoservices.ign.fr/contoursiris","sourceFileUrl":"https://data.geopf.fr/wfs/ows?SERVICE=WFS&VERSION=2.0.0&REQUEST=GetFeature&TYPENAMES=STATISTICALUNITS.IRIS%3Acontours_iris&OUTPUTFORMAT=application%2Fjson&COUNT=1000&CQL_FILTER=code_insee%3D%2734332%27&SRSNAME=EPSG%3A4326","license":"Licence Ouverte / Open Licence 2.0","sourceYear":"2026","communeCode":"34332","communeName":"Vias","featureCount":2,"parentCount":1,"parentContract":"technical commune group; not selectable and not displayed as a district","sourceFeatureCount":2,"humanLabelContract":"one visible plate per unique official human place name","groupingContract":"only exact source-ID groups approved by the resolved curation, or source zones sharing the same official name and parent, are merged","groupedZoneCount":0,"groupedSourceFeatureCount":0,"curationStatus":"resolved","curationRevision":1,"curationSources":[{"id":"ign-insee-contours-iris-2026","provider":"IGN / INSEE - Contours IRIS WFS Géoplateforme","datasetUrl":"https://geoservices.ign.fr/contoursiris","role":"official geometry, source identifiers and source labels","vintage":"2026","license":"Licence Ouverte / Open Licence 2.0"},{"id":"ign-geoplateforme-toponymy-2026","provider":"IGN Géoplateforme - reverse geocoding, addresses and named places","datasetUrl":"https://geoservices.ign.fr/geocodage-geoplateforme","role":"official address, street and named-place evidence","vintage":"2026","license":"Licence Ouverte / Open Licence 2.0"},{"id":"guide-alpha-editorial-recovery-2026-07-14","provider":"Meewav Guide Alpha editorial review","datasetUrl":"docs/geospatial/france-semantic-recovery.md","role":"versioned mapping of exact official IRIS identifiers to coherent human place names","vintage":"2026-07-14","license":"Project documentation"}],"sourceCorrections":[{"operationId":"vias-343320101-rename-route-de-beziers","type":"rename","sourceIds":["343320101"],"expectedLabels":["Périphérie"],"outputLabel":"Route de Beziers","evidenceRefs":["ign-insee-contours-iris-2026","ign-geoplateforme-toponymy-2026","guide-alpha-editorial-recovery-2026-07-14"],"rationale":"The exact official IGN BD TOPO named road has a deterministic evidence point strictly inside this exact IRIS. The 1:1 label is emitted without nearest assignment, invented geometry, split or dropped source cell."},{"operationId":"vias-343320102-rename-chemin-de-l-estagnol","type":"rename","sourceIds":["343320102"],"expectedLabels":["Village"],"outputLabel":"Chemin de l'Estagnol","evidenceRefs":["ign-insee-contours-iris-2026","ign-geoplateforme-toponymy-2026","guide-alpha-editorial-recovery-2026-07-14"],"rationale":"The exact official IGN BD TOPO named road has a deterministic evidence point strictly inside this exact IRIS. The 1:1 label is emitted without nearest assignment, invented geometry, split or dropped source cell."}],"bbox":[3.34572752,43.27725531,3.44378002,43.34084743],"areaStatsM2":{"minimum":575987.9429931641,"average":16197757.833312988,"maximum":31819527.723632812}},"features":[{"type":"Feature","id":"vias_343320101_peripherie","properties":{"zoneId":"vias_343320101_peripherie","label":"Route de Beziers","districtCode":"343320101","arrondissementCode":"34332","colorIndex":0,"parentZoneId":"vias_parent_34332_vias","parentCode":"34332","parentLabel":"Vias","territoryType":"iris","source":"IGN / INSEE - Contours IRIS WFS Géoplateforme","sourceYear":"2026","officialId":"343320101","sourceCleabs":"IRIS____0000000343320101","communeCode":"34332","communeName":"Vias","irisCode":"0101","irisType":"H","officialAreaM2":31819527.723632812,"labelLng":3.3992056554674126,"labelLat":43.31318100245212,"bbox":[3.34572752,43.27725531,3.44378002,43.34084743],"curationOperationId":"vias-343320101-rename-route-de-beziers","curationRevision":1,"curationEvidenceRefs":["ign-insee-contours-iris-2026","ign-geoplateforme-toponymy-2026","guide-alpha-editorial-recovery-2026-07-14"],"curationRationale":"The exact official IGN BD TOPO named road has a deterministic evidence point strictly inside this exact IRIS. The 1:1 label is emitted without nearest assignment, invented geometry, split or dropped source cell.","semanticLabelReviewed":true,"semanticLabelAccepted":false,"semanticResolution":"rename"},"geometry":{"type":"MultiPolygon","coordinates":[[[[3.34572752,43.33229526],[3.34754897,43.33352547],[3.35192124,43.33590967],[3.3540945,43.33698929],[3.35753679,43.3375906],[3.36007283,43.33812015],[3.36055789,43.338428],[3.36129314,43.33912634],[3.37080957,43.33475896],[3.37718318,43.33337403],[3.37830722,43.33301566],[3.38104815,43.33415213],[3.38138841,43.33435604],[3.38156434,43.333938],[3.38213113,43.33447936],[3.38254893,43.33448148],[3.38273796,43.33455188],[3.38459347,43.33558524],[3.3855304,43.33636366],[3.38709843,43.33788469],[3.38777982,43.33840851],[3.38823803,43.33928218],[3.38904031,43.34036512],[3.39056636,43.34039111],[3.391805,43.34056386],[3.39240933,43.34080186],[3.39299141,43.34084743],[3.39909574,43.340781],[3.40309139,43.34056647],[3.40569468,43.34059003],[3.40664554,43.34067192],[3.40722485,43.34032519],[3.40857551,43.33925317],[3.40865451,43.33927086],[3.40866466,43.33913678],[3.40948112,43.33817291],[3.41056816,43.33765152],[3.41112313,43.33718252],[3.41200256,43.33624359],[3.41220625,43.33577232],[3.41209879,43.33556762],[3.41213336,43.33540376],[3.41239309,43.33501594],[3.4125103,43.33451711],[3.41292933,43.33400274],[3.41344452,43.33418069],[3.41297083,43.33257042],[3.41398262,43.33240012],[3.41617595,43.33236112],[3.41866829,43.33209062],[3.42020169,43.33163037],[3.42050823,43.33141867],[3.42175571,43.3314651],[3.42212355,43.33121087],[3.42235603,43.33081504],[3.42294687,43.33038722],[3.42402676,43.32993499],[3.42445266,43.32986945],[3.42596481,43.32938402],[3.42808261,43.32897983],[3.42919852,43.32890704],[3.43118976,43.32855817],[3.43159431,43.32844051],[3.43168342,43.32832861],[3.43283455,43.32851562],[3.43322766,43.32802556],[3.43534467,43.32851004],[3.43502268,43.32911497],[3.43623362,43.32955],[3.43701565,43.32916091],[3.4373022,43.32892226],[3.43756061,43.32887264],[3.43842355,43.32810718],[3.43890059,43.32780298],[3.44040751,43.32649334],[3.44321207,43.32440741],[3.44279169,43.32389906],[3.44232417,43.31901347],[3.44214791,43.31820096],[3.44350316,43.31771773],[3.44378002,43.31751238],[3.44323046,43.31542039],[3.44323016,43.3147403],[3.44307729,43.31424615],[3.4413795,43.30409046],[3.44095166,43.30306938],[3.44101997,43.30249877],[3.44052545,43.30177572],[3.43947787,43.30072478],[3.43913974,43.30015402],[3.43903391,43.29984409],[3.43903734,43.29900027],[3.43935097,43.29861848],[3.43918279,43.29836818],[3.4387556,43.29806945],[3.43819224,43.29784054],[3.43563008,43.29632432],[3.42821118,43.29237603],[3.42906207,43.28988084],[3.42833384,43.28982166],[3.42820629,43.28922845],[3.42808341,43.28926492],[3.42817342,43.28977732],[3.42778385,43.28988591],[3.4270896,43.28992554],[3.4265731,43.28985561],[3.42654466,43.28983953],[3.42651173,43.28988284],[3.42599136,43.28995506],[3.42525937,43.28988687],[3.42507057,43.28983454],[3.42503465,43.2898059],[3.42499668,43.28983483],[3.42406852,43.28988346],[3.4235926,43.28980436],[3.42354923,43.28976855],[3.42350647,43.28981369],[3.42293907,43.2898555],[3.42211351,43.28978946],[3.42202828,43.28975471],[3.42199201,43.28967748],[3.42195395,43.28969383],[3.42129434,43.28975487],[3.42055043,43.28957066],[3.42051783,43.28949072],[3.42047474,43.28949269],[3.4197044,43.28956765],[3.41909536,43.28947106],[3.41904036,43.28935882],[3.41897059,43.28941757],[3.4182861,43.28944451],[3.41767819,43.28933261],[3.41762623,43.28929953],[3.41756373,43.28934115],[3.41684258,43.2894078],[3.41622506,43.28932922],[3.41617918,43.28928532],[3.41613873,43.28931156],[3.41531184,43.2894011],[3.41480874,43.28930768],[3.41477751,43.28924663],[3.41473453,43.28926298],[3.41460657,43.28927877],[3.41411834,43.28919788],[3.41377213,43.2890013],[3.41294173,43.28911692],[3.41237423,43.28897156],[3.41194456,43.28864036],[3.41176733,43.28813727],[3.41180645,43.28792482],[3.41244761,43.28803932],[3.41248365,43.28791325],[3.41126311,43.287711],[3.41114016,43.28773845],[3.4112025,43.28784616],[3.4116955,43.28790725],[3.41166526,43.28815655],[3.4114221,43.28842195],[3.41098863,43.28859272],[3.41058993,43.28863292],[3.41013381,43.28856358],[3.40973866,43.28823764],[3.40907521,43.28845065],[3.40863466,43.2884937],[3.40837118,43.28850009],[3.40782104,43.28836903],[3.40774569,43.28833603],[3.40793686,43.2875077],[3.40781436,43.28759812],[3.4076593,43.28830937],[3.40741334,43.28835527],[3.40757938,43.28745508],[3.40749356,43.28750938],[3.40731438,43.28829268],[3.40737773,43.28854432],[3.40656602,43.2886913],[3.40634418,43.28866515],[3.40620664,43.28836881],[3.40347018,43.28798325],[3.40307921,43.28807197],[3.40274843,43.28796435],[3.40285354,43.28785061],[3.40274234,43.28779705],[3.40150952,43.28759474],[3.40120236,43.28769483],[3.40098432,43.28768215],[3.40064724,43.28755296],[3.39971673,43.28743676],[3.39970965,43.28730455],[3.39949988,43.28724236],[3.39932799,43.28731496],[3.39929043,43.28722514],[3.39892077,43.28719052],[3.39885542,43.28735718],[3.39846222,43.28730106],[3.39819438,43.28721119],[3.39825446,43.28699507],[3.39729239,43.28676473],[3.39711915,43.28700015],[3.39673951,43.28694667],[3.396627,43.28687962],[3.3966144,43.28665927],[3.39651533,43.28657867],[3.3953557,43.28626807],[3.39465309,43.28616269],[3.39444518,43.28637035],[3.39426551,43.2863872],[3.3936527,43.28626709],[3.39327606,43.28611104],[3.39325079,43.28601667],[3.39319919,43.28603305],[3.39302184,43.2860292],[3.39205141,43.28583212],[3.39037957,43.28533981],[3.38706058,43.28453494],[3.38577678,43.28405557],[3.38363774,43.28346767],[3.38346528,43.28327037],[3.3829592,43.28308326],[3.37994936,43.28225729],[3.37967819,43.28221326],[3.37948154,43.28226793],[3.37814679,43.28188849],[3.3723097,43.27985505],[3.37124293,43.27958436],[3.36813478,43.2785389],[3.3649292,43.27725531],[3.36416154,43.27871609],[3.36504618,43.27978808],[3.36685033,43.28159009],[3.36719843,43.28211605],[3.37184367,43.2872088],[3.37404437,43.28970831],[3.37399052,43.28975887],[3.37696237,43.29301758],[3.37708881,43.29333199],[3.3766273,43.29752831],[3.37645506,43.30000994],[3.37627796,43.30042706],[3.37591128,43.3002943],[3.37437637,43.30215455],[3.37427618,43.30246975],[3.37435451,43.30258193],[3.374636,43.30268351],[3.37442653,43.30380871],[3.37390407,43.30396884],[3.37395112,43.30438608],[3.37335905,43.30501963],[3.37341899,43.30514537],[3.37420775,43.30578044],[3.37439723,43.30612612],[3.37458278,43.30700437],[3.37473358,43.30727372],[3.37514479,43.30761954],[3.37394585,43.30832267],[3.37277888,43.31130791],[3.37258461,43.31136526],[3.37176941,43.31141664],[3.37066529,43.31117394],[3.36928237,43.31106263],[3.36716034,43.3107613],[3.36467932,43.31018047],[3.36354354,43.30998818],[3.36242413,43.31004861],[3.36216853,43.31014842],[3.36322384,43.31203851],[3.36447412,43.31474655],[3.36122983,43.31467108],[3.36038584,43.31899371],[3.35768539,43.32300765],[3.3561213,43.32472564],[3.35548212,43.32517933],[3.35514731,43.32563653],[3.35509455,43.32587239],[3.35196099,43.32889718],[3.34916339,43.33027003],[3.34572752,43.33229526]],[[3.41629571,43.31242745],[3.41633983,43.31222577],[3.41664581,43.3117784],[3.41733816,43.31126836],[3.41756766,43.31114873],[3.41808655,43.31101358],[3.41870318,43.31093743],[3.41981737,43.31101228],[3.42073476,43.30792043],[3.42119528,43.30688232],[3.42148183,43.30648179],[3.42437745,43.30693285],[3.42492894,43.30705033],[3.42573015,43.30728826],[3.42674089,43.30770798],[3.4286052,43.30860829],[3.42926495,43.30886835],[3.42919526,43.3089388],[3.43047255,43.3094141],[3.43067067,43.30955005],[3.43086623,43.30983893],[3.43093677,43.31054033],[3.43062725,43.31099406],[3.42982547,43.31151541],[3.42792108,43.31203573],[3.42579184,43.31230681],[3.4247986,43.31226664],[3.42489619,43.31246956],[3.42488429,43.31403129],[3.42114872,43.31400093],[3.41959478,43.3139431],[3.4189557,43.31398606],[3.41854728,43.31389768],[3.41721177,43.31372112],[3.41723216,43.31364368],[3.41711896,43.31349299],[3.41647147,43.31288376],[3.41633579,43.31268907],[3.41629571,43.31242745]]]]}},{"type":"Feature","id":"vias_343320102_village","properties":{"zoneId":"vias_343320102_village","label":"Chemin de l'Estagnol","districtCode":"343320102","arrondissementCode":"34332","colorIndex":1,"parentZoneId":"vias_parent_34332_vias","parentCode":"34332","parentLabel":"Vias","territoryType":"iris","source":"IGN / INSEE - Contours IRIS WFS Géoplateforme","sourceYear":"2026","officialId":"343320102","sourceCleabs":"IRIS____0000000343320102","communeCode":"34332","communeName":"Vias","irisCode":"0102","irisType":"H","officialAreaM2":575987.9429931641,"labelLng":3.423561565352261,"labelLat":43.3106326536495,"bbox":[3.41629571,43.30648179,3.43093677,43.31403129],"curationOperationId":"vias-343320102-rename-chemin-de-l-estagnol","curationRevision":1,"curationEvidenceRefs":["ign-insee-contours-iris-2026","ign-geoplateforme-toponymy-2026","guide-alpha-editorial-recovery-2026-07-14"],"curationRationale":"The exact official IGN BD TOPO named road has a deterministic evidence point strictly inside this exact IRIS. The 1:1 label is emitted without nearest assignment, invented geometry, split or dropped source cell.","semanticLabelReviewed":true,"semanticLabelAccepted":false,"semanticResolution":"rename"},"geometry":{"type":"MultiPolygon","coordinates":[[[[3.41629571,43.31242745],[3.41633579,43.31268907],[3.41647147,43.31288376],[3.41711896,43.31349299],[3.41723216,43.31364368],[3.41721177,43.31372112],[3.41854728,43.31389768],[3.4189557,43.31398606],[3.41959478,43.3139431],[3.42114872,43.31400093],[3.42488429,43.31403129],[3.42489619,43.31246956],[3.4247986,43.31226664],[3.42579184,43.31230681],[3.42792108,43.31203573],[3.42982547,43.31151541],[3.43062725,43.31099406],[3.43093677,43.31054033],[3.43086623,43.30983893],[3.43067067,43.30955005],[3.43047255,43.3094141],[3.42919526,43.3089388],[3.42926495,43.30886835],[3.4286052,43.30860829],[3.42674089,43.30770798],[3.42573015,43.30728826],[3.42492894,43.30705033],[3.42437745,43.30693285],[3.42148183,43.30648179],[3.42119528,43.30688232],[3.42073476,43.30792043],[3.41981737,43.31101228],[3.41870318,43.31093743],[3.41808655,43.31101358],[3.41756766,43.31114873],[3.41733816,43.31126836],[3.41664581,43.3117784],[3.41633983,43.31222577],[3.41629571,43.31242745]]]]}}]}
