{"type":"FeatureCollection","metadata":{"generatedAt":"2026-07-14T15:57:56.566Z","source":"IGN / INSEE - Contours IRIS WFS Géoplateforme","datasetId":"STATISTICALUNITS.IRIS:contours_iris","datasetUrl":"https://geoservices.ign.fr/contoursiris","sourceFileUrl":"https://data.geopf.fr/wfs/ows?SERVICE=WFS&VERSION=2.0.0&REQUEST=GetFeature&TYPENAMES=STATISTICALUNITS.IRIS%3Acontours_iris&OUTPUTFORMAT=application%2Fjson&COUNT=1000&CQL_FILTER=code_insee%3D%2747323%27&SRSNAME=EPSG%3A4326","license":"Licence Ouverte / Open Licence 2.0","sourceYear":"2026","communeCode":"47323","communeName":"Villeneuve-sur-Lot","featureCount":4,"parentCount":1,"parentContract":"technical commune group; not selectable and not displayed as a district","sourceFeatureCount":9,"humanLabelContract":"one visible plate per unique official human place name","groupingContract":"only exact source-ID groups approved by the resolved curation, or source zones sharing the same official name and parent, are merged","groupedZoneCount":3,"groupedSourceFeatureCount":8,"curationStatus":"resolved","curationRevision":1,"curationSources":[{"id":"ign-insee-contours-iris-2026","provider":"IGN / INSEE - Contours IRIS WFS Géoplateforme","datasetUrl":"https://geoservices.ign.fr/contoursiris","role":"official geometry, source identifiers and source labels","vintage":"2026","license":"Licence Ouverte / Open Licence 2.0"},{"id":"ign-geoplateforme-toponymy-2026","provider":"IGN Géoplateforme - reverse geocoding, addresses and named places","datasetUrl":"https://geoservices.ign.fr/geocodage-geoplateforme","role":"official address, street and named-place evidence","vintage":"2026","license":"Licence Ouverte / Open Licence 2.0"},{"id":"guide-alpha-editorial-recovery-2026-07-14","provider":"Meewav Guide Alpha editorial review","datasetUrl":"docs/geospatial/france-semantic-recovery.md","role":"versioned mapping of exact official IRIS identifiers to coherent human place names","vintage":"2026-07-14","license":"Project documentation"}],"sourceCorrections":[{"operationId":"villeneuve-sur-lot-sainte-catherine-merge","type":"merge","sourceIds":["473230101","473230102","473230103"],"expectedLabels":["Sainte-Catherine 1","Sainte-Catherine 2","Sainte-Catherine 3"],"outputLabel":"Sainte-Catherine","evidenceRefs":["ign-insee-contours-iris-2026","ign-geoplateforme-toponymy-2026","guide-alpha-editorial-recovery-2026-07-14"],"rationale":"The exact numbered IRIS cells share one identical human base name after removal of the terminal statistical suffix, and their official WFS union is a single connected Polygon. Only that suffix is removed; no unrelated cell is dissolved."},{"operationId":"villeneuve-sur-lot-eysses-merge","type":"merge","sourceIds":["473230201","473230202"],"expectedLabels":["Eysses 1","Eysses 2"],"outputLabel":"Eysses","evidenceRefs":["ign-insee-contours-iris-2026","ign-geoplateforme-toponymy-2026","guide-alpha-editorial-recovery-2026-07-14"],"rationale":"The exact numbered IRIS cells share one identical human base name after removal of the terminal statistical suffix, and their official WFS union is a single connected Polygon. Only that suffix is removed; no unrelated cell is dissolved."},{"operationId":"villeneuve-sur-lot-saint-etienne-merge","type":"merge","sourceIds":["473230301","473230302","473230303"],"expectedLabels":["Saint-Étienne 1","Saint-Étienne 2","Saint-Étienne 3"],"outputLabel":"Saint-Étienne","evidenceRefs":["ign-insee-contours-iris-2026","ign-geoplateforme-toponymy-2026","guide-alpha-editorial-recovery-2026-07-14"],"rationale":"The exact numbered IRIS cells share one identical human base name after removal of the terminal statistical suffix, and their official WFS union is a single connected Polygon. Only that suffix is removed; no unrelated cell is dissolved."},{"operationId":"villeneuve_sur_lot-473230401-accept-zone-rurale-nord","type":"accept","sourceIds":["473230401"],"expectedLabels":["Zone Rurale Nord"],"outputLabel":"Zone Rurale Nord","evidenceRefs":["ign-insee-contours-iris-2026","guide-alpha-editorial-recovery-2026-07-14"],"rationale":"This is the exact official IGN/INSEE sector label. The local licensed dataset audit exposes no more precise official polygon crosswalk for this cell, so Guide Alpha retains it by exact source ID instead of inventing a neighborhood name."}],"bbox":[0.6741889,44.36177687,0.82270979,44.47491046],"areaStatsM2":{"minimum":3562784.916656494,"average":20210495.66168976,"maximum":49078169.938949585}},"features":[{"type":"Feature","id":"villeneuve_sur_lot_47323_group_sainte_catherine","properties":{"zoneId":"villeneuve_sur_lot_47323_group_sainte_catherine","label":"Sainte-Catherine","districtCode":"group:473230101+473230102+473230103","arrondissementCode":"47323","colorIndex":0,"parentZoneId":"villeneuve_sur_lot_parent_47323_villeneuve_sur_lot","parentCode":"47323","parentLabel":"Villeneuve-sur-Lot","territoryType":"quartier","source":"IGN / INSEE - Contours IRIS WFS Géoplateforme / regroupement déterministe par nom officiel","sourceYear":"2026","officialId":"iris-group:473230101+473230102+473230103","communeCode":"47323","communeName":"Villeneuve-sur-Lot","officialAreaM2":3562784.916656494,"labelLng":0.7146102167192876,"labelLat":44.40980430221126,"bbox":[0.69721172,44.4005259,0.74277914,44.42463985],"groupingRule":"curated-exact-source-id-group","sourceZoneCount":3,"sourceIrisIds":["473230101","473230102","473230103"],"sourceIrisLabels":["Sainte-Catherine 1","Sainte-Catherine 2","Sainte-Catherine 3"],"curationOperationId":"villeneuve-sur-lot-sainte-catherine-merge","curationRevision":1,"curationEvidenceRefs":["ign-insee-contours-iris-2026","ign-geoplateforme-toponymy-2026","guide-alpha-editorial-recovery-2026-07-14"],"curationRationale":"The exact numbered IRIS cells share one identical human base name after removal of the terminal statistical suffix, and their official WFS union is a single connected Polygon. Only that suffix is removed; no unrelated cell is dissolved.","semanticLabelReviewed":true,"semanticLabelAccepted":false,"semanticResolution":"merge"},"geometry":{"type":"Polygon","coordinates":[[[0.69721172,44.41740351],[0.69723259,44.41664387],[0.69775361,44.41446189],[0.69806045,44.41365239],[0.69862989,44.41237919],[0.69929636,44.41100534],[0.70084653,44.40884575],[0.70114171,44.408507],[0.70210697,44.40747619],[0.70345992,44.40633278],[0.70508895,44.40519512],[0.70584584,44.40471468],[0.70921238,44.40285668],[0.71112839,44.40132685],[0.71178139,44.40099011],[0.71309488,44.40065898],[0.71492668,44.4005259],[0.71603251,44.40076408],[0.71618196,44.40079599],[0.71817378,44.40155413],[0.71943798,44.40210264],[0.72180457,44.40338268],[0.72381061,44.40385373],[0.72580888,44.40417509],[0.72759149,44.40426773],[0.72965627,44.40421576],[0.73021176,44.40414706],[0.73124935,44.40417925],[0.73671287,44.40458075],[0.73970269,44.40458003],[0.74097388,44.4044251],[0.74163884,44.40576795],[0.74168991,44.40647142],[0.74166545,44.40721027],[0.74176521,44.40741764],[0.74277914,44.40845424],[0.74217689,44.40849773],[0.74143144,44.40847794],[0.74117924,44.40840703],[0.74104526,44.40830162],[0.74079955,44.40825696],[0.74053163,44.40832801],[0.74039681,44.40846392],[0.74038227,44.40860771],[0.74031444,44.40870178],[0.74019078,44.40877849],[0.73999943,44.40881959],[0.737471,44.40886944],[0.73594542,44.40878585],[0.73550537,44.40870026],[0.73514993,44.40876049],[0.72891242,44.40863383],[0.72743194,44.40864742],[0.72548853,44.40839477],[0.72545195,44.408711],[0.72552362,44.40899076],[0.72703765,44.41198934],[0.72406935,44.41288172],[0.72265523,44.41333519],[0.72226033,44.41350083],[0.72098675,44.41302241],[0.72003102,44.41276308],[0.71933248,44.41238839],[0.71849695,44.4120775],[0.71611253,44.41151206],[0.71646142,44.41236222],[0.71281848,44.4133727],[0.7126007,44.41316555],[0.71132783,44.41351014],[0.71118601,44.41331987],[0.70693092,44.41417785],[0.70728388,44.41585484],[0.7077671,44.41741837],[0.70567818,44.41761893],[0.70567844,44.41798456],[0.70588022,44.41833818],[0.70588194,44.41845079],[0.70436767,44.42015733],[0.70405831,44.42041114],[0.70371896,44.42248708],[0.70365196,44.42336373],[0.70169691,44.42412987],[0.69994072,44.42463985],[0.69943503,44.4240034],[0.69903992,44.42389248],[0.69850943,44.42232162],[0.69767171,44.41950064],[0.69721172,44.41740351]]]}},{"type":"Feature","id":"villeneuve_sur_lot_47323_group_eysses","properties":{"zoneId":"villeneuve_sur_lot_47323_group_eysses","label":"Eysses","districtCode":"group:473230201+473230202","arrondissementCode":"47323","colorIndex":1,"parentZoneId":"villeneuve_sur_lot_parent_47323_villeneuve_sur_lot","parentCode":"47323","parentLabel":"Villeneuve-sur-Lot","territoryType":"quartier","source":"IGN / INSEE - Contours IRIS WFS Géoplateforme / regroupement déterministe par nom officiel","sourceYear":"2026","officialId":"iris-group:473230201+473230202","communeCode":"47323","communeName":"Villeneuve-sur-Lot","officialAreaM2":6490823.977905273,"labelLng":0.7229066846492629,"labelLat":44.42096669892666,"bbox":[0.69821627,44.40825696,0.7439537,44.43559818],"groupingRule":"curated-exact-source-id-group","sourceZoneCount":2,"sourceIrisIds":["473230201","473230202"],"sourceIrisLabels":["Eysses 1","Eysses 2"],"curationOperationId":"villeneuve-sur-lot-eysses-merge","curationRevision":1,"curationEvidenceRefs":["ign-insee-contours-iris-2026","ign-geoplateforme-toponymy-2026","guide-alpha-editorial-recovery-2026-07-14"],"curationRationale":"The exact numbered IRIS cells share one identical human base name after removal of the terminal statistical suffix, and their official WFS union is a single connected Polygon. Only that suffix is removed; no unrelated cell is dissolved.","semanticLabelReviewed":true,"semanticLabelAccepted":false,"semanticResolution":"merge"},"geometry":{"type":"Polygon","coordinates":[[[0.69821627,44.42841504],[0.69878093,44.42812785],[0.69940632,44.42752132],[0.69949512,44.42716115],[0.69947736,44.42589818],[0.69917725,44.42434744],[0.69903992,44.42389248],[0.69943503,44.4240034],[0.69994072,44.42463985],[0.70169691,44.42412987],[0.70365196,44.42336373],[0.70371896,44.42248708],[0.70405831,44.42041114],[0.70436767,44.42015733],[0.70588194,44.41845079],[0.70588022,44.41833818],[0.70567844,44.41798456],[0.70567818,44.41761893],[0.7077671,44.41741837],[0.70728388,44.41585484],[0.70693092,44.41417785],[0.71118601,44.41331987],[0.71132783,44.41351014],[0.7126007,44.41316555],[0.71281848,44.4133727],[0.71646142,44.41236222],[0.71611253,44.41151206],[0.71849695,44.4120775],[0.71933248,44.41238839],[0.72003102,44.41276308],[0.72098675,44.41302241],[0.72226033,44.41350083],[0.72265523,44.41333519],[0.72406935,44.41288172],[0.72703765,44.41198934],[0.72552362,44.40899076],[0.72545195,44.408711],[0.72548853,44.40839477],[0.72743194,44.40864742],[0.72891242,44.40863383],[0.73514993,44.40876049],[0.73550537,44.40870026],[0.73594542,44.40878585],[0.737471,44.40886944],[0.73999943,44.40881959],[0.74019078,44.40877849],[0.74031444,44.40870178],[0.74038227,44.40860771],[0.74039681,44.40846392],[0.74053163,44.40832801],[0.74079955,44.40825696],[0.74104526,44.40830162],[0.74117924,44.40840703],[0.74143144,44.40847794],[0.74217689,44.40849773],[0.74277914,44.40845424],[0.7437384,44.40953925],[0.74377864,44.40966435],[0.74371472,44.40984945],[0.7439537,44.41006328],[0.74391202,44.4101948],[0.74371264,44.41037443],[0.74368717,44.41054051],[0.74357315,44.41065885],[0.74344381,44.41097229],[0.7434334,44.41145387],[0.7434963,44.41167219],[0.74343543,44.41190689],[0.74324745,44.41208404],[0.74282741,44.41215739],[0.74276094,44.41224878],[0.7427567,44.41248104],[0.74252704,44.41256909],[0.74248672,44.4126349],[0.74262867,44.41307638],[0.74241893,44.41367274],[0.74242635,44.41380167],[0.74278599,44.41414045],[0.74292683,44.41479893],[0.74305742,44.41498983],[0.74305892,44.41514115],[0.74287354,44.41534718],[0.74259634,44.41542975],[0.74248751,44.41551217],[0.74250586,44.41590249],[0.7420877,44.41655762],[0.74152354,44.41715573],[0.74123185,44.41760092],[0.74106351,44.41819814],[0.74080725,44.41873141],[0.74057772,44.41903559],[0.7405347,44.41923193],[0.74054478,44.41967161],[0.74071933,44.42030377],[0.74091306,44.42061303],[0.74122682,44.42087433],[0.74130717,44.42103357],[0.74160232,44.42109996],[0.74177885,44.42127378],[0.74226119,44.42134131],[0.74279767,44.42156393],[0.74274278,44.42177444],[0.74288604,44.42208896],[0.74288482,44.4221826],[0.74274454,44.42254895],[0.74203007,44.42370052],[0.7419361,44.42391383],[0.74196393,44.42416115],[0.74123157,44.42494132],[0.74121599,44.42504817],[0.74133211,44.42516132],[0.74134556,44.42523364],[0.74116753,44.4255695],[0.74113006,44.42581548],[0.74119614,44.42642651],[0.74135118,44.42682414],[0.74188732,44.42752855],[0.74192463,44.42763288],[0.74221723,44.42795317],[0.74255804,44.4286716],[0.74255157,44.42895964],[0.74247116,44.42921105],[0.74225771,44.42933185],[0.74191036,44.42890327],[0.74173241,44.42876454],[0.74094657,44.42839631],[0.74058428,44.42831054],[0.74054015,44.42840869],[0.74064316,44.4288818],[0.74056303,44.42896841],[0.73800463,44.42946254],[0.73733802,44.42944435],[0.73701949,44.42939548],[0.73619698,44.4294101],[0.73526682,44.42953958],[0.73416362,44.42962766],[0.73305275,44.43037749],[0.73191173,44.4310006],[0.73111325,44.43035287],[0.73063481,44.43006114],[0.73051608,44.42991911],[0.7304884,44.42973212],[0.73038086,44.42962454],[0.73017766,44.42955191],[0.72996741,44.42956109],[0.7297084,44.42943868],[0.72952201,44.42919799],[0.72932657,44.42871306],[0.72915579,44.42845919],[0.72903607,44.42856118],[0.72919036,44.4287877],[0.72928626,44.4293102],[0.72752875,44.4299809],[0.72683294,44.42943792],[0.72605152,44.42908678],[0.72562287,44.42880777],[0.72554136,44.42870972],[0.72547429,44.42843997],[0.72522898,44.42803956],[0.72508473,44.42800146],[0.72489742,44.42778416],[0.72374039,44.42892919],[0.72341315,44.42834786],[0.72233387,44.42765464],[0.72115444,44.42645321],[0.72106275,44.42651435],[0.72082534,44.42697953],[0.72063774,44.42758083],[0.72080321,44.42833983],[0.72042164,44.42835895],[0.71895562,44.42865551],[0.71675016,44.42899436],[0.71632195,44.42929708],[0.71517187,44.4298604],[0.71544323,44.43032982],[0.71500746,44.43057024],[0.71451945,44.43054841],[0.71433299,44.43021763],[0.71350752,44.43042925],[0.71244255,44.43056474],[0.71240844,44.43010294],[0.71249996,44.42954919],[0.71159924,44.42904238],[0.70850622,44.43397804],[0.70848421,44.43433511],[0.70889684,44.43559818],[0.70856821,44.4355193],[0.70840546,44.43544117],[0.70739597,44.43476365],[0.7068462,44.43465225],[0.70647367,44.43438513],[0.7054174,44.43396328],[0.70397936,44.43300754],[0.70249634,44.43210847],[0.70217324,44.43201798],[0.70147293,44.43211684],[0.70126849,44.43210627],[0.70110667,44.43206777],[0.70076954,44.43188963],[0.70046139,44.43140049],[0.7001761,44.43031835],[0.70001524,44.43010156],[0.6997366,44.42984538],[0.6990804,44.42950928],[0.69893624,44.42937658],[0.69821627,44.42841504]]]}},{"type":"Feature","id":"villeneuve_sur_lot_47323_group_saint_etienne","properties":{"zoneId":"villeneuve_sur_lot_47323_group_saint_etienne","label":"Saint-Étienne","districtCode":"group:473230301+473230302+473230303","arrondissementCode":"47323","colorIndex":2,"parentZoneId":"villeneuve_sur_lot_parent_47323_villeneuve_sur_lot","parentCode":"47323","parentLabel":"Villeneuve-sur-Lot","territoryType":"quartier","source":"IGN / INSEE - Contours IRIS WFS Géoplateforme / regroupement déterministe par nom officiel","sourceYear":"2026","officialId":"iris-group:473230301+473230302+473230303","communeCode":"47323","communeName":"Villeneuve-sur-Lot","officialAreaM2":21710203.81324768,"labelLng":0.7392097779090063,"labelLat":44.38923606763468,"bbox":[0.68879298,44.36177687,0.78336691,44.42481671],"groupingRule":"curated-exact-source-id-group","sourceZoneCount":3,"sourceIrisIds":["473230301","473230302","473230303"],"sourceIrisLabels":["Saint-Étienne 1","Saint-Étienne 2","Saint-Étienne 3"],"curationOperationId":"villeneuve-sur-lot-saint-etienne-merge","curationRevision":1,"curationEvidenceRefs":["ign-insee-contours-iris-2026","ign-geoplateforme-toponymy-2026","guide-alpha-editorial-recovery-2026-07-14"],"curationRationale":"The exact numbered IRIS cells share one identical human base name after removal of the terminal statistical suffix, and their official WFS union is a single connected Polygon. Only that suffix is removed; no unrelated cell is dissolved.","semanticLabelReviewed":true,"semanticLabelAccepted":false,"semanticResolution":"merge"},"geometry":{"type":"Polygon","coordinates":[[[0.68879298,44.41232989],[0.68884008,44.41050003],[0.68905758,44.40938879],[0.68924691,44.4069063],[0.6899136,44.40510025],[0.6906079,44.40446371],[0.69069712,44.40424764],[0.69238051,44.40329141],[0.69298282,44.4032464],[0.69299253,44.40285396],[0.69222689,44.40277667],[0.69238955,44.40165258],[0.69286817,44.40045046],[0.69294659,44.39994418],[0.69336981,44.39815913],[0.69385363,44.39713633],[0.69420273,44.39593599],[0.69420461,44.39499585],[0.69395983,44.39409827],[0.69469828,44.39499448],[0.69580779,44.39498348],[0.69586187,44.39439565],[0.698888,44.39453999],[0.698729,44.39363161],[0.69783897,44.39130397],[0.69948235,44.39097991],[0.69956682,44.39134279],[0.70006786,44.39187018],[0.70048945,44.39194203],[0.70155723,44.39181303],[0.70168886,44.39185],[0.70199724,44.39285425],[0.70272378,44.39274694],[0.7037345,44.39278603],[0.70433106,44.39272463],[0.70567806,44.39246183],[0.70755786,44.39185079],[0.71013636,44.39157035],[0.71051206,44.39159707],[0.71174172,44.38917134],[0.71207387,44.3887838],[0.71242682,44.38862724],[0.71283089,44.38860411],[0.71302857,44.38849835],[0.71366221,44.38851242],[0.71413164,44.38861222],[0.7151145,44.38902886],[0.71479031,44.38816211],[0.71511513,44.38795542],[0.71490801,44.38761072],[0.71489775,44.38721156],[0.7147961,44.38724097],[0.71470658,44.38709412],[0.71458198,44.38666558],[0.71475274,44.38610628],[0.7144948,44.385901],[0.71411653,44.38584542],[0.71416163,44.38544381],[0.71406393,44.38472225],[0.71421302,44.38420213],[0.71428104,44.38223765],[0.71449049,44.38211952],[0.71449687,44.38124612],[0.71537551,44.38088163],[0.71750191,44.38043315],[0.71855949,44.38008315],[0.718926,44.37980617],[0.71970064,44.37893609],[0.72122529,44.37824273],[0.72143378,44.37821012],[0.72213817,44.37842913],[0.72240992,44.37841584],[0.72328197,44.37721365],[0.72357289,44.37700443],[0.72534777,44.3763306],[0.72654697,44.37626533],[0.72796044,44.37586676],[0.72889614,44.37488917],[0.72986524,44.37436164],[0.73026997,44.37425652],[0.73242926,44.37401195],[0.73328059,44.37350808],[0.73464903,44.37372987],[0.73522553,44.37174705],[0.73887599,44.36688629],[0.74014424,44.3656516],[0.74177076,44.36371013],[0.74325929,44.36270866],[0.74355835,44.36232306],[0.74531566,44.36226183],[0.74674337,44.36177687],[0.7470901,44.36214868],[0.74858072,44.36279605],[0.74947962,44.363425],[0.74992476,44.36362681],[0.75211411,44.36381384],[0.75391885,44.36448827],[0.75575887,44.3650337],[0.7583271,44.36627474],[0.761121,44.36708176],[0.76324826,44.36909896],[0.76523203,44.3695391],[0.76584544,44.36974246],[0.76653143,44.36966543],[0.76776309,44.37004523],[0.76788434,44.37021789],[0.76794483,44.37097645],[0.76763986,44.37167448],[0.76799368,44.37218955],[0.76810823,44.37253227],[0.76859958,44.37309426],[0.76988756,44.37344905],[0.77115517,44.37365213],[0.77219306,44.37414142],[0.77388007,44.37466274],[0.77485497,44.37471127],[0.77569019,44.37489565],[0.77641979,44.37495632],[0.77718291,44.37541029],[0.77853921,44.37588253],[0.77903098,44.37586093],[0.77978151,44.37596433],[0.77921381,44.37660935],[0.77880994,44.37730271],[0.77846388,44.37770637],[0.77843841,44.37845149],[0.77913363,44.37954974],[0.77929992,44.38030414],[0.7791731,44.38078426],[0.77923036,44.38114923],[0.7793544,44.38128411],[0.77974206,44.38145312],[0.78006169,44.38262034],[0.78042182,44.38301123],[0.78051245,44.38358219],[0.78122598,44.38533729],[0.78120996,44.38577822],[0.78157199,44.38640958],[0.78169518,44.38685512],[0.78258432,44.38720713],[0.78291505,44.38748395],[0.78304308,44.3886401],[0.78336691,44.38960658],[0.78327624,44.39044675],[0.78200603,44.39039595],[0.78125122,44.39052483],[0.7799309,44.39085482],[0.77878197,44.39139357],[0.77768223,44.39221428],[0.77596178,44.39460737],[0.77527535,44.39532743],[0.7743765,44.39601888],[0.77256942,44.39719176],[0.76949196,44.39945914],[0.76755307,44.40100659],[0.76586914,44.40204317],[0.76523327,44.40227252],[0.76305749,44.40275245],[0.76178784,44.40296619],[0.7583836,44.40328418],[0.75757792,44.40339115],[0.75586492,44.40379211],[0.75536146,44.40384849],[0.75475672,44.40386138],[0.75400189,44.40379465],[0.7528764,44.40354025],[0.7514174,44.40327003],[0.75083407,44.40321849],[0.7499678,44.40323771],[0.74775242,44.40341396],[0.74485074,44.40378953],[0.74217108,44.40420381],[0.74097388,44.4044251],[0.73970269,44.40458003],[0.73671287,44.40458075],[0.73124935,44.40417925],[0.73021176,44.40414706],[0.72965627,44.40421576],[0.72759149,44.40426773],[0.72580888,44.40417509],[0.72381061,44.40385373],[0.72180457,44.40338268],[0.71943798,44.40210264],[0.71817378,44.40155413],[0.71618196,44.40079599],[0.71603251,44.40076408],[0.71492668,44.4005259],[0.71309488,44.40065898],[0.71178139,44.40099011],[0.71112839,44.40132685],[0.70921238,44.40285668],[0.70584584,44.40471468],[0.70508895,44.40519512],[0.70345992,44.40633278],[0.70210697,44.40747619],[0.70114171,44.408507],[0.70084653,44.40884575],[0.69929636,44.41100534],[0.69862989,44.41237919],[0.69806045,44.41365239],[0.69775361,44.41446189],[0.69723259,44.41664387],[0.69721172,44.41740351],[0.69767171,44.41950064],[0.69850943,44.42232162],[0.69903992,44.42389248],[0.69917725,44.42434744],[0.69754332,44.42481671],[0.69367372,44.42245012],[0.69091067,44.42118096],[0.68927909,44.42051635],[0.6909558,44.41844328],[0.69151785,44.41800298],[0.69162416,44.41783049],[0.69043454,44.41625297],[0.69001742,44.41508249],[0.68898733,44.41292384],[0.68879298,44.41232989]]]}},{"type":"Feature","id":"villeneuve_sur_lot_473230401_zone_rurale_nord","properties":{"zoneId":"villeneuve_sur_lot_473230401_zone_rurale_nord","label":"Zone Rurale Nord","districtCode":"473230401","arrondissementCode":"47323","colorIndex":3,"parentZoneId":"villeneuve_sur_lot_parent_47323_villeneuve_sur_lot","parentCode":"47323","parentLabel":"Villeneuve-sur-Lot","territoryType":"iris","source":"IGN / INSEE - Contours IRIS WFS Géoplateforme","sourceYear":"2026","officialId":"473230401","sourceCleabs":"IRIS____0000000473230401","communeCode":"47323","communeName":"Villeneuve-sur-Lot","irisCode":"0401","irisType":"H","officialAreaM2":49078169.938949585,"labelLng":0.7478454251615103,"labelLat":44.442201717513946,"bbox":[0.6741889,44.39719176,0.82270979,44.47491046],"curationOperationId":"villeneuve_sur_lot-473230401-accept-zone-rurale-nord","curationRevision":1,"curationEvidenceRefs":["ign-insee-contours-iris-2026","guide-alpha-editorial-recovery-2026-07-14"],"curationRationale":"This is the exact official IGN/INSEE sector label. The local licensed dataset audit exposes no more precise official polygon crosswalk for this cell, so Guide Alpha retains it by exact source ID instead of inventing a neighborhood name.","semanticLabelReviewed":true,"semanticLabelAccepted":true,"semanticResolution":"accept"},"geometry":{"type":"MultiPolygon","coordinates":[[[[0.7468702,44.47192295],[0.74743268,44.47172642],[0.74749569,44.47159712],[0.74782314,44.47145972],[0.74847083,44.47098664],[0.74990361,44.47031615],[0.75102999,44.46931699],[0.7511442,44.46906986],[0.75169139,44.46894053],[0.75207415,44.46864485],[0.75374042,44.46823573],[0.75471557,44.46759008],[0.75587683,44.46722918],[0.75646133,44.4672681],[0.75784746,44.46719814],[0.75814763,44.46701782],[0.75825885,44.46668688],[0.76012782,44.46445995],[0.75919713,44.46414565],[0.75771056,44.46332562],[0.7560633,44.46154951],[0.75566569,44.46139732],[0.75441301,44.46118179],[0.75530908,44.46068762],[0.75659294,44.45932509],[0.75932832,44.45677451],[0.7611937,44.45554983],[0.76313321,44.45480122],[0.76398404,44.45423852],[0.7644578,44.45402209],[0.7671165,44.45377971],[0.76814552,44.45382937],[0.77025354,44.45339474],[0.77109929,44.45276705],[0.77203975,44.45164956],[0.7730419,44.45072063],[0.77457305,44.44979788],[0.77691031,44.44877159],[0.77660987,44.4495382],[0.77655097,44.4504925],[0.7769294,44.45116384],[0.77716004,44.45140534],[0.77795724,44.45194644],[0.77815034,44.45224752],[0.7783373,44.45427303],[0.77798746,44.45472886],[0.77863584,44.45512287],[0.78195073,44.45578039],[0.78158086,44.45690764],[0.78184186,44.45801067],[0.7816986,44.45855353],[0.78155284,44.45874331],[0.78213014,44.4590278],[0.78206546,44.4593624],[0.78117199,44.45954074],[0.78013851,44.45960188],[0.77884223,44.46020706],[0.77875161,44.46078519],[0.77847237,44.46145948],[0.7783531,44.46155074],[0.77812755,44.4615624],[0.78005285,44.46239188],[0.78283756,44.4633692],[0.78316237,44.46335952],[0.78350002,44.46347168],[0.78381862,44.46387703],[0.78526328,44.46343327],[0.78779256,44.46310042],[0.78823599,44.46346594],[0.78889178,44.4638033],[0.7898623,44.46500069],[0.79047106,44.46548028],[0.79098317,44.46602007],[0.79205981,44.46653064],[0.7930339,44.46715622],[0.7942667,44.46730787],[0.79473218,44.46752881],[0.79582458,44.46763711],[0.80264498,44.46778588],[0.80373766,44.4675636],[0.8040061,44.46722494],[0.80451774,44.46820142],[0.80562343,44.46809736],[0.80626892,44.4679265],[0.80785843,44.46682612],[0.80867046,44.46664054],[0.80959859,44.46654192],[0.81229456,44.4668404],[0.81261162,44.46699889],[0.81620585,44.46741956],[0.81756008,44.46739144],[0.81753678,44.46727841],[0.81792068,44.46678081],[0.81841332,44.46581166],[0.81811095,44.46514198],[0.81785997,44.46506316],[0.8181701,44.46455419],[0.81841507,44.46459326],[0.81878862,44.46397207],[0.81951816,44.46341286],[0.82013335,44.4627208],[0.8218436,44.46033575],[0.82235474,44.45917694],[0.82270979,44.45883815],[0.82238614,44.45875341],[0.82163033,44.45846291],[0.82083863,44.45695056],[0.82004291,44.45596764],[0.81717849,44.45375955],[0.81685844,44.45315886],[0.81622151,44.45278782],[0.81708315,44.45079038],[0.81714404,44.44957136],[0.81770422,44.44815149],[0.81785821,44.44797263],[0.81617729,44.44745484],[0.81326506,44.44630294],[0.81356688,44.44568215],[0.81477609,44.4444814],[0.81517667,44.44419937],[0.81529755,44.44403157],[0.81521722,44.4437355],[0.8159173,44.44276149],[0.81472155,44.44234695],[0.81448434,44.44214232],[0.81349557,44.44206417],[0.81084944,44.4416127],[0.81018313,44.44132299],[0.80880862,44.44023573],[0.80804979,44.44061508],[0.80639078,44.44210037],[0.80593176,44.442365],[0.80509857,44.44252131],[0.80383021,44.44242489],[0.80344767,44.4424677],[0.80259428,44.44288475],[0.80185919,44.44300697],[0.80133302,44.4432198],[0.80084477,44.44368555],[0.79948852,44.44293984],[0.79691522,44.44429867],[0.79604833,44.44418948],[0.79539112,44.44382873],[0.79376068,44.44163839],[0.79330412,44.44116186],[0.7925198,44.44061303],[0.79231028,44.44028104],[0.79199785,44.44000911],[0.79141888,44.43970664],[0.79061168,44.43951935],[0.79000506,44.43957112],[0.78842721,44.43990148],[0.78731665,44.43905069],[0.78504356,44.43800451],[0.78478221,44.43777772],[0.78392905,44.43661507],[0.78287767,44.43579694],[0.78225791,44.43487041],[0.78199946,44.43466619],[0.78160865,44.43456826],[0.7808639,44.43391298],[0.78071522,44.43353806],[0.78072257,44.43258183],[0.78036205,44.43190456],[0.78034323,44.43158359],[0.78048837,44.43137578],[0.7808274,44.43115928],[0.78169665,44.43094624],[0.78215386,44.43072851],[0.78300153,44.42955866],[0.78304142,44.42927849],[0.78258669,44.42888841],[0.78314801,44.42906],[0.78308043,44.42866781],[0.78314308,44.42841602],[0.78386462,44.42764166],[0.78313745,44.42663553],[0.78378145,44.42623604],[0.78359532,44.42550196],[0.7840519,44.42539497],[0.78453951,44.42516974],[0.78459878,44.42497191],[0.78482475,44.42475312],[0.78665903,44.42376788],[0.78710851,44.42291059],[0.78709818,44.42124709],[0.78726853,44.4202329],[0.7874219,44.41987757],[0.7884997,44.41856732],[0.78884701,44.41829693],[0.79000246,44.41766723],[0.79077016,44.41657317],[0.79177799,44.4154425],[0.7926221,44.41480383],[0.79323941,44.41418132],[0.79357439,44.41351714],[0.79352419,44.41167904],[0.79230147,44.41165454],[0.79064429,44.41136646],[0.78955591,44.41140856],[0.78777252,44.41161769],[0.78516192,44.41167959],[0.78552181,44.41118343],[0.7859779,44.41095756],[0.78638839,44.41051645],[0.78704586,44.41028111],[0.78718108,44.4099074],[0.78762419,44.40985237],[0.78779413,44.40929745],[0.78796281,44.409064],[0.7881843,44.40895768],[0.78816696,44.40879074],[0.78800083,44.40870185],[0.78822112,44.40856219],[0.78820609,44.40833585],[0.78813895,44.40828588],[0.78769829,44.40834276],[0.78744283,44.40806477],[0.78739224,44.40775217],[0.78714578,44.40756531],[0.78724212,44.40738264],[0.78702413,44.40723867],[0.78710668,44.40689453],[0.78669463,44.40654134],[0.78607501,44.40648476],[0.78582137,44.40632117],[0.78520542,44.40613858],[0.78509499,44.40587881],[0.78491007,44.40575712],[0.78439648,44.40581613],[0.78409605,44.40566059],[0.78369991,44.40567153],[0.78350471,44.40552352],[0.78310815,44.40548132],[0.78288266,44.40508054],[0.78220133,44.40464357],[0.78178248,44.4042407],[0.78170099,44.40394819],[0.78060879,44.40290588],[0.78013341,44.40221549],[0.77958913,44.40190464],[0.77940878,44.40153899],[0.77839863,44.40125656],[0.777472,44.40143868],[0.77685136,44.40092996],[0.77649799,44.39998086],[0.7763185,44.39898665],[0.77608451,44.39858029],[0.77539906,44.39850701],[0.77484104,44.39857948],[0.77460005,44.39854309],[0.77445497,44.3984312],[0.77443105,44.39808131],[0.77429291,44.3980488],[0.77406416,44.39818015],[0.77393138,44.39817116],[0.77256942,44.39719176],[0.76949196,44.39945914],[0.76755307,44.40100659],[0.76586914,44.40204317],[0.76523327,44.40227252],[0.76305749,44.40275245],[0.76178784,44.40296619],[0.7583836,44.40328418],[0.75757792,44.40339115],[0.75586492,44.40379211],[0.75536146,44.40384849],[0.75475672,44.40386138],[0.75400189,44.40379465],[0.7528764,44.40354025],[0.7514174,44.40327003],[0.75083407,44.40321849],[0.7499678,44.40323771],[0.74775242,44.40341396],[0.74485074,44.40378953],[0.74217108,44.40420381],[0.74097388,44.4044251],[0.74163884,44.40576795],[0.74168991,44.40647142],[0.74166545,44.40721027],[0.74176521,44.40741764],[0.74277914,44.40845424],[0.7437384,44.40953925],[0.74377864,44.40966435],[0.74371472,44.40984945],[0.7439537,44.41006328],[0.74391202,44.4101948],[0.74371264,44.41037443],[0.74368717,44.41054051],[0.74357315,44.41065885],[0.74344381,44.41097229],[0.7434334,44.41145387],[0.7434963,44.41167219],[0.74343543,44.41190689],[0.74324745,44.41208404],[0.74282741,44.41215739],[0.74276094,44.41224878],[0.7427567,44.41248104],[0.74252704,44.41256909],[0.74248672,44.4126349],[0.74262867,44.41307638],[0.74241893,44.41367274],[0.74242635,44.41380167],[0.74278599,44.41414045],[0.74292683,44.41479893],[0.74305742,44.41498983],[0.74305892,44.41514115],[0.74287354,44.41534718],[0.74259634,44.41542975],[0.74248751,44.41551217],[0.74250586,44.41590249],[0.7420877,44.41655762],[0.74152354,44.41715573],[0.74123185,44.41760092],[0.74106351,44.41819814],[0.74080725,44.41873141],[0.74057772,44.41903559],[0.7405347,44.41923193],[0.74054478,44.41967161],[0.74071933,44.42030377],[0.74091306,44.42061303],[0.74122682,44.42087433],[0.74130717,44.42103357],[0.74160232,44.42109996],[0.74177885,44.42127378],[0.74226119,44.42134131],[0.74279767,44.42156393],[0.74274278,44.42177444],[0.74288604,44.42208896],[0.74288482,44.4221826],[0.74274454,44.42254895],[0.74203007,44.42370052],[0.7419361,44.42391383],[0.74196393,44.42416115],[0.74123157,44.42494132],[0.74121599,44.42504817],[0.74133211,44.42516132],[0.74134556,44.42523364],[0.74116753,44.4255695],[0.74113006,44.42581548],[0.74119614,44.42642651],[0.74135118,44.42682414],[0.74188732,44.42752855],[0.74192463,44.42763288],[0.74221723,44.42795317],[0.74255804,44.4286716],[0.74255157,44.42895964],[0.74247116,44.42921105],[0.74225771,44.42933185],[0.74191036,44.42890327],[0.74173241,44.42876454],[0.74094657,44.42839631],[0.74058428,44.42831054],[0.74054015,44.42840869],[0.74064316,44.4288818],[0.74056303,44.42896841],[0.73800463,44.42946254],[0.73733802,44.42944435],[0.73701949,44.42939548],[0.73619698,44.4294101],[0.73526682,44.42953958],[0.73416362,44.42962766],[0.73305275,44.43037749],[0.73191173,44.4310006],[0.73111325,44.43035287],[0.73063481,44.43006114],[0.73051608,44.42991911],[0.7304884,44.42973212],[0.73038086,44.42962454],[0.73017766,44.42955191],[0.72996741,44.42956109],[0.7297084,44.42943868],[0.72952201,44.42919799],[0.72932657,44.42871306],[0.72915579,44.42845919],[0.72903607,44.42856118],[0.72919036,44.4287877],[0.72928626,44.4293102],[0.72752875,44.4299809],[0.72683294,44.42943792],[0.72605152,44.42908678],[0.72562287,44.42880777],[0.72554136,44.42870972],[0.72547429,44.42843997],[0.72522898,44.42803956],[0.72508473,44.42800146],[0.72489742,44.42778416],[0.72374039,44.42892919],[0.72341315,44.42834786],[0.72233387,44.42765464],[0.72115444,44.42645321],[0.72106275,44.42651435],[0.72082534,44.42697953],[0.72063774,44.42758083],[0.72080321,44.42833983],[0.72042164,44.42835895],[0.71895562,44.42865551],[0.71675016,44.42899436],[0.71632195,44.42929708],[0.71517187,44.4298604],[0.71544323,44.43032982],[0.71500746,44.43057024],[0.71451945,44.43054841],[0.71433299,44.43021763],[0.71350752,44.43042925],[0.71244255,44.43056474],[0.71240844,44.43010294],[0.71249996,44.42954919],[0.71159924,44.42904238],[0.70850622,44.43397804],[0.70848421,44.43433511],[0.70889684,44.43559818],[0.70856821,44.4355193],[0.70840546,44.43544117],[0.70739597,44.43476365],[0.7068462,44.43465225],[0.70647367,44.43438513],[0.7054174,44.43396328],[0.70397936,44.43300754],[0.70249634,44.43210847],[0.70217324,44.43201798],[0.70147293,44.43211684],[0.70126849,44.43210627],[0.70110667,44.43206777],[0.70076954,44.43188963],[0.70046139,44.43140049],[0.7001761,44.43031835],[0.70001524,44.43010156],[0.6997366,44.42984538],[0.6990804,44.42950928],[0.69893624,44.42937658],[0.69821627,44.42841504],[0.69673456,44.42897035],[0.6940741,44.42921368],[0.6916082,44.42906207],[0.68433377,44.42894362],[0.68491023,44.42944475],[0.68620871,44.4302078],[0.68619069,44.43049471],[0.68587819,44.43128245],[0.68668311,44.4321603],[0.68700082,44.43265869],[0.68754961,44.43408411],[0.6878959,44.4344372],[0.68860987,44.43480521],[0.68858249,44.43519819],[0.68957237,44.43564312],[0.68978078,44.43589515],[0.6897384,44.43622477],[0.68982547,44.43643193],[0.69005439,44.4367051],[0.69110654,44.43731883],[0.69171326,44.4378827],[0.69069707,44.43857376],[0.68948694,44.43976507],[0.68945062,44.44065408],[0.6891945,44.44076938],[0.69007321,44.44212247],[0.6877596,44.44315193],[0.68720898,44.44428952],[0.68718798,44.44486455],[0.68684252,44.44581101],[0.68639832,44.44662032],[0.68584595,44.44727695],[0.68429772,44.44858179],[0.68373952,44.44937968],[0.68369915,44.44981292],[0.68351171,44.45012238],[0.68256535,44.45127955],[0.68208104,44.45153143],[0.68169025,44.45100447],[0.68147511,44.45091619],[0.68138418,44.45098723],[0.68128353,44.45154077],[0.68108066,44.45158243],[0.68053112,44.45091074],[0.68060787,44.45023511],[0.680489,44.45000657],[0.68033556,44.44991598],[0.68000143,44.45006204],[0.67956278,44.45064089],[0.67944659,44.45065376],[0.67915966,44.45044598],[0.67890229,44.45046758],[0.67838382,44.45115281],[0.67816362,44.45112656],[0.67787001,44.45092855],[0.67769706,44.45094562],[0.67762471,44.4514214],[0.67725727,44.45170455],[0.67703725,44.45161255],[0.67696049,44.45115524],[0.67652796,44.45091107],[0.67599485,44.45115649],[0.67543043,44.45078706],[0.67512492,44.45078692],[0.67494088,44.4508902],[0.67487499,44.45111666],[0.67494757,44.4514307],[0.67568422,44.45152549],[0.67581489,44.45164982],[0.67585124,44.45189735],[0.67563985,44.45214596],[0.67520353,44.45226914],[0.674899,44.45187816],[0.67457091,44.45184602],[0.67440819,44.45192004],[0.67430531,44.45222047],[0.67460096,44.45279678],[0.6743498,44.45315622],[0.6747745,44.4534993],[0.67537908,44.4543604],[0.67659636,44.45567211],[0.67731432,44.45809002],[0.67641201,44.45920934],[0.67629585,44.45971032],[0.67551188,44.46039715],[0.67547517,44.46064764],[0.67577524,44.46124026],[0.67562433,44.46185218],[0.67511241,44.46310851],[0.67427713,44.46412387],[0.6741889,44.46434266],[0.67452938,44.46487038],[0.67568678,44.46596109],[0.67553702,44.46626954],[0.6757155,44.46660833],[0.67579202,44.46789779],[0.67593983,44.46834039],[0.6763805,44.46884861],[0.67642359,44.46908547],[0.67786674,44.46995884],[0.67923105,44.47036402],[0.68065631,44.47106225],[0.68237782,44.47156046],[0.68286221,44.47198581],[0.68342844,44.47277763],[0.6842776,44.47366364],[0.68363938,44.47389159],[0.68391081,44.47491046],[0.68596774,44.47477714],[0.68602773,44.47472526],[0.68625295,44.47481554],[0.68775675,44.47476694],[0.68962123,44.47438725],[0.69080246,44.47422918],[0.69208937,44.47379322],[0.69283092,44.47362142],[0.69388152,44.47367402],[0.69617001,44.47396773],[0.69630129,44.47404882],[0.69649668,44.47385297],[0.69684199,44.47368187],[0.69715586,44.47332549],[0.69795847,44.47301264],[0.7004266,44.47154936],[0.70114719,44.47068542],[0.70122848,44.47044936],[0.7009812,44.46929325],[0.70233266,44.4686568],[0.70318522,44.46810269],[0.70324696,44.46772843],[0.70317215,44.4665363],[0.70329263,44.46610924],[0.70277236,44.46535721],[0.70351613,44.46509623],[0.70376474,44.46485825],[0.70378299,44.4641922],[0.70401859,44.4632524],[0.7047742,44.46111935],[0.70868878,44.45907092],[0.70958092,44.45936594],[0.70994802,44.45986439],[0.71016774,44.45999683],[0.71230521,44.46034381],[0.71447766,44.46097696],[0.71586752,44.46115526],[0.71868652,44.46175399],[0.71947155,44.46183868],[0.72045288,44.46226334],[0.72072566,44.45983292],[0.72234364,44.46018517],[0.72328702,44.46067746],[0.72363157,44.46108353],[0.72434613,44.46116943],[0.72491307,44.46108027],[0.72629371,44.4605504],[0.72767105,44.46075892],[0.72803789,44.46101774],[0.72820731,44.46146432],[0.72841575,44.46165953],[0.72956489,44.4619777],[0.72983012,44.46191742],[0.72990556,44.46172985],[0.73006102,44.46167902],[0.73149161,44.46231636],[0.73171484,44.46258212],[0.731772,44.46303808],[0.7316595,44.46314654],[0.73114807,44.46332513],[0.73106186,44.46353049],[0.7318186,44.46428994],[0.73224275,44.46534693],[0.73220217,44.46620164],[0.73206339,44.46662026],[0.73210138,44.46824387],[0.73263671,44.46950848],[0.73274273,44.4700321],[0.73388312,44.47079312],[0.73420199,44.47093296],[0.73569384,44.47130402],[0.73613785,44.4712402],[0.7369516,44.47095701],[0.73770046,44.47094356],[0.73882381,44.47059197],[0.73984041,44.47048764],[0.74142842,44.46993211],[0.74196349,44.46998089],[0.74249381,44.47030606],[0.74284743,44.47039525],[0.74396384,44.47005877],[0.7444959,44.47021465],[0.74494726,44.4707228],[0.74558313,44.47089341],[0.74628554,44.47122477],[0.74666908,44.47157302],[0.7468702,44.47192295]]]]}}]}
