{"type":"FeatureCollection","metadata":{"generatedAt":"2026-07-14T18:56:03.503Z","source":"IGN / INSEE - Contours IRIS WFS Géoplateforme","datasetId":"STATISTICALUNITS.IRIS:contours_iris","datasetUrl":"https://geoservices.ign.fr/contoursiris","sourceFileUrl":"https://data.geopf.fr/wfs/ows?SERVICE=WFS&VERSION=2.0.0&REQUEST=GetFeature&TYPENAMES=STATISTICALUNITS.IRIS%3Acontours_iris&OUTPUTFORMAT=application%2Fjson&COUNT=1000&CQL_FILTER=code_insee%3D%2759632%27&SRSNAME=EPSG%3A4326","license":"Licence Ouverte / Open Licence 2.0","sourceYear":"2026","communeCode":"59632","communeName":"Wallers","featureCount":2,"parentCount":1,"parentContract":"technical commune group; not selectable and not displayed as a district","sourceFeatureCount":2,"humanLabelContract":"one visible plate per unique official human place name","groupingContract":"only exact source-ID groups approved by the resolved curation, or source zones sharing the same official name and parent, are merged","groupedZoneCount":0,"groupedSourceFeatureCount":0,"curationStatus":"resolved","curationRevision":1,"curationSources":[{"id":"ign-insee-contours-iris-2026","provider":"IGN / INSEE - Contours IRIS WFS Géoplateforme","datasetUrl":"https://geoservices.ign.fr/contoursiris","role":"official geometry, source identifiers and source labels","vintage":"2026","license":"Licence Ouverte / Open Licence 2.0"},{"id":"ign-geoplateforme-toponymy-2026","provider":"IGN Géoplateforme - reverse geocoding, addresses and named places","datasetUrl":"https://geoservices.ign.fr/geocodage-geoplateforme","role":"official address, street and named-place evidence","vintage":"2026","license":"Licence Ouverte / Open Licence 2.0"},{"id":"guide-alpha-editorial-recovery-2026-07-14","provider":"Meewav Guide Alpha editorial review","datasetUrl":"docs/geospatial/france-semantic-recovery.md","role":"versioned mapping of exact official IRIS identifiers to coherent human place names","vintage":"2026-07-14","license":"Project documentation"}],"sourceCorrections":[{"operationId":"wallers-596320101-rename-rue-paul-lafargue","type":"rename","sourceIds":["596320101"],"expectedLabels":["Ouest"],"outputLabel":"Rue Paul Lafargue","evidenceRefs":["ign-insee-contours-iris-2026","ign-geoplateforme-toponymy-2026","guide-alpha-editorial-recovery-2026-07-14"],"rationale":"The exact official IGN BD TOPO named road has a deterministic evidence point strictly inside this exact IRIS. The 1:1 label is emitted without nearest assignment, invented geometry, split or dropped source cell."},{"operationId":"wallers-596320102-rename-arenberg","type":"rename","sourceIds":["596320102"],"expectedLabels":["Est"],"outputLabel":"Arenberg","evidenceRefs":["ign-insee-contours-iris-2026","ign-geoplateforme-toponymy-2026","guide-alpha-editorial-recovery-2026-07-14"],"rationale":"The exact official IGN BD TOPO habitation toponym has a deterministic evidence point strictly inside this exact IRIS. The 1:1 label is emitted without nearest assignment, invented geometry, split or dropped source cell."}],"bbox":[3.35626665,50.3404468,3.43247545,50.40856073],"areaStatsM2":{"minimum":10275362.270507812,"average":10423573.234558105,"maximum":10571784.198608398}},"features":[{"type":"Feature","id":"wallers_596320101_ouest","properties":{"zoneId":"wallers_596320101_ouest","label":"Rue Paul Lafargue","districtCode":"596320101","arrondissementCode":"59632","colorIndex":0,"parentZoneId":"wallers_parent_59632_wallers","parentCode":"59632","parentLabel":"Wallers","territoryType":"iris","source":"IGN / INSEE - Contours IRIS WFS Géoplateforme","sourceYear":"2026","officialId":"596320101","sourceCleabs":"IRIS____0000000596320101","communeCode":"59632","communeName":"Wallers","irisCode":"0101","irisType":"H","officialAreaM2":10275362.270507812,"labelLng":3.383856471041879,"labelLat":50.37106970201209,"bbox":[3.35626665,50.3404468,3.43118266,50.39931744],"curationOperationId":"wallers-596320101-rename-rue-paul-lafargue","curationRevision":1,"curationEvidenceRefs":["ign-insee-contours-iris-2026","ign-geoplateforme-toponymy-2026","guide-alpha-editorial-recovery-2026-07-14"],"curationRationale":"The exact official IGN BD TOPO named road has a deterministic evidence point strictly inside this exact IRIS. The 1:1 label is emitted without nearest assignment, invented geometry, split or dropped source cell.","semanticLabelReviewed":true,"semanticLabelAccepted":false,"semanticResolution":"rename"},"geometry":{"type":"MultiPolygon","coordinates":[[[[3.40949885,50.36882043],[3.40690756,50.36776154],[3.40640924,50.3682821],[3.40521605,50.36792152],[3.40541783,50.36717929],[3.40690826,50.36645437],[3.40687832,50.36639791],[3.40641326,50.36599095],[3.40617921,50.36551051],[3.40504886,50.36510214],[3.40535354,50.36476537],[3.4042884,50.36408475],[3.40301033,50.36309867],[3.40330746,50.36269549],[3.40140695,50.36214506],[3.40161564,50.36156171],[3.40093509,50.36140143],[3.40074739,50.36197842],[3.39984037,50.36175422],[3.39939408,50.3615788],[3.39964939,50.36120808],[3.39908197,50.36115515],[3.39796084,50.36082928],[3.39836052,50.36043476],[3.39685664,50.36015411],[3.39659688,50.36049611],[3.39603259,50.3603031],[3.39610394,50.36009638],[3.39345267,50.35917026],[3.39347321,50.35874464],[3.38935425,50.35783477],[3.38875797,50.35639569],[3.38834209,50.3546876],[3.38803974,50.3540565],[3.38491794,50.3543006],[3.38159617,50.35426962],[3.38151171,50.35330565],[3.38201805,50.35327535],[3.38177927,50.35175971],[3.38008108,50.35171647],[3.37963724,50.34941857],[3.37931319,50.34942854],[3.37925313,50.34834329],[3.37965923,50.34786351],[3.38172942,50.34813275],[3.38235777,50.34698969],[3.37947914,50.34667716],[3.379515,50.34603422],[3.37866739,50.34601169],[3.37879558,50.3455175],[3.37756194,50.34527977],[3.37734654,50.3457446],[3.37662659,50.34590661],[3.37641339,50.34629062],[3.37514382,50.34650457],[3.37498457,50.34584338],[3.3744001,50.34573382],[3.37471201,50.34541415],[3.37320189,50.34478129],[3.37432709,50.34383339],[3.37470016,50.34324868],[3.37492927,50.34217241],[3.37303822,50.34161611],[3.37047354,50.3404468],[3.37046204,50.34098373],[3.3716162,50.34187987],[3.36775108,50.34360536],[3.36838165,50.34426966],[3.36870109,50.34401642],[3.37355243,50.34627148],[3.37395595,50.34619574],[3.3739488,50.34788364],[3.37188589,50.34802454],[3.37194605,50.35009739],[3.37078818,50.35006047],[3.37047627,50.34943115],[3.36811652,50.35063049],[3.37149367,50.35326528],[3.37308112,50.35502736],[3.37226717,50.35521207],[3.37309487,50.35612891],[3.37111503,50.35711706],[3.37243669,50.35802883],[3.37148708,50.35904799],[3.37188428,50.35924341],[3.37076194,50.3608251],[3.37063569,50.36140724],[3.36919168,50.3612365],[3.36635921,50.36371205],[3.36977781,50.36500095],[3.37079466,50.3652825],[3.37080507,50.36574482],[3.36622046,50.36664372],[3.36584676,50.36640333],[3.36407955,50.36678293],[3.36557036,50.37029601],[3.36308083,50.37058346],[3.36291552,50.37082366],[3.36181599,50.37115816],[3.36233051,50.37184973],[3.36107971,50.37282389],[3.36172346,50.37372247],[3.36152244,50.37407588],[3.36159519,50.37717836],[3.36218405,50.37785265],[3.36240714,50.37842118],[3.36205249,50.37947529],[3.36067457,50.3801742],[3.36040562,50.38065349],[3.35817432,50.38100113],[3.35811828,50.38141426],[3.35627682,50.38169969],[3.35626665,50.38204985],[3.35793064,50.38168234],[3.36001461,50.38153982],[3.36075596,50.38174055],[3.36199144,50.38133923],[3.3638004,50.38297951],[3.36396573,50.38390461],[3.36509434,50.38425499],[3.36624584,50.38485398],[3.36625161,50.38506853],[3.36596118,50.38548684],[3.36505662,50.3864169],[3.3648995,50.38701976],[3.36420884,50.38743656],[3.36426514,50.38803789],[3.36446028,50.38842155],[3.36473997,50.38865055],[3.36544486,50.38883969],[3.36658712,50.38931211],[3.3679609,50.3897569],[3.36875297,50.38976621],[3.36905397,50.38983444],[3.36929526,50.38999262],[3.36951353,50.39026847],[3.36934801,50.39048533],[3.36919916,50.39106123],[3.36920357,50.39224086],[3.36936264,50.39267579],[3.36987975,50.39329369],[3.36999785,50.39407886],[3.36968859,50.39461305],[3.36949805,50.39525192],[3.36934716,50.3953592],[3.36910156,50.39538238],[3.35938397,50.39432925],[3.35912299,50.39455893],[3.36056176,50.39661955],[3.36110082,50.39756779],[3.36178016,50.39829207],[3.36275644,50.39870486],[3.36342555,50.39878369],[3.36394219,50.39894825],[3.36780869,50.39931744],[3.36864437,50.39854738],[3.36969084,50.39818067],[3.37069601,50.39792899],[3.37234195,50.39772294],[3.37280468,50.39781222],[3.37394203,50.39777467],[3.37536356,50.39761325],[3.37759802,50.39760465],[3.37770481,50.39723624],[3.37767918,50.39662676],[3.37743996,50.39600086],[3.37725734,50.39580751],[3.37631583,50.39516849],[3.37590582,50.39480256],[3.37422493,50.39198425],[3.37369002,50.39067426],[3.37259803,50.38960565],[3.37325923,50.38919787],[3.37554029,50.3862553],[3.37597593,50.38573686],[3.37647082,50.38525685],[3.37661787,50.38520523],[3.37964957,50.38466986],[3.38044112,50.38443491],[3.38090587,50.38424764],[3.38101352,50.38418626],[3.38111487,50.38403422],[3.38137972,50.38322093],[3.38154191,50.38294482],[3.3831348,50.38192362],[3.38481846,50.3810314],[3.38742784,50.37984537],[3.39264231,50.37732952],[3.39180844,50.37570811],[3.39173805,50.37550184],[3.39172582,50.37519125],[3.39184658,50.37483356],[3.39253256,50.37386628],[3.39289102,50.37392888],[3.39333854,50.3740711],[3.39526029,50.37531735],[3.39540392,50.37537255],[3.39559487,50.37537643],[3.39574122,50.37542085],[3.39633452,50.37642624],[3.39813968,50.37550561],[3.3982721,50.37538578],[3.39886724,50.37537398],[3.39933957,50.37492088],[3.39966922,50.37471242],[3.39959605,50.37451336],[3.39963736,50.37441177],[3.40017543,50.3744621],[3.40036127,50.37452973],[3.40062513,50.37469855],[3.40155929,50.37565793],[3.40402108,50.37751457],[3.40471989,50.37799797],[3.40548732,50.3784578],[3.40723309,50.37941087],[3.40843991,50.38037827],[3.40856913,50.38038502],[3.40877065,50.38030356],[3.41067685,50.37921632],[3.41072126,50.37915333],[3.41070201,50.3790295],[3.41028586,50.37844016],[3.41031961,50.37827485],[3.41051178,50.3780812],[3.41162258,50.37742751],[3.41257254,50.37702394],[3.41295935,50.37694185],[3.41323741,50.37695348],[3.41791468,50.37773676],[3.41917593,50.37780071],[3.4197761,50.37771518],[3.42056063,50.377515],[3.42091155,50.37750752],[3.42600936,50.37819569],[3.42792487,50.37875555],[3.42943117,50.37906903],[3.43005104,50.37915396],[3.43100037,50.37918387],[3.43100669,50.37910215],[3.43118266,50.37850003],[3.43111753,50.37827043],[3.42996828,50.3778444],[3.42966326,50.37763539],[3.42811188,50.37796218],[3.42765376,50.37757862],[3.4271932,50.37740335],[3.42678338,50.37708606],[3.42567875,50.37661585],[3.42352985,50.37683781],[3.42317096,50.37589279],[3.42296578,50.37402343],[3.42147397,50.3732376],[3.42109479,50.37321824],[3.41832598,50.37146173],[3.41694134,50.372076],[3.41609014,50.37133103],[3.41619479,50.37125436],[3.41387371,50.36997116],[3.4147423,50.3694215],[3.4122297,50.36821791],[3.41059484,50.36947666],[3.40949885,50.36882043]]]]}},{"type":"Feature","id":"wallers_596320102_est","properties":{"zoneId":"wallers_596320102_est","label":"Arenberg","districtCode":"596320102","arrondissementCode":"59632","colorIndex":1,"parentZoneId":"wallers_parent_59632_wallers","parentCode":"59632","parentLabel":"Wallers","territoryType":"iris","source":"IGN / INSEE - Contours IRIS WFS Géoplateforme","sourceYear":"2026","officialId":"596320102","sourceCleabs":"IRIS____0000000596320102","communeCode":"59632","communeName":"Wallers","irisCode":"0102","irisType":"H","officialAreaM2":10571784.198608398,"labelLng":3.403283228171675,"labelLat":50.390993756787395,"bbox":[3.37259803,50.37386628,3.43247545,50.40856073],"curationOperationId":"wallers-596320102-rename-arenberg","curationRevision":1,"curationEvidenceRefs":["ign-insee-contours-iris-2026","ign-geoplateforme-toponymy-2026","guide-alpha-editorial-recovery-2026-07-14"],"curationRationale":"The exact official IGN BD TOPO habitation toponym has a deterministic evidence point strictly inside this exact IRIS. The 1:1 label is emitted without nearest assignment, invented geometry, split or dropped source cell.","semanticLabelReviewed":true,"semanticLabelAccepted":false,"semanticResolution":"rename"},"geometry":{"type":"MultiPolygon","coordinates":[[[[3.37759802,50.39760465],[3.37759009,50.3976711],[3.37827655,50.39762771],[3.37832894,50.397685],[3.37822372,50.39826167],[3.37899293,50.39988512],[3.37776264,50.40083511],[3.38153314,50.4011072],[3.38223305,50.40097936],[3.38363363,50.40100913],[3.38452618,50.4009103],[3.38504746,50.40093381],[3.38563955,50.4010352],[3.38826568,50.40189329],[3.38914764,50.40242467],[3.38977237,50.40292813],[3.38993858,50.40316999],[3.39027586,50.40537107],[3.39049029,50.40585337],[3.39085105,50.40618439],[3.39080542,50.40645834],[3.39122408,50.40664734],[3.39165085,50.4071559],[3.39186142,50.4076795],[3.39250892,50.40802936],[3.39367632,50.40839461],[3.39647172,50.40856073],[3.39921463,50.40812727],[3.39991663,50.40790147],[3.40022972,50.40787981],[3.40086819,50.40796841],[3.40167511,50.4083958],[3.40291349,50.40831636],[3.40331048,50.40842189],[3.40523699,50.40691728],[3.40508028,50.40664488],[3.40575677,50.40622162],[3.40793518,50.40548998],[3.40857481,50.40537655],[3.40896269,50.40522624],[3.40988278,50.40471059],[3.410353,50.4043221],[3.41077369,50.40423542],[3.41235656,50.40421219],[3.41314821,50.40448515],[3.41377285,50.40408985],[3.41449744,50.40406408],[3.41510057,50.40395702],[3.41595759,50.40278619],[3.41593764,50.40224043],[3.41562261,50.40082845],[3.41583987,50.40026214],[3.4163499,50.39755912],[3.41830058,50.39906792],[3.4209276,50.40267329],[3.42133259,50.40340177],[3.42242195,50.40466745],[3.42252464,50.40518958],[3.42375142,50.40457851],[3.42468806,50.40371078],[3.42524921,50.40195916],[3.42520861,50.40130844],[3.42538889,50.40053396],[3.42576313,50.39994286],[3.42573231,50.3994528],[3.42691005,50.39588738],[3.42846688,50.39299483],[3.42814545,50.39152363],[3.42852947,50.39143432],[3.42808538,50.39106419],[3.42754146,50.39101042],[3.4274551,50.39076204],[3.42803609,50.38988831],[3.42783091,50.38953889],[3.42766019,50.38844871],[3.42781151,50.38807831],[3.42755269,50.38752798],[3.43070198,50.38831246],[3.43155443,50.38651666],[3.43247545,50.37896235],[3.43100669,50.37910215],[3.43100037,50.37918387],[3.43005104,50.37915396],[3.42943117,50.37906903],[3.42792487,50.37875555],[3.42600936,50.37819569],[3.42091155,50.37750752],[3.42056063,50.377515],[3.4197761,50.37771518],[3.41917593,50.37780071],[3.41791468,50.37773676],[3.41323741,50.37695348],[3.41295935,50.37694185],[3.41257254,50.37702394],[3.41162258,50.37742751],[3.41051178,50.3780812],[3.41031961,50.37827485],[3.41028586,50.37844016],[3.41070201,50.3790295],[3.41072126,50.37915333],[3.41067685,50.37921632],[3.40877065,50.38030356],[3.40856913,50.38038502],[3.40843991,50.38037827],[3.40723309,50.37941087],[3.40548732,50.3784578],[3.40471989,50.37799797],[3.40402108,50.37751457],[3.40155929,50.37565793],[3.40062513,50.37469855],[3.40036127,50.37452973],[3.40017543,50.3744621],[3.39963736,50.37441177],[3.39959605,50.37451336],[3.39966922,50.37471242],[3.39933957,50.37492088],[3.39886724,50.37537398],[3.3982721,50.37538578],[3.39813968,50.37550561],[3.39633452,50.37642624],[3.39574122,50.37542085],[3.39559487,50.37537643],[3.39540392,50.37537255],[3.39526029,50.37531735],[3.39333854,50.3740711],[3.39289102,50.37392888],[3.39253256,50.37386628],[3.39184658,50.37483356],[3.39172582,50.37519125],[3.39173805,50.37550184],[3.39180844,50.37570811],[3.39264231,50.37732952],[3.38742784,50.37984537],[3.38481846,50.3810314],[3.3831348,50.38192362],[3.38154191,50.38294482],[3.38137972,50.38322093],[3.38111487,50.38403422],[3.38101352,50.38418626],[3.38090587,50.38424764],[3.38044112,50.38443491],[3.37964957,50.38466986],[3.37661787,50.38520523],[3.37647082,50.38525685],[3.37597593,50.38573686],[3.37554029,50.3862553],[3.37325923,50.38919787],[3.37259803,50.38960565],[3.37369002,50.39067426],[3.37422493,50.39198425],[3.37590582,50.39480256],[3.37631583,50.39516849],[3.37725734,50.39580751],[3.37743996,50.39600086],[3.37767918,50.39662676],[3.37770481,50.39723624],[3.37759802,50.39760465]]]]}}]}
