{"type":"Feature","id":"0961ab88-ad92-53e1-b3b4-3d58e71feb79","properties":{"zone_id":"0961ab88-ad92-53e1-b3b4-3d58e71feb79","display_name":"Centre Historique","commune_code":"34172","commune_name":"Montpellier"},"geometry":{"type":"Polygon","coordinates":[[[3.8668749772,43.6093313504],[3.866880036,43.6092563547],[3.8668912721,43.6091885984],[3.8668944427,43.6091689569],[3.8668982897,43.6091449009],[3.8669168811,43.6091131688],[3.8669527407,43.6090932666],[3.8669582259,43.6090710872],[3.8669603406,43.6090553234],[3.8670180519,43.6089817973],[3.8690254322,43.6085723595],[3.8694049827,43.6085065158],[3.8696496499,43.6084799028],[3.8697222308,43.6084889501],[3.8699989412,43.6084603702],[3.8702344564,43.6084100738],[3.8704538907,43.6083854608],[3.8706595494,43.6083588881],[3.8706948258,43.6083577956],[3.8709432282,43.6083325895],[3.871183638,43.6083111362],[3.8715029276,43.6083057864],[3.8717477644,43.6082986036],[3.8719941647,43.6083128234],[3.8730144122,43.6085712494],[3.8732028104,43.6083625961],[3.8733526971,43.6082273178],[3.8741802382,43.6074520334],[3.8742851845,43.6073584172],[3.8742984074,43.6073485028],[3.8743308609,43.6073328547],[3.875166359,43.6069672793],[3.8757483986,43.6067013713],[3.8758817891,43.6066380284],[3.875947927,43.6066063614],[3.8759938008,43.606674918],[3.876005944,43.6066916468],[3.8760765283,43.6067889785],[3.8760846243,43.6068001611],[3.8761807667,43.6069330996],[3.8758603817,43.6070527495],[3.8758853469,43.6071793334],[3.8759024279,43.6074140497],[3.8759158524,43.6077580341],[3.8758964387,43.6083195917],[3.8759307632,43.6084832629],[3.8760414797,43.6084594249],[3.8761221041,43.6085491173],[3.8761480714,43.608579052],[3.8762615216,43.6087098715],[3.8763377868,43.6087978892],[3.8764309412,43.6089052069],[3.8764513604,43.6089286176],[3.8764653492,43.6089445216],[3.8765623988,43.609055497],[3.8766319113,43.609025692],[3.8767368295,43.6091328245],[3.8768580927,43.609239915],[3.8771511255,43.6093069266],[3.8771183012,43.6094198496],[3.8772063745,43.6094781672],[3.877230268,43.6095505902],[3.8771076118,43.6096359839],[3.8770036441,43.6097368836],[3.8769845569,43.6098249506],[3.8771091488,43.6099390326],[3.8772697133,43.6100731602],[3.8773772076,43.6101785618],[3.8775093915,43.610319307],[3.877790504,43.6106185682],[3.8778561689,43.6106771563],[3.8780041945,43.6107604541],[3.8781067984,43.6108293616],[3.8781604621,43.6108643811],[3.8781869734,43.6108811735],[3.878307808,43.6109760285],[3.8783856832,43.6110393767],[3.8784382483,43.6110915916],[3.878564341,43.6112547905],[3.8786535427,43.6113703269],[3.8787431473,43.6114636342],[3.878900037,43.6116079574],[3.8790116951,43.6117665036],[3.879080552,43.6119200869],[3.8790997701,43.612010454],[3.8791267401,43.6121056175],[3.8791323055,43.6121940254],[3.8791270667,43.612385551],[3.8791329016,43.6125966033],[3.8791736265,43.6128619928],[3.8791594546,43.6129393127],[3.8791499315,43.6129644049],[3.8791318294,43.6131085237],[3.8790716102,43.6134540957],[3.8790529,43.6135666355],[3.8790474589,43.6138177315],[3.8790430306,43.6140702591],[3.879016565,43.614307128],[3.8790119749,43.6145895312],[3.8790132048,43.6146293837],[3.8790061546,43.6146784813],[3.8789943358,43.6147396753],[3.8789007273,43.6147491607],[3.8781863057,43.6147938087],[3.8774982637,43.6148385089],[3.8773203431,43.6148580319],[3.8772130395,43.6148790543],[3.8760959299,43.6150988953],[3.8753005428,43.6152597149],[3.8749533023,43.6153351272],[3.8744460939,43.6153974284],[3.8741003005,43.6153728554],[3.8740298419,43.6153817905],[3.8738324305,43.6154065936],[3.8733693493,43.6154551275],[3.8732851469,43.6154724509],[3.8730589336,43.6155334771],[3.8727626063,43.6156180116],[3.8725238605,43.615701993],[3.8721080367,43.6158612708],[3.8720210773,43.6158928327],[3.8719052009,43.6159367742],[3.8718793866,43.6159495789],[3.871789487,43.6159914223],[3.8717225456,43.6160281323],[3.8716656106,43.6160468555],[3.8713954224,43.6161402648],[3.8713743866,43.6161007511],[3.8713491335,43.6160608212],[3.8713193368,43.6160234473],[3.8711879328,43.6159176011],[3.8710915281,43.6158491771],[3.8699166472,43.6149735171],[3.8698991057,43.6149601601],[3.8698658329,43.6149384706],[3.8698040493,43.6149069313],[3.8694276612,43.6146938046],[3.8690358229,43.6143763302],[3.8685971243,43.6139654671],[3.8685733372,43.6139403721],[3.8683730654,43.6137432909],[3.8679329256,43.6133102103],[3.8678722619,43.6132460872],[3.8674751121,43.6128708813],[3.8674449862,43.6128360285],[3.8674090757,43.6127953731],[3.8674609061,43.6127586064],[3.8677980845,43.6125423858],[3.8681193911,43.6123086543],[3.8681751355,43.6122687066],[3.8682103257,43.61224539],[3.8682717409,43.6121382699],[3.8682827945,43.6120339818],[3.8682387327,43.6116674751],[3.8682278255,43.6115768598],[3.8682165985,43.6114814781],[3.8682149002,43.6114674544],[3.8682101373,43.6114309595],[3.8681365496,43.6108481909],[3.8681448403,43.6108313879],[3.8681654361,43.6108257345],[3.868212634,43.6108185187],[3.8683435445,43.6107865188],[3.8684514496,43.6106909949],[3.8685108428,43.6106386003],[3.8686984771,43.6106233333],[3.8686950773,43.6105051235],[3.8685581263,43.6103671053],[3.8684680003,43.6103117665],[3.8684262779,43.6102879847],[3.8674391293,43.6096965861],[3.8670328329,43.6094600256],[3.8670144678,43.6094493742],[3.8669982254,43.6094398757],[3.866923014,43.6093961144],[3.8668938345,43.6093663831],[3.8668749772,43.6093313504]]]}}
