{"type":"Feature","id":"26b42e00-0494-5b09-bffd-6b1b80ae7394","properties":{"zone_id":"26b42e00-0494-5b09-bffd-6b1b80ae7394","display_name":"Les Aubes","commune_code":"34172","commune_name":"Montpellier"},"geometry":{"type":"Polygon","coordinates":[[[3.8827598624,43.6141129273],[3.8830249904,43.6140144017],[3.8832046791,43.6139732591],[3.8833073902,43.6139518182],[3.8833644108,43.6139390271],[3.8834548009,43.6139217355],[3.883695747,43.6138775745],[3.8839335079,43.6138356885],[3.8842684437,43.6137748348],[3.8849543835,43.6137956162],[3.8851548372,43.6137679787],[3.8854846556,43.6137447757],[3.8859678638,43.6137660326],[3.8865645387,43.6138848931],[3.8868552178,43.6139015078],[3.8869947345,43.6139056781],[3.8871489413,43.6139067589],[3.8874460724,43.6138920953],[3.8875980431,43.6138687184],[3.8877867164,43.6138321739],[3.8880402479,43.613785201],[3.888698838,43.6136553709],[3.8889096629,43.613609825],[3.8892142176,43.6135548734],[3.8894127843,43.6135574776],[3.8897253504,43.6136118783],[3.8900288648,43.6137214217],[3.8901769555,43.6137912953],[3.8904730297,43.613955968],[3.8908427329,43.614164488],[3.8909452102,43.6142238465],[3.8913144389,43.6144414572],[3.8914656049,43.6145257011],[3.891625719,43.6146039326],[3.8918575901,43.6147011012],[3.8920889046,43.6147863962],[3.8924199907,43.614868352],[3.8926201678,43.6148706673],[3.8926620915,43.6148667236],[3.8928252131,43.6148276807],[3.8929479673,43.6147732223],[3.8930687039,43.6146925952],[3.8933013402,43.6145126968],[3.8936018738,43.6142790596],[3.8943946492,43.6138038165],[3.8949621321,43.6135268561],[3.8945815377,43.6142249285],[3.8937130246,43.615896671],[3.893379847,43.616348966],[3.8932568393,43.6166259554],[3.8932477654,43.6167670336],[3.8933125889,43.6169291903],[3.8934902481,43.6171552074],[3.8936459469,43.6173150871],[3.8939571758,43.6174569506],[3.8943436455,43.6175231481],[3.8948834375,43.6175330121],[3.8955905274,43.6175329465],[3.8959298315,43.6175608343],[3.8962037845,43.617631192],[3.8963534984,43.6177086927],[3.8964720343,43.6178120956],[3.8966259335,43.6182206999],[3.8966750965,43.6184024205],[3.8968123059,43.6190980302],[3.8968542325,43.619466436],[3.8968523431,43.6197733849],[3.89681403,43.6199767936],[3.8965657155,43.6205649043],[3.89641523,43.6212232047],[3.8963983725,43.6214205875],[3.8964249333,43.621542926],[3.8964844296,43.6216486158],[3.8968592949,43.6220321824],[3.8970321083,43.6223582964],[3.8976803478,43.6233903653],[3.8977822352,43.6237824823],[3.89772734,43.6244538548],[3.8977881439,43.6248880639],[3.8979315422,43.6254153539],[3.8979277508,43.6256874961],[3.8979000429,43.6260223746],[3.8979016718,43.6260631238],[3.897856072,43.6261571736],[3.89764621,43.6265912791],[3.8975272818,43.6267015915],[3.8974421132,43.6267527757],[3.8973509429,43.6268083285],[3.8971990981,43.6269050548],[3.8971097908,43.6269767891],[3.8969361949,43.6270847626],[3.8967520137,43.6272129795],[3.8963911047,43.627367849],[3.8960487184,43.6270988308],[3.8960199187,43.6270711732],[3.8959789233,43.6270320083],[3.8959497493,43.6270041738],[3.8959360419,43.6269910591],[3.8957910491,43.6268525093],[3.8951009197,43.6261924944],[3.8950113848,43.6261068473],[3.8936183477,43.6247822307],[3.8930857432,43.6242677625],[3.8928455189,43.6240423465],[3.8924722775,43.6236906065],[3.8924437388,43.6236635758],[3.8922213319,43.6234525006],[3.892166515,43.6234004002],[3.8920401629,43.6232804993],[3.8915937111,43.6228481923],[3.8911132218,43.6223851184],[3.8906144505,43.6218928577],[3.8895070428,43.6208508303],[3.8890139812,43.6203895605],[3.88843175,43.6198244571],[3.8883657602,43.6197542697],[3.8882483867,43.6196292524],[3.8877308924,43.6191085182],[3.8869608667,43.6183878298],[3.885898647,43.6174000202],[3.8852172993,43.6167485155],[3.8845172751,43.6160896004],[3.8834403548,43.6150666153],[3.8833526282,43.6149674473],[3.8833097374,43.6148603564],[3.8832342118,43.614588322],[3.8827598624,43.6141129273]]]}}
