{"type":"Feature","id":"7a845465-3edf-576c-a2d9-15e7007456b7","properties":{"zone_id":"7a845465-3edf-576c-a2d9-15e7007456b7","display_name":"La Pompignane","commune_code":"34172","commune_name":"Montpellier"},"geometry":{"type":"Polygon","coordinates":[[[3.8932477654,43.6167670336],[3.8932568393,43.6166259554],[3.893379847,43.616348966],[3.8937130246,43.615896671],[3.8945815377,43.6142249285],[3.8949621321,43.6135268561],[3.8951707315,43.6133548903],[3.8957367532,43.6130007316],[3.8961549326,43.6125933505],[3.89652493,43.6121859154],[3.8966726993,43.6118783944],[3.8970743399,43.6106835264],[3.8972227461,43.6094985775],[3.8972292512,43.6091068289],[3.8978079901,43.6091968906],[3.8988367749,43.6093355077],[3.8991565602,43.6093773136],[3.8998689454,43.6094685081],[3.9002363906,43.6095011879],[3.9008816039,43.609588973],[3.9011468269,43.6096259164],[3.9015381578,43.6096811593],[3.9018131281,43.6100860501],[3.9016437934,43.6104849996],[3.9016500378,43.6121194877],[3.9015951551,43.6120788209],[3.9013027971,43.6118289338],[3.9011126078,43.6116734008],[3.9007641695,43.6113851047],[3.9007426822,43.6114205562],[3.9007280312,43.6114654891],[3.900723905,43.6115260818],[3.9007527604,43.6122596536],[3.9007446327,43.6124676717],[3.9007313264,43.6128112471],[3.9007007202,43.6134097089],[3.9008825414,43.6140100085],[3.9009896793,43.6142392971],[3.9011505398,43.6145613627],[3.901352372,43.6150710631],[3.9014365042,43.6152389937],[3.9014573262,43.6153660572],[3.9014772208,43.6154735121],[3.9015140638,43.6160526083],[3.901562234,43.6161545197],[3.9016912649,43.6164130508],[3.9018791394,43.6166881005],[3.9022522495,43.6169283183],[3.9022959912,43.616961159],[3.9023212839,43.6169943328],[3.9023719061,43.6170787668],[3.902511839,43.6172898755],[3.9025442396,43.6173182211],[3.9025840479,43.6173450654],[3.9026594372,43.6174292036],[3.9027240145,43.6174952549],[3.9028268063,43.6176206477],[3.9029154344,43.6177746827],[3.9030419405,43.6179351518],[3.9036611261,43.6184951008],[3.9038306277,43.618695705],[3.9039437517,43.6188398175],[3.9040951964,43.6190969902],[3.9042925825,43.6195812588],[3.9042925418,43.6208907892],[3.9042985403,43.6211927242],[3.9043042064,43.6214107072],[3.9042660217,43.621652091],[3.9025496753,43.6216942519],[3.8995841193,43.6219475755],[3.8986995657,43.6220641331],[3.8976576424,43.6222244555],[3.897576628,43.6222557189],[3.8973831537,43.6222797224],[3.8970321083,43.6223582964],[3.8968592949,43.6220321824],[3.8964844296,43.6216486158],[3.8964249333,43.621542926],[3.8963983725,43.6214205875],[3.89641523,43.6212232047],[3.8965657155,43.6205649043],[3.89681403,43.6199767936],[3.8968523431,43.6197733849],[3.8968542325,43.619466436],[3.8968123059,43.6190980302],[3.8966750965,43.6184024205],[3.8966259335,43.6182206999],[3.8964720343,43.6178120956],[3.8963534984,43.6177086927],[3.8962037845,43.617631192],[3.8959298315,43.6175608343],[3.8955905274,43.6175329465],[3.8948834375,43.6175330121],[3.8943436455,43.6175231481],[3.8939571758,43.6174569506],[3.8936459469,43.6173150871],[3.8934902481,43.6171552074],[3.8933125889,43.6169291903],[3.8932477654,43.6167670336]]]}}
