{"type":"Feature","id":"ee49e56c-fa33-5627-8a0a-bc8c30c44385","properties":{"zone_id":"ee49e56c-fa33-5627-8a0a-bc8c30c44385","display_name":"Gares","commune_code":"34172","commune_name":"Montpellier"},"geometry":{"type":"Polygon","coordinates":[[[3.8750709277,43.6053543957],[3.8751755636,43.6052894857],[3.8752711356,43.6052392256],[3.8753193696,43.6052272294],[3.8758116256,43.6051079956],[3.8758549452,43.6050985582],[3.8762270334,43.6049677836],[3.876503631,43.6048763804],[3.8768097763,43.6047656618],[3.876876133,43.6047403812],[3.8774445298,43.6045236147],[3.8777174281,43.6044092028],[3.8778378634,43.6043736767],[3.8779473605,43.6043354495],[3.8782106905,43.6042270525],[3.8787708364,43.6039896498],[3.8788610145,43.6039352011],[3.8790836762,43.6036942272],[3.8793039241,43.6034413049],[3.8788769113,43.603105617],[3.878382343,43.6026274021],[3.8778697561,43.6019421012],[3.8777130092,43.6017323597],[3.8776783786,43.6016216016],[3.8776514312,43.6015355265],[3.8775890737,43.6013362701],[3.877275716,43.6003340619],[3.8772754423,43.6003323545],[3.8772556298,43.6002269657],[3.8772472636,43.6001575672],[3.8772461384,43.600148758],[3.8772406293,43.6000637696],[3.8774922767,43.600123735],[3.8778084271,43.6001994655],[3.8782200087,43.6003053776],[3.8782818002,43.6003219747],[3.8789376207,43.6004807984],[3.8793384214,43.6005777953],[3.8802607176,43.6008261458],[3.8809099772,43.6009923895],[3.881576427,43.601173157],[3.8816452351,43.6011950042],[3.8824230853,43.6014696136],[3.8824579445,43.601481928],[3.8826321401,43.6015450302],[3.8828279257,43.6015707942],[3.8845582478,43.601798863],[3.8846779728,43.601814265],[3.8847750331,43.6018293115],[3.8849590979,43.6018576865],[3.8850687263,43.601884778],[3.8851334606,43.6019072861],[3.8852223823,43.6019565918],[3.8854043837,43.602059848],[3.8854848187,43.6021128219],[3.8856495646,43.6022211674],[3.8857137371,43.6022633859],[3.8858088066,43.6023258692],[3.8859637971,43.6024117982],[3.8860011377,43.6024323696],[3.8861239813,43.602481218],[3.8861844573,43.6025005208],[3.8862421526,43.6025161571],[3.886304031,43.6025300495],[3.8863880376,43.6025416018],[3.8864830171,43.6025581035],[3.8865625414,43.6025920978],[3.88660941,43.6026122313],[3.8866708585,43.602646373],[3.8867378882,43.6026891075],[3.8870304911,43.6028498569],[3.8871473199,43.6029180094],[3.8875251304,43.6030636646],[3.887954573,43.6032490287],[3.8882068278,43.6033545857],[3.8882923526,43.6033841206],[3.8883799308,43.6034103093],[3.8884962345,43.6034523699],[3.8886720953,43.60351023],[3.8887827607,43.6035320004],[3.8889490721,43.6035489063],[3.8891938342,43.6035622905],[3.8895476702,43.6035826097],[3.8899930244,43.6036116263],[3.8900261193,43.6036137848],[3.8900750534,43.6036152736],[3.8901699125,43.6036158462],[3.8903169713,43.6036049232],[3.8904657043,43.603606134],[3.8904172058,43.6036566516],[3.8903911629,43.6036860192],[3.8903735008,43.6037048803],[3.8902773431,43.6037961904],[3.8902645329,43.603808533],[3.8900079398,43.6040303719],[3.8899259584,43.6041016795],[3.8899686407,43.6041231956],[3.8899998962,43.6041424658],[3.8907945407,43.6045684092],[3.8920064097,43.6051159984],[3.8920583495,43.6051434665],[3.8920855456,43.605180316],[3.8920389498,43.6052257798],[3.8918970987,43.6053250251],[3.8917895206,43.6053986138],[3.891309577,43.6055991634],[3.891288717,43.6055875468],[3.891261711,43.6055788601],[3.8911788469,43.6055694617],[3.889621563,43.6054973692],[3.88957311,43.6054950664],[3.8895550318,43.6054951245],[3.8894859811,43.6054901108],[3.8890860594,43.6054691786],[3.8884458391,43.6054357227],[3.8884081859,43.6054351308],[3.8883552175,43.605445102],[3.8882010835,43.6054472618],[3.8880248301,43.6054523917],[3.8879032463,43.6055494864],[3.8878823331,43.6055663941],[3.8876386355,43.6057504195],[3.8874304376,43.6059079696],[3.8871712686,43.6060926602],[3.8867335244,43.6064129715],[3.886452381,43.6066103473],[3.8864269261,43.6066299012],[3.8858820488,43.6069976939],[3.8858597363,43.607012273],[3.8857867234,43.6070635284],[3.8857923627,43.6071480659],[3.8857845269,43.6072260546],[3.8857721918,43.6073093889],[3.8857645645,43.6073367158],[3.885759746,43.6073695087],[3.8857629936,43.6074034056],[3.8857764312,43.6074636744],[3.8856486313,43.6075276138],[3.8855097414,43.60750688],[3.8854370188,43.6074967647],[3.8853831804,43.6074906346],[3.8853267835,43.6074872249],[3.885280598,43.6074875112],[3.885236036,43.6074886841],[3.885205009,43.6074922662],[3.8851580664,43.6074996672],[3.8851100636,43.6075105862],[3.8850616182,43.6075249281],[3.884964538,43.6075573926],[3.8848540877,43.6075981543],[3.8848028651,43.6076171078],[3.8846922309,43.60766201],[3.8845779259,43.6077178299],[3.8843843189,43.6078187473],[3.8841644383,43.6079425529],[3.884000753,43.6080325174],[3.8839512396,43.6080499269],[3.8839042655,43.6080633565],[3.8838440458,43.6080690653],[3.8837950078,43.6080691042],[3.8837106319,43.6080581827],[3.8836865348,43.6080534296],[3.8836429375,43.6080368674],[3.8835932016,43.6080076676],[3.8835671521,43.6079887132],[3.8835446753,43.6079685599],[3.8835273126,43.6079507945],[3.8834998467,43.6079122354],[3.8834872244,43.6078645573],[3.8834767057,43.6078167722],[3.8834610295,43.60770748],[3.8834380263,43.6076129155],[3.8833945917,43.6074782049],[3.8833063531,43.607264584],[3.8832214111,43.6070478769],[3.8831429049,43.6068791681],[3.8830663156,43.6067384281],[3.882998397,43.6066300114],[3.8829035073,43.6065070566],[3.8828465491,43.6064349036],[3.8827744809,43.6064591545],[3.8826548703,43.6065000783],[3.8826108866,43.6065146528],[3.8825857666,43.6065238551],[3.8825631768,43.6065365461],[3.8825299348,43.6065651606],[3.8825025432,43.6065876987],[3.8824518103,43.6065740734],[3.8824315618,43.6065699187],[3.8824027895,43.606567093],[3.8823656363,43.6065668548],[3.8823052549,43.606578053],[3.8820186064,43.6066761214],[3.881551518,43.6068376509],[3.8810241076,43.6070225231],[3.8807839444,43.6070594732],[3.8800105729,43.6063708053],[3.8799991167,43.6063585705],[3.8799723276,43.6063397112],[3.8799478511,43.6063505273],[3.8799263489,43.6063614993],[3.8798920168,43.6063756346],[3.879152829,43.6066558839],[3.8783699723,43.6069556474],[3.8783257575,43.6069713918],[3.8779081721,43.6065652567],[3.8778880173,43.6065429239],[3.8777753423,43.6064222681],[3.877706184,43.6063778355],[3.8776295143,43.6063442615],[3.8775752431,43.606333992],[3.8775050822,43.6063292496],[3.8774047626,43.606287678],[3.877339271,43.6062562631],[3.8772489958,43.6062156001],[3.8772116338,43.6061935861],[3.8771507305,43.6061544856],[3.877059114,43.6061799702],[3.8767843557,43.6062786486],[3.8766649296,43.6063237935],[3.8765843941,43.6063533276],[3.8764819691,43.6063927562],[3.8762973281,43.6064651514],[3.8760733473,43.6065482115],[3.875947927,43.6066063614],[3.8758356413,43.6064298214],[3.8758210962,43.6064098726],[3.8755877268,43.6060887169],[3.875493838,43.6059491011],[3.8752206296,43.6055731066],[3.8751584295,43.605465089],[3.8750709277,43.6053543957]]]}}
