{"type":"Feature","id":"fe6f4da5-25f7-5809-a80b-f0db0ee42143","properties":{"zone_id":"fe6f4da5-25f7-5809-a80b-f0db0ee42143","display_name":"La Martelle","commune_code":"34172","commune_name":"Montpellier"},"geometry":{"type":"Polygon","coordinates":[[[3.8161528332,43.5919083043],[3.8161538138,43.5918205649],[3.8161778815,43.5917457901],[3.8162512013,43.5915651879],[3.8163048528,43.5914465502],[3.8163220156,43.5914172675],[3.8163459634,43.5912905748],[3.8169196192,43.5914890788],[3.8170688466,43.5915448243],[3.817886106,43.5918276024],[3.8182962579,43.5919756822],[3.8191357057,43.5922509055],[3.819503465,43.5923861624],[3.8199135306,43.592510301],[3.8205620328,43.5925907964],[3.8211043329,43.5926551743],[3.8216259334,43.5927177265],[3.8218605667,43.5927458253],[3.8222850164,43.5928019108],[3.8238137264,43.5930187004],[3.8239383515,43.593032872],[3.8244116321,43.5930923581],[3.8245899957,43.593107201],[3.824788534,43.5931130723],[3.8252476307,43.5930642354],[3.8265084589,43.5928946645],[3.8278680441,43.5927145184],[3.8280313086,43.5926953679],[3.8282061323,43.5926708202],[3.8283931183,43.5926740736],[3.8284868013,43.5926802877],[3.8285815314,43.5926990011],[3.8287571381,43.5927372532],[3.8291151185,43.5928536563],[3.8292940807,43.5929098781],[3.8296671141,43.5929969208],[3.8300061466,43.5931212042],[3.8301945513,43.5931539573],[3.8305534409,43.593213031],[3.8307432484,43.5932400137],[3.8308428874,43.5932556283],[3.8309244755,43.5932729105],[3.831110412,43.593314679],[3.831291151,43.593356577],[3.8314720374,43.5934000032],[3.831648705,43.5934513798],[3.8318304404,43.5935021774],[3.8320114047,43.593551001],[3.8321923445,43.5935981148],[3.8323710643,43.5936457853],[3.8325518274,43.5936892107],[3.832735632,43.5937289233],[3.8329191135,43.5937634191],[3.8331046671,43.5937956492],[3.8332860146,43.5938280912],[3.8334696427,43.5938641147],[3.833652205,43.5938949272],[3.8338363833,43.5939261768],[3.8338879713,43.5939320795],[3.8340765231,43.5939660846],[3.834265354,43.5940022467],[3.8344504152,43.5940345683],[3.834638999,43.5940707317],[3.8348214286,43.594126378],[3.8350013107,43.594194101],[3.8351685716,43.5942792871],[3.8354637021,43.5944480719],[3.8357428832,43.5946947222],[3.8358684371,43.5948317873],[3.8359333798,43.5949129904],[3.8361712331,43.595296909],[3.836822812,43.5959241897],[3.8368767814,43.5960592856],[3.8368932647,43.5961028895],[3.8369657044,43.5961970816],[3.8371421521,43.5963342932],[3.837369441,43.5964684132],[3.8375409465,43.5965468146],[3.8379076457,43.5966723903],[3.8385004906,43.5968195248],[3.8386282065,43.5968411243],[3.8386524151,43.5968456164],[3.8386822116,43.5968512352],[3.8387765632,43.5968772312],[3.8388893011,43.5969159526],[3.8394146577,43.5971041848],[3.8395820193,43.5972036715],[3.8396806533,43.5972599574],[3.8398149186,43.5973059798],[3.8403031345,43.5976631199],[3.8405327066,43.5978000952],[3.8406439726,43.5978564625],[3.8408563421,43.597985382],[3.8410225723,43.5980918031],[3.8415024035,43.5983912349],[3.8415300178,43.5984083874],[3.8415581326,43.598425896],[3.8416764671,43.5984997539],[3.841743693,43.5985500725],[3.8418551824,43.598629922],[3.8417729308,43.5987200908],[3.8412435036,43.5992860353],[3.8408794473,43.5996719945],[3.8405814461,43.5999863561],[3.8403530701,43.6002613964],[3.8400333288,43.6006896614],[3.8398872355,43.6009273522],[3.8397701339,43.6011494319],[3.8396763859,43.6013598134],[3.8395933872,43.6015771304],[3.8395268491,43.6017685854],[3.8394742098,43.6019621825],[3.8394334583,43.6021558678],[3.839156244,43.6039099524],[3.8391142452,43.6041116558],[3.83905479,43.604313584],[3.838955832,43.6045662969],[3.8388467521,43.6048211575],[3.8383705287,43.6058476557],[3.8381686143,43.6062834656],[3.8380742533,43.6065545888],[3.8380057891,43.6068607852],[3.837988295,43.6070195581],[3.8379793403,43.6071779953],[3.8379784996,43.6073747921],[3.8379961611,43.6076344337],[3.8380315809,43.6078381495],[3.8380999493,43.6081102675],[3.8381552857,43.6082955643],[3.8382244846,43.60849731],[3.8383885453,43.6089958942],[3.8384834565,43.6092367636],[3.8384895457,43.6092551629],[3.8385560143,43.6094309248],[3.8385834303,43.6094426808],[3.8373735683,43.6097074695],[3.8362846414,43.609926773],[3.8358407204,43.6100144116],[3.8356512175,43.6100378246],[3.8354720698,43.6100580083],[3.8337277539,43.6103781538],[3.8337488357,43.6102693837],[3.8327672366,43.6104278103],[3.8325340992,43.6104654995],[3.8307846019,43.610831798],[3.8307304443,43.6108205144],[3.8305607405,43.6108859688],[3.8293214462,43.6111410845],[3.8285529743,43.6113097238],[3.8276631842,43.6114647047],[3.827105926,43.6115439025],[3.82665503,43.611579007],[3.8263549856,43.6115548343],[3.8256304489,43.6115245285],[3.8251437783,43.6114660474],[3.8246742416,43.6112899176],[3.8239809636,43.6110473661],[3.8234441373,43.610669192],[3.8225994343,43.6094690225],[3.8221985717,43.6089417034],[3.8216309788,43.608306676],[3.8213382209,43.6079337544],[3.8195104386,43.607006076],[3.8194500021,43.6069882655],[3.819425544,43.6066543481],[3.8194470368,43.6065292016],[3.8196690785,43.6063914747],[3.8196593021,43.6061838709],[3.8195431933,43.6058834883],[3.8192166879,43.6053826835],[3.8188122253,43.6050067299],[3.8187089835,43.6048179168],[3.818330228,43.6036826844],[3.8180984172,43.6034734236],[3.8178214149,43.6032469561],[3.8175176974,43.603039855],[3.8169863458,43.6030118182],[3.8167916015,43.6029964558],[3.8166607627,43.602964596],[3.8164500501,43.6027755082],[3.816441007,43.6026272868],[3.8167586477,43.6021949688],[3.8168112956,43.6018835077],[3.8168069231,43.6017068173],[3.8168480422,43.6015771151],[3.8169016229,43.6014356216],[3.8169591887,43.6011566068],[3.817090451,43.6007576327],[3.8171627431,43.6005998918],[3.8174627422,43.6002080165],[3.8177212422,43.6000408658],[3.8181994052,43.5997531954],[3.8182199609,43.5996925732],[3.8181890682,43.5995405577],[3.818104175,43.5994046956],[3.8180169464,43.5991570943],[3.8180660053,43.5990375],[3.8180543767,43.5989252911],[3.8181396281,43.5988344881],[3.8184937617,43.5985585481],[3.8189545295,43.5983457799],[3.819049411,43.5982879267],[3.8192095077,43.5981583166],[3.8192321718,43.5981154047],[3.8192537538,43.5980747505],[3.8192779848,43.5980288574],[3.8193019772,43.5979835959],[3.8192882339,43.5978968678],[3.8192948436,43.5978395],[3.8193571851,43.5977919698],[3.819345033,43.5977299745],[3.8193290186,43.5976489323],[3.8193090024,43.5975477646],[3.8192967267,43.5974857703],[3.8192839083,43.5974204507],[3.8192059571,43.5972417953],[3.8191434931,43.5970985666],[3.8190975386,43.5969930054],[3.8190263732,43.5968299564],[3.8188242255,43.5966934493],[3.8181480785,43.5963530162],[3.8180725854,43.5963203817],[3.8180046458,43.5962617757],[3.8179315395,43.5961359929],[3.817915536,43.5960121196],[3.8179326593,43.5959192203],[3.8179943484,43.5957912529],[3.8182674191,43.5955187139],[3.8182771133,43.5953303108],[3.8183174208,43.5951181922],[3.8183838184,43.5948517085],[3.8185242748,43.5946042827],[3.8184427805,43.594471905],[3.8182536071,43.5941940294],[3.8181750432,43.5940673882],[3.8180841295,43.5939515477],[3.8180375382,43.5938010007],[3.8179927663,43.5936043698],[3.8178723757,43.5934181162],[3.8177824849,43.593287061],[3.8175581504,43.5931389315],[3.8173283723,43.5928692785],[3.8170675404,43.592635671],[3.8168578385,43.5924802316],[3.8164257531,43.5922610474],[3.8161794337,43.5919942159],[3.8161528332,43.5919083043]]]}}
