{"type":"FeatureCollection","metadata":{"sourceType":"iris","referenceFile":"amberieu-en-bugey-quartiers.geojson","source":"IGN / INSEE - Contours IRIS WFS Géoplateforme","sourceUrl":"https://geoservices.ign.fr/contoursiris","license":"Licence Ouverte / Open Licence 2.0","sourceYear":"2026"},"features":[{"type":"Feature","id":"fr-quartier-01004-e02af6e617a0","properties":{"id":"fr-quartier-01004-e02af6e617a0","kind":"quartier","name":"Avenue Léon Blum","cityCode":"01004","cityName":"Ambérieu-en-Bugey","sourceType":"iris","sourceIds":["010040101"],"colorIndex":0,"center":[5.339898009735732,45.96899149470079]},"geometry":{"type":"MultiPolygon","coordinates":[[[[5.32767331,45.95820846],[5.32775646,45.95904458],[5.32915785,45.96499582],[5.32945792,45.96729411],[5.3304507,45.97197719],[5.33058185,45.97324384],[5.3303955,45.97512872],[5.33055385,45.97545068],[5.33056169,45.97581899],[5.33071849,45.97622656],[5.33657822,45.98267865],[5.33748369,45.98388607],[5.34333385,45.98306517],[5.34674239,45.97144697],[5.34718489,45.97152248],[5.34772623,45.96991667],[5.34832337,45.96931691],[5.34945808,45.96802401],[5.35043748,45.967119],[5.35102573,45.96676625],[5.35159197,45.96607972],[5.3518543,45.9655977],[5.35232106,45.96451864],[5.3523357,45.96422645],[5.35225757,45.96372807],[5.35243499,45.96322439],[5.35280758,45.96269323],[5.35389732,45.9613814],[5.35421365,45.96107572],[5.35434131,45.96101],[5.35270587,45.96070617],[5.35076351,45.96020239],[5.35039281,45.96014252],[5.35068233,45.95857346],[5.3508585,45.95801035],[5.35036812,45.95799081],[5.34993578,45.95784843],[5.34982068,45.95796614],[5.34494999,45.95773022],[5.34466984,45.95776395],[5.3443963,45.95771016],[5.34034332,45.95753548],[5.34045451,45.95768994],[5.34049742,45.95806112],[5.34045041,45.95814047],[5.33856603,45.95963525],[5.33769765,45.96041804],[5.33740335,45.96054484],[5.33683814,45.96058894],[5.33607023,45.96075705],[5.33570232,45.96091509],[5.33528817,45.96101822],[5.33527416,45.96099239],[5.33393076,45.9613282],[5.33364621,45.96135028],[5.33316035,45.96128552],[5.33290584,45.96119347],[5.33269609,45.96105996],[5.3312909,45.95981506],[5.33115713,45.95955386],[5.33047622,45.95951923],[5.32978659,45.95933974],[5.3298555,45.9599302],[5.32968484,45.95998777],[5.32952381,45.96018117],[5.32859161,45.95930577],[5.32767331,45.95820846]]]]},"bbox":[5.32767331,45.95753548,5.35434131,45.98388607]},{"type":"Feature","id":"fr-quartier-01004-a3b917b7807e","properties":{"id":"fr-quartier-01004-a3b917b7807e","kind":"quartier","name":"Centre-Saint-Germain-Vareilles","cityCode":"01004","cityName":"Ambérieu-en-Bugey","sourceType":"iris","sourceIds":["010040201"],"colorIndex":1,"center":[5.354483169932622,45.96330981846614]},"geometry":{"type":"MultiPolygon","coordinates":[[[[5.35282556,45.9554668],[5.35148032,45.95693348],[5.3508585,45.95801035],[5.35068233,45.95857346],[5.35039281,45.96014252],[5.35076351,45.96020239],[5.35270587,45.96070617],[5.35434131,45.96101],[5.35421365,45.96107572],[5.35389732,45.9613814],[5.35280758,45.96269323],[5.35243499,45.96322439],[5.35225757,45.96372807],[5.3523357,45.96422645],[5.35232106,45.96451864],[5.3518543,45.9655977],[5.35159197,45.96607972],[5.35102573,45.96676625],[5.35043748,45.967119],[5.34945808,45.96802401],[5.34832337,45.96931691],[5.34772623,45.96991667],[5.34718489,45.97152248],[5.34877193,45.97241117],[5.34913866,45.97255762],[5.35142057,45.973076],[5.35165517,45.97306302],[5.35173876,45.97302345],[5.35185942,45.97288401],[5.3542572,45.96777295],[5.35601536,45.96831295],[5.35634477,45.96779889],[5.35660624,45.96756912],[5.35719161,45.96757225],[5.35770503,45.96773543],[5.35785781,45.96774306],[5.35794939,45.96770962],[5.35802383,45.96745672],[5.35788846,45.9673127],[5.35775563,45.96650376],[5.35727148,45.96602826],[5.35724292,45.96584417],[5.3573394,45.96550252],[5.35769344,45.96556452],[5.35779924,45.96556141],[5.35795237,45.96548705],[5.35828781,45.96496385],[5.35863808,45.96466647],[5.35856137,45.96456446],[5.35850435,45.96416836],[5.35836745,45.96404869],[5.35643105,45.9635674],[5.35640784,45.96347779],[5.35629178,45.96345228],[5.35761163,45.96066806],[5.35954961,45.96109794],[5.35986038,45.9610248],[5.36012587,45.96092016],[5.36020625,45.96083651],[5.36005137,45.96050821],[5.36034834,45.95981193],[5.36061266,45.95940912],[5.36083614,45.95931888],[5.3609801,45.95930236],[5.3615275,45.95944589],[5.36168267,45.95944986],[5.36217108,45.95933246],[5.36264726,45.95911082],[5.36316912,45.95902064],[5.36337331,45.9589326],[5.3626131,45.95855568],[5.36201796,45.95820233],[5.36044274,45.95764511],[5.36064664,45.95743005],[5.36027341,45.95716036],[5.35954511,45.95680347],[5.35977179,45.95663749],[5.36214244,45.95547363],[5.36202453,45.95540491],[5.36185457,45.9551463],[5.36166063,45.95468999],[5.36127224,45.95475936],[5.36072225,45.95500596],[5.36005489,45.95519646],[5.3596855,45.9553474],[5.35814587,45.95664435],[5.35727796,45.95718945],[5.35672334,45.95744965],[5.35540206,45.95672761],[5.3550323,45.95656864],[5.35442241,45.95617052],[5.35307425,45.95554361],[5.35282556,45.9554668]]]]},"bbox":[5.34718489,45.95468999,5.36337331,45.973076]},{"type":"Feature","id":"fr-quartier-01004-149828704801","properties":{"id":"fr-quartier-01004-149828704801","kind":"quartier","name":"Longeray-Gare","cityCode":"01004","cityName":"Ambérieu-en-Bugey","sourceType":"iris","sourceIds":["010040102"],"colorIndex":2,"center":[5.344513471664387,45.95400589031554]},"geometry":{"type":"MultiPolygon","coordinates":[[[[5.36281779,45.94773434],[5.36182799,45.94736041],[5.36176237,45.94688431],[5.36191747,45.94646576],[5.3625624,45.94560455],[5.36270327,45.94509531],[5.36250694,45.94491382],[5.36156236,45.94487048],[5.36074661,45.94551272],[5.35928388,45.94727114],[5.35886571,45.94727716],[5.35781787,45.94705485],[5.3568723,45.94698897],[5.35599007,45.94704518],[5.35571884,45.94728596],[5.35567537,45.94744722],[5.35578891,45.94762594],[5.35667218,45.94828772],[5.35691002,45.94859448],[5.35691455,45.9489115],[5.35670812,45.94918787],[5.35569618,45.94968461],[5.35496999,45.94991774],[5.35461642,45.94989446],[5.35366101,45.9495693],[5.3523228,45.94932235],[5.35110274,45.94899906],[5.34996773,45.94848931],[5.34926599,45.94844802],[5.34878252,45.9484977],[5.34844347,45.94860293],[5.34792334,45.94897408],[5.34763255,45.94936299],[5.3473479,45.9500779],[5.34736151,45.95103346],[5.34702599,45.95116114],[5.34622718,45.95105518],[5.34493581,45.95127113],[5.34404241,45.95112748],[5.34262967,45.95037296],[5.34215435,45.94985578],[5.34159218,45.94863229],[5.34126479,45.9484652],[5.34097927,45.94843237],[5.34077421,45.94849967],[5.34056603,45.94891928],[5.33978264,45.94938773],[5.33892917,45.95057833],[5.33831708,45.95185763],[5.33828713,45.95325102],[5.33819379,45.95357727],[5.33808097,45.95365797],[5.33770156,45.9537568],[5.33595936,45.95345584],[5.33493898,45.95391203],[5.33352652,45.95389431],[5.33224643,45.9545315],[5.33118609,45.95486866],[5.32880938,45.9554455],[5.32808529,45.95573247],[5.3277214,45.95607688],[5.32736175,45.95667436],[5.32770914,45.95673388],[5.3279686,45.95700512],[5.32796676,45.95717542],[5.32766619,45.95767349],[5.32767331,45.95820846],[5.32859161,45.95930577],[5.32952381,45.96018117],[5.32968484,45.95998777],[5.3298555,45.9599302],[5.32978659,45.95933974],[5.33047622,45.95951923],[5.33115713,45.95955386],[5.3312909,45.95981506],[5.33269609,45.96105996],[5.33290584,45.96119347],[5.33316035,45.96128552],[5.33364621,45.96135028],[5.33393076,45.9613282],[5.33527416,45.96099239],[5.33528817,45.96101822],[5.33570232,45.96091509],[5.33607023,45.96075705],[5.33683814,45.96058894],[5.33740335,45.96054484],[5.33769765,45.96041804],[5.33856603,45.95963525],[5.34045041,45.95814047],[5.34049742,45.95806112],[5.34045451,45.95768994],[5.34034332,45.95753548],[5.3443963,45.95771016],[5.34466984,45.95776395],[5.34494999,45.95773022],[5.34982068,45.95796614],[5.34993578,45.95784843],[5.35036812,45.95799081],[5.3508585,45.95801035],[5.35148032,45.95693348],[5.35282556,45.9554668],[5.35369861,45.95458829],[5.35543535,45.95300713],[5.35595272,45.95260177],[5.3566804,45.95216139],[5.3578334,45.95164008],[5.36000334,45.95092008],[5.36058257,45.95069359],[5.36190049,45.94998411],[5.36243301,45.95020453],[5.36257433,45.9498259],[5.36243449,45.94861351],[5.36281779,45.94773434]]]]},"bbox":[5.32736175,45.94487048,5.36281779,45.96135028]},{"type":"Feature","id":"fr-quartier-01004-50461c24b9ef","properties":{"id":"fr-quartier-01004-50461c24b9ef","kind":"quartier","name":"Tiret-Les Allymes","cityCode":"01004","cityName":"Ambérieu-en-Bugey","sourceType":"iris","sourceIds":["010040202"],"colorIndex":3,"center":[5.382566636979089,45.96009486345617]},"geometry":{"type":"MultiPolygon","coordinates":[[[[5.40881976,45.94206079],[5.40849743,45.94210189],[5.40736108,45.94198463],[5.40711448,45.94219258],[5.4050338,45.94248097],[5.40303679,45.94255673],[5.40224419,45.94250419],[5.40075666,45.94271415],[5.39854351,45.94206738],[5.39646586,45.94126906],[5.3943684,45.94010264],[5.3943045,45.93952381],[5.39387627,45.93968332],[5.39395247,45.93989162],[5.39330578,45.93986747],[5.39237818,45.93881681],[5.3911701,45.9376991],[5.39049909,45.93723309],[5.3904952,45.93657822],[5.39030289,45.93601471],[5.38925997,45.93438628],[5.38921071,45.93378642],[5.38893758,45.93323452],[5.38806646,45.93235021],[5.38635645,45.93123404],[5.38547851,45.93105526],[5.38513614,45.93110932],[5.38443278,45.9314737],[5.38424088,45.93214081],[5.38435081,45.93289075],[5.3826793,45.93343948],[5.38127443,45.93358618],[5.37875742,45.93357246],[5.37704105,45.93380133],[5.37655018,45.93427471],[5.37582308,45.93528817],[5.3755459,45.93550751],[5.3736597,45.93638133],[5.37184765,45.9382887],[5.37132094,45.93955109],[5.37043106,45.94041658],[5.37328589,45.94238916],[5.37366856,45.94332798],[5.37362736,45.94366038],[5.37222576,45.94490869],[5.36828042,45.94379494],[5.36730876,45.94378194],[5.36653217,45.94395134],[5.36591335,45.94436608],[5.36572915,45.94470776],[5.36555049,45.94589978],[5.36518136,45.94638587],[5.36523851,45.94681441],[5.36492059,45.94753096],[5.36297922,45.94776431],[5.36281779,45.94773434],[5.36243449,45.94861351],[5.36257433,45.9498259],[5.36243301,45.95020453],[5.36190049,45.94998411],[5.36058257,45.95069359],[5.36000334,45.95092008],[5.3578334,45.95164008],[5.3566804,45.95216139],[5.35595272,45.95260177],[5.35543535,45.95300713],[5.35369861,45.95458829],[5.35282556,45.9554668],[5.35307425,45.95554361],[5.35442241,45.95617052],[5.3550323,45.95656864],[5.35540206,45.95672761],[5.35672334,45.95744965],[5.35727796,45.95718945],[5.35814587,45.95664435],[5.3596855,45.9553474],[5.36005489,45.95519646],[5.36072225,45.95500596],[5.36127224,45.95475936],[5.36166063,45.95468999],[5.36185457,45.9551463],[5.36202453,45.95540491],[5.36214244,45.95547363],[5.35977179,45.95663749],[5.35954511,45.95680347],[5.36027341,45.95716036],[5.36064664,45.95743005],[5.36044274,45.95764511],[5.36201796,45.95820233],[5.3626131,45.95855568],[5.36337331,45.9589326],[5.36316912,45.95902064],[5.36264726,45.95911082],[5.36217108,45.95933246],[5.36168267,45.95944986],[5.3615275,45.95944589],[5.3609801,45.95930236],[5.36083614,45.95931888],[5.36061266,45.95940912],[5.36034834,45.95981193],[5.36005137,45.96050821],[5.36020625,45.96083651],[5.36012587,45.96092016],[5.35986038,45.9610248],[5.35954961,45.96109794],[5.35761163,45.96066806],[5.35629178,45.96345228],[5.35640784,45.96347779],[5.35643105,45.9635674],[5.35836745,45.96404869],[5.35850435,45.96416836],[5.35856137,45.96456446],[5.35863808,45.96466647],[5.35828781,45.96496385],[5.35795237,45.96548705],[5.35779924,45.96556141],[5.35769344,45.96556452],[5.3573394,45.96550252],[5.35724292,45.96584417],[5.35727148,45.96602826],[5.35775563,45.96650376],[5.35788846,45.9673127],[5.35802383,45.96745672],[5.35794939,45.96770962],[5.35785781,45.96774306],[5.35770503,45.96773543],[5.35719161,45.96757225],[5.35660624,45.96756912],[5.35634477,45.96779889],[5.35601536,45.96831295],[5.3542572,45.96777295],[5.35185942,45.97288401],[5.35173876,45.97302345],[5.35165517,45.97306302],[5.35142057,45.973076],[5.34913866,45.97255762],[5.34877193,45.97241117],[5.34718489,45.97152248],[5.34674239,45.97144697],[5.34333385,45.98306517],[5.34686629,45.98256499],[5.34769969,45.98241078],[5.34898643,45.98243274],[5.35026993,45.98271151],[5.35180108,45.98285809],[5.35294571,45.98291089],[5.35477114,45.98286754],[5.35570036,45.98295992],[5.35601883,45.98291276],[5.35605618,45.98209487],[5.35614712,45.98189478],[5.35608689,45.9811519],[5.35689619,45.98109992],[5.3592305,45.98126302],[5.35962672,45.98143224],[5.35988164,45.98138008],[5.36110031,45.98074927],[5.36150403,45.97994896],[5.36306424,45.97935876],[5.36336827,45.9790362],[5.36492815,45.97804868],[5.36523342,45.97772518],[5.36598525,45.97729957],[5.36682098,45.97723255],[5.3671301,45.97699906],[5.36734308,45.9761829],[5.36811231,45.97607222],[5.36831086,45.97711311],[5.36931907,45.97703075],[5.3697643,45.97674756],[5.36988306,45.97539463],[5.37079801,45.97542773],[5.37085263,45.97489595],[5.37166085,45.9748511],[5.3716905,45.97421985],[5.37226806,45.97416],[5.37244615,45.9738851],[5.37516597,45.9738551],[5.37510577,45.97434645],[5.37853127,45.97417093],[5.38351031,45.97415541],[5.38476702,45.97423345],[5.38507253,45.97430629],[5.38572494,45.97466192],[5.3867189,45.97556349],[5.38736888,45.97636871],[5.38769704,45.97708251],[5.38855904,45.97741298],[5.38988345,45.97809585],[5.39173396,45.97854416],[5.39321072,45.97847962],[5.39500606,45.97878761],[5.39595061,45.97881628],[5.39655405,45.97863774],[5.39720397,45.97807262],[5.39756587,45.97801541],[5.39710644,45.97933416],[5.39693579,45.98025219],[5.39800784,45.97961777],[5.39720437,45.98072218],[5.39691862,45.98125256],[5.39675992,45.98191088],[5.39704009,45.98154909],[5.39851296,45.98103772],[5.40000864,45.98102044],[5.40082763,45.98039136],[5.40135875,45.98009541],[5.40218734,45.97977603],[5.40276723,45.97941327],[5.40641957,45.97827263],[5.40752553,45.97800317],[5.40870017,45.97794485],[5.40922971,45.97805701],[5.40997856,45.97839693],[5.41027482,45.97861135],[5.41030988,45.9789989],[5.41083283,45.97969768],[5.41113108,45.97986881],[5.41188435,45.98001403],[5.41258428,45.98006218],[5.41295683,45.97930469],[5.41330117,45.97896491],[5.41354878,45.97889477],[5.41346776,45.9786091],[5.41377476,45.97833138],[5.41376833,45.97700628],[5.41342341,45.97591812],[5.4136025,45.9758179],[5.41366917,45.97562909],[5.4136981,45.97390232],[5.41346468,45.97308747],[5.41317645,45.97255487],[5.4117543,45.97156174],[5.41153303,45.96848713],[5.41112182,45.96815444],[5.41108451,45.96747955],[5.4115566,45.96746229],[5.41134367,45.96634699],[5.40994171,45.96598765],[5.40976908,45.96579223],[5.4097182,45.96545637],[5.41045348,45.96312987],[5.41048567,45.962449],[5.40992591,45.96167262],[5.40849893,45.96011829],[5.40797524,45.95827536],[5.40804117,45.95623879],[5.40876828,45.9516602],[5.4094415,45.95036838],[5.40948875,45.95006106],[5.40933755,45.94881922],[5.4094775,45.94785587],[5.40942363,45.94591645],[5.40881976,45.94206079]]]]},"bbox":[5.34333385,45.93105526,5.41377476,45.98306517]}]}