{"type":"FeatureCollection","metadata":{"sourceType":"iris","referenceFile":"saint-genis-pouilly-quartiers.geojson","source":"IGN / INSEE - Contours IRIS WFS Géoplateforme","sourceUrl":"https://geoservices.ign.fr/contoursiris","license":"Licence Ouverte / Open Licence 2.0","sourceYear":"2026"},"features":[{"type":"Feature","id":"fr-quartier-01354-b22aa48d8ca3","properties":{"id":"fr-quartier-01354-b22aa48d8ca3","kind":"quartier","name":"Rue de la Faucille","cityCode":"01354","cityName":"Saint-Genis-Pouilly","sourceType":"iris","sourceIds":["013540101"],"colorIndex":0,"center":[6.03868087613676,46.26051497510942]},"geometry":{"type":"MultiPolygon","coordinates":[[[[6.03136859,46.27972179],[6.03164508,46.27943418],[6.03194871,46.27940176],[6.03255657,46.27890255],[6.03357037,46.27850517],[6.03582245,46.27674467],[6.03501381,46.27486482],[6.03525662,46.27467361],[6.03603984,46.27417422],[6.03720902,46.27360504],[6.03795618,46.27341658],[6.04045878,46.27256937],[6.04131486,46.27237708],[6.04194211,46.27213593],[6.04242215,46.27242588],[6.04340596,46.27170299],[6.04382621,46.27101139],[6.04463314,46.27166476],[6.04503608,46.27161974],[6.0465164,46.27094661],[6.04694826,46.27156135],[6.04722276,46.27138008],[6.0481684,46.27211983],[6.04855174,46.27195637],[6.04804847,46.27124983],[6.04843,46.27061061],[6.0492404,46.27158197],[6.04970857,46.27198485],[6.05114279,46.27111465],[6.05029594,46.26981626],[6.05067645,46.26960241],[6.05077313,46.27003146],[6.05209722,46.26942463],[6.05228149,46.26951341],[6.05174654,46.27010359],[6.05330381,46.27116123],[6.05351009,46.27122508],[6.05485809,46.27120963],[6.056451,46.27190311],[6.05660266,46.27178008],[6.05720555,46.27170892],[6.06050641,46.27010806],[6.06002025,46.26957053],[6.05976408,46.26898626],[6.05852947,46.26828591],[6.05820633,46.26787466],[6.0581164,46.26726519],[6.05822783,46.26677107],[6.05814615,46.26642542],[6.05736359,46.26590755],[6.05724592,46.26503389],[6.05708084,46.26475356],[6.0565343,46.26438976],[6.05653469,46.26423385],[6.05640775,46.26410118],[6.05593645,46.26396786],[6.0557419,46.26385773],[6.05561084,46.26365128],[6.05604059,46.26331983],[6.05658931,46.26262923],[6.05772698,46.26287622],[6.05839657,46.26288436],[6.05880342,46.26284098],[6.05894206,46.26267144],[6.06007026,46.26246989],[6.06151267,46.26238063],[6.05882127,46.26034701],[6.05915773,46.260137],[6.05771101,46.25905485],[6.05742262,46.25917164],[6.05667419,46.25849516],[6.05578593,46.25785036],[6.05564669,46.25556517],[6.05537214,46.2546029],[6.05626733,46.25395346],[6.05293487,46.2537843],[6.05195854,46.25365459],[6.05203685,46.25342811],[6.05197341,46.25331536],[6.05183959,46.25326849],[6.051278,46.25333131],[6.05090119,46.25316659],[6.04646021,46.25044337],[6.04230612,46.24871439],[6.04169574,46.24838917],[6.04172184,46.24843804],[6.04128424,46.24888499],[6.04118767,46.24892362],[6.04127543,46.24900688],[6.04132308,46.24913988],[6.04098225,46.24906068],[6.04059982,46.24944848],[6.04021108,46.24969948],[6.04024426,46.24973554],[6.04012699,46.25052447],[6.03837005,46.24913048],[6.03818717,46.24904164],[6.03798434,46.24920206],[6.03782611,46.24925314],[6.03739487,46.24990897],[6.03683615,46.25021045],[6.03650964,46.25027234],[6.03583687,46.25032093],[6.03561797,46.25030875],[6.03502392,46.25013716],[6.0348358,46.25014128],[6.03452795,46.25021167],[6.03443117,46.25029355],[6.03439754,46.25038997],[6.03434021,46.25092588],[6.0342761,46.25110511],[6.03387325,46.25150065],[6.03365398,46.25181018],[6.0334397,46.25202225],[6.03314896,46.25186239],[6.03212548,46.25155986],[6.03182506,46.25141287],[6.03059292,46.25055537],[6.03005129,46.25006335],[6.03011355,46.25003826],[6.03011636,46.24994807],[6.02908586,46.24907167],[6.02743233,46.24787391],[6.02781533,46.24763573],[6.02771604,46.24739056],[6.02751628,46.24725439],[6.02758965,46.2469839],[6.02781178,46.2469843],[6.02793778,46.2466322],[6.02774968,46.24654259],[6.02701735,46.24654676],[6.02699524,46.24664016],[6.02642876,46.24666064],[6.02641822,46.24644645],[6.0263209,46.24644814],[6.02454982,46.24530664],[6.024382,46.24541924],[6.02368474,46.24499982],[6.0233309,46.24513088],[6.02319081,46.24499312],[6.02264782,46.24468584],[6.02315761,46.2444389],[6.02233403,46.24377772],[6.02186022,46.24357043],[6.02115722,46.24311691],[6.02052024,46.24315365],[6.01930448,46.24242176],[6.01897217,46.24214221],[6.01884783,46.24212479],[6.01883139,46.24203871],[6.01841814,46.24189288],[6.01409721,46.23925088],[6.0136505,46.23941681],[6.01339919,46.23961722],[6.01335347,46.23994284],[6.01315543,46.2401202],[6.01241723,46.24015778],[6.01199688,46.24035454],[6.01203944,46.24056158],[6.01262119,46.24084355],[6.01278451,46.24105009],[6.01275853,46.24126254],[6.01254904,46.24139695],[6.01249375,46.24157233],[6.01260861,46.24172429],[6.01325938,46.24196207],[6.0134639,46.24253969],[6.01424252,46.24292908],[6.0146436,46.24332576],[6.01463499,46.2438063],[6.01491939,46.24437188],[6.0144321,46.24491016],[6.01440614,46.24521723],[6.01546599,46.24559465],[6.01648969,46.24614064],[6.01687272,46.2469397],[6.01684611,46.24758832],[6.0172018,46.2479853],[6.01731254,46.24799138],[6.01766879,46.24776205],[6.01834258,46.24789737],[6.01849751,46.24809241],[6.01833372,46.24816074],[6.01840173,46.24828689],[6.01880126,46.2484421],[6.01922082,46.24881936],[6.0195851,46.24894756],[6.01967121,46.24942559],[6.01948925,46.24987107],[6.01979584,46.25041353],[6.01993503,46.25041704],[6.02009939,46.25028832],[6.02025279,46.24993731],[6.02043326,46.24981808],[6.02094393,46.24970359],[6.02124398,46.24975059],[6.0214866,46.25002801],[6.02178519,46.25075451],[6.02225859,46.25128261],[6.02309809,46.25175954],[6.02351607,46.25213052],[6.02389922,46.25234111],[6.02379828,46.25263036],[6.02385753,46.25271529],[6.02452652,46.25283268],[6.02516967,46.25318775],[6.02518734,46.25339004],[6.02501779,46.25380096],[6.02515192,46.25418308],[6.02558893,46.25461573],[6.02583651,46.25585181],[6.02612156,46.25604969],[6.02605698,46.2561974],[6.02592626,46.25618285],[6.02581005,46.25626614],[6.02603033,46.25681989],[6.02596971,46.25767398],[6.02623222,46.25812208],[6.02613234,46.25835993],[6.02629136,46.25860442],[6.02675464,46.25883],[6.02716187,46.25923999],[6.02757898,46.2606509],[6.02753544,46.26087374],[6.02771817,46.26187545],[6.02767302,46.26249213],[6.02779625,46.26302863],[6.02734209,46.26355617],[6.02728288,46.26380105],[6.0273359,46.26393752],[6.02808991,46.26441489],[6.02814588,46.26453415],[6.02812757,46.26490771],[6.02771874,46.26522137],[6.02816504,46.26567899],[6.02809284,46.26634685],[6.0279751,46.26647344],[6.02837502,46.26679712],[6.02858147,46.26714668],[6.02851597,46.2673719],[6.0283373,46.26752445],[6.02838084,46.26770081],[6.02857414,46.26790654],[6.02900513,46.26804015],[6.02905842,46.26813425],[6.02845277,46.26874242],[6.0288266,46.26906409],[6.02851501,46.26939769],[6.02846037,46.27012457],[6.02886406,46.27044544],[6.02902063,46.27073865],[6.02891037,46.27088307],[6.02854401,46.27097842],[6.0284294,46.27118513],[6.02805479,46.2712726],[6.02787195,46.27151446],[6.02787716,46.27172609],[6.02808443,46.27206661],[6.028061,46.27258269],[6.02742044,46.27366488],[6.02742101,46.27482643],[6.02764888,46.27560977],[6.02748828,46.27592493],[6.02755928,46.27605732],[6.02829958,46.27656569],[6.02828914,46.27738691],[6.02846066,46.27757428],[6.02875822,46.27771415],[6.02884612,46.27803442],[6.02913714,46.27817356],[6.02975544,46.27828507],[6.03056417,46.27934761],[6.03136859,46.27972179]]]]},"bbox":[6.01199688,46.23925088,6.06151267,46.27972179]},{"type":"Feature","id":"fr-quartier-01354-accb28238b56","properties":{"id":"fr-quartier-01354-accb28238b56","kind":"quartier","name":"Rue des Hautains","cityCode":"01354","cityName":"Saint-Genis-Pouilly","sourceType":"iris","sourceIds":["013540103"],"colorIndex":1,"center":[6.028003304811903,46.245202781486114]},"geometry":{"type":"MultiPolygon","coordinates":[[[[6.02115722,46.24311691],[6.02186022,46.24357043],[6.02233403,46.24377772],[6.02315761,46.2444389],[6.02264782,46.24468584],[6.02319081,46.24499312],[6.0233309,46.24513088],[6.02368474,46.24499982],[6.024382,46.24541924],[6.02454982,46.24530664],[6.0263209,46.24644814],[6.02641822,46.24644645],[6.02642876,46.24666064],[6.02699524,46.24664016],[6.02701735,46.24654676],[6.02774968,46.24654259],[6.02793778,46.2466322],[6.02781178,46.2469843],[6.02758965,46.2469839],[6.02751628,46.24725439],[6.02771604,46.24739056],[6.02781533,46.24763573],[6.02743233,46.24787391],[6.02908586,46.24907167],[6.03011636,46.24994807],[6.03029396,46.24984782],[6.03070005,46.24972166],[6.03141082,46.24977301],[6.03159047,46.24968622],[6.03160913,46.24957758],[6.0316043,46.24946687],[6.03108355,46.24874181],[6.03058852,46.24838733],[6.03013531,46.24792],[6.03205934,46.24820756],[6.03235631,46.2471435],[6.0325523,46.24725813],[6.03307135,46.24708479],[6.03355473,46.24678354],[6.03377164,46.24640828],[6.03374077,46.24627303],[6.03351645,46.24609248],[6.03235057,46.24556215],[6.03205743,46.24533477],[6.03182604,46.24504986],[6.03169013,46.24477683],[6.03163031,46.24423594],[6.03149903,46.24411688],[6.03128151,46.24403527],[6.03113183,46.24381848],[6.03102474,46.24378438],[6.03065059,46.24378264],[6.0296409,46.24384378],[6.02941195,46.2437904],[6.02915563,46.24366476],[6.0288862,46.24346647],[6.02883737,46.24338216],[6.02879121,46.24235969],[6.02872116,46.24212636],[6.02842426,46.24190087],[6.02740112,46.24136579],[6.0256667,46.24189585],[6.02561388,46.24185671],[6.02546205,46.24185894],[6.02539943,46.24197145],[6.02318029,46.2425441],[6.02115722,46.24311691]]]]},"bbox":[6.02115722,46.24136579,6.03377164,46.24994807]},{"type":"Feature","id":"fr-quartier-01354-5cee8a24bd51","properties":{"id":"fr-quartier-01354-5cee8a24bd51","kind":"quartier","name":"Rue Georges Charpak","cityCode":"01354","cityName":"Saint-Genis-Pouilly","sourceType":"iris","sourceIds":["013540102"],"colorIndex":2,"center":[6.032056099444371,46.240686416102065]},"geometry":{"type":"MultiPolygon","coordinates":[[[[6.04169574,46.24838917],[6.04282004,46.24718671],[6.04390243,46.2463296],[6.04400104,46.24529965],[6.04416859,46.2449257],[6.04464989,46.24430814],[6.04619127,46.24301788],[6.04803883,46.24106966],[6.04444931,46.23658885],[6.04310598,46.23501355],[6.04217187,46.23421128],[6.04174065,46.23353163],[6.0388917,46.23517219],[6.03365329,46.23855165],[6.03223801,46.23759543],[6.0301346,46.23645296],[6.02936153,46.2357184],[6.0286894,46.23523526],[6.02760758,46.2347405],[6.02697168,46.23427802],[6.02683728,46.23424285],[6.02643818,46.23435259],[6.02596972,46.23414698],[6.02582701,46.23398497],[6.02571444,46.23347521],[6.02549546,46.23322511],[6.02507051,46.2332193],[6.02483554,46.23307956],[6.02461201,46.23314678],[6.024294,46.23305521],[6.02365379,46.2331254],[6.02323293,46.23291131],[6.02311114,46.23268115],[6.02260129,46.23259557],[6.02234399,46.23263936],[6.02220016,46.23245664],[6.02197633,46.23249503],[6.02187098,46.23242124],[6.02168302,46.23261547],[6.02145685,46.23261157],[6.02139978,46.23230669],[6.02100928,46.23236032],[6.02093918,46.23229009],[6.02065727,46.23226424],[6.02063959,46.2321791],[6.02038232,46.23215259],[6.02024076,46.23224646],[6.01997028,46.23219237],[6.01990765,46.23183358],[6.01976092,46.2318573],[6.01959658,46.23174992],[6.01942729,46.23188238],[6.01937365,46.2318045],[6.01893774,46.23181157],[6.01876133,46.2316973],[6.01881496,46.2316337],[6.01848507,46.23165597],[6.01848305,46.23157222],[6.01826429,46.23165552],[6.01803233,46.23156976],[6.01763645,46.23161992],[6.01760096,46.23156499],[6.01741723,46.23157707],[6.01643461,46.23198432],[6.01659525,46.23211883],[6.01723728,46.23224689],[6.01748755,46.23278273],[6.01729717,46.23361683],[6.01678049,46.23451546],[6.01706459,46.23502878],[6.01707389,46.2352448],[6.01700985,46.2354024],[6.01679207,46.2355037],[6.01619397,46.23558444],[6.01588153,46.23594778],[6.01592521,46.23652875],[6.01534369,46.23702898],[6.01571206,46.23746888],[6.01578827,46.23786246],[6.01557701,46.23812939],[6.01409721,46.23925088],[6.01841814,46.24189288],[6.01883139,46.24203871],[6.01884783,46.24212479],[6.01897217,46.24214221],[6.01930448,46.24242176],[6.02052024,46.24315365],[6.02115722,46.24311691],[6.02318029,46.2425441],[6.02539943,46.24197145],[6.02546205,46.24185894],[6.02561388,46.24185671],[6.0256667,46.24189585],[6.02740112,46.24136579],[6.02842426,46.24190087],[6.02872116,46.24212636],[6.02879121,46.24235969],[6.02883737,46.24338216],[6.0288862,46.24346647],[6.02915563,46.24366476],[6.02941195,46.2437904],[6.0296409,46.24384378],[6.03065059,46.24378264],[6.03102474,46.24378438],[6.03113183,46.24381848],[6.03128151,46.24403527],[6.03149903,46.24411688],[6.03163031,46.24423594],[6.03169013,46.24477683],[6.03182604,46.24504986],[6.03205743,46.24533477],[6.03235057,46.24556215],[6.03351645,46.24609248],[6.03374077,46.24627303],[6.03377164,46.24640828],[6.03355473,46.24678354],[6.03307135,46.24708479],[6.0325523,46.24725813],[6.03235631,46.2471435],[6.03205934,46.24820756],[6.03013531,46.24792],[6.03058852,46.24838733],[6.03108355,46.24874181],[6.0316043,46.24946687],[6.03160913,46.24957758],[6.03159047,46.24968622],[6.03141082,46.24977301],[6.03070005,46.24972166],[6.03029396,46.24984782],[6.03011636,46.24994807],[6.03011355,46.25003826],[6.03005129,46.25006335],[6.03059292,46.25055537],[6.03182506,46.25141287],[6.03212548,46.25155986],[6.03314896,46.25186239],[6.0334397,46.25202225],[6.03365398,46.25181018],[6.03387325,46.25150065],[6.0342761,46.25110511],[6.03434021,46.25092588],[6.03439754,46.25038997],[6.03443117,46.25029355],[6.03452795,46.25021167],[6.0348358,46.25014128],[6.03502392,46.25013716],[6.03561797,46.25030875],[6.03583687,46.25032093],[6.03650964,46.25027234],[6.03683615,46.25021045],[6.03739487,46.24990897],[6.03782611,46.24925314],[6.03798434,46.24920206],[6.03818717,46.24904164],[6.03837005,46.24913048],[6.04012699,46.25052447],[6.04024426,46.24973554],[6.04021108,46.24969948],[6.04059982,46.24944848],[6.04098225,46.24906068],[6.04132308,46.24913988],[6.04127543,46.24900688],[6.04118767,46.24892362],[6.04128424,46.24888499],[6.04172184,46.24843804],[6.04169574,46.24838917]]]]},"bbox":[6.01409721,46.23156499,6.04803883,46.25202225]}]}