{"type":"FeatureCollection","metadata":{"sourceType":"iris","referenceFile":"revin-quartiers.geojson","source":"IGN / INSEE - Contours IRIS WFS Géoplateforme","sourceUrl":"https://geoservices.ign.fr/contoursiris","license":"Licence Ouverte / Open Licence 2.0","sourceYear":"2026"},"features":[{"type":"Feature","id":"fr-quartier-08363-6b3685dc5005","properties":{"id":"fr-quartier-08363-6b3685dc5005","kind":"quartier","name":"Champs-Monts","cityCode":"08363","cityName":"Revin","sourceType":"iris","sourceIds":["083630105"],"colorIndex":0,"center":[4.701055390405861,49.93411373702458]},"geometry":{"type":"MultiPolygon","coordinates":[[[[4.75065802,49.95169968],[4.75090197,49.95162611],[4.75140824,49.9512442],[4.75200885,49.95125716],[4.75305782,49.95074348],[4.75334499,49.95071241],[4.75352234,49.95056521],[4.75448571,49.95047772],[4.75459692,49.95018951],[4.75560415,49.94955691],[4.75589815,49.94923912],[4.75621772,49.94917882],[4.75665159,49.94875839],[4.75699185,49.9488137],[4.75763211,49.94864458],[4.75800844,49.94873621],[4.75904324,49.94870247],[4.76132705,49.94826619],[4.76210652,49.94797643],[4.7636702,49.94664929],[4.76377825,49.94647253],[4.7637367,49.94603646],[4.76396337,49.94590741],[4.76434939,49.94547506],[4.76498223,49.94537518],[4.76412282,49.94331475],[4.7636598,49.94248762],[4.7632528,49.94207209],[4.7624779,49.94176699],[4.76010733,49.9409727],[4.75675931,49.94009178],[4.7557211,49.93994047],[4.75449244,49.93991856],[4.75166436,49.93937597],[4.75019042,49.93930542],[4.74961712,49.93902969],[4.74809517,49.93873608],[4.74736787,49.93847512],[4.74691191,49.93821029],[4.74602339,49.93824095],[4.74542797,49.93792778],[4.74499757,49.93779915],[4.74447441,49.93736006],[4.74287289,49.93717982],[4.74230599,49.93696687],[4.74214376,49.9366601],[4.74130527,49.93640249],[4.74004879,49.93633771],[4.73841112,49.93583088],[4.73808986,49.93555421],[4.73789344,49.93506014],[4.7373084,49.934559],[4.73642208,49.9342032],[4.73529001,49.93398835],[4.73512958,49.9334057],[4.73491477,49.93331082],[4.73453704,49.93276449],[4.73471408,49.93195423],[4.73492768,49.93156395],[4.7347385,49.93083166],[4.73422934,49.93026743],[4.73373677,49.92998599],[4.73332182,49.92989933],[4.73293033,49.92968384],[4.73184414,49.92958692],[4.73002068,49.92872321],[4.72972049,49.92808053],[4.73003352,49.92733843],[4.72996162,49.9270654],[4.72973897,49.92682056],[4.73011428,49.92660141],[4.73012583,49.92603968],[4.73038826,49.92544745],[4.7308588,49.92516405],[4.73133357,49.92500548],[4.73135338,49.92460536],[4.7318318,49.92381689],[4.7321677,49.9235857],[4.73316312,49.92318614],[4.73356967,49.92319116],[4.73390003,49.92279742],[4.73421593,49.92214242],[4.73412799,49.921521],[4.73418669,49.92111943],[4.735267,49.91986325],[4.73636357,49.91933104],[4.73727008,49.91640787],[4.73623149,49.91361474],[4.73582634,49.91319909],[4.73560606,49.91265502],[4.73530556,49.91241129],[4.73517964,49.91177782],[4.73496595,49.91134507],[4.73559387,49.9103352],[4.73665517,49.90922303],[4.73805676,49.90866669],[4.73883853,49.9082135],[4.73972646,49.90736523],[4.73891138,49.90606587],[4.73813218,49.90553244],[4.73799205,49.90521725],[4.73806919,49.90499063],[4.73794382,49.90461862],[4.73684564,49.90309235],[4.73590682,49.90264923],[4.73556856,49.90264325],[4.7347895,49.90231556],[4.73389298,49.90209286],[4.73311363,49.90204282],[4.73235163,49.90188919],[4.73143059,49.90147633],[4.73103002,49.90147841],[4.73017194,49.90132164],[4.72962257,49.90112005],[4.72959813,49.90097394],[4.72922324,49.90066655],[4.72850739,49.9002319],[4.72532595,49.89875114],[4.72348194,49.89901347],[4.72300511,49.89885756],[4.72250529,49.89859774],[4.72221097,49.89824427],[4.72177917,49.89793856],[4.7205147,49.89764907],[4.71898086,49.89646571],[4.71871651,49.89638137],[4.71809099,49.89639376],[4.71714273,49.89677729],[4.71695949,49.89744927],[4.71614991,49.89831694],[4.71571965,49.89838678],[4.71528252,49.89874873],[4.71484841,49.8989525],[4.71457988,49.89903354],[4.71313661,49.89917688],[4.71066792,49.89923122],[4.71038291,49.89956767],[4.70927898,49.89962624],[4.70802662,49.90011278],[4.70763224,49.90075625],[4.70682304,49.90118447],[4.70609193,49.90120276],[4.70681591,49.9032988],[4.70695063,49.90449735],[4.70681897,49.90488645],[4.70475527,49.90765844],[4.70363783,49.910233],[4.70217145,49.91290315],[4.70138915,49.91389431],[4.70053896,49.91451983],[4.6996513,49.91485653],[4.69876833,49.91504222],[4.69726493,49.91514935],[4.69611191,49.91503956],[4.69499689,49.91481692],[4.69423909,49.91462436],[4.6921145,49.91383344],[4.69112641,49.91319929],[4.69068598,49.91279925],[4.69003394,49.91210203],[4.68930407,49.91107075],[4.6889257,49.91019094],[4.68856317,49.90886524],[4.6885877,49.90800952],[4.68918281,49.90589877],[4.68903939,49.90471919],[4.68865161,49.90405785],[4.68814498,49.90371442],[4.68769729,49.90355438],[4.68635157,49.90328812],[4.6839512,49.90331133],[4.68280773,49.90352385],[4.68146115,49.90398985],[4.68056165,49.9045566],[4.67863456,49.90649153],[4.67734429,49.90808074],[4.67723012,49.90845878],[4.67616543,49.91052199],[4.67388316,49.91313558],[4.67348845,49.91378521],[4.67292661,49.91519367],[4.67284764,49.91600969],[4.67309884,49.91721923],[4.6737735,49.91839872],[4.67754364,49.92449997],[4.67865461,49.92675073],[4.67887085,49.92740007],[4.67894087,49.92817361],[4.67860153,49.92961854],[4.67782952,49.93094363],[4.67744636,49.931355],[4.67688062,49.93175899],[4.6762774,49.9320395],[4.67496633,49.93242494],[4.67406595,49.93260079],[4.6720589,49.93252043],[4.67118074,49.93235543],[4.66580496,49.93103252],[4.66422541,49.93057153],[4.66111659,49.92939635],[4.65823277,49.92790266],[4.65799821,49.9280514],[4.65739125,49.92868946],[4.65706695,49.92916017],[4.65614877,49.93080156],[4.6560503,49.93089813],[4.65566263,49.93104714],[4.65546083,49.93104807],[4.65529221,49.93099914],[4.654317,49.92990001],[4.65419228,49.93034555],[4.65394902,49.93039826],[4.65387957,49.9305744],[4.65364238,49.93085704],[4.65197519,49.93181129],[4.65181036,49.93183598],[4.65160484,49.93202294],[4.65125303,49.93242033],[4.65091832,49.9330448],[4.65083148,49.93332899],[4.65069773,49.9345716],[4.65096277,49.93510441],[4.650055,49.93539968],[4.65018337,49.93558124],[4.65031038,49.93593532],[4.65019562,49.93681917],[4.64950428,49.937824],[4.64870682,49.93864787],[4.64785685,49.93922626],[4.64625025,49.93999901],[4.6453103,49.94068102],[4.64511319,49.94100083],[4.64646844,49.94037523],[4.64665906,49.9405874],[4.64695973,49.94075856],[4.64718315,49.94103767],[4.64713613,49.94113354],[4.64717432,49.94136752],[4.64755279,49.94230851],[4.64766709,49.942528],[4.648169,49.94298035],[4.64818486,49.94304034],[4.64810853,49.94313391],[4.6481357,49.94319913],[4.64854536,49.94359702],[4.64931497,49.94397479],[4.6495244,49.94412201],[4.64935111,49.94448912],[4.65048174,49.94492221],[4.65178081,49.94556864],[4.65160456,49.9457579],[4.65154355,49.94593752],[4.65111053,49.94623806],[4.65186945,49.94688549],[4.65275461,49.94811881],[4.6533369,49.94941461],[4.6535798,49.9504203],[4.65396724,49.95197479],[4.65416841,49.95426763],[4.65437279,49.95490097],[4.65481587,49.95593719],[4.65621708,49.95847254],[4.65716561,49.95988913],[4.65869516,49.96169676],[4.66236283,49.96542677],[4.66300361,49.966666],[4.66329593,49.96764133],[4.66347042,49.96910252],[4.66333516,49.96982312],[4.66252493,49.97090417],[4.66311238,49.97102017],[4.66401702,49.97108065],[4.66421965,49.97127106],[4.66449151,49.97132037],[4.66440843,49.97078154],[4.66468249,49.96885335],[4.66450719,49.96775155],[4.66397297,49.96610927],[4.66429846,49.96562687],[4.66978455,49.96349201],[4.67064147,49.96396997],[4.67106338,49.96405136],[4.67074882,49.96329377],[4.67286105,49.96378332],[4.67447457,49.96393016],[4.67685839,49.96196406],[4.67785001,49.96082201],[4.67929093,49.95983371],[4.68289944,49.96227915],[4.68362449,49.96289361],[4.68403048,49.96266161],[4.68435219,49.96207139],[4.68488565,49.9615672],[4.68536556,49.96142313],[4.68620068,49.96140714],[4.68875646,49.96216613],[4.68945535,49.96224184],[4.68993665,49.96209773],[4.69318485,49.9600951],[4.69586096,49.95927998],[4.69647112,49.95890854],[4.69750451,49.95870014],[4.69918203,49.95884757],[4.69980244,49.95870059],[4.70135319,49.95763772],[4.70148208,49.95741042],[4.70163653,49.95623937],[4.70182623,49.95583152],[4.70262722,49.95508903],[4.70302126,49.95458759],[4.70303802,49.95346427],[4.70323058,49.95310131],[4.70492025,49.95203555],[4.7057863,49.95120138],[4.70765319,49.95093994],[4.70909825,49.95059811],[4.71169832,49.95081603],[4.71441199,49.95080859],[4.71511337,49.95092005],[4.71580915,49.9509067],[4.71635846,49.95076153],[4.71817341,49.95086095],[4.71963163,49.95078745],[4.72098974,49.95125443],[4.72162189,49.95137672],[4.72273665,49.95139966],[4.72449243,49.95172443],[4.72574638,49.95174539],[4.72763399,49.95193259],[4.72905109,49.95216505],[4.73003865,49.95246016],[4.73177368,49.95233589],[4.73251684,49.95187254],[4.73416894,49.95148076],[4.73465751,49.95151606],[4.73478629,49.95137227],[4.73530771,49.95134961],[4.73602118,49.95152817],[4.73655254,49.95151164],[4.73819013,49.95196099],[4.73886858,49.95201065],[4.73925241,49.95215883],[4.74071632,49.95221079],[4.74124517,49.952365],[4.74222988,49.95249294],[4.74264273,49.95263441],[4.74286899,49.95289804],[4.74336629,49.9528622],[4.74379924,49.95257391],[4.74419019,49.95244165],[4.7454433,49.95251812],[4.74563201,49.95262055],[4.74616777,49.95269108],[4.74661951,49.95262623],[4.74696269,49.95272555],[4.74727634,49.95261326],[4.74755838,49.95267572],[4.74796442,49.95245608],[4.74860198,49.95240923],[4.74892481,49.9522402],[4.74926383,49.95225871],[4.74959708,49.95214972],[4.74988655,49.95214468],[4.75065802,49.95169968]]]]},"bbox":[4.64511319,49.89638137,4.76498223,49.97132037]},{"type":"Feature","id":"fr-quartier-08363-eab9a900e440","properties":{"id":"fr-quartier-08363-eab9a900e440","kind":"quartier","name":"La Bouverie","cityCode":"08363","cityName":"Revin","sourceType":"iris","sourceIds":["083630103"],"colorIndex":1,"center":[4.639275766934153,49.93105536301459]},"geometry":{"type":"MultiPolygon","coordinates":[[[[4.64587631,49.9251468],[4.64465214,49.92490541],[4.64295961,49.92455439],[4.64157519,49.92408959],[4.63942974,49.92263587],[4.63892226,49.92217456],[4.63839313,49.92194894],[4.63790179,49.92185938],[4.63720151,49.92146085],[4.63644821,49.92131729],[4.63594654,49.92099246],[4.63543239,49.92079897],[4.62999452,49.92573418],[4.62720707,49.92870574],[4.62609641,49.93018952],[4.62590072,49.93094864],[4.62613146,49.93089526],[4.62624963,49.93080384],[4.62687147,49.93109836],[4.62725827,49.93070147],[4.6277112,49.93050138],[4.62827034,49.93035826],[4.62929487,49.93036169],[4.62996344,49.93042017],[4.63067827,49.93053194],[4.63266825,49.93108401],[4.63403609,49.9316794],[4.63465891,49.93204664],[4.63644812,49.93349532],[4.63704166,49.93420616],[4.63735231,49.93486328],[4.63746661,49.93603785],[4.63770479,49.93716853],[4.63779124,49.93821229],[4.63762344,49.93931517],[4.63760426,49.93958496],[4.63777494,49.93991421],[4.63817206,49.940315],[4.63899471,49.94065798],[4.63976057,49.9408364],[4.64060635,49.94090233],[4.64248641,49.94079264],[4.64388601,49.9405052],[4.64466786,49.94044528],[4.64539625,49.94028184],[4.64625025,49.93999901],[4.64785685,49.93922626],[4.64870682,49.93864787],[4.64950428,49.937824],[4.65019562,49.93681917],[4.65031038,49.93593532],[4.65018337,49.93558124],[4.650055,49.93539968],[4.64956464,49.93474322],[4.6488713,49.93418024],[4.6478448,49.9336451],[4.64706568,49.93318299],[4.64566964,49.93215146],[4.64512421,49.93159725],[4.6446074,49.93080815],[4.64443276,49.93039989],[4.64433584,49.93002743],[4.64429199,49.9294449],[4.64426932,49.9277929],[4.6443243,49.92742647],[4.64445577,49.92705812],[4.64500445,49.92607589],[4.64550549,49.92547255],[4.64587631,49.9251468]]]]},"bbox":[4.62590072,49.92079897,4.65031038,49.94090233]},{"type":"Feature","id":"fr-quartier-08363-2b0d5b69d0eb","properties":{"id":"fr-quartier-08363-2b0d5b69d0eb","kind":"quartier","name":"La Campagne","cityCode":"08363","cityName":"Revin","sourceType":"iris","sourceIds":["083630101"],"colorIndex":2,"center":[4.629325874199759,49.93693854996998]},"geometry":{"type":"MultiPolygon","coordinates":[[[[4.62590072,49.93094864],[4.62458937,49.93172887],[4.62405214,49.93225442],[4.62336394,49.93262924],[4.6218079,49.93438303],[4.62116941,49.93540318],[4.62163087,49.93573129],[4.62133096,49.93628064],[4.6212883,49.93721471],[4.62138645,49.93771835],[4.62176402,49.93851567],[4.62343841,49.94077826],[4.62423943,49.94149359],[4.62541941,49.9423045],[4.62618798,49.94278665],[4.62801247,49.94376686],[4.62889308,49.94409386],[4.63031712,49.9444783],[4.63081218,49.94454717],[4.63294838,49.94469208],[4.63509942,49.94464808],[4.6352963,49.94410188],[4.63381235,49.94415135],[4.63214373,49.94404245],[4.63199681,49.94397613],[4.63194742,49.94378182],[4.63204914,49.94339322],[4.63224896,49.94324231],[4.63249879,49.94313116],[4.63260519,49.94301923],[4.63191566,49.94270319],[4.6334503,49.94045811],[4.63354636,49.94037147],[4.63375175,49.94043791],[4.63364645,49.94019314],[4.63385521,49.94006097],[4.63517806,49.93876926],[4.63540582,49.93849219],[4.63540437,49.93836013],[4.63670757,49.93884315],[4.6367058,49.93939483],[4.63694555,49.9394042],[4.63762344,49.93931517],[4.63779124,49.93821229],[4.63770479,49.93716853],[4.63746661,49.93603785],[4.63735231,49.93486328],[4.63704166,49.93420616],[4.63644812,49.93349532],[4.63465891,49.93204664],[4.63403609,49.9316794],[4.63266825,49.93108401],[4.63067827,49.93053194],[4.62996344,49.93042017],[4.62929487,49.93036169],[4.62827034,49.93035826],[4.6277112,49.93050138],[4.62725827,49.93070147],[4.62687147,49.93109836],[4.62624963,49.93080384],[4.62613146,49.93089526],[4.62590072,49.93094864]]]]},"bbox":[4.62116941,49.93035826,4.63779124,49.94469208]},{"type":"Feature","id":"fr-quartier-08363-bbe9a3ce64df","properties":{"id":"fr-quartier-08363-bbe9a3ce64df","kind":"quartier","name":"Orzy","cityCode":"08363","cityName":"Revin","sourceType":"iris","sourceIds":["083630104"],"colorIndex":3,"center":[4.650187795617894,49.92863717546068]},"geometry":{"type":"MultiPolygon","coordinates":[[[[4.65823277,49.92790266],[4.65755591,49.92754705],[4.65589156,49.92639797],[4.65304338,49.92466289],[4.65166898,49.92395188],[4.65079194,49.92368609],[4.65016286,49.92355622],[4.64942454,49.92357696],[4.64818953,49.92381733],[4.64705483,49.92436273],[4.64587631,49.9251468],[4.64550549,49.92547255],[4.64500445,49.92607589],[4.64445577,49.92705812],[4.6443243,49.92742647],[4.64426932,49.9277929],[4.64429199,49.9294449],[4.64433584,49.93002743],[4.64443276,49.93039989],[4.6446074,49.93080815],[4.64512421,49.93159725],[4.64566964,49.93215146],[4.64706568,49.93318299],[4.6478448,49.9336451],[4.6488713,49.93418024],[4.64956464,49.93474322],[4.650055,49.93539968],[4.65096277,49.93510441],[4.65069773,49.9345716],[4.65083148,49.93332899],[4.65091832,49.9330448],[4.65125303,49.93242033],[4.65160484,49.93202294],[4.65181036,49.93183598],[4.65197519,49.93181129],[4.65364238,49.93085704],[4.65387957,49.9305744],[4.65394902,49.93039826],[4.65419228,49.93034555],[4.654317,49.92990001],[4.65529221,49.93099914],[4.65546083,49.93104807],[4.65566263,49.93104714],[4.6560503,49.93089813],[4.65614877,49.93080156],[4.65706695,49.92916017],[4.65739125,49.92868946],[4.65799821,49.9280514],[4.65823277,49.92790266]]]]},"bbox":[4.64426932,49.92355622,4.65823277,49.93539968]},{"type":"Feature","id":"fr-quartier-08363-cea0b696b674","properties":{"id":"fr-quartier-08363-cea0b696b674","kind":"quartier","name":"Vieux Revin et Bois Bryas","cityCode":"08363","cityName":"Revin","sourceType":"iris","sourceIds":["083630102"],"colorIndex":4,"center":[4.638476421287862,49.94539096539199]},"geometry":{"type":"MultiPolygon","coordinates":[[[[4.62541941,49.9423045],[4.62460676,49.94292805],[4.62398875,49.94310696],[4.62273269,49.9464641],[4.62276947,49.94683198],[4.6230684,49.9472997],[4.62407307,49.94806713],[4.62691623,49.94906887],[4.62804163,49.94934141],[4.62994004,49.94953356],[4.63245217,49.94932397],[4.63339997,49.94913702],[4.63498453,49.94866034],[4.63685434,49.94852573],[4.63762782,49.94872113],[4.64157449,49.94748856],[4.64497834,49.94622453],[4.64567147,49.94957905],[4.64644119,49.95051836],[4.64771511,49.95128826],[4.64950013,49.95076916],[4.65015545,49.95075314],[4.65229465,49.95098033],[4.6535798,49.9504203],[4.6533369,49.94941461],[4.65275461,49.94811881],[4.65186945,49.94688549],[4.65111053,49.94623806],[4.65154355,49.94593752],[4.65160456,49.9457579],[4.65178081,49.94556864],[4.65048174,49.94492221],[4.64935111,49.94448912],[4.6495244,49.94412201],[4.64931497,49.94397479],[4.64854536,49.94359702],[4.6481357,49.94319913],[4.64810853,49.94313391],[4.64818486,49.94304034],[4.648169,49.94298035],[4.64766709,49.942528],[4.64755279,49.94230851],[4.64717432,49.94136752],[4.64713613,49.94113354],[4.64718315,49.94103767],[4.64695973,49.94075856],[4.64665906,49.9405874],[4.64646844,49.94037523],[4.64511319,49.94100083],[4.6453103,49.94068102],[4.64625025,49.93999901],[4.64539625,49.94028184],[4.64466786,49.94044528],[4.64388601,49.9405052],[4.64248641,49.94079264],[4.64060635,49.94090233],[4.63976057,49.9408364],[4.63899471,49.94065798],[4.63817206,49.940315],[4.63777494,49.93991421],[4.63760426,49.93958496],[4.63762344,49.93931517],[4.63694555,49.9394042],[4.6367058,49.93939483],[4.63670757,49.93884315],[4.63540437,49.93836013],[4.63540582,49.93849219],[4.63517806,49.93876926],[4.63385521,49.94006097],[4.63364645,49.94019314],[4.63375175,49.94043791],[4.63354636,49.94037147],[4.6334503,49.94045811],[4.63191566,49.94270319],[4.63260519,49.94301923],[4.63249879,49.94313116],[4.63224896,49.94324231],[4.63204914,49.94339322],[4.63194742,49.94378182],[4.63199681,49.94397613],[4.63214373,49.94404245],[4.63381235,49.94415135],[4.6352963,49.94410188],[4.63509942,49.94464808],[4.63294838,49.94469208],[4.63081218,49.94454717],[4.63031712,49.9444783],[4.62889308,49.94409386],[4.62801247,49.94376686],[4.62618798,49.94278665],[4.62541941,49.9423045]]]]},"bbox":[4.62273269,49.93836013,4.6535798,49.95128826]}]}