{"type":"FeatureCollection","metadata":{"sourceType":"iris","referenceFile":"lezignan-corbieres-quartiers.geojson","source":"IGN / INSEE - Contours IRIS WFS Géoplateforme","sourceUrl":"https://geoservices.ign.fr/contoursiris","license":"Licence Ouverte / Open Licence 2.0","sourceYear":"2026"},"features":[{"type":"Feature","id":"fr-quartier-11203-c4aead742e5a","properties":{"id":"fr-quartier-11203-c4aead742e5a","kind":"quartier","name":"Chemin de la Roumenguière","cityCode":"11203","cityName":"Lézignan-Corbières","sourceType":"iris","sourceIds":["112030102"],"colorIndex":0,"center":[2.7644911383269952,43.191107812673145]},"geometry":{"type":"MultiPolygon","coordinates":[[[[2.7734516,43.18606897],[2.77496366,43.18320097],[2.77386998,43.18312943],[2.77321385,43.18337811],[2.77153069,43.18348339],[2.77026129,43.18339795],[2.76944471,43.18319292],[2.76848806,43.18266827],[2.76838082,43.18243597],[2.76826568,43.18233678],[2.76772513,43.18226726],[2.76703268,43.18207058],[2.76697569,43.18157304],[2.76630937,43.18160308],[2.76592596,43.18158246],[2.76522997,43.1816574],[2.76396759,43.18136861],[2.76088468,43.18083203],[2.7602906,43.18063642],[2.75992032,43.18071295],[2.75875371,43.18134179],[2.75866548,43.18245606],[2.75771996,43.1825268],[2.75791046,43.18341142],[2.75785709,43.18500249],[2.75814455,43.18592332],[2.75832624,43.18745106],[2.75734556,43.18767733],[2.75767953,43.18806396],[2.75400307,43.18914672],[2.7534883,43.18821008],[2.75327685,43.18792715],[2.75326384,43.18780569],[2.75301528,43.18786359],[2.75336588,43.1883789],[2.75356035,43.18889835],[2.75376442,43.18918666],[2.75387865,43.18949724],[2.7550988,43.19194754],[2.75393994,43.19329144],[2.75405414,43.19361102],[2.75430069,43.19374201],[2.75386409,43.19406933],[2.75299012,43.19461153],[2.75188608,43.19519097],[2.75199852,43.19591802],[2.75296947,43.19627825],[2.75435706,43.1966763],[2.76697396,43.19937398],[2.7731887,43.20074547],[2.77913252,43.20198111],[2.77931165,43.201762],[2.77938623,43.20155167],[2.77936371,43.20133125],[2.77901702,43.20099592],[2.77847788,43.20083111],[2.77773537,43.2007972],[2.77626937,43.20057829],[2.77665383,43.1987702],[2.77525693,43.19850015],[2.77480823,43.19848302],[2.77454739,43.1978996],[2.77369079,43.19812448],[2.77333786,43.19751388],[2.77306461,43.19759336],[2.77235791,43.19721679],[2.77170745,43.19692487],[2.77217937,43.19603717],[2.77194427,43.19579651],[2.77157887,43.19492952],[2.77226186,43.19476096],[2.77235928,43.19468471],[2.77204486,43.19398424],[2.77224023,43.19369951],[2.77170849,43.19323964],[2.77228174,43.19283698],[2.77034546,43.19129115],[2.76922366,43.19052778],[2.76945464,43.19025483],[2.77023555,43.18956209],[2.77182867,43.18802194],[2.77277202,43.18695894],[2.7734516,43.18606897]]]]},"bbox":[2.75188608,43.18063642,2.77938623,43.20198111]},{"type":"Feature","id":"fr-quartier-11203-22f192371ae2","properties":{"id":"fr-quartier-11203-22f192371ae2","kind":"quartier","name":"Cité Léon Blum","cityCode":"11203","cityName":"Lézignan-Corbières","sourceType":"iris","sourceIds":["112030103"],"colorIndex":1,"center":[2.757109601703595,43.20249071709993]},"geometry":{"type":"MultiPolygon","coordinates":[[[[2.76354929,43.20038927],[2.76249322,43.2006622],[2.76121093,43.20092922],[2.76031667,43.20101988],[2.75971466,43.20120294],[2.75949847,43.20085615],[2.75856259,43.2006085],[2.75658605,43.20105921],[2.75595519,43.20108117],[2.75549187,43.20102975],[2.75345775,43.20055648],[2.75205668,43.20012781],[2.75065985,43.19986014],[2.74952432,43.19945004],[2.74967495,43.19958801],[2.75044639,43.20060443],[2.75149409,43.20228892],[2.75163425,43.20257798],[2.75195785,43.20281259],[2.75200103,43.20306725],[2.75231335,43.20363915],[2.75279891,43.20424563],[2.75326956,43.20460291],[2.75380197,43.20489646],[2.75459636,43.20517352],[2.75532624,43.20529751],[2.75572091,43.2053101],[2.75635067,43.20526655],[2.75677027,43.20519643],[2.7573501,43.20503762],[2.75876752,43.20453258],[2.76217658,43.20320978],[2.76263808,43.20311275],[2.76412413,43.20294061],[2.76501504,43.20277345],[2.76405349,43.20127008],[2.76354929,43.20038927]]]]},"bbox":[2.74952432,43.19945004,2.76501504,43.2053101]},{"type":"Feature","id":"fr-quartier-11203-df7ab3aaf151","properties":{"id":"fr-quartier-11203-df7ab3aaf151","kind":"quartier","name":"Faubourg","cityCode":"11203","cityName":"Lézignan-Corbières","sourceType":"iris","sourceIds":["112030104"],"colorIndex":2,"center":[2.7565938369767884,43.198978057267816]},"geometry":{"type":"MultiPolygon","coordinates":[[[[2.76354929,43.20038927],[2.76522719,43.19988741],[2.76609366,43.19967071],[2.76697396,43.19937398],[2.75435706,43.1966763],[2.75296947,43.19627825],[2.75199852,43.19591802],[2.75204618,43.19627164],[2.75199893,43.1966808],[2.75154307,43.1974776],[2.75130398,43.19732324],[2.75119422,43.19740304],[2.75097261,43.19747179],[2.75082017,43.19746874],[2.74826278,43.19805198],[2.74833357,43.19873486],[2.74887334,43.19901407],[2.74915516,43.1992369],[2.74952432,43.19945004],[2.75065985,43.19986014],[2.75205668,43.20012781],[2.75345775,43.20055648],[2.75549187,43.20102975],[2.75595519,43.20108117],[2.75658605,43.20105921],[2.75856259,43.2006085],[2.75949847,43.20085615],[2.75971466,43.20120294],[2.76031667,43.20101988],[2.76121093,43.20092922],[2.76249322,43.2006622],[2.76354929,43.20038927]]]]},"bbox":[2.74826278,43.19591802,2.76697396,43.20120294]},{"type":"Feature","id":"fr-quartier-11203-303063a643cd","properties":{"id":"fr-quartier-11203-303063a643cd","kind":"quartier","name":"Route de Ferrals","cityCode":"11203","cityName":"Lézignan-Corbières","sourceType":"iris","sourceIds":["112030101"],"colorIndex":3,"center":[2.7489985285975354,43.175119281232305]},"geometry":{"type":"MultiPolygon","coordinates":[[[[2.77410353,43.15828904],[2.76944856,43.15943141],[2.7691407,43.15929763],[2.76885006,43.15884997],[2.76636118,43.15723816],[2.76671802,43.15679999],[2.764684,43.15575759],[2.76369159,43.15538484],[2.76260411,43.15543102],[2.76213064,43.15554421],[2.76185929,43.15580176],[2.76098382,43.15627024],[2.76083336,43.15670525],[2.76053964,43.15702211],[2.75703184,43.15821416],[2.75643045,43.15835222],[2.75600421,43.1586211],[2.75553671,43.15905538],[2.75496895,43.15937341],[2.75468092,43.15920815],[2.75251079,43.15956748],[2.75090165,43.15975356],[2.74837534,43.15979087],[2.747362,43.15999808],[2.74745891,43.16031492],[2.74731408,43.1602795],[2.74468477,43.16081749],[2.74444913,43.16075757],[2.73998721,43.16087193],[2.74003737,43.15928089],[2.74023967,43.1585573],[2.73967882,43.15841473],[2.73727881,43.15743479],[2.73445902,43.15718682],[2.73430114,43.15732046],[2.73383465,43.15830512],[2.73372868,43.15837142],[2.7332236,43.15839356],[2.73170235,43.16028587],[2.73059694,43.16019947],[2.73017209,43.16092878],[2.73005024,43.16097434],[2.72888298,43.16070967],[2.72857585,43.1607017],[2.72802163,43.16228428],[2.7277791,43.16264525],[2.72679631,43.16260319],[2.72673766,43.16305278],[2.72649533,43.16336878],[2.72496001,43.16323895],[2.72478646,43.16407412],[2.72549897,43.16411191],[2.72748514,43.16453251],[2.73234645,43.16473986],[2.73690343,43.16513605],[2.73688438,43.17121017],[2.73672706,43.17688012],[2.73676532,43.17927374],[2.73668341,43.17944534],[2.73664732,43.18197101],[2.73652913,43.182013],[2.73658138,43.1824152],[2.7370157,43.18313225],[2.73721817,43.18374799],[2.73741275,43.18718272],[2.73766477,43.18826002],[2.73772706,43.18835012],[2.73852755,43.18857154],[2.73852714,43.18866149],[2.73639015,43.19038511],[2.73504379,43.19097458],[2.73504685,43.19137846],[2.7336039,43.19184715],[2.73431153,43.19221858],[2.73561156,43.1928946],[2.73657715,43.19331972],[2.73876365,43.19399156],[2.73949504,43.19428926],[2.74018384,43.19476136],[2.74147471,43.19614069],[2.74198544,43.19657727],[2.74286217,43.19710107],[2.74411092,43.19774358],[2.74471594,43.19799597],[2.74522677,43.198142],[2.74566283,43.19823388],[2.74735379,43.19842315],[2.74805253,43.19861727],[2.74833357,43.19873486],[2.74826278,43.19805198],[2.75082017,43.19746874],[2.75097261,43.19747179],[2.75119422,43.19740304],[2.75130398,43.19732324],[2.75154307,43.1974776],[2.75199893,43.1966808],[2.75204618,43.19627164],[2.75199852,43.19591802],[2.75188608,43.19519097],[2.75299012,43.19461153],[2.75386409,43.19406933],[2.75430069,43.19374201],[2.75405414,43.19361102],[2.75393994,43.19329144],[2.7550988,43.19194754],[2.75387865,43.18949724],[2.75376442,43.18918666],[2.75356035,43.18889835],[2.75336588,43.1883789],[2.75301528,43.18786359],[2.75326384,43.18780569],[2.75327685,43.18792715],[2.7534883,43.18821008],[2.75400307,43.18914672],[2.75767953,43.18806396],[2.75734556,43.18767733],[2.75832624,43.18745106],[2.75814455,43.18592332],[2.75785709,43.18500249],[2.75791046,43.18341142],[2.75771996,43.1825268],[2.75866548,43.18245606],[2.75875371,43.18134179],[2.75992032,43.18071295],[2.7602906,43.18063642],[2.76088468,43.18083203],[2.76396759,43.18136861],[2.76522997,43.1816574],[2.76592596,43.18158246],[2.76630937,43.18160308],[2.76697569,43.18157304],[2.76703268,43.18207058],[2.76772513,43.18226726],[2.76826568,43.18233678],[2.76838082,43.18243597],[2.76859468,43.18121133],[2.76930364,43.18004172],[2.76937597,43.17978012],[2.76928861,43.17918898],[2.76898109,43.17863604],[2.7651879,43.17567664],[2.76413621,43.17528937],[2.76338843,43.1748236],[2.76295638,43.17468773],[2.76255313,43.1744233],[2.76208314,43.17395004],[2.76188623,43.17342071],[2.76081162,43.17235335],[2.75976867,43.17195616],[2.75930575,43.17156655],[2.75873151,43.17135299],[2.75962415,43.17035926],[2.76004798,43.1695039],[2.76010381,43.16878534],[2.76077614,43.1681572],[2.7605953,43.16790765],[2.76052068,43.16723287],[2.76065902,43.16676456],[2.76080425,43.16671001],[2.76076047,43.16630335],[2.76088115,43.16594293],[2.76106186,43.16562761],[2.76222101,43.16463536],[2.76443325,43.16332338],[2.76645033,43.16223761],[2.76773101,43.16123476],[2.76840525,43.16100775],[2.76945898,43.16082381],[2.77410353,43.15828904]]]]},"bbox":[2.72478646,43.15538484,2.77410353,43.19873486]},{"type":"Feature","id":"fr-quartier-11203-4bd9b3233fef","properties":{"id":"fr-quartier-11203-4bd9b3233fef","kind":"quartier","name":"Rue du Plantier","cityCode":"11203","cityName":"Lézignan-Corbières","sourceType":"iris","sourceIds":["112030106"],"colorIndex":4,"center":[2.7576976859644193,43.20812265812849]},"geometry":{"type":"MultiPolygon","coordinates":[[[[2.76697396,43.19937398],[2.76609366,43.19967071],[2.76522719,43.19988741],[2.76354929,43.20038927],[2.76405349,43.20127008],[2.76501504,43.20277345],[2.76412413,43.20294061],[2.76263808,43.20311275],[2.76217658,43.20320978],[2.75876752,43.20453258],[2.7573501,43.20503762],[2.75677027,43.20519643],[2.75635067,43.20526655],[2.75572091,43.2053101],[2.75532624,43.20529751],[2.75459636,43.20517352],[2.75380197,43.20489646],[2.75326956,43.20460291],[2.75279891,43.20424563],[2.75231335,43.20363915],[2.75200103,43.20306725],[2.75195785,43.20281259],[2.75163425,43.20257798],[2.75149409,43.20228892],[2.75044639,43.20060443],[2.74967495,43.19958801],[2.74952432,43.19945004],[2.74915516,43.1992369],[2.74887334,43.19901407],[2.74833357,43.19873486],[2.74814131,43.1991212],[2.74743275,43.1992041],[2.74692382,43.1997453],[2.74673158,43.20012444],[2.74654797,43.20021846],[2.74615909,43.20057644],[2.74549784,43.20135745],[2.74478993,43.20156447],[2.74471963,43.20161287],[2.74443757,43.20200169],[2.74440854,43.20217252],[2.74446197,43.20232377],[2.7444646,43.20256304],[2.74424325,43.20284496],[2.74388459,43.2030366],[2.74351535,43.20339643],[2.74303879,43.20355451],[2.7423767,43.20367976],[2.74207912,43.20395879],[2.74180666,43.20411735],[2.7417039,43.20427452],[2.74189295,43.20461948],[2.74191288,43.20483901],[2.74207501,43.20515422],[2.74214742,43.20546023],[2.74224533,43.2055639],[2.74236696,43.20558758],[2.74332643,43.20551161],[2.7434234,43.20610192],[2.74340467,43.20644458],[2.74344986,43.20651305],[2.74365923,43.20671594],[2.74394978,43.20691632],[2.74473378,43.20703781],[2.74479664,43.20756147],[2.74485746,43.20771093],[2.74537186,43.20818169],[2.74548352,43.20823592],[2.74567408,43.20824716],[2.74651984,43.20802877],[2.74666477,43.20806869],[2.7469919,43.20834291],[2.74715403,43.20838826],[2.74669129,43.20847083],[2.74640188,43.2085691],[2.74601217,43.20882454],[2.74553778,43.20931815],[2.74527939,43.20935083],[2.74504775,43.20945282],[2.74487189,43.20945511],[2.74482993,43.20949009],[2.74457842,43.21019021],[2.74459224,43.21040343],[2.74474905,43.21081757],[2.74491146,43.21107701],[2.74536719,43.21147297],[2.74582681,43.21210371],[2.7470659,43.21334794],[2.74801397,43.21365779],[2.74823587,43.21381662],[2.74911879,43.21412361],[2.75053821,43.21436167],[2.75114071,43.21439095],[2.75143719,43.21436915],[2.75298624,43.21478378],[2.75399759,43.21497588],[2.7543375,43.21515476],[2.75481916,43.2152584],[2.75505345,43.21540285],[2.75531505,43.215488],[2.75649583,43.21575153],[2.75792301,43.21621079],[2.75802471,43.21630187],[2.75793553,43.21645099],[2.7579795,43.21652574],[2.75861257,43.21660092],[2.75905667,43.21657403],[2.7595913,43.21666337],[2.7604636,43.21569924],[2.761132,43.2155577],[2.76140758,43.21553582],[2.76171014,43.21523425],[2.76212263,43.21511552],[2.76241942,43.21561811],[2.76494471,43.21522155],[2.76568953,43.21564234],[2.76660073,43.21628207],[2.76699777,43.2163342],[2.76750241,43.21654217],[2.77130304,43.21522711],[2.77079197,43.21446864],[2.76967741,43.2133176],[2.76906215,43.21248154],[2.76839178,43.21128825],[2.76772472,43.20988899],[2.76664717,43.20783219],[2.76642439,43.20757805],[2.76514837,43.20657234],[2.76456813,43.20592883],[2.76540291,43.20566619],[2.76585514,43.2054324],[2.7661768,43.20555633],[2.76752108,43.20487651],[2.76781078,43.20500127],[2.76941318,43.20433817],[2.76963905,43.204434],[2.76998601,43.2046911],[2.77075901,43.20418182],[2.77128373,43.20395356],[2.77130476,43.20392303],[2.77117419,43.20367089],[2.77127572,43.2034921],[2.77126756,43.20338055],[2.77088011,43.20279145],[2.77093244,43.20230763],[2.77353405,43.2023536],[2.77427163,43.20239652],[2.77567645,43.20254787],[2.77686053,43.20255122],[2.77728641,43.20243696],[2.77789243,43.20247959],[2.77826034,43.20241019],[2.77873191,43.20224295],[2.77913252,43.20198111],[2.7731887,43.20074547],[2.76697396,43.19937398]]]]},"bbox":[2.7417039,43.19873486,2.77913252,43.21666337]},{"type":"Feature","id":"fr-quartier-11203-685a3a5deb39","properties":{"id":"fr-quartier-11203-685a3a5deb39","kind":"quartier","name":"Sérame","cityCode":"11203","cityName":"Lézignan-Corbières","sourceType":"iris","sourceIds":["112030105"],"colorIndex":5,"center":[2.7871555793957605,43.213666325000005]},"geometry":{"type":"MultiPolygon","coordinates":[[[[2.73431153,43.19221858],[2.73315543,43.19285887],[2.73332728,43.19318221],[2.73265538,43.19358892],[2.73271969,43.19403793],[2.73330547,43.1947095],[2.73038556,43.1960353],[2.73045678,43.19631882],[2.7303446,43.19638151],[2.73015947,43.19679661],[2.73004177,43.19751592],[2.72964736,43.19824982],[2.72936071,43.19828958],[2.72880234,43.19858951],[2.72450903,43.19985323],[2.72434972,43.20000124],[2.72366314,43.20010562],[2.72263999,43.20039804],[2.72326149,43.20720617],[2.72753209,43.21192056],[2.72896172,43.21493392],[2.72898495,43.21574804],[2.72869297,43.21847283],[2.72854049,43.22213077],[2.72892188,43.2276143],[2.73161704,43.22682675],[2.73532428,43.22554779],[2.73509911,43.22583149],[2.73505587,43.22640797],[2.73510368,43.22697929],[2.73530065,43.2274826],[2.73528738,43.22796291],[2.73561416,43.22832532],[2.73577682,43.22880336],[2.73628229,43.22909784],[2.73662594,43.22954035],[2.73667629,43.22983101],[2.73653923,43.23048103],[2.73887233,43.23087619],[2.74273666,43.23108426],[2.74517016,43.23160096],[2.7513229,43.23377326],[2.75181965,43.23412162],[2.75149721,43.23500601],[2.75138213,43.23515867],[2.75104977,43.23520108],[2.7513668,43.23586296],[2.75186797,43.23633366],[2.75224965,43.23741307],[2.75438776,43.23977292],[2.75678113,43.24087396],[2.75722155,43.24088934],[2.75761656,43.24117088],[2.7596931,43.24126368],[2.75982665,43.24080791],[2.76089989,43.24043159],[2.76126128,43.24021741],[2.76304781,43.23841689],[2.76400069,43.23766967],[2.76533623,43.23690888],[2.76570223,43.23645901],[2.76689203,43.23552158],[2.76740632,43.23520966],[2.76863996,43.23467889],[2.77020092,43.23412272],[2.77130781,43.23389839],[2.77238697,43.2338404],[2.77685585,43.23400265],[2.77884859,43.23439354],[2.78092548,43.23498876],[2.78168964,43.23527096],[2.78286835,43.23589851],[2.7839197,43.23703222],[2.78483233,43.23842471],[2.78510112,43.23859975],[2.78568629,43.23872954],[2.78618975,43.23866398],[2.78675919,43.23838805],[2.78760049,43.23812345],[2.78976384,43.23699608],[2.79123775,43.23665981],[2.79191392,43.23679965],[2.7933059,43.23734743],[2.79519483,43.23793302],[2.79838913,43.23853992],[2.79944483,43.23852119],[2.8018085,43.23811447],[2.80434283,43.23743995],[2.80647682,43.23652628],[2.80721519,43.23647093],[2.80621457,43.23401884],[2.80566164,43.23235193],[2.80299646,43.23286793],[2.80224386,43.23241949],[2.80202849,43.23208717],[2.80215528,43.23206312],[2.8019429,43.23157339],[2.80124545,43.23048189],[2.80015028,43.22843706],[2.79951355,43.22759033],[2.79881436,43.22631891],[2.79825278,43.22474641],[2.79660807,43.22233622],[2.79637622,43.22216038],[2.79923412,43.22021648],[2.80076441,43.21943944],[2.80258714,43.21873577],[2.80378124,43.21842042],[2.80451849,43.21789914],[2.80621283,43.21767552],[2.80662536,43.21715634],[2.80272442,43.21131148],[2.80290981,43.21032146],[2.80211104,43.21015359],[2.80130793,43.20875069],[2.80163356,43.20738944],[2.80065511,43.2072779],[2.80065698,43.2070917],[2.79547193,43.20000203],[2.79568698,43.19934131],[2.79531646,43.19911753],[2.79359248,43.1984873],[2.79352678,43.19794837],[2.79333963,43.19767996],[2.79216804,43.19696621],[2.79221913,43.19575289],[2.79198405,43.19377625],[2.79004717,43.19393351],[2.78949098,43.1923862],[2.78880663,43.19126589],[2.78880409,43.19095106],[2.78958927,43.19003961],[2.78831365,43.18925546],[2.78729709,43.18923547],[2.78798886,43.18865396],[2.78735685,43.18802847],[2.78653961,43.18796839],[2.7844094,43.18760526],[2.78372977,43.18756432],[2.77646873,43.1865511],[2.77556991,43.18629737],[2.7734516,43.18606897],[2.77277202,43.18695894],[2.77182867,43.18802194],[2.77023555,43.18956209],[2.76945464,43.19025483],[2.76922366,43.19052778],[2.77034546,43.19129115],[2.77228174,43.19283698],[2.77170849,43.19323964],[2.77224023,43.19369951],[2.77204486,43.19398424],[2.77235928,43.19468471],[2.77226186,43.19476096],[2.77157887,43.19492952],[2.77194427,43.19579651],[2.77217937,43.19603717],[2.77170745,43.19692487],[2.77235791,43.19721679],[2.77306461,43.19759336],[2.77333786,43.19751388],[2.77369079,43.19812448],[2.77454739,43.1978996],[2.77480823,43.19848302],[2.77525693,43.19850015],[2.77665383,43.1987702],[2.77626937,43.20057829],[2.77773537,43.2007972],[2.77847788,43.20083111],[2.77901702,43.20099592],[2.77936371,43.20133125],[2.77938623,43.20155167],[2.77931165,43.201762],[2.77913252,43.20198111],[2.77873191,43.20224295],[2.77826034,43.20241019],[2.77789243,43.20247959],[2.77728641,43.20243696],[2.77686053,43.20255122],[2.77567645,43.20254787],[2.77427163,43.20239652],[2.77353405,43.2023536],[2.77093244,43.20230763],[2.77088011,43.20279145],[2.77126756,43.20338055],[2.77127572,43.2034921],[2.77117419,43.20367089],[2.77130476,43.20392303],[2.77128373,43.20395356],[2.77075901,43.20418182],[2.76998601,43.2046911],[2.76963905,43.204434],[2.76941318,43.20433817],[2.76781078,43.20500127],[2.76752108,43.20487651],[2.7661768,43.20555633],[2.76585514,43.2054324],[2.76540291,43.20566619],[2.76456813,43.20592883],[2.76514837,43.20657234],[2.76642439,43.20757805],[2.76664717,43.20783219],[2.76772472,43.20988899],[2.76839178,43.21128825],[2.76906215,43.21248154],[2.76967741,43.2133176],[2.77079197,43.21446864],[2.77130304,43.21522711],[2.76750241,43.21654217],[2.76699777,43.2163342],[2.76660073,43.21628207],[2.76568953,43.21564234],[2.76494471,43.21522155],[2.76241942,43.21561811],[2.76212263,43.21511552],[2.76171014,43.21523425],[2.76140758,43.21553582],[2.761132,43.2155577],[2.7604636,43.21569924],[2.7595913,43.21666337],[2.75905667,43.21657403],[2.75861257,43.21660092],[2.7579795,43.21652574],[2.75793553,43.21645099],[2.75802471,43.21630187],[2.75792301,43.21621079],[2.75649583,43.21575153],[2.75531505,43.215488],[2.75505345,43.21540285],[2.75481916,43.2152584],[2.7543375,43.21515476],[2.75399759,43.21497588],[2.75298624,43.21478378],[2.75143719,43.21436915],[2.75114071,43.21439095],[2.75053821,43.21436167],[2.74911879,43.21412361],[2.74823587,43.21381662],[2.74801397,43.21365779],[2.7470659,43.21334794],[2.74582681,43.21210371],[2.74536719,43.21147297],[2.74491146,43.21107701],[2.74474905,43.21081757],[2.74459224,43.21040343],[2.74457842,43.21019021],[2.74482993,43.20949009],[2.74487189,43.20945511],[2.74504775,43.20945282],[2.74527939,43.20935083],[2.74553778,43.20931815],[2.74601217,43.20882454],[2.74640188,43.2085691],[2.74669129,43.20847083],[2.74715403,43.20838826],[2.7469919,43.20834291],[2.74666477,43.20806869],[2.74651984,43.20802877],[2.74567408,43.20824716],[2.74548352,43.20823592],[2.74537186,43.20818169],[2.74485746,43.20771093],[2.74479664,43.20756147],[2.74473378,43.20703781],[2.74394978,43.20691632],[2.74365923,43.20671594],[2.74344986,43.20651305],[2.74340467,43.20644458],[2.7434234,43.20610192],[2.74332643,43.20551161],[2.74236696,43.20558758],[2.74224533,43.2055639],[2.74214742,43.20546023],[2.74207501,43.20515422],[2.74191288,43.20483901],[2.74189295,43.20461948],[2.7417039,43.20427452],[2.74180666,43.20411735],[2.74207912,43.20395879],[2.7423767,43.20367976],[2.74303879,43.20355451],[2.74351535,43.20339643],[2.74388459,43.2030366],[2.74424325,43.20284496],[2.7444646,43.20256304],[2.74446197,43.20232377],[2.74440854,43.20217252],[2.74443757,43.20200169],[2.74471963,43.20161287],[2.74478993,43.20156447],[2.74549784,43.20135745],[2.74615909,43.20057644],[2.74654797,43.20021846],[2.74673158,43.20012444],[2.74692382,43.1997453],[2.74743275,43.1992041],[2.74814131,43.1991212],[2.74833357,43.19873486],[2.74805253,43.19861727],[2.74735379,43.19842315],[2.74566283,43.19823388],[2.74522677,43.198142],[2.74471594,43.19799597],[2.74411092,43.19774358],[2.74286217,43.19710107],[2.74198544,43.19657727],[2.74147471,43.19614069],[2.74018384,43.19476136],[2.73949504,43.19428926],[2.73876365,43.19399156],[2.73657715,43.19331972],[2.73561156,43.1928946],[2.73431153,43.19221858]]]]},"bbox":[2.72263999,43.18606897,2.80721519,43.24126368]}]}