{"type":"FeatureCollection","metadata":{"sourceType":"iris","source":"IGN / INSEE — Contours IRIS 2026","sourceUrl":"https://data.geopf.fr/wfs/ows?service=WFS&version=2.0.0&request=GetFeature&typeNames=STATISTICALUNITS.IRIS%3Acontours_iris&outputFormat=application%2Fjson&srsName=CRS%3A84&count=1000&CQL_FILTER=code_insee%3D%2713021%27&sortBy=code_iris","retrievedDate":"2026-09-10","sourceYear":"2026","license":"Licence Ouverte 2.0"},"features":[{"type":"Feature","id":"fr-quartier-13021-2bd5fb5dde0b","properties":{"id":"fr-quartier-13021-2bd5fb5dde0b","kind":"quartier","name":"Centre","cityCode":"13021","cityName":"Carry-le-Rouet","sourceType":"iris","sourceIds":["130210102"],"colorIndex":0,"center":[5.1501812100668545,43.330434205]},"geometry":{"type":"MultiPolygon","coordinates":[[[[5.1545027,43.32882916],[5.15449274,43.32889235],[5.15427034,43.32887878],[5.15428892,43.32871643],[5.15445566,43.32856012],[5.15410482,43.32873809],[5.15383147,43.32868054],[5.15349317,43.3285343],[5.15286708,43.32794382],[5.15259608,43.32794921],[5.15260011,43.32805712],[5.15290011,43.32816814],[5.15328645,43.32861041],[5.15274602,43.3293231],[5.15303595,43.32916435],[5.15383473,43.32942741],[5.15387471,43.32950761],[5.15330471,43.33041888],[5.15261757,43.33050456],[5.15269965,43.33006196],[5.15263571,43.33000024],[5.15252585,43.33002943],[5.15248307,43.33053423],[5.1517649,43.33044953],[5.15140421,43.33003375],[5.15120637,43.3286968],[5.15126527,43.32862364],[5.15225912,43.32882884],[5.15242821,43.32873548],[5.15232597,43.32863853],[5.15129753,43.32849701],[5.151195,43.32832626],[5.15124319,43.32826321],[5.15122341,43.3282618],[5.15110986,43.32805978],[5.15123132,43.32778019],[5.15129397,43.32774114],[5.15138422,43.32784734],[5.15145712,43.32781889],[5.15135321,43.32767697],[5.15158379,43.32724942],[5.15174986,43.32707513],[5.15203696,43.32697313],[5.15187345,43.32691879],[5.15189191,43.32675283],[5.15239738,43.32625952],[5.15239668,43.32607595],[5.15202106,43.32628321],[5.15195939,43.32644732],[5.1518196,43.3264339],[5.15158295,43.3265997],[5.15103181,43.32669525],[5.1508898,43.32685376],[5.15062402,43.32689955],[5.15049714,43.32676978],[5.14971129,43.32662072],[5.14955744,43.3264618],[5.14967449,43.32632808],[5.14962015,43.32619327],[5.14938785,43.3260791],[5.14931679,43.326256],[5.14940302,43.32665115],[5.14971938,43.32756458],[5.14982159,43.32795851],[5.14979614,43.32800311],[5.14983342,43.32811036],[5.15001209,43.3281743],[5.14986703,43.32874684],[5.14968541,43.32906632],[5.1493325,43.32928841],[5.14932234,43.32937951],[5.14713659,43.33261945],[5.14716925,43.3326359],[5.14941927,43.33211064],[5.15104052,43.33247707],[5.15175256,43.33259519],[5.15161473,43.33283282],[5.15161614,43.33287059],[5.1516887,43.33289884],[5.15276884,43.33287104],[5.1538218,43.33290767],[5.15438932,43.33394118],[5.15463575,43.3347948],[5.15520282,43.33551874],[5.15557849,43.33583883],[5.15529221,43.33602992],[5.1548852,43.33622341],[5.15479128,43.33615149],[5.15458869,43.33630581],[5.15405905,43.33645135],[5.15549267,43.33720303],[5.15550792,43.33738001],[5.1553686,43.33754477],[5.15640867,43.33809099],[5.15677697,43.33824654],[5.15790722,43.33859926],[5.15881663,43.3387503],[5.16194537,43.33909907],[5.16365299,43.33949239],[5.16377391,43.33946208],[5.16379938,43.33938507],[5.16365639,43.33918905],[5.16363458,43.33906799],[5.16394051,43.33884229],[5.16450513,43.33824964],[5.16505542,43.33776796],[5.16668951,43.33650143],[5.16678371,43.33628536],[5.16730831,43.33577718],[5.16796137,43.33530873],[5.1687349,43.33463447],[5.16936121,43.33417645],[5.169142,43.33408455],[5.1688846,43.33409151],[5.16761889,43.33469284],[5.16743388,43.33465786],[5.16737165,43.33454391],[5.16741377,43.33438558],[5.16821367,43.33349482],[5.16834492,43.3332807],[5.16836455,43.33298333],[5.168249,43.33273007],[5.16792934,43.3323927],[5.16747618,43.33207871],[5.16723533,43.33196835],[5.16686821,43.33187671],[5.16649046,43.33189598],[5.16546034,43.33220459],[5.16501471,43.332353],[5.16421428,43.33273799],[5.16407635,43.33270926],[5.16389987,43.3326057],[5.16384902,43.33246632],[5.16388292,43.33235136],[5.16219062,43.33213052],[5.16115982,43.33206024],[5.16078237,43.33215327],[5.16040166,43.33238946],[5.15990046,43.33299612],[5.15975151,43.33310079],[5.15943653,43.33315027],[5.15914901,43.33311012],[5.15887871,43.33293733],[5.15881554,43.33276491],[5.15904605,43.3315796],[5.15907577,43.33118844],[5.15888535,43.33031752],[5.15877718,43.33016129],[5.15844996,43.32998244],[5.15787543,43.32991471],[5.15507755,43.32969693],[5.1547133,43.32981308],[5.15406943,43.32957213],[5.15444345,43.32902472],[5.15458674,43.32893368],[5.1545027,43.32882916]]]]},"bbox":[5.14713659,43.32607595,5.16936121,43.33949239]},{"type":"Feature","id":"fr-quartier-13021-5a6306caa06b","properties":{"id":"fr-quartier-13021-5a6306caa06b","kind":"quartier","name":"Est Reganat d'Estral","cityCode":"13021","cityName":"Carry-le-Rouet","sourceType":"iris","sourceIds":["130210103"],"colorIndex":1,"center":[5.159456445442879,43.332759155000005]},"geometry":{"type":"MultiPolygon","coordinates":[[[[5.18374943,43.33029344],[5.18381593,43.33038929],[5.18397085,43.33028087],[5.18383548,43.33009192],[5.18392972,43.32984613],[5.18382442,43.32973487],[5.18371936,43.32982518],[5.1838148,43.33022912],[5.18374943,43.33029344]]],[[[5.17015431,43.34855769],[5.17606147,43.33844521],[5.17875465,43.33724987],[5.17911489,43.33715802],[5.1804795,43.33702162],[5.18354284,43.33655395],[5.18582717,43.33631972],[5.18535345,43.33601971],[5.18518703,43.33582509],[5.18515499,43.33563045],[5.18550829,43.33506355],[5.1854371,43.33406426],[5.18573195,43.33371183],[5.18543376,43.33342358],[5.18542156,43.33303685],[5.1848465,43.33256701],[5.18394591,43.3325177],[5.18357129,43.33242447],[5.18339396,43.33229937],[5.18339879,43.33203649],[5.18295213,43.33186372],[5.1828919,43.33173804],[5.18270135,43.33181748],[5.18264036,43.33173682],[5.18259447,43.33176205],[5.18240954,43.33179458],[5.18225685,43.33170136],[5.1820684,43.33173846],[5.18173079,43.33161299],[5.18157136,43.3316351],[5.18150838,43.33176236],[5.1809625,43.33170408],[5.18078369,43.33180038],[5.1806755,43.33177556],[5.1805671,43.33158246],[5.18037396,43.33165835],[5.18005177,43.33158205],[5.17986572,43.33145441],[5.17988419,43.33135595],[5.1796147,43.33146667],[5.17923864,43.33133476],[5.1789184,43.33144021],[5.17882515,43.33158247],[5.1787408,43.33160127],[5.17876084,43.33164227],[5.17862484,43.33199058],[5.1782792,43.33227202],[5.17818977,43.33248261],[5.17790979,43.33247925],[5.17800305,43.33253316],[5.17788714,43.33259759],[5.17800955,43.33270492],[5.1779707,43.3327534],[5.1780742,43.33278461],[5.17805415,43.33355896],[5.17761644,43.33372076],[5.1775721,43.33372165],[5.17756819,43.33374873],[5.17696616,43.33412982],[5.17668554,43.33420746],[5.1763423,43.33425937],[5.17630262,43.33418817],[5.17569321,43.33404745],[5.17526204,43.33405612],[5.17593407,43.33422259],[5.17597646,43.33436572],[5.17558835,43.33453552],[5.17540288,43.33452125],[5.17537553,43.33444981],[5.17533925,43.33446853],[5.17520886,43.33450895],[5.1745003,43.3345178],[5.17415321,43.33440239],[5.17413032,43.33438395],[5.17407997,43.33442186],[5.17400106,43.33442165],[5.17364687,43.33434687],[5.17317664,43.33410434],[5.17293688,43.33385988],[5.17318507,43.33357592],[5.17309748,43.33354168],[5.17282431,43.33381715],[5.17257725,43.33380411],[5.17239902,43.3336547],[5.17245598,43.33320359],[5.17289574,43.33309577],[5.17335312,43.33345555],[5.17347665,43.33346206],[5.17348592,43.33338088],[5.17302718,43.33298513],[5.1724362,43.33300601],[5.17174416,43.33253664],[5.17165432,43.33221357],[5.17149129,43.33214035],[5.17151279,43.33182765],[5.17125576,43.33177881],[5.1708713,43.33139056],[5.1708384,43.33123733],[5.17107565,43.3309248],[5.17100252,43.33094696],[5.17075932,43.33070886],[5.17059028,43.32975564],[5.17028691,43.32939275],[5.1699142,43.32911946],[5.16993884,43.32902087],[5.16908785,43.32855198],[5.16874745,43.32818714],[5.1678477,43.328027],[5.16781266,43.32811139],[5.16764264,43.3281139],[5.16705712,43.32837672],[5.16675518,43.32841156],[5.16646651,43.32860273],[5.16615606,43.32867375],[5.16613673,43.32874973],[5.1657869,43.32875673],[5.16547847,43.32861892],[5.16530433,43.32798706],[5.16507001,43.32778747],[5.16406424,43.32742964],[5.16363362,43.32738606],[5.1634936,43.32726827],[5.16317633,43.32719003],[5.1624877,43.32739908],[5.16153643,43.32790226],[5.1613098,43.32849894],[5.16107491,43.32867822],[5.16062312,43.32866205],[5.1606378,43.32872475],[5.16104565,43.3287526],[5.16073549,43.32902877],[5.16033905,43.32904209],[5.16003307,43.32893661],[5.15979934,43.3286866],[5.15991491,43.32782307],[5.15983966,43.32765719],[5.15927484,43.32738769],[5.15900697,43.32737774],[5.15886946,43.32749118],[5.15869276,43.3275127],[5.15855742,43.32748661],[5.15853724,43.32740872],[5.15831191,43.32738262],[5.15810121,43.3276154],[5.1577039,43.32777002],[5.15749153,43.32776076],[5.15696541,43.32756967],[5.15632963,43.32764355],[5.15569528,43.32798646],[5.15553216,43.32827229],[5.15500964,43.32854008],[5.15477951,43.32831969],[5.15428074,43.32816764],[5.1542981,43.32830228],[5.15468332,43.3283846],[5.15490012,43.32857826],[5.1545027,43.32882916],[5.15458674,43.32893368],[5.15444345,43.32902472],[5.15406943,43.32957213],[5.1547133,43.32981308],[5.15507755,43.32969693],[5.15787543,43.32991471],[5.15844996,43.32998244],[5.15877718,43.33016129],[5.15888535,43.33031752],[5.15907577,43.33118844],[5.15904605,43.3315796],[5.15881554,43.33276491],[5.15887871,43.33293733],[5.15914901,43.33311012],[5.15943653,43.33315027],[5.15975151,43.33310079],[5.15990046,43.33299612],[5.16040166,43.33238946],[5.16078237,43.33215327],[5.16115982,43.33206024],[5.16219062,43.33213052],[5.16388292,43.33235136],[5.16384902,43.33246632],[5.16389987,43.3326057],[5.16407635,43.33270926],[5.16421428,43.33273799],[5.16501471,43.332353],[5.16546034,43.33220459],[5.16649046,43.33189598],[5.16686821,43.33187671],[5.16723533,43.33196835],[5.16747618,43.33207871],[5.16792934,43.3323927],[5.168249,43.33273007],[5.16836455,43.33298333],[5.16834492,43.3332807],[5.16821367,43.33349482],[5.16741377,43.33438558],[5.16737165,43.33454391],[5.16743388,43.33465786],[5.16761889,43.33469284],[5.1688846,43.33409151],[5.169142,43.33408455],[5.16936121,43.33417645],[5.1687349,43.33463447],[5.16796137,43.33530873],[5.16730831,43.33577718],[5.16678371,43.33628536],[5.16668951,43.33650143],[5.16505542,43.33776796],[5.16450513,43.33824964],[5.16394051,43.33884229],[5.16363458,43.33906799],[5.16365639,43.33918905],[5.16379938,43.33938507],[5.16377391,43.33946208],[5.16365299,43.33949239],[5.16194537,43.33909907],[5.15881663,43.3387503],[5.15790722,43.33859926],[5.15677697,43.33824654],[5.15640867,43.33809099],[5.1553686,43.33754477],[5.15402627,43.33686057],[5.1530423,43.3364617],[5.15246797,43.33626885],[5.15107056,43.33592408],[5.14954247,43.33564489],[5.13529948,43.33359265],[5.13557748,43.3342081],[5.13619139,43.33417348],[5.13738318,43.33426332],[5.13708071,43.33518272],[5.13700498,43.33603284],[5.13659276,43.33718478],[5.13631314,43.33759077],[5.13592874,43.33793044],[5.13600381,43.33845901],[5.13665217,43.33921923],[5.13648457,43.3396869],[5.1364543,43.3397685],[5.13721939,43.3395536],[5.13812454,43.33939172],[5.13904388,43.33931325],[5.13990694,43.33931327],[5.14094417,43.33942144],[5.14155472,43.33952724],[5.14508555,43.34037879],[5.14589898,43.34053544],[5.14710056,43.34068528],[5.1486058,43.34074538],[5.15031227,43.34064668],[5.15878357,43.33961219],[5.15984541,43.3395532],[5.16087511,43.33955783],[5.16180261,43.33963199],[5.16302856,43.33980636],[5.1650742,43.3402037],[5.16581604,43.34038953],[5.1667622,43.34072965],[5.16750543,43.34111613],[5.16790386,43.34138262],[5.16822272,43.34163181],[5.16882865,43.34223522],[5.16930428,43.34294743],[5.16960428,43.34374326],[5.16971807,43.34447262],[5.16963539,43.34885878],[5.17015431,43.34855769]]]]},"bbox":[5.13529948,43.32719003,5.18582717,43.34885878]},{"type":"Feature","id":"fr-quartier-13021-32ec339a5359","properties":{"id":"fr-quartier-13021-32ec339a5359","kind":"quartier","name":"Nord Romanon","cityCode":"13021","cityName":"Carry-le-Rouet","sourceType":"iris","sourceIds":["130210104"],"colorIndex":2,"center":[5.153519124705336,43.34964843]},"geometry":{"type":"MultiPolygon","coordinates":[[[[5.13150859,43.36622415],[5.13257688,43.3661923],[5.13496264,43.36636214],[5.13598834,43.36518187],[5.13872688,43.36445552],[5.13926664,43.36437555],[5.14827791,43.36207765],[5.16501059,43.35143977],[5.16963539,43.34885878],[5.16971807,43.34447262],[5.16960428,43.34374326],[5.16930428,43.34294743],[5.16882865,43.34223522],[5.16822272,43.34163181],[5.16790386,43.34138262],[5.16750543,43.34111613],[5.1667622,43.34072965],[5.16581604,43.34038953],[5.1650742,43.3402037],[5.16302856,43.33980636],[5.16180261,43.33963199],[5.16087511,43.33955783],[5.15984541,43.3395532],[5.15878357,43.33961219],[5.15031227,43.34064668],[5.1486058,43.34074538],[5.14710056,43.34068528],[5.14589898,43.34053544],[5.14508555,43.34037879],[5.14155472,43.33952724],[5.14094417,43.33942144],[5.13990694,43.33931327],[5.13904388,43.33931325],[5.13812454,43.33939172],[5.13721939,43.3395536],[5.1364543,43.3397685],[5.13634013,43.34008122],[5.13460697,43.34115665],[5.13492837,43.34197734],[5.1362847,43.3438404],[5.13703115,43.344551],[5.13805436,43.34517603],[5.14061827,43.34621423],[5.14149598,43.34630665],[5.14284759,43.34687384],[5.14328818,43.34784513],[5.14240259,43.34817135],[5.14213779,43.34837908],[5.14205014,43.34867509],[5.14153959,43.34887329],[5.14079067,43.34876302],[5.14040586,43.34949148],[5.14017746,43.34955089],[5.13955666,43.34950378],[5.13924131,43.34964591],[5.13839431,43.34965095],[5.13824569,43.34979968],[5.1382428,43.34995453],[5.13935447,43.35083338],[5.13930266,43.35096579],[5.13860248,43.35137201],[5.13854192,43.35163418],[5.13872122,43.35181333],[5.13940683,43.35217684],[5.13954693,43.35236306],[5.13932644,43.35266889],[5.13847533,43.3530295],[5.13843351,43.35323191],[5.13863509,43.35367879],[5.13707431,43.35382572],[5.13682692,43.35410509],[5.13683653,43.35443068],[5.13705697,43.3546882],[5.13793206,43.35470691],[5.13746238,43.35554323],[5.13752499,43.35586777],[5.13801645,43.35634942],[5.13786826,43.35714159],[5.13865321,43.35748875],[5.13898396,43.35805907],[5.13888828,43.35827245],[5.13835738,43.35848993],[5.13678979,43.35962062],[5.13617595,43.35979743],[5.13596858,43.3602254],[5.13530914,43.36060289],[5.1343875,43.36079476],[5.13564457,43.36139991],[5.13614393,43.36172753],[5.1365773,43.36217164],[5.1364617,43.3626464],[5.13622486,43.36291205],[5.13435829,43.36436719],[5.13241419,43.36556285],[5.13150859,43.36622415]]]]},"bbox":[5.13150859,43.33931325,5.16971807,43.36636214]},{"type":"Feature","id":"fr-quartier-13021-577323e6219f","properties":{"id":"fr-quartier-13021-577323e6219f","kind":"quartier","name":"Ouest","cityCode":"13021","cityName":"Carry-le-Rouet","sourceType":"iris","sourceIds":["130210101"],"colorIndex":3,"center":[5.135800799187756,43.328765895000004]},"geometry":{"type":"MultiPolygon","coordinates":[[[[5.14938785,43.3260791],[5.14942293,43.32602801],[5.14910921,43.32611074],[5.14901428,43.32604423],[5.14899162,43.32606448],[5.14874637,43.32619804],[5.14888237,43.32637442],[5.14869671,43.3265194],[5.14828253,43.32661852],[5.14806265,43.3265401],[5.14734706,43.3266884],[5.14726102,43.3267612],[5.14652109,43.32691808],[5.14623056,43.32709393],[5.14538766,43.32680288],[5.14493854,43.3267254],[5.14430804,43.3267424],[5.14371502,43.3274687],[5.14369808,43.32767601],[5.14360059,43.32764015],[5.14334742,43.32792594],[5.14305009,43.32851588],[5.14293085,43.32859114],[5.1428849,43.32858215],[5.14287126,43.32864631],[5.14271983,43.32851882],[5.14258699,43.32852686],[5.14252545,43.32862887],[5.14263216,43.32864745],[5.14262045,43.32873047],[5.14235201,43.32890408],[5.14227617,43.32891998],[5.14229102,43.32895478],[5.14206204,43.32942727],[5.14173345,43.32954177],[5.1412041,43.32956125],[5.14070635,43.32943612],[5.14076891,43.32912891],[5.14017396,43.3290417],[5.14015362,43.32882612],[5.13977336,43.3282127],[5.13929726,43.32800614],[5.13914127,43.32785534],[5.13895643,43.3278239],[5.13808659,43.32800219],[5.13800579,43.32798399],[5.13816761,43.3278269],[5.1378874,43.32784954],[5.1377615,43.32807791],[5.13720457,43.32821761],[5.13660829,43.32862625],[5.13632471,43.32862466],[5.13590192,43.32849262],[5.13582279,43.32855268],[5.13595467,43.32878495],[5.13578408,43.32870553],[5.13553229,43.32886349],[5.13545046,43.3288507],[5.1354464,43.32887418],[5.1354497,43.3289965],[5.1352548,43.32909304],[5.13530598,43.32920992],[5.13535642,43.32930702],[5.13488606,43.32958808],[5.13471012,43.32986333],[5.13434749,43.33252074],[5.13481848,43.33258884],[5.13529948,43.33359265],[5.14954247,43.33564489],[5.15107056,43.33592408],[5.15246797,43.33626885],[5.1530423,43.3364617],[5.15402627,43.33686057],[5.1553686,43.33754477],[5.15550792,43.33738001],[5.15549267,43.33720303],[5.15405905,43.33645135],[5.15458869,43.33630581],[5.15479128,43.33615149],[5.1548852,43.33622341],[5.15529221,43.33602992],[5.15557849,43.33583883],[5.15520282,43.33551874],[5.15463575,43.3347948],[5.15438932,43.33394118],[5.1538218,43.33290767],[5.15276884,43.33287104],[5.1516887,43.33289884],[5.15161614,43.33287059],[5.15161473,43.33283282],[5.15175256,43.33259519],[5.15104052,43.33247707],[5.14941927,43.33211064],[5.14716925,43.3326359],[5.14713659,43.33261945],[5.14932234,43.32937951],[5.1493325,43.32928841],[5.14968541,43.32906632],[5.14986703,43.32874684],[5.15001209,43.3281743],[5.14983342,43.32811036],[5.14979614,43.32800311],[5.14982159,43.32795851],[5.14971938,43.32756458],[5.14940302,43.32665115],[5.14931679,43.326256],[5.14938785,43.3260791]]]]},"bbox":[5.13434749,43.32602801,5.15557849,43.33754477]}]}