{"type":"FeatureCollection","metadata":{"sourceType":"iris","referenceFile":"chateaurenard-quartiers.geojson","source":"IGN / INSEE - Contours IRIS WFS Géoplateforme","sourceUrl":"https://geoservices.ign.fr/contoursiris","license":"Licence Ouverte / Open Licence 2.0","sourceYear":"2026"},"features":[{"type":"Feature","id":"fr-quartier-13027-423abf5df4ec","properties":{"id":"fr-quartier-13027-423abf5df4ec","kind":"quartier","name":"Clos Réginel","cityCode":"13027","cityName":"Châteaurenard","sourceType":"iris","sourceIds":["130270101"],"colorIndex":0,"center":[4.8178339752624835,43.871147725908735]},"geometry":{"type":"MultiPolygon","coordinates":[[[[4.84135954,43.86014903],[4.83188277,43.85880889],[4.8303341,43.85807605],[4.82645778,43.85687179],[4.82398896,43.85622537],[4.82254088,43.85594982],[4.82010544,43.85564571],[4.81720237,43.85491367],[4.81647073,43.85486825],[4.81416683,43.8549822],[4.8124287,43.85457991],[4.81120695,43.85441657],[4.80679815,43.85421063],[4.80582562,43.85409981],[4.80498961,43.85413614],[4.80349159,43.85428334],[4.8020782,43.85391963],[4.80121542,43.85342259],[4.79964851,43.85280395],[4.79654567,43.8523114],[4.79419274,43.8522088],[4.79365191,43.85158309],[4.79323123,43.85125785],[4.79275639,43.85182285],[4.79122536,43.85210633],[4.78896372,43.85174018],[4.78847076,43.85156913],[4.78802165,43.85259996],[4.7879599,43.85321037],[4.7881114,43.85383798],[4.78807616,43.8541032],[4.78803147,43.85422546],[4.78791477,43.85423277],[4.78794176,43.85441956],[4.78763628,43.85443626],[4.7885784,43.85564322],[4.78848356,43.85575279],[4.78846603,43.85618605],[4.78784166,43.85813699],[4.7875762,43.857883],[4.7867644,43.85786029],[4.78716717,43.85844779],[4.78854977,43.85969524],[4.78923581,43.86066696],[4.7909729,43.86131357],[4.79217743,43.86187709],[4.79501325,43.86288365],[4.79599688,43.86330404],[4.79754098,43.8644155],[4.79798946,43.86494821],[4.79821293,43.8654072],[4.79828117,43.86595427],[4.79813672,43.86638512],[4.79675837,43.86864651],[4.79685725,43.86953513],[4.79706289,43.86994132],[4.79812124,43.87035956],[4.7985119,43.87059526],[4.79926882,43.87143703],[4.79960276,43.87196532],[4.80018776,43.87240485],[4.80117425,43.87338325],[4.80045652,43.87331228],[4.80156012,43.87476762],[4.80128444,43.87569304],[4.80128691,43.87604766],[4.80156754,43.87665964],[4.80217838,43.87732467],[4.80194309,43.87740057],[4.80201593,43.87797367],[4.80189468,43.87839064],[4.80107725,43.87981649],[4.80301481,43.88182337],[4.80326407,43.88147989],[4.80338557,43.88146528],[4.8053524,43.88207098],[4.80536565,43.88260816],[4.80594347,43.88383903],[4.80665586,43.88393346],[4.80738204,43.88418788],[4.81051133,43.88635944],[4.81040106,43.88665022],[4.81265475,43.88699179],[4.81377075,43.88740893],[4.8149069,43.8887331],[4.81546067,43.88951244],[4.81687065,43.89012991],[4.81707111,43.89040562],[4.81666987,43.89133048],[4.81585249,43.89212632],[4.81523181,43.89288469],[4.81648199,43.89368035],[4.81664944,43.89389631],[4.81571937,43.89447709],[4.81629235,43.89472321],[4.81879793,43.89545834],[4.8189917,43.89548392],[4.81905959,43.895544],[4.81946365,43.89525461],[4.82008915,43.89492193],[4.82180271,43.89431903],[4.82194309,43.89423207],[4.8221295,43.89402732],[4.82226087,43.89397022],[4.82248507,43.89350649],[4.82292644,43.89290501],[4.82350854,43.89141],[4.82401688,43.8908407],[4.82415506,43.89045131],[4.82435684,43.89037773],[4.82474564,43.89011918],[4.82533408,43.88948643],[4.82751219,43.88753802],[4.82779851,43.88715065],[4.82862317,43.88569566],[4.82901858,43.88521735],[4.82948698,43.88538593],[4.82970799,43.88540833],[4.83390119,43.88568183],[4.83524804,43.88599676],[4.83661773,43.88609255],[4.83840604,43.88643332],[4.84007393,43.88666716],[4.8428487,43.88695072],[4.84333783,43.88706579],[4.8436218,43.88722572],[4.8437528,43.88708128],[4.84387529,43.88705851],[4.84551647,43.88719641],[4.84948311,43.88507957],[4.84949721,43.88501542],[4.84923913,43.88488656],[4.84915117,43.88478363],[4.84896219,43.88355989],[4.84913424,43.8831465],[4.84961354,43.88249745],[4.84986039,43.88204948],[4.84730199,43.88102341],[4.84612771,43.88069401],[4.84577045,43.88026797],[4.84557714,43.87979324],[4.84543827,43.87965516],[4.84529488,43.87960808],[4.84461355,43.87955118],[4.84414395,43.879461],[4.84234278,43.87867766],[4.84049784,43.87749986],[4.8399976,43.87696009],[4.83921618,43.8766537],[4.83754399,43.87554225],[4.83657544,43.87518139],[4.83611318,43.87496952],[4.83557138,43.87456726],[4.83504446,43.87424036],[4.83509985,43.87383435],[4.8362517,43.86913772],[4.83634051,43.86841699],[4.8365055,43.86805325],[4.83648461,43.86775205],[4.83634071,43.86772656],[4.8362693,43.86755673],[4.8362887,43.86661213],[4.83648506,43.86598592],[4.83676129,43.86544477],[4.837603,43.86422708],[4.83754626,43.86416503],[4.8375554,43.86406225],[4.83761901,43.86402878],[4.83775716,43.86403005],[4.8392707,43.86242747],[4.8394367,43.86217352],[4.84052024,43.86085812],[4.84135954,43.86014903]]]]},"bbox":[4.7867644,43.85125785,4.84986039,43.895544]},{"type":"Feature","id":"fr-quartier-13027-9f29cbcefe65","properties":{"id":"fr-quartier-13027-9f29cbcefe65","kind":"quartier","name":"La Pavillone","cityCode":"13027","cityName":"Châteaurenard","sourceType":"iris","sourceIds":["130270106"],"colorIndex":1,"center":[4.848257429993692,43.86991666675802]},"geometry":{"type":"MultiPolygon","coordinates":[[[[4.85662316,43.85904062],[4.85415755,43.85958034],[4.85263768,43.85963046],[4.85131718,43.85988241],[4.85096415,43.8598911],[4.85073908,43.85981751],[4.85068665,43.85992732],[4.84932642,43.8606048],[4.84544398,43.8604617],[4.84540286,43.86061362],[4.84338497,43.8604983],[4.84135954,43.86014903],[4.84052024,43.86085812],[4.8394367,43.86217352],[4.8392707,43.86242747],[4.83775716,43.86403005],[4.83761901,43.86402878],[4.8375554,43.86406225],[4.83754626,43.86416503],[4.837603,43.86422708],[4.83676129,43.86544477],[4.83648506,43.86598592],[4.8362887,43.86661213],[4.8362693,43.86755673],[4.83634071,43.86772656],[4.83648461,43.86775205],[4.8365055,43.86805325],[4.83634051,43.86841699],[4.8362517,43.86913772],[4.83509985,43.87383435],[4.83504446,43.87424036],[4.83557138,43.87456726],[4.83611318,43.87496952],[4.83657544,43.87518139],[4.83754399,43.87554225],[4.83921618,43.8766537],[4.8399976,43.87696009],[4.84049784,43.87749986],[4.84234278,43.87867766],[4.84414395,43.879461],[4.84461355,43.87955118],[4.84529488,43.87960808],[4.84543827,43.87965516],[4.84557714,43.87979324],[4.84577045,43.88026797],[4.84612771,43.88069401],[4.84730199,43.88102341],[4.84986039,43.88204948],[4.84991233,43.88211612],[4.84999687,43.88207508],[4.850585,43.88221184],[4.85156971,43.88229686],[4.85212089,43.88229201],[4.85273984,43.88215098],[4.85289875,43.88217708],[4.85348891,43.88241461],[4.85401146,43.88233282],[4.8539518,43.88210519],[4.85365486,43.88181408],[4.85361729,43.88165358],[4.85390782,43.88151722],[4.85322225,43.87922172],[4.85271199,43.87929789],[4.85216891,43.87932151],[4.85137805,43.87899557],[4.85044873,43.87846762],[4.85053555,43.87830502],[4.85066001,43.87780601],[4.85056077,43.87716317],[4.85044108,43.87681053],[4.8500836,43.87656994],[4.85016451,43.87649386],[4.84968181,43.87611407],[4.84959816,43.87583643],[4.84951103,43.87533651],[4.84974703,43.8747465],[4.85050636,43.87383256],[4.85079726,43.87324791],[4.8508441,43.87285014],[4.85072901,43.87137222],[4.85085425,43.87116665],[4.8511582,43.87110029],[4.85176451,43.871072],[4.85201684,43.87114063],[4.85225883,43.87146598],[4.85255375,43.87204159],[4.85271742,43.87294438],[4.85282846,43.87326026],[4.85307004,43.87341909],[4.85317781,43.87340375],[4.8532359,43.87354499],[4.85404368,43.87351237],[4.85479645,43.8735869],[4.85546694,43.87358],[4.8556643,43.87344972],[4.85583934,43.87301556],[4.85637603,43.87318017],[4.85690726,43.87344478],[4.85842784,43.87443789],[4.85779698,43.87486001],[4.85716629,43.87521101],[4.85693441,43.87516005],[4.85641083,43.8749016],[4.85619965,43.87487459],[4.85718374,43.87570941],[4.85767943,43.87606645],[4.85804894,43.87606376],[4.85897742,43.87587691],[4.85971575,43.87577432],[4.86056825,43.87573818],[4.86064444,43.87567027],[4.86071565,43.87567896],[4.8607496,43.87572789],[4.86181263,43.87569896],[4.86209812,43.87563828],[4.86264435,43.87544532],[4.86310559,43.87512689],[4.86324951,43.87511363],[4.8633744,43.87516551],[4.86341747,43.87522688],[4.86349766,43.87520571],[4.86462133,43.87451859],[4.86462777,43.87444917],[4.86451662,43.87439885],[4.86405755,43.87428787],[4.86390433,43.87413026],[4.86374391,43.87386655],[4.86377278,43.87364551],[4.86404768,43.87280365],[4.86407629,43.8724602],[4.86396834,43.87159248],[4.86381241,43.87093261],[4.86363879,43.87026405],[4.86324161,43.86964611],[4.86283102,43.86884567],[4.86260098,43.86827798],[4.8622154,43.86763374],[4.86145168,43.86775569],[4.86073446,43.86800647],[4.8603192,43.86809276],[4.85986335,43.86807893],[4.85921394,43.86792887],[4.85883265,43.86791196],[4.85823564,43.86795723],[4.85607465,43.86823345],[4.85608729,43.86709092],[4.8558116,43.86611173],[4.85578128,43.86514006],[4.85586778,43.86381985],[4.85581403,43.86308443],[4.85596606,43.86263266],[4.85625257,43.86229922],[4.85654171,43.86124291],[4.85672816,43.86081666],[4.85661202,43.86045857],[4.85652001,43.85965629],[4.85653057,43.85936895],[4.85662316,43.85904062]]]]},"bbox":[4.83504446,43.85904062,4.86462777,43.88241461]},{"type":"Feature","id":"fr-quartier-13027-4c5230374993","properties":{"id":"fr-quartier-13027-4c5230374993","kind":"quartier","name":"Le Grand Quartier","cityCode":"13027","cityName":"Châteaurenard","sourceType":"iris","sourceIds":["130270102"],"colorIndex":2,"center":[4.8461971717818715,43.89895612981956]},"geometry":{"type":"MultiPolygon","coordinates":[[[[4.81879793,43.89545834],[4.81837208,43.89604065],[4.8148177,43.90362706],[4.81183702,43.90358384],[4.81168667,43.90724106],[4.81111871,43.91162985],[4.81060188,43.91445329],[4.82120822,43.91294916],[4.83326633,43.91234953],[4.85305017,43.91131167],[4.88117197,43.90168576],[4.88111731,43.90070729],[4.88027758,43.89426288],[4.88026181,43.89060928],[4.88012727,43.88909389],[4.87989736,43.8883867],[4.87978353,43.88727333],[4.87963233,43.88721742],[4.87868401,43.88718333],[4.8765248,43.88670017],[4.87455101,43.88644242],[4.8726972,43.88635091],[4.87134133,43.88633726],[4.86975703,43.88618977],[4.86431065,43.88535754],[4.86374076,43.88532406],[4.86344645,43.88534439],[4.86283971,43.88544026],[4.86216135,43.88563007],[4.86191863,43.88562971],[4.86122235,43.885728],[4.8602224,43.88555961],[4.85915894,43.88535179],[4.85787817,43.88504413],[4.85635477,43.88462356],[4.85592989,43.88453266],[4.85564054,43.88451418],[4.85559707,43.88455542],[4.85449449,43.88490453],[4.85416177,43.88496869],[4.84992066,43.88510096],[4.84956735,43.88506734],[4.84956618,43.88503135],[4.84949721,43.88501542],[4.84948311,43.88507957],[4.84551647,43.88719641],[4.84387529,43.88705851],[4.8437528,43.88708128],[4.8436218,43.88722572],[4.84333783,43.88706579],[4.8428487,43.88695072],[4.84007393,43.88666716],[4.83840604,43.88643332],[4.83661773,43.88609255],[4.83524804,43.88599676],[4.83390119,43.88568183],[4.82970799,43.88540833],[4.82948698,43.88538593],[4.82901858,43.88521735],[4.82862317,43.88569566],[4.82779851,43.88715065],[4.82751219,43.88753802],[4.82533408,43.88948643],[4.82474564,43.89011918],[4.82435684,43.89037773],[4.82415506,43.89045131],[4.82401688,43.8908407],[4.82350854,43.89141],[4.82292644,43.89290501],[4.82248507,43.89350649],[4.82226087,43.89397022],[4.8221295,43.89402732],[4.82194309,43.89423207],[4.82180271,43.89431903],[4.82008915,43.89492193],[4.81946365,43.89525461],[4.81905959,43.895544],[4.8189917,43.89548392],[4.81879793,43.89545834]]]]},"bbox":[4.81060188,43.88451418,4.88117197,43.91445329]},{"type":"Feature","id":"fr-quartier-13027-cd12174b3291","properties":{"id":"fr-quartier-13027-cd12174b3291","kind":"quartier","name":"Le Jambo","cityCode":"13027","cityName":"Châteaurenard","sourceType":"iris","sourceIds":["130270105"],"colorIndex":3,"center":[4.855213330815401,43.883676930745]},"geometry":{"type":"MultiPolygon","coordinates":[[[[4.84949721,43.88501542],[4.84956618,43.88503135],[4.84956735,43.88506734],[4.84992066,43.88510096],[4.85416177,43.88496869],[4.85449449,43.88490453],[4.85559707,43.88455542],[4.85564054,43.88451418],[4.85592989,43.88453266],[4.85635477,43.88462356],[4.85787817,43.88504413],[4.85915894,43.88535179],[4.8602224,43.88555961],[4.86122235,43.885728],[4.86191863,43.88562971],[4.86216135,43.88563007],[4.86225055,43.88546472],[4.86219122,43.88528659],[4.86217988,43.88497713],[4.86232309,43.8845597],[4.86254713,43.88352967],[4.86251734,43.8831125],[4.86255595,43.88303712],[4.86246046,43.88308556],[4.86033861,43.88331979],[4.86028096,43.88338378],[4.86018201,43.88336476],[4.8598843,43.88347156],[4.85917751,43.88355201],[4.85882383,43.88354543],[4.85818509,43.88346089],[4.85764495,43.88346108],[4.85641183,43.88377552],[4.85625424,43.88363687],[4.85589158,43.88377536],[4.85556395,43.88380434],[4.85554482,43.88367504],[4.85561335,43.88352444],[4.85596188,43.88337269],[4.85604978,43.88331988],[4.85606034,43.88326209],[4.85585387,43.88230871],[4.8557486,43.88220969],[4.85548035,43.88218904],[4.85542587,43.88166156],[4.8549561,43.88045611],[4.85398096,43.88062661],[4.85334775,43.87917728],[4.85322225,43.87922172],[4.85390782,43.88151722],[4.85361729,43.88165358],[4.85365486,43.88181408],[4.8539518,43.88210519],[4.85401146,43.88233282],[4.85348891,43.88241461],[4.85289875,43.88217708],[4.85273984,43.88215098],[4.85212089,43.88229201],[4.85156971,43.88229686],[4.850585,43.88221184],[4.84999687,43.88207508],[4.84991233,43.88211612],[4.84986039,43.88204948],[4.84961354,43.88249745],[4.84913424,43.8831465],[4.84896219,43.88355989],[4.84915117,43.88478363],[4.84923913,43.88488656],[4.84949721,43.88501542]]]]},"bbox":[4.84896219,43.87917728,4.86255595,43.885728]},{"type":"Feature","id":"fr-quartier-13027-e91b4709e396","properties":{"id":"fr-quartier-13027-e91b4709e396","kind":"quartier","name":"Pierredon","cityCode":"13027","cityName":"Châteaurenard","sourceType":"iris","sourceIds":["130270103"],"colorIndex":4,"center":[4.869892317450459,43.872090660261144]},"geometry":{"type":"MultiPolygon","coordinates":[[[[4.87963233,43.88721742],[4.8794062,43.88533902],[4.87945643,43.88516352],[4.87985858,43.88482713],[4.8798092,43.88468845],[4.87992812,43.88455768],[4.88000826,43.884081],[4.87966749,43.88412648],[4.87848685,43.88402798],[4.87915666,43.88358076],[4.87945082,43.88295097],[4.87946862,43.88231963],[4.87963503,43.88189278],[4.87964531,43.88050362],[4.87994663,43.87929849],[4.8798612,43.87916043],[4.8792719,43.87914087],[4.87890089,43.87951453],[4.87864126,43.87952891],[4.87871588,43.87846811],[4.87889941,43.87780512],[4.87886565,43.87746003],[4.87913923,43.87669737],[4.87952536,43.87387226],[4.87948222,43.8733932],[4.87923541,43.87304008],[4.87917694,43.87224623],[4.87932449,43.87223019],[4.87924288,43.87164108],[4.87906608,43.87160001],[4.8785973,43.86949177],[4.87876161,43.86741313],[4.87890362,43.86654832],[4.87929806,43.86518767],[4.88157564,43.86063855],[4.8817085,43.86063086],[4.88184493,43.8600893],[4.88197,43.85999623],[4.8799856,43.85935081],[4.87863164,43.85914909],[4.87859919,43.85922166],[4.87660354,43.85910297],[4.8764962,43.8590166],[4.87571156,43.85895178],[4.87567618,43.85889748],[4.87427389,43.85885226],[4.87426971,43.85891444],[4.87346588,43.85890935],[4.86874623,43.86055388],[4.86688797,43.86049027],[4.86686584,43.86042224],[4.86605519,43.86051352],[4.86594835,43.86025159],[4.86487539,43.86038696],[4.86480478,43.86028195],[4.86372157,43.86033196],[4.86372047,43.86025997],[4.86152161,43.86024259],[4.86051797,43.86029122],[4.86050555,43.86044446],[4.86011573,43.86058433],[4.86004507,43.86047751],[4.85866804,43.85975654],[4.85662316,43.85904062],[4.85653057,43.85936895],[4.85652001,43.85965629],[4.85661202,43.86045857],[4.85672816,43.86081666],[4.85654171,43.86124291],[4.85625257,43.86229922],[4.85596606,43.86263266],[4.85581403,43.86308443],[4.85586778,43.86381985],[4.85578128,43.86514006],[4.8558116,43.86611173],[4.85608729,43.86709092],[4.85607465,43.86823345],[4.85823564,43.86795723],[4.85883265,43.86791196],[4.85921394,43.86792887],[4.85986335,43.86807893],[4.8603192,43.86809276],[4.86073446,43.86800647],[4.86145168,43.86775569],[4.8622154,43.86763374],[4.86260098,43.86827798],[4.86283102,43.86884567],[4.86324161,43.86964611],[4.86363879,43.87026405],[4.86381241,43.87093261],[4.86396834,43.87159248],[4.86407629,43.8724602],[4.86404768,43.87280365],[4.86377278,43.87364551],[4.86374391,43.87386655],[4.86390433,43.87413026],[4.86405755,43.87428787],[4.86451662,43.87439885],[4.86462777,43.87444917],[4.86462133,43.87451859],[4.86349766,43.87520571],[4.86341747,43.87522688],[4.8633744,43.87516551],[4.86324951,43.87511363],[4.86310559,43.87512689],[4.86264435,43.87544532],[4.86209812,43.87563828],[4.86181263,43.87569896],[4.8607496,43.87572789],[4.86071952,43.87579772],[4.86062769,43.87580558],[4.85976634,43.87709851],[4.86042972,43.87740677],[4.86077115,43.87761159],[4.86139832,43.87822112],[4.86158361,43.87852222],[4.86167909,43.87877894],[4.86172263,43.87950374],[4.86155172,43.88017819],[4.86110324,43.88096629],[4.86019571,43.88290634],[4.86017654,43.8830822],[4.86022091,43.88325968],[4.8601661,43.88329662],[4.86018201,43.88336476],[4.86028096,43.88338378],[4.86033861,43.88331979],[4.86246046,43.88308556],[4.86255595,43.88303712],[4.86251734,43.8831125],[4.86254713,43.88352967],[4.86232309,43.8845597],[4.86217988,43.88497713],[4.86219122,43.88528659],[4.86225055,43.88546472],[4.86216135,43.88563007],[4.86283971,43.88544026],[4.86344645,43.88534439],[4.86374076,43.88532406],[4.86431065,43.88535754],[4.86975703,43.88618977],[4.87134133,43.88633726],[4.8726972,43.88635091],[4.87455101,43.88644242],[4.8765248,43.88670017],[4.87868401,43.88718333],[4.87963233,43.88721742]]]]},"bbox":[4.85578128,43.85885226,4.88197,43.88721742]},{"type":"Feature","id":"fr-quartier-13027-56b522a8a43f","properties":{"id":"fr-quartier-13027-56b522a8a43f","kind":"quartier","name":"Rue des Remparts","cityCode":"13027","cityName":"Châteaurenard","sourceType":"iris","sourceIds":["130270104"],"colorIndex":5,"center":[4.855740016510989,43.87776749251501]},"geometry":{"type":"MultiPolygon","coordinates":[[[[4.85322225,43.87922172],[4.85334775,43.87917728],[4.85398096,43.88062661],[4.8549561,43.88045611],[4.85542587,43.88166156],[4.85548035,43.88218904],[4.8557486,43.88220969],[4.85585387,43.88230871],[4.85606034,43.88326209],[4.85604978,43.88331988],[4.85596188,43.88337269],[4.85561335,43.88352444],[4.85554482,43.88367504],[4.85556395,43.88380434],[4.85589158,43.88377536],[4.85625424,43.88363687],[4.85641183,43.88377552],[4.85764495,43.88346108],[4.85818509,43.88346089],[4.85882383,43.88354543],[4.85917751,43.88355201],[4.8598843,43.88347156],[4.86018201,43.88336476],[4.8601661,43.88329662],[4.86022091,43.88325968],[4.86017654,43.8830822],[4.86019571,43.88290634],[4.86110324,43.88096629],[4.86155172,43.88017819],[4.86172263,43.87950374],[4.86167909,43.87877894],[4.86158361,43.87852222],[4.86139832,43.87822112],[4.86077115,43.87761159],[4.86042972,43.87740677],[4.85976634,43.87709851],[4.86062769,43.87580558],[4.86071952,43.87579772],[4.8607496,43.87572789],[4.86071565,43.87567896],[4.86064444,43.87567027],[4.86056825,43.87573818],[4.85971575,43.87577432],[4.85897742,43.87587691],[4.85804894,43.87606376],[4.85767943,43.87606645],[4.85718374,43.87570941],[4.85619965,43.87487459],[4.85641083,43.8749016],[4.85693441,43.87516005],[4.85716629,43.87521101],[4.85779698,43.87486001],[4.85842784,43.87443789],[4.85690726,43.87344478],[4.85637603,43.87318017],[4.85583934,43.87301556],[4.8556643,43.87344972],[4.85546694,43.87358],[4.85479645,43.8735869],[4.85404368,43.87351237],[4.8532359,43.87354499],[4.85317781,43.87340375],[4.85307004,43.87341909],[4.85282846,43.87326026],[4.85271742,43.87294438],[4.85255375,43.87204159],[4.85225883,43.87146598],[4.85201684,43.87114063],[4.85176451,43.871072],[4.8511582,43.87110029],[4.85085425,43.87116665],[4.85072901,43.87137222],[4.8508441,43.87285014],[4.85079726,43.87324791],[4.85050636,43.87383256],[4.84974703,43.8747465],[4.84951103,43.87533651],[4.84959816,43.87583643],[4.84968181,43.87611407],[4.85016451,43.87649386],[4.8500836,43.87656994],[4.85044108,43.87681053],[4.85056077,43.87716317],[4.85066001,43.87780601],[4.85053555,43.87830502],[4.85044873,43.87846762],[4.85137805,43.87899557],[4.85216891,43.87932151],[4.85271199,43.87929789],[4.85322225,43.87922172]]]]},"bbox":[4.84951103,43.871072,4.86172263,43.88380434]}]}