{"type":"FeatureCollection","metadata":{"sourceType":"iris","source":"IGN / INSEE — Contours IRIS 2026","sourceUrl":"https://data.geopf.fr/wfs/ows?service=WFS&version=2.0.0&request=GetFeature&typeNames=STATISTICALUNITS.IRIS%3Acontours_iris&outputFormat=application%2Fjson&srsName=CRS%3A84&count=1000&CQL_FILTER=code_insee%3D%2713026%27&sortBy=code_iris","retrievedDate":"2026-09-10","sourceYear":"2026","license":"Licence Ouverte 2.0"},"features":[{"type":"Feature","id":"fr-quartier-13026-465227eab9b7","properties":{"id":"fr-quartier-13026-465227eab9b7","kind":"quartier","name":"La Bérarde","cityCode":"13026","cityName":"Châteauneuf-les-Martigues","sourceType":"iris","sourceIds":["130260105"],"colorIndex":0,"center":[5.102398109291976,43.401856875]},"geometry":{"type":"MultiPolygon","coordinates":[[[[5.09747327,43.39965069],[5.09693717,43.40031624],[5.09679547,43.40072936],[5.09689791,43.40072918],[5.09691019,43.40065964],[5.09721763,43.40059519],[5.09725062,43.40051806],[5.0986808,43.40081433],[5.09855529,43.40109574],[5.09864228,43.40111206],[5.09867415,43.40110604],[5.09876999,43.40106008],[5.09888514,43.40103625],[5.09972747,43.4013565],[5.10012647,43.40143336],[5.10074921,43.40135018],[5.10214391,43.40185678],[5.10230623,43.40184013],[5.10236163,43.40190385],[5.10238446,43.40192051],[5.10245866,43.40185697],[5.10376672,43.40184956],[5.10486066,43.40206229],[5.10535501,43.40207968],[5.10556863,43.40218352],[5.10590132,43.40216805],[5.10778682,43.40276133],[5.10904377,43.40304284],[5.11175618,43.40329595],[5.11218722,43.40326955],[5.11391059,43.4034789],[5.11429053,43.40374147],[5.11534127,43.40378394],[5.11543917,43.40409702],[5.11493611,43.40417884],[5.11476739,43.40429013],[5.11479536,43.40437958],[5.11516672,43.40440833],[5.11512783,43.40455938],[5.11527389,43.40463752],[5.11535421,43.40480785],[5.11553997,43.40479072],[5.11551837,43.40457245],[5.11562191,43.40446783],[5.11600877,43.40428028],[5.11637172,43.40421469],[5.11719134,43.40424906],[5.11752591,43.40445221],[5.11733596,43.40459002],[5.11770569,43.40447389],[5.11772161,43.40440338],[5.11767365,43.40437462],[5.11765406,43.40431201],[5.11790368,43.40421893],[5.11805144,43.40427634],[5.11803708,43.40435582],[5.11822939,43.40438265],[5.11826401,43.40458537],[5.11863848,43.40456454],[5.11870924,43.40450826],[5.11868275,43.40419109],[5.11856027,43.40418359],[5.11858841,43.40404264],[5.11826011,43.40394287],[5.11811087,43.40357681],[5.11814257,43.40343219],[5.11824346,43.40338972],[5.11825726,43.40326166],[5.11841997,43.40325577],[5.11836666,43.40314882],[5.11876012,43.40277214],[5.11899149,43.40268661],[5.11885383,43.40263531],[5.1188852,43.4024817],[5.11911757,43.40238986],[5.11944798,43.40241309],[5.11952161,43.40233425],[5.11981762,43.40232846],[5.11866791,43.40227896],[5.1186026,43.40218125],[5.11868534,43.40214903],[5.11864962,43.40211733],[5.11993768,43.40170063],[5.11909637,43.4018476],[5.11903162,43.40166437],[5.11921905,43.40155901],[5.11894545,43.40153647],[5.118745,43.40142249],[5.11838663,43.4016455],[5.11819322,43.40189047],[5.11813069,43.4017675],[5.11791033,43.40181681],[5.11787971,43.40165541],[5.11827845,43.40142262],[5.11819494,43.40083028],[5.12102517,43.39858797],[5.12291472,43.397282],[5.12321773,43.39713206],[5.12376038,43.39712142],[5.12398369,43.39701894],[5.12351395,43.39579431],[5.12353277,43.39570215],[5.12319398,43.39468104],[5.12357757,43.39450793],[5.12362993,43.39435481],[5.12301931,43.39459627],[5.12246276,43.39473138],[5.12201352,43.39479778],[5.12155061,43.39482846],[5.11994397,43.39483383],[5.11907306,43.39491118],[5.11850661,43.39501226],[5.11743093,43.39532759],[5.11376494,43.39692466],[5.1130077,43.39714103],[5.11241968,43.3972605],[5.11175487,43.39733916],[5.11105115,43.39736639],[5.10724772,43.39737479],[5.10614312,43.39750968],[5.10549571,43.39765906],[5.10475467,43.39791466],[5.10409966,43.39822798],[5.10230436,43.3993896],[5.10173106,43.39964281],[5.10108682,43.39981281],[5.10031993,43.39990239],[5.1001099,43.39989656],[5.09747327,43.39965069]]]]},"bbox":[5.09679547,43.39435481,5.12398369,43.40480785]},{"type":"Feature","id":"fr-quartier-13026-4ca0850bb0dd","properties":{"id":"fr-quartier-13026-4ca0850bb0dd","kind":"quartier","name":"La Valampe","cityCode":"13026","cityName":"Châteauneuf-les-Martigues","sourceType":"iris","sourceIds":["130260107"],"colorIndex":1,"center":[5.1270000399328595,43.391374015]},"geometry":{"type":"MultiPolygon","coordinates":[[[[5.12398369,43.39701894],[5.12429871,43.39699386],[5.12474767,43.39712004],[5.12534833,43.39700926],[5.1257853,43.39714467],[5.1263149,43.39744926],[5.12695119,43.39763475],[5.12723515,43.39797116],[5.12750821,43.3976454],[5.12753577,43.39765656],[5.12754974,43.39763379],[5.12762917,43.39761243],[5.12777916,43.39766348],[5.1280225,43.3975687],[5.12873515,43.39748269],[5.12940379,43.39754154],[5.13009342,43.39783396],[5.13049007,43.39788015],[5.13135237,43.39816917],[5.13180435,43.39837626],[5.13225433,43.39886238],[5.132603,43.39894551],[5.1332001,43.39807248],[5.13353179,43.39773116],[5.13427596,43.39709731],[5.13478826,43.39653464],[5.13662769,43.39491892],[5.13691974,43.39450817],[5.13710415,43.39442263],[5.13713217,43.39427989],[5.13692262,43.39412023],[5.13682762,43.39392142],[5.13683402,43.39349561],[5.13691458,43.39337162],[5.13704509,43.39333035],[5.13753664,43.39337374],[5.13763993,43.3933303],[5.13769792,43.39323016],[5.13765631,43.39300689],[5.13774769,43.39157955],[5.13764604,43.39116848],[5.13752176,43.39107824],[5.13676651,43.3900474],[5.13716622,43.38961203],[5.13705715,43.3893001],[5.13745567,43.38873335],[5.1372621,43.38853829],[5.13741092,43.38829236],[5.13742941,43.38776012],[5.13735722,43.38764365],[5.13676522,43.38715316],[5.13627872,43.38634651],[5.13632766,43.38603596],[5.13648504,43.38572147],[5.13650489,43.38545829],[5.13622733,43.38499489],[5.13601444,43.384811],[5.13589167,43.38456144],[5.13575993,43.38446954],[5.13525882,43.38436603],[5.1348322,43.38420796],[5.134425,43.38414129],[5.13401611,43.38412866],[5.13383346,43.38399456],[5.13312012,43.38402392],[5.13272229,43.38414336],[5.13231484,43.3838364],[5.13201552,43.383917],[5.13190768,43.38377063],[5.13157226,43.38400942],[5.13085725,43.38489375],[5.13047198,43.38545301],[5.1295986,43.3852929],[5.12938712,43.38531326],[5.12876626,43.38550817],[5.12811914,43.38559379],[5.12679169,43.38560098],[5.12621091,43.38574558],[5.12529173,43.38574834],[5.12482725,43.38590145],[5.12326122,43.38586378],[5.12272411,43.38568713],[5.12259587,43.38589033],[5.12145511,43.38600809],[5.11935146,43.38631568],[5.11563884,43.3866268],[5.11493637,43.38661713],[5.11473389,43.38718535],[5.11479483,43.38743345],[5.1156874,43.38791458],[5.11592015,43.38867408],[5.11614556,43.38883077],[5.1163971,43.38889245],[5.11649098,43.38899591],[5.11623047,43.38919359],[5.11621264,43.38951432],[5.11626141,43.38980045],[5.11602654,43.39005793],[5.1160451,43.39019346],[5.11629125,43.39054503],[5.11634058,43.39074565],[5.11628869,43.39097885],[5.1163113,43.39159398],[5.11654888,43.39177922],[5.11741355,43.39230499],[5.11776571,43.39194802],[5.11864296,43.39194345],[5.11866925,43.39272499],[5.11853573,43.39352317],[5.11854071,43.39372556],[5.11858667,43.39383445],[5.11891751,43.39420596],[5.11903442,43.39453216],[5.11907306,43.39491118],[5.11994397,43.39483383],[5.12155061,43.39482846],[5.12201352,43.39479778],[5.12246276,43.39473138],[5.12301931,43.39459627],[5.12362993,43.39435481],[5.12357757,43.39450793],[5.12319398,43.39468104],[5.12353277,43.39570215],[5.12351395,43.39579431],[5.12398369,43.39701894]]]]},"bbox":[5.11473389,43.38377063,5.13774769,43.39894551]},{"type":"Feature","id":"fr-quartier-13026-3313f01c2e21","properties":{"id":"fr-quartier-13026-3313f01c2e21","kind":"quartier","name":"Le Clos","cityCode":"13026","cityName":"Châteauneuf-les-Martigues","sourceType":"iris","sourceIds":["130260106"],"colorIndex":2,"center":[5.1094336935329965,43.391945735]},"geometry":{"type":"MultiPolygon","coordinates":[[[[5.10361999,43.38851334],[5.10180252,43.39247332],[5.0999333,43.39688245],[5.09906761,43.39774789],[5.098475,43.39872413],[5.09783663,43.39939346],[5.09747327,43.39965069],[5.1001099,43.39989656],[5.10031993,43.39990239],[5.10108682,43.39981281],[5.10173106,43.39964281],[5.10230436,43.3993896],[5.10409966,43.39822798],[5.10475467,43.39791466],[5.10549571,43.39765906],[5.10614312,43.39750968],[5.10724772,43.39737479],[5.11105115,43.39736639],[5.11175487,43.39733916],[5.11241968,43.3972605],[5.1130077,43.39714103],[5.11376494,43.39692466],[5.11743093,43.39532759],[5.11850661,43.39501226],[5.11907306,43.39491118],[5.11903442,43.39453216],[5.11891751,43.39420596],[5.11858667,43.39383445],[5.11854071,43.39372556],[5.11853573,43.39352317],[5.11866925,43.39272499],[5.11864296,43.39194345],[5.11776571,43.39194802],[5.11741355,43.39230499],[5.11654888,43.39177922],[5.1163113,43.39159398],[5.11628869,43.39097885],[5.11634058,43.39074565],[5.11629125,43.39054503],[5.1160451,43.39019346],[5.11602654,43.39005793],[5.11626141,43.38980045],[5.11621264,43.38951432],[5.11623047,43.38919359],[5.11649098,43.38899591],[5.1163971,43.38889245],[5.11614556,43.38883077],[5.11592015,43.38867408],[5.1156874,43.38791458],[5.11479483,43.38743345],[5.11473389,43.38718535],[5.11493637,43.38661713],[5.11410984,43.38635429],[5.11369248,43.38631294],[5.11321664,43.38635913],[5.11282583,43.38643606],[5.11242573,43.38659596],[5.1100503,43.38723355],[5.10851048,43.38770993],[5.10729426,43.38772282],[5.1052063,43.38782194],[5.10446652,43.3882773],[5.10409573,43.38832861],[5.10361999,43.38851334]]]]},"bbox":[5.09747327,43.38631294,5.11907306,43.39990239]},{"type":"Feature","id":"fr-quartier-13026-e70336990e52","properties":{"id":"fr-quartier-13026-e70336990e52","kind":"quartier","name":"Plaine Centre","cityCode":"13026","cityName":"Châteauneuf-les-Martigues","sourceType":"iris","sourceIds":["130260103"],"colorIndex":3,"center":[5.14846552018797,43.384286995]},"geometry":{"type":"MultiPolygon","coordinates":[[[[5.13190768,43.38377063],[5.13201552,43.383917],[5.13231484,43.3838364],[5.13272229,43.38414336],[5.13312012,43.38402392],[5.13383346,43.38399456],[5.13401611,43.38412866],[5.134425,43.38414129],[5.1348322,43.38420796],[5.13525882,43.38436603],[5.13575993,43.38446954],[5.13589167,43.38456144],[5.13601444,43.384811],[5.13622733,43.38499489],[5.13650489,43.38545829],[5.13648504,43.38572147],[5.13632766,43.38603596],[5.13627872,43.38634651],[5.13676522,43.38715316],[5.13735722,43.38764365],[5.13742941,43.38776012],[5.13741092,43.38829236],[5.1372621,43.38853829],[5.13745567,43.38873335],[5.13705715,43.3893001],[5.13716622,43.38961203],[5.13676651,43.3900474],[5.13752176,43.39107824],[5.13754881,43.39094271],[5.13769238,43.39085438],[5.13917384,43.39023924],[5.13933033,43.39013355],[5.14001415,43.39010474],[5.14051042,43.38991043],[5.14045265,43.38981708],[5.14086089,43.38964522],[5.14100648,43.38947854],[5.14161147,43.38922179],[5.14197678,43.38968704],[5.14213453,43.38981441],[5.14237278,43.3897503],[5.14240582,43.38961015],[5.14258795,43.38956335],[5.14280152,43.38956542],[5.14302523,43.3894422],[5.14296493,43.38938039],[5.14321899,43.38924397],[5.14457517,43.38864743],[5.14470598,43.38844865],[5.1448659,43.38836899],[5.14519929,43.38900405],[5.1455269,43.38885446],[5.14580528,43.38884085],[5.14729445,43.38843603],[5.14757529,43.38815777],[5.14833287,43.38785745],[5.1501024,43.38736154],[5.15134963,43.38708837],[5.15156646,43.38701296],[5.15336441,43.38625544],[5.15517126,43.38527542],[5.15656458,43.38735628],[5.1571754,43.38722441],[5.15736834,43.38749955],[5.15807076,43.38694737],[5.15967431,43.3866346],[5.16169995,43.38662027],[5.16181455,43.38579451],[5.16185957,43.38482435],[5.16191928,43.38358841],[5.16210103,43.38271092],[5.16220917,43.38253507],[5.16267324,43.38227561],[5.16294533,43.38202988],[5.16327345,43.38133756],[5.1633761,43.38098272],[5.16360969,43.38059917],[5.16363894,43.38032679],[5.16375802,43.38004813],[5.16359262,43.37975085],[5.16333442,43.37951212],[5.16332695,43.37944477],[5.16372936,43.37935123],[5.16364078,43.37906232],[5.16339977,43.37895284],[5.16314515,43.37841525],[5.16279926,43.37823947],[5.16245061,43.37815465],[5.16140374,43.37803966],[5.16081382,43.37773916],[5.16069912,43.37695129],[5.15955312,43.37698856],[5.15915539,43.37664731],[5.15754415,43.37654985],[5.15664294,43.37669921],[5.15580824,43.37707672],[5.15489881,43.37730362],[5.15452375,43.37756758],[5.15269399,43.37848954],[5.15157658,43.37866566],[5.14982471,43.37840439],[5.14748772,43.37836619],[5.14648381,43.3784761],[5.1444604,43.37933787],[5.1432511,43.37956521],[5.14252965,43.37957409],[5.14166336,43.37943735],[5.14042518,43.37938625],[5.13917166,43.37948663],[5.1380109,43.37952666],[5.13683942,43.37977658],[5.1359729,43.38019867],[5.13355677,43.3825214],[5.13290692,43.38306518],[5.13270661,43.38318702],[5.1324835,43.38325981],[5.13251956,43.3833005],[5.13244168,43.38342983],[5.13236386,43.38349436],[5.13217771,43.38353222],[5.13190768,43.38377063]]]]},"bbox":[5.13190768,43.37654985,5.16375802,43.39107824]},{"type":"Feature","id":"fr-quartier-13026-7abc9136fe06","properties":{"id":"fr-quartier-13026-7abc9136fe06","kind":"quartier","name":"Plaine Est","cityCode":"13026","cityName":"Châteauneuf-les-Martigues","sourceType":"iris","sourceIds":["130260101"],"colorIndex":4,"center":[5.178616772245667,43.385370885]},"geometry":{"type":"MultiPolygon","coordinates":[[[[5.19608649,43.39255278],[5.1953735,43.38657431],[5.19546062,43.38251636],[5.19199468,43.38170824],[5.18887504,43.38059422],[5.18788856,43.38041528],[5.18680299,43.38035622],[5.18586194,43.38043103],[5.18378082,43.38076643],[5.18228967,43.3808145],[5.17751938,43.380385],[5.17682787,43.38037012],[5.17483694,43.38048124],[5.17428477,43.38046443],[5.17402376,43.38041388],[5.17366961,43.38060908],[5.17280595,43.38074072],[5.17200465,43.38075951],[5.17094879,43.38070239],[5.17064134,43.38072926],[5.17003291,43.38088905],[5.16888253,43.3813036],[5.16763412,43.38226097],[5.16698989,43.38268335],[5.1666253,43.38279864],[5.16608731,43.38289671],[5.16717533,43.38410248],[5.16808579,43.38481861],[5.1674367,43.38485051],[5.16670487,43.38481477],[5.164221,43.38494726],[5.16405897,43.384937],[5.16402581,43.38480986],[5.16391682,43.38476615],[5.16185957,43.38482435],[5.16181455,43.38579451],[5.16169995,43.38662027],[5.16189122,43.38793489],[5.16196992,43.38897908],[5.162204,43.38995447],[5.16227852,43.39009877],[5.16247246,43.39023529],[5.16280008,43.39025125],[5.16406724,43.39004863],[5.16614623,43.39010424],[5.16759111,43.39006632],[5.16859929,43.39013072],[5.16974659,43.39031742],[5.17001524,43.39047133],[5.17046918,43.39043343],[5.17171093,43.39070282],[5.17353104,43.39083008],[5.17484462,43.3908766],[5.17559278,43.39098306],[5.17672946,43.39131209],[5.17866847,43.39200386],[5.17930377,43.39219267],[5.1801409,43.39239901],[5.18174796,43.39266632],[5.18351015,43.39285848],[5.18435702,43.3928981],[5.18582638,43.39288554],[5.18769781,43.39296383],[5.1893563,43.39321919],[5.19105439,43.39324963],[5.1938486,43.39344774],[5.19509898,43.39371218],[5.19608649,43.39255278]]]]},"bbox":[5.16169995,43.38035622,5.19608649,43.39371218]},{"type":"Feature","id":"fr-quartier-13026-870901fa3b72","properties":{"id":"fr-quartier-13026-870901fa3b72","kind":"quartier","name":"Plaine Nord","cityCode":"13026","cityName":"Châteauneuf-les-Martigues","sourceType":"iris","sourceIds":["130260104"],"colorIndex":5,"center":[5.160498852185181,43.39790182]},"geometry":{"type":"MultiPolygon","coordinates":[[[[5.132603,43.39894551],[5.13295666,43.39916353],[5.13365132,43.39925784],[5.13419265,43.39921117],[5.13521232,43.39941605],[5.13671699,43.39938637],[5.1371003,43.3995048],[5.13708865,43.39982271],[5.13642564,43.3998502],[5.13642935,43.39995002],[5.13762716,43.40043126],[5.13782274,43.40057949],[5.13782821,43.40059378],[5.13785974,43.40057876],[5.13793475,43.40060428],[5.13794642,43.40065265],[5.13800975,43.4006298],[5.13821865,43.40063827],[5.13837437,43.40077649],[5.13860168,43.4007819],[5.13898273,43.40093907],[5.13899927,43.40101884],[5.13908514,43.40100454],[5.1395076,43.40111319],[5.13966218,43.40125413],[5.13967496,43.40129887],[5.13973719,43.40127964],[5.14027619,43.40143548],[5.14045191,43.4015805],[5.14048132,43.40164112],[5.14058362,43.401604],[5.14166416,43.40204971],[5.14215634,43.40240626],[5.14217064,43.40245908],[5.14225841,43.40242944],[5.1425455,43.40248226],[5.14351393,43.40293287],[5.14375799,43.40318903],[5.14375857,43.40323762],[5.14382067,43.40321479],[5.14403824,43.40319068],[5.14502023,43.40364012],[5.14507385,43.40372095],[5.14508706,43.40377739],[5.14519563,43.40374284],[5.14593298,43.40405312],[5.14613071,43.40425799],[5.14614746,43.40430986],[5.14621839,43.40429225],[5.14644486,43.40434086],[5.14775,43.40501426],[5.14785306,43.40509681],[5.1478576,43.40511922],[5.14783295,43.4051863],[5.14789368,43.4051599],[5.14795375,43.40514881],[5.14815846,43.40520955],[5.14908401,43.40566636],[5.15138742,43.40685718],[5.15331265,43.40796728],[5.15360469,43.40815137],[5.1536161,43.40835724],[5.15390732,43.40789246],[5.15414202,43.40789679],[5.15501182,43.40818097],[5.15510832,43.40831855],[5.15522964,43.40822883],[5.15537471,43.40827905],[5.15623465,43.40872811],[5.15622933,43.40875072],[5.15626,43.40874561],[5.1565291,43.40881135],[5.15920379,43.41028261],[5.16528686,43.41407695],[5.16947536,43.41694867],[5.17173074,43.41860984],[5.18412191,43.4073241],[5.18488918,43.40669214],[5.18534958,43.40610595],[5.1858328,43.40569841],[5.18607008,43.40564052],[5.18602718,43.405096],[5.18667365,43.40102582],[5.18685118,43.40072794],[5.186939,43.40031038],[5.1869188,43.3998437],[5.18724011,43.39878243],[5.18788028,43.39734303],[5.19105439,43.39324963],[5.1893563,43.39321919],[5.18769781,43.39296383],[5.18582638,43.39288554],[5.18435702,43.3928981],[5.18351015,43.39285848],[5.18174796,43.39266632],[5.1801409,43.39239901],[5.17930377,43.39219267],[5.17866847,43.39200386],[5.17672946,43.39131209],[5.17559278,43.39098306],[5.17484462,43.3908766],[5.17353104,43.39083008],[5.17171093,43.39070282],[5.17046918,43.39043343],[5.17001524,43.39047133],[5.16974659,43.39031742],[5.16859929,43.39013072],[5.16759111,43.39006632],[5.16614623,43.39010424],[5.16406724,43.39004863],[5.16280008,43.39025125],[5.16247246,43.39023529],[5.16227852,43.39009877],[5.162204,43.38995447],[5.16196992,43.38897908],[5.16189122,43.38793489],[5.16169995,43.38662027],[5.15967431,43.3866346],[5.15807076,43.38694737],[5.15736834,43.38749955],[5.1571754,43.38722441],[5.15656458,43.38735628],[5.15517126,43.38527542],[5.15336441,43.38625544],[5.15156646,43.38701296],[5.15134963,43.38708837],[5.1501024,43.38736154],[5.14833287,43.38785745],[5.14757529,43.38815777],[5.14729445,43.38843603],[5.14580528,43.38884085],[5.1455269,43.38885446],[5.14519929,43.38900405],[5.1448659,43.38836899],[5.14470598,43.38844865],[5.14457517,43.38864743],[5.14321899,43.38924397],[5.14296493,43.38938039],[5.14302523,43.3894422],[5.14280152,43.38956542],[5.14258795,43.38956335],[5.14240582,43.38961015],[5.14237278,43.3897503],[5.14213453,43.38981441],[5.14197678,43.38968704],[5.14161147,43.38922179],[5.14100648,43.38947854],[5.14086089,43.38964522],[5.14045265,43.38981708],[5.14051042,43.38991043],[5.14001415,43.39010474],[5.13933033,43.39013355],[5.13917384,43.39023924],[5.13769238,43.39085438],[5.13754881,43.39094271],[5.13752176,43.39107824],[5.13764604,43.39116848],[5.13774769,43.39157955],[5.13765631,43.39300689],[5.13769792,43.39323016],[5.13763993,43.3933303],[5.13753664,43.39337374],[5.13704509,43.39333035],[5.13691458,43.39337162],[5.13683402,43.39349561],[5.13682762,43.39392142],[5.13692262,43.39412023],[5.13713217,43.39427989],[5.13710415,43.39442263],[5.13691974,43.39450817],[5.13662769,43.39491892],[5.13478826,43.39653464],[5.13427596,43.39709731],[5.13353179,43.39773116],[5.1332001,43.39807248],[5.132603,43.39894551]]]]},"bbox":[5.132603,43.38527542,5.19105439,43.41860984]},{"type":"Feature","id":"fr-quartier-13026-d1fa864e5232","properties":{"id":"fr-quartier-13026-d1fa864e5232","kind":"quartier","name":"Plaine Sud","cityCode":"13026","cityName":"Châteauneuf-les-Martigues","sourceType":"iris","sourceIds":["130260102"],"colorIndex":6,"center":[5.126866628785917,43.378348595000006]},"geometry":{"type":"MultiPolygon","coordinates":[[[[5.18887504,43.38059422],[5.18932786,43.37936111],[5.18935682,43.37905183],[5.18912475,43.37882164],[5.18761936,43.378331],[5.18683057,43.37799595],[5.1866699,43.3778588],[5.18653143,43.37707143],[5.18645332,43.37553407],[5.18626881,43.37493122],[5.18563332,43.37343302],[5.18494387,43.3721699],[5.18384569,43.37060274],[5.1838128,43.37009313],[5.18438254,43.36937246],[5.18481021,43.36858176],[5.18464203,43.36827827],[5.18420053,43.3679236],[5.18438188,43.36685079],[5.18579136,43.36527801],[5.18435413,43.36488315],[5.18496008,43.36437054],[5.18506011,43.36417863],[5.18497582,43.36413534],[5.18432125,43.36404866],[5.18304688,43.36410947],[5.18249402,43.36442841],[5.18204107,43.36455184],[5.18162886,43.36448096],[5.18118669,43.36427028],[5.18095798,43.36425689],[5.1803041,43.36448156],[5.18001367,43.36443432],[5.17913515,43.3647859],[5.17768419,43.36461352],[5.17621601,43.36434427],[5.17611654,43.36425808],[5.1761414,43.36295715],[5.17534927,43.36278769],[5.17468663,43.36274791],[5.17345034,43.36286905],[5.17316896,43.36273431],[5.17299184,43.36255157],[5.17296188,43.36237848],[5.17266097,43.36267431],[5.17261846,43.36314944],[5.17184871,43.36350777],[5.16931773,43.3644279],[5.16907538,43.36437966],[5.16888031,43.36417838],[5.16861854,43.36407293],[5.16814825,43.36406436],[5.16706932,43.36453325],[5.16569505,43.36482445],[5.16469726,43.3652215],[5.16130159,43.36608133],[5.15897843,43.36682697],[5.15676467,43.36736609],[5.15492982,43.36771403],[5.15301893,43.36830553],[5.15137325,43.36860015],[5.15096179,43.36854893],[5.14789708,43.36916417],[5.14751993,43.36814752],[5.14580081,43.36835891],[5.14533515,43.36847524],[5.14504348,43.36865921],[5.14478185,43.3686563],[5.14393769,43.36838055],[5.14362182,43.3683787],[5.14355164,43.36901186],[5.14337314,43.36925388],[5.14284787,43.36962516],[5.14169279,43.36997831],[5.14101069,43.36988111],[5.14026303,43.36918134],[5.13992351,43.36831061],[5.13992106,43.36787959],[5.13959037,43.36721297],[5.13951304,43.36645945],[5.13920547,43.36598316],[5.13872688,43.36445552],[5.13598834,43.36518187],[5.13496264,43.36636214],[5.13257688,43.3661923],[5.13150859,43.36622415],[5.13081151,43.36598679],[5.12772637,43.36598361],[5.11108644,43.36228593],[5.10464907,43.36258683],[5.102949,43.3623733],[5.1027809,43.36270145],[5.10274428,43.36372538],[5.10207115,43.36495156],[5.10199621,43.36560187],[5.10185894,43.36593031],[5.10031124,43.36749564],[5.10006717,43.36783875],[5.09986683,43.36826471],[5.10006122,43.36862271],[5.09978156,43.3691402],[5.09961428,43.36983009],[5.09970334,43.37037822],[5.1,43.37076664],[5.10091269,43.37157326],[5.10131399,43.37205683],[5.10206227,43.373394],[5.10245396,43.37351238],[5.10324448,43.37337013],[5.10347562,43.37348353],[5.10339791,43.37388911],[5.10318374,43.37407146],[5.10279058,43.3741835],[5.10272554,43.37432785],[5.1029275,43.37448681],[5.1035315,43.37467576],[5.1036567,43.37482722],[5.10362848,43.37554052],[5.10350757,43.37591184],[5.10367023,43.37688601],[5.10342085,43.37715184],[5.10235477,43.37745244],[5.10161668,43.37751177],[5.10101689,43.37801388],[5.09956572,43.37990132],[5.09911381,43.38016296],[5.09881881,43.38022718],[5.09839313,43.38063321],[5.09798057,43.38089139],[5.0978875,43.38138456],[5.09795889,43.38158296],[5.09865268,43.3817963],[5.09881878,43.38191907],[5.09879404,43.38212023],[5.09854353,43.38225468],[5.09851651,43.3823596],[5.0986751,43.382784],[5.09888794,43.38300396],[5.09921259,43.38310925],[5.09943325,43.38306987],[5.09995888,43.38259621],[5.10023288,43.38297067],[5.10044686,43.3831204],[5.10102211,43.38316144],[5.10114934,43.38323276],[5.10116635,43.38349611],[5.1008002,43.3838767],[5.10092633,43.38452671],[5.10089891,43.38468833],[5.1007856,43.38476163],[5.10233444,43.38733779],[5.1040177,43.38771276],[5.10361999,43.38851334],[5.10409573,43.38832861],[5.10446652,43.3882773],[5.1052063,43.38782194],[5.10729426,43.38772282],[5.10851048,43.38770993],[5.1100503,43.38723355],[5.11242573,43.38659596],[5.11282583,43.38643606],[5.11321664,43.38635913],[5.11369248,43.38631294],[5.11410984,43.38635429],[5.11493637,43.38661713],[5.11563884,43.3866268],[5.11935146,43.38631568],[5.12145511,43.38600809],[5.12259587,43.38589033],[5.12272411,43.38568713],[5.12326122,43.38586378],[5.12482725,43.38590145],[5.12529173,43.38574834],[5.12621091,43.38574558],[5.12679169,43.38560098],[5.12811914,43.38559379],[5.12876626,43.38550817],[5.12938712,43.38531326],[5.1295986,43.3852929],[5.13047198,43.38545301],[5.13085725,43.38489375],[5.13157226,43.38400942],[5.13190768,43.38377063],[5.13217771,43.38353222],[5.13236386,43.38349436],[5.13244168,43.38342983],[5.13251956,43.3833005],[5.1324835,43.38325981],[5.13270661,43.38318702],[5.13290692,43.38306518],[5.13355677,43.3825214],[5.1359729,43.38019867],[5.13683942,43.37977658],[5.1380109,43.37952666],[5.13917166,43.37948663],[5.14042518,43.37938625],[5.14166336,43.37943735],[5.14252965,43.37957409],[5.1432511,43.37956521],[5.1444604,43.37933787],[5.14648381,43.3784761],[5.14748772,43.37836619],[5.14982471,43.37840439],[5.15157658,43.37866566],[5.15269399,43.37848954],[5.15452375,43.37756758],[5.15489881,43.37730362],[5.15580824,43.37707672],[5.15664294,43.37669921],[5.15754415,43.37654985],[5.15915539,43.37664731],[5.15955312,43.37698856],[5.16069912,43.37695129],[5.16081382,43.37773916],[5.16140374,43.37803966],[5.16245061,43.37815465],[5.16279926,43.37823947],[5.16314515,43.37841525],[5.16339977,43.37895284],[5.16364078,43.37906232],[5.16372936,43.37935123],[5.16332695,43.37944477],[5.16333442,43.37951212],[5.16359262,43.37975085],[5.16375802,43.38004813],[5.16363894,43.38032679],[5.16360969,43.38059917],[5.1633761,43.38098272],[5.16327345,43.38133756],[5.16294533,43.38202988],[5.16267324,43.38227561],[5.16220917,43.38253507],[5.16210103,43.38271092],[5.16191928,43.38358841],[5.16185957,43.38482435],[5.16391682,43.38476615],[5.16402581,43.38480986],[5.16405897,43.384937],[5.164221,43.38494726],[5.16670487,43.38481477],[5.1674367,43.38485051],[5.16808579,43.38481861],[5.16717533,43.38410248],[5.16608731,43.38289671],[5.1666253,43.38279864],[5.16698989,43.38268335],[5.16763412,43.38226097],[5.16888253,43.3813036],[5.17003291,43.38088905],[5.17064134,43.38072926],[5.17094879,43.38070239],[5.17200465,43.38075951],[5.17280595,43.38074072],[5.17366961,43.38060908],[5.17402376,43.38041388],[5.17428477,43.38046443],[5.17483694,43.38048124],[5.17682787,43.38037012],[5.17751938,43.380385],[5.18228967,43.3808145],[5.18378082,43.38076643],[5.18586194,43.38043103],[5.18680299,43.38035622],[5.18788856,43.38041528],[5.18887504,43.38059422]]]]},"bbox":[5.0978875,43.36228593,5.18935682,43.38851334]}]}