{"type":"FeatureCollection","metadata":{"sourceType":"iris","source":"IGN / INSEE — Contours IRIS 2026","sourceUrl":"https://data.geopf.fr/wfs/ows?service=WFS&version=2.0.0&request=GetFeature&typeNames=STATISTICALUNITS.IRIS%3Acontours_iris&outputFormat=application%2Fjson&srsName=CRS%3A84&count=1000&CQL_FILTER=code_insee%3D%2713063%27&sortBy=code_iris","retrievedDate":"2026-09-10","sourceYear":"2026","license":"Licence Ouverte 2.0"},"features":[{"type":"Feature","id":"fr-quartier-13063-21daf4edd642","properties":{"id":"fr-quartier-13063-21daf4edd642","kind":"quartier","name":"Campagne","cityCode":"13063","cityName":"Miramas","sourceType":"iris","sourceIds":["130630109"],"colorIndex":0,"center":[5.032072381556613,43.573730945]},"geometry":{"type":"MultiPolygon","coordinates":[[[[5.00824148,43.60510106],[5.01119138,43.60650098],[5.01823405,43.60476917],[5.02531629,43.60115233],[5.02581536,43.59971283],[5.03008451,43.59810393],[5.03422626,43.59521376],[5.03479643,43.59498346],[5.03538344,43.59442523],[5.03882467,43.59190893],[5.04166407,43.59232363],[5.04363267,43.5922785],[5.04437883,43.59153271],[5.04489197,43.5907814],[5.04490159,43.5904608],[5.04465633,43.59004149],[5.04488854,43.58936477],[5.04503704,43.58922337],[5.04586337,43.58885228],[5.04661169,43.58896779],[5.04692433,43.5889151],[5.04723818,43.58806313],[5.04741354,43.58704366],[5.04728809,43.58658159],[5.04755485,43.58451453],[5.0473891,43.5837211],[5.04748621,43.58314594],[5.0480499,43.58187163],[5.04701811,43.58040149],[5.0469563,43.57950171],[5.04680507,43.57918414],[5.04993201,43.57674631],[5.05030017,43.575581],[5.05048092,43.57571979],[5.05058102,43.57547219],[5.05315028,43.57503481],[5.05317567,43.57297591],[5.05460426,43.57391015],[5.05590071,43.57333118],[5.05640979,43.5727518],[5.05650733,43.57246824],[5.05694718,43.57216829],[5.05718701,43.57153731],[5.0571811,43.5711999],[5.05769825,43.57084628],[5.05804518,43.57033748],[5.05845466,43.56946747],[5.05884892,43.56803521],[5.05908893,43.56792806],[5.05917094,43.56666013],[5.05968825,43.56558826],[5.0601523,43.56351565],[5.06045751,43.56322544],[5.06064445,43.56319219],[5.06096308,43.56251741],[5.06132534,43.5619552],[5.06189647,43.56135032],[5.06212384,43.56078887],[5.06263202,43.56001688],[5.06274819,43.55935764],[5.06265788,43.55842871],[5.06249873,43.55840833],[5.06161552,43.55873113],[5.06070039,43.55854419],[5.06032175,43.55854598],[5.05986917,43.55869497],[5.05939872,43.55907022],[5.05920953,43.55935102],[5.05890063,43.55953779],[5.05765067,43.55967759],[5.05738118,43.5597556],[5.05717813,43.55999526],[5.0558342,43.5595158],[5.05436502,43.55958231],[5.05357787,43.56027404],[5.05343154,43.56126956],[5.05182286,43.56138188],[5.05123686,43.56129665],[5.05005262,43.56137212],[5.04944581,43.56267964],[5.04796165,43.56517377],[5.04718138,43.56623614],[5.04667938,43.5662861],[5.04652404,43.56696316],[5.04654116,43.56733906],[5.04633249,43.56783982],[5.04600838,43.56822755],[5.04568182,43.56910224],[5.04554277,43.56909046],[5.04540401,43.56929559],[5.04206209,43.56874646],[5.04075184,43.56900781],[5.0396389,43.56886492],[5.03955428,43.5687828],[5.0390287,43.56872697],[5.03853355,43.56827365],[5.03820396,43.56808992],[5.03835099,43.56752464],[5.03824224,43.56742497],[5.03832268,43.56707605],[5.03816014,43.56685589],[5.03825881,43.56670643],[5.03818177,43.56568723],[5.03833056,43.56454408],[5.03825734,43.56446895],[5.03723454,43.56421274],[5.0372141,43.56402051],[5.03670762,43.56394361],[5.03654679,43.56352721],[5.03636403,43.56343433],[5.03643539,43.56300367],[5.03577506,43.56288105],[5.0355658,43.56270407],[5.03536016,43.5622102],[5.0353729,43.56201105],[5.03520594,43.56194488],[5.03480666,43.56195867],[5.03455576,43.56179416],[5.03398942,43.56170397],[5.03358155,43.56175481],[5.03339593,43.56140637],[5.03324728,43.56133266],[5.03331653,43.56105145],[5.03312199,43.56062577],[5.03386155,43.56001609],[5.0336763,43.55974775],[5.0336769,43.55955513],[5.03394104,43.55897596],[5.03387654,43.55883226],[5.03343693,43.558755],[5.03319227,43.55841667],[5.03313852,43.55801716],[5.03276306,43.55789908],[5.03192432,43.55780408],[5.03180499,43.55831394],[5.0305333,43.55815502],[5.03001977,43.5574572],[5.03011518,43.5570054],[5.03035975,43.55681722],[5.0300039,43.55669337],[5.02909814,43.55694251],[5.02771398,43.5575228],[5.02711231,43.55755203],[5.02393529,43.55649527],[5.02362763,43.55647401],[5.02336813,43.55687126],[5.02270856,43.55662704],[5.02250507,43.55654173],[5.02234073,43.5566195],[5.02207502,43.55659474],[5.02188005,43.55682158],[5.0210918,43.55668326],[5.02034228,43.55775115],[5.0201026,43.55772771],[5.02006651,43.55786248],[5.01999198,43.55785487],[5.0201609,43.5571686],[5.02001363,43.55709844],[5.02031702,43.55664638],[5.02020497,43.55634605],[5.0203447,43.55627235],[5.02023489,43.55617629],[5.02006856,43.55619739],[5.0200209,43.55614427],[5.01965136,43.55622855],[5.01899987,43.55603726],[5.01917753,43.55623287],[5.01913433,43.55637677],[5.01878661,43.55637784],[5.01863279,43.55657871],[5.01833809,43.55657429],[5.01826171,43.55647851],[5.01853496,43.5556265],[5.01785445,43.55693339],[5.01665626,43.55664515],[5.01636825,43.5566199],[5.01628101,43.55667282],[5.01592027,43.55658502],[5.01590224,43.55667085],[5.01563543,43.55661461],[5.01591827,43.55638705],[5.01632308,43.55649653],[5.01695503,43.55651899],[5.01741367,43.55597675],[5.01807809,43.5559374],[5.01810924,43.55590802],[5.01772325,43.55587649],[5.01740004,43.555941],[5.01719999,43.55605903],[5.01712665,43.55626109],[5.01675388,43.55628872],[5.01584024,43.55606808],[5.01553635,43.55608363],[5.01544193,43.55596748],[5.0142184,43.55548527],[5.01303195,43.5560599],[5.00980104,43.55667058],[5.00986049,43.55656598],[5.0096269,43.55607979],[5.00939987,43.55489685],[5.00946822,43.55483439],[5.00877335,43.55244688],[5.00795862,43.55165463],[5.00745961,43.55132725],[5.00721761,43.55134253],[5.00644471,43.55093201],[5.00567226,43.55081758],[5.0050635,43.55050032],[5.00464088,43.55044602],[5.00435065,43.55053329],[5.00357804,43.55055565],[5.00246649,43.55019095],[5.00125604,43.55380527],[5.00137435,43.55396869],[5.00139202,43.55426267],[5.00193037,43.55507987],[5.00302668,43.55720441],[5.00355433,43.55792639],[5.00375204,43.55834306],[5.00370584,43.55840241],[5.00438424,43.55968413],[5.00468592,43.55981716],[5.00506331,43.56066522],[5.00613172,43.56145371],[5.00637959,43.56181724],[5.00583005,43.562065],[5.00741904,43.56372319],[4.99837358,43.57100482],[5.00208384,43.5717249],[5.00465078,43.57217346],[5.00892563,43.57299809],[5.00975606,43.57320413],[5.010413,43.57344038],[5.01066944,43.57355174],[5.01145288,43.57400615],[5.01175507,43.57422196],[5.01221298,43.57464189],[5.01262218,43.57515543],[5.01287587,43.57557645],[5.01312326,43.57627659],[5.0131957,43.57685938],[5.01379464,43.57678167],[5.01400044,43.57671935],[5.0145599,43.57636336],[5.01477564,43.57658436],[5.01498392,43.57687481],[5.0151441,43.57738217],[5.0151525,43.57779783],[5.0150338,43.57815465],[5.01507685,43.57835816],[5.01746284,43.57787374],[5.01857439,43.57797369],[5.01897675,43.57825512],[5.01964112,43.57841827],[5.02005719,43.57912427],[5.02055941,43.57914733],[5.02082995,43.579271],[5.02117961,43.5793212],[5.02141979,43.57942653],[5.02153459,43.5795225],[5.02189106,43.58001179],[5.02205015,43.58013483],[5.02218707,43.5804365],[5.02115982,43.58150148],[5.02077673,43.58222504],[5.02074693,43.58236331],[5.0206296,43.58240689],[5.02065288,43.58250546],[5.02076833,43.58251412],[5.02065726,43.58357914],[5.02064539,43.58415629],[5.02041396,43.58437031],[5.0202257,43.58468523],[5.01999449,43.58487044],[5.01975467,43.58523312],[5.01937069,43.58568668],[5.01978786,43.58554302],[5.01999758,43.58552112],[5.02058653,43.58564967],[5.02075687,43.58581031],[5.02076917,43.58598379],[5.02049329,43.58651815],[5.02048192,43.58672267],[5.02056681,43.58705861],[5.02051738,43.58748346],[5.02042956,43.58776771],[5.02054479,43.58791047],[5.02083512,43.58785647],[5.02113536,43.58794358],[5.02113101,43.58803097],[5.02101983,43.58817885],[5.02107489,43.58844154],[5.02120389,43.58865875],[5.02110631,43.58898188],[5.01987095,43.58899407],[5.01901318,43.58921523],[5.01816673,43.58923006],[5.01749804,43.58933519],[5.01711933,43.58948173],[5.01691231,43.58961608],[5.01663298,43.58991288],[5.01614772,43.59023421],[5.01570246,43.59060159],[5.01550094,43.59057563],[5.01376424,43.59024062],[5.01396531,43.58937195],[5.01406874,43.58762663],[5.01399897,43.58743802],[5.01370664,43.58715272],[5.01358888,43.58690199],[5.0135385,43.58606588],[5.01340488,43.58529252],[5.01208823,43.58524402],[5.01190146,43.5856381],[5.01193219,43.58584364],[5.01159412,43.58573649],[5.01130665,43.58583632],[5.0110578,43.58597864],[5.0108271,43.58600271],[5.00990873,43.585801],[5.00962513,43.58647138],[5.00952307,43.58656238],[5.00935531,43.58661588],[5.00884913,43.58669365],[5.00861162,43.58677095],[5.00852368,43.58673477],[5.00840882,43.5867432],[5.00831498,43.58682143],[5.00734871,43.58666649],[5.00729599,43.58671697],[5.00836834,43.5877448],[5.00912962,43.59063787],[5.00947362,43.59084302],[5.00951944,43.59094928],[5.00995828,43.5917053],[5.01029127,43.5928332],[5.01116177,43.59463339],[5.01133733,43.59543749],[5.01140583,43.59661439],[5.01110421,43.59740752],[5.01086075,43.59777565],[5.01054788,43.59792995],[5.0095395,43.59809892],[5.00974803,43.59959725],[5.00932205,43.60055379],[5.00923947,43.60060032],[5.00899081,43.60060852],[5.00869295,43.60055552],[5.00836248,43.60045543],[5.00824981,43.60038551],[5.00740891,43.59950189],[5.00709975,43.59926729],[5.00672563,43.59852086],[5.00621568,43.59863559],[5.00615519,43.59874741],[5.00592406,43.59883178],[5.00578031,43.59882904],[5.00565979,43.59878266],[5.00556274,43.59859274],[5.00516672,43.59870716],[5.00477112,43.59876306],[5.00464722,43.59869064],[5.00181179,43.59654411],[5.00142847,43.59670328],[4.99785845,43.59408145],[4.99787719,43.5939794],[4.9977891,43.59390362],[4.99806709,43.59374279],[4.99783294,43.59359769],[4.9978385,43.59350849],[4.99850768,43.59049992],[4.99485211,43.59046002],[4.99405529,43.59040714],[4.99399718,43.5903029],[4.99403646,43.5886893],[4.99396413,43.58853222],[4.99384831,43.58844165],[4.99274342,43.58839532],[4.99213544,43.58843078],[4.99173777,43.58867478],[4.9914564,43.58877354],[4.98933871,43.58997971],[4.98705423,43.59116368],[4.98655314,43.59149776],[4.98692538,43.59280682],[4.9875435,43.59406367],[4.98819173,43.59497346],[4.98883909,43.59567894],[4.98957687,43.59634857],[4.9902268,43.59684159],[4.99103133,43.59736417],[4.99191479,43.5978412],[4.99374663,43.59863024],[5.00805141,43.60448353],[5.00808815,43.60486088],[5.00824148,43.60510106]]]]},"bbox":[4.98655314,43.55019095,5.06274819,43.60650098]},{"type":"Feature","id":"fr-quartier-13063-64be27c9c0c2","properties":{"id":"fr-quartier-13063-64be27c9c0c2","kind":"quartier","name":"Carraire","cityCode":"13063","cityName":"Miramas","sourceType":"iris","sourceIds":["130630107"],"colorIndex":1,"center":[5.002887218050325,43.576669915]},"geometry":{"type":"MultiPolygon","coordinates":[[[[5.00334231,43.58100449],[5.00326661,43.58068007],[5.0045113,43.58051489],[5.00526458,43.58031738],[5.00573946,43.580125],[5.00635971,43.57980573],[5.00639748,43.57985903],[5.00685266,43.57956351],[5.00736917,43.57911024],[5.00782215,43.57857534],[5.00822342,43.57790729],[5.00847612,43.57723929],[5.00857632,43.57660021],[5.00852342,43.57576055],[5.00839202,43.57529586],[5.00811034,43.57471064],[5.00779075,43.57424493],[5.00735389,43.57378859],[5.0069419,43.57344159],[5.00602226,43.57291406],[5.00538948,43.57266024],[5.00492206,43.57309999],[5.00464736,43.57310326],[5.00429435,43.57323938],[4.99974491,43.57533304],[4.99956793,43.57540561],[4.99938274,43.57541982],[4.99925916,43.5755328],[4.99717109,43.57646856],[4.99725236,43.57652736],[4.99726787,43.57661708],[4.99715022,43.57672275],[4.99748163,43.57692546],[5.00041284,43.57986324],[5.00041344,43.57995143],[5.00056195,43.5800918],[5.00062784,43.58024179],[5.00085456,43.58099185],[5.00088326,43.58110473],[5.00334231,43.58100449]]]]},"bbox":[4.99715022,43.57266024,5.00857632,43.58110473]},{"type":"Feature","id":"fr-quartier-13063-ce5713420686","properties":{"id":"fr-quartier-13063-ce5713420686","kind":"quartier","name":"Chiron-Saint-Suspi","cityCode":"13063","cityName":"Miramas","sourceType":"iris","sourceIds":["130630101"],"colorIndex":2,"center":[5.013157546671665,43.582607165]},"geometry":{"type":"MultiPolygon","coordinates":[[[[5.00208384,43.5717249],[5.00368159,43.57210494],[5.00538948,43.57266024],[5.00602226,43.57291406],[5.0069419,43.57344159],[5.00735389,43.57378859],[5.00779075,43.57424493],[5.00811034,43.57471064],[5.00839202,43.57529586],[5.00852342,43.57576055],[5.00857632,43.57660021],[5.00847612,43.57723929],[5.00822342,43.57790729],[5.00782215,43.57857534],[5.00736917,43.57911024],[5.00685266,43.57956351],[5.00639748,43.57985903],[5.00635971,43.57980573],[5.00573946,43.580125],[5.00526458,43.58031738],[5.0045113,43.58051489],[5.00326661,43.58068007],[5.00334231,43.58100449],[5.00441836,43.58100893],[5.00638155,43.58120939],[5.00660661,43.58130784],[5.00543763,43.5827542],[5.00533917,43.58270021],[5.00530962,43.58274036],[5.00594294,43.58502558],[5.00628627,43.58570867],[5.0071767,43.58659856],[5.0073065,43.58659257],[5.00734871,43.58666649],[5.00831498,43.58682143],[5.00840882,43.5867432],[5.00852368,43.58673477],[5.00861162,43.58677095],[5.00884913,43.58669365],[5.00935531,43.58661588],[5.00952307,43.58656238],[5.00962513,43.58647138],[5.00990873,43.585801],[5.0108271,43.58600271],[5.0110578,43.58597864],[5.01130665,43.58583632],[5.01159412,43.58573649],[5.01193219,43.58584364],[5.01190146,43.5856381],[5.01208823,43.58524402],[5.01340488,43.58529252],[5.0135385,43.58606588],[5.01358888,43.58690199],[5.01370664,43.58715272],[5.01399897,43.58743802],[5.01406874,43.58762663],[5.01396531,43.58937195],[5.01376424,43.59024062],[5.01550094,43.59057563],[5.01570246,43.59060159],[5.01614772,43.59023421],[5.01663298,43.58991288],[5.01691231,43.58961608],[5.01711933,43.58948173],[5.01749804,43.58933519],[5.01816673,43.58923006],[5.01901318,43.58921523],[5.01987095,43.58899407],[5.02110631,43.58898188],[5.02120389,43.58865875],[5.02107489,43.58844154],[5.02101983,43.58817885],[5.02113101,43.58803097],[5.02113536,43.58794358],[5.02083512,43.58785647],[5.02054479,43.58791047],[5.02042956,43.58776771],[5.02051738,43.58748346],[5.02056681,43.58705861],[5.02048192,43.58672267],[5.02049329,43.58651815],[5.02076917,43.58598379],[5.02075687,43.58581031],[5.02058653,43.58564967],[5.01999758,43.58552112],[5.01978786,43.58554302],[5.01937069,43.58568668],[5.01975467,43.58523312],[5.01999449,43.58487044],[5.0202257,43.58468523],[5.02041396,43.58437031],[5.02064539,43.58415629],[5.02065726,43.58357914],[5.02076833,43.58251412],[5.02065288,43.58250546],[5.0206296,43.58240689],[5.02074693,43.58236331],[5.02077673,43.58222504],[5.02115982,43.58150148],[5.02218707,43.5804365],[5.02205015,43.58013483],[5.02189106,43.58001179],[5.02153459,43.5795225],[5.02141979,43.57942653],[5.02117961,43.5793212],[5.02082995,43.579271],[5.02055941,43.57914733],[5.02005719,43.57912427],[5.01964112,43.57841827],[5.01897675,43.57825512],[5.01857439,43.57797369],[5.01746284,43.57787374],[5.01507685,43.57835816],[5.0150338,43.57815465],[5.0151525,43.57779783],[5.0151441,43.57738217],[5.01498392,43.57687481],[5.01477564,43.57658436],[5.0145599,43.57636336],[5.01400044,43.57671935],[5.01379464,43.57678167],[5.0131957,43.57685938],[5.01312326,43.57627659],[5.01287587,43.57557645],[5.01262218,43.57515543],[5.01221298,43.57464189],[5.01175507,43.57422196],[5.01145288,43.57400615],[5.01066944,43.57355174],[5.010413,43.57344038],[5.00975606,43.57320413],[5.00892563,43.57299809],[5.00465078,43.57217346],[5.00208384,43.5717249]]]]},"bbox":[5.00208384,43.5717249,5.02218707,43.59060159]},{"type":"Feature","id":"fr-quartier-13063-44a9d54b6af2","properties":{"id":"fr-quartier-13063-44a9d54b6af2","kind":"quartier","name":"La Rousse","cityCode":"13063","cityName":"Miramas","sourceType":"iris","sourceIds":["130630102","130630103","130630105"],"colorIndex":3,"center":[5.008295470968085,43.597591585]},"geometry":{"type":"MultiPolygon","coordinates":[[[[5.00279097,43.58776948],[5.00289897,43.58770629],[5.00291876,43.58763482],[5.00286102,43.58754138],[5.00358424,43.58747314],[5.00685537,43.58696992],[5.00702704,43.58688664],[5.00718932,43.58671174],[5.00729599,43.58671697],[5.00836834,43.5877448],[5.00912962,43.59063787],[5.00947362,43.59084302],[5.00951944,43.59094928],[5.00995828,43.5917053],[5.01029127,43.5928332],[5.01116177,43.59463339],[5.01133733,43.59543749],[5.01140583,43.59661439],[5.01110421,43.59740752],[5.01086075,43.59777565],[5.01054788,43.59792995],[5.0095395,43.59809892],[5.00974803,43.59959725],[5.00932205,43.60055379],[5.00923947,43.60060032],[5.00899081,43.60060852],[5.00869295,43.60055552],[5.00836248,43.60045543],[5.00824981,43.60038551],[5.00740891,43.59950189],[5.00709975,43.59926729],[5.00672563,43.59852086],[5.00621568,43.59863559],[5.00615519,43.59874741],[5.00592406,43.59883178],[5.00578031,43.59882904],[5.00565979,43.59878266],[5.00556274,43.59859274],[5.00567252,43.59808398],[5.00566322,43.59778264],[5.00389752,43.59162198],[5.00282167,43.58790393],[5.00279097,43.58776948]]]]},"bbox":[5.00279097,43.58671174,5.01140583,43.60060852]},{"type":"Feature","id":"fr-quartier-13063-80627061ad7d","properties":{"id":"fr-quartier-13063-80627061ad7d","kind":"quartier","name":"Mas Neuf-Monteau","cityCode":"13063","cityName":"Miramas","sourceType":"iris","sourceIds":["130630108"],"colorIndex":4,"center":[4.994318493736955,43.576737335000004]},"geometry":{"type":"MultiPolygon","coordinates":[[[[4.99837358,43.57100482],[4.99144534,43.57675192],[4.99304521,43.57961529],[4.99284545,43.57988807],[4.99133449,43.58119294],[4.9909655,43.58151292],[4.99392652,43.58135599],[4.99558029,43.581169],[4.99660271,43.58109081],[4.99918426,43.58105951],[5.00085456,43.58099185],[5.00062784,43.58024179],[5.00056195,43.5800918],[5.00041344,43.57995143],[5.00041284,43.57986324],[4.99748163,43.57692546],[4.99715022,43.57672275],[4.99726787,43.57661708],[4.99725236,43.57652736],[4.99717109,43.57646856],[4.99925916,43.5755328],[4.99938274,43.57541982],[4.99956793,43.57540561],[4.99974491,43.57533304],[5.00429435,43.57323938],[5.00464736,43.57310326],[5.00492206,43.57309999],[5.00538948,43.57266024],[5.00368159,43.57210494],[5.00208384,43.5717249],[4.99837358,43.57100482]]]]},"bbox":[4.9909655,43.57100482,5.00538948,43.58151292]},{"type":"Feature","id":"fr-quartier-13063-0eb69c6b6ebb","properties":{"id":"fr-quartier-13063-0eb69c6b6ebb","kind":"quartier","name":"Miramas Centre","cityCode":"13063","cityName":"Miramas","sourceType":"iris","sourceIds":["130630106"],"colorIndex":5,"center":[4.998600406464872,43.585152879999995]},"geometry":{"type":"MultiPolygon","coordinates":[[[[4.99392652,43.58135599],[4.99477648,43.58301265],[4.99467448,43.58307033],[4.9947798,43.58314399],[4.99637164,43.58615779],[4.99654785,43.58602674],[5.00074803,43.58539412],[5.00070466,43.58525091],[5.00201524,43.58505485],[5.00222014,43.58578191],[5.00232418,43.5859249],[5.00232883,43.58612912],[5.00270911,43.58751718],[5.00286102,43.58754138],[5.00358424,43.58747314],[5.00685537,43.58696992],[5.00702704,43.58688664],[5.00718932,43.58671174],[5.00729599,43.58671697],[5.00734871,43.58666649],[5.0073065,43.58659257],[5.0071767,43.58659856],[5.00628627,43.58570867],[5.00594294,43.58502558],[5.00530962,43.58274036],[5.00533917,43.58270021],[5.00543763,43.5827542],[5.00660661,43.58130784],[5.00638155,43.58120939],[5.00441836,43.58100893],[5.00334231,43.58100449],[5.00088326,43.58110473],[5.00085456,43.58099185],[4.99918426,43.58105951],[4.99660271,43.58109081],[4.99558029,43.581169],[4.99392652,43.58135599]]]]},"bbox":[4.99392652,43.58099185,5.00734871,43.58754138]},{"type":"Feature","id":"fr-quartier-13063-09199b41be93","properties":{"id":"fr-quartier-13063-09199b41be93","kind":"quartier","name":"Molières-Chantegrive","cityCode":"13063","cityName":"Miramas","sourceType":"iris","sourceIds":["130630104"],"colorIndex":6,"center":[4.998448293775466,43.588486935]},"geometry":{"type":"MultiPolygon","coordinates":[[[[5.00389752,43.59162198],[5.00282167,43.58790393],[5.00279097,43.58776948],[5.00289897,43.58770629],[5.00291876,43.58763482],[5.00286102,43.58754138],[5.00270911,43.58751718],[5.00232883,43.58612912],[5.00232418,43.5859249],[5.00222014,43.58578191],[5.00201524,43.58505485],[5.00070466,43.58525091],[5.00074803,43.58539412],[4.99654785,43.58602674],[4.99637164,43.58615779],[4.99626731,43.58629111],[4.99410602,43.58744867],[4.99403528,43.58755077],[4.99401563,43.58805426],[4.99385742,43.58831187],[4.99384831,43.58844165],[4.99396413,43.58853222],[4.99403646,43.5886893],[4.99399718,43.5903029],[4.99405529,43.59040714],[4.99485211,43.59046002],[4.99850768,43.59049992],[4.9978385,43.59350849],[4.99783294,43.59359769],[4.99806709,43.59374279],[4.9977891,43.59390362],[4.99787719,43.5939794],[4.99785845,43.59408145],[5.00142847,43.59670328],[5.00181179,43.59654411],[5.00464722,43.59869064],[5.00477112,43.59876306],[5.00516672,43.59870716],[5.00556274,43.59859274],[5.00567252,43.59808398],[5.00566322,43.59778264],[5.00389752,43.59162198]]]]},"bbox":[4.99384831,43.58505485,5.00567252,43.59876306]},{"type":"Feature","id":"fr-quartier-13063-89c1db94d0bc","properties":{"id":"fr-quartier-13063-89c1db94d0bc","kind":"quartier","name":"Plate-Forme","cityCode":"13063","cityName":"Miramas","sourceType":"iris","sourceIds":["130630110"],"colorIndex":7,"center":[4.981177148779576,43.596013755]},"geometry":{"type":"MultiPolygon","coordinates":[[[[4.9909655,43.58151292],[4.98916229,43.58306882],[4.97849535,43.59174474],[4.96695069,43.60095843],[4.96726998,43.60113176],[4.96882448,43.60153381],[4.97400923,43.60208326],[4.97496722,43.60210095],[4.97941843,43.60292448],[4.9799069,43.60304609],[4.98013263,43.60323459],[4.98038761,43.60509574],[4.98032233,43.61048824],[4.97983158,43.61306594],[4.97823476,43.61626142],[4.98300078,43.61727081],[4.98316464,43.61724442],[4.98411908,43.61743851],[4.98880352,43.61809003],[4.99344203,43.61502853],[5.00808782,43.60502829],[5.00824148,43.60510106],[5.00808815,43.60486088],[5.00805141,43.60448353],[4.99374663,43.59863024],[4.99191479,43.5978412],[4.99103133,43.59736417],[4.9902268,43.59684159],[4.98957687,43.59634857],[4.98883909,43.59567894],[4.98819173,43.59497346],[4.9875435,43.59406367],[4.98692538,43.59280682],[4.98655314,43.59149776],[4.98705423,43.59116368],[4.98933871,43.58997971],[4.9914564,43.58877354],[4.99173777,43.58867478],[4.99213544,43.58843078],[4.99274342,43.58839532],[4.99384831,43.58844165],[4.99385742,43.58831187],[4.99401563,43.58805426],[4.99403528,43.58755077],[4.99410602,43.58744867],[4.99626731,43.58629111],[4.99637164,43.58615779],[4.9947798,43.58314399],[4.99467448,43.58307033],[4.99477648,43.58301265],[4.99392652,43.58135599],[4.9909655,43.58151292]]]]},"bbox":[4.96695069,43.58135599,5.00824148,43.61809003]}]}