{"type":"FeatureCollection","metadata":{"sourceType":"iris","source":"IGN / INSEE — Contours IRIS 2026","sourceUrl":"https://data.geopf.fr/wfs/ows?service=WFS&version=2.0.0&request=GetFeature&typeNames=STATISTICALUNITS.IRIS%3Acontours_iris&outputFormat=application%2Fjson&srsName=CRS%3A84&count=1000&CQL_FILTER=code_insee%3D%2713077%27&sortBy=code_iris","retrievedDate":"2026-09-10","sourceYear":"2026","license":"Licence Ouverte 2.0"},"features":[{"type":"Feature","id":"fr-quartier-13077-2bd5fb5dde0b","properties":{"id":"fr-quartier-13077-2bd5fb5dde0b","kind":"quartier","name":"Centre","cityCode":"13077","cityName":"Port-de-Bouc","sourceType":"iris","sourceIds":["130770102"],"colorIndex":0,"center":[4.982511810298975,43.406147015]},"geometry":{"type":"MultiPolygon","coordinates":[[[[4.9932407,43.40487841],[4.99219067,43.40506692],[4.991857,43.40505506],[4.99163972,43.4044831],[4.9915796,43.40452921],[4.991721,43.40504856],[4.99131332,43.40503806],[4.99132379,43.40498387],[4.99088128,43.40503701],[4.98906367,43.40494442],[4.98883386,43.40472366],[4.98867503,43.40226979],[4.98738331,43.4023925],[4.98719403,43.40262995],[4.98705897,43.40265043],[4.98722224,43.404162],[4.98767313,43.40420862],[4.98773782,43.40443782],[4.9876568,43.4045221],[4.98724814,43.40455479],[4.9874135,43.40612662],[4.98731087,43.40637149],[4.98679309,43.40638999],[4.98666198,43.40616741],[4.98639919,43.40320249],[4.98572459,43.40225195],[4.98539737,43.40206897],[4.98440045,43.40215024],[4.9844532,43.40224826],[4.9853644,43.40218656],[4.98552816,43.40228255],[4.98599269,43.40286798],[4.98622069,43.40339475],[4.98580192,43.40342043],[4.98549045,43.40333615],[4.98546448,43.40329883],[4.98544358,43.40333701],[4.98488158,43.40336081],[4.98485447,43.40332621],[4.98483733,43.40336612],[4.98457409,43.40396489],[4.98434004,43.40397818],[4.98439875,43.40460705],[4.98396733,43.40462396],[4.98390894,43.40400408],[4.98261124,43.40359589],[4.98268481,43.40318778],[4.98256772,43.40315662],[4.98190371,43.40319308],[4.98193364,43.4035246],[4.98150898,43.40352247],[4.98117792,43.40358613],[4.98102012,43.4037348],[4.98057136,43.4038573],[4.98059247,43.4040765],[4.98042987,43.40408577],[4.98011457,43.40417703],[4.97971503,43.40436702],[4.97944827,43.40454198],[4.97922073,43.40470902],[4.97910267,43.40486507],[4.97912422,43.40545592],[4.97840884,43.40550679],[4.97834687,43.40607398],[4.97840505,43.40633029],[4.97856223,43.40666579],[4.9783484,43.4066571],[4.97828596,43.40674373],[4.97827512,43.40696711],[4.97784852,43.4069452],[4.9778266,43.40709769],[4.97734844,43.40701193],[4.97721235,43.40703872],[4.97740183,43.40716484],[4.97740987,43.40739868],[4.97710184,43.40781017],[4.97682669,43.40788538],[4.9763566,43.40835832],[4.97634957,43.40905229],[4.97607637,43.40943615],[4.97597202,43.40977642],[4.97575664,43.41001073],[4.97576316,43.41048847],[4.97561823,43.41094108],[4.97520349,43.4115174],[4.9747732,43.41185641],[4.97460289,43.41182172],[4.97464363,43.41192987],[4.97446623,43.41208429],[4.97443219,43.4122433],[4.97473287,43.41237191],[4.97465348,43.41246875],[4.97620173,43.41279957],[4.97635964,43.41218564],[4.97661887,43.41164636],[4.97685217,43.41128663],[4.97797398,43.40987756],[4.97822978,43.40999348],[4.9783614,43.40990828],[4.97898343,43.40929486],[4.97950869,43.408883],[4.98027717,43.40847298],[4.981093,43.40818358],[4.98152721,43.40806765],[4.98324759,43.40780757],[4.98620868,43.40744642],[4.98623555,43.40718765],[4.98713582,43.40712884],[4.98805108,43.40707514],[4.98807993,43.40737429],[4.98835502,43.40740523],[4.98854079,43.40738742],[4.98886806,43.40728512],[4.98923084,43.40724606],[4.99163358,43.4071236],[4.99264202,43.40712304],[4.99339582,43.40721896],[4.99405484,43.40735801],[4.99498586,43.40765224],[4.99585728,43.40804295],[4.99632227,43.40760511],[4.9954906,43.40715068],[4.99478123,43.40687667],[4.99431126,43.40674314],[4.99290918,43.40649718],[4.99259625,43.40647864],[4.98959137,43.40664188],[4.99074752,43.40591599],[4.99126001,43.40567349],[4.99216238,43.40542651],[4.99332098,43.40516491],[4.9932407,43.40487841]]]]},"bbox":[4.97443219,43.40206897,4.99632227,43.41279957]},{"type":"Feature","id":"fr-quartier-13077-beb44659511f","properties":{"id":"fr-quartier-13077-beb44659511f","kind":"quartier","name":"Écarts","cityCode":"13077","cityName":"Port-de-Bouc","sourceType":"iris","sourceIds":["130770105"],"colorIndex":1,"center":[4.987143537002503,43.426859199999996]},"geometry":{"type":"MultiPolygon","coordinates":[[[[4.98087629,43.4452487],[4.98291269,43.44534554],[4.98559305,43.44484648],[5.00427307,43.44068675],[5.0116149,43.43840789],[5.01210039,43.43766991],[5.01222926,43.43778811],[5.01254472,43.43759146],[5.01299386,43.43750932],[5.01368862,43.43745861],[5.01463443,43.43759402],[5.01498854,43.4382543],[5.01582594,43.43889029],[5.0164917,43.43910379],[5.01736552,43.43919281],[5.01757404,43.43946882],[5.01751257,43.43961755],[5.01818382,43.43945926],[5.0190967,43.43854949],[5.01917068,43.43791275],[5.01970079,43.43633785],[5.02038975,43.43520816],[5.02045898,43.43429611],[5.02073117,43.43357198],[5.02067185,43.43342999],[5.02115167,43.43316815],[5.02147737,43.43287769],[5.02228526,43.43169088],[5.02267473,43.43135332],[5.022882,43.43096157],[5.02296603,43.43029584],[5.02351632,43.42968619],[5.0240067,43.42983092],[5.02427734,43.42962608],[5.02579622,43.4293466],[5.02652739,43.42907014],[5.02729739,43.42866965],[5.02548014,43.42857585],[5.0233236,43.42887624],[5.02119144,43.42983579],[5.01934731,43.4315099],[5.01741873,43.43137754],[5.01177784,43.43130696],[5.00975022,43.43141389],[5.0092777,43.43153245],[5.00911865,43.43182248],[5.00874312,43.43167736],[5.00857624,43.43153106],[5.00811278,43.4307063],[5.00809079,43.43035933],[5.00832957,43.42895729],[5.00825053,43.42870947],[5.00797565,43.42854627],[5.00652105,43.42812146],[5.00541704,43.42790612],[5.00329348,43.42763043],[5.00272936,43.42763546],[5.00258506,43.42760483],[5.00241424,43.4274865],[5.0020575,43.42681544],[5.00161386,43.42669854],[5.00141962,43.42668773],[5.0012768,43.42669937],[5.00083054,43.42686241],[5.00059324,43.42685599],[5.00046677,43.42680523],[4.99922143,43.42603897],[4.99904358,43.42589557],[4.99878592,43.42558714],[4.99858055,43.42543344],[4.9972735,43.4247376],[4.99693002,43.42469534],[4.99624675,43.42475293],[4.99445663,43.42429634],[4.99419496,43.42419226],[4.99401819,43.42415052],[4.99371301,43.42414444],[4.99379962,43.42404295],[4.99409656,43.4238467],[4.9949722,43.42331941],[4.99576463,43.42302763],[4.99588487,43.42286343],[4.99572147,43.42278004],[4.99547373,43.42250743],[4.99481724,43.42201916],[4.99472073,43.42197774],[4.99440165,43.42196201],[4.994244,43.42183083],[4.9942605,43.42113127],[4.994308,43.42093421],[4.99452442,43.42044606],[4.99477346,43.4200797],[4.99482754,43.41993022],[4.99444758,43.41983192],[4.99303476,43.41924957],[4.99293361,43.41932343],[4.99266619,43.41990791],[4.99183151,43.42129656],[4.99170468,43.421235],[4.99040487,43.42031486],[4.99015122,43.41997755],[4.99010788,43.41975966],[4.9897524,43.41940532],[4.98916674,43.41860614],[4.98895871,43.41787381],[4.98879444,43.41755015],[4.98738969,43.41566089],[4.98704931,43.41506328],[4.98714482,43.41471866],[4.98699102,43.41455499],[4.98678841,43.41451461],[4.98661511,43.4144296],[4.98610421,43.41389811],[4.98470489,43.41241189],[4.98142848,43.41323142],[4.98102103,43.41426929],[4.98120782,43.41428028],[4.98118615,43.41458305],[4.98129523,43.41477544],[4.98168196,43.41489255],[4.98202823,43.4150536],[4.98195701,43.41549497],[4.98243021,43.41547011],[4.9825353,43.41629882],[4.98248729,43.41637439],[4.98136888,43.41702211],[4.98073709,43.41749713],[4.9801698,43.41805286],[4.97909939,43.41945202],[4.97896675,43.41943645],[4.97876925,43.41947335],[4.97874626,43.41963036],[4.97867032,43.41971994],[4.97837798,43.41990707],[4.9780027,43.4202316],[4.97760149,43.42030462],[4.97737157,43.42040421],[4.97681866,43.42055379],[4.97644147,43.42060747],[4.97614806,43.42054803],[4.97569591,43.4203241],[4.9755763,43.42065205],[4.97443398,43.42150712],[4.9739586,43.42236982],[4.97445842,43.4225074],[4.97452358,43.42314696],[4.97503915,43.42349123],[4.97522119,43.42393878],[4.97408995,43.42630643],[4.97339685,43.4270507],[4.97341795,43.42838582],[4.97410258,43.42858213],[4.97408016,43.42893621],[4.97417722,43.42899384],[4.97483903,43.42917256],[4.97678858,43.42948978],[4.97806887,43.4295195],[4.9793994,43.43054273],[4.98001575,43.43087074],[4.98039058,43.43092598],[4.98044548,43.43108607],[4.98167242,43.43232624],[4.98123142,43.43332604],[4.98061711,43.43413462],[4.98042136,43.4342237],[4.98003696,43.43482379],[4.98010997,43.43497184],[4.97962991,43.43584276],[4.97905541,43.43651741],[4.97855626,43.43755246],[4.97820267,43.44041444],[4.97832759,43.44207166],[4.97827352,43.44351616],[4.9784177,43.44404539],[4.97880039,43.44447038],[4.97928225,43.44469016],[4.97981982,43.44469834],[4.98086993,43.44452616],[4.98129014,43.44496395],[4.98087629,43.4452487]]]]},"bbox":[4.97339685,43.41241189,5.02729739,43.44534554]},{"type":"Feature","id":"fr-quartier-13077-b4e771b14f7c","properties":{"id":"fr-quartier-13077-b4e771b14f7c","kind":"quartier","name":"La Lèque","cityCode":"13077","cityName":"Port-de-Bouc","sourceType":"iris","sourceIds":["130770101"],"colorIndex":2,"center":[4.9781514865490895,43.402493095]},"geometry":{"type":"MultiPolygon","coordinates":[[[[4.98268481,43.40318778],[4.98276311,43.40263019],[4.98266319,43.40259603],[4.9826425,43.40235343],[4.98369063,43.40232523],[4.98377418,43.40224271],[4.98369831,43.4021901],[4.98262644,43.40224573],[4.98252512,43.40109569],[4.98266049,43.40108421],[4.98263855,43.40080564],[4.98261636,43.40087804],[4.9824924,43.40086231],[4.98244363,43.40052123],[4.98231657,43.40041557],[4.98209363,43.40039265],[4.98202793,43.40027687],[4.98209822,43.40016759],[4.98222156,43.40016533],[4.98216713,43.39991075],[4.98237771,43.39896558],[4.9826296,43.39875399],[4.98259765,43.39872218],[4.98266474,43.39869935],[4.98289568,43.39859613],[4.98299305,43.39819838],[4.98300559,43.39813246],[4.98292983,43.39815454],[4.98268161,43.39811409],[4.98241734,43.39796595],[4.98227362,43.3977346],[4.98223713,43.39703333],[4.98250841,43.3966684],[4.98277757,43.39660048],[4.98408336,43.39653156],[4.9845462,43.39671206],[4.9845617,43.39716173],[4.98443286,43.39736207],[4.98426112,43.39739222],[4.98378885,43.39801282],[4.98391312,43.39803754],[4.98421984,43.39762696],[4.98462771,43.39728651],[4.98464549,43.39672824],[4.98485268,43.39665244],[4.98497074,43.39649729],[4.98493584,43.39620096],[4.98464473,43.39599032],[4.98260299,43.39618971],[4.98193333,43.39645395],[4.98150141,43.39681282],[4.98112469,43.39734167],[4.98033631,43.39774306],[4.97973603,43.39823099],[4.97793667,43.40009971],[4.97749143,43.40043181],[4.97585652,43.40080273],[4.97428104,43.4015397],[4.97413306,43.40175928],[4.97369154,43.4020931],[4.97358818,43.40239016],[4.97372189,43.4026181],[4.9738946,43.40283183],[4.97459914,43.40329324],[4.97480307,43.40358919],[4.97527631,43.40385594],[4.97523036,43.40395577],[4.97506908,43.40393171],[4.97558315,43.40416531],[4.97636303,43.40423207],[4.976691,43.40436557],[4.9768818,43.40456637],[4.97707142,43.40509206],[4.97687755,43.40530528],[4.97671772,43.4052875],[4.97671436,43.40533346],[4.97673129,43.40535925],[4.97671603,43.40538202],[4.97692151,43.40550696],[4.9768707,43.40564468],[4.97704167,43.40569915],[4.97686571,43.40578695],[4.97720623,43.40578254],[4.97729638,43.40596357],[4.97725183,43.40617587],[4.97714646,43.40623449],[4.97712228,43.40628533],[4.97707723,43.40633924],[4.97723926,43.40638488],[4.97719394,43.4065027],[4.97732409,43.4066983],[4.97721235,43.40703872],[4.97734844,43.40701193],[4.9778266,43.40709769],[4.97784852,43.4069452],[4.97827512,43.40696711],[4.97828596,43.40674373],[4.9783484,43.4066571],[4.97856223,43.40666579],[4.97840505,43.40633029],[4.97834687,43.40607398],[4.97840884,43.40550679],[4.97912422,43.40545592],[4.97910267,43.40486507],[4.97922073,43.40470902],[4.97944827,43.40454198],[4.97971503,43.40436702],[4.98011457,43.40417703],[4.98042987,43.40408577],[4.98059247,43.4040765],[4.98057136,43.4038573],[4.98102012,43.4037348],[4.98117792,43.40358613],[4.98150898,43.40352247],[4.98193364,43.4035246],[4.98190371,43.40319308],[4.98256772,43.40315662],[4.98268481,43.40318778]]]]},"bbox":[4.97358818,43.39599032,4.98497074,43.40709769]},{"type":"Feature","id":"fr-quartier-13077-776b1a6ad4c4","properties":{"id":"fr-quartier-13077-776b1a6ad4c4","kind":"quartier","name":"Les Comtes Est","cityCode":"13077","cityName":"Port-de-Bouc","sourceType":"iris","sourceIds":["130770108"],"colorIndex":3,"center":[4.9952747911862,43.40795535]},"geometry":{"type":"MultiPolygon","coordinates":[[[[5.00514177,43.41370028],[5.00524316,43.41349232],[5.00606258,43.41277609],[5.00642318,43.41217816],[5.00663511,43.41014848],[5.00641124,43.40939219],[5.00618327,43.40901394],[5.00561073,43.40891385],[5.0049989,43.40892608],[5.00438861,43.40894728],[5.00398813,43.40907348],[5.00361718,43.40852329],[5.00367622,43.40819822],[5.00344376,43.40786775],[5.00360169,43.40744006],[5.00377188,43.40701035],[5.0041846,43.40638536],[5.0045149,43.40612276],[5.00470911,43.40563861],[5.0046313,43.40443234],[5.00446275,43.40352654],[5.00340688,43.40351008],[5.00201647,43.40359879],[5.00164918,43.40354259],[5.00071175,43.40359591],[5.00011996,43.40354385],[5.00003969,43.40361373],[5.00019283,43.40375849],[4.99944104,43.40379037],[4.99753891,43.40382278],[4.99696783,43.40365603],[4.99551232,43.40368286],[4.99538038,43.40379329],[4.9947766,43.40382241],[4.99156798,43.40383648],[4.9915458,43.40390888],[4.99168459,43.40399632],[4.99397857,43.4039451],[4.99398387,43.40409799],[4.9943536,43.40408218],[4.99435672,43.40417212],[4.99398667,43.40417893],[4.99401894,43.40475429],[4.9932407,43.40487841],[4.99332098,43.40516491],[4.99216238,43.40542651],[4.99126001,43.40567349],[4.99074752,43.40591599],[4.98959137,43.40664188],[4.99259625,43.40647864],[4.99290918,43.40649718],[4.99431126,43.40674314],[4.99478123,43.40687667],[4.9954906,43.40715068],[4.99632227,43.40760511],[4.99585728,43.40804295],[4.99498586,43.40765224],[4.99463016,43.4087504],[4.99365601,43.40881514],[4.99349626,43.40890717],[4.99314964,43.40927082],[4.99293446,43.40933058],[4.99143101,43.40915306],[4.99123759,43.41002054],[4.99047016,43.41056651],[4.98982433,43.41091675],[4.98960852,43.41088742],[4.98910965,43.41059691],[4.98898431,43.41057761],[4.98894423,43.41063234],[4.98886503,43.4106266],[4.98854147,43.41144428],[4.98840654,43.41168344],[4.98815007,43.41197792],[4.98703415,43.41258606],[4.98619369,43.41323592],[4.98610421,43.41389811],[4.98661511,43.4144296],[4.98678841,43.41451461],[4.98699102,43.41455499],[4.98714482,43.41471866],[4.98998311,43.4139025],[4.99081371,43.41371804],[4.99201324,43.4135286],[4.99311975,43.41343355],[4.99455411,43.41343054],[5.00514177,43.41370028]]]]},"bbox":[4.98610421,43.40351008,5.00663511,43.41471866]},{"type":"Feature","id":"fr-quartier-13077-3897f25eabe6","properties":{"id":"fr-quartier-13077-3897f25eabe6","kind":"quartier","name":"Les Comtes Ouest","cityCode":"13077","cityName":"Port-de-Bouc","sourceType":"iris","sourceIds":["130770107"],"colorIndex":4,"center":[4.989295313452124,43.409909709999994]},"geometry":{"type":"MultiPolygon","coordinates":[[[[4.98713582,43.40712884],[4.98733416,43.40979888],[4.98729167,43.41060599],[4.98691415,43.41129146],[4.98641929,43.4117964],[4.98575602,43.41210734],[4.98470489,43.41241189],[4.98610421,43.41389811],[4.98619369,43.41323592],[4.98703415,43.41258606],[4.98815007,43.41197792],[4.98840654,43.41168344],[4.98854147,43.41144428],[4.98886503,43.4106266],[4.98894423,43.41063234],[4.98898431,43.41057761],[4.98910965,43.41059691],[4.98960852,43.41088742],[4.98982433,43.41091675],[4.99047016,43.41056651],[4.99123759,43.41002054],[4.99143101,43.40915306],[4.99293446,43.40933058],[4.99314964,43.40927082],[4.99349626,43.40890717],[4.99365601,43.40881514],[4.99463016,43.4087504],[4.99498586,43.40765224],[4.99405484,43.40735801],[4.99339582,43.40721896],[4.99264202,43.40712304],[4.99163358,43.4071236],[4.98923084,43.40724606],[4.98886806,43.40728512],[4.98854079,43.40738742],[4.98835502,43.40740523],[4.98807993,43.40737429],[4.98805108,43.40707514],[4.98713582,43.40712884]]]]},"bbox":[4.98470489,43.40707514,4.99498586,43.41389811]},{"type":"Feature","id":"fr-quartier-13077-fe1def626aa0","properties":{"id":"fr-quartier-13077-fe1def626aa0","kind":"quartier","name":"Saint-Jean Bergerie","cityCode":"13077","cityName":"Port-de-Bouc","sourceType":"iris","sourceIds":["130770106"],"colorIndex":5,"center":[4.999199248213309,43.421563695]},"geometry":{"type":"MultiPolygon","coordinates":[[[[5.00541704,43.42790612],[5.00514741,43.42672408],[5.00504433,43.4251124],[5.00426746,43.42273113],[5.00399584,43.42007234],[5.00404723,43.41885377],[5.00413698,43.41859473],[5.00394077,43.41817179],[5.00386712,43.41761699],[5.00416749,43.41691848],[5.00458773,43.41654263],[5.00467841,43.41631057],[5.00465027,43.41571533],[5.00514177,43.41370028],[4.99455411,43.41343054],[4.99311975,43.41343355],[4.99201324,43.4135286],[4.99081371,43.41371804],[4.98998311,43.4139025],[4.98714482,43.41471866],[4.98704931,43.41506328],[4.98738969,43.41566089],[4.98879444,43.41755015],[4.98895871,43.41787381],[4.98916674,43.41860614],[4.9897524,43.41940532],[4.99010788,43.41975966],[4.99015122,43.41997755],[4.99040487,43.42031486],[4.99170468,43.421235],[4.99183151,43.42129656],[4.99266619,43.41990791],[4.99293361,43.41932343],[4.99303476,43.41924957],[4.99444758,43.41983192],[4.99482754,43.41993022],[4.99477346,43.4200797],[4.99452442,43.42044606],[4.994308,43.42093421],[4.9942605,43.42113127],[4.994244,43.42183083],[4.99440165,43.42196201],[4.99472073,43.42197774],[4.99481724,43.42201916],[4.99547373,43.42250743],[4.99572147,43.42278004],[4.99588487,43.42286343],[4.99576463,43.42302763],[4.9949722,43.42331941],[4.99409656,43.4238467],[4.99379962,43.42404295],[4.99371301,43.42414444],[4.99401819,43.42415052],[4.99419496,43.42419226],[4.99445663,43.42429634],[4.99624675,43.42475293],[4.99693002,43.42469534],[4.9972735,43.4247376],[4.99858055,43.42543344],[4.99878592,43.42558714],[4.99904358,43.42589557],[4.99922143,43.42603897],[5.00046677,43.42680523],[5.00059324,43.42685599],[5.00083054,43.42686241],[5.0012768,43.42669937],[5.00141962,43.42668773],[5.00161386,43.42669854],[5.0020575,43.42681544],[5.00241424,43.4274865],[5.00258506,43.42760483],[5.00272936,43.42763546],[5.00329348,43.42763043],[5.00541704,43.42790612]]]]},"bbox":[4.98704931,43.41343054,5.00541704,43.42790612]},{"type":"Feature","id":"fr-quartier-13077-d4dc0e70237c","properties":{"id":"fr-quartier-13077-d4dc0e70237c","kind":"quartier","name":"Tassy Est","cityCode":"13077","cityName":"Port-de-Bouc","sourceType":"iris","sourceIds":["130770103"],"colorIndex":6,"center":[4.984791494976953,43.41028668]},"geometry":{"type":"MultiPolygon","coordinates":[[[[4.98470489,43.41241189],[4.98575602,43.41210734],[4.98641929,43.4117964],[4.98691415,43.41129146],[4.98729167,43.41060599],[4.98733416,43.40979888],[4.98713582,43.40712884],[4.98623555,43.40718765],[4.98620868,43.40744642],[4.98324759,43.40780757],[4.98152721,43.40806765],[4.981093,43.40818358],[4.98120466,43.40852261],[4.98140952,43.40891573],[4.98198684,43.40955041],[4.9820375,43.41026852],[4.98225233,43.41026999],[4.98229669,43.41030337],[4.98249033,43.41108726],[4.98258709,43.41135187],[4.98269943,43.4114596],[4.98257284,43.41154741],[4.98245863,43.41170789],[4.98234307,43.41215187],[4.9840599,43.41174966],[4.98470489,43.41241189]]]]},"bbox":[4.981093,43.40712884,4.98733416,43.41241189]},{"type":"Feature","id":"fr-quartier-13077-45c18441358f","properties":{"id":"fr-quartier-13077-45c18441358f","kind":"quartier","name":"Tassy Ouest","cityCode":"13077","cityName":"Port-de-Bouc","sourceType":"iris","sourceIds":["130770104"],"colorIndex":7,"center":[4.9763424734722435,43.41468939]},"geometry":{"type":"MultiPolygon","coordinates":[[[[4.97443219,43.4122433],[4.97412584,43.41241717],[4.97384431,43.41219912],[4.97363687,43.41216151],[4.97348676,43.41239192],[4.97357935,43.41257202],[4.97316067,43.41278213],[4.9728511,43.41311445],[4.97263554,43.41320027],[4.97246477,43.41315208],[4.97215409,43.41323603],[4.9720446,43.41317503],[4.97174585,43.41367903],[4.97149826,43.41391122],[4.97144336,43.4141102],[4.97150645,43.41436643],[4.97140012,43.41465004],[4.97147689,43.41472874],[4.9712906,43.41538098],[4.97142594,43.41616055],[4.97202986,43.41649152],[4.97324841,43.4167816],[4.97358227,43.41719309],[4.97369535,43.41757439],[4.97367555,43.41800492],[4.97339115,43.41871205],[4.97352203,43.41892834],[4.97341438,43.41928128],[4.97350219,43.41946596],[4.97342014,43.41955745],[4.97339698,43.41956597],[4.97347196,43.4196285],[4.97350682,43.41992484],[4.97326715,43.42013619],[4.97334518,43.42025176],[4.97320946,43.42025424],[4.97348924,43.42049212],[4.97346187,43.42059431],[4.97218764,43.42192422],[4.9739586,43.42236982],[4.97443398,43.42150712],[4.9755763,43.42065205],[4.97569591,43.4203241],[4.97614806,43.42054803],[4.97644147,43.42060747],[4.97681866,43.42055379],[4.97737157,43.42040421],[4.97760149,43.42030462],[4.9780027,43.4202316],[4.97837798,43.41990707],[4.97867032,43.41971994],[4.97874626,43.41963036],[4.97876925,43.41947335],[4.97896675,43.41943645],[4.97909939,43.41945202],[4.9801698,43.41805286],[4.98073709,43.41749713],[4.98136888,43.41702211],[4.98248729,43.41637439],[4.9825353,43.41629882],[4.98243021,43.41547011],[4.98195701,43.41549497],[4.98202823,43.4150536],[4.98168196,43.41489255],[4.98129523,43.41477544],[4.98118615,43.41458305],[4.98120782,43.41428028],[4.98102103,43.41426929],[4.98142848,43.41323142],[4.98470489,43.41241189],[4.9840599,43.41174966],[4.98234307,43.41215187],[4.98245863,43.41170789],[4.98257284,43.41154741],[4.98269943,43.4114596],[4.98258709,43.41135187],[4.98249033,43.41108726],[4.98229669,43.41030337],[4.98225233,43.41026999],[4.9820375,43.41026852],[4.98198684,43.40955041],[4.98140952,43.40891573],[4.98120466,43.40852261],[4.981093,43.40818358],[4.98027717,43.40847298],[4.97950869,43.408883],[4.97898343,43.40929486],[4.9783614,43.40990828],[4.97822978,43.40999348],[4.97797398,43.40987756],[4.97685217,43.41128663],[4.97661887,43.41164636],[4.97635964,43.41218564],[4.97620173,43.41279957],[4.97465348,43.41246875],[4.97473287,43.41237191],[4.97443219,43.4122433]]]]},"bbox":[4.9712906,43.40818358,4.98470489,43.42236982]}]}