{"type":"FeatureCollection","metadata":{"sourceType":"iris","source":"IGN / INSEE — Contours IRIS 2026","sourceUrl":"https://data.geopf.fr/wfs/ows?service=WFS&version=2.0.0&request=GetFeature&typeNames=STATISTICALUNITS.IRIS%3Acontours_iris&outputFormat=application%2Fjson&srsName=CRS%3A84&count=1000&CQL_FILTER=code_insee%3D%2713075%27&sortBy=code_iris","retrievedDate":"2026-09-10","sourceYear":"2026","license":"Licence Ouverte 2.0"},"features":[{"type":"Feature","id":"fr-quartier-13075-2bd5fb5dde0b","properties":{"id":"fr-quartier-13075-2bd5fb5dde0b","kind":"quartier","name":"Centre","cityCode":"13075","cityName":"Plan-de-Cuques","sourceType":"iris","sourceIds":["130750101"],"colorIndex":0,"center":[5.461224226834389,43.345748369999995]},"geometry":{"type":"MultiPolygon","coordinates":[[[[5.46395491,43.34438532],[5.46379998,43.34436725],[5.46364472,43.34425468],[5.46183957,43.34463599],[5.46102835,43.34487226],[5.4607144,43.34500001],[5.46059672,43.34490099],[5.46027338,43.34501094],[5.45976891,43.34498012],[5.45893255,43.34503244],[5.45801838,43.34513962],[5.45716952,43.34602654],[5.45700377,43.34627511],[5.45716907,43.34644956],[5.45857458,43.34690274],[5.45907645,43.34716135],[5.460247,43.34808967],[5.46164377,43.34709575],[5.46280836,43.34797017],[5.4637269,43.34744523],[5.46458829,43.34691079],[5.46484187,43.34689961],[5.46537623,43.34702334],[5.46552781,43.34699198],[5.46588688,43.34679479],[5.46586117,43.34671257],[5.46536574,43.34623064],[5.46480907,43.3454702],[5.46469758,43.34542954],[5.46471941,43.34533454],[5.46421635,43.34458727],[5.46411503,43.34446717],[5.46395491,43.34438532]]]]},"bbox":[5.45700377,43.34425468,5.46588688,43.34808967]},{"type":"Feature","id":"fr-quartier-13075-665de1f2775c","properties":{"id":"fr-quartier-13075-665de1f2775c","kind":"quartier","name":"Est","cityCode":"13075","cityName":"Plan-de-Cuques","sourceType":"iris","sourceIds":["130750103"],"colorIndex":1,"center":[5.468849465574307,43.34714587]},"geometry":{"type":"MultiPolygon","coordinates":[[[[5.47649513,43.35192387],[5.47655289,43.35123042],[5.47672729,43.35061079],[5.4765857,43.35032962],[5.47633957,43.35028485],[5.4756177,43.35033378],[5.47481262,43.35062762],[5.47446905,43.35063998],[5.47325936,43.34992691],[5.47267363,43.34944077],[5.47262202,43.34930155],[5.4727415,43.34863729],[5.47328951,43.3472684],[5.47452121,43.34651389],[5.47460935,43.34629766],[5.47452075,43.34598648],[5.47432654,43.34585772],[5.47410261,43.34584124],[5.47289374,43.34606419],[5.47244039,43.34604665],[5.47177233,43.34579641],[5.47085412,43.34526297],[5.47015848,43.34451293],[5.47001543,43.34416788],[5.47002476,43.34366634],[5.47040226,43.34323831],[5.47009488,43.34317332],[5.47017666,43.34260713],[5.47009611,43.34248297],[5.46873157,43.34301454],[5.4677952,43.34329332],[5.46773272,43.34341805],[5.46752659,43.34358656],[5.46715388,43.34375257],[5.46688192,43.34379478],[5.46651863,43.34377786],[5.46634719,43.34374847],[5.46626735,43.34364048],[5.46428283,43.34406553],[5.46426942,43.34421345],[5.46420293,43.34430226],[5.46410082,43.34436579],[5.46395491,43.34438532],[5.46411503,43.34446717],[5.46421635,43.34458727],[5.46471941,43.34533454],[5.46469758,43.34542954],[5.46480907,43.3454702],[5.46536574,43.34623064],[5.46586117,43.34671257],[5.46588688,43.34679479],[5.46552781,43.34699198],[5.46537623,43.34702334],[5.46484187,43.34689961],[5.46458829,43.34691079],[5.4637269,43.34744523],[5.46413266,43.34779151],[5.46456561,43.34802375],[5.4651987,43.34829284],[5.46589818,43.3484704],[5.46585501,43.3488161],[5.46579017,43.34894358],[5.46513621,43.34985853],[5.46446599,43.35114376],[5.46421763,43.35145003],[5.46357714,43.35201814],[5.46433537,43.35235729],[5.46452521,43.35238356],[5.46640871,43.3517241],[5.46675556,43.3517306],[5.46789158,43.351963],[5.46802149,43.35179982],[5.46811559,43.35157807],[5.46821045,43.35076947],[5.46829665,43.35042098],[5.46880794,43.34919966],[5.46913542,43.34930109],[5.47004439,43.34973306],[5.47042687,43.34999524],[5.47147625,43.35088211],[5.47226237,43.35141047],[5.4726524,43.35161846],[5.4730509,43.35173626],[5.47351158,43.35177973],[5.47649513,43.35192387]]]]},"bbox":[5.46357714,43.34248297,5.47672729,43.35238356]},{"type":"Feature","id":"fr-quartier-13075-c1e58600b23f","properties":{"id":"fr-quartier-13075-c1e58600b23f","kind":"quartier","name":"Nord","cityCode":"13075","cityName":"Plan-de-Cuques","sourceType":"iris","sourceIds":["130750105"],"colorIndex":2,"center":[5.466543056770417,43.368138115]},"geometry":{"type":"MultiPolygon","coordinates":[[[[5.47534447,43.39144835],[5.4759994,43.39100763],[5.4769322,43.39011232],[5.47708969,43.38955607],[5.47733869,43.38923355],[5.47842283,43.38835727],[5.47918591,43.38730561],[5.47921025,43.38638068],[5.47983884,43.3853591],[5.48026021,43.38482741],[5.48017735,43.38373482],[5.47949906,43.38322923],[5.47838587,43.38334203],[5.47830869,43.38329789],[5.47817826,43.38281935],[5.47819283,43.38244098],[5.478047,43.38220671],[5.47693998,43.381602],[5.47689669,43.38145628],[5.47688609,43.38098039],[5.47738163,43.38073863],[5.4775586,43.38046366],[5.47756909,43.380134],[5.47734669,43.37969716],[5.47724834,43.37907476],[5.47773273,43.37825902],[5.47773677,43.37803751],[5.47740562,43.37736734],[5.47683999,43.37683935],[5.47687183,43.3765182],[5.47594893,43.37580217],[5.47580475,43.37560566],[5.47564052,43.37500008],[5.47497292,43.37445281],[5.47472056,43.37409316],[5.47448515,43.37398423],[5.47439849,43.3737765],[5.47361655,43.37289342],[5.47332379,43.37239698],[5.47328269,43.3720433],[5.47344702,43.37078486],[5.47318925,43.37041363],[5.47315425,43.37014441],[5.47257671,43.36930796],[5.47286517,43.3682393],[5.47346793,43.36716436],[5.47349091,43.36669401],[5.47334518,43.36614471],[5.47343559,43.36592303],[5.47337141,43.36511805],[5.47296576,43.36417506],[5.47279081,43.36326101],[5.47188162,43.3617085],[5.4723571,43.36149152],[5.47258315,43.3605503],[5.47322118,43.35935036],[5.47409187,43.35799657],[5.47446777,43.35632379],[5.47411546,43.35598983],[5.4743744,43.35463834],[5.47505611,43.35396931],[5.4755303,43.35309262],[5.47588795,43.35266141],[5.47592218,43.35242481],[5.47621809,43.35242254],[5.47639528,43.35232668],[5.47649513,43.35192387],[5.47351158,43.35177973],[5.4730509,43.35173626],[5.4726524,43.35161846],[5.47226237,43.35141047],[5.47147625,43.35088211],[5.47042687,43.34999524],[5.47004439,43.34973306],[5.46913542,43.34930109],[5.46880794,43.34919966],[5.46829665,43.35042098],[5.46821045,43.35076947],[5.46811559,43.35157807],[5.46802149,43.35179982],[5.46789158,43.351963],[5.46775462,43.35210563],[5.46674235,43.3517966],[5.46659349,43.35223742],[5.4660978,43.35298945],[5.46514405,43.35430725],[5.46473201,43.35473786],[5.464723,43.35481547],[5.46410225,43.35512482],[5.46351114,43.3554929],[5.46355531,43.355545],[5.46405736,43.35571897],[5.46507753,43.35621146],[5.46463329,43.35649519],[5.46455154,43.35648715],[5.46392052,43.35615321],[5.46357006,43.35617829],[5.46311816,43.35628309],[5.46285984,43.35644378],[5.46278027,43.3566022],[5.46287141,43.35677203],[5.46339478,43.35727134],[5.46342535,43.35738045],[5.46331001,43.35748118],[5.46251812,43.35745241],[5.46352662,43.35885421],[5.46468114,43.36012128],[5.46354596,43.36092118],[5.46367941,43.36138796],[5.46353463,43.36244432],[5.46297381,43.36306102],[5.46261952,43.36314198],[5.46247146,43.36340097],[5.46252406,43.36362118],[5.46225448,43.36395224],[5.46225084,43.36415573],[5.46256043,43.364443],[5.46250791,43.36471511],[5.46207504,43.36494907],[5.46154764,43.36481886],[5.46134686,43.36491254],[5.46141422,43.36614227],[5.4610917,43.36737098],[5.46022448,43.36803693],[5.45981467,43.36872489],[5.45927919,43.36921499],[5.45992726,43.36925246],[5.4593469,43.37065623],[5.4585364,43.37184291],[5.45778713,43.37264388],[5.45691517,43.37401106],[5.45650489,43.3744587],[5.45497049,43.37666985],[5.45164883,43.38110322],[5.45085339,43.3821581],[5.45008844,43.3834373],[5.45003728,43.384091],[5.44967285,43.38474909],[5.44889262,43.38581531],[5.4480477,43.38628986],[5.44750842,43.386987],[5.4506603,43.38794265],[5.45342203,43.38796558],[5.45583158,43.3887588],[5.45591414,43.38898734],[5.45628715,43.38942801],[5.45697181,43.38997051],[5.45870718,43.38925065],[5.45979276,43.38837273],[5.46104317,43.3882624],[5.46234083,43.38784316],[5.46345694,43.38727682],[5.46403026,43.38786951],[5.46723273,43.39241661],[5.4679015,43.39261378],[5.46816769,43.39139532],[5.4686297,43.39068543],[5.46886038,43.39053885],[5.47534447,43.39144835]]]]},"bbox":[5.44750842,43.34919966,5.48026021,43.39261378]},{"type":"Feature","id":"fr-quartier-13075-577323e6219f","properties":{"id":"fr-quartier-13075-577323e6219f","kind":"quartier","name":"Ouest","cityCode":"13075","cityName":"Plan-de-Cuques","sourceType":"iris","sourceIds":["130750104"],"colorIndex":3,"center":[5.460208998062191,43.35199057]},"geometry":{"type":"MultiPolygon","coordinates":[[[[5.45259289,43.34660383],[5.45279875,43.34712298],[5.45378726,43.348123],[5.45422413,43.34873771],[5.45505265,43.34942634],[5.45551686,43.34992972],[5.45589823,43.35042778],[5.45623465,43.35123108],[5.45658533,43.35179014],[5.45829453,43.35331647],[5.45792642,43.35356335],[5.45807637,43.35372465],[5.45797914,43.35378716],[5.45815077,43.35396507],[5.45859124,43.35373725],[5.45956404,43.35485549],[5.46049992,43.35554163],[5.46173599,43.35623805],[5.46197101,43.35671512],[5.46251812,43.35745241],[5.46331001,43.35748118],[5.46342535,43.35738045],[5.46339478,43.35727134],[5.46287141,43.35677203],[5.46278027,43.3566022],[5.46285984,43.35644378],[5.46311816,43.35628309],[5.46357006,43.35617829],[5.46392052,43.35615321],[5.46455154,43.35648715],[5.46463329,43.35649519],[5.46507753,43.35621146],[5.46405736,43.35571897],[5.46355531,43.355545],[5.46351114,43.3554929],[5.46410225,43.35512482],[5.464723,43.35481547],[5.46473201,43.35473786],[5.46514405,43.35430725],[5.4660978,43.35298945],[5.46659349,43.35223742],[5.46674235,43.3517966],[5.46775462,43.35210563],[5.46789158,43.351963],[5.46675556,43.3517306],[5.46640871,43.3517241],[5.46452521,43.35238356],[5.46433537,43.35235729],[5.46357714,43.35201814],[5.46421763,43.35145003],[5.46446599,43.35114376],[5.46513621,43.34985853],[5.46579017,43.34894358],[5.46585501,43.3488161],[5.46589818,43.3484704],[5.4651987,43.34829284],[5.46456561,43.34802375],[5.46413266,43.34779151],[5.4637269,43.34744523],[5.46280836,43.34797017],[5.46164377,43.34709575],[5.460247,43.34808967],[5.45907645,43.34716135],[5.45857458,43.34690274],[5.45716907,43.34644956],[5.45700377,43.34627511],[5.45694462,43.34633406],[5.45650269,43.3464107],[5.45497358,43.34650032],[5.45347743,43.34675567],[5.45316819,43.34673389],[5.45259289,43.34660383]]]]},"bbox":[5.45259289,43.34627511,5.46789158,43.35748118]},{"type":"Feature","id":"fr-quartier-13075-c02d1bfa451b","properties":{"id":"fr-quartier-13075-c02d1bfa451b","kind":"quartier","name":"Sud","cityCode":"13075","cityName":"Plan-de-Cuques","sourceType":"iris","sourceIds":["130750102"],"colorIndex":4,"center":[5.459487980382907,43.34160217]},"geometry":{"type":"MultiPolygon","coordinates":[[[[5.47009611,43.34248297],[5.46970436,43.342032],[5.46916695,43.34174995],[5.46877391,43.34167162],[5.46828495,43.34171428],[5.46780117,43.34153272],[5.46774134,43.34137388],[5.46806606,43.34066354],[5.46800057,43.34034372],[5.46770837,43.34014338],[5.46701646,43.34002506],[5.46654287,43.33967765],[5.46613606,43.34019905],[5.46589845,43.34087049],[5.46542493,43.34052487],[5.46471599,43.34078674],[5.46448235,43.34080197],[5.46390603,43.34009957],[5.46291805,43.33934355],[5.46225471,43.33986447],[5.46092495,43.3386986],[5.45937719,43.33814428],[5.45911338,43.33814578],[5.45832039,43.3376805],[5.45869814,43.3374595],[5.45884361,43.33725639],[5.45799397,43.3370813],[5.45730352,43.33679368],[5.45695222,43.33656495],[5.4572895,43.33614688],[5.45672285,43.33601485],[5.45581652,43.33604263],[5.45503427,43.33571209],[5.4546283,43.33593641],[5.45456868,43.33589726],[5.45408739,43.33603239],[5.45326167,43.33656324],[5.45289002,43.33663827],[5.45291595,43.33672588],[5.45225508,43.33681377],[5.45220138,43.3371165],[5.45235107,43.33779442],[5.45151075,43.33809878],[5.45023185,43.3391088],[5.45089298,43.34096857],[5.45114596,43.34262519],[5.45173698,43.34431375],[5.45192854,43.34542455],[5.45259289,43.34660383],[5.45316819,43.34673389],[5.45347743,43.34675567],[5.45497358,43.34650032],[5.45650269,43.3464107],[5.45694462,43.34633406],[5.45700377,43.34627511],[5.45716952,43.34602654],[5.45801838,43.34513962],[5.45893255,43.34503244],[5.45976891,43.34498012],[5.46027338,43.34501094],[5.46059672,43.34490099],[5.4607144,43.34500001],[5.46102835,43.34487226],[5.46183957,43.34463599],[5.46364472,43.34425468],[5.46379998,43.34436725],[5.46395491,43.34438532],[5.46410082,43.34436579],[5.46420293,43.34430226],[5.46426942,43.34421345],[5.46428283,43.34406553],[5.46626735,43.34364048],[5.46634719,43.34374847],[5.46651863,43.34377786],[5.46688192,43.34379478],[5.46715388,43.34375257],[5.46752659,43.34358656],[5.46773272,43.34341805],[5.4677952,43.34329332],[5.46873157,43.34301454],[5.47009611,43.34248297]]]]},"bbox":[5.45023185,43.33571209,5.47009611,43.34675567]}]}