{"type":"FeatureCollection","metadata":{"sourceType":"iris","referenceFile":"saint-remy-de-provence-quartiers.geojson","source":"IGN / INSEE - Contours IRIS WFS Géoplateforme","sourceUrl":"https://geoservices.ign.fr/contoursiris","license":"Licence Ouverte / Open Licence 2.0","sourceYear":"2026"},"features":[{"type":"Feature","id":"fr-quartier-13100-a9a4dc2e45c3","properties":{"id":"fr-quartier-13100-a9a4dc2e45c3","kind":"quartier","name":"Ceinture Centre Ville","cityCode":"13100","cityName":"Saint-Rémy-de-Provence","sourceType":"iris","sourceIds":["131000102"],"colorIndex":0,"center":[4.8317227351545595,43.7845433205971]},"geometry":{"type":"MultiPolygon","coordinates":[[[[4.82107681,43.79390539],[4.82121079,43.79358631],[4.82137086,43.79276003],[4.82163477,43.79203372],[4.82219113,43.79104869],[4.82225301,43.79084603],[4.82282689,43.79068432],[4.82331373,43.79048175],[4.82401986,43.7902593],[4.82548029,43.7898838],[4.82626096,43.78993373],[4.82687688,43.79003863],[4.82686672,43.7892926],[4.82795849,43.78885214],[4.82760277,43.7888797],[4.82759739,43.78847834],[4.82764445,43.7880455],[4.82804311,43.7871846],[4.82779659,43.78701321],[4.82790306,43.78688451],[4.82809669,43.78645101],[4.82921396,43.78646016],[4.82930514,43.78593116],[4.82935239,43.78589347],[4.83018908,43.78594873],[4.83028092,43.78598409],[4.83041887,43.78594667],[4.83106009,43.78602771],[4.83087913,43.7864295],[4.83212461,43.78656249],[4.83226966,43.78666896],[4.83239572,43.78668664],[4.83254921,43.78666876],[4.83266191,43.78657955],[4.83270082,43.78635927],[4.83264035,43.78625588],[4.83300275,43.78628218],[4.83296561,43.78644123],[4.83403314,43.78648808],[4.83402289,43.78655576],[4.83460087,43.78664054],[4.83468769,43.78624843],[4.83532877,43.78636365],[4.83536796,43.78619107],[4.83592215,43.78623124],[4.83752016,43.7861602],[4.83749325,43.78640549],[4.83736965,43.78642557],[4.83749285,43.78774667],[4.83731005,43.78778036],[4.83678813,43.78777835],[4.83693618,43.78851936],[4.8375798,43.7884419],[4.83749363,43.78993665],[4.83749609,43.79001312],[4.83760064,43.79001856],[4.83735296,43.79244226],[4.83885482,43.79238992],[4.83913128,43.79240866],[4.83919292,43.79247063],[4.83936139,43.79249299],[4.83960373,43.79237819],[4.84091542,43.79220842],[4.84146252,43.79210376],[4.84234337,43.79175223],[4.84242529,43.79101634],[4.84233299,43.78872979],[4.84196499,43.78841467],[4.84176617,43.78829832],[4.84139208,43.78821823],[4.84072918,43.78827533],[4.84049091,43.78809123],[4.84343479,43.78779484],[4.84406627,43.7873413],[4.84466018,43.7869946],[4.84544641,43.78675536],[4.84537405,43.78647665],[4.84534336,43.78583358],[4.84472302,43.78586118],[4.84469803,43.7858184],[4.84468615,43.78514171],[4.84533371,43.78511095],[4.84528865,43.78448433],[4.84547566,43.78446586],[4.84510657,43.78411656],[4.84512863,43.78391456],[4.84490571,43.78382112],[4.84520713,43.78257385],[4.84520798,43.7822534],[4.84527976,43.78185973],[4.8435501,43.78208253],[4.84221647,43.78214199],[4.84158714,43.78227505],[4.83987371,43.7824237],[4.83992811,43.78233818],[4.83989576,43.78225951],[4.84000334,43.78170322],[4.84015685,43.78133878],[4.84052958,43.78083742],[4.84121116,43.77970347],[4.84128663,43.77965538],[4.84139895,43.77928534],[4.8410449,43.77916981],[4.8410976,43.77879987],[4.84055658,43.77870369],[4.84060187,43.77883705],[4.83971588,43.77867559],[4.83886207,43.77920577],[4.83905464,43.77862644],[4.83906438,43.77815642],[4.83871764,43.7768382],[4.83819814,43.77686947],[4.83752569,43.7767413],[4.8368172,43.77653541],[4.8359977,43.7763539],[4.83501743,43.7762336],[4.83447888,43.77625167],[4.83326545,43.77637561],[4.83318876,43.7764246],[4.8332046,43.77664756],[4.83203233,43.7768158],[4.83158042,43.77721224],[4.83158321,43.77698897],[4.83108427,43.77723589],[4.83050341,43.77744637],[4.83013482,43.77749667],[4.8296927,43.77750049],[4.8293066,43.77762489],[4.82886644,43.7778456],[4.82869465,43.77798981],[4.82856143,43.77813606],[4.82838588,43.77847385],[4.82801659,43.77830812],[4.8273032,43.77818147],[4.82720039,43.77826871],[4.82670108,43.77850481],[4.82404512,43.77963663],[4.82297995,43.78020533],[4.82234449,43.78049769],[4.82087566,43.78103171],[4.82170423,43.78223841],[4.82147017,43.78226213],[4.82162267,43.78236939],[4.82220327,43.78308427],[4.8228455,43.7835884],[4.82239921,43.7839307],[4.8221572,43.784329],[4.82213734,43.78464167],[4.82235627,43.78511777],[4.82235974,43.78522663],[4.82229251,43.78533937],[4.82185148,43.78557447],[4.82106449,43.78653364],[4.81950825,43.78885583],[4.81933362,43.78902977],[4.8189996,43.78919286],[4.81869677,43.78943825],[4.8179133,43.78972945],[4.81782135,43.7898075],[4.81717829,43.79084255],[4.81674696,43.79142402],[4.81664974,43.79176678],[4.81680339,43.79230069],[4.81691758,43.792414],[4.81729656,43.792531],[4.81735319,43.79263177],[4.81665327,43.79422494],[4.81632594,43.79483438],[4.81619126,43.79532809],[4.81679472,43.7950786],[4.81695375,43.7947258],[4.81798082,43.79458986],[4.82107681,43.79390539]]]]},"bbox":[4.81619126,43.7762336,4.84547566,43.79532809]},{"type":"Feature","id":"fr-quartier-13100-eed74b223ebe","properties":{"id":"fr-quartier-13100-eed74b223ebe","kind":"quartier","name":"Chemin de Ranjarde","cityCode":"13100","cityName":"Saint-Rémy-de-Provence","sourceType":"iris","sourceIds":["131000101"],"colorIndex":1,"center":[4.830568678353561,43.78991048870968]},"geometry":{"type":"MultiPolygon","coordinates":[[[[4.82993234,43.79310808],[4.83014809,43.79258869],[4.83044206,43.79098064],[4.83226628,43.79156656],[4.83310927,43.79181522],[4.83342012,43.7918604],[4.83342009,43.79193691],[4.83403408,43.7920967],[4.8355952,43.79226485],[4.83570145,43.79224596],[4.83572208,43.7921916],[4.8362159,43.79240111],[4.83735296,43.79244226],[4.83760064,43.79001856],[4.83749609,43.79001312],[4.83749363,43.78993665],[4.8375798,43.7884419],[4.83693618,43.78851936],[4.83678813,43.78777835],[4.83731005,43.78778036],[4.83749285,43.78774667],[4.83736965,43.78642557],[4.83749325,43.78640549],[4.83752016,43.7861602],[4.83592215,43.78623124],[4.83536796,43.78619107],[4.83532877,43.78636365],[4.83468769,43.78624843],[4.83460087,43.78664054],[4.83402289,43.78655576],[4.83403314,43.78648808],[4.83296561,43.78644123],[4.83300275,43.78628218],[4.83264035,43.78625588],[4.83270082,43.78635927],[4.83266191,43.78657955],[4.83254921,43.78666876],[4.83239572,43.78668664],[4.83226966,43.78666896],[4.83212461,43.78656249],[4.83087913,43.7864295],[4.83106009,43.78602771],[4.83041887,43.78594667],[4.83028092,43.78598409],[4.83018908,43.78594873],[4.82935239,43.78589347],[4.82930514,43.78593116],[4.82921396,43.78646016],[4.82809669,43.78645101],[4.82790306,43.78688451],[4.82779659,43.78701321],[4.82804311,43.7871846],[4.82764445,43.7880455],[4.82759739,43.78847834],[4.82760277,43.7888797],[4.82795849,43.78885214],[4.82686672,43.7892926],[4.82687688,43.79003863],[4.82626096,43.78993373],[4.82548029,43.7898838],[4.82401986,43.7902593],[4.82331373,43.79048175],[4.82282689,43.79068432],[4.82225301,43.79084603],[4.82219113,43.79104869],[4.82163477,43.79203372],[4.82137086,43.79276003],[4.82121079,43.79358631],[4.82107681,43.79390539],[4.82484926,43.79308259],[4.82576417,43.79305467],[4.82612379,43.79314855],[4.82628291,43.79315039],[4.82639175,43.79305675],[4.82633716,43.79290375],[4.82896322,43.79315045],[4.82931518,43.79315984],[4.82972414,43.79304766],[4.82985627,43.79306075],[4.82993234,43.79310808]]]]},"bbox":[4.82107681,43.78589347,4.83760064,43.79390539]},{"type":"Feature","id":"fr-quartier-13100-01b151ea0b1e","properties":{"id":"fr-quartier-13100-01b151ea0b1e","kind":"quartier","name":"Les Écarts","cityCode":"13100","cityName":"Saint-Rémy-de-Provence","sourceType":"iris","sourceIds":["131000104"],"colorIndex":2,"center":[4.855054549394491,43.77829952522722]},"geometry":{"type":"MultiPolygon","coordinates":[[[[4.83247824,43.75323635],[4.83099365,43.75364116],[4.82644107,43.75511005],[4.82545456,43.75571615],[4.82462438,43.7560847],[4.82390227,43.75618231],[4.82298982,43.75611297],[4.82229714,43.75651071],[4.82077332,43.75771712],[4.81955478,43.75782479],[4.81917331,43.75770065],[4.81887943,43.75775326],[4.81842814,43.75754207],[4.81790888,43.75769295],[4.81769879,43.75764695],[4.81747046,43.75769127],[4.81451206,43.7587379],[4.81032546,43.76037733],[4.80414336,43.76254471],[4.80295101,43.76309371],[4.80272318,43.76311548],[4.80221132,43.76338588],[4.80126638,43.76414139],[4.79991578,43.76550486],[4.79936721,43.76618899],[4.79901156,43.7665306],[4.79853142,43.76682386],[4.79853491,43.76736926],[4.79834518,43.76749751],[4.79831972,43.76783366],[4.79813757,43.76816341],[4.79671771,43.76839475],[4.79634854,43.76866277],[4.79591009,43.76858359],[4.79535418,43.76832362],[4.79444814,43.76822604],[4.79377772,43.76851251],[4.79374172,43.76863192],[4.79332736,43.76888536],[4.79324638,43.76919453],[4.79305085,43.76929676],[4.79288601,43.76966491],[4.79253275,43.76917297],[4.79220061,43.76899841],[4.78904167,43.76847067],[4.78773189,43.76642286],[4.78744127,43.7661846],[4.78645437,43.76564363],[4.78536083,43.76482897],[4.78477272,43.76393222],[4.78411837,43.76365851],[4.78394155,43.76340488],[4.78007271,43.76244116],[4.77981029,43.76119163],[4.7703042,43.76028893],[4.77044771,43.76685364],[4.77065103,43.76804565],[4.77178354,43.76904074],[4.77142915,43.76950915],[4.7706252,43.7702612],[4.77051278,43.77056186],[4.77068492,43.77082639],[4.77063642,43.77102519],[4.77074763,43.77148783],[4.77102887,43.77206652],[4.77095722,43.77236022],[4.77142503,43.77310689],[4.77098618,43.77413833],[4.77105545,43.7750517],[4.77117868,43.77546104],[4.77179197,43.77637187],[4.771938,43.77743701],[4.77208145,43.77777671],[4.77203216,43.77803044],[4.77218671,43.77856798],[4.77233467,43.78009574],[4.77255141,43.78051526],[4.77283959,43.78067439],[4.77289561,43.7807986],[4.77293042,43.78099965],[4.7727752,43.78132261],[4.77286635,43.78237965],[4.77128896,43.78484007],[4.77079398,43.78530536],[4.77010933,43.7863066],[4.76978206,43.78769537],[4.76961286,43.78957573],[4.76968802,43.78959521],[4.76967531,43.78986725],[4.76928386,43.79175302],[4.76831587,43.79472557],[4.7676306,43.79623446],[4.76431823,43.79850779],[4.76443716,43.79861658],[4.76550513,43.79931667],[4.76712881,43.79982142],[4.77089608,43.80272795],[4.77239643,43.80313832],[4.77868905,43.80418616],[4.78066662,43.80551035],[4.78272217,43.8066217],[4.78393094,43.80688276],[4.78532378,43.80698778],[4.78686854,43.80749984],[4.7888476,43.808345],[4.78990468,43.80856258],[4.79525953,43.80734488],[4.79652627,43.80778667],[4.79780902,43.80810487],[4.79875457,43.80888498],[4.80037352,43.80973407],[4.80212036,43.8103803],[4.80300203,43.81047194],[4.80755774,43.81295465],[4.81059913,43.81482866],[4.81150315,43.81554455],[4.81314882,43.81714553],[4.81336158,43.81770007],[4.81402331,43.81857389],[4.81440942,43.81930197],[4.81486918,43.82086145],[4.81594345,43.82286166],[4.81632417,43.82463128],[4.81655722,43.82570486],[4.82057501,43.82533451],[4.81971678,43.82430828],[4.82071742,43.82383341],[4.82058087,43.82364486],[4.82314908,43.82285304],[4.82315737,43.82260626],[4.823049,43.82248296],[4.82334421,43.82238351],[4.82589674,43.82227148],[4.82643688,43.82213372],[4.82613748,43.82179038],[4.82526863,43.82105602],[4.82457915,43.81982537],[4.82379583,43.81904276],[4.82344795,43.81858141],[4.82326271,43.81842518],[4.82267853,43.81807759],[4.8225004,43.81791045],[4.82203195,43.81721527],[4.82154485,43.81597313],[4.82151516,43.8157828],[4.82164332,43.8139921],[4.82183408,43.81326881],[4.82156687,43.81264588],[4.82150692,43.81216891],[4.82160007,43.81068395],[4.82155239,43.80946057],[4.82164465,43.80767498],[4.82182639,43.80733259],[4.82238525,43.80688939],[4.82308377,43.80622692],[4.82360296,43.80559265],[4.82434783,43.80486458],[4.8256267,43.80330666],[4.8262205,43.80275304],[4.82698988,43.80162759],[4.82714885,43.80123517],[4.82718465,43.80060539],[4.82714854,43.80021444],[4.82709216,43.80000565],[4.8270078,43.79989365],[4.82658725,43.79960546],[4.82718108,43.7988214],[4.82769001,43.79802526],[4.82824442,43.79659197],[4.82877328,43.79575949],[4.82887527,43.79529601],[4.82879651,43.79450433],[4.82889004,43.79424262],[4.82926719,43.79375743],[4.82969491,43.79333799],[4.82980293,43.79333528],[4.82993247,43.7932674],[4.82993234,43.79310808],[4.82985627,43.79306075],[4.82972414,43.79304766],[4.82931518,43.79315984],[4.82896322,43.79315045],[4.82633716,43.79290375],[4.82639175,43.79305675],[4.82628291,43.79315039],[4.82612379,43.79314855],[4.82576417,43.79305467],[4.82484926,43.79308259],[4.82107681,43.79390539],[4.81798082,43.79458986],[4.81695375,43.7947258],[4.81679472,43.7950786],[4.81619126,43.79532809],[4.81632594,43.79483438],[4.81665327,43.79422494],[4.81735319,43.79263177],[4.81729656,43.792531],[4.81691758,43.792414],[4.81680339,43.79230069],[4.81664974,43.79176678],[4.81674696,43.79142402],[4.81717829,43.79084255],[4.81782135,43.7898075],[4.8179133,43.78972945],[4.81869677,43.78943825],[4.8189996,43.78919286],[4.81933362,43.78902977],[4.81950825,43.78885583],[4.82106449,43.78653364],[4.82185148,43.78557447],[4.82229251,43.78533937],[4.82235974,43.78522663],[4.82235627,43.78511777],[4.82213734,43.78464167],[4.8221572,43.784329],[4.82239921,43.7839307],[4.8228455,43.7835884],[4.82220327,43.78308427],[4.82162267,43.78236939],[4.82147017,43.78226213],[4.82170423,43.78223841],[4.82087566,43.78103171],[4.82234449,43.78049769],[4.82297995,43.78020533],[4.82404512,43.77963663],[4.82670108,43.77850481],[4.82720039,43.77826871],[4.8273032,43.77818147],[4.82801659,43.77830812],[4.82838588,43.77847385],[4.82856143,43.77813606],[4.82869465,43.77798981],[4.82886644,43.7778456],[4.8293066,43.77762489],[4.8296927,43.77750049],[4.83013482,43.77749667],[4.83050341,43.77744637],[4.83108427,43.77723589],[4.83158321,43.77698897],[4.83158042,43.77721224],[4.83203233,43.7768158],[4.8332046,43.77664756],[4.83318876,43.7764246],[4.83326545,43.77637561],[4.83447888,43.77625167],[4.83501743,43.7762336],[4.8359977,43.7763539],[4.8368172,43.77653541],[4.83752569,43.7767413],[4.83819814,43.77686947],[4.83871764,43.7768382],[4.83906438,43.77815642],[4.83905464,43.77862644],[4.83886207,43.77920577],[4.83971588,43.77867559],[4.84060187,43.77883705],[4.84055658,43.77870369],[4.8410976,43.77879987],[4.8410449,43.77916981],[4.84139895,43.77928534],[4.84128663,43.77965538],[4.84121116,43.77970347],[4.84052958,43.78083742],[4.84015685,43.78133878],[4.84000334,43.78170322],[4.83989576,43.78225951],[4.83992811,43.78233818],[4.83987371,43.7824237],[4.84158714,43.78227505],[4.84221647,43.78214199],[4.8435501,43.78208253],[4.84527976,43.78185973],[4.84520798,43.7822534],[4.84520713,43.78257385],[4.84490571,43.78382112],[4.84512863,43.78391456],[4.84510657,43.78411656],[4.84547566,43.78446586],[4.84528865,43.78448433],[4.84533371,43.78511095],[4.84468615,43.78514171],[4.84469803,43.7858184],[4.84472302,43.78586118],[4.84534336,43.78583358],[4.84537405,43.78647665],[4.84544641,43.78675536],[4.84466018,43.7869946],[4.84406627,43.7873413],[4.84343479,43.78779484],[4.85018206,43.78708011],[4.85212795,43.78696965],[4.85257372,43.78703768],[4.85310236,43.7870557],[4.85639097,43.78643535],[4.87046791,43.78494346],[4.87092504,43.78638392],[4.8715117,43.78779515],[4.87264243,43.79087037],[4.87342161,43.79064545],[4.87621719,43.79007078],[4.87733583,43.79106506],[4.87815512,43.79172154],[4.87828446,43.79187594],[4.87833478,43.79204609],[4.87842961,43.79334425],[4.87814978,43.79345079],[4.876608,43.79365017],[4.87524394,43.79373666],[4.87409937,43.79369604],[4.87335523,43.79355041],[4.87319387,43.79355588],[4.86959296,43.79462766],[4.86943105,43.79465474],[4.86921638,43.79462602],[4.86821024,43.79479089],[4.86780669,43.79480051],[4.86714264,43.79471017],[4.86703743,43.79483709],[4.86663014,43.79480806],[4.86579979,43.79483848],[4.8628885,43.79507551],[4.86067984,43.79498542],[4.86059381,43.79757386],[4.86084874,43.79822841],[4.8606479,43.79828134],[4.86085253,43.79891784],[4.86104579,43.79920439],[4.85980994,43.80021923],[4.85931512,43.80055712],[4.8599939,43.80190114],[4.86028323,43.80223735],[4.86094062,43.802732],[4.86129729,43.80311297],[4.86250722,43.80488808],[4.86263334,43.80517306],[4.86270592,43.80556968],[4.862479,43.8064638],[4.86231469,43.80847841],[4.86238918,43.8088957],[4.86247319,43.80907069],[4.86269956,43.80934227],[4.86314988,43.80965862],[4.86360987,43.80981368],[4.86622053,43.81035862],[4.86684446,43.81058557],[4.86840103,43.81124211],[4.86931107,43.811817],[4.87014071,43.81236536],[4.87147961,43.81335685],[4.87222878,43.81383817],[4.87473741,43.81577448],[4.87519819,43.81621662],[4.87579253,43.81694002],[4.87611445,43.81720362],[4.87843405,43.81829697],[4.87899399,43.81857717],[4.87928402,43.81877741],[4.87955189,43.81909774],[4.88032346,43.82078482],[4.88050958,43.82103815],[4.88057103,43.821092],[4.88443926,43.82061745],[4.8872645,43.82044797],[4.88931154,43.81990483],[4.89163602,43.81955668],[4.90309968,43.81869828],[4.90519523,43.81846005],[4.90773772,43.81827877],[4.90854932,43.81212911],[4.90958068,43.80348401],[4.90970074,43.80305974],[4.90963899,43.80296001],[4.91194132,43.80279093],[4.91261597,43.80293302],[4.91313648,43.80322273],[4.91340328,43.80328466],[4.91519236,43.80333965],[4.91576811,43.80279215],[4.91631944,43.80266634],[4.91645144,43.80230306],[4.91676537,43.80225073],[4.91702668,43.80233435],[4.91720725,43.80230777],[4.91760101,43.80200469],[4.91765938,43.80178133],[4.91790209,43.80168074],[4.91805088,43.80141078],[4.91843604,43.80118527],[4.91866911,43.80087151],[4.91941579,43.80049381],[4.92020986,43.80045462],[4.92050783,43.80026034],[4.92125282,43.80024001],[4.92185199,43.80013313],[4.9219952,43.79999378],[4.92429875,43.79923752],[4.92417625,43.79895793],[4.92417166,43.79830451],[4.92354576,43.79325673],[4.92397087,43.79193051],[4.92405386,43.79074085],[4.92448584,43.78902925],[4.92507226,43.78814126],[4.92664593,43.7852825],[4.91330242,43.78504232],[4.91354971,43.78459781],[4.91340011,43.78409996],[4.91351944,43.78250462],[4.91340765,43.78224555],[4.91314662,43.78213041],[4.91314556,43.78172717],[4.9130335,43.7814969],[4.91299641,43.7797936],[4.91350545,43.77918967],[4.91353632,43.77881287],[4.91364793,43.77862098],[4.91417043,43.77842008],[4.91489966,43.77767725],[4.91560339,43.77728683],[4.91559589,43.7768774],[4.91576043,43.77663417],[4.91578233,43.77621252],[4.91564869,43.77589442],[4.91567319,43.77569866],[4.9160728,43.77472219],[4.91619777,43.77411421],[4.91645086,43.77369659],[4.91660558,43.77360566],[4.91666875,43.77334081],[4.91674418,43.7727742],[4.91664259,43.77255995],[4.91657407,43.77158992],[4.91674174,43.77066253],[4.91702197,43.77009142],[4.91763858,43.76966201],[4.91751303,43.76958501],[4.91731496,43.76908622],[4.91701828,43.7688322],[4.91672975,43.76871036],[4.9166233,43.76827657],[4.91678414,43.76807211],[4.9170075,43.76802858],[4.91706669,43.76701489],[4.91701018,43.76688536],[4.91670363,43.76670713],[4.91668842,43.76654988],[4.9164462,43.7662526],[4.91648997,43.76611321],[4.91627534,43.76593516],[4.91630261,43.76545131],[4.91646077,43.7652784],[4.91725263,43.7648171],[4.91841394,43.76459503],[4.91861748,43.7642944],[4.9187099,43.76386521],[4.91897433,43.76352841],[4.919876,43.76326859],[4.92010833,43.76297465],[4.91992389,43.76206787],[4.92038431,43.7616871],[4.92073479,43.76158371],[4.92095209,43.76136025],[4.92129051,43.76145239],[4.92187423,43.76126747],[4.92175875,43.76104628],[4.92182836,43.76086322],[4.9225901,43.76083898],[4.92278388,43.76076625],[4.92345273,43.75938265],[4.92366752,43.75923303],[4.92360765,43.75892985],[4.92388493,43.75842268],[4.92340411,43.75767777],[4.92408154,43.75747408],[4.92473496,43.75688915],[4.92446449,43.75527191],[4.92284895,43.75268738],[4.92093532,43.75298129],[4.92021993,43.75208928],[4.91825753,43.75011299],[4.91879711,43.74728162],[4.91901356,43.74659011],[4.91957991,43.74293016],[4.91974164,43.74238454],[4.91955558,43.74116816],[4.91935152,43.74059928],[4.91823001,43.73873421],[4.91727718,43.73760335],[4.91109708,43.7393817],[4.90960577,43.73929805],[4.90795268,43.73849533],[4.90167446,43.73923703],[4.89522857,43.74016851],[4.89309258,43.74056211],[4.88958199,43.73993361],[4.88788308,43.73954003],[4.88756684,43.73932408],[4.88672933,43.73839709],[4.88603966,43.73735952],[4.88558623,43.73580479],[4.88554734,43.73485046],[4.88535494,43.73439834],[4.88498215,43.73412306],[4.88337175,43.73347045],[4.8816255,43.73321531],[4.87706384,43.7337522],[4.87686049,43.73383492],[4.87619494,43.73439725],[4.87451501,43.73400674],[4.87114253,43.73481183],[4.86996491,43.73459714],[4.86939219,43.73465918],[4.86862212,43.73487402],[4.86801068,43.73542367],[4.86754743,43.73572144],[4.86654152,43.7357855],[4.86536066,43.7363854],[4.86526619,43.73661024],[4.86378778,43.73756626],[4.86292139,43.73921026],[4.86217645,43.73936072],[4.86114932,43.74095075],[4.86130933,43.74140436],[4.86099378,43.7417797],[4.85970613,43.74162078],[4.85855767,43.7417331],[4.85737643,43.74328432],[4.85649386,43.74424627],[4.85694661,43.74473091],[4.85707354,43.74584937],[4.85690143,43.74609353],[4.85680679,43.7466208],[4.85695631,43.74782349],[4.85699653,43.74975172],[4.85692883,43.7499995],[4.85596203,43.74986116],[4.8549467,43.74987216],[4.85283773,43.75150304],[4.85115715,43.75298349],[4.85085916,43.75313797],[4.8502619,43.75275477],[4.85004986,43.75276377],[4.84995665,43.75295348],[4.84977648,43.75302675],[4.8492311,43.75301891],[4.84886462,43.75293692],[4.84848849,43.75255626],[4.84821684,43.75241145],[4.84795297,43.75246903],[4.84744129,43.7523895],[4.84461453,43.75310349],[4.84349958,43.75306926],[4.84173239,43.75287054],[4.84076543,43.7529976],[4.83247824,43.75323635]]]]},"bbox":[4.76431823,43.73321531,4.92664593,43.82570486]},{"type":"Feature","id":"fr-quartier-13100-37b1696af4eb","properties":{"id":"fr-quartier-13100-37b1696af4eb","kind":"quartier","name":"Partie Nord-Est","cityCode":"13100","cityName":"Saint-Rémy-de-Provence","sourceType":"iris","sourceIds":["131000103"],"colorIndex":3,"center":[4.849053846878385,43.807715038031496]},"geometry":{"type":"MultiPolygon","coordinates":[[[[4.82643688,43.82213372],[4.82654314,43.82211304],[4.82784824,43.82334776],[4.82898568,43.82427563],[4.83046358,43.82438045],[4.83185764,43.82466219],[4.83360413,43.82480656],[4.83645816,43.82490436],[4.83740883,43.82481273],[4.83740223,43.82445279],[4.8394113,43.82464305],[4.84009606,43.82436325],[4.84196914,43.82314975],[4.84307345,43.82285024],[4.8445526,43.82276312],[4.84682258,43.82321798],[4.84814697,43.82368882],[4.84812496,43.8237387],[4.84842087,43.82389301],[4.84968486,43.82411011],[4.85015279,43.82404726],[4.85026514,43.82413807],[4.85138649,43.82440348],[4.8540687,43.82476118],[4.85427918,43.82473419],[4.85434084,43.82487177],[4.85481772,43.82504639],[4.86692544,43.8262737],[4.86741807,43.827043],[4.86858923,43.82985481],[4.86890865,43.8296603],[4.87141848,43.82736238],[4.87217814,43.82682996],[4.87341894,43.82572757],[4.87620378,43.82371286],[4.87660104,43.82331626],[4.87664851,43.823058],[4.87912678,43.82189823],[4.88050958,43.82103815],[4.88032346,43.82078482],[4.87955189,43.81909774],[4.87928402,43.81877741],[4.87899399,43.81857717],[4.87843405,43.81829697],[4.87611445,43.81720362],[4.87579253,43.81694002],[4.87519819,43.81621662],[4.87473741,43.81577448],[4.87222878,43.81383817],[4.87147961,43.81335685],[4.87014071,43.81236536],[4.86931107,43.811817],[4.86840103,43.81124211],[4.86684446,43.81058557],[4.86622053,43.81035862],[4.86360987,43.80981368],[4.86314988,43.80965862],[4.86269956,43.80934227],[4.86247319,43.80907069],[4.86238918,43.8088957],[4.86231469,43.80847841],[4.862479,43.8064638],[4.86270592,43.80556968],[4.86263334,43.80517306],[4.86250722,43.80488808],[4.86129729,43.80311297],[4.86094062,43.802732],[4.86028323,43.80223735],[4.8599939,43.80190114],[4.85931512,43.80055712],[4.85980994,43.80021923],[4.86104579,43.79920439],[4.86085253,43.79891784],[4.8606479,43.79828134],[4.86084874,43.79822841],[4.86059381,43.79757386],[4.86067984,43.79498542],[4.8628885,43.79507551],[4.86579979,43.79483848],[4.86663014,43.79480806],[4.86703743,43.79483709],[4.86714264,43.79471017],[4.86780669,43.79480051],[4.86821024,43.79479089],[4.86921638,43.79462602],[4.86943105,43.79465474],[4.86959296,43.79462766],[4.87319387,43.79355588],[4.87335523,43.79355041],[4.87409937,43.79369604],[4.87524394,43.79373666],[4.876608,43.79365017],[4.87814978,43.79345079],[4.87842961,43.79334425],[4.87833478,43.79204609],[4.87828446,43.79187594],[4.87815512,43.79172154],[4.87733583,43.79106506],[4.87621719,43.79007078],[4.87342161,43.79064545],[4.87264243,43.79087037],[4.8715117,43.78779515],[4.87092504,43.78638392],[4.87046791,43.78494346],[4.85639097,43.78643535],[4.85310236,43.7870557],[4.85257372,43.78703768],[4.85212795,43.78696965],[4.85018206,43.78708011],[4.84343479,43.78779484],[4.84049091,43.78809123],[4.84072918,43.78827533],[4.84139208,43.78821823],[4.84176617,43.78829832],[4.84196499,43.78841467],[4.84233299,43.78872979],[4.84242529,43.79101634],[4.84234337,43.79175223],[4.84146252,43.79210376],[4.84091542,43.79220842],[4.83960373,43.79237819],[4.83936139,43.79249299],[4.83919292,43.79247063],[4.83913128,43.79240866],[4.83885482,43.79238992],[4.83735296,43.79244226],[4.8362159,43.79240111],[4.83572208,43.7921916],[4.83570145,43.79224596],[4.8355952,43.79226485],[4.83403408,43.7920967],[4.83342009,43.79193691],[4.83342012,43.7918604],[4.83310927,43.79181522],[4.83226628,43.79156656],[4.83044206,43.79098064],[4.83014809,43.79258869],[4.82993234,43.79310808],[4.82993247,43.7932674],[4.82980293,43.79333528],[4.82969491,43.79333799],[4.82926719,43.79375743],[4.82889004,43.79424262],[4.82879651,43.79450433],[4.82887527,43.79529601],[4.82877328,43.79575949],[4.82824442,43.79659197],[4.82769001,43.79802526],[4.82718108,43.7988214],[4.82658725,43.79960546],[4.8270078,43.79989365],[4.82709216,43.80000565],[4.82714854,43.80021444],[4.82718465,43.80060539],[4.82714885,43.80123517],[4.82698988,43.80162759],[4.8262205,43.80275304],[4.8256267,43.80330666],[4.82434783,43.80486458],[4.82360296,43.80559265],[4.82308377,43.80622692],[4.82238525,43.80688939],[4.82182639,43.80733259],[4.82164465,43.80767498],[4.82155239,43.80946057],[4.82160007,43.81068395],[4.82150692,43.81216891],[4.82156687,43.81264588],[4.82183408,43.81326881],[4.82164332,43.8139921],[4.82151516,43.8157828],[4.82154485,43.81597313],[4.82203195,43.81721527],[4.8225004,43.81791045],[4.82267853,43.81807759],[4.82326271,43.81842518],[4.82344795,43.81858141],[4.82379583,43.81904276],[4.82457915,43.81982537],[4.82526863,43.82105602],[4.82613748,43.82179038],[4.82643688,43.82213372]]]]},"bbox":[4.82150692,43.78494346,4.88050958,43.82985481]}]}