{"type":"FeatureCollection","metadata":{"sourceType":"iris","referenceFile":"brive-la-gaillarde-quartiers.geojson","source":"IGN / INSEE - Contours IRIS WFS Géoplateforme","sourceUrl":"https://geoservices.ign.fr/contoursiris","license":"Licence Ouverte / Open Licence 2.0","sourceYear":"2026"},"features":[{"type":"Feature","id":"fr-quartier-19031-bbeddd2844ee","properties":{"id":"fr-quartier-19031-bbeddd2844ee","kind":"quartier","name":"Arsonval","cityCode":"19031","cityName":"Brive-la-Gaillarde","sourceType":"iris","sourceIds":["190310104"],"colorIndex":0,"center":[1.5273635903692961,45.160805208827824]},"geometry":{"type":"MultiPolygon","coordinates":[[[[1.52449321,45.15562081],[1.52370871,45.15741967],[1.52281773,45.16271403],[1.52267512,45.1629562],[1.52206188,45.1636172],[1.52234435,45.16376684],[1.52374334,45.16415278],[1.52655096,45.16412775],[1.53209607,45.16466281],[1.53288759,45.16089354],[1.53226757,45.16084936],[1.53190259,45.16073919],[1.53176906,45.16063747],[1.5313028,45.15997392],[1.53060308,45.15928208],[1.53032515,45.1587669],[1.5299556,45.1579119],[1.52981526,45.15773084],[1.52972283,45.15737389],[1.52893671,45.15716181],[1.52561028,45.15612008],[1.52449321,45.15562081]]]]},"bbox":[1.52206188,45.15562081,1.53288759,45.16466281]},{"type":"Feature","id":"fr-quartier-19031-03156b6ecb1a","properties":{"id":"fr-quartier-19031-03156b6ecb1a","kind":"quartier","name":"Bouquet","cityCode":"19031","cityName":"Brive-la-Gaillarde","sourceType":"iris","sourceIds":["190310304"],"colorIndex":1,"center":[1.5048837266579496,45.127645737349674]},"geometry":{"type":"MultiPolygon","coordinates":[[[[1.54644005,45.10523897],[1.54580654,45.10598087],[1.54559837,45.10635728],[1.54463059,45.10738479],[1.54405533,45.10769518],[1.54313823,45.10755622],[1.54246477,45.10792565],[1.54185117,45.10799868],[1.54162748,45.10867657],[1.54123803,45.10937031],[1.54062616,45.10996117],[1.5397255,45.11006825],[1.5386899,45.11066706],[1.53723472,45.11111446],[1.53706955,45.11037925],[1.5360538,45.11065589],[1.53304652,45.11170424],[1.53204857,45.11241515],[1.53172885,45.11291796],[1.5316912,45.11381892],[1.5314778,45.11414751],[1.53113507,45.11441227],[1.52976397,45.11484898],[1.5296599,45.11546899],[1.5279014,45.11622207],[1.5273682,45.11589443],[1.52698904,45.11589933],[1.52564873,45.11627516],[1.5248569,45.11581981],[1.52446882,45.11611456],[1.52334631,45.11599614],[1.52163821,45.11661921],[1.52059881,45.11710884],[1.51998843,45.11753571],[1.51905984,45.11893096],[1.51874974,45.11973734],[1.51838116,45.11991796],[1.51783826,45.12201986],[1.5170003,45.121816],[1.51713985,45.12211775],[1.51687698,45.12262847],[1.515113,45.12223217],[1.51368024,45.12167454],[1.51336924,45.1210283],[1.51167493,45.12064547],[1.51077725,45.12015439],[1.51001092,45.11998565],[1.50904124,45.11776001],[1.50928282,45.11618906],[1.50975605,45.1159],[1.50921348,45.11545057],[1.50932462,45.11476492],[1.50917817,45.1143424],[1.50853923,45.1135972],[1.5078176,45.11294815],[1.50713451,45.11257157],[1.50639724,45.11246174],[1.50601605,45.11206759],[1.50581401,45.11134713],[1.50537364,45.11107376],[1.50417157,45.11074965],[1.50315554,45.11069729],[1.50264928,45.11055811],[1.50229082,45.11017146],[1.5024181,45.10983546],[1.50210443,45.1094386],[1.50049101,45.10965916],[1.49966171,45.10990016],[1.49834326,45.11002831],[1.49762284,45.11028697],[1.49721037,45.11053897],[1.49707787,45.11092623],[1.4967821,45.11123654],[1.49660279,45.11166189],[1.49626736,45.11207523],[1.49600312,45.1127732],[1.49528324,45.11352987],[1.49480992,45.11363155],[1.49427528,45.11473473],[1.49392325,45.11519647],[1.49311384,45.11615814],[1.4927698,45.11684153],[1.49184742,45.11812317],[1.49164883,45.11860049],[1.49154092,45.11925284],[1.4904924,45.1201158],[1.49043433,45.12047614],[1.49030808,45.12062933],[1.49005257,45.12043495],[1.48986853,45.12041985],[1.48922956,45.12081195],[1.48876808,45.12061388],[1.48826419,45.12066739],[1.48801468,45.12048659],[1.48379786,45.11912982],[1.48139712,45.11872702],[1.48059346,45.11965446],[1.47969535,45.11965753],[1.47885368,45.12048448],[1.47688076,45.11959841],[1.475717,45.11931414],[1.47446089,45.11887189],[1.47053465,45.11788242],[1.46880005,45.11754432],[1.46735505,45.11712911],[1.4663276,45.11670162],[1.46532513,45.1160133],[1.4639888,45.11655236],[1.46474572,45.11770561],[1.46519954,45.11905911],[1.46551364,45.11924715],[1.46567298,45.11946638],[1.46631231,45.11985522],[1.46636347,45.12016932],[1.4669895,45.12104338],[1.46775544,45.12164018],[1.46880323,45.12318644],[1.46892147,45.12356],[1.46890991,45.12398221],[1.47113081,45.1256166],[1.47119112,45.12624873],[1.47143302,45.1271256],[1.47226256,45.12926322],[1.47163806,45.12953655],[1.46955598,45.12965569],[1.4694143,45.12990501],[1.46750994,45.12989867],[1.46569929,45.13000076],[1.46410993,45.130476],[1.46327047,45.13051397],[1.46161979,45.13034982],[1.46141582,45.13027226],[1.46036505,45.13022264],[1.45509224,45.1293248],[1.45495592,45.13048196],[1.45543294,45.13140535],[1.45526463,45.13160295],[1.4549733,45.13307496],[1.45523342,45.13429704],[1.46011895,45.1349986],[1.46423774,45.13596407],[1.46520692,45.13597741],[1.46547031,45.13620888],[1.46600064,45.13728426],[1.46630377,45.13764415],[1.4667293,45.13785623],[1.46654626,45.13840577],[1.46667686,45.13902536],[1.46660474,45.13933507],[1.46649607,45.13940022],[1.46622138,45.13934781],[1.46606923,45.1394673],[1.46610781,45.13977672],[1.46634894,45.14017089],[1.46604266,45.14034229],[1.46597056,45.14046558],[1.46619614,45.14091627],[1.4661041,45.14116356],[1.4798908,45.14324798],[1.48186598,45.1436153],[1.48344355,45.14400419],[1.4845447,45.14431814],[1.49502351,45.14741477],[1.49623665,45.14768599],[1.49708586,45.1478145],[1.49718881,45.14739352],[1.49828388,45.14542971],[1.49928257,45.14577186],[1.49974135,45.1458897],[1.50316802,45.14647516],[1.50533524,45.14709409],[1.50629333,45.14534001],[1.50758214,45.14525639],[1.50771045,45.14521668],[1.50825863,45.14484667],[1.50903316,45.14467331],[1.51035199,45.144799],[1.51069801,45.14489908],[1.51075264,45.14495024],[1.51074954,45.14506637],[1.51049858,45.14593567],[1.51031525,45.14627274],[1.5109018,45.14642015],[1.51144726,45.14629505],[1.51181052,45.14632151],[1.51198531,45.14644812],[1.51204033,45.1466758],[1.51267112,45.14726507],[1.51289838,45.14714202],[1.51314861,45.14706431],[1.51287991,45.14630605],[1.51284422,45.1458778],[1.51335059,45.14487772],[1.51320653,45.14469659],[1.51248556,45.14429253],[1.51251036,45.14383897],[1.51274277,45.14333055],[1.51308089,45.14300995],[1.51321839,45.14295955],[1.51336226,45.14305242],[1.51366971,45.14340594],[1.51376819,45.14343517],[1.51392924,45.1434085],[1.51440937,45.14286735],[1.51455281,45.14259368],[1.51584662,45.14274959],[1.51623644,45.14287725],[1.51624879,45.14279546],[1.51618633,45.14270368],[1.51505081,45.14176279],[1.51482122,45.14149586],[1.5147483,45.14112746],[1.5146441,45.14097838],[1.51408418,45.13930488],[1.51346655,45.13769724],[1.51301405,45.13715357],[1.51235327,45.13721681],[1.51149291,45.13703422],[1.51064685,45.1360287],[1.50993634,45.13581028],[1.50904091,45.13603697],[1.50903019,45.13496065],[1.50774427,45.13442112],[1.50685637,45.13384279],[1.50717345,45.13326076],[1.50725929,45.1327621],[1.50720751,45.13270016],[1.50688268,45.13257244],[1.5072778,45.13216437],[1.50739761,45.13182285],[1.50774756,45.13162941],[1.50829929,45.13145488],[1.50863374,45.1312225],[1.50879142,45.13117778],[1.51001102,45.13110042],[1.51015282,45.13112663],[1.51046947,45.13137041],[1.51075678,45.13166513],[1.51168835,45.13203689],[1.51220393,45.13231213],[1.51249085,45.13266988],[1.51258272,45.13289895],[1.5126201,45.13350193],[1.51254559,45.13415024],[1.51256472,45.1346269],[1.51263907,45.13489265],[1.51280548,45.13499844],[1.51298966,45.1350099],[1.51329983,45.13492488],[1.51348835,45.13491658],[1.51374381,45.13497492],[1.51403396,45.1351643],[1.51423225,45.13517145],[1.51517103,45.13460489],[1.51545679,45.13428899],[1.51584099,45.13357185],[1.51586727,45.13339659],[1.51575578,45.13285206],[1.51587397,45.13271315],[1.51603177,45.13266392],[1.51696898,45.13277724],[1.51719404,45.13330977],[1.51752031,45.13376799],[1.51784093,45.1340082],[1.51867385,45.13445694],[1.51876295,45.13464724],[1.51867664,45.13483161],[1.51933425,45.13498263],[1.52013273,45.13567585],[1.52030457,45.13576909],[1.52048888,45.13577604],[1.52061411,45.13565972],[1.52040015,45.13489861],[1.520406,45.13477351],[1.52053166,45.13468872],[1.52079771,45.13463551],[1.52094511,45.13464287],[1.52113651,45.13471836],[1.5238298,45.1374242],[1.52489049,45.13840634],[1.52678062,45.14050712],[1.5269921,45.14064229],[1.52778638,45.14092205],[1.52781892,45.14103955],[1.52776709,45.14208892],[1.5273267,45.14262435],[1.5269002,45.14296994],[1.52891805,45.14366028],[1.52961397,45.14400446],[1.52976932,45.14327525],[1.53011917,45.14260174],[1.53022019,45.142486],[1.53107517,45.14186236],[1.53165721,45.14160075],[1.53266332,45.14006592],[1.53296891,45.13981598],[1.53347015,45.13952899],[1.53505277,45.13871496],[1.53524569,45.13815104],[1.53553402,45.13758748],[1.53552054,45.13722798],[1.53529503,45.13563733],[1.53510915,45.13505943],[1.53369049,45.13481745],[1.53356048,45.13477791],[1.53340386,45.13463717],[1.5333945,45.13446054],[1.53345417,45.13436856],[1.53424786,45.13403768],[1.53446449,45.13387933],[1.53461704,45.13364178],[1.53462149,45.13352027],[1.53443253,45.13310893],[1.53415043,45.13261081],[1.53403663,45.13248684],[1.53298734,45.13198944],[1.53157527,45.13169349],[1.53060149,45.13142221],[1.53037823,45.13149401],[1.5303103,45.13156156],[1.53031811,45.13165172],[1.53094654,45.13208956],[1.53097603,45.13222594],[1.53086033,45.1323685],[1.53055141,45.13235903],[1.52967364,45.13216195],[1.52883759,45.1321203],[1.52862133,45.13197426],[1.5285803,45.13169635],[1.5284954,45.13153853],[1.52782485,45.13110642],[1.52802316,45.13096765],[1.5294886,45.12913722],[1.52998405,45.12863224],[1.53172319,45.12732232],[1.53221473,45.12667408],[1.53239998,45.12659547],[1.53301304,45.1265513],[1.53410484,45.12581189],[1.53445528,45.12549769],[1.53528083,45.1244801],[1.53547519,45.1243935],[1.53638499,45.12414068],[1.53727426,45.123603],[1.5379741,45.12335192],[1.53879298,45.12287815],[1.54088204,45.12213373],[1.54324725,45.12123617],[1.54352192,45.12109297],[1.54374812,45.12090591],[1.54395874,45.12058446],[1.54407356,45.12018071],[1.54439876,45.11985535],[1.54541439,45.11978395],[1.5468526,45.1191633],[1.54847026,45.11863503],[1.54954172,45.11768538],[1.54974996,45.1175521],[1.55010879,45.11739917],[1.55078314,45.11724314],[1.55199378,45.11720303],[1.55213962,45.1171707],[1.55230159,45.11725206],[1.55234139,45.11694278],[1.55209753,45.11678202],[1.55204189,45.11647511],[1.55215971,45.11610021],[1.55221271,45.11528139],[1.55241199,45.11480578],[1.553169,45.11396098],[1.55377822,45.11356724],[1.55412251,45.11338529],[1.55449829,45.11326409],[1.55479912,45.11304105],[1.55496147,45.11300893],[1.55559254,45.11245786],[1.55594351,45.11221386],[1.5560546,45.11219639],[1.55623224,45.11196634],[1.55665029,45.11178354],[1.55683672,45.11165627],[1.5573003,45.11118768],[1.55768789,45.11050918],[1.55812779,45.11016906],[1.5584,45.10967367],[1.55797702,45.1095061],[1.55738212,45.1085096],[1.55681858,45.10787553],[1.55675826,45.10765051],[1.55701697,45.10738279],[1.55610658,45.10624442],[1.55557995,45.10502005],[1.55476654,45.10456013],[1.55421135,45.10439264],[1.55284906,45.1046037],[1.55197865,45.10462752],[1.55113822,45.10491739],[1.54856886,45.10523608],[1.54811683,45.10540581],[1.54644005,45.10523897]]]]},"bbox":[1.45495592,45.10439264,1.5584,45.1478145]},{"type":"Feature","id":"fr-quartier-19031-21c26e31c815","properties":{"id":"fr-quartier-19031-21c26e31c815","kind":"quartier","name":"Bouygue","cityCode":"19031","cityName":"Brive-la-Gaillarde","sourceType":"iris","sourceIds":["190310403"],"colorIndex":2,"center":[1.5096830337872458,45.154636949762114]},"geometry":{"type":"MultiPolygon","coordinates":[[[[1.50415463,45.15649194],[1.50731678,45.15747538],[1.50738733,45.1575979],[1.50851205,45.158808],[1.51028005,45.15952506],[1.51135828,45.1589964],[1.51134255,45.15887011],[1.51150847,45.15880568],[1.51106675,45.15775603],[1.51223226,45.15738973],[1.51287481,45.15706418],[1.51369839,45.15720574],[1.51669015,45.15751932],[1.51711653,45.15565],[1.51217229,45.1543369],[1.51327867,45.15284139],[1.51379658,45.15227102],[1.5144652,45.15124968],[1.51339673,45.15103552],[1.51277911,45.15095344],[1.51132462,45.15094575],[1.51051988,45.15076931],[1.50921982,45.15079337],[1.50739755,45.15087978],[1.50598614,45.15106982],[1.50582125,45.1510487],[1.50246089,45.15163405],[1.50234441,45.15170634],[1.50467346,45.15232565],[1.50488824,45.15247982],[1.504954,45.15259057],[1.50496381,45.1527474],[1.50415463,45.15649194]]]]},"bbox":[1.50234441,45.15076931,1.51711653,45.15952506]},{"type":"Feature","id":"fr-quartier-19031-23c93725aaa2","properties":{"id":"fr-quartier-19031-23c93725aaa2","kind":"quartier","name":"Breuil","cityCode":"19031","cityName":"Brive-la-Gaillarde","sourceType":"iris","sourceIds":["190310302"],"colorIndex":3,"center":[1.5442792095874118,45.13158159868559]},"geometry":{"type":"MultiPolygon","coordinates":[[[[1.55366242,45.12905527],[1.5534343,45.12862815],[1.55361073,45.12790639],[1.55413233,45.1276601],[1.55449165,45.1272442],[1.554459,45.12688355],[1.55408852,45.12635373],[1.5540021,45.12580957],[1.55375094,45.12538846],[1.55382367,45.124741],[1.55433774,45.12384981],[1.55448428,45.12374184],[1.55447047,45.12275106],[1.55457042,45.12237862],[1.55510102,45.12183076],[1.55643767,45.12095382],[1.55664244,45.12065928],[1.55745864,45.11855625],[1.55895678,45.11733105],[1.55950486,45.11659518],[1.55988985,45.11626515],[1.56051501,45.11475759],[1.56136468,45.1138653],[1.56179107,45.11286399],[1.56276302,45.11146806],[1.56332444,45.11109976],[1.56598986,45.10996787],[1.56526973,45.10933632],[1.56562059,45.10859788],[1.56545158,45.10829583],[1.56487896,45.10811105],[1.56430658,45.10816492],[1.56387745,45.10749388],[1.56173354,45.10803089],[1.56057147,45.10841574],[1.56000386,45.10853089],[1.55898901,45.10858081],[1.5584,45.10967367],[1.55812779,45.11016906],[1.55768789,45.11050918],[1.5573003,45.11118768],[1.55683672,45.11165627],[1.55665029,45.11178354],[1.55623224,45.11196634],[1.5560546,45.11219639],[1.55594351,45.11221386],[1.55559254,45.11245786],[1.55496147,45.11300893],[1.55479912,45.11304105],[1.55449829,45.11326409],[1.55412251,45.11338529],[1.55377822,45.11356724],[1.553169,45.11396098],[1.55241199,45.11480578],[1.55221271,45.11528139],[1.55215971,45.11610021],[1.55204189,45.11647511],[1.55209753,45.11678202],[1.55234139,45.11694278],[1.55230159,45.11725206],[1.55213962,45.1171707],[1.55199378,45.11720303],[1.55078314,45.11724314],[1.55010879,45.11739917],[1.54974996,45.1175521],[1.54954172,45.11768538],[1.54847026,45.11863503],[1.5468526,45.1191633],[1.54541439,45.11978395],[1.54439876,45.11985535],[1.54407356,45.12018071],[1.54395874,45.12058446],[1.54374812,45.12090591],[1.54352192,45.12109297],[1.54324725,45.12123617],[1.54088204,45.12213373],[1.53879298,45.12287815],[1.5379741,45.12335192],[1.53727426,45.123603],[1.53638499,45.12414068],[1.53547519,45.1243935],[1.53528083,45.1244801],[1.53445528,45.12549769],[1.53410484,45.12581189],[1.53301304,45.1265513],[1.53239998,45.12659547],[1.53221473,45.12667408],[1.53172319,45.12732232],[1.52998405,45.12863224],[1.5294886,45.12913722],[1.52802316,45.13096765],[1.52782485,45.13110642],[1.5284954,45.13153853],[1.5285803,45.13169635],[1.52862133,45.13197426],[1.52883759,45.1321203],[1.52967364,45.13216195],[1.53055141,45.13235903],[1.53086033,45.1323685],[1.53097603,45.13222594],[1.53094654,45.13208956],[1.53031811,45.13165172],[1.5303103,45.13156156],[1.53037823,45.13149401],[1.53060149,45.13142221],[1.53157527,45.13169349],[1.53298734,45.13198944],[1.53403663,45.13248684],[1.53415043,45.13261081],[1.53443253,45.13310893],[1.53462149,45.13352027],[1.53461704,45.13364178],[1.53446449,45.13387933],[1.53424786,45.13403768],[1.53345417,45.13436856],[1.5333945,45.13446054],[1.53340386,45.13463717],[1.53356048,45.13477791],[1.53369049,45.13481745],[1.53510915,45.13505943],[1.53529503,45.13563733],[1.53552054,45.13722798],[1.53553402,45.13758748],[1.53524569,45.13815104],[1.53505277,45.13871496],[1.53347015,45.13952899],[1.53296891,45.13981598],[1.53266332,45.14006592],[1.53165721,45.14160075],[1.53107517,45.14186236],[1.53022019,45.142486],[1.53011917,45.14260174],[1.52976932,45.14327525],[1.52961397,45.14400446],[1.5295793,45.1443066],[1.52980618,45.1444861],[1.52993393,45.14466069],[1.53041352,45.14621508],[1.53043582,45.14648014],[1.53030323,45.14721505],[1.53029211,45.14754091],[1.53057071,45.14851269],[1.53093355,45.14923341],[1.53186803,45.1508181],[1.53295503,45.15032898],[1.53352303,45.15012031],[1.53466119,45.14957151],[1.53542953,45.14929342],[1.53585797,45.14916486],[1.53658613,45.14901141],[1.53668849,45.14928202],[1.5376296,45.14920971],[1.53849183,45.14923361],[1.53921747,45.14932237],[1.53993871,45.1494822],[1.5406092,45.14968459],[1.54129434,45.14996012],[1.54347631,45.15110802],[1.54370261,45.15092186],[1.54378337,45.15070408],[1.54367827,45.15048837],[1.54324881,45.15011984],[1.54320999,45.14994912],[1.54326169,45.14982102],[1.54400456,45.1490049],[1.54442415,45.1487267],[1.54464524,45.14864223],[1.54628233,45.14833036],[1.54651896,45.14818665],[1.54657485,45.14794603],[1.5464935,45.14779548],[1.54629529,45.14768573],[1.54572863,45.1476009],[1.54557893,45.1475341],[1.54542311,45.14736007],[1.54544793,45.14709112],[1.54555798,45.14692145],[1.54572442,45.14678493],[1.54641264,45.14635443],[1.54712544,45.14600619],[1.54748265,45.14572716],[1.54759617,45.14557014],[1.54766109,45.1452756],[1.5478655,45.1448532],[1.54870453,45.14385729],[1.5489965,45.1433946],[1.54906476,45.14311811],[1.5490194,45.14270867],[1.54905446,45.14248579],[1.54944316,45.14162991],[1.54922686,45.13942342],[1.54940375,45.13854048],[1.54975854,45.13781293],[1.5517311,45.13519723],[1.5520767,45.13462626],[1.55260252,45.13245103],[1.55281143,45.13199896],[1.55302824,45.13178204],[1.55283751,45.13158144],[1.5528416,45.13147252],[1.55337951,45.13064649],[1.55395184,45.12996498],[1.55395916,45.12978046],[1.55366242,45.12905527]]]]},"bbox":[1.52782485,45.10749388,1.56598986,45.15110802]},{"type":"Feature","id":"fr-quartier-19031-4f98defa00dd","properties":{"id":"fr-quartier-19031-4f98defa00dd","kind":"quartier","name":"Caserne","cityCode":"19031","cityName":"Brive-la-Gaillarde","sourceType":"iris","sourceIds":["190310203"],"colorIndex":4,"center":[1.5416658647838863,45.15340382580708]},"geometry":{"type":"MultiPolygon","coordinates":[[[[1.54037673,45.15755969],[1.54572482,45.15772137],[1.54617876,45.15529396],[1.54663548,45.15447049],[1.5478894,45.15294325],[1.54957194,45.15348296],[1.55287587,45.15466687],[1.55476968,45.15555505],[1.55534739,45.15595428],[1.55533194,45.15605944],[1.55557057,45.15608504],[1.55591471,45.15626331],[1.55593749,45.15616994],[1.55450733,45.15526617],[1.55334207,45.15470173],[1.55196817,45.1541841],[1.5451774,45.1519092],[1.54465324,45.15170604],[1.54347631,45.15110802],[1.54129434,45.14996012],[1.5406092,45.14968459],[1.53993871,45.1494822],[1.53921747,45.14932237],[1.53849183,45.14923361],[1.5376296,45.14920971],[1.53668849,45.14928202],[1.5368016,45.15016246],[1.53701454,45.15043902],[1.53419018,45.15146822],[1.53588069,45.15228021],[1.53531454,45.15290318],[1.53536912,45.15300566],[1.53558388,45.15301838],[1.5358095,45.15310239],[1.5383729,45.15426621],[1.54001877,45.15528198],[1.54009912,45.15542172],[1.54037673,45.15755969]]]]},"bbox":[1.53419018,45.14920971,1.55593749,45.15772137]},{"type":"Feature","id":"fr-quartier-19031-2bd5fb5dde0b","properties":{"id":"fr-quartier-19031-2bd5fb5dde0b","kind":"quartier","name":"Centre","cityCode":"19031","cityName":"Brive-la-Gaillarde","sourceType":"iris","sourceIds":["190310101"],"colorIndex":5,"center":[1.5331341757193737,45.15865145622402]},"geometry":{"type":"MultiPolygon","coordinates":[[[[1.53288759,45.16089354],[1.5334533,45.16092168],[1.53414555,45.16102714],[1.53441932,45.16102353],[1.53486879,45.16067911],[1.53526344,45.16028894],[1.53588054,45.15908488],[1.53593523,45.15889198],[1.53613354,45.15768782],[1.53606309,45.15746175],[1.53590946,45.15730124],[1.53506136,45.15692808],[1.53447279,45.15675375],[1.53150434,45.15671382],[1.5309905,45.15674758],[1.53072456,45.15684134],[1.53003955,45.15733394],[1.52991951,45.15754219],[1.5299556,45.1579119],[1.53032515,45.1587669],[1.53060308,45.15928208],[1.5313028,45.15997392],[1.53176906,45.16063747],[1.53190259,45.16073919],[1.53226757,45.16084936],[1.53288759,45.16089354]]]]},"bbox":[1.52991951,45.15671382,1.53613354,45.16102714]},{"type":"Feature","id":"fr-quartier-19031-a8aade03cbe4","properties":{"id":"fr-quartier-19031-a8aade03cbe4","kind":"quartier","name":"Chapelies","cityCode":"19031","cityName":"Brive-la-Gaillarde","sourceType":"iris","sourceIds":["190310202"],"colorIndex":6,"center":[1.5509061708320697,45.15609424681976]},"geometry":{"type":"MultiPolygon","coordinates":[[[[1.55787617,45.15803576],[1.55871953,45.15805656],[1.55593749,45.15616994],[1.55591471,45.15626331],[1.55557057,45.15608504],[1.55533194,45.15605944],[1.55534739,45.15595428],[1.55476968,45.15555505],[1.55287587,45.15466687],[1.54957194,45.15348296],[1.5478894,45.15294325],[1.54663548,45.15447049],[1.54617876,45.15529396],[1.54572482,45.15772137],[1.55787617,45.15803576]]]]},"bbox":[1.54572482,45.15294325,1.55871953,45.15805656]},{"type":"Feature","id":"fr-quartier-19031-fbc4df5c0d63","properties":{"id":"fr-quartier-19031-fbc4df5c0d63","kind":"quartier","name":"Danton","cityCode":"19031","cityName":"Brive-la-Gaillarde","sourceType":"iris","sourceIds":["190310405"],"colorIndex":7,"center":[1.517913488395408,45.15959634278902]},"geometry":{"type":"MultiPolygon","coordinates":[[[[1.51028005,45.15952506],[1.51015571,45.15965308],[1.50973524,45.16038413],[1.50960687,45.16052021],[1.50944656,45.16061263],[1.50895524,45.16075466],[1.50963802,45.16145181],[1.51192146,45.15997833],[1.51211288,45.15991244],[1.51237604,45.15992495],[1.51373215,45.16043383],[1.51427265,45.16069139],[1.51600462,45.16181133],[1.51669853,45.16242844],[1.51740765,45.16290526],[1.51816054,45.16321965],[1.51855821,45.16329698],[1.51895099,45.1633184],[1.52008738,45.16318848],[1.52078525,45.16317792],[1.52130569,45.16328208],[1.52206188,45.1636172],[1.52267512,45.1629562],[1.52281773,45.16271403],[1.52370871,45.15741967],[1.51711653,45.15565],[1.51669015,45.15751932],[1.51369839,45.15720574],[1.51287481,45.15706418],[1.51223226,45.15738973],[1.51106675,45.15775603],[1.51150847,45.15880568],[1.51134255,45.15887011],[1.51135828,45.1589964],[1.51028005,45.15952506]]]]},"bbox":[1.50895524,45.15565,1.52370871,45.1636172]},{"type":"Feature","id":"fr-quartier-19031-4a83e2160c43","properties":{"id":"fr-quartier-19031-4a83e2160c43","kind":"quartier","name":"Gaubre","cityCode":"19031","cityName":"Brive-la-Gaillarde","sourceType":"iris","sourceIds":["190310406"],"colorIndex":8,"center":[1.5049346072519825,45.15938290544246]},"geometry":{"type":"MultiPolygon","coordinates":[[[[1.51028005,45.15952506],[1.50851205,45.158808],[1.50738733,45.1575979],[1.50731678,45.15747538],[1.50415463,45.15649194],[1.50178899,45.15575956],[1.49983764,45.16017227],[1.50330095,45.16056279],[1.50291538,45.16231554],[1.50503784,45.16210894],[1.5066607,45.16230538],[1.50745534,45.16234123],[1.50777321,45.16230765],[1.50841081,45.16212255],[1.50963802,45.16145181],[1.50895524,45.16075466],[1.50944656,45.16061263],[1.50960687,45.16052021],[1.50973524,45.16038413],[1.51015571,45.15965308],[1.51028005,45.15952506]]]]},"bbox":[1.49983764,45.15575956,1.51028005,45.16234123]},{"type":"Feature","id":"fr-quartier-19031-4851c62ba0fa","properties":{"id":"fr-quartier-19031-4851c62ba0fa","kind":"quartier","name":"Guierle","cityCode":"19031","cityName":"Brive-la-Gaillarde","sourceType":"iris","sourceIds":["190310102"],"colorIndex":9,"center":[1.5370392430711797,45.16163775721074]},"geometry":{"type":"MultiPolygon","coordinates":[[[[1.54037673,45.15755969],[1.53721419,45.15749306],[1.53639462,45.15743909],[1.53590946,45.15730124],[1.53606309,45.15746175],[1.53613354,45.15768782],[1.53593523,45.15889198],[1.53588054,45.15908488],[1.53526344,45.16028894],[1.53486879,45.16067911],[1.53441932,45.16102353],[1.53414555,45.16102714],[1.5334533,45.16092168],[1.53288759,45.16089354],[1.53209607,45.16466281],[1.53598415,45.16503898],[1.53685014,45.16507466],[1.53714785,45.16503263],[1.53856901,45.16467391],[1.53980584,45.16435329],[1.54063882,45.16409311],[1.54045993,45.16372875],[1.54045727,45.16358732],[1.54084045,45.16149131],[1.54037673,45.15755969]]]]},"bbox":[1.53209607,45.15730124,1.54084045,45.16507466]},{"type":"Feature","id":"fr-quartier-19031-92201a45c8f1","properties":{"id":"fr-quartier-19031-92201a45c8f1","kind":"quartier","name":"Hôpital","cityCode":"19031","cityName":"Brive-la-Gaillarde","sourceType":"iris","sourceIds":["190310701"],"colorIndex":10,"center":[1.5358522472258467,45.16620553910749]},"geometry":{"type":"MultiPolygon","coordinates":[[[[1.54975385,45.17000887],[1.55024865,45.16992794],[1.55046198,45.16965514],[1.55034029,45.16953648],[1.55094663,45.16800259],[1.55255696,45.16849808],[1.5527252,45.1683922],[1.55347131,45.16696367],[1.55323236,45.1668507],[1.55286159,45.16627314],[1.55263314,45.1661477],[1.55135179,45.16592845],[1.55084866,45.16589039],[1.54993341,45.16588841],[1.54948141,45.16584201],[1.54819886,45.16552275],[1.54731472,45.16525458],[1.54684257,45.16500438],[1.54659979,45.16479499],[1.5451776,45.16338689],[1.54473226,45.16318386],[1.54442081,45.16311856],[1.54368273,45.1630603],[1.5431084,45.16311765],[1.54259785,45.16336494],[1.54217728,45.16362781],[1.54182583,45.16377812],[1.54063882,45.16409311],[1.53980584,45.16435329],[1.53856901,45.16467391],[1.53714785,45.16503263],[1.53685014,45.16507466],[1.53598415,45.16503898],[1.53209607,45.16466281],[1.52655096,45.16412775],[1.52374334,45.16415278],[1.52234435,45.16376684],[1.52206188,45.1636172],[1.51934015,45.16664577],[1.52014126,45.16672844],[1.51994666,45.16696181],[1.52017225,45.16748083],[1.52109863,45.16788125],[1.52130249,45.16777859],[1.52195301,45.16797182],[1.52201978,45.16790246],[1.52214216,45.16789598],[1.52319636,45.16808554],[1.52499093,45.16868203],[1.52531515,45.16879439],[1.52545017,45.16879167],[1.52646946,45.16842329],[1.5274946,45.16797753],[1.52849132,45.16769168],[1.52943838,45.16730882],[1.53095865,45.1669614],[1.53159281,45.16700307],[1.53145941,45.16767044],[1.53712971,45.16825282],[1.54193207,45.16741329],[1.54240779,45.16737988],[1.54249989,45.16731444],[1.5427097,45.16727486],[1.55023608,45.16840132],[1.55000369,45.16906562],[1.54974157,45.16930537],[1.54969308,45.16984868],[1.54975385,45.17000887]]]]},"bbox":[1.51934015,45.1630603,1.55347131,45.17000887]},{"type":"Feature","id":"fr-quartier-19031-7539fa0bd81f","properties":{"id":"fr-quartier-19031-7539fa0bd81f","kind":"quartier","name":"Migoule","cityCode":"19031","cityName":"Brive-la-Gaillarde","sourceType":"iris","sourceIds":["190310702"],"colorIndex":11,"center":[1.5363269158079103,45.17479394497989]},"geometry":{"type":"MultiPolygon","coordinates":[[[[1.51612985,45.17635994],[1.51610211,45.17654149],[1.51621297,45.17663392],[1.51661116,45.17664732],[1.51706443,45.17683976],[1.5177249,45.17728531],[1.51808461,45.17783673],[1.51843385,45.17796745],[1.51951475,45.17806914],[1.52111094,45.17804167],[1.52482625,45.17843575],[1.52578806,45.17870782],[1.52681724,45.17917799],[1.52806633,45.17942142],[1.5284012,45.17942223],[1.52859355,45.179323],[1.5288324,45.17948825],[1.53140484,45.18039748],[1.53392956,45.18220569],[1.53735719,45.18445614],[1.5389462,45.18563418],[1.53983992,45.18525503],[1.5406664,45.18423198],[1.5413541,45.18374295],[1.54165133,45.18343073],[1.54225944,45.18311177],[1.54306028,45.18223876],[1.54358969,45.18147028],[1.54478566,45.18097165],[1.5457474,45.1803718],[1.54920113,45.17849492],[1.54931907,45.17831724],[1.54948294,45.1774008],[1.54963058,45.17715776],[1.55054232,45.17651759],[1.55125523,45.1761297],[1.55178255,45.17553316],[1.55224944,45.17490972],[1.55226778,45.17444797],[1.55182685,45.17397215],[1.5511006,45.17340348],[1.55042103,45.17309657],[1.55063981,45.17246721],[1.5506137,45.17209944],[1.55006947,45.17138633],[1.54986727,45.17093612],[1.54975385,45.17000887],[1.54969308,45.16984868],[1.54974157,45.16930537],[1.55000369,45.16906562],[1.55023608,45.16840132],[1.5427097,45.16727486],[1.54249989,45.16731444],[1.54240779,45.16737988],[1.54193207,45.16741329],[1.53712971,45.16825282],[1.53145941,45.16767044],[1.53159281,45.16700307],[1.53095865,45.1669614],[1.52943838,45.16730882],[1.52849132,45.16769168],[1.5274946,45.16797753],[1.52646946,45.16842329],[1.52545017,45.16879167],[1.52531515,45.16879439],[1.52499093,45.16868203],[1.52314774,45.17030931],[1.52167761,45.17135432],[1.52121706,45.17211101],[1.52096091,45.17264886],[1.52094372,45.1727693],[1.52112347,45.17367406],[1.52132814,45.17363805],[1.52206401,45.17363969],[1.5223131,45.17433102],[1.52255053,45.1745485],[1.52285015,45.17501446],[1.5228692,45.1751606],[1.52277569,45.17527824],[1.52245638,45.17536407],[1.52214223,45.17535091],[1.52124091,45.17496073],[1.52111526,45.17494556],[1.52076876,45.17509677],[1.51993829,45.175781],[1.51959799,45.17593769],[1.51914481,45.17598211],[1.51815831,45.17568354],[1.51774891,45.17566099],[1.51737575,45.1757605],[1.5165442,45.17624387],[1.51623979,45.17629566],[1.51612985,45.17635994]]]]},"bbox":[1.51610211,45.1669614,1.55226778,45.18563418]},{"type":"Feature","id":"fr-quartier-19031-a28abde6e5a8","properties":{"id":"fr-quartier-19031-a28abde6e5a8","kind":"quartier","name":"Poste","cityCode":"19031","cityName":"Brive-la-Gaillarde","sourceType":"iris","sourceIds":["190310103"],"colorIndex":12,"center":[1.5336736608485257,45.155483642521645]},"geometry":{"type":"MultiPolygon","coordinates":[[[[1.53590946,45.15730124],[1.53639462,45.15743909],[1.53721419,45.15749306],[1.54037673,45.15755969],[1.54009912,45.15542172],[1.54001877,45.15528198],[1.5383729,45.15426621],[1.5358095,45.15310239],[1.53558388,45.15301838],[1.53536912,45.15300566],[1.5309502,45.1536338],[1.52980669,45.15413926],[1.52799092,45.15503931],[1.52770008,45.15511202],[1.52723523,45.15531571],[1.52511797,45.15538681],[1.52488221,45.15544584],[1.52449321,45.15562081],[1.52561028,45.15612008],[1.52893671,45.15716181],[1.52972283,45.15737389],[1.52981526,45.15773084],[1.5299556,45.1579119],[1.52991951,45.15754219],[1.53003955,45.15733394],[1.53072456,45.15684134],[1.5309905,45.15674758],[1.53150434,45.15671382],[1.53447279,45.15675375],[1.53506136,45.15692808],[1.53590946,45.15730124]]]]},"bbox":[1.52449321,45.15300566,1.54037673,45.1579119]},{"type":"Feature","id":"fr-quartier-19031-9b5ab4ecdedd","properties":{"id":"fr-quartier-19031-9b5ab4ecdedd","kind":"quartier","name":"Rivet","cityCode":"19031","cityName":"Brive-la-Gaillarde","sourceType":"iris","sourceIds":["190310601"],"colorIndex":13,"center":[1.494295465338231,45.166176081577404]},"geometry":{"type":"MultiPolygon","coordinates":[[[[1.48161216,45.15829393],[1.4799121,45.16061409],[1.47955885,45.16124599],[1.4792283,45.16225914],[1.47924985,45.16315101],[1.48216551,45.16186685],[1.48302439,45.16173984],[1.4844945,45.16179223],[1.48748355,45.16883838],[1.48865826,45.17125163],[1.48913843,45.17199751],[1.48996493,45.17288495],[1.49065556,45.17333558],[1.4908306,45.17354868],[1.49116739,45.17371263],[1.49193083,45.17439118],[1.49192475,45.17447485],[1.49303827,45.17576961],[1.49375848,45.17701403],[1.49408759,45.17694462],[1.49235147,45.17446801],[1.49293414,45.17476857],[1.49328434,45.17457787],[1.49351486,45.17481153],[1.4949815,45.17410815],[1.49504198,45.17380096],[1.4956759,45.17356996],[1.49592873,45.17325906],[1.49599238,45.17302307],[1.49687834,45.17269909],[1.49720537,45.17246934],[1.49744881,45.17222316],[1.49749736,45.17202748],[1.49796646,45.17205361],[1.49878784,45.17166841],[1.49909993,45.17194638],[1.49934046,45.17180822],[1.49903147,45.17136729],[1.49960252,45.17091567],[1.49943386,45.17041719],[1.49963969,45.17043256],[1.50028996,45.17125002],[1.50060716,45.17067431],[1.50101182,45.17044469],[1.50060502,45.16918923],[1.50103074,45.16902834],[1.5012257,45.17030257],[1.50173736,45.1699285],[1.50172384,45.16900883],[1.50198805,45.16898356],[1.50307094,45.16928807],[1.5041361,45.16897184],[1.5043545,45.16894595],[1.50541372,45.1688989],[1.50642335,45.16880165],[1.5066141,45.1688096],[1.50684289,45.1688712],[1.50733081,45.16857333],[1.5075158,45.16851096],[1.50815079,45.16842669],[1.50834464,45.16836625],[1.50907467,45.16786898],[1.50970169,45.16760538],[1.51025,45.16742898],[1.51105267,45.16731001],[1.51157703,45.16702882],[1.51188577,45.16700412],[1.51233443,45.16650578],[1.51284368,45.16621808],[1.51283089,45.16607652],[1.51304325,45.16565518],[1.51251282,45.16559137],[1.51211784,45.16560412],[1.51206195,45.1656475],[1.51204637,45.16575446],[1.51190449,45.16582372],[1.50928843,45.16620397],[1.50711308,45.16585969],[1.50710823,45.16466006],[1.50304489,45.16465517],[1.50273929,45.16446825],[1.5025308,45.16417277],[1.50291538,45.16231554],[1.5019893,45.16238687],[1.50111821,45.16235356],[1.4997244,45.16211329],[1.49909416,45.16207059],[1.49698344,45.16217097],[1.49633146,45.16227385],[1.49613329,45.16235314],[1.49575904,45.16258945],[1.49498651,45.16291405],[1.49427177,45.16307822],[1.4936082,45.16318543],[1.49338723,45.16321307],[1.49300253,45.16317546],[1.49206071,45.16288536],[1.49166368,45.16255038],[1.49064833,45.16097776],[1.48988756,45.16006689],[1.48880544,45.15894273],[1.48825937,45.15847244],[1.48804513,45.15834616],[1.48779935,45.15825637],[1.48748337,45.15822057],[1.48677771,45.15828575],[1.4858461,45.15846854],[1.48524416,45.1585108],[1.4844118,45.1585067],[1.48161216,45.15829393]]]]},"bbox":[1.4792283,45.15822057,1.51304325,45.17701403]},{"type":"Feature","id":"fr-quartier-19031-ab123ab73421","properties":{"id":"fr-quartier-19031-ab123ab73421","kind":"quartier","name":"Rollinat","cityCode":"19031","cityName":"Brive-la-Gaillarde","sourceType":"iris","sourceIds":["190310301"],"colorIndex":14,"center":[1.5589786714921678,45.144940057966565]},"geometry":{"type":"MultiPolygon","coordinates":[[[[1.55871953,45.15805656],[1.56016123,45.15807337],[1.56352393,45.15793119],[1.56456883,45.15818329],[1.56480658,45.15769824],[1.56671487,45.15733913],[1.56765646,45.15700361],[1.56832313,45.15666725],[1.5691238,45.15601831],[1.56962366,45.15573384],[1.57018323,45.15490619],[1.5701555,45.1546969],[1.57032549,45.15437038],[1.5707769,45.15413841],[1.57110988,45.15380857],[1.5716213,45.15351884],[1.57188623,45.15306294],[1.5725385,45.15283895],[1.57276705,45.15266086],[1.57307886,45.15181382],[1.57350962,45.15139246],[1.57379181,45.15125648],[1.5724504,45.15001097],[1.57149788,45.14958542],[1.57102971,45.14908142],[1.57087847,45.14902365],[1.57092051,45.14892243],[1.57015896,45.14779868],[1.57018931,45.14740823],[1.57003999,45.14677863],[1.56915143,45.14584597],[1.56869893,45.14358967],[1.56877155,45.14298993],[1.56901982,45.14248791],[1.56811435,45.14082827],[1.56808715,45.14020114],[1.56791095,45.13952976],[1.56545325,45.13950539],[1.56803244,45.1359309],[1.56827876,45.13540454],[1.56830959,45.1340523],[1.56667447,45.13361435],[1.56685054,45.13314832],[1.56560953,45.13297117],[1.56567545,45.13268294],[1.56465208,45.13225552],[1.56428824,45.13180867],[1.563991,45.13159231],[1.5620683,45.13239695],[1.56097863,45.13311235],[1.56039601,45.13330655],[1.560397,45.13282387],[1.55969458,45.13268062],[1.559753,45.13204288],[1.56017677,45.13090284],[1.56017088,45.13019313],[1.55971002,45.1300575],[1.55965883,45.1296741],[1.55983345,45.12951336],[1.55917003,45.12938862],[1.55897186,45.12942658],[1.55844645,45.12903165],[1.55765585,45.12890616],[1.55625195,45.12848905],[1.55549933,45.12837124],[1.55512004,45.12837803],[1.55408401,45.1288392],[1.55366242,45.12905527],[1.55395916,45.12978046],[1.55395184,45.12996498],[1.55337951,45.13064649],[1.5528416,45.13147252],[1.55283751,45.13158144],[1.55302824,45.13178204],[1.55281143,45.13199896],[1.55260252,45.13245103],[1.5520767,45.13462626],[1.5517311,45.13519723],[1.54975854,45.13781293],[1.54940375,45.13854048],[1.54922686,45.13942342],[1.54944316,45.14162991],[1.54905446,45.14248579],[1.5490194,45.14270867],[1.54906476,45.14311811],[1.5489965,45.1433946],[1.54870453,45.14385729],[1.5478655,45.1448532],[1.54766109,45.1452756],[1.54759617,45.14557014],[1.54748265,45.14572716],[1.54712544,45.14600619],[1.54641264,45.14635443],[1.54572442,45.14678493],[1.54555798,45.14692145],[1.54544793,45.14709112],[1.54542311,45.14736007],[1.54557893,45.1475341],[1.54572863,45.1476009],[1.54629529,45.14768573],[1.5464935,45.14779548],[1.54657485,45.14794603],[1.54651896,45.14818665],[1.54628233,45.14833036],[1.54464524,45.14864223],[1.54442415,45.1487267],[1.54400456,45.1490049],[1.54326169,45.14982102],[1.54320999,45.14994912],[1.54324881,45.15011984],[1.54367827,45.15048837],[1.54378337,45.15070408],[1.54370261,45.15092186],[1.54347631,45.15110802],[1.54465324,45.15170604],[1.5451774,45.1519092],[1.55196817,45.1541841],[1.55334207,45.15470173],[1.55450733,45.15526617],[1.55593749,45.15616994],[1.55871953,45.15805656]]]]},"bbox":[1.54320999,45.12837124,1.57379181,45.15818329]},{"type":"Feature","id":"fr-quartier-19031-bff01cd7d21f","properties":{"id":"fr-quartier-19031-bff01cd7d21f","kind":"quartier","name":"Sauvajoux","cityCode":"19031","cityName":"Brive-la-Gaillarde","sourceType":"iris","sourceIds":["190310602"],"colorIndex":15,"center":[1.5121083603949832,45.16363773800582]},"geometry":{"type":"MultiPolygon","coordinates":[[[[1.51934015,45.16664577],[1.52206188,45.1636172],[1.52130569,45.16328208],[1.52078525,45.16317792],[1.52008738,45.16318848],[1.51895099,45.1633184],[1.51855821,45.16329698],[1.51816054,45.16321965],[1.51740765,45.16290526],[1.51669853,45.16242844],[1.51600462,45.16181133],[1.51427265,45.16069139],[1.51373215,45.16043383],[1.51237604,45.15992495],[1.51211288,45.15991244],[1.51192146,45.15997833],[1.50963802,45.16145181],[1.50841081,45.16212255],[1.50777321,45.16230765],[1.50745534,45.16234123],[1.5066607,45.16230538],[1.50503784,45.16210894],[1.50291538,45.16231554],[1.5025308,45.16417277],[1.50273929,45.16446825],[1.50304489,45.16465517],[1.50710823,45.16466006],[1.50711308,45.16585969],[1.50928843,45.16620397],[1.51190449,45.16582372],[1.51204637,45.16575446],[1.51206195,45.1656475],[1.51211784,45.16560412],[1.51251282,45.16559137],[1.51304325,45.16565518],[1.51283089,45.16607652],[1.51284368,45.16621808],[1.51419496,45.16562189],[1.51507985,45.16552109],[1.51526546,45.16476438],[1.51760797,45.16480632],[1.51847252,45.16494388],[1.51770682,45.16645388],[1.51694527,45.16679949],[1.51735437,45.16726242],[1.51771248,45.16710417],[1.51908754,45.16690629],[1.51934015,45.16664577]]]]},"bbox":[1.5025308,45.15991244,1.52206188,45.16726242]},{"type":"Feature","id":"fr-quartier-19031-150a8af76a92","properties":{"id":"fr-quartier-19031-150a8af76a92","kind":"quartier","name":"Sports","cityCode":"19031","cityName":"Brive-la-Gaillarde","sourceType":"iris","sourceIds":["190310201"],"colorIndex":16,"center":[1.5486554068617473,45.16112963290095]},"geometry":{"type":"MultiPolygon","coordinates":[[[[1.55263314,45.1661477],[1.55248598,45.16583329],[1.55386524,45.16418873],[1.55412091,45.16404886],[1.55435875,45.1635161],[1.55475094,45.16341311],[1.55492244,45.16327935],[1.55487658,45.16313286],[1.55500081,45.16295616],[1.55485133,45.16278042],[1.55486488,45.16201061],[1.55506584,45.16162327],[1.55577985,45.16138126],[1.55592513,45.16088242],[1.5566412,45.16036306],[1.55700535,45.1602606],[1.55756123,45.15958516],[1.55791692,45.15857753],[1.55787617,45.15803576],[1.54572482,45.15772137],[1.54037673,45.15755969],[1.54084045,45.16149131],[1.54045727,45.16358732],[1.54045993,45.16372875],[1.54063882,45.16409311],[1.54182583,45.16377812],[1.54217728,45.16362781],[1.54259785,45.16336494],[1.5431084,45.16311765],[1.54368273,45.1630603],[1.54442081,45.16311856],[1.54473226,45.16318386],[1.5451776,45.16338689],[1.54659979,45.16479499],[1.54684257,45.16500438],[1.54731472,45.16525458],[1.54819886,45.16552275],[1.54948141,45.16584201],[1.54993341,45.16588841],[1.55084866,45.16589039],[1.55135179,45.16592845],[1.55263314,45.1661477]]]]},"bbox":[1.54037673,45.15755969,1.55791692,45.1661477]},{"type":"Feature","id":"fr-quartier-19031-fdbd1ab65dda","properties":{"id":"fr-quartier-19031-fdbd1ab65dda","kind":"quartier","name":"Tilleul","cityCode":"19031","cityName":"Brive-la-Gaillarde","sourceType":"iris","sourceIds":["190310303"],"colorIndex":17,"center":[1.5180904231642602,45.14438744237779]},"geometry":{"type":"MultiPolygon","coordinates":[[[[1.50234441,45.15170634],[1.50246089,45.15163405],[1.50582125,45.1510487],[1.50598614,45.15106982],[1.50739755,45.15087978],[1.50921982,45.15079337],[1.51051988,45.15076931],[1.51132462,45.15094575],[1.51277911,45.15095344],[1.51339673,45.15103552],[1.5144652,45.15124968],[1.51543453,45.1514589],[1.516927,45.15200198],[1.51883952,45.15283249],[1.51937858,45.1532386],[1.51962936,45.15290061],[1.52136932,45.15347303],[1.52177905,45.15357301],[1.52261284,45.15366421],[1.52418499,45.15370122],[1.52499385,45.15362817],[1.52552384,45.15351179],[1.52601164,45.15335433],[1.52961576,45.1516737],[1.53186803,45.1508181],[1.53093355,45.14923341],[1.53057071,45.14851269],[1.53029211,45.14754091],[1.53030323,45.14721505],[1.53043582,45.14648014],[1.53041352,45.14621508],[1.52993393,45.14466069],[1.52980618,45.1444861],[1.5295793,45.1443066],[1.52961397,45.14400446],[1.52891805,45.14366028],[1.5269002,45.14296994],[1.5273267,45.14262435],[1.52776709,45.14208892],[1.52781892,45.14103955],[1.52778638,45.14092205],[1.5269921,45.14064229],[1.52678062,45.14050712],[1.52489049,45.13840634],[1.5238298,45.1374242],[1.52113651,45.13471836],[1.52094511,45.13464287],[1.52079771,45.13463551],[1.52053166,45.13468872],[1.520406,45.13477351],[1.52040015,45.13489861],[1.52061411,45.13565972],[1.52048888,45.13577604],[1.52030457,45.13576909],[1.52013273,45.13567585],[1.51933425,45.13498263],[1.51867664,45.13483161],[1.51876295,45.13464724],[1.51867385,45.13445694],[1.51784093,45.1340082],[1.51752031,45.13376799],[1.51719404,45.13330977],[1.51696898,45.13277724],[1.51603177,45.13266392],[1.51587397,45.13271315],[1.51575578,45.13285206],[1.51586727,45.13339659],[1.51584099,45.13357185],[1.51545679,45.13428899],[1.51517103,45.13460489],[1.51423225,45.13517145],[1.51403396,45.1351643],[1.51374381,45.13497492],[1.51348835,45.13491658],[1.51329983,45.13492488],[1.51298966,45.1350099],[1.51280548,45.13499844],[1.51263907,45.13489265],[1.51256472,45.1346269],[1.51254559,45.13415024],[1.5126201,45.13350193],[1.51258272,45.13289895],[1.51249085,45.13266988],[1.51220393,45.13231213],[1.51168835,45.13203689],[1.51075678,45.13166513],[1.51046947,45.13137041],[1.51015282,45.13112663],[1.51001102,45.13110042],[1.50879142,45.13117778],[1.50863374,45.1312225],[1.50829929,45.13145488],[1.50774756,45.13162941],[1.50739761,45.13182285],[1.5072778,45.13216437],[1.50688268,45.13257244],[1.50720751,45.13270016],[1.50725929,45.1327621],[1.50717345,45.13326076],[1.50685637,45.13384279],[1.50774427,45.13442112],[1.50903019,45.13496065],[1.50904091,45.13603697],[1.50993634,45.13581028],[1.51064685,45.1360287],[1.51149291,45.13703422],[1.51235327,45.13721681],[1.51301405,45.13715357],[1.51346655,45.13769724],[1.51408418,45.13930488],[1.5146441,45.14097838],[1.5147483,45.14112746],[1.51482122,45.14149586],[1.51505081,45.14176279],[1.51618633,45.14270368],[1.51624879,45.14279546],[1.51623644,45.14287725],[1.51584662,45.14274959],[1.51455281,45.14259368],[1.51440937,45.14286735],[1.51392924,45.1434085],[1.51376819,45.14343517],[1.51366971,45.14340594],[1.51336226,45.14305242],[1.51321839,45.14295955],[1.51308089,45.14300995],[1.51274277,45.14333055],[1.51251036,45.14383897],[1.51248556,45.14429253],[1.51320653,45.14469659],[1.51335059,45.14487772],[1.51284422,45.1458778],[1.51287991,45.14630605],[1.51314861,45.14706431],[1.51289838,45.14714202],[1.51267112,45.14726507],[1.51204033,45.1466758],[1.51198531,45.14644812],[1.51181052,45.14632151],[1.51144726,45.14629505],[1.5109018,45.14642015],[1.51031525,45.14627274],[1.51049858,45.14593567],[1.51074954,45.14506637],[1.51075264,45.14495024],[1.51069801,45.14489908],[1.51035199,45.144799],[1.50903316,45.14467331],[1.50825863,45.14484667],[1.50771045,45.14521668],[1.50758214,45.14525639],[1.50629333,45.14534001],[1.50533524,45.14709409],[1.50316802,45.14647516],[1.49974135,45.1458897],[1.49928257,45.14577186],[1.49828388,45.14542971],[1.49718881,45.14739352],[1.49708586,45.1478145],[1.49795387,45.14790634],[1.49987762,45.14801868],[1.50067976,45.14809971],[1.50338933,45.14871245],[1.50676744,45.14917017],[1.5075635,45.14938435],[1.51014532,45.15030682],[1.51114767,45.15051742],[1.51113294,45.1506406],[1.50853123,45.15065269],[1.50720041,45.15073215],[1.50545943,45.15096731],[1.50186049,45.15157466],[1.50234441,45.15170634]]]]},"bbox":[1.49708586,45.13110042,1.53186803,45.15370122]},{"type":"Feature","id":"fr-quartier-19031-1e48bf84f132","properties":{"id":"fr-quartier-19031-1e48bf84f132","kind":"quartier","name":"Tujac Nord","cityCode":"19031","cityName":"Brive-la-Gaillarde","sourceType":"iris","sourceIds":["190310503"],"colorIndex":18,"center":[1.4941057237542383,45.15898282382505]},"geometry":{"type":"MultiPolygon","coordinates":[[[[1.48151149,45.15829797],[1.48161216,45.15829393],[1.4844118,45.1585067],[1.48524416,45.1585108],[1.4858461,45.15846854],[1.48677771,45.15828575],[1.48748337,45.15822057],[1.48779935,45.15825637],[1.48804513,45.15834616],[1.48825937,45.15847244],[1.48880544,45.15894273],[1.48988756,45.16006689],[1.49064833,45.16097776],[1.49166368,45.16255038],[1.49206071,45.16288536],[1.49300253,45.16317546],[1.49338723,45.16321307],[1.4936082,45.16318543],[1.49427177,45.16307822],[1.49498651,45.16291405],[1.49575904,45.16258945],[1.49613329,45.16235314],[1.49633146,45.16227385],[1.49698344,45.16217097],[1.49909416,45.16207059],[1.4997244,45.16211329],[1.50111821,45.16235356],[1.5019893,45.16238687],[1.50291538,45.16231554],[1.50330095,45.16056279],[1.49983764,45.16017227],[1.50178899,45.15575956],[1.50105312,45.15552904],[1.50021221,45.15688841],[1.49838339,45.15631086],[1.49921034,45.15495132],[1.4976944,45.15447973],[1.49718588,45.15445757],[1.49685399,45.15449363],[1.49630826,45.15448267],[1.49623842,45.15466545],[1.4947733,45.15717451],[1.49412033,45.15797711],[1.49382815,45.15790833],[1.49275606,45.15744897],[1.49213526,45.15729469],[1.49060917,45.15705702],[1.49056497,45.15699698],[1.49025661,45.15700902],[1.48864558,45.15675937],[1.48716104,45.15644567],[1.48597107,45.15634667],[1.48558327,45.15623784],[1.48481477,45.1558987],[1.48294597,45.15581567],[1.48273372,45.15641347],[1.48246166,45.15696363],[1.48151149,45.15829797]]]]},"bbox":[1.48151149,45.15445757,1.50330095,45.16321307]},{"type":"Feature","id":"fr-quartier-19031-d7b54cee50a6","properties":{"id":"fr-quartier-19031-d7b54cee50a6","kind":"quartier","name":"Tujac Ouest","cityCode":"19031","cityName":"Brive-la-Gaillarde","sourceType":"iris","sourceIds":["190310501"],"colorIndex":19,"center":[1.483551818912512,45.15047037484952]},"geometry":{"type":"MultiPolygon","coordinates":[[[[1.4661041,45.14116356],[1.46612397,45.1414133],[1.46658587,45.14164569],[1.46677445,45.14191485],[1.46705633,45.14207633],[1.46691423,45.1424319],[1.46789667,45.14280113],[1.4678146,45.14291708],[1.46795506,45.14303878],[1.46791223,45.1432084],[1.46871613,45.14447485],[1.46878796,45.14487209],[1.46843085,45.14522561],[1.468422,45.14582708],[1.46834072,45.14596015],[1.46835613,45.14609455],[1.4687313,45.146568],[1.46847569,45.1472111],[1.46878977,45.14759186],[1.46872169,45.1480331],[1.46853818,45.14841333],[1.4711668,45.14908969],[1.4702319,45.15065109],[1.46992666,45.15101524],[1.4709916,45.15167826],[1.47137983,45.15209514],[1.47141484,45.15249007],[1.47209003,45.15274608],[1.47260051,45.15334745],[1.47277937,45.15406766],[1.47254655,45.15681034],[1.47315413,45.1573536],[1.47400258,45.15974994],[1.47453472,45.15979414],[1.47563527,45.16102586],[1.47667807,45.16008278],[1.47848118,45.15912395],[1.47981935,45.1585496],[1.48151149,45.15829797],[1.48246166,45.15696363],[1.48273372,45.15641347],[1.48294597,45.15581567],[1.48481477,45.1558987],[1.48558327,45.15623784],[1.48597107,45.15634667],[1.48716104,45.15644567],[1.48864558,45.15675937],[1.49025661,45.15700902],[1.49056497,45.15699698],[1.49060917,45.15705702],[1.49213526,45.15729469],[1.49275606,45.15744897],[1.49382815,45.15790833],[1.49412033,45.15797711],[1.4947733,45.15717451],[1.49623842,45.15466545],[1.49630826,45.15448267],[1.49495047,45.15447247],[1.49495507,45.15373496],[1.4950432,45.15343986],[1.4950346,45.15328665],[1.49547675,45.15322057],[1.49557397,45.15287156],[1.495491,45.15264439],[1.50186049,45.15157466],[1.50545943,45.15096731],[1.50720041,45.15073215],[1.50853123,45.15065269],[1.51113294,45.1506406],[1.51114767,45.15051742],[1.51014532,45.15030682],[1.5075635,45.14938435],[1.50676744,45.14917017],[1.50338933,45.14871245],[1.50067976,45.14809971],[1.49987762,45.14801868],[1.49795387,45.14790634],[1.49708586,45.1478145],[1.49623665,45.14768599],[1.49502351,45.14741477],[1.4845447,45.14431814],[1.48344355,45.14400419],[1.48186598,45.1436153],[1.4798908,45.14324798],[1.4661041,45.14116356]]]]},"bbox":[1.4661041,45.14116356,1.51114767,45.16102586]},{"type":"Feature","id":"fr-quartier-19031-090732b62ad7","properties":{"id":"fr-quartier-19031-090732b62ad7","kind":"quartier","name":"Tujac Sud","cityCode":"19031","cityName":"Brive-la-Gaillarde","sourceType":"iris","sourceIds":["190310502"],"colorIndex":20,"center":[1.5005700387725944,45.153902360232514]},"geometry":{"type":"MultiPolygon","coordinates":[[[[1.50186049,45.15157466],[1.495491,45.15264439],[1.49557397,45.15287156],[1.49547675,45.15322057],[1.4950346,45.15328665],[1.4950432,45.15343986],[1.49495507,45.15373496],[1.49495047,45.15447247],[1.49630826,45.15448267],[1.49685399,45.15449363],[1.49718588,45.15445757],[1.4976944,45.15447973],[1.49921034,45.15495132],[1.49838339,45.15631086],[1.50021221,45.15688841],[1.50105312,45.15552904],[1.50178899,45.15575956],[1.50415463,45.15649194],[1.50496381,45.1527474],[1.504954,45.15259057],[1.50488824,45.15247982],[1.50467346,45.15232565],[1.50234441,45.15170634],[1.50186049,45.15157466]]]]},"bbox":[1.49495047,45.15157466,1.50496381,45.15688841]},{"type":"Feature","id":"fr-quartier-19031-c7f703f0f59c","properties":{"id":"fr-quartier-19031-c7f703f0f59c","kind":"quartier","name":"Vialmur","cityCode":"19031","cityName":"Brive-la-Gaillarde","sourceType":"iris","sourceIds":["190310603"],"colorIndex":21,"center":[1.514641072684052,45.170862575840985]},"geometry":{"type":"MultiPolygon","coordinates":[[[[1.50307094,45.16928807],[1.50320502,45.16936822],[1.50470274,45.16958642],[1.50493433,45.16968589],[1.5059114,45.17223409],[1.50626431,45.172844],[1.5072524,45.17355516],[1.50786734,45.17460445],[1.50836842,45.1750074],[1.50871987,45.17514898],[1.51025768,45.17535053],[1.51152184,45.17526203],[1.51246163,45.17497016],[1.51481166,45.17517617],[1.51516162,45.17532671],[1.5159863,45.17601221],[1.51612985,45.17635994],[1.51623979,45.17629566],[1.5165442,45.17624387],[1.51737575,45.1757605],[1.51774891,45.17566099],[1.51815831,45.17568354],[1.51914481,45.17598211],[1.51959799,45.17593769],[1.51993829,45.175781],[1.52076876,45.17509677],[1.52111526,45.17494556],[1.52124091,45.17496073],[1.52214223,45.17535091],[1.52245638,45.17536407],[1.52277569,45.17527824],[1.5228692,45.1751606],[1.52285015,45.17501446],[1.52255053,45.1745485],[1.5223131,45.17433102],[1.52206401,45.17363969],[1.52132814,45.17363805],[1.52112347,45.17367406],[1.52094372,45.1727693],[1.52096091,45.17264886],[1.52121706,45.17211101],[1.52167761,45.17135432],[1.52314774,45.17030931],[1.52499093,45.16868203],[1.52319636,45.16808554],[1.52214216,45.16789598],[1.52201978,45.16790246],[1.52195301,45.16797182],[1.52130249,45.16777859],[1.52109863,45.16788125],[1.52017225,45.16748083],[1.51994666,45.16696181],[1.52014126,45.16672844],[1.51934015,45.16664577],[1.51908754,45.16690629],[1.51771248,45.16710417],[1.51735437,45.16726242],[1.51694527,45.16679949],[1.51770682,45.16645388],[1.51847252,45.16494388],[1.51760797,45.16480632],[1.51526546,45.16476438],[1.51507985,45.16552109],[1.51419496,45.16562189],[1.51284368,45.16621808],[1.51233443,45.16650578],[1.51188577,45.16700412],[1.51157703,45.16702882],[1.51105267,45.16731001],[1.51025,45.16742898],[1.50970169,45.16760538],[1.50907467,45.16786898],[1.50834464,45.16836625],[1.50815079,45.16842669],[1.5075158,45.16851096],[1.50733081,45.16857333],[1.50684289,45.1688712],[1.5066141,45.1688096],[1.50642335,45.16880165],[1.50541372,45.1688989],[1.5043545,45.16894595],[1.5041361,45.16897184],[1.50307094,45.16928807]]]]},"bbox":[1.50307094,45.16476438,1.52499093,45.17635994]},{"type":"Feature","id":"fr-quartier-19031-4dd019df9383","properties":{"id":"fr-quartier-19031-4dd019df9383","kind":"quartier","name":"Zola","cityCode":"19031","cityName":"Brive-la-Gaillarde","sourceType":"iris","sourceIds":["190310401"],"colorIndex":22,"center":[1.5301009525488514,45.153215540000005]},"geometry":{"type":"MultiPolygon","coordinates":[[[[1.52370871,45.15741967],[1.52449321,45.15562081],[1.52488221,45.15544584],[1.52511797,45.15538681],[1.52723523,45.15531571],[1.52770008,45.15511202],[1.52799092,45.15503931],[1.52980669,45.15413926],[1.5309502,45.1536338],[1.53536912,45.15300566],[1.53531454,45.15290318],[1.53588069,45.15228021],[1.53419018,45.15146822],[1.53701454,45.15043902],[1.5368016,45.15016246],[1.53668849,45.14928202],[1.53658613,45.14901141],[1.53585797,45.14916486],[1.53542953,45.14929342],[1.53466119,45.14957151],[1.53352303,45.15012031],[1.53295503,45.15032898],[1.53186803,45.1508181],[1.52961576,45.1516737],[1.52601164,45.15335433],[1.52552384,45.15351179],[1.52499385,45.15362817],[1.52418499,45.15370122],[1.52261284,45.15366421],[1.52177905,45.15357301],[1.52136932,45.15347303],[1.51962936,45.15290061],[1.51937858,45.1532386],[1.51883952,45.15283249],[1.516927,45.15200198],[1.51543453,45.1514589],[1.5144652,45.15124968],[1.51379658,45.15227102],[1.51327867,45.15284139],[1.51217229,45.1543369],[1.51711653,45.15565],[1.52370871,45.15741967]]]]},"bbox":[1.51217229,45.14901141,1.53701454,45.15741967]}]}