{"type":"FeatureCollection","metadata":{"sourceType":"iris","referenceFile":"beaune-quartiers.geojson","source":"IGN / INSEE - Contours IRIS WFS Géoplateforme","sourceUrl":"https://geoservices.ign.fr/contoursiris","license":"Licence Ouverte / Open Licence 2.0","sourceYear":"2026"},"features":[{"type":"Feature","id":"fr-quartier-21054-6f5767ae73f7","properties":{"id":"fr-quartier-21054-6f5767ae73f7","kind":"quartier","name":"Blanches Fleurs","cityCode":"21054","cityName":"Beaune","sourceType":"iris","sourceIds":["210540110"],"colorIndex":0,"center":[4.842235705427794,47.03850826069758]},"geometry":{"type":"MultiPolygon","coordinates":[[[[4.83896854,47.04544525],[4.83953199,47.0453165],[4.83953327,47.04512195],[4.83978862,47.04499901],[4.83980393,47.04506181],[4.84567228,47.04256635],[4.84905534,47.04121811],[4.84836032,47.04096537],[4.84804354,47.03963939],[4.84793219,47.03942684],[4.8478036,47.03936495],[4.84775122,47.03925862],[4.84786864,47.03910995],[4.8478763,47.03883335],[4.8476836,47.03836093],[4.84767926,47.03823402],[4.84721564,47.03738949],[4.84404724,47.03360189],[4.84211831,47.03119302],[4.83881352,47.03281449],[4.83850346,47.03306979],[4.83825778,47.03343663],[4.83824204,47.03475352],[4.83787691,47.03575176],[4.83773217,47.03653036],[4.83767433,47.03738502],[4.83767905,47.03837468],[4.83810543,47.04041219],[4.83828615,47.04328123],[4.838795,47.04530122],[4.83896854,47.04544525]]]]},"bbox":[4.83767433,47.03119302,4.84905534,47.04544525]},{"type":"Feature","id":"fr-quartier-21054-ca595f82b544","properties":{"id":"fr-quartier-21054-ca595f82b544","kind":"quartier","name":"Camp Américain-Les Peupliers","cityCode":"21054","cityName":"Beaune","sourceType":"iris","sourceIds":["210540102"],"colorIndex":1,"center":[4.8652298588950895,47.029911934415004]},"geometry":{"type":"MultiPolygon","coordinates":[[[[4.86797611,47.04210419],[4.86891056,47.04200172],[4.8736802,47.04095631],[4.88314342,47.04089154],[4.88305545,47.0396916],[4.88109851,47.03948394],[4.8808853,47.0388471],[4.8792885,47.03691252],[4.88021908,47.03655065],[4.88002843,47.03622054],[4.87856613,47.03493039],[4.87807181,47.0342765],[4.87967516,47.03330119],[4.8793295,47.03237742],[4.87850999,47.03221964],[4.87804593,47.03164001],[4.87724781,47.03156653],[4.87680455,47.03162237],[4.87500414,47.03246124],[4.87444452,47.0325802],[4.87402552,47.03280404],[4.87341625,47.03285896],[4.87252187,47.03152979],[4.87128406,47.03112118],[4.87060486,47.03033607],[4.86997604,47.0297879],[4.87024139,47.02953954],[4.86910064,47.02869886],[4.86901151,47.02787447],[4.86759351,47.02762183],[4.86660831,47.02731626],[4.86637505,47.02715972],[4.86483245,47.0269595],[4.86262138,47.02681418],[4.86251698,47.02653668],[4.86376562,47.02589063],[4.8626695,47.02519326],[4.86539135,47.02388579],[4.86514159,47.02359444],[4.86448888,47.02311326],[4.86288846,47.02230245],[4.86034489,47.02194181],[4.85917281,47.02190306],[4.85868035,47.02033677],[4.85900494,47.02024058],[4.86425266,47.01959039],[4.86685804,47.0194177],[4.86761969,47.01969897],[4.86989703,47.01956034],[4.8734379,47.01890944],[4.87482809,47.01889768],[4.87500782,47.01937117],[4.87786951,47.01839075],[4.87734903,47.01758598],[4.87635025,47.01658275],[4.87292243,47.0170707],[4.87099195,47.01729744],[4.85835009,47.01900562],[4.85744266,47.01907876],[4.85721215,47.01907707],[4.85701388,47.01901721],[4.85690209,47.01905954],[4.85683264,47.01914621],[4.85653984,47.01920946],[4.85197506,47.01984564],[4.85132274,47.01994707],[4.85127219,47.02000912],[4.85114981,47.01997325],[4.84949968,47.02020143],[4.84942713,47.02015937],[4.8493138,47.0201954],[4.847248,47.01970614],[4.84712411,47.01978017],[4.84700122,47.01976773],[4.84692542,47.0197077],[4.84563589,47.01981388],[4.8455359,47.0198551],[4.85453476,47.02850146],[4.85940132,47.03316474],[4.86160469,47.03533296],[4.86797611,47.04210419]]]]},"bbox":[4.8455359,47.01658275,4.88314342,47.04210419]},{"type":"Feature","id":"fr-quartier-21054-adc2efa4e0a9","properties":{"id":"fr-quartier-21054-adc2efa4e0a9","kind":"quartier","name":"Centre Ville","cityCode":"21054","cityName":"Beaune","sourceType":"iris","sourceIds":["210540106"],"colorIndex":2,"center":[4.838190049115312,47.02407570569989]},"geometry":{"type":"MultiPolygon","coordinates":[[[[4.832658,47.0238814],[4.83262201,47.02421789],[4.83279981,47.02448974],[4.83433949,47.02581165],[4.8346374,47.02597442],[4.83546324,47.0262864],[4.83579393,47.02648377],[4.83665797,47.02749219],[4.83695483,47.02793325],[4.83712975,47.02808086],[4.83782738,47.02779778],[4.83866009,47.02757559],[4.83919238,47.02750407],[4.83951868,47.02757182],[4.83948289,47.02748774],[4.84026357,47.02743928],[4.84089145,47.02704292],[4.84245396,47.02628583],[4.84269362,47.02601453],[4.84290013,47.02531239],[4.8432874,47.02492886],[4.84353218,47.02476915],[4.8441533,47.02452328],[4.84431012,47.02437218],[4.84432257,47.0239271],[4.8442413,47.02366813],[4.84413649,47.02349149],[4.84390569,47.02328894],[4.84373601,47.02321781],[4.84326359,47.0231515],[4.84285144,47.0230374],[4.84239885,47.02281858],[4.8419613,47.02242301],[4.84169006,47.02207701],[4.84134244,47.02188533],[4.84065337,47.02160543],[4.83965162,47.02107655],[4.83894211,47.0205439],[4.83855341,47.02049876],[4.83753507,47.02071941],[4.83728273,47.02073423],[4.83662746,47.02071134],[4.83598621,47.02059726],[4.83543094,47.02061059],[4.83539858,47.02074349],[4.83532463,47.02081491],[4.8346819,47.02131594],[4.83348843,47.02184823],[4.83336498,47.02193574],[4.83312097,47.02231246],[4.83307452,47.02311651],[4.832658,47.0238814]]]]},"bbox":[4.83262201,47.02049876,4.84432257,47.02808086]},{"type":"Feature","id":"fr-quartier-21054-4497e4f55a3d","properties":{"id":"fr-quartier-21054-4497e4f55a3d","kind":"quartier","name":"Colbert-Gare-Colombière","cityCode":"21054","cityName":"Beaune","sourceType":"iris","sourceIds":["210540105"],"colorIndex":3,"center":[4.844171884329806,47.0231507437716]},"geometry":{"type":"MultiPolygon","coordinates":[[[[4.83951868,47.02757182],[4.83962699,47.02765835],[4.83981383,47.02823265],[4.84028586,47.02905906],[4.84134384,47.0301508],[4.84309125,47.02940606],[4.84593162,47.02830971],[4.84785655,47.02963789],[4.85049254,47.02857532],[4.85245097,47.02995512],[4.85337591,47.0291973],[4.85453476,47.02850146],[4.8455359,47.0198551],[4.84370895,47.01810655],[4.84005314,47.01438786],[4.83875208,47.01496425],[4.83793968,47.01550673],[4.83765187,47.01563919],[4.83708907,47.01612635],[4.83688064,47.01611526],[4.83674818,47.01620833],[4.83675192,47.01631814],[4.83684113,47.01638606],[4.83617812,47.01725666],[4.83589017,47.0178115],[4.83567252,47.01842015],[4.83555281,47.01908217],[4.83552375,47.0202804],[4.83543094,47.02061059],[4.83598621,47.02059726],[4.83662746,47.02071134],[4.83728273,47.02073423],[4.83753507,47.02071941],[4.83855341,47.02049876],[4.83894211,47.0205439],[4.83965162,47.02107655],[4.84065337,47.02160543],[4.84134244,47.02188533],[4.84169006,47.02207701],[4.8419613,47.02242301],[4.84239885,47.02281858],[4.84285144,47.0230374],[4.84326359,47.0231515],[4.84373601,47.02321781],[4.84390569,47.02328894],[4.84413649,47.02349149],[4.8442413,47.02366813],[4.84432257,47.0239271],[4.84431012,47.02437218],[4.8441533,47.02452328],[4.84353218,47.02476915],[4.8432874,47.02492886],[4.84290013,47.02531239],[4.84269362,47.02601453],[4.84245396,47.02628583],[4.84089145,47.02704292],[4.84026357,47.02743928],[4.83948289,47.02748774],[4.83951868,47.02757182]]]]},"bbox":[4.83543094,47.01438786,4.85453476,47.0301508]},{"type":"Feature","id":"fr-quartier-21054-107a5f15c5a5","properties":{"id":"fr-quartier-21054-107a5f15c5a5","kind":"quartier","name":"La Montagne","cityCode":"21054","cityName":"Beaune","sourceType":"iris","sourceIds":["210540101"],"colorIndex":4,"center":[4.808727694666833,47.037292074651326]},"geometry":{"type":"MultiPolygon","coordinates":[[[[4.81293005,47.01392187],[4.812817,47.01377054],[4.80833827,47.01587518],[4.80868504,47.01616424],[4.80808341,47.01640421],[4.80773526,47.01670325],[4.80707573,47.01623627],[4.80615321,47.01589769],[4.80537343,47.01644122],[4.80489318,47.01708273],[4.80352037,47.01761301],[4.80157186,47.01888622],[4.79996227,47.01970293],[4.79878638,47.02061372],[4.79781375,47.02153934],[4.79763283,47.02156377],[4.79712665,47.02139064],[4.79690883,47.02161197],[4.79616295,47.02207115],[4.79532581,47.02247952],[4.79488511,47.02296908],[4.7943634,47.0231609],[4.7935685,47.02392973],[4.79319968,47.02523588],[4.79339328,47.02638559],[4.79327922,47.02719427],[4.79323587,47.02723727],[4.79301143,47.02710206],[4.79289275,47.0272561],[4.79260304,47.02812965],[4.79230852,47.0282639],[4.79188565,47.02873695],[4.79156926,47.02940288],[4.79104156,47.03001174],[4.79078398,47.03070376],[4.79025636,47.03151434],[4.78962429,47.03207529],[4.78861225,47.03357149],[4.7889075,47.03449179],[4.7888635,47.03531018],[4.78864323,47.03542076],[4.78828816,47.03595489],[4.78772379,47.03629503],[4.78751612,47.03662695],[4.78752261,47.03734009],[4.78725056,47.03751811],[4.78689974,47.03822147],[4.78718671,47.03889155],[4.78712,47.04029835],[4.78732516,47.04239618],[4.78728035,47.04271387],[4.78709665,47.0428554],[4.78810894,47.04366644],[4.78944832,47.04452734],[4.79267266,47.04589212],[4.79339126,47.04674189],[4.79361409,47.04761918],[4.79462561,47.04855986],[4.79492281,47.049137],[4.79522408,47.04944031],[4.7947114,47.05038666],[4.79465607,47.05086211],[4.79424947,47.0513142],[4.79422546,47.05150369],[4.79395695,47.05182936],[4.79390448,47.0523516],[4.79351264,47.05336721],[4.78864062,47.05525646],[4.78857327,47.05521248],[4.78802804,47.05534069],[4.78794875,47.05529419],[4.78714092,47.05541115],[4.79032801,47.05889198],[4.79406222,47.05816583],[4.79967036,47.05764184],[4.80069179,47.05737016],[4.80157173,47.05653153],[4.80256761,47.05498325],[4.80336225,47.05423599],[4.80454266,47.05355925],[4.80624309,47.05279061],[4.80719065,47.05279561],[4.8091673,47.05256474],[4.81011678,47.05258769],[4.81200279,47.05232668],[4.81495404,47.05208312],[4.81824404,47.05157029],[4.82383716,47.05093998],[4.82488252,47.05072084],[4.8269662,47.05054201],[4.82801232,47.05065694],[4.82834205,47.0507832],[4.82975523,47.05092023],[4.83070114,47.05025593],[4.83163639,47.0489677],[4.83351399,47.04768973],[4.83312894,47.04736983],[4.8329096,47.04707973],[4.83276768,47.04678029],[4.83201547,47.0459682],[4.83199231,47.04528594],[4.83165271,47.04444119],[4.83167597,47.04431114],[4.83177296,47.04417992],[4.83287526,47.04312047],[4.83313553,47.04267687],[4.83096116,47.04296892],[4.83079326,47.04295177],[4.8307478,47.04289305],[4.83082229,47.04233172],[4.83071599,47.04222714],[4.83069915,47.04211934],[4.83096642,47.04110466],[4.83095206,47.03943883],[4.83070754,47.03813328],[4.83056244,47.03777806],[4.83068598,47.03753655],[4.83035288,47.03637649],[4.83033763,47.03615969],[4.83039059,47.03593461],[4.82974996,47.03611587],[4.82945507,47.03623762],[4.82908341,47.03642632],[4.82789038,47.03717738],[4.82774331,47.03707434],[4.82763326,47.03670324],[4.82760501,47.03645243],[4.8276493,47.03612662],[4.82754967,47.03575176],[4.82772327,47.03535457],[4.82773564,47.03517516],[4.82746708,47.03409062],[4.82750927,47.03315786],[4.8273954,47.03244011],[4.82745732,47.03232385],[4.82781088,47.03202917],[4.82741793,47.03166616],[4.82724037,47.03163475],[4.82672573,47.03164559],[4.8264909,47.03159527],[4.82646263,47.03146063],[4.82656449,47.03088986],[4.82657586,47.03048623],[4.82646858,47.02984582],[4.82565558,47.02960201],[4.82503487,47.02924079],[4.82511886,47.02919263],[4.82480072,47.02874287],[4.8240389,47.02798582],[4.82337824,47.02722086],[4.82313904,47.02704092],[4.82240899,47.02687234],[4.82267488,47.02675106],[4.82191438,47.02571931],[4.821365,47.02481569],[4.82156635,47.02461619],[4.82161044,47.02443989],[4.82355547,47.02369503],[4.82467389,47.02335405],[4.8248273,47.02325617],[4.82408839,47.02290221],[4.82267636,47.02262102],[4.82188087,47.02230667],[4.82023696,47.02112313],[4.81872174,47.02031758],[4.81835813,47.02007836],[4.81797425,47.02013663],[4.81674927,47.02048012],[4.81686453,47.02018743],[4.81683727,47.01988616],[4.81654743,47.01941252],[4.81628985,47.01911488],[4.81613199,47.01841492],[4.81566439,47.01786302],[4.81525225,47.01704098],[4.81439501,47.01598277],[4.81360687,47.01466771],[4.81293005,47.01392187]]]]},"bbox":[4.78689974,47.01377054,4.83351399,47.05889198]},{"type":"Feature","id":"fr-quartier-21054-f8a74fe66ea2","properties":{"id":"fr-quartier-21054-f8a74fe66ea2","kind":"quartier","name":"Les Roles-Saint Martin","cityCode":"21054","cityName":"Beaune","sourceType":"iris","sourceIds":["210540109"],"colorIndex":5,"center":[4.833083997915597,47.03392248248538]},"geometry":{"type":"MultiPolygon","coordinates":[[[[4.83351399,47.04768973],[4.83688989,47.0462294],[4.83896854,47.04544525],[4.838795,47.04530122],[4.83828615,47.04328123],[4.83810543,47.04041219],[4.83767905,47.03837468],[4.83767433,47.03738502],[4.83773217,47.03653036],[4.83787691,47.03575176],[4.83824204,47.03475352],[4.83825778,47.03343663],[4.83850346,47.03306979],[4.83881352,47.03281449],[4.84211831,47.03119302],[4.84134384,47.0301508],[4.84028586,47.02905906],[4.83981383,47.02823265],[4.83962699,47.02765835],[4.83951868,47.02757182],[4.83919238,47.02750407],[4.83866009,47.02757559],[4.83782738,47.02779778],[4.83712975,47.02808086],[4.83695483,47.02793325],[4.83665797,47.02749219],[4.83579393,47.02648377],[4.83546324,47.0262864],[4.8346374,47.02597442],[4.83433949,47.02581165],[4.83279981,47.02448974],[4.83262201,47.02421789],[4.832658,47.0238814],[4.83246226,47.02366297],[4.83213758,47.02356456],[4.83088716,47.02350694],[4.83029071,47.02358845],[4.82904154,47.02422874],[4.82705171,47.02504915],[4.82526904,47.02553213],[4.82439747,47.02581338],[4.82267488,47.02675106],[4.82240899,47.02687234],[4.82313904,47.02704092],[4.82337824,47.02722086],[4.8240389,47.02798582],[4.82480072,47.02874287],[4.82511886,47.02919263],[4.82503487,47.02924079],[4.82565558,47.02960201],[4.82646858,47.02984582],[4.82657586,47.03048623],[4.82656449,47.03088986],[4.82646263,47.03146063],[4.8264909,47.03159527],[4.82672573,47.03164559],[4.82724037,47.03163475],[4.82741793,47.03166616],[4.82781088,47.03202917],[4.82745732,47.03232385],[4.8273954,47.03244011],[4.82750927,47.03315786],[4.82746708,47.03409062],[4.82773564,47.03517516],[4.82772327,47.03535457],[4.82754967,47.03575176],[4.8276493,47.03612662],[4.82760501,47.03645243],[4.82763326,47.03670324],[4.82774331,47.03707434],[4.82789038,47.03717738],[4.82908341,47.03642632],[4.82945507,47.03623762],[4.82974996,47.03611587],[4.83039059,47.03593461],[4.83033763,47.03615969],[4.83035288,47.03637649],[4.83068598,47.03753655],[4.83056244,47.03777806],[4.83070754,47.03813328],[4.83095206,47.03943883],[4.83096642,47.04110466],[4.83069915,47.04211934],[4.83071599,47.04222714],[4.83082229,47.04233172],[4.8307478,47.04289305],[4.83079326,47.04295177],[4.83096116,47.04296892],[4.83313553,47.04267687],[4.83287526,47.04312047],[4.83177296,47.04417992],[4.83167597,47.04431114],[4.83165271,47.04444119],[4.83199231,47.04528594],[4.83201547,47.0459682],[4.83276768,47.04678029],[4.8329096,47.04707973],[4.83312894,47.04736983],[4.83351399,47.04768973]]]]},"bbox":[4.82240899,47.02350694,4.84211831,47.04768973]},{"type":"Feature","id":"fr-quartier-21054-81f0fe422003","properties":{"id":"fr-quartier-21054-81f0fe422003","kind":"quartier","name":"Porte de Beaune","cityCode":"21054","cityName":"Beaune","sourceType":"iris","sourceIds":["210540103"],"colorIndex":6,"center":[4.864690030602515,47.00835256179861]},"geometry":{"type":"MultiPolygon","coordinates":[[[[4.85265035,46.99815504],[4.84985041,46.99926715],[4.84820133,46.99969974],[4.84833762,47.00018207],[4.84635377,47.00064251],[4.84627184,47.00117246],[4.84437322,47.00170175],[4.8441179,47.0012024],[4.83821925,47.00252311],[4.83736789,47.00261141],[4.83688552,47.00162755],[4.83424726,47.00212701],[4.83294735,47.00016999],[4.82952787,47.00111672],[4.8297091,47.00133719],[4.82781337,47.00191749],[4.84005314,47.01438786],[4.84370895,47.01810655],[4.8455359,47.0198551],[4.84563589,47.01981388],[4.84692542,47.0197077],[4.84700122,47.01976773],[4.84712411,47.01978017],[4.847248,47.01970614],[4.8493138,47.0201954],[4.84942713,47.02015937],[4.84949968,47.02020143],[4.85114981,47.01997325],[4.85127219,47.02000912],[4.85132274,47.01994707],[4.85197506,47.01984564],[4.85653984,47.01920946],[4.85683264,47.01914621],[4.85690209,47.01905954],[4.85701388,47.01901721],[4.85721215,47.01907707],[4.85744266,47.01907876],[4.85835009,47.01900562],[4.87099195,47.01729744],[4.87292243,47.0170707],[4.87635025,47.01658275],[4.87877634,47.01625781],[4.8787018,47.01604558],[4.88011413,47.01557499],[4.88249213,47.01493014],[4.88393466,47.01483636],[4.89155146,47.01301327],[4.89404518,47.01154493],[4.89411812,47.01050895],[4.89476031,47.01016159],[4.89584679,47.01009332],[4.89658893,47.01023062],[4.89460448,47.00598268],[4.89424214,47.00462332],[4.89468895,47.00339928],[4.89515549,47.00206324],[4.89735886,47.0015281],[4.89654102,47.00005646],[4.89621555,46.99922245],[4.89510551,46.99902544],[4.89403942,46.99730389],[4.89337751,46.9958828],[4.89314081,46.99588938],[4.8929277,46.99604328],[4.89253709,46.99601547],[4.89221044,46.99630991],[4.89146396,46.99638159],[4.89123766,46.99551983],[4.89029238,46.995665],[4.88973963,46.99600638],[4.88824171,46.99638393],[4.8881162,46.99633285],[4.88791676,46.99650183],[4.88720104,46.99681343],[4.8865121,46.99691206],[4.8835477,46.9977413],[4.87957218,46.99909848],[4.87917377,46.99914909],[4.8767119,46.99989973],[4.87663026,46.99993708],[4.87676226,47.00017449],[4.8718521,47.00169429],[4.87002664,47.00258125],[4.8699515,47.00235011],[4.86824531,47.00310902],[4.86817624,47.00293903],[4.86740882,47.00351252],[4.86612226,47.00384493],[4.86444566,47.00416743],[4.86206268,47.00481289],[4.86111675,47.00532798],[4.86052199,47.00480172],[4.85993191,47.00460229],[4.85967446,47.00416065],[4.85922206,47.00375367],[4.85901842,47.00330666],[4.85875252,47.00303986],[4.85686102,47.00155372],[4.85364207,46.99932068],[4.85329963,46.99900828],[4.85265035,46.99815504]]]]},"bbox":[4.82781337,46.99551983,4.89735886,47.02020143]},{"type":"Feature","id":"fr-quartier-21054-0ffb73e5a1f9","properties":{"id":"fr-quartier-21054-0ffb73e5a1f9","kind":"quartier","name":"Saint-Jacques","cityCode":"21054","cityName":"Beaune","sourceType":"iris","sourceIds":["210540107"],"colorIndex":7,"center":[4.8323924933961635,47.011936297755106]},"geometry":{"type":"MultiPolygon","coordinates":[[[[4.82781337,47.00191749],[4.82484921,47.00282625],[4.82556052,47.00416317],[4.82609631,47.00501925],[4.82614317,47.00527607],[4.82608799,47.0053571],[4.82609895,47.00548661],[4.82621919,47.00557747],[4.82639345,47.00563054],[4.82663515,47.00584826],[4.82718522,47.00677526],[4.82761538,47.00812652],[4.82803619,47.0091231],[4.82966202,47.01172162],[4.8308227,47.01442206],[4.83088676,47.01475786],[4.83083993,47.01547366],[4.83143005,47.0167224],[4.83154412,47.01709613],[4.83139838,47.01838987],[4.83131568,47.01843621],[4.83136088,47.01852645],[4.83058983,47.01928256],[4.83041873,47.01959597],[4.830513,47.01996821],[4.83059373,47.02009662],[4.83243857,47.02125791],[4.83310279,47.0217769],[4.83336498,47.02193574],[4.83348843,47.02184823],[4.8346819,47.02131594],[4.83532463,47.02081491],[4.83539858,47.02074349],[4.83543094,47.02061059],[4.83552375,47.0202804],[4.83555281,47.01908217],[4.83567252,47.01842015],[4.83589017,47.0178115],[4.83617812,47.01725666],[4.83684113,47.01638606],[4.83675192,47.01631814],[4.83674818,47.01620833],[4.83688064,47.01611526],[4.83708907,47.01612635],[4.83765187,47.01563919],[4.83793968,47.01550673],[4.83875208,47.01496425],[4.84005314,47.01438786],[4.82781337,47.00191749]]]]},"bbox":[4.82484921,47.00191749,4.84005314,47.02193574]},{"type":"Feature","id":"fr-quartier-21054-b3753a888a51","properties":{"id":"fr-quartier-21054-b3753a888a51","kind":"quartier","name":"Saint-Nicolas","cityCode":"21054","cityName":"Beaune","sourceType":"iris","sourceIds":["210540104"],"colorIndex":8,"center":[4.85348719478257,47.03521453078741]},"geometry":{"type":"MultiPolygon","coordinates":[[[[4.84905534,47.04121811],[4.85050688,47.04048161],[4.85982725,47.04051831],[4.86104396,47.04073195],[4.8666287,47.04199899],[4.86797611,47.04210419],[4.86160469,47.03533296],[4.85940132,47.03316474],[4.85453476,47.02850146],[4.85337591,47.0291973],[4.85245097,47.02995512],[4.85049254,47.02857532],[4.84785655,47.02963789],[4.84593162,47.02830971],[4.84309125,47.02940606],[4.84134384,47.0301508],[4.84211831,47.03119302],[4.84404724,47.03360189],[4.84721564,47.03738949],[4.84767926,47.03823402],[4.8476836,47.03836093],[4.8478763,47.03883335],[4.84786864,47.03910995],[4.84775122,47.03925862],[4.8478036,47.03936495],[4.84793219,47.03942684],[4.84804354,47.03963939],[4.84836032,47.04096537],[4.84905534,47.04121811]]]]},"bbox":[4.84134384,47.02830971,4.86797611,47.04210419]},{"type":"Feature","id":"fr-quartier-21054-ede7336cc992","properties":{"id":"fr-quartier-21054-ede7336cc992","kind":"quartier","name":"Vignes Rouges-Vérottes","cityCode":"21054","cityName":"Beaune","sourceType":"iris","sourceIds":["210540108"],"colorIndex":9,"center":[4.82375932848981,47.015501848682575]},"geometry":{"type":"MultiPolygon","coordinates":[[[[4.82484921,47.00282625],[4.82474455,47.00261177],[4.82220195,47.00544374],[4.82225864,47.00552389],[4.82193214,47.005602],[4.82211475,47.00590261],[4.81953085,47.0069313],[4.82011997,47.00769201],[4.82054634,47.00799868],[4.81839872,47.00935819],[4.81868382,47.00961396],[4.81773584,47.01027821],[4.81782812,47.01032088],[4.81701108,47.01096415],[4.81744577,47.01104827],[4.81724122,47.0113865],[4.81655219,47.01196111],[4.81585241,47.01155065],[4.81561548,47.01170927],[4.81583001,47.01178515],[4.8140468,47.01290829],[4.81367588,47.01319419],[4.81379933,47.01322377],[4.81337841,47.01370679],[4.81293005,47.01392187],[4.81360687,47.01466771],[4.81439501,47.01598277],[4.81525225,47.01704098],[4.81566439,47.01786302],[4.81613199,47.01841492],[4.81628985,47.01911488],[4.81654743,47.01941252],[4.81683727,47.01988616],[4.81686453,47.02018743],[4.81674927,47.02048012],[4.81797425,47.02013663],[4.81835813,47.02007836],[4.81872174,47.02031758],[4.82023696,47.02112313],[4.82188087,47.02230667],[4.82267636,47.02262102],[4.82408839,47.02290221],[4.8248273,47.02325617],[4.82467389,47.02335405],[4.82355547,47.02369503],[4.82161044,47.02443989],[4.82156635,47.02461619],[4.821365,47.02481569],[4.82191438,47.02571931],[4.82267488,47.02675106],[4.82439747,47.02581338],[4.82526904,47.02553213],[4.82705171,47.02504915],[4.82904154,47.02422874],[4.83029071,47.02358845],[4.83088716,47.02350694],[4.83213758,47.02356456],[4.83246226,47.02366297],[4.832658,47.0238814],[4.83307452,47.02311651],[4.83312097,47.02231246],[4.83336498,47.02193574],[4.83310279,47.0217769],[4.83243857,47.02125791],[4.83059373,47.02009662],[4.830513,47.01996821],[4.83041873,47.01959597],[4.83058983,47.01928256],[4.83136088,47.01852645],[4.83131568,47.01843621],[4.83139838,47.01838987],[4.83154412,47.01709613],[4.83143005,47.0167224],[4.83083993,47.01547366],[4.83088676,47.01475786],[4.8308227,47.01442206],[4.82966202,47.01172162],[4.82803619,47.0091231],[4.82761538,47.00812652],[4.82718522,47.00677526],[4.82663515,47.00584826],[4.82639345,47.00563054],[4.82621919,47.00557747],[4.82609895,47.00548661],[4.82608799,47.0053571],[4.82614317,47.00527607],[4.82609631,47.00501925],[4.82556052,47.00416317],[4.82484921,47.00282625]]]]},"bbox":[4.81293005,47.00261177,4.83336498,47.02675106]}]}