{"type":"FeatureCollection","metadata":{"sourceType":"iris","referenceFile":"nuits-saint-georges-quartiers.geojson","source":"IGN / INSEE - Contours IRIS WFS Géoplateforme","sourceUrl":"https://geoservices.ign.fr/contoursiris","license":"Licence Ouverte / Open Licence 2.0","sourceYear":"2026"},"features":[{"type":"Feature","id":"fr-quartier-21464-762d02f8e2f7","properties":{"id":"fr-quartier-21464-762d02f8e2f7","kind":"quartier","name":"La Côte","cityCode":"21464","cityName":"Nuits-Saint-Georges","sourceType":"iris","sourceIds":["214640101"],"colorIndex":0,"center":[4.932509655081493,47.14937321763751]},"geometry":{"type":"MultiPolygon","coordinates":[[[[4.90752981,47.15658404],[4.90520508,47.15994807],[4.90483395,47.16072865],[4.90340924,47.16098804],[4.90365853,47.16180254],[4.90479754,47.16328231],[4.90626171,47.16424792],[4.90659058,47.16447394],[4.90677338,47.16478882],[4.90789083,47.16580514],[4.90854601,47.16629595],[4.90980105,47.16791335],[4.91017321,47.16872581],[4.91059288,47.1692394],[4.91069191,47.16964842],[4.9110214,47.17003922],[4.91100634,47.1702475],[4.91061861,47.17059701],[4.91078865,47.17114624],[4.91064041,47.17150891],[4.91063051,47.1720485],[4.9103212,47.17278485],[4.91049104,47.17347727],[4.9103304,47.17416073],[4.9101517,47.17440953],[4.91007885,47.17473853],[4.90954022,47.17541472],[4.90986725,47.17614508],[4.91099002,47.17693074],[4.91142077,47.1770479],[4.91218491,47.17703169],[4.91297914,47.17685917],[4.91400437,47.1767945],[4.91592853,47.17723546],[4.91513261,47.17981069],[4.91504385,47.18061995],[4.91538387,47.18252888],[4.91536911,47.18307936],[4.91479219,47.18405339],[4.91580309,47.18406458],[4.91657344,47.18418332],[4.91637428,47.18563829],[4.91642465,47.18649658],[4.91656457,47.18701298],[4.91700773,47.18788368],[4.91755776,47.18778632],[4.91816302,47.18786725],[4.91860258,47.18770957],[4.91912964,47.18774587],[4.9191026,47.18791382],[4.91875842,47.18830135],[4.92083562,47.18842812],[4.92127677,47.18690878],[4.92185791,47.18409483],[4.92116942,47.17890559],[4.92641962,47.17890751],[4.92783875,47.17885057],[4.93031799,47.17911185],[4.93340883,47.17900625],[4.93397235,47.17884645],[4.93412816,47.17873488],[4.9341148,47.17858381],[4.93394993,47.17818581],[4.93400652,47.17766525],[4.93383321,47.17662801],[4.93360911,47.17597795],[4.93430595,47.1756331],[4.93619826,47.17511157],[4.93701504,47.17439367],[4.93778663,47.17385214],[4.93819404,47.17335631],[4.93953418,47.17221088],[4.93839496,47.17141765],[4.93721098,47.17033339],[4.9364468,47.16946453],[4.9363084,47.16870047],[4.9364139,47.1664203],[4.93613946,47.16488403],[4.93628939,47.16361894],[4.93679078,47.16360875],[4.93812838,47.16338914],[4.93896066,47.16318068],[4.94010899,47.16272917],[4.940226,47.16183565],[4.94064825,47.16179165],[4.9403487,47.15989109],[4.94001121,47.15887911],[4.94083148,47.15885275],[4.94352783,47.15809246],[4.94370949,47.15815065],[4.94530771,47.15802293],[4.94641125,47.15768828],[4.94655339,47.15756612],[4.94751975,47.1574544],[4.95061921,47.15685646],[4.95052961,47.15664274],[4.95119018,47.15650913],[4.95122115,47.15659866],[4.95330216,47.15617001],[4.95249726,47.15538119],[4.95228592,47.15490475],[4.95233342,47.15388451],[4.95180746,47.15255874],[4.9520764,47.1512736],[4.95205874,47.15082271],[4.95096537,47.1496479],[4.95166697,47.14944695],[4.95633137,47.14848113],[4.95531411,47.14594971],[4.95495146,47.14519575],[4.95461856,47.14467905],[4.95313492,47.1415485],[4.95247817,47.14058067],[4.95171921,47.13988742],[4.95086679,47.1392732],[4.95010909,47.13835839],[4.94982403,47.13788499],[4.95038168,47.13761262],[4.95048602,47.13750549],[4.95051605,47.13738701],[4.95034342,47.13695675],[4.94946347,47.13536136],[4.94935155,47.13522275],[4.94909812,47.13507573],[4.9488376,47.13502428],[4.94810892,47.13498252],[4.94791519,47.13488041],[4.94785617,47.13474452],[4.94815993,47.13449535],[4.94821889,47.13426471],[4.94909909,47.13360688],[4.95140899,47.1314696],[4.95154309,47.13138269],[4.95160765,47.13145274],[4.95185772,47.13139809],[4.95219083,47.13119524],[4.95263636,47.13110847],[4.9527165,47.13106209],[4.95276637,47.13083611],[4.9532933,47.12997347],[4.95351241,47.12990222],[4.95464662,47.12973897],[4.95551591,47.12947572],[4.95579478,47.12934222],[4.95603222,47.1291581],[4.95700725,47.12817348],[4.95838638,47.1263634],[4.95914298,47.12586968],[4.95931644,47.12566861],[4.95934761,47.12550958],[4.95920935,47.12537234],[4.95904424,47.12529498],[4.95829664,47.1250924],[4.95806561,47.12498014],[4.95719125,47.12430239],[4.95674755,47.12349308],[4.95631308,47.12311948],[4.95630223,47.12292964],[4.9565536,47.122476],[4.95666769,47.12238401],[4.95717796,47.12226551],[4.95750272,47.1220889],[4.95760874,47.12195653],[4.95773832,47.12152836],[4.95816324,47.12124019],[4.9586617,47.12112368],[4.95930952,47.12083352],[4.95992483,47.12070152],[4.96010768,47.12068671],[4.96057074,47.12079414],[4.96099008,47.12075191],[4.96136221,47.12060871],[4.9615024,47.12050907],[4.96201963,47.1200392],[4.96209472,47.11989113],[4.96081092,47.11978052],[4.96120816,47.11822478],[4.95894966,47.11815679],[4.95896176,47.11790893],[4.95837654,47.11792424],[4.95805429,47.11613574],[4.95630236,47.11639144],[4.9548304,47.11581924],[4.95220524,47.11520436],[4.95154603,47.11543433],[4.94967105,47.11589913],[4.94702773,47.11638675],[4.94755659,47.11729463],[4.94538545,47.11774454],[4.94536797,47.11813748],[4.94559141,47.11917389],[4.94369339,47.11955343],[4.94198853,47.11976578],[4.94196214,47.12031468],[4.9412321,47.12052236],[4.94068043,47.12000478],[4.93866357,47.12060326],[4.93814321,47.11978165],[4.9370849,47.12010648],[4.93702039,47.11996347],[4.93532963,47.12042225],[4.93343177,47.12073587],[4.93353949,47.12087005],[4.93322195,47.12117615],[4.9292307,47.12301512],[4.92535111,47.12492143],[4.92623957,47.12644751],[4.92591353,47.12651778],[4.92619362,47.12733983],[4.92638969,47.12732486],[4.92667455,47.12791089],[4.92649363,47.12805439],[4.92650419,47.12853422],[4.92698199,47.12931246],[4.92636426,47.12993513],[4.92664501,47.13036903],[4.92675529,47.13090663],[4.92664236,47.13110664],[4.92680683,47.13260604],[4.92688388,47.1329893],[4.92721013,47.13307122],[4.92723293,47.13392998],[4.92699939,47.13393117],[4.92570967,47.13569254],[4.92368192,47.13803982],[4.92365444,47.13819428],[4.92273138,47.13843836],[4.9222391,47.13847536],[4.92177905,47.13841726],[4.9214713,47.13848451],[4.9214237,47.13874106],[4.92112271,47.13910899],[4.92113785,47.1396815],[4.92052645,47.14044992],[4.91973045,47.14070538],[4.919803,47.14092661],[4.91230266,47.14353997],[4.91210598,47.14353961],[4.9121884,47.14407679],[4.91242965,47.14421689],[4.91297443,47.14431865],[4.91266514,47.14445525],[4.91442906,47.14517444],[4.91453134,47.14597244],[4.91556168,47.14695862],[4.91705172,47.14776786],[4.91775521,47.1483956],[4.91785099,47.14867589],[4.91716258,47.14958425],[4.91704414,47.15015086],[4.9172559,47.15057422],[4.91767523,47.15096892],[4.91758895,47.15102978],[4.91769016,47.15116589],[4.91764258,47.15127565],[4.91705529,47.15146549],[4.91746286,47.15175232],[4.91760385,47.15233805],[4.91655536,47.15262648],[4.91526969,47.15181385],[4.91505692,47.15180747],[4.91509069,47.15190327],[4.91496114,47.1520468],[4.91453748,47.15201238],[4.91445604,47.15168953],[4.91282413,47.1520173],[4.91296542,47.15246434],[4.91256167,47.15258178],[4.91269714,47.15290194],[4.91208234,47.15302467],[4.91260392,47.1540688],[4.91330264,47.15511901],[4.91327945,47.1556183],[4.91226584,47.15588721],[4.91178591,47.1561653],[4.91031524,47.15821403],[4.91044186,47.15839655],[4.91027284,47.15850741],[4.90967987,47.15749777],[4.90960387,47.1571415],[4.90948057,47.15705258],[4.90858059,47.15665497],[4.90752981,47.15658404]]]]},"bbox":[4.90340924,47.11520436,4.96209472,47.18842812]},{"type":"Feature","id":"fr-quartier-21464-9ed62186b38c","properties":{"id":"fr-quartier-21464-9ed62186b38c","kind":"quartier","name":"La Plaine","cityCode":"21464","cityName":"Nuits-Saint-Georges","sourceType":"iris","sourceIds":["214640102"],"colorIndex":1,"center":[4.962787502000433,47.13542707089381]},"geometry":{"type":"MultiPolygon","coordinates":[[[[4.95633137,47.14848113],[4.96185372,47.14795266],[4.96196801,47.14804618],[4.96449781,47.14795373],[4.96451771,47.14788405],[4.96712571,47.14736694],[4.96702357,47.14684725],[4.96811446,47.14671793],[4.96801858,47.14618912],[4.96889616,47.14621922],[4.97197182,47.14236282],[4.97228145,47.14209547],[4.972842,47.14186798],[4.9725331,47.14046114],[4.97383048,47.14006347],[4.97335243,47.13879551],[4.97305715,47.13837277],[4.9793544,47.13680357],[4.97410635,47.13199679],[4.97150192,47.12934397],[4.9701424,47.12778301],[4.96841165,47.12555742],[4.96653238,47.12276517],[4.9655267,47.12109367],[4.96473649,47.12160332],[4.96209472,47.11989113],[4.96201963,47.1200392],[4.9615024,47.12050907],[4.96136221,47.12060871],[4.96099008,47.12075191],[4.96057074,47.12079414],[4.96010768,47.12068671],[4.95992483,47.12070152],[4.95930952,47.12083352],[4.9586617,47.12112368],[4.95816324,47.12124019],[4.95773832,47.12152836],[4.95760874,47.12195653],[4.95750272,47.1220889],[4.95717796,47.12226551],[4.95666769,47.12238401],[4.9565536,47.122476],[4.95630223,47.12292964],[4.95631308,47.12311948],[4.95674755,47.12349308],[4.95719125,47.12430239],[4.95806561,47.12498014],[4.95829664,47.1250924],[4.95904424,47.12529498],[4.95920935,47.12537234],[4.95934761,47.12550958],[4.95931644,47.12566861],[4.95914298,47.12586968],[4.95838638,47.1263634],[4.95700725,47.12817348],[4.95603222,47.1291581],[4.95579478,47.12934222],[4.95551591,47.12947572],[4.95464662,47.12973897],[4.95351241,47.12990222],[4.9532933,47.12997347],[4.95276637,47.13083611],[4.9527165,47.13106209],[4.95263636,47.13110847],[4.95219083,47.13119524],[4.95185772,47.13139809],[4.95160765,47.13145274],[4.95154309,47.13138269],[4.95140899,47.1314696],[4.94909909,47.13360688],[4.94821889,47.13426471],[4.94815993,47.13449535],[4.94785617,47.13474452],[4.94791519,47.13488041],[4.94810892,47.13498252],[4.9488376,47.13502428],[4.94909812,47.13507573],[4.94935155,47.13522275],[4.94946347,47.13536136],[4.95034342,47.13695675],[4.95051605,47.13738701],[4.95048602,47.13750549],[4.95038168,47.13761262],[4.94982403,47.13788499],[4.95010909,47.13835839],[4.95086679,47.1392732],[4.95171921,47.13988742],[4.95247817,47.14058067],[4.95313492,47.1415485],[4.95461856,47.14467905],[4.95495146,47.14519575],[4.95531411,47.14594971],[4.95633137,47.14848113]]]]},"bbox":[4.94785617,47.11989113,4.9793544,47.14848113]}]}