{"type":"FeatureCollection","metadata":{"sourceType":"iris","referenceFile":"saint-astier-quartiers.geojson","source":"IGN / INSEE - Contours IRIS WFS Géoplateforme","sourceUrl":"https://geoservices.ign.fr/contoursiris","license":"Licence Ouverte / Open Licence 2.0","sourceYear":"2026"},"features":[{"type":"Feature","id":"fr-quartier-24372-952bcaf8962f","properties":{"id":"fr-quartier-24372-952bcaf8962f","kind":"quartier","name":"la Bassonie","cityCode":"24372","cityName":"Saint-Astier","sourceType":"iris","sourceIds":["243720102"],"colorIndex":0,"center":[0.5384314791778281,45.13421092952985]},"geometry":{"type":"MultiPolygon","coordinates":[[[[0.55317805,45.15707398],[0.55433751,45.15644449],[0.55531574,45.15564977],[0.55604535,45.15471717],[0.55645158,45.15395855],[0.55649333,45.15265505],[0.55618987,45.15219978],[0.55607528,45.15179279],[0.55610701,45.15144576],[0.55657512,45.15063986],[0.55816168,45.15156462],[0.55900744,45.15193356],[0.55946048,45.15144261],[0.55956801,45.15113777],[0.56053627,45.15077159],[0.56077147,45.14970023],[0.56054881,45.14870624],[0.56080733,45.14812094],[0.56123038,45.14752843],[0.56167862,45.14740851],[0.56256438,45.14741436],[0.56278558,45.14724623],[0.56259209,45.14622495],[0.5629365,45.14623788],[0.56275775,45.14595832],[0.56292212,45.14566284],[0.56321624,45.14534046],[0.56352611,45.1452112],[0.56365865,45.14506185],[0.56414936,45.14504735],[0.56471141,45.14409752],[0.56586721,45.14272466],[0.56565629,45.14254079],[0.56680829,45.1411372],[0.56625515,45.14071525],[0.56578781,45.1405447],[0.56345175,45.13918208],[0.56226572,45.13871025],[0.5611388,45.13842977],[0.56045497,45.13817519],[0.56034377,45.13798178],[0.56078405,45.13757613],[0.55948842,45.13681721],[0.55426796,45.13483091],[0.55268508,45.13485113],[0.55202189,45.13427265],[0.55124645,45.13306112],[0.55140013,45.13228436],[0.55266968,45.13261672],[0.55259481,45.13142056],[0.55246353,45.13104743],[0.55273272,45.12891115],[0.55294393,45.12859239],[0.55310086,45.1279148],[0.55297728,45.12754004],[0.55344305,45.12628999],[0.55382394,45.12558308],[0.5546595,45.12457626],[0.55520166,45.12370172],[0.55630861,45.12259814],[0.55624787,45.12221216],[0.5575064,45.12139475],[0.55645672,45.12043308],[0.55600603,45.12058445],[0.55526995,45.11978459],[0.55536533,45.11879666],[0.55520393,45.11765807],[0.55525036,45.11694563],[0.55444206,45.11701258],[0.5539053,45.11689271],[0.5533535,45.1164482],[0.5530004,45.1158531],[0.55268641,45.11331937],[0.55170096,45.11313288],[0.55144078,45.11279926],[0.55147121,45.11210449],[0.55045863,45.11230565],[0.55041959,45.11206427],[0.54873775,45.11209306],[0.54747897,45.11268605],[0.54666643,45.11293752],[0.54506546,45.11309416],[0.54472426,45.11168044],[0.54322929,45.11142319],[0.54221556,45.11000094],[0.54196836,45.10948922],[0.54105633,45.10951595],[0.54083402,45.10849671],[0.54038203,45.10827414],[0.5399481,45.10827717],[0.53981716,45.10922917],[0.53879876,45.11193173],[0.53842843,45.11239649],[0.53779936,45.11266996],[0.53615592,45.11309669],[0.53606688,45.11390457],[0.53565979,45.11474056],[0.53550063,45.11569554],[0.53573474,45.11826361],[0.53568984,45.11965712],[0.53469085,45.12144933],[0.53396597,45.12224766],[0.53272165,45.12339753],[0.53142382,45.12423091],[0.53096528,45.12467299],[0.53075307,45.12529978],[0.53029651,45.12569685],[0.53015995,45.12596498],[0.53013778,45.12663922],[0.52986414,45.12712952],[0.52942368,45.12765127],[0.52895357,45.12757689],[0.52835152,45.12720591],[0.52811322,45.12686822],[0.52737019,45.12631844],[0.5267938,45.12545436],[0.52626984,45.12513104],[0.52566356,45.124914],[0.52234435,45.1242079],[0.51680886,45.12263619],[0.51566619,45.12240715],[0.51382841,45.12224367],[0.50589865,45.12226836],[0.50522971,45.12228853],[0.50516541,45.12295912],[0.50572585,45.12354551],[0.50621807,45.12466276],[0.50569502,45.12492042],[0.50491718,45.12552641],[0.50348789,45.12698443],[0.50320515,45.1271889],[0.50289525,45.12728916],[0.50280733,45.12788986],[0.5118543,45.13182974],[0.51367338,45.13276395],[0.51493249,45.13352711],[0.51614231,45.13434051],[0.51596547,45.13453926],[0.5160563,45.13467191],[0.51621441,45.13477993],[0.51619249,45.13512987],[0.51639686,45.13534252],[0.51634086,45.13562865],[0.51652771,45.13572019],[0.51439843,45.13732131],[0.51367447,45.13780155],[0.51387937,45.13808808],[0.51438068,45.13857851],[0.51498343,45.13899192],[0.51536696,45.13915451],[0.51677539,45.1393111],[0.51866249,45.13983865],[0.51888641,45.13984093],[0.51942083,45.1397303],[0.51980294,45.13972439],[0.52141138,45.14033669],[0.52179319,45.14051003],[0.5224213,45.14086991],[0.52263778,45.14092517],[0.52247528,45.1416044],[0.52244402,45.1423379],[0.52259905,45.14314761],[0.52285817,45.14373441],[0.52320385,45.14426368],[0.52344097,45.1445428],[0.52604372,45.14702475],[0.52621045,45.14725546],[0.52633993,45.14729257],[0.52644163,45.1472669],[0.52648425,45.14719577],[0.52656691,45.14722643],[0.52819836,45.14709504],[0.52895242,45.14688383],[0.52992056,45.14666745],[0.53006804,45.14658513],[0.53026383,45.14638948],[0.53055068,45.14643727],[0.53063502,45.14637247],[0.53094207,45.14639549],[0.53120115,45.14614988],[0.5315202,45.14618938],[0.53115199,45.14723342],[0.53094429,45.14746845],[0.53091582,45.14773807],[0.53106359,45.14851337],[0.53192378,45.15123045],[0.53244849,45.15260955],[0.53262233,45.15296833],[0.53313383,45.15369581],[0.53373728,45.15424426],[0.53412117,45.15443111],[0.53532809,45.15472083],[0.53569902,45.15485515],[0.53661323,45.15543116],[0.53682807,45.15543861],[0.537079,45.15537838],[0.53757349,45.15519381],[0.53781869,45.1550614],[0.54017233,45.15365575],[0.54192594,45.15234313],[0.54265272,45.15173936],[0.5429296,45.1515806],[0.54376285,45.15124762],[0.54443484,45.15107864],[0.54523239,45.15097818],[0.54586431,45.15102542],[0.54606246,45.15109374],[0.54625561,45.1512178],[0.54633219,45.15135821],[0.54630909,45.15179732],[0.54599394,45.15285609],[0.54599833,45.15310391],[0.54607127,45.1532983],[0.54619794,45.15345783],[0.54642361,45.15356639],[0.54669697,45.15363276],[0.54696742,45.15364952],[0.54761956,45.15352693],[0.54831498,45.15325935],[0.54912094,45.15285186],[0.54943122,45.15277309],[0.54974561,45.15274577],[0.55045395,45.15279285],[0.55155129,45.15296919],[0.55180858,45.15311176],[0.55200686,45.15329358],[0.5522587,45.15364773],[0.55249906,45.15423495],[0.55254012,45.15460519],[0.55280728,45.15507499],[0.55306419,45.15592381],[0.55317995,45.15671099],[0.55317805,45.15707398]]]]},"bbox":[0.50280733,45.10827414,0.56680829,45.15707398]},{"type":"Feature","id":"fr-quartier-24372-ffcb22e7bc17","properties":{"id":"fr-quartier-24372-ffcb22e7bc17","kind":"quartier","name":"Tamarelle","cityCode":"24372","cityName":"Saint-Astier","sourceType":"iris","sourceIds":["243720101"],"colorIndex":1,"center":[0.5100390373415877,45.15582938462594]},"geometry":{"type":"MultiPolygon","coordinates":[[[[0.46242858,45.15564494],[0.46233791,45.15598701],[0.46255911,45.15677941],[0.46246299,45.15687722],[0.46301895,45.15758804],[0.46306722,45.15820714],[0.4634793,45.1584138],[0.46354497,45.15853781],[0.46352758,45.15925722],[0.46369193,45.15936726],[0.46384689,45.15968429],[0.46439651,45.15983461],[0.46462658,45.16026415],[0.46471998,45.16073113],[0.46506555,45.16105699],[0.46522424,45.16151644],[0.46536741,45.16156023],[0.4654331,45.16171217],[0.46524933,45.16183322],[0.46526409,45.16195697],[0.46554983,45.16203013],[0.46570409,45.1623066],[0.46597015,45.16244867],[0.46620176,45.16250798],[0.46683375,45.16235927],[0.46736765,45.16254797],[0.46908464,45.16228513],[0.4696363,45.16182919],[0.47132276,45.16221156],[0.47457632,45.16226633],[0.47536719,45.16186983],[0.4762826,45.16088697],[0.47739333,45.16000491],[0.47777465,45.15990722],[0.47849863,45.15991909],[0.4795077,45.16024458],[0.48033546,45.15990383],[0.48061572,45.16187676],[0.48127128,45.16312395],[0.48151457,45.16408256],[0.4817499,45.16431399],[0.48281119,45.16481089],[0.4836396,45.16553046],[0.48544376,45.16669721],[0.48582704,45.16703737],[0.48605339,45.16735597],[0.48627192,45.16793295],[0.48788299,45.16948809],[0.49040432,45.17280957],[0.49387275,45.1735956],[0.49680427,45.1745983],[0.50098362,45.17470097],[0.50608681,45.17442325],[0.50805415,45.17471854],[0.51087613,45.17538509],[0.51149263,45.17555559],[0.51257774,45.17604282],[0.51496736,45.17612398],[0.51551895,45.17666597],[0.51660259,45.17572707],[0.5175218,45.17542051],[0.51839545,45.17502104],[0.51884426,45.174695],[0.51998632,45.17433121],[0.52133084,45.17411154],[0.52314462,45.17410857],[0.52505332,45.17374553],[0.52945151,45.17330517],[0.5319049,45.17326667],[0.5337113,45.17366064],[0.53422347,45.17365664],[0.5347585,45.17353874],[0.53655388,45.172855],[0.53850222,45.17245658],[0.53980007,45.17167443],[0.54018873,45.17201631],[0.54112149,45.17240982],[0.5424738,45.17273329],[0.54326135,45.17321456],[0.5450133,45.17354499],[0.54496571,45.17375835],[0.54612789,45.1747289],[0.54610873,45.1752807],[0.54629217,45.17565678],[0.54737506,45.176549],[0.5479943,45.17683377],[0.5503955,45.17534604],[0.55256789,45.17419378],[0.55327501,45.17383903],[0.55388695,45.17373804],[0.55415426,45.17362499],[0.55440788,45.17335939],[0.5553781,45.17316174],[0.55546492,45.1730114],[0.55567361,45.17298624],[0.5557967,45.17285111],[0.55877568,45.17139299],[0.55916544,45.17086731],[0.55970743,45.17041343],[0.55989907,45.1700789],[0.56210621,45.16823808],[0.56228717,45.16811861],[0.56227348,45.16793634],[0.56354523,45.16645791],[0.56369226,45.16618186],[0.55699792,45.16455001],[0.55588865,45.16408791],[0.55463522,45.16325419],[0.55263552,45.16111588],[0.55229589,45.15988779],[0.55194739,45.15918199],[0.55285724,45.15858397],[0.55318774,45.15862545],[0.55370727,45.15792698],[0.55370631,45.15757112],[0.55317805,45.15707398],[0.55317995,45.15671099],[0.55306419,45.15592381],[0.55280728,45.15507499],[0.55254012,45.15460519],[0.55249906,45.15423495],[0.5522587,45.15364773],[0.55200686,45.15329358],[0.55180858,45.15311176],[0.55155129,45.15296919],[0.55045395,45.15279285],[0.54974561,45.15274577],[0.54943122,45.15277309],[0.54912094,45.15285186],[0.54831498,45.15325935],[0.54761956,45.15352693],[0.54696742,45.15364952],[0.54669697,45.15363276],[0.54642361,45.15356639],[0.54619794,45.15345783],[0.54607127,45.1532983],[0.54599833,45.15310391],[0.54599394,45.15285609],[0.54630909,45.15179732],[0.54633219,45.15135821],[0.54625561,45.1512178],[0.54606246,45.15109374],[0.54586431,45.15102542],[0.54523239,45.15097818],[0.54443484,45.15107864],[0.54376285,45.15124762],[0.5429296,45.1515806],[0.54265272,45.15173936],[0.54192594,45.15234313],[0.54017233,45.15365575],[0.53781869,45.1550614],[0.53757349,45.15519381],[0.537079,45.15537838],[0.53682807,45.15543861],[0.53661323,45.15543116],[0.53569902,45.15485515],[0.53532809,45.15472083],[0.53412117,45.15443111],[0.53373728,45.15424426],[0.53313383,45.15369581],[0.53262233,45.15296833],[0.53244849,45.15260955],[0.53192378,45.15123045],[0.53106359,45.14851337],[0.53091582,45.14773807],[0.53094429,45.14746845],[0.53115199,45.14723342],[0.5315202,45.14618938],[0.53120115,45.14614988],[0.53094207,45.14639549],[0.53063502,45.14637247],[0.53055068,45.14643727],[0.53026383,45.14638948],[0.53006804,45.14658513],[0.52992056,45.14666745],[0.52895242,45.14688383],[0.52819836,45.14709504],[0.52656691,45.14722643],[0.52648425,45.14719577],[0.52644163,45.1472669],[0.52633993,45.14729257],[0.52621045,45.14725546],[0.52604372,45.14702475],[0.52344097,45.1445428],[0.52320385,45.14426368],[0.52285817,45.14373441],[0.52259905,45.14314761],[0.52244402,45.1423379],[0.52247528,45.1416044],[0.52263778,45.14092517],[0.5224213,45.14086991],[0.52179319,45.14051003],[0.52141138,45.14033669],[0.51980294,45.13972439],[0.51942083,45.1397303],[0.51888641,45.13984093],[0.51866249,45.13983865],[0.51677539,45.1393111],[0.51536696,45.13915451],[0.51498343,45.13899192],[0.51438068,45.13857851],[0.51387937,45.13808808],[0.51367447,45.13780155],[0.51439843,45.13732131],[0.51652771,45.13572019],[0.51634086,45.13562865],[0.51639686,45.13534252],[0.51619249,45.13512987],[0.51621441,45.13477993],[0.5160563,45.13467191],[0.51596547,45.13453926],[0.51614231,45.13434051],[0.51493249,45.13352711],[0.51367338,45.13276395],[0.5118543,45.13182974],[0.50280733,45.12788986],[0.50251995,45.12842574],[0.50198727,45.12875524],[0.50177181,45.12876392],[0.50053091,45.12922167],[0.50027182,45.12963657],[0.49991195,45.12982939],[0.49945213,45.130265],[0.49851055,45.13046009],[0.4983567,45.13091157],[0.49803649,45.13132689],[0.49793469,45.13209394],[0.49740555,45.13251358],[0.49705066,45.13256597],[0.49591335,45.13366291],[0.49541345,45.13368501],[0.49360937,45.13211032],[0.49330614,45.13172064],[0.49240419,45.13176883],[0.49145021,45.13201222],[0.49124648,45.13198602],[0.48974086,45.13252508],[0.48999021,45.13309374],[0.48936405,45.13300847],[0.48760347,45.13494261],[0.48575316,45.1360396],[0.48097483,45.1362723],[0.48024604,45.13527299],[0.47776615,45.13618717],[0.47681992,45.13665043],[0.47676771,45.13676366],[0.47579493,45.13705334],[0.47524307,45.13718229],[0.47307811,45.13740532],[0.47330052,45.13851032],[0.47369236,45.13933088],[0.47348234,45.13989367],[0.47324309,45.14014589],[0.47315005,45.14059872],[0.47323702,45.14213758],[0.47409907,45.14376425],[0.4752971,45.14466162],[0.47598543,45.14554293],[0.47612595,45.14589835],[0.47598189,45.1481851],[0.47646052,45.149313],[0.47652993,45.15059471],[0.47366223,45.15108744],[0.4724036,45.15138594],[0.46963151,45.1530825],[0.46814007,45.15357207],[0.46727774,45.15408581],[0.46677183,45.15448873],[0.46451108,45.1549833],[0.46242858,45.15564494]]]]},"bbox":[0.46233791,45.12788986,0.56369226,45.17683377]}]}