{"type":"FeatureCollection","metadata":{"sourceType":"iris","referenceFile":"terrasson-lavilledieu-quartiers.geojson","source":"IGN / INSEE - Contours IRIS WFS Géoplateforme","sourceUrl":"https://geoservices.ign.fr/contoursiris","license":"Licence Ouverte / Open Licence 2.0","sourceYear":"2026"},"features":[{"type":"Feature","id":"fr-quartier-24547-9fbe920808b5","properties":{"id":"fr-quartier-24547-9fbe920808b5","kind":"quartier","name":"Charpenet","cityCode":"24547","cityName":"Terrasson-Lavilledieu","sourceType":"iris","sourceIds":["245470102"],"colorIndex":0,"center":[1.2987740951085163,45.11688303619354]},"geometry":{"type":"MultiPolygon","coordinates":[[[[1.35213517,45.1413935],[1.35245699,45.14018965],[1.35226991,45.14001757],[1.35174852,45.13866887],[1.35194668,45.13730018],[1.35170805,45.13624475],[1.35172214,45.13602611],[1.3518974,45.1357351],[1.35157476,45.13515575],[1.35169692,45.13459468],[1.35200669,45.13414355],[1.35137095,45.1340423],[1.35141836,45.13381514],[1.35060178,45.1335473],[1.35058465,45.13343807],[1.34965687,45.13258409],[1.34941488,45.13220496],[1.34974679,45.13048702],[1.34947798,45.1296806],[1.35044652,45.12945357],[1.35037686,45.12918416],[1.34976062,45.12833839],[1.34942867,45.12661152],[1.34924523,45.12618913],[1.34888921,45.12588126],[1.34868284,45.12580435],[1.34852685,45.12587409],[1.34833573,45.12571185],[1.34947604,45.12479211],[1.35036988,45.12200717],[1.34865141,45.12114148],[1.34675757,45.12005701],[1.34640337,45.11994729],[1.34393028,45.11969715],[1.34380367,45.11954847],[1.34363019,45.11956481],[1.34315029,45.11880388],[1.3402514,45.11760259],[1.34002932,45.11719942],[1.34030002,45.11716472],[1.34017115,45.11499326],[1.33924419,45.11498396],[1.33913736,45.11464104],[1.33860498,45.11380906],[1.33841429,45.11376299],[1.3375849,45.11398028],[1.33729983,45.11338703],[1.3370329,45.11346681],[1.33650803,45.11225578],[1.33129966,45.10480022],[1.33102774,45.10462234],[1.33038737,45.1037941],[1.32952239,45.10248248],[1.32787398,45.10032514],[1.32553217,45.0977611],[1.3249426,45.09626085],[1.32475067,45.09596167],[1.32397116,45.09524298],[1.32294241,45.09338128],[1.3231387,45.09306812],[1.32306555,45.09287879],[1.32257226,45.09279302],[1.3222639,45.0922219],[1.32233239,45.09201579],[1.32187382,45.0918747],[1.32149148,45.09160867],[1.32070756,45.09061701],[1.32014545,45.09007178],[1.31907756,45.08947749],[1.31978234,45.08912428],[1.31962284,45.08876254],[1.31958511,45.08722554],[1.31887267,45.08677711],[1.31767508,45.08627091],[1.31766909,45.08592049],[1.31490229,45.08467098],[1.31457137,45.08443092],[1.31443434,45.0842109],[1.31445172,45.08376087],[1.31467109,45.08285098],[1.31441184,45.08251113],[1.31383361,45.08233667],[1.31221648,45.0821735],[1.31190675,45.08304329],[1.31178501,45.08400239],[1.31163187,45.08440084],[1.31069445,45.0847964],[1.31060976,45.08503288],[1.31007212,45.08507156],[1.31064655,45.08301519],[1.31063823,45.08249091],[1.3104996,45.08215649],[1.30999342,45.08149138],[1.30973477,45.08159553],[1.3067318,45.0787959],[1.30668569,45.07964717],[1.30623254,45.07962587],[1.30587859,45.07972856],[1.30493088,45.07945838],[1.30398664,45.07907387],[1.3035941,45.0792336],[1.30329254,45.07781867],[1.30196437,45.07777232],[1.30131797,45.07884139],[1.29983094,45.08025697],[1.29954615,45.08038411],[1.29781908,45.08070358],[1.29675646,45.08057567],[1.29650747,45.0804872],[1.29584836,45.08004934],[1.29426881,45.07861573],[1.29382783,45.07832078],[1.29325858,45.07802207],[1.29238361,45.07782855],[1.29053302,45.07757412],[1.28913122,45.07764987],[1.28759723,45.07735162],[1.28646635,45.07750445],[1.2858835,45.07769272],[1.28506096,45.07778003],[1.28406673,45.07799438],[1.28333326,45.07799569],[1.28246525,45.07786614],[1.28166764,45.07801055],[1.28151584,45.07873139],[1.28208559,45.07983982],[1.28276066,45.08058242],[1.28298834,45.0807021],[1.28356601,45.08080827],[1.28404772,45.08085171],[1.28446417,45.08078517],[1.28480101,45.08095157],[1.28522831,45.08098696],[1.28668765,45.08131832],[1.28745588,45.08201008],[1.28768155,45.08232066],[1.2874634,45.08247041],[1.28755869,45.08288705],[1.28813432,45.08264553],[1.28891051,45.08353554],[1.28986266,45.08357717],[1.28993806,45.08373053],[1.28989706,45.08390732],[1.2876652,45.08401715],[1.28633578,45.0847127],[1.28682443,45.08523626],[1.28688364,45.08546142],[1.2860202,45.08588404],[1.2825707,45.085196],[1.28168244,45.08514268],[1.28147341,45.08528446],[1.28098814,45.0853139],[1.28091716,45.08576221],[1.28059183,45.08571666],[1.28061233,45.08633209],[1.2795198,45.08630623],[1.27884314,45.08805197],[1.27817509,45.08910347],[1.27893509,45.08915393],[1.28020822,45.08888989],[1.28057414,45.08893877],[1.28183388,45.08968949],[1.2828493,45.09082099],[1.28366997,45.09121549],[1.2848628,45.09153916],[1.28473556,45.09195689],[1.28515193,45.09218575],[1.28501682,45.09261146],[1.28531544,45.09361212],[1.28466453,45.09356789],[1.28322685,45.09314228],[1.28213541,45.09299397],[1.28184373,45.0934659],[1.281414,45.09383753],[1.28012813,45.09463635],[1.27998488,45.09491153],[1.2793727,45.09559195],[1.27866104,45.09685983],[1.27747549,45.09794837],[1.27689417,45.09812041],[1.27658125,45.09841277],[1.27563049,45.09889521],[1.2742413,45.10015078],[1.27180569,45.10098844],[1.27029651,45.10118568],[1.26981243,45.10141864],[1.26871182,45.09996056],[1.26808782,45.09941501],[1.26743707,45.0991176],[1.2671699,45.09924493],[1.26680984,45.09863592],[1.26550517,45.09941538],[1.26419204,45.09915537],[1.26399732,45.09928383],[1.26380377,45.09957892],[1.26329372,45.09970607],[1.26307792,45.10002152],[1.26275813,45.10020477],[1.2627542,45.10037222],[1.26299411,45.10063174],[1.26297997,45.10112776],[1.26309445,45.10141323],[1.26299464,45.10204751],[1.26272048,45.10276734],[1.26229752,45.10332363],[1.26231368,45.1037859],[1.26216043,45.1037655],[1.26138554,45.10443338],[1.26081553,45.10456499],[1.26070078,45.10473792],[1.26071907,45.10509034],[1.26128291,45.10589348],[1.26078709,45.1138193],[1.2607007,45.11434752],[1.26041967,45.11495826],[1.25973111,45.11627953],[1.25944482,45.1166092],[1.25867588,45.11642607],[1.25835494,45.11660208],[1.25790987,45.11659783],[1.25715709,45.11614116],[1.25696636,45.11613908],[1.25683472,45.11636308],[1.25727911,45.11704189],[1.25758068,45.11785446],[1.25780809,45.11925128],[1.25700178,45.1191234],[1.25615101,45.1191155],[1.25458208,45.11937555],[1.25428523,45.11930876],[1.25386329,45.11941833],[1.25433416,45.1198598],[1.25512586,45.12135282],[1.25681183,45.12264456],[1.25805168,45.12384375],[1.25886315,45.12540099],[1.25826704,45.12738386],[1.25751813,45.13157268],[1.25731869,45.13319429],[1.25775529,45.13392341],[1.25797012,45.13450136],[1.25952717,45.14023293],[1.26049843,45.14022287],[1.26225656,45.14068977],[1.26139797,45.14214982],[1.26059856,45.14321991],[1.26041313,45.14341245],[1.25945809,45.14375781],[1.25921323,45.14401967],[1.25916462,45.14439538],[1.25935751,45.146006],[1.25926599,45.14698266],[1.25946354,45.14758646],[1.25943465,45.14802371],[1.25967454,45.14824901],[1.25896691,45.1488612],[1.25728248,45.14985982],[1.25680277,45.15026391],[1.25672528,45.1505446],[1.25687456,45.15073697],[1.25696089,45.1511517],[1.25686558,45.15233004],[1.25642535,45.15248797],[1.25490251,45.15238311],[1.2537285,45.15276462],[1.25276499,45.15296749],[1.25220268,45.15324328],[1.25188614,45.15359678],[1.25249983,45.15407922],[1.25237608,45.155675],[1.25284458,45.15693421],[1.25357168,45.15786244],[1.25429411,45.15849248],[1.25444805,45.15873986],[1.25528879,45.15863953],[1.25802997,45.1578889],[1.26037845,45.15846411],[1.26094882,45.15854325],[1.2611506,45.15778626],[1.26143475,45.15740882],[1.26082155,45.15625277],[1.26087176,45.15590771],[1.26150425,45.15513492],[1.26247464,45.15512031],[1.26431301,45.15551908],[1.26520484,45.15545189],[1.27131546,45.15415166],[1.27118275,45.15358671],[1.27142752,45.15229901],[1.27214575,45.15059985],[1.27269473,45.1508335],[1.27353376,45.15066006],[1.27484252,45.15060735],[1.27560742,45.15048498],[1.27651794,45.15055129],[1.27772087,45.15095893],[1.27862988,45.15140526],[1.28078752,45.14899784],[1.28201302,45.14821606],[1.284184,45.14619425],[1.28670923,45.14448406],[1.28792963,45.14382103],[1.29060171,45.14154651],[1.2932817,45.1396305],[1.29386975,45.1389172],[1.29330945,45.1387222],[1.29231977,45.13817029],[1.29178934,45.13795593],[1.2906306,45.13793998],[1.29045753,45.1376077],[1.29039181,45.13759318],[1.29037554,45.1375425],[1.28987218,45.1372754],[1.28789267,45.13576622],[1.28753419,45.13554727],[1.28736564,45.13548344],[1.28550692,45.13526666],[1.28514935,45.13526747],[1.28543182,45.13402355],[1.27481095,45.13279435],[1.27337863,45.13257675],[1.27341752,45.1323477],[1.27338982,45.13188525],[1.2730243,45.13132031],[1.27273878,45.13113126],[1.27255101,45.13094913],[1.27249335,45.13079783],[1.27216254,45.13063329],[1.27357625,45.13013373],[1.27656065,45.12928107],[1.2787824,45.1287741],[1.27939748,45.12867282],[1.28087705,45.12855153],[1.2819301,45.12852273],[1.28292606,45.12840568],[1.2872578,45.12750232],[1.28871621,45.12728064],[1.28929552,45.12722468],[1.28987962,45.12722013],[1.2903243,45.12723956],[1.29099847,45.12732644],[1.29107826,45.12696382],[1.29297149,45.12341827],[1.29675019,45.12386331],[1.29772523,45.1247635],[1.29896115,45.12507686],[1.29863321,45.12473323],[1.29874009,45.12477449],[1.29921497,45.12480425],[1.29956707,45.1249393],[1.30001751,45.12502002],[1.30029925,45.12491714],[1.30057985,45.1248935],[1.30093968,45.12489988],[1.3011441,45.12499666],[1.30132002,45.12498493],[1.30193737,45.12488986],[1.30264403,45.12470248],[1.30353,45.12405582],[1.30378435,45.1239327],[1.30400965,45.12388659],[1.30565523,45.12210138],[1.30657911,45.1231403],[1.30674508,45.12362465],[1.30930204,45.12623379],[1.30893143,45.12767635],[1.30834938,45.12849609],[1.30874241,45.12862543],[1.30913581,45.12882683],[1.30922057,45.12888485],[1.30924836,45.12897533],[1.31179913,45.12927425],[1.31202358,45.12938302],[1.31222543,45.1295662],[1.31132909,45.12979849],[1.31044658,45.12995174],[1.30964994,45.13000001],[1.30900367,45.12999832],[1.30765002,45.12991205],[1.30803032,45.13126063],[1.30855416,45.13274378],[1.3094282,45.13463841],[1.31000251,45.13571704],[1.31109903,45.13720074],[1.31318791,45.13953522],[1.31408829,45.14035487],[1.31510814,45.14109618],[1.31654659,45.14188251],[1.31786122,45.14251386],[1.318538,45.142733],[1.31920271,45.14284569],[1.32204464,45.14309111],[1.3230453,45.14303501],[1.32347532,45.14291178],[1.32422503,45.14243942],[1.32467885,45.14198873],[1.32571364,45.14079294],[1.32640491,45.13980634],[1.32737532,45.13901575],[1.3283186,45.13849313],[1.32991795,45.13790197],[1.33114842,45.13768893],[1.33215065,45.13761926],[1.33475486,45.13767888],[1.33762979,45.13796312],[1.34102603,45.13881883],[1.34242124,45.13905661],[1.34355346,45.13949582],[1.34522169,45.14048422],[1.34656691,45.14112378],[1.34726308,45.14163664],[1.34792387,45.14192651],[1.34833121,45.1420082],[1.34879657,45.14206462],[1.35051711,45.14201982],[1.35174961,45.14173814],[1.35213517,45.1413935]]]]},"bbox":[1.25188614,45.07735162,1.35245699,45.15873986]},{"type":"Feature","id":"fr-quartier-24547-27e36a0dd2f1","properties":{"id":"fr-quartier-24547-27e36a0dd2f1","kind":"quartier","name":"Urbain","cityCode":"24547","cityName":"Terrasson-Lavilledieu","sourceType":"iris","sourceIds":["245470101"],"colorIndex":1,"center":[1.295330273136553,45.1315221360919]},"geometry":{"type":"MultiPolygon","coordinates":[[[[1.29386975,45.1389172],[1.29610538,45.1397151],[1.29640401,45.13989528],[1.29733214,45.14096587],[1.29876067,45.14177751],[1.29920006,45.14151492],[1.29984959,45.14074489],[1.29999738,45.13986094],[1.30024797,45.1391947],[1.30026549,45.13824211],[1.30049291,45.13787723],[1.3009829,45.137456],[1.30428436,45.13835551],[1.30635486,45.13851756],[1.30657512,45.13918555],[1.3066618,45.13918057],[1.3067895,45.13840978],[1.30728372,45.13738518],[1.30839794,45.13584492],[1.3094282,45.13463841],[1.30855416,45.13274378],[1.30803032,45.13126063],[1.30765002,45.12991205],[1.30900367,45.12999832],[1.30964994,45.13000001],[1.31044658,45.12995174],[1.31132909,45.12979849],[1.31222543,45.1295662],[1.31202358,45.12938302],[1.31179913,45.12927425],[1.30924836,45.12897533],[1.30922057,45.12888485],[1.30913581,45.12882683],[1.30874241,45.12862543],[1.30834938,45.12849609],[1.30893143,45.12767635],[1.30930204,45.12623379],[1.30674508,45.12362465],[1.30657911,45.1231403],[1.30565523,45.12210138],[1.30400965,45.12388659],[1.30378435,45.1239327],[1.30353,45.12405582],[1.30264403,45.12470248],[1.30193737,45.12488986],[1.30132002,45.12498493],[1.3011441,45.12499666],[1.30093968,45.12489988],[1.30057985,45.1248935],[1.30029925,45.12491714],[1.30001751,45.12502002],[1.29956707,45.1249393],[1.29921497,45.12480425],[1.29874009,45.12477449],[1.29863321,45.12473323],[1.29896115,45.12507686],[1.29772523,45.1247635],[1.29675019,45.12386331],[1.29297149,45.12341827],[1.29107826,45.12696382],[1.29099847,45.12732644],[1.2903243,45.12723956],[1.28987962,45.12722013],[1.28929552,45.12722468],[1.28871621,45.12728064],[1.2872578,45.12750232],[1.28292606,45.12840568],[1.2819301,45.12852273],[1.28087705,45.12855153],[1.27939748,45.12867282],[1.2787824,45.1287741],[1.27656065,45.12928107],[1.27357625,45.13013373],[1.27216254,45.13063329],[1.27249335,45.13079783],[1.27255101,45.13094913],[1.27273878,45.13113126],[1.2730243,45.13132031],[1.27338982,45.13188525],[1.27341752,45.1323477],[1.27337863,45.13257675],[1.27481095,45.13279435],[1.28543182,45.13402355],[1.28514935,45.13526747],[1.28550692,45.13526666],[1.28736564,45.13548344],[1.28753419,45.13554727],[1.28789267,45.13576622],[1.28987218,45.1372754],[1.29037554,45.1375425],[1.29039181,45.13759318],[1.29045753,45.1376077],[1.2906306,45.13793998],[1.29178934,45.13795593],[1.29231977,45.13817029],[1.29330945,45.1387222],[1.29386975,45.1389172]]]]},"bbox":[1.27216254,45.12210138,1.31222543,45.14177751]}]}