{"type":"FeatureCollection","metadata":{"sourceType":"iris","referenceFile":"seloncourt-quartiers.geojson","source":"IGN / INSEE - Contours IRIS WFS Géoplateforme","sourceUrl":"https://geoservices.ign.fr/contoursiris","license":"Licence Ouverte / Open Licence 2.0","sourceYear":"2026"},"features":[{"type":"Feature","id":"fr-quartier-25539-f7108af3fde4","properties":{"id":"fr-quartier-25539-f7108af3fde4","kind":"quartier","name":"Berne","cityCode":"25539","cityName":"Seloncourt","sourceType":"iris","sourceIds":["255390103"],"colorIndex":0,"center":[6.864284160856921,47.45020849418593]},"geometry":{"type":"MultiPolygon","coordinates":[[[[6.87660802,47.45338123],[6.87619219,47.45329054],[6.87419783,47.45219075],[6.87382717,47.45048438],[6.87469398,47.44812393],[6.87500246,47.4470078],[6.87575397,47.4455885],[6.8768588,47.44435209],[6.87685316,47.44388902],[6.87541011,47.44232565],[6.87480865,47.44187162],[6.87203255,47.43983889],[6.86919975,47.43813966],[6.86620501,47.43945597],[6.86317354,47.43890329],[6.86073057,47.43965767],[6.86043217,47.43981177],[6.85965677,47.43983571],[6.85880673,47.43980083],[6.85856883,47.43858301],[6.85806863,47.43848064],[6.85813136,47.43901931],[6.85793734,47.4392763],[6.85722826,47.44145563],[6.85736725,47.44159613],[6.85674105,47.4426218],[6.85526652,47.44559256],[6.85391849,47.44543265],[6.85363007,47.44657509],[6.85320597,47.44727229],[6.85286786,47.44862906],[6.85230285,47.44901188],[6.85224043,47.44923386],[6.85270217,47.44952048],[6.85289742,47.45044231],[6.85295849,47.45127214],[6.85291559,47.45139613],[6.85264567,47.45146726],[6.85298003,47.45308475],[6.85244469,47.45299433],[6.85227225,47.4532569],[6.85273641,47.45435187],[6.85312915,47.45513737],[6.85416977,47.45674497],[6.85497371,47.45818377],[6.85509016,47.45826914],[6.85527235,47.45819731],[6.85569696,47.45815169],[6.85605663,47.45825603],[6.8561809,47.45833933],[6.8567002,47.45907286],[6.8569201,47.45924763],[6.85682007,47.45929781],[6.85632664,47.46002976],[6.85586216,47.4603705],[6.85518979,47.46134901],[6.85472185,47.46191879],[6.85650284,47.4620319],[6.85664237,47.46206874],[6.8569507,47.46164484],[6.85703464,47.46159249],[6.85798427,47.46162139],[6.85822654,47.46219827],[6.85835244,47.46230404],[6.85852011,47.46228857],[6.85905254,47.46198701],[6.85952808,47.4616522],[6.85970281,47.46160584],[6.86007531,47.46166649],[6.86041756,47.46182367],[6.86065886,47.46201844],[6.86123275,47.46262306],[6.86138233,47.46272535],[6.86148516,47.46271382],[6.86157362,47.46277938],[6.86170594,47.46277139],[6.86294557,47.46212279],[6.86356094,47.46188425],[6.86418621,47.46170937],[6.86511605,47.46150094],[6.86696324,47.4612611],[6.86806816,47.46106665],[6.86834639,47.46099972],[6.86897033,47.46071491],[6.86918072,47.46066555],[6.86987376,47.46063799],[6.86933577,47.46056756],[6.86894978,47.4605777],[6.8688025,47.46061774],[6.86856023,47.46075919],[6.86848654,47.46075082],[6.86856038,47.4605591],[6.86899874,47.45989472],[6.86923429,47.45986255],[6.86996267,47.45986446],[6.8703806,47.45904663],[6.87057598,47.4584408],[6.87201527,47.45669763],[6.87189704,47.456588],[6.87230775,47.45646077],[6.87303431,47.45610763],[6.87340213,47.45603049],[6.87352434,47.4559381],[6.87400545,47.45573732],[6.87503214,47.45565716],[6.87546232,47.45557884],[6.87577641,47.45547554],[6.87640496,47.45509049],[6.87695722,47.45453313],[6.87708267,47.45422882],[6.87654253,47.45396293],[6.8764158,47.45386441],[6.87638828,47.45372292],[6.87660802,47.45338123]]]]},"bbox":[6.85224043,47.43813966,6.87708267,47.46277938]},{"type":"Feature","id":"fr-quartier-25539-27d51c959db6","properties":{"id":"fr-quartier-25539-27d51c959db6","kind":"quartier","name":"Le Criolet","cityCode":"25539","cityName":"Seloncourt","sourceType":"iris","sourceIds":["255390101"],"colorIndex":1,"center":[6.849577707203586,47.46091448101321]},"geometry":{"type":"MultiPolygon","coordinates":[[[[6.85227225,47.4532569],[6.85218247,47.45339416],[6.84915379,47.45274097],[6.84911733,47.45293594],[6.84771458,47.45266421],[6.84730986,47.45381768],[6.84699501,47.45413271],[6.84679715,47.45465207],[6.84647616,47.45465998],[6.84627498,47.45603923],[6.84533598,47.4589858],[6.8444902,47.45927331],[6.84417621,47.45987851],[6.84345262,47.4601097],[6.84316853,47.46007673],[6.84251814,47.46053171],[6.84203007,47.46074881],[6.84230144,47.46258469],[6.8450351,47.46262145],[6.84430521,47.46590987],[6.84545235,47.46574579],[6.84652397,47.46785893],[6.84842458,47.47037184],[6.84914085,47.46992637],[6.84978045,47.46941313],[6.84992686,47.46924967],[6.85079765,47.46792306],[6.85203123,47.46563632],[6.85233299,47.46536046],[6.85353572,47.46452934],[6.85410399,47.46407882],[6.8557074,47.46314698],[6.85612232,47.46285564],[6.85627285,47.46269474],[6.85664237,47.46206874],[6.85650284,47.4620319],[6.85472185,47.46191879],[6.85518979,47.46134901],[6.85586216,47.4603705],[6.85632664,47.46002976],[6.85682007,47.45929781],[6.8569201,47.45924763],[6.8567002,47.45907286],[6.8561809,47.45833933],[6.85605663,47.45825603],[6.85569696,47.45815169],[6.85527235,47.45819731],[6.85509016,47.45826914],[6.85497371,47.45818377],[6.85416977,47.45674497],[6.85312915,47.45513737],[6.85273641,47.45435187],[6.85227225,47.4532569]]]]},"bbox":[6.84203007,47.45266421,6.8569201,47.47037184]},{"type":"Feature","id":"fr-quartier-25539-4fce7894f73f","properties":{"id":"fr-quartier-25539-4fce7894f73f","kind":"quartier","name":"Rue de Dasle","cityCode":"25539","cityName":"Seloncourt","sourceType":"iris","sourceIds":["255390102"],"colorIndex":2,"center":[6.86969676676878,47.46367873244351]},"geometry":{"type":"MultiPolygon","coordinates":[[[[6.88007287,47.46830961],[6.88037923,47.46797043],[6.88098396,47.46652267],[6.88226163,47.4641656],[6.88207169,47.46413048],[6.88226771,47.4633885],[6.88223561,47.46278122],[6.88200217,47.46163359],[6.88184035,47.46130822],[6.8825533,47.45880776],[6.88362663,47.45907656],[6.88384527,47.45822567],[6.88481715,47.45621854],[6.88415481,47.45611899],[6.88422892,47.45563884],[6.88469263,47.45461303],[6.88534617,47.45349346],[6.88806802,47.45101324],[6.88646364,47.45118763],[6.8849606,47.45122072],[6.88296584,47.45106922],[6.88119354,47.45065069],[6.88002667,47.45116009],[6.87764087,47.45252485],[6.87703245,47.45348064],[6.87660802,47.45338123],[6.87638828,47.45372292],[6.8764158,47.45386441],[6.87654253,47.45396293],[6.87708267,47.45422882],[6.87695722,47.45453313],[6.87640496,47.45509049],[6.87577641,47.45547554],[6.87546232,47.45557884],[6.87503214,47.45565716],[6.87400545,47.45573732],[6.87352434,47.4559381],[6.87340213,47.45603049],[6.87303431,47.45610763],[6.87230775,47.45646077],[6.87189704,47.456588],[6.87201527,47.45669763],[6.87057598,47.4584408],[6.8703806,47.45904663],[6.86996267,47.45986446],[6.86923429,47.45986255],[6.86899874,47.45989472],[6.86856038,47.4605591],[6.86848654,47.46075082],[6.86856023,47.46075919],[6.8688025,47.46061774],[6.86894978,47.4605777],[6.86933577,47.46056756],[6.86987376,47.46063799],[6.86918072,47.46066555],[6.86897033,47.46071491],[6.86834639,47.46099972],[6.86806816,47.46106665],[6.86696324,47.4612611],[6.86511605,47.46150094],[6.86418621,47.46170937],[6.86356094,47.46188425],[6.86294557,47.46212279],[6.86170594,47.46277139],[6.86157362,47.46277938],[6.86148516,47.46271382],[6.86138233,47.46272535],[6.86123275,47.46262306],[6.86065886,47.46201844],[6.86041756,47.46182367],[6.86007531,47.46166649],[6.85970281,47.46160584],[6.85952808,47.4616522],[6.85905254,47.46198701],[6.85852011,47.46228857],[6.85835244,47.46230404],[6.85822654,47.46219827],[6.85798427,47.46162139],[6.85703464,47.46159249],[6.8569507,47.46164484],[6.85664237,47.46206874],[6.85627285,47.46269474],[6.85612232,47.46285564],[6.8557074,47.46314698],[6.85410399,47.46407882],[6.85353572,47.46452934],[6.85233299,47.46536046],[6.85203123,47.46563632],[6.85079765,47.46792306],[6.84992686,47.46924967],[6.84978045,47.46941313],[6.84914085,47.46992637],[6.84842458,47.47037184],[6.84884502,47.47089508],[6.84957159,47.47147938],[6.85206195,47.4698288],[6.8527849,47.47014103],[6.85322657,47.47033099],[6.85402242,47.47089855],[6.85413438,47.4707921],[6.85503886,47.47115148],[6.85471493,47.47150739],[6.85652271,47.47200626],[6.85784457,47.47212557],[6.85785069,47.47235789],[6.85923236,47.47210839],[6.85977903,47.47342141],[6.86024264,47.47326994],[6.86091196,47.4732982],[6.86292503,47.47273571],[6.86287404,47.47265539],[6.8702538,47.47013631],[6.87314224,47.46955082],[6.87429326,47.46920157],[6.87585308,47.46922984],[6.8766939,47.46933251],[6.87746521,47.46977817],[6.87849376,47.47012332],[6.87905867,47.47006844],[6.8795662,47.46944226],[6.88007287,47.46830961]]]]},"bbox":[6.84842458,47.45065069,6.88806802,47.47342141]}]}