{"type":"FeatureCollection","metadata":{"sourceType":"iris","referenceFile":"loriol-sur-drome-quartiers.geojson","source":"IGN / INSEE - Contours IRIS WFS Géoplateforme","sourceUrl":"https://geoservices.ign.fr/contoursiris","license":"Licence Ouverte / Open Licence 2.0","sourceYear":"2026"},"features":[{"type":"Feature","id":"fr-quartier-26166-afb7113ccd90","properties":{"id":"fr-quartier-26166-afb7113ccd90","kind":"quartier","name":"Centre Est","cityCode":"26166","cityName":"Loriol-sur-Drôme","sourceType":"iris","sourceIds":["261660101"],"colorIndex":0,"center":[4.835193169667815,44.747046580871256]},"geometry":{"type":"MultiPolygon","coordinates":[[[[4.83988034,44.76574293],[4.84257001,44.76519213],[4.84369247,44.76472769],[4.84456161,44.76424854],[4.84603992,44.76322701],[4.84767131,44.7618652],[4.8488474,44.76130525],[4.85051858,44.76077214],[4.85233653,44.76055175],[4.85340844,44.76066801],[4.85657116,44.76128688],[4.85810243,44.76138009],[4.85986146,44.76136589],[4.86117392,44.76118715],[4.86269262,44.76086265],[4.86898607,44.75918791],[4.8691776,44.75772487],[4.86940688,44.75705549],[4.8685249,44.7574432],[4.86787619,44.75754779],[4.86685806,44.75745148],[4.86179101,44.75768173],[4.8573476,44.75804358],[4.85574502,44.75846757],[4.85325841,44.75899189],[4.85146898,44.75953962],[4.85080664,44.75953898],[4.85038894,44.75840675],[4.85057231,44.75814073],[4.85067029,44.75769962],[4.84979755,44.75702707],[4.84879067,44.75507977],[4.84864425,44.75466256],[4.84869376,44.75416913],[4.84832872,44.75344488],[4.84848438,44.75302803],[4.8491174,44.7521007],[4.84915822,44.75168937],[4.84954193,44.75113633],[4.84951802,44.75090889],[4.85017083,44.75020006],[4.85026615,44.74952486],[4.85082035,44.74877715],[4.85070737,44.74795503],[4.85092312,44.74752187],[4.85159649,44.74663348],[4.85146335,44.74535242],[4.85133742,44.7449817],[4.85097822,44.74443386],[4.85104318,44.74387354],[4.85048206,44.74283377],[4.85075702,44.74147385],[4.85141345,44.74018771],[4.85092901,44.73951949],[4.85113876,44.73863615],[4.85111437,44.73762615],[4.85098926,44.73704919],[4.85031383,44.73556646],[4.84892994,44.73359216],[4.84877341,44.731981],[4.84808697,44.73200597],[4.84735511,44.7322253],[4.84677339,44.73278523],[4.84668227,44.73339642],[4.84678883,44.7341412],[4.8456389,44.73440351],[4.84491142,44.73468039],[4.84445698,44.73469246],[4.84383794,44.7345776],[4.84338888,44.73436804],[4.84157352,44.73390924],[4.84053324,44.73397066],[4.83974061,44.73445842],[4.83893741,44.7345456],[4.83837966,44.73421805],[4.83780424,44.73420059],[4.83664439,44.73392805],[4.83590835,44.73363407],[4.83518369,44.73310756],[4.83404096,44.73293287],[4.83319449,44.73258306],[4.83149272,44.73231044],[4.82865186,44.73228443],[4.82567222,44.73199139],[4.82383008,44.73202444],[4.82268536,44.73182535],[4.82230621,44.73182079],[4.8220908,44.73226919],[4.82194823,44.73278215],[4.82193518,44.73315968],[4.82152595,44.73363109],[4.8211715,44.73423398],[4.8210224,44.73438952],[4.82086947,44.73481709],[4.82072566,44.7350581],[4.82040276,44.73546504],[4.82013396,44.73590442],[4.81955729,44.73643441],[4.81782951,44.73778297],[4.81770485,44.73842169],[4.81771641,44.73862322],[4.81654547,44.73878922],[4.81632163,44.73893968],[4.81614415,44.73954775],[4.81604192,44.73970792],[4.81592058,44.73978465],[4.81569051,44.73985957],[4.81436655,44.74010099],[4.81407876,44.74018856],[4.81221471,44.74131502],[4.81300407,44.74381371],[4.8134101,44.74449327],[4.81369931,44.74488027],[4.81260593,44.74534033],[4.8118181,44.74543967],[4.80845187,44.74642583],[4.80945804,44.74777102],[4.80950302,44.74795129],[4.81032731,44.74870869],[4.81066689,44.74909037],[4.8121194,44.74996896],[4.81443549,44.75156464],[4.81498829,44.75185546],[4.81708166,44.75269378],[4.81773612,44.75335304],[4.81951879,44.75278796],[4.82072858,44.75244659],[4.8217182,44.75283917],[4.82299454,44.75291364],[4.82319942,44.75295709],[4.82719694,44.75521645],[4.82745568,44.75540039],[4.83235599,44.75820302],[4.83696719,44.76073016],[4.83806662,44.76145758],[4.83821969,44.7615388],[4.83837993,44.76152983],[4.8385409,44.7615821],[4.83865317,44.761691],[4.83868778,44.76182191],[4.83864945,44.76192521],[4.83854688,44.76199715],[4.83856913,44.76221382],[4.83915076,44.76364955],[4.83988034,44.76574293]]]]},"bbox":[4.80845187,44.73182079,4.86940688,44.76574293]},{"type":"Feature","id":"fr-quartier-26166-bdeef3b930a3","properties":{"id":"fr-quartier-26166-bdeef3b930a3","kind":"quartier","name":"la Bourliette","cityCode":"26166","cityName":"Loriol-sur-Drôme","sourceType":"iris","sourceIds":["261660102"],"colorIndex":1,"center":[4.793791686656143,44.751081770086266]},"geometry":{"type":"MultiPolygon","coordinates":[[[[4.76417831,44.72916795],[4.7639362,44.73220476],[4.76360693,44.73657304],[4.76347495,44.73723973],[4.76266696,44.73927607],[4.76189373,44.74206108],[4.7612004,44.74348503],[4.75984513,44.74572456],[4.75875923,44.74821645],[4.75954509,44.74877761],[4.76049409,44.74962434],[4.76148327,44.75090628],[4.761691,44.75100203],[4.76194039,44.75097555],[4.76317358,44.75165384],[4.76351655,44.75175015],[4.76415257,44.75220469],[4.76593294,44.75400711],[4.7684287,44.75588813],[4.76929805,44.75821293],[4.76934834,44.75961066],[4.76928002,44.75997016],[4.76906618,44.76028426],[4.7681219,44.76084415],[4.76617439,44.76310673],[4.76604788,44.76350588],[4.76602237,44.76410244],[4.76312536,44.76495455],[4.76244597,44.76695283],[4.76207157,44.76904352],[4.76090254,44.77131433],[4.76320902,44.77157484],[4.76561313,44.77152126],[4.76809151,44.7717393],[4.77042052,44.7716697],[4.77197492,44.77181146],[4.77329424,44.77207583],[4.77435429,44.77193549],[4.7759726,44.77197891],[4.77936036,44.77240727],[4.78033253,44.77224667],[4.78109435,44.77227045],[4.78372127,44.7712295],[4.78583521,44.77020037],[4.78656004,44.77029405],[4.78715683,44.76985937],[4.78802732,44.769803],[4.78799454,44.76964684],[4.79216551,44.76898691],[4.79190598,44.76881641],[4.79330466,44.76819852],[4.79475305,44.76795084],[4.79593144,44.76740313],[4.7972246,44.76748123],[4.79865807,44.76704463],[4.8000213,44.76634979],[4.80036817,44.76632614],[4.80214181,44.76680252],[4.80267468,44.76646876],[4.80430728,44.76625217],[4.80499454,44.76659399],[4.80625474,44.76643298],[4.80692675,44.76641752],[4.80740546,44.76644483],[4.80792405,44.76657236],[4.80886476,44.76693253],[4.81040463,44.76803757],[4.81062308,44.76834379],[4.81079383,44.76897499],[4.81144167,44.76907156],[4.8128003,44.76980581],[4.81394992,44.77009499],[4.81883609,44.77056604],[4.8202968,44.7701143],[4.82185882,44.76978605],[4.82244475,44.76972688],[4.82368145,44.76911308],[4.82430381,44.76916407],[4.82548381,44.76929684],[4.82718206,44.76896086],[4.82798617,44.76853605],[4.82890098,44.76770596],[4.8306443,44.7673971],[4.83225583,44.76673018],[4.83662777,44.76589684],[4.83742127,44.76600166],[4.83794682,44.76599205],[4.83902105,44.76590668],[4.83988034,44.76574293],[4.83915076,44.76364955],[4.83856913,44.76221382],[4.83854688,44.76199715],[4.83864945,44.76192521],[4.83868778,44.76182191],[4.83865317,44.761691],[4.8385409,44.7615821],[4.83837993,44.76152983],[4.83821969,44.7615388],[4.83806662,44.76145758],[4.83696719,44.76073016],[4.83235599,44.75820302],[4.82745568,44.75540039],[4.82719694,44.75521645],[4.82319942,44.75295709],[4.82299454,44.75291364],[4.8217182,44.75283917],[4.82072858,44.75244659],[4.81951879,44.75278796],[4.81773612,44.75335304],[4.81708166,44.75269378],[4.81498829,44.75185546],[4.81443549,44.75156464],[4.8121194,44.74996896],[4.81066689,44.74909037],[4.81032731,44.74870869],[4.80950302,44.74795129],[4.80945804,44.74777102],[4.80845187,44.74642583],[4.8118181,44.74543967],[4.81260593,44.74534033],[4.81369931,44.74488027],[4.8134101,44.74449327],[4.81300407,44.74381371],[4.81221471,44.74131502],[4.81407876,44.74018856],[4.81436655,44.74010099],[4.81569051,44.73985957],[4.81592058,44.73978465],[4.81604192,44.73970792],[4.81614415,44.73954775],[4.81632163,44.73893968],[4.81654547,44.73878922],[4.81771641,44.73862322],[4.81770485,44.73842169],[4.81782951,44.73778297],[4.81955729,44.73643441],[4.82013396,44.73590442],[4.82040276,44.73546504],[4.82072566,44.7350581],[4.82086947,44.73481709],[4.8210224,44.73438952],[4.8211715,44.73423398],[4.82152595,44.73363109],[4.82193518,44.73315968],[4.82194823,44.73278215],[4.8220908,44.73226919],[4.82230621,44.73182079],[4.81757347,44.73185083],[4.81437733,44.7323634],[4.81110856,44.73266185],[4.81101615,44.73198886],[4.81011068,44.73007472],[4.80892586,44.72850734],[4.80813804,44.72655524],[4.80741376,44.72654095],[4.80404543,44.72703443],[4.80130896,44.72773456],[4.79946361,44.72833459],[4.7960631,44.72826012],[4.79291061,44.72796089],[4.7924753,44.72797695],[4.789717,44.72847272],[4.78706568,44.72871905],[4.78183448,44.72951476],[4.78189034,44.73076019],[4.78025376,44.73126018],[4.77941238,44.73141959],[4.77879763,44.73143487],[4.7774628,44.7324901],[4.77681528,44.73318849],[4.77645455,44.73372739],[4.77614039,44.7345411],[4.77592856,44.73579533],[4.77514891,44.73707307],[4.77295257,44.7387418],[4.7728595,44.73887566],[4.77289264,44.73920563],[4.77140969,44.73949861],[4.77129828,44.73941124],[4.77182279,44.73869414],[4.77199489,44.73822131],[4.77204153,44.73765593],[4.77173783,44.73655765],[4.77144879,44.73628581],[4.77084819,44.73494552],[4.77106914,44.73389738],[4.7703254,44.73415061],[4.77018161,44.73311371],[4.76984439,44.73303625],[4.76893154,44.73156677],[4.76789663,44.73043242],[4.76770946,44.72833449],[4.76709432,44.72837673],[4.76696707,44.72882992],[4.76565106,44.72871853],[4.76545571,44.72893417],[4.76417831,44.72916795]]]]},"bbox":[4.75875923,44.72654095,4.83988034,44.77240727]}]}