{"type":"FeatureCollection","metadata":{"sourceType":"iris","referenceFile":"portes-les-valence-quartiers.geojson","source":"IGN / INSEE - Contours IRIS WFS Géoplateforme","sourceUrl":"https://geoservices.ign.fr/contoursiris","license":"Licence Ouverte / Open Licence 2.0","sourceYear":"2026"},"features":[{"type":"Feature","id":"fr-quartier-26252-f1fd0033c315","properties":{"id":"fr-quartier-26252-f1fd0033c315","kind":"quartier","name":"Route de Beauvallon","cityCode":"26252","cityName":"Portes-lès-Valence","sourceType":"iris","sourceIds":["262520103"],"colorIndex":0,"center":[4.895533038337135,44.87150052746812]},"geometry":{"type":"MultiPolygon","coordinates":[[[[4.89346542,44.88711912],[4.89686584,44.88712413],[4.90181593,44.88747447],[4.91016787,44.89010139],[4.91050435,44.88796477],[4.91085059,44.88373406],[4.91158516,44.8835431],[4.91127415,44.88315218],[4.91100459,44.8825273],[4.91143986,44.88135982],[4.91127206,44.87669217],[4.91136058,44.87653934],[4.91156311,44.87657278],[4.91256891,44.87133375],[4.91440059,44.86681177],[4.90996704,44.86681609],[4.90879512,44.86698755],[4.90859502,44.86646594],[4.90813679,44.86587582],[4.90586492,44.86442165],[4.90439288,44.86324821],[4.90383641,44.86289572],[4.90150796,44.86163336],[4.89911631,44.86108261],[4.89897916,44.86110837],[4.89840232,44.86086337],[4.89762761,44.85884757],[4.89671279,44.85837959],[4.89409388,44.85645381],[4.89340285,44.85578655],[4.89246688,44.85525225],[4.89157818,44.85401557],[4.89113199,44.85377461],[4.89038968,44.85357562],[4.88876691,44.85332316],[4.8884851,44.85315054],[4.88829728,44.85291148],[4.88791474,44.85305668],[4.8881012,44.85329306],[4.88856053,44.8567111],[4.88480352,44.85655162],[4.8827165,44.85661586],[4.87966258,44.85654243],[4.87885167,44.85660119],[4.8788207,44.85677283],[4.87887059,44.85693949],[4.87944854,44.85809147],[4.8797427,44.85889792],[4.88035303,44.86105351],[4.88065879,44.86156257],[4.88122294,44.8621492],[4.88117449,44.86217704],[4.88119187,44.86224249],[4.88079202,44.86266714],[4.87983497,44.86392347],[4.87962693,44.86508515],[4.87960758,44.86567987],[4.87967032,44.86607867],[4.88041332,44.86833649],[4.87928482,44.86844656],[4.87885056,44.86837466],[4.87835929,44.86818844],[4.8773506,44.86828385],[4.87766977,44.86934476],[4.8751384,44.86954245],[4.87541737,44.87042482],[4.87282712,44.87113678],[4.87277275,44.87117733],[4.87280677,44.87143793],[4.87372233,44.87587412],[4.87646682,44.87533694],[4.87657367,44.8752748],[4.87671082,44.87509596],[4.8776236,44.87493193],[4.87764467,44.87484242],[4.87774808,44.87479113],[4.87787144,44.87480616],[4.87794772,44.87489043],[4.87895396,44.8748698],[4.88029954,44.87477047],[4.88036854,44.87365436],[4.88042339,44.87359039],[4.88261719,44.87348117],[4.88295607,44.87342679],[4.88357469,44.87419801],[4.88369429,44.87428965],[4.88369421,44.87440042],[4.88392787,44.8747585],[4.88393862,44.87500328],[4.88489493,44.87843724],[4.88513102,44.87920594],[4.88526772,44.87935402],[4.88507812,44.87955447],[4.88573245,44.87931191],[4.88597638,44.87929606],[4.88607406,44.87918723],[4.8861675,44.87917844],[4.88627297,44.87922618],[4.88647452,44.87915521],[4.8881109,44.87881128],[4.88888752,44.87859004],[4.889235,44.87845174],[4.88936993,44.87835848],[4.88943094,44.87821425],[4.88942878,44.87705881],[4.88949048,44.87693528],[4.88960016,44.87688208],[4.89029638,44.87690716],[4.89313214,44.87660037],[4.89361828,44.87663081],[4.89383728,44.87673965],[4.89420468,44.87715486],[4.89385936,44.87908353],[4.89385095,44.87943491],[4.89397937,44.88042518],[4.89398446,44.8808763],[4.89346542,44.88711912]]]]},"bbox":[4.87277275,44.85291148,4.91440059,44.89010139]},{"type":"Feature","id":"fr-quartier-26252-b0460b60f9b2","properties":{"id":"fr-quartier-26252-b0460b60f9b2","kind":"quartier","name":"Rue André Chastel","cityCode":"26252","cityName":"Portes-lès-Valence","sourceType":"iris","sourceIds":["262520102"],"colorIndex":1,"center":[4.876351267526042,44.86328155834116]},"geometry":{"type":"MultiPolygon","coordinates":[[[[4.87885167,44.85660119],[4.87556441,44.85772939],[4.87204711,44.85781038],[4.87157919,44.85775163],[4.87171949,44.85789606],[4.87173567,44.85834338],[4.87362382,44.86461206],[4.87434608,44.86451161],[4.87421375,44.86403743],[4.87606352,44.86379995],[4.87613492,44.86400408],[4.87720633,44.86385538],[4.8772135,44.8639183],[4.87761214,44.86387283],[4.87777323,44.86490308],[4.877521,44.86493437],[4.87746571,44.86475789],[4.87722202,44.86477912],[4.87727377,44.86511507],[4.87699497,44.8651468],[4.87693319,44.86470025],[4.87662359,44.86471989],[4.87673259,44.8651017],[4.87456176,44.86539595],[4.87441452,44.864741],[4.87369364,44.86484503],[4.87443451,44.86723621],[4.87240105,44.86781718],[4.87267618,44.8704846],[4.87275874,44.87109921],[4.87282712,44.87113678],[4.87541737,44.87042482],[4.8751384,44.86954245],[4.87766977,44.86934476],[4.8773506,44.86828385],[4.87835929,44.86818844],[4.87885056,44.86837466],[4.87928482,44.86844656],[4.88041332,44.86833649],[4.87967032,44.86607867],[4.87960758,44.86567987],[4.87962693,44.86508515],[4.87983497,44.86392347],[4.88079202,44.86266714],[4.88119187,44.86224249],[4.88117449,44.86217704],[4.88122294,44.8621492],[4.88065879,44.86156257],[4.88035303,44.86105351],[4.8797427,44.85889792],[4.87944854,44.85809147],[4.87887059,44.85693949],[4.8788207,44.85677283],[4.87885167,44.85660119]]]]},"bbox":[4.87157919,44.85660119,4.88122294,44.87113678]},{"type":"Feature","id":"fr-quartier-26252-989ac37b7dd0","properties":{"id":"fr-quartier-26252-989ac37b7dd0","kind":"quartier","name":"Rue Louis Saillant","cityCode":"26252","cityName":"Portes-lès-Valence","sourceType":"iris","sourceIds":["262520104"],"colorIndex":2,"center":[4.870935533242116,44.88151123104196]},"geometry":{"type":"MultiPolygon","coordinates":[[[[4.85686455,44.86938218],[4.85888879,44.87100269],[4.8596341,44.87190071],[4.86026172,44.87303034],[4.86074962,44.87487288],[4.86108136,44.87704765],[4.86116543,44.87839893],[4.86106548,44.87966323],[4.86087916,44.88069123],[4.85969127,44.88299323],[4.85623673,44.88758642],[4.85543279,44.88924974],[4.85476039,44.89094598],[4.85428089,44.89353509],[4.85437894,44.89684765],[4.85723978,44.8967269],[4.85760516,44.89662623],[4.85813973,44.89666051],[4.85812784,44.89630138],[4.85900871,44.89619478],[4.86224943,44.89549566],[4.86487172,44.89502388],[4.86632921,44.89492195],[4.8669596,44.89475195],[4.86777006,44.89489142],[4.86812964,44.89488357],[4.87077933,44.89409598],[4.87393408,44.89386538],[4.87575197,44.89416071],[4.87716275,44.89459528],[4.87722896,44.89456714],[4.87717168,44.89448346],[4.87815211,44.89421111],[4.88086622,44.89391391],[4.87961336,44.8874517],[4.88482084,44.88732111],[4.88573396,44.88723716],[4.8923756,44.88722235],[4.89345909,44.88711923],[4.89346542,44.88711912],[4.89398446,44.8808763],[4.89397937,44.88042518],[4.89385095,44.87943491],[4.89385936,44.87908353],[4.89420468,44.87715486],[4.89383728,44.87673965],[4.89361828,44.87663081],[4.89313214,44.87660037],[4.89029638,44.87690716],[4.88960016,44.87688208],[4.88949048,44.87693528],[4.88942878,44.87705881],[4.88943094,44.87821425],[4.88936993,44.87835848],[4.889235,44.87845174],[4.88888752,44.87859004],[4.8881109,44.87881128],[4.88647452,44.87915521],[4.88627297,44.87922618],[4.8861675,44.87917844],[4.88607406,44.87918723],[4.88597638,44.87929606],[4.88573245,44.87931191],[4.88507812,44.87955447],[4.88428779,44.87982096],[4.87844834,44.88144821],[4.87575217,44.88188554],[4.87518995,44.88208146],[4.87509756,44.88208392],[4.87499924,44.88198472],[4.8748291,44.88106268],[4.87434648,44.87920389],[4.874308,44.8785444],[4.87412574,44.8775244],[4.87372233,44.87587412],[4.87280677,44.87143793],[4.87277275,44.87117733],[4.87282712,44.87113678],[4.87275874,44.87109921],[4.87267618,44.8704846],[4.87240105,44.86781718],[4.87443451,44.86723621],[4.87369364,44.86484503],[4.87441452,44.864741],[4.87456176,44.86539595],[4.87673259,44.8651017],[4.87662359,44.86471989],[4.87693319,44.86470025],[4.87699497,44.8651468],[4.87727377,44.86511507],[4.87722202,44.86477912],[4.87746571,44.86475789],[4.877521,44.86493437],[4.87777323,44.86490308],[4.87761214,44.86387283],[4.8772135,44.8639183],[4.87720633,44.86385538],[4.87613492,44.86400408],[4.87606352,44.86379995],[4.87421375,44.86403743],[4.87434608,44.86451161],[4.87362382,44.86461206],[4.87173567,44.85834338],[4.87171949,44.85789606],[4.87157919,44.85775163],[4.87138282,44.85885006],[4.87073779,44.86008843],[4.86987677,44.86240845],[4.86759056,44.86216325],[4.86722138,44.86199025],[4.86680414,44.86197115],[4.86630337,44.8629441],[4.86592955,44.86289815],[4.86562481,44.86352107],[4.86511519,44.8633135],[4.86372854,44.86396089],[4.86373259,44.86446425],[4.86255239,44.8643886],[4.86262278,44.86586168],[4.86113394,44.86663774],[4.85686455,44.86938218]]]]},"bbox":[4.85428089,44.85775163,4.89420468,44.89684765]},{"type":"Feature","id":"fr-quartier-26252-b11b9e800024","properties":{"id":"fr-quartier-26252-b11b9e800024","kind":"quartier","name":"Rue Marcel Paul","cityCode":"26252","cityName":"Portes-lès-Valence","sourceType":"iris","sourceIds":["262520101"],"colorIndex":3,"center":[4.879407537720179,44.87780729259975]},"geometry":{"type":"MultiPolygon","coordinates":[[[[4.87372233,44.87587412],[4.87412574,44.8775244],[4.874308,44.8785444],[4.87434648,44.87920389],[4.8748291,44.88106268],[4.87499924,44.88198472],[4.87509756,44.88208392],[4.87518995,44.88208146],[4.87575217,44.88188554],[4.87844834,44.88144821],[4.88428779,44.87982096],[4.88507812,44.87955447],[4.88526772,44.87935402],[4.88513102,44.87920594],[4.88489493,44.87843724],[4.88393862,44.87500328],[4.88392787,44.8747585],[4.88369421,44.87440042],[4.88369429,44.87428965],[4.88357469,44.87419801],[4.88295607,44.87342679],[4.88261719,44.87348117],[4.88042339,44.87359039],[4.88036854,44.87365436],[4.88029954,44.87477047],[4.87895396,44.8748698],[4.87794772,44.87489043],[4.87787144,44.87480616],[4.87774808,44.87479113],[4.87764467,44.87484242],[4.8776236,44.87493193],[4.87671082,44.87509596],[4.87657367,44.8752748],[4.87646682,44.87533694],[4.87372233,44.87587412]]]]},"bbox":[4.87372233,44.87342679,4.88526772,44.88208392]}]}