{"type":"FeatureCollection","metadata":{"sourceType":"iris","referenceFile":"tain-l-hermitage-quartiers.geojson","source":"IGN / INSEE - Contours IRIS WFS Géoplateforme","sourceUrl":"https://geoservices.ign.fr/contoursiris","license":"Licence Ouverte / Open Licence 2.0","sourceYear":"2026"},"features":[{"type":"Feature","id":"fr-quartier-26347-cebd8d12336b","properties":{"id":"fr-quartier-26347-cebd8d12336b","kind":"quartier","name":"Avenue Rhin et Danube","cityCode":"26347","cityName":"Tain-l'Hermitage","sourceType":"iris","sourceIds":["263470101"],"colorIndex":0,"center":[4.8394671974735015,45.07050600175688]},"geometry":{"type":"MultiPolygon","coordinates":[[[[4.84939333,45.06501912],[4.84277373,45.06641853],[4.84076092,45.06677514],[4.83979504,45.06704597],[4.83516943,45.06864974],[4.83236056,45.07004422],[4.83083935,45.07121393],[4.82901078,45.07324788],[4.82878654,45.07354246],[4.82802434,45.07588941],[4.82992999,45.07605267],[4.8301176,45.07568753],[4.83048554,45.07523928],[4.83163122,45.07509706],[4.83180185,45.07495106],[4.83258251,45.07472477],[4.8328584,45.07472654],[4.83329048,45.07464648],[4.83471408,45.07414211],[4.83529497,45.07402626],[4.83624232,45.07372876],[4.83753933,45.07347411],[4.83797016,45.07343368],[4.83934018,45.07346691],[4.84664622,45.07285071],[4.84668044,45.07227013],[4.84680046,45.07174757],[4.84703241,45.07168969],[4.84709396,45.0715905],[4.84712668,45.07077218],[4.84708481,45.07042793],[4.84768489,45.06758547],[4.85039332,45.06685783],[4.85022716,45.06640667],[4.84947353,45.0650232],[4.84939333,45.06501912]]]]},"bbox":[4.82802434,45.06501912,4.85039332,45.07605267]},{"type":"Feature","id":"fr-quartier-26347-d6e5fd91d5cb","properties":{"id":"fr-quartier-26347-d6e5fd91d5cb","kind":"quartier","name":"Chemin des Levees","cityCode":"26347","cityName":"Tain-l'Hermitage","sourceType":"iris","sourceIds":["263470102"],"colorIndex":1,"center":[4.853637871776069,45.070577720977816]},"geometry":{"type":"MultiPolygon","coordinates":[[[[4.82790315,45.07875452],[4.83035399,45.07859991],[4.83084247,45.07864952],[4.83170444,45.07888574],[4.83189754,45.07903747],[4.83387969,45.07986317],[4.83519554,45.07866708],[4.83578597,45.07884018],[4.83634817,45.07916055],[4.83758619,45.0786538],[4.83817709,45.07880256],[4.83826193,45.07917943],[4.83876081,45.07966115],[4.83898706,45.07969884],[4.83966444,45.07923014],[4.83985999,45.07848929],[4.84084136,45.07810382],[4.84112575,45.07817027],[4.84130595,45.07854736],[4.84289172,45.07899038],[4.84373287,45.07897917],[4.84476423,45.07849106],[4.84540071,45.07832561],[4.84585578,45.07832528],[4.84607966,45.07821439],[4.84814155,45.07860081],[4.84903883,45.07855711],[4.85544438,45.07875144],[4.85599359,45.07967266],[4.85632762,45.08065961],[4.85708927,45.07989938],[4.85809694,45.07954304],[4.85891867,45.07875568],[4.86003734,45.07791563],[4.8608863,45.07756641],[4.86112771,45.07721924],[4.86159778,45.07682951],[4.86224236,45.0767566],[4.86236238,45.07658167],[4.86282664,45.07643791],[4.86270901,45.07553923],[4.86313966,45.07537892],[4.86347968,45.07505441],[4.8638523,45.07490768],[4.86544503,45.07468018],[4.86508054,45.07427018],[4.86516589,45.07381843],[4.86493428,45.07354311],[4.86476055,45.07283091],[4.86491278,45.07156385],[4.86454155,45.07098915],[4.86430693,45.07005101],[4.86536271,45.06980998],[4.86629681,45.06980784],[4.86751302,45.0690048],[4.86849117,45.06811478],[4.86921488,45.06729386],[4.86940587,45.06627743],[4.87001221,45.06571066],[4.86825764,45.06409012],[4.86831786,45.06402877],[4.86717861,45.06294548],[4.86727967,45.06189904],[4.86700047,45.05943507],[4.86658141,45.05883416],[4.86623761,45.0588129],[4.86620326,45.05854508],[4.86585317,45.05787817],[4.86363453,45.05646708],[4.86221072,45.05537861],[4.86074904,45.05532738],[4.86061058,45.05666624],[4.85999367,45.05813828],[4.85906165,45.05984164],[4.85815916,45.06086721],[4.85721501,45.06171065],[4.85456935,45.06321015],[4.85196124,45.0644658],[4.84939333,45.06501912],[4.84947353,45.0650232],[4.85022716,45.06640667],[4.85039332,45.06685783],[4.84768489,45.06758547],[4.84708481,45.07042793],[4.84712668,45.07077218],[4.84709396,45.0715905],[4.84703241,45.07168969],[4.84680046,45.07174757],[4.84668044,45.07227013],[4.84664622,45.07285071],[4.83934018,45.07346691],[4.83797016,45.07343368],[4.83753933,45.07347411],[4.83624232,45.07372876],[4.83529497,45.07402626],[4.83471408,45.07414211],[4.83329048,45.07464648],[4.8328584,45.07472654],[4.83258251,45.07472477],[4.83180185,45.07495106],[4.83163122,45.07509706],[4.83048554,45.07523928],[4.8301176,45.07568753],[4.82992999,45.07605267],[4.82802434,45.07588941],[4.82758894,45.07726912],[4.82790315,45.07875452]]]]},"bbox":[4.82758894,45.05532738,4.87001221,45.08065961]}]}