{"type":"FeatureCollection","metadata":{"sourceType":"iris","referenceFile":"moelan-sur-mer-quartiers.geojson","source":"IGN / INSEE - Contours IRIS WFS Géoplateforme","sourceUrl":"https://geoservices.ign.fr/contoursiris","license":"Licence Ouverte / Open Licence 2.0","sourceYear":"2026"},"features":[{"type":"Feature","id":"fr-quartier-29150-e1809ca25ef1","properties":{"id":"fr-quartier-29150-e1809ca25ef1","kind":"quartier","name":"Bourg Nord","cityCode":"29150","cityName":"Moëlan-sur-Mer","sourceType":"iris","sourceIds":["291500101"],"colorIndex":0,"center":[-3.620506649027787,47.82536604084333]},"geometry":{"type":"MultiPolygon","coordinates":[[[[-3.63057007,47.84110498],[-3.62991987,47.84104428],[-3.62919395,47.84134372],[-3.62908619,47.8412866],[-3.6290987,47.84097881],[-3.62891416,47.84040401],[-3.62847564,47.84021209],[-3.62674378,47.84050256],[-3.62631014,47.84098322],[-3.62500181,47.84119548],[-3.62429725,47.84206358],[-3.62398003,47.84283208],[-3.62387687,47.84431551],[-3.62321018,47.84484276],[-3.62230054,47.84525099],[-3.6220773,47.84560141],[-3.62185333,47.84556983],[-3.62159283,47.84523504],[-3.62085622,47.84550341],[-3.61985319,47.84571189],[-3.61865115,47.84489568],[-3.61751578,47.84453811],[-3.61697215,47.8440414],[-3.61645003,47.84372772],[-3.61383798,47.84288913],[-3.61232436,47.8425854],[-3.61161117,47.8422238],[-3.61101141,47.84180339],[-3.61045389,47.84144201],[-3.60924495,47.83991171],[-3.60886082,47.839359],[-3.60828824,47.83817658],[-3.60814444,47.83854055],[-3.60671349,47.83954529],[-3.60453563,47.84034831],[-3.60421958,47.84036344],[-3.603669,47.84060675],[-3.603289,47.84062548],[-3.60329279,47.83972934],[-3.60308163,47.83986499],[-3.60271041,47.83973872],[-3.60195536,47.8396865],[-3.60166838,47.84001066],[-3.60084197,47.83983782],[-3.60102747,47.8394959],[-3.60034617,47.8386673],[-3.60174512,47.83795437],[-3.60106076,47.83733819],[-3.60096914,47.83729188],[-3.60067539,47.83743218],[-3.59966934,47.83801457],[-3.59851878,47.83707967],[-3.5981244,47.83731686],[-3.59802958,47.83729872],[-3.59766541,47.83757395],[-3.59895766,47.83855866],[-3.59784446,47.83916423],[-3.59616019,47.83981643],[-3.59621041,47.84006919],[-3.59613354,47.84017377],[-3.59570713,47.84039108],[-3.5954067,47.83997089],[-3.5939565,47.84017545],[-3.59422698,47.84046276],[-3.59364524,47.84063915],[-3.59336229,47.84029473],[-3.59266227,47.84060963],[-3.59197786,47.83953913],[-3.59225445,47.8394224],[-3.59142581,47.83871315],[-3.58981798,47.8393763],[-3.59133697,47.84133365],[-3.58971349,47.840997],[-3.58824322,47.84113759],[-3.58748878,47.840183],[-3.58939482,47.83944709],[-3.58888021,47.83882491],[-3.58690782,47.83933966],[-3.58612209,47.83943988],[-3.58639187,47.84056445],[-3.58571417,47.84072452],[-3.58466928,47.8413523],[-3.58409448,47.84089334],[-3.58555102,47.8399832],[-3.58528256,47.83934443],[-3.58552471,47.83912308],[-3.58557044,47.8385407],[-3.58580915,47.83833489],[-3.58636053,47.83717945],[-3.58638941,47.83638577],[-3.58600116,47.83511704],[-3.58561789,47.83436372],[-3.585501,47.83434049],[-3.58492479,47.83379401],[-3.58490199,47.83248664],[-3.58463541,47.83170056],[-3.58410873,47.8314123],[-3.58382465,47.83037703],[-3.58500022,47.83011218],[-3.58482776,47.82957638],[-3.58509685,47.82939958],[-3.5866809,47.82896811],[-3.58893678,47.82786659],[-3.58909222,47.8279626],[-3.58883317,47.82747504],[-3.58746774,47.82637242],[-3.58601394,47.82502189],[-3.58523249,47.82415009],[-3.5844723,47.82304951],[-3.58275954,47.82141548],[-3.58265571,47.82121631],[-3.5827548,47.82119357],[-3.58439935,47.82081923],[-3.58504452,47.82071247],[-3.59265048,47.81962111],[-3.59426786,47.81930957],[-3.59560047,47.81881085],[-3.59664675,47.81830659],[-3.59743713,47.81782579],[-3.59874989,47.81674742],[-3.59907589,47.81654388],[-3.59946728,47.8163809],[-3.59987235,47.81627405],[-3.60248894,47.81595477],[-3.60335092,47.81564057],[-3.60370422,47.81546257],[-3.60643687,47.81392188],[-3.60690766,47.81375078],[-3.60774626,47.8135616],[-3.60841754,47.81351464],[-3.60888026,47.81352643],[-3.61498554,47.81398148],[-3.61596212,47.81398495],[-3.61747159,47.81392845],[-3.61937452,47.81418836],[-3.61974381,47.81419275],[-3.62107469,47.81408038],[-3.62164382,47.81408519],[-3.62216345,47.81418763],[-3.62369201,47.81463847],[-3.62524883,47.81473544],[-3.62540629,47.81483671],[-3.62612115,47.81456951],[-3.62688099,47.81435124],[-3.62923368,47.81384218],[-3.62962301,47.81354554],[-3.6308951,47.81240494],[-3.63158066,47.81218272],[-3.63168987,47.8121124],[-3.6318257,47.81212637],[-3.63188983,47.81203874],[-3.63212888,47.81198815],[-3.63366837,47.81108886],[-3.63517872,47.81042874],[-3.63548063,47.81025897],[-3.63632855,47.80952352],[-3.63782314,47.80883445],[-3.63804318,47.80868558],[-3.63819875,47.80869662],[-3.63824231,47.80858395],[-3.63851118,47.80861114],[-3.63944949,47.80853439],[-3.64038057,47.80851765],[-3.64578104,47.8085595],[-3.64987693,47.80878277],[-3.65191288,47.80885214],[-3.65323463,47.80883927],[-3.65490961,47.80874576],[-3.65626861,47.80859164],[-3.65952649,47.80817312],[-3.66262931,47.80768385],[-3.66346101,47.80895789],[-3.66572774,47.81135503],[-3.66617124,47.81205685],[-3.6663512,47.81216582],[-3.6668231,47.81233583],[-3.66700574,47.81245548],[-3.66721097,47.81318172],[-3.66723667,47.81345032],[-3.66625353,47.81372585],[-3.6650765,47.81416597],[-3.66435319,47.81437519],[-3.66336187,47.81462857],[-3.66201856,47.81487672],[-3.66177771,47.81496631],[-3.66158956,47.81517663],[-3.66120849,47.81590105],[-3.66086744,47.81636757],[-3.66048383,47.81643096],[-3.65843068,47.81653703],[-3.65811028,47.81664469],[-3.65686463,47.81732978],[-3.65640048,47.81754226],[-3.65602847,47.81764472],[-3.65463339,47.81759856],[-3.65363387,47.81765904],[-3.65280197,47.8175483],[-3.65266587,47.81758585],[-3.65253039,47.81766039],[-3.65289435,47.81804975],[-3.65296821,47.81822167],[-3.6529673,47.81854598],[-3.65264068,47.81920313],[-3.65200479,47.81980019],[-3.65180753,47.81983128],[-3.65172,47.8199889],[-3.65145987,47.82005337],[-3.6511409,47.82031176],[-3.65105603,47.82053336],[-3.65117791,47.82095997],[-3.65109638,47.82132589],[-3.65121159,47.82167791],[-3.65064821,47.82178401],[-3.65072565,47.82225198],[-3.65025403,47.82255518],[-3.65007687,47.82315324],[-3.64993284,47.82317046],[-3.64979952,47.8230805],[-3.64948019,47.82264072],[-3.64929353,47.82257456],[-3.64705235,47.82275523],[-3.64693059,47.82282176],[-3.64687806,47.82301261],[-3.64695591,47.82312019],[-3.64750889,47.82351959],[-3.64750656,47.8235974],[-3.646251,47.82452679],[-3.64539602,47.82447872],[-3.64462337,47.82478815],[-3.64467849,47.82528178],[-3.64437127,47.82587006],[-3.6438574,47.82601847],[-3.64346053,47.82603017],[-3.64334306,47.82630238],[-3.64309413,47.82654232],[-3.64238853,47.82650923],[-3.64194322,47.82672328],[-3.64185866,47.82688343],[-3.64221705,47.82719636],[-3.64221122,47.82746043],[-3.64174722,47.82780379],[-3.6415512,47.82810214],[-3.64073499,47.82811777],[-3.64049943,47.82825036],[-3.63973099,47.82885125],[-3.63970198,47.82929456],[-3.63959787,47.82945943],[-3.63932807,47.82955422],[-3.639027,47.82935635],[-3.6388127,47.82938025],[-3.63841602,47.82979023],[-3.63825585,47.83019311],[-3.63767259,47.83069858],[-3.63751692,47.83074083],[-3.63733016,47.83044885],[-3.6371226,47.8304516],[-3.63628445,47.83118196],[-3.63520286,47.83149981],[-3.63503706,47.83161127],[-3.63526915,47.83311276],[-3.63506687,47.8334259],[-3.63508172,47.83425237],[-3.63483858,47.8345606],[-3.63482318,47.83500584],[-3.63458312,47.83529583],[-3.63457714,47.8357306],[-3.63480572,47.83607801],[-3.63504175,47.83609895],[-3.63527093,47.83597938],[-3.635437,47.83606299],[-3.63557662,47.83679297],[-3.63520923,47.83708386],[-3.63491282,47.83766335],[-3.63505382,47.83852242],[-3.63487348,47.83873225],[-3.63480809,47.83906742],[-3.63385678,47.84024583],[-3.63364044,47.84036105],[-3.63319025,47.84025832],[-3.63303512,47.84031589],[-3.63299818,47.84068558],[-3.63182696,47.84087841],[-3.63074225,47.84118374],[-3.63057007,47.84110498]]]]},"bbox":[-3.66723667,47.80768385,-3.58265571,47.84571189]},{"type":"Feature","id":"fr-quartier-29150-cdada262f828","properties":{"id":"fr-quartier-29150-cdada262f828","kind":"quartier","name":"Bourg Sud-Est","cityCode":"29150","cityName":"Moëlan-sur-Mer","sourceType":"iris","sourceIds":["291500102"],"colorIndex":1,"center":[-3.629341431530842,47.79485648928113]},"geometry":{"type":"MultiPolygon","coordinates":[[[[-3.64015402,47.77372513],[-3.64028988,47.77382579],[-3.64020838,47.77397765],[-3.64007634,47.77399328],[-3.63987996,47.7737407],[-3.64015402,47.77372513]]],[[[-3.64333739,47.77414123],[-3.64296077,47.77416174],[-3.64317653,47.77392638],[-3.64349075,47.77399613],[-3.64333739,47.77414123]]],[[[-3.5813718,47.82007653],[-3.58206641,47.82015215],[-3.58297091,47.81998474],[-3.58373004,47.81952115],[-3.58398142,47.8192776],[-3.58431124,47.8187045],[-3.58450641,47.81861314],[-3.58508267,47.81798372],[-3.58715064,47.81673291],[-3.5878462,47.81496962],[-3.58771468,47.81438546],[-3.58861585,47.81397615],[-3.58966224,47.81376456],[-3.58966797,47.81343278],[-3.58979826,47.81325113],[-3.58998217,47.81311252],[-3.59041931,47.81302648],[-3.59017386,47.81253996],[-3.59020931,47.81241513],[-3.59149886,47.81173283],[-3.59240281,47.81169181],[-3.59215272,47.81104931],[-3.59098224,47.81057429],[-3.59017179,47.80981345],[-3.59053698,47.80966642],[-3.59116992,47.8095594],[-3.59113984,47.80931725],[-3.59138598,47.80919409],[-3.59132688,47.80881539],[-3.59160327,47.80882781],[-3.59176634,47.80856483],[-3.59049805,47.80854328],[-3.58956453,47.80833488],[-3.58979606,47.80708992],[-3.58975533,47.80683753],[-3.59060202,47.80601219],[-3.59259682,47.80623843],[-3.5978063,47.80715306],[-3.5981229,47.80815758],[-3.60099902,47.80597217],[-3.60130656,47.80597648],[-3.60150046,47.80544441],[-3.60186792,47.80514368],[-3.60241016,47.80474999],[-3.60313905,47.80443427],[-3.60378909,47.80325865],[-3.60418832,47.79973359],[-3.60436314,47.79941483],[-3.60565865,47.79847189],[-3.6059286,47.79810982],[-3.60596254,47.79710085],[-3.60621367,47.79636141],[-3.60621945,47.79552474],[-3.60633443,47.79503775],[-3.60657584,47.79452194],[-3.60754566,47.79331106],[-3.60857735,47.79145631],[-3.60893786,47.7902934],[-3.60921917,47.78846209],[-3.6103631,47.78639053],[-3.61096265,47.78433889],[-3.61116796,47.78412587],[-3.6128066,47.78312276],[-3.61291978,47.78294475],[-3.61304509,47.78293947],[-3.61437985,47.78221906],[-3.61431273,47.78159423],[-3.61444748,47.78089024],[-3.61554838,47.77815357],[-3.61560316,47.77757152],[-3.61600513,47.77619487],[-3.61691308,47.77531975],[-3.6171278,47.77458051],[-3.61721228,47.77377459],[-3.61689949,47.77093096],[-3.61610599,47.77001397],[-3.61619466,47.76975786],[-3.61637988,47.76971757],[-3.61626936,47.76961544],[-3.61631262,47.76952177],[-3.61676622,47.76933441],[-3.6171773,47.76953694],[-3.61679049,47.76965819],[-3.61733363,47.76965182],[-3.61860114,47.77036221],[-3.61872691,47.77029638],[-3.61899075,47.77047834],[-3.61952537,47.77047876],[-3.61935647,47.77054252],[-3.6193909,47.77060379],[-3.61933296,47.77064411],[-3.61933832,47.77068716],[-3.61979501,47.77080399],[-3.61997489,47.77095728],[-3.62069056,47.77104499],[-3.62071298,47.77118191],[-3.62037272,47.77139719],[-3.62057122,47.7714311],[-3.62055784,47.77200088],[-3.62080624,47.77214487],[-3.62103679,47.77197374],[-3.62094636,47.77180726],[-3.62104512,47.77167521],[-3.62098998,47.77153383],[-3.62119048,47.77135808],[-3.62195037,47.77122019],[-3.62216391,47.77132099],[-3.62216871,47.77125207],[-3.62236626,47.77122462],[-3.62260395,47.77141166],[-3.62266554,47.77126095],[-3.62301245,47.77124941],[-3.62322352,47.77111552],[-3.62350335,47.77110327],[-3.62359485,47.7709346],[-3.62385461,47.77101923],[-3.62405606,47.77091568],[-3.62431543,47.77095427],[-3.62434289,47.77081994],[-3.62460192,47.77065171],[-3.62496953,47.77061281],[-3.62511552,47.77049434],[-3.6252315,47.77050041],[-3.62523201,47.77046154],[-3.62550098,47.77036229],[-3.62533235,47.77026708],[-3.62546877,47.77011483],[-3.62525138,47.77003684],[-3.62529201,47.76989002],[-3.62591172,47.77003552],[-3.6260901,47.76992967],[-3.62631057,47.76997859],[-3.62648481,47.77012948],[-3.62634067,47.77021984],[-3.62690019,47.77037688],[-3.62682688,47.77044427],[-3.6269653,47.77049061],[-3.62691466,47.7706109],[-3.62715193,47.77080518],[-3.62709191,47.77087181],[-3.6274198,47.77099773],[-3.62759114,47.77122194],[-3.62818463,47.7715866],[-3.62827469,47.77161039],[-3.62830458,47.77157076],[-3.62849755,47.77161401],[-3.62862007,47.77171545],[-3.62859553,47.77186226],[-3.62838717,47.77184607],[-3.62860701,47.77210457],[-3.62856373,47.77216573],[-3.62857542,47.77220571],[-3.62849609,47.77224634],[-3.62812359,47.77209586],[-3.62859165,47.77242156],[-3.628687,47.77260583],[-3.62843394,47.77303657],[-3.62824288,47.77311605],[-3.62825207,47.77320043],[-3.6280961,47.77322824],[-3.6281215,47.77332435],[-3.62787151,47.77336111],[-3.62784943,47.77353849],[-3.62791003,47.77358382],[-3.62782561,47.77364822],[-3.62788699,47.77369984],[-3.62769445,47.77374598],[-3.62775417,47.77380582],[-3.62763803,47.77385215],[-3.62763393,47.77394812],[-3.62768697,47.77398666],[-3.62764158,47.77404162],[-3.62768531,47.77408069],[-3.62744868,47.77425669],[-3.62753402,47.77441443],[-3.62797434,47.77461435],[-3.62846672,47.77458733],[-3.62871972,47.7744673],[-3.62867859,47.77428809],[-3.62890749,47.77414685],[-3.62894666,47.77389173],[-3.62878295,47.77384682],[-3.6286918,47.77365329],[-3.62909095,47.77345903],[-3.629253,47.77305062],[-3.62935753,47.77302934],[-3.62933419,47.77288524],[-3.62949251,47.77287626],[-3.62939947,47.77259251],[-3.6296113,47.77245404],[-3.62955205,47.77241947],[-3.62959345,47.77236473],[-3.62976514,47.77232338],[-3.63004412,47.77251891],[-3.63030416,47.77245538],[-3.63050701,47.77250258],[-3.63049817,47.77271082],[-3.63087312,47.77250529],[-3.63098876,47.77249782],[-3.63103966,47.77250848],[-3.63111361,47.77249977],[-3.63121977,47.77254523],[-3.63126298,47.77251568],[-3.63129039,47.77289619],[-3.63162987,47.77261047],[-3.63179315,47.77257682],[-3.63177876,47.77268693],[-3.63183353,47.77268562],[-3.63209079,47.77270715],[-3.63213068,47.77268321],[-3.63216686,47.77271548],[-3.63237578,47.77273614],[-3.63294851,47.77304144],[-3.63290821,47.77291185],[-3.63326421,47.77298377],[-3.63338902,47.77295321],[-3.63340625,47.77289803],[-3.63348266,47.77290905],[-3.63405642,47.77289003],[-3.63414708,47.77303662],[-3.63436961,47.77303754],[-3.63448692,47.77311849],[-3.63412933,47.7732806],[-3.6345745,47.77328332],[-3.63470145,47.77336644],[-3.63430471,47.77351541],[-3.63465244,47.7735318],[-3.63445295,47.77376893],[-3.63456202,47.77382687],[-3.63441108,47.77397002],[-3.63496616,47.77432688],[-3.63523008,47.77434803],[-3.63522735,47.7744656],[-3.63534997,47.77444961],[-3.63531479,47.77459702],[-3.63542257,47.77460174],[-3.63556811,47.77447967],[-3.6357552,47.77450789],[-3.63574428,47.77438838],[-3.63588874,47.77437566],[-3.63587892,47.77432925],[-3.63594001,47.77423907],[-3.63616555,47.77432833],[-3.63632618,47.77421985],[-3.63663677,47.77423925],[-3.63674542,47.77414366],[-3.63710965,47.77414194],[-3.63697597,47.77400502],[-3.63699732,47.77397219],[-3.63701825,47.77394662],[-3.63708492,47.77397625],[-3.63717582,47.77403883],[-3.63742951,47.77404248],[-3.63749041,47.77405799],[-3.63752743,47.77396828],[-3.6376795,47.7740057],[-3.6377837,47.77406753],[-3.63781721,47.77408911],[-3.63789139,47.77400722],[-3.63818122,47.77383901],[-3.63868073,47.77376186],[-3.63873828,47.77368634],[-3.6391555,47.77391554],[-3.63905627,47.77367911],[-3.63929428,47.77372881],[-3.63952749,47.77367582],[-3.6394885,47.77362113],[-3.63955485,47.77357311],[-3.63984761,47.7737606],[-3.63995729,47.7740163],[-3.63958865,47.77427209],[-3.63978192,47.77436046],[-3.63973081,47.77444465],[-3.63951271,47.77452208],[-3.63971662,47.77459901],[-3.63968624,47.77476331],[-3.63998343,47.77485753],[-3.64007907,47.77497945],[-3.63983775,47.77510696],[-3.63970153,47.77553922],[-3.63946569,47.77562487],[-3.63953881,47.77573814],[-3.63937219,47.77616309],[-3.63873885,47.77665971],[-3.63904712,47.77722839],[-3.6392996,47.7770614],[-3.6392548,47.77674601],[-3.6402409,47.77588793],[-3.64041922,47.77558876],[-3.64029667,47.77548734],[-3.64039539,47.77535528],[-3.64064,47.77528628],[-3.64092972,47.77535292],[-3.64087407,47.77528292],[-3.64111027,47.77529659],[-3.64096702,47.77545828],[-3.64118614,47.77547473],[-3.64124946,47.77555242],[-3.64130817,47.77551838],[-3.64131763,47.77546545],[-3.64143826,47.77545498],[-3.64141759,47.77550403],[-3.64177442,47.7753573],[-3.64216548,47.77534501],[-3.64286131,47.77484481],[-3.64319678,47.7747309],[-3.64310812,47.77468627],[-3.64317169,47.77463749],[-3.64316725,47.77448419],[-3.64326367,47.77445162],[-3.64330006,47.77431406],[-3.64318189,47.77418349],[-3.64342889,47.77422997],[-3.6436701,47.77411238],[-3.64383426,47.77415002],[-3.64419982,47.77407323],[-3.64428596,47.77414059],[-3.64436648,47.77415227],[-3.64433976,47.77422786],[-3.64451732,47.7742548],[-3.64501632,47.77406655],[-3.64527618,47.77410868],[-3.64530086,47.77408108],[-3.64537245,47.77412849],[-3.64575962,47.77419228],[-3.64560466,47.77444226],[-3.64590237,47.77429436],[-3.64580673,47.77439735],[-3.64607585,47.7744814],[-3.64569942,47.77470693],[-3.64626303,47.77471372],[-3.64625533,47.77482345],[-3.6465208,47.77483545],[-3.6465435,47.77488835],[-3.6462152,47.77497386],[-3.64579281,47.77523904],[-3.64587404,47.77535275],[-3.64578916,47.7753919],[-3.64585157,47.77545157],[-3.64570096,47.77565072],[-3.64583215,47.77566042],[-3.64573253,47.77577447],[-3.64583011,47.77592247],[-3.6455038,47.77630232],[-3.645724,47.77629522],[-3.64588091,47.7763712],[-3.64601727,47.77657209],[-3.6458476,47.77677954],[-3.64601917,47.77672643],[-3.6461676,47.7769167],[-3.64586819,47.77712612],[-3.64568535,47.777132],[-3.64576073,47.77726319],[-3.64559296,47.77733596],[-3.64585952,47.77747435],[-3.64574819,47.77754842],[-3.64578147,47.77763234],[-3.64598134,47.77766613],[-3.64604475,47.77779801],[-3.64596085,47.77797349],[-3.64623252,47.77797069],[-3.6460995,47.7780749],[-3.64635471,47.77847587],[-3.64634239,47.77853799],[-3.64643933,47.77855235],[-3.64643309,47.7787487],[-3.64668253,47.77878239],[-3.64645862,47.7789848],[-3.64664226,47.77892107],[-3.64662946,47.77903289],[-3.64700028,47.77889077],[-3.64725145,47.77897042],[-3.6474123,47.77886372],[-3.64763919,47.77901701],[-3.64756695,47.77905002],[-3.64760868,47.77907294],[-3.64780627,47.77920622],[-3.64778744,47.77929129],[-3.64786783,47.77929123],[-3.6479804,47.77944109],[-3.64807337,47.77932741],[-3.6483059,47.77925818],[-3.64875351,47.77950459],[-3.64887681,47.77942984],[-3.64925907,47.77958241],[-3.64927809,47.77983062],[-3.64913468,47.77988394],[-3.64911268,47.78041449],[-3.64922004,47.78042644],[-3.64928484,47.78072985],[-3.64898471,47.78083725],[-3.649093,47.78094219],[-3.64891196,47.78111236],[-3.648988,47.78116313],[-3.64887034,47.7813044],[-3.64903281,47.78152097],[-3.64898789,47.78165449],[-3.64892672,47.78175462],[-3.64861883,47.78186426],[-3.64830616,47.78182876],[-3.64769667,47.78189504],[-3.64728226,47.78211732],[-3.64740784,47.7822854],[-3.64652653,47.78285668],[-3.64640323,47.78279234],[-3.64615088,47.78297108],[-3.64564453,47.78304774],[-3.64526628,47.7829166],[-3.64520748,47.78319633],[-3.64476909,47.78333416],[-3.64505449,47.78352657],[-3.6451142,47.78370382],[-3.64455284,47.78430477],[-3.64412289,47.78543114],[-3.64422451,47.78575052],[-3.64414371,47.78592944],[-3.64409559,47.78594121],[-3.64410936,47.78595487],[-3.644065,47.78610372],[-3.64336018,47.7862332],[-3.64387131,47.78644079],[-3.64385277,47.78665681],[-3.64345199,47.78697765],[-3.6434576,47.78709746],[-3.64319895,47.78738674],[-3.64255142,47.78787786],[-3.64223532,47.7882544],[-3.64209008,47.78851826],[-3.64208698,47.78882553],[-3.64187134,47.7889552],[-3.64200697,47.78918233],[-3.64202644,47.78960574],[-3.64133615,47.7898518],[-3.64024199,47.78999795],[-3.63987436,47.789952],[-3.63941213,47.79022122],[-3.63903657,47.79021906],[-3.63903648,47.79038978],[-3.63927023,47.79051198],[-3.63908184,47.79078461],[-3.6390239,47.79139306],[-3.63875968,47.79186328],[-3.63810058,47.79263773],[-3.63822705,47.79273803],[-3.63838655,47.79273801],[-3.63974274,47.79163223],[-3.64011008,47.79115072],[-3.6402306,47.79088195],[-3.64020521,47.79065758],[-3.64090665,47.79059696],[-3.64159964,47.7906723],[-3.64210357,47.79062922],[-3.64258243,47.79081427],[-3.64289218,47.79079395],[-3.64267702,47.79049909],[-3.64307575,47.79026869],[-3.64337261,47.78963131],[-3.64371548,47.7894366],[-3.64408772,47.78938021],[-3.64403034,47.78927509],[-3.64360374,47.78910063],[-3.64346822,47.78881027],[-3.64352163,47.78862659],[-3.64414964,47.78812935],[-3.64479157,47.78790408],[-3.64513501,47.78736069],[-3.64549253,47.78718682],[-3.64556745,47.78692876],[-3.64600064,47.78670632],[-3.64594563,47.78663087],[-3.64553181,47.78653698],[-3.64555003,47.78590097],[-3.64543331,47.78571793],[-3.64545087,47.78530145],[-3.64580898,47.78457568],[-3.64662964,47.78385159],[-3.64743073,47.78346371],[-3.64755095,47.78318229],[-3.64781366,47.78303277],[-3.64802328,47.78312291],[-3.64811629,47.78330911],[-3.64829391,47.78335771],[-3.64822283,47.78286498],[-3.64899984,47.78276659],[-3.64918024,47.78281594],[-3.64945334,47.78307047],[-3.64950351,47.78295742],[-3.64984388,47.78276464],[-3.65022594,47.78271219],[-3.65026466,47.78272173],[-3.65030702,47.78271751],[-3.65036215,47.78272973],[-3.65045546,47.78261874],[-3.65057557,47.78262546],[-3.65067304,47.78254765],[-3.65059879,47.78237213],[-3.65120086,47.78224665],[-3.65120908,47.78211973],[-3.6509609,47.78205346],[-3.65095299,47.78195817],[-3.65106432,47.78188409],[-3.65103585,47.78156055],[-3.65125857,47.78117755],[-3.65083902,47.78081304],[-3.65083127,47.78026973],[-3.65063376,47.77991245],[-3.65086106,47.77975862],[-3.65116143,47.77987791],[-3.65113722,47.77971671],[-3.65148424,47.77981257],[-3.65166202,47.77969136],[-3.65153103,47.77933029],[-3.65214957,47.77946489],[-3.65205974,47.77932549],[-3.65217345,47.77921695],[-3.65238303,47.77928541],[-3.65250878,47.77921954],[-3.65274048,47.77925061],[-3.65298651,47.77942809],[-3.6529115,47.77926797],[-3.65297863,47.77922622],[-3.65317266,47.7792775],[-3.65330068,47.77944363],[-3.65334559,47.77937423],[-3.65354495,47.77936108],[-3.65358505,47.77940305],[-3.65370315,47.77934033],[-3.65459114,47.77926177],[-3.6548397,47.77942736],[-3.65560292,47.77920867],[-3.65576764,47.77923994],[-3.6557971,47.77915426],[-3.65592303,47.77919676],[-3.65611115,47.77909392],[-3.65628626,47.77910111],[-3.65635574,47.77927057],[-3.65664824,47.77931624],[-3.65676769,47.77920014],[-3.65692939,47.77934629],[-3.657139,47.77936145],[-3.65732337,47.77959211],[-3.65758528,47.77952209],[-3.65796672,47.77957172],[-3.65785551,47.77951844],[-3.6579141,47.77947265],[-3.65827597,47.77968688],[-3.6582344,47.77956911],[-3.65853979,47.78007017],[-3.65854035,47.78001053],[-3.65858566,47.77998717],[-3.65864642,47.7799801],[-3.65872747,47.78003871],[-3.65892128,47.78002405],[-3.6589147,47.77981126],[-3.65901241,47.77982105],[-3.65911432,47.77982157],[-3.65912476,47.77976587],[-3.65911634,47.77970945],[-3.65932166,47.77967969],[-3.6593243,47.77960457],[-3.65954011,47.77961575],[-3.65979986,47.77976354],[-3.65982562,47.77972323],[-3.65986394,47.77969756],[-3.65992223,47.77967075],[-3.66024535,47.77978963],[-3.66038519,47.77972928],[-3.66052353,47.77976385],[-3.66054899,47.77985994],[-3.66080618,47.77988051],[-3.66118255,47.78007132],[-3.66137177,47.78027641],[-3.66137402,47.78041177],[-3.66196928,47.78053139],[-3.66201563,47.78077263],[-3.66227508,47.78099268],[-3.66221523,47.78107106],[-3.66243093,47.78108135],[-3.66254036,47.78124853],[-3.66339378,47.78159911],[-3.66310871,47.78192246],[-3.66312505,47.78206334],[-3.66293427,47.78210222],[-3.66298328,47.78246072],[-3.66274535,47.78273261],[-3.66284376,47.78269449],[-3.66314339,47.78280747],[-3.66338532,47.78278103],[-3.66346107,47.7826051],[-3.66362791,47.7825143],[-3.66356077,47.7824278],[-3.66368288,47.78237567],[-3.66365556,47.78223271],[-3.6639006,47.78179332],[-3.66437689,47.78185106],[-3.66431378,47.78166859],[-3.66473685,47.78172937],[-3.66480261,47.78161272],[-3.66494503,47.78162628],[-3.66476509,47.78147395],[-3.66523765,47.78155539],[-3.66524743,47.78150516],[-3.66528108,47.78147433],[-3.66524783,47.78142294],[-3.66555812,47.78142873],[-3.6654875,47.78137856],[-3.66552986,47.78132105],[-3.66564696,47.7813785],[-3.66564808,47.78144076],[-3.66573448,47.78144577],[-3.66590878,47.78155325],[-3.6660041,47.78146923],[-3.666102,47.78145913],[-3.66613541,47.78141567],[-3.66625005,47.7814001],[-3.66620571,47.78129244],[-3.66646005,47.7812689],[-3.66629465,47.78117897],[-3.66631484,47.78112634],[-3.66637235,47.78110409],[-3.66636711,47.78103032],[-3.66664231,47.7808954],[-3.66694816,47.78089782],[-3.66679156,47.78077127],[-3.66684689,47.7807103],[-3.66716586,47.78084927],[-3.66718648,47.7809601],[-3.66709821,47.78096152],[-3.66748878,47.78101963],[-3.66805594,47.78133141],[-3.66834154,47.78130066],[-3.66865895,47.78137378],[-3.66875226,47.78162588],[-3.66877501,47.78163633],[-3.66869714,47.7816778],[-3.66883773,47.78178359],[-3.66879081,47.78189014],[-3.66912823,47.78198379],[-3.66905465,47.78207019],[-3.6692873,47.78223666],[-3.66936726,47.78252113],[-3.6700459,47.78283467],[-3.67019956,47.78303365],[-3.67018787,47.78351665],[-3.67028895,47.7835425],[-3.67017178,47.78379397],[-3.67035114,47.78409083],[-3.67019179,47.78437993],[-3.67002004,47.78445296],[-3.66997995,47.78481655],[-3.66955672,47.78525619],[-3.6693682,47.78560115],[-3.66834861,47.78637198],[-3.66808329,47.78709797],[-3.66776919,47.78731822],[-3.66797177,47.78746925],[-3.66792747,47.78795952],[-3.66786248,47.78830646],[-3.66762244,47.78851887],[-3.66809866,47.78861816],[-3.66829767,47.78886875],[-3.66848197,47.78953567],[-3.66838578,47.79014633],[-3.66860272,47.79048621],[-3.66864979,47.79079695],[-3.66886941,47.79051797],[-3.66898364,47.79050965],[-3.66911123,47.79058637],[-3.66838182,47.79136322],[-3.66817111,47.79252416],[-3.66798917,47.79296448],[-3.66584079,47.79495219],[-3.66510254,47.79551003],[-3.6645313,47.79581808],[-3.66188184,47.79689129],[-3.66029882,47.79770407],[-3.65953487,47.79802578],[-3.65853872,47.79827039],[-3.65660111,47.79845841],[-3.65605519,47.79863762],[-3.6552745,47.79905057],[-3.65507122,47.79921479],[-3.65441535,47.80017431],[-3.65379111,47.80076623],[-3.65329278,47.80156052],[-3.65289961,47.80195321],[-3.65228227,47.80237582],[-3.65085327,47.80312549],[-3.64799719,47.80472674],[-3.64667855,47.80539511],[-3.64583079,47.80573413],[-3.64511339,47.80593658],[-3.64111936,47.80686798],[-3.63909644,47.8078129],[-3.63819756,47.80855849],[-3.63824231,47.80858395],[-3.63819875,47.80869662],[-3.63804318,47.80868558],[-3.63782314,47.80883445],[-3.63632855,47.80952352],[-3.63548063,47.81025897],[-3.63517872,47.81042874],[-3.63366837,47.81108886],[-3.63212888,47.81198815],[-3.63188983,47.81203874],[-3.6318257,47.81212637],[-3.63168987,47.8121124],[-3.63158066,47.81218272],[-3.6308951,47.81240494],[-3.62962301,47.81354554],[-3.62923368,47.81384218],[-3.62688099,47.81435124],[-3.62612115,47.81456951],[-3.62540629,47.81483671],[-3.62524883,47.81473544],[-3.62369201,47.81463847],[-3.62216345,47.81418763],[-3.62164382,47.81408519],[-3.62107469,47.81408038],[-3.61974381,47.81419275],[-3.61937452,47.81418836],[-3.61747159,47.81392845],[-3.61596212,47.81398495],[-3.61498554,47.81398148],[-3.60888026,47.81352643],[-3.60841754,47.81351464],[-3.60774626,47.8135616],[-3.60690766,47.81375078],[-3.60643687,47.81392188],[-3.60370422,47.81546257],[-3.60335092,47.81564057],[-3.60248894,47.81595477],[-3.59987235,47.81627405],[-3.59946728,47.8163809],[-3.59907589,47.81654388],[-3.59874989,47.81674742],[-3.59743713,47.81782579],[-3.59664675,47.81830659],[-3.59560047,47.81881085],[-3.59426786,47.81930957],[-3.59265048,47.81962111],[-3.58504452,47.82071247],[-3.58439935,47.82081923],[-3.5827548,47.82119357],[-3.58211594,47.82058378],[-3.5813718,47.82007653]]]]},"bbox":[-3.67035114,47.76933441,-3.5813718,47.82119357]},{"type":"Feature","id":"fr-quartier-29150-7f93ec69ea20","properties":{"id":"fr-quartier-29150-7f93ec69ea20","kind":"quartier","name":"Kergroes","cityCode":"29150","cityName":"Moëlan-sur-Mer","sourceType":"iris","sourceIds":["291500103"],"colorIndex":2,"center":[-3.683990881962904,47.802094022610696]},"geometry":{"type":"MultiPolygon","coordinates":[[[[-3.67378987,47.77625302],[-3.67411378,47.77615413],[-3.67456444,47.77632801],[-3.67449881,47.77644557],[-3.67396032,47.77642574],[-3.6739345,47.77638024],[-3.67385941,47.77631588],[-3.67378987,47.77625302]]],[[[-3.67256632,47.77770215],[-3.67216696,47.77750998],[-3.67212611,47.77732353],[-3.67233346,47.77732072],[-3.67266552,47.77768113],[-3.67256632,47.77770215]]],[[[-3.67144967,47.77785894],[-3.67183511,47.777855],[-3.67204084,47.77804197],[-3.67168907,47.77807921],[-3.67144967,47.77785894]]],[[[-3.68797422,47.77900099],[-3.68793089,47.77915702],[-3.68803327,47.77921439],[-3.68793665,47.7792985],[-3.68775985,47.77927791],[-3.68759456,47.77910401],[-3.68761047,47.77898567],[-3.68797422,47.77900099]]],[[[-3.7048923,47.78775089],[-3.7050006,47.78760016],[-3.70494521,47.78745881],[-3.70508326,47.78740573],[-3.7050342,47.78734621],[-3.70541302,47.78737416],[-3.70535498,47.78744524],[-3.70558963,47.78739294],[-3.70556313,47.78752272],[-3.70528684,47.78763793],[-3.70526405,47.78770157],[-3.70514355,47.78768138],[-3.70505329,47.78781573],[-3.7048923,47.78775089]]],[[[-3.66917221,47.78904467],[-3.66890992,47.78865317],[-3.66895259,47.78847009],[-3.66916991,47.7883222],[-3.66887314,47.78822171],[-3.6685955,47.78780399],[-3.66875953,47.78671977],[-3.66908052,47.78639436],[-3.66990408,47.78582348],[-3.67017244,47.78547397],[-3.67022043,47.78523729],[-3.67036515,47.78517303],[-3.67056164,47.78538221],[-3.67107286,47.78564297],[-3.67117428,47.78567151],[-3.67129245,47.78558799],[-3.67063369,47.78497434],[-3.67062371,47.78486291],[-3.67057874,47.78483567],[-3.67062484,47.78481859],[-3.6708738,47.7844214],[-3.67100609,47.78397036],[-3.67090557,47.78305297],[-3.67101164,47.78296924],[-3.6709281,47.78278432],[-3.67110138,47.78270217],[-3.67071414,47.78237201],[-3.67057749,47.78236174],[-3.6702568,47.7821452],[-3.67013017,47.78192662],[-3.67022904,47.78190291],[-3.6701636,47.78184071],[-3.67013068,47.781792],[-3.67004837,47.78172354],[-3.67033117,47.7817345],[-3.66998535,47.78159526],[-3.67022286,47.7814697],[-3.67016983,47.78134627],[-3.67028976,47.78131956],[-3.67026061,47.78126883],[-3.67028833,47.78121215],[-3.67020457,47.78119616],[-3.67013578,47.78111789],[-3.67010403,47.78109983],[-3.67015545,47.78108244],[-3.67019626,47.78091663],[-3.67044534,47.78097919],[-3.67054243,47.78089867],[-3.67119609,47.7809815],[-3.67070008,47.78076683],[-3.67067258,47.7806546],[-3.67052527,47.7806341],[-3.67031189,47.78045027],[-3.6705613,47.78051552],[-3.67048816,47.78037066],[-3.67077044,47.78034552],[-3.67059581,47.7801929],[-3.67083996,47.78017355],[-3.6707889,47.77998045],[-3.6710229,47.77993368],[-3.67100134,47.77985813],[-3.67122832,47.7798515],[-3.67120612,47.77978141],[-3.67135541,47.77974308],[-3.67166419,47.77993952],[-3.67155109,47.77966868],[-3.67143144,47.77961228],[-3.67154949,47.77942128],[-3.6719474,47.77949521],[-3.67184807,47.77934462],[-3.67198203,47.7793442],[-3.67255707,47.77954802],[-3.67239613,47.77936572],[-3.67251221,47.77929767],[-3.67263171,47.7793315],[-3.67246813,47.77916019],[-3.67252814,47.77911521],[-3.67255782,47.77909545],[-3.67256806,47.77905964],[-3.67262435,47.77903836],[-3.67237849,47.77886272],[-3.67229293,47.77888567],[-3.67220918,47.7787098],[-3.67230719,47.77870059],[-3.67230162,47.77868826],[-3.67226518,47.77865421],[-3.67229842,47.77864147],[-3.672006,47.77846849],[-3.67207313,47.77843756],[-3.67194631,47.77834544],[-3.67227023,47.77829985],[-3.67199785,47.77822236],[-3.67220199,47.77810864],[-3.67228924,47.77809914],[-3.6722788,47.77803741],[-3.67227262,47.77799893],[-3.67218959,47.77800999],[-3.67192015,47.77779595],[-3.67211745,47.77775578],[-3.67245707,47.77790981],[-3.67258509,47.77783024],[-3.67286086,47.77744416],[-3.67260817,47.77728878],[-3.67264888,47.7771862],[-3.67294756,47.77721701],[-3.67297848,47.77715383],[-3.67302989,47.77713644],[-3.6730347,47.77710003],[-3.67344853,47.77693821],[-3.67344146,47.77700997],[-3.67349926,47.77702202],[-3.67359928,47.77685824],[-3.67391495,47.77696035],[-3.67386068,47.77682705],[-3.67401522,47.7768092],[-3.67368216,47.77661144],[-3.67370108,47.77653809],[-3.67382587,47.77650748],[-3.67380608,47.7764779],[-3.67482883,47.77651253],[-3.67492616,47.77655123],[-3.67495949,47.77647526],[-3.67510349,47.7764589],[-3.67528975,47.77655485],[-3.67527498,47.77643736],[-3.67558076,47.77641809],[-3.67566329,47.77664822],[-3.67587583,47.7764202],[-3.67619721,47.77659966],[-3.67611271,47.7763859],[-3.67645958,47.77650157],[-3.67654364,47.77640283],[-3.67670409,47.77639998],[-3.67669247,47.7763609],[-3.67667919,47.77631921],[-3.67672941,47.77631363],[-3.67678761,47.7763076],[-3.67688798,47.77615734],[-3.67704522,47.776161],[-3.67688897,47.7759947],[-3.67704781,47.77602175],[-3.67697316,47.7758544],[-3.67704798,47.77584199],[-3.67698092,47.77574556],[-3.67709567,47.77574172],[-3.67708304,47.77569457],[-3.677158,47.7756406],[-3.67729212,47.77567359],[-3.67730358,47.7756368],[-3.67733212,47.77560807],[-3.67725065,47.77556757],[-3.67754246,47.77550121],[-3.67765276,47.77558975],[-3.67762444,47.77562028],[-3.67771387,47.77564949],[-3.67758428,47.77582309],[-3.67766562,47.77590516],[-3.67760233,47.77617975],[-3.67796598,47.77625833],[-3.67793035,47.77634798],[-3.67782096,47.7763732],[-3.67785251,47.7764003],[-3.67769322,47.77658283],[-3.67822411,47.77646759],[-3.67851389,47.77653413],[-3.67844597,47.77661208],[-3.67887701,47.7766299],[-3.67902212,47.77692058],[-3.67926099,47.77693403],[-3.67921741,47.77698168],[-3.67950362,47.77709449],[-3.67948454,47.77703868],[-3.67955523,47.77701476],[-3.6799102,47.77707757],[-3.68013444,47.77703856],[-3.68013322,47.77698624],[-3.68024472,47.77696722],[-3.68021606,47.77688847],[-3.68042567,47.77701017],[-3.68041135,47.77694957],[-3.68063707,47.77687976],[-3.68072716,47.77695681],[-3.68087137,47.7769314],[-3.68109091,47.77713202],[-3.68104399,47.77691882],[-3.68163233,47.77701526],[-3.68174025,47.77712741],[-3.68183209,47.77709055],[-3.68189981,47.77712823],[-3.68225236,47.77709723],[-3.68225001,47.77723827],[-3.68248353,47.77733692],[-3.68247272,47.77741071],[-3.68280298,47.77747944],[-3.68295354,47.77777071],[-3.68287198,47.77779344],[-3.6828975,47.77790037],[-3.68274195,47.77796346],[-3.6827831,47.77806679],[-3.6829945,47.77813871],[-3.68309823,47.77831343],[-3.68303954,47.77840079],[-3.68334659,47.77849794],[-3.68343097,47.77864667],[-3.68345177,47.77882252],[-3.68338815,47.77883881],[-3.68344681,47.77888965],[-3.68326817,47.77893961],[-3.68330584,47.77902597],[-3.68312698,47.77907414],[-3.68318113,47.7791424],[-3.68310814,47.77917999],[-3.6831447,47.77926823],[-3.68330158,47.77920506],[-3.6833215,47.77938458],[-3.6834271,47.77935053],[-3.68350164,47.7794104],[-3.68359628,47.77918279],[-3.68368587,47.77918128],[-3.68367707,47.77911133],[-3.68385278,47.77903805],[-3.68386024,47.77900149],[-3.68400107,47.77900247],[-3.68408669,47.77910777],[-3.68427734,47.77897222],[-3.68422463,47.77895807],[-3.68424695,47.77892247],[-3.68431386,47.77894303],[-3.68444048,47.7788843],[-3.68492097,47.77928406],[-3.68470583,47.77898023],[-3.68475756,47.77895469],[-3.68509164,47.77913881],[-3.68506047,47.77923182],[-3.68539987,47.77926661],[-3.68557174,47.77946091],[-3.68549654,47.77950225],[-3.68536607,47.7794239],[-3.68558447,47.77974291],[-3.68552291,47.77988192],[-3.68571454,47.77998838],[-3.68592083,47.77999826],[-3.68597414,47.77988952],[-3.6860803,47.77995571],[-3.68606927,47.77968717],[-3.68619059,47.77969287],[-3.6862722,47.77978756],[-3.68631983,47.77976136],[-3.6866817,47.77982556],[-3.68682499,47.77959064],[-3.68681772,47.77956486],[-3.68689744,47.7795594],[-3.68689211,47.77941066],[-3.68720888,47.77948919],[-3.6872873,47.77945218],[-3.68736363,47.77951556],[-3.68735503,47.7795856],[-3.6874108,47.77958151],[-3.68754577,47.77968489],[-3.68746469,47.77987108],[-3.68743703,47.77989615],[-3.68751903,47.77991946],[-3.68742096,47.78004521],[-3.68766041,47.78015887],[-3.68762173,47.78030922],[-3.68785781,47.78035351],[-3.68790006,47.78040168],[-3.68783717,47.78044502],[-3.68804079,47.78055079],[-3.68796189,47.78057338],[-3.68799287,47.78073419],[-3.68811482,47.78081934],[-3.68787696,47.78086728],[-3.6881221,47.78108991],[-3.68882119,47.78100112],[-3.68883337,47.78108714],[-3.68904081,47.78102107],[-3.68927458,47.7811215],[-3.68915443,47.78114645],[-3.68924115,47.78123904],[-3.68945001,47.7811205],[-3.68955556,47.78129872],[-3.6897152,47.781183],[-3.68982593,47.78121098],[-3.68995119,47.78114149],[-3.69010296,47.78121861],[-3.69014019,47.78120564],[-3.69015069,47.78123575],[-3.69031671,47.78128767],[-3.6903329,47.7811928],[-3.69049761,47.78115989],[-3.69056666,47.78123994],[-3.69042002,47.78136305],[-3.69058278,47.78163375],[-3.69048864,47.7816843],[-3.69066154,47.78173763],[-3.690953,47.78202986],[-3.69095535,47.7822718],[-3.69092754,47.78228514],[-3.6910178,47.78237391],[-3.6909248,47.78239098],[-3.69093683,47.78250771],[-3.69148642,47.78259367],[-3.69167632,47.78270745],[-3.69158244,47.78249424],[-3.69196376,47.78252118],[-3.69225873,47.78288366],[-3.69261201,47.78300706],[-3.69261028,47.78288702],[-3.69292291,47.78302809],[-3.69295152,47.78293613],[-3.69334914,47.78291155],[-3.69340295,47.78306202],[-3.69328356,47.78312486],[-3.69356368,47.78330574],[-3.6936009,47.78333522],[-3.69350526,47.78336328],[-3.6934601,47.78367478],[-3.69361423,47.78366415],[-3.69365806,47.78390552],[-3.69386537,47.78396591],[-3.69378,47.78416049],[-3.69393346,47.78424022],[-3.69395238,47.78417771],[-3.69426613,47.78441266],[-3.69393734,47.78437729],[-3.69391031,47.78448181],[-3.69375431,47.78454133],[-3.69385191,47.7846351],[-3.69371305,47.78472435],[-3.69384511,47.78476195],[-3.69357207,47.78484985],[-3.69364804,47.78508035],[-3.69400793,47.78504348],[-3.69417364,47.78518845],[-3.69439208,47.78522019],[-3.69439487,47.78513603],[-3.69470157,47.7851555],[-3.69470887,47.78496901],[-3.69478952,47.785024],[-3.69500928,47.78500238],[-3.69504937,47.78511841],[-3.69539443,47.78513388],[-3.69553896,47.78528096],[-3.69560247,47.78526377],[-3.6956607,47.78526857],[-3.6957513,47.78526428],[-3.69577985,47.78537375],[-3.69595455,47.78538813],[-3.69587546,47.78555796],[-3.69602915,47.78563948],[-3.6957366,47.78564721],[-3.69553215,47.78575828],[-3.69571491,47.78584717],[-3.69595004,47.78585176],[-3.69595616,47.78599594],[-3.69574971,47.7860168],[-3.69589901,47.78611664],[-3.69543534,47.78635095],[-3.69494693,47.78685676],[-3.69499328,47.78699049],[-3.69531877,47.78711637],[-3.69531805,47.78718506],[-3.69560467,47.78710903],[-3.69590634,47.78670605],[-3.69602644,47.78670188],[-3.69616168,47.78654148],[-3.69636694,47.78653243],[-3.6963044,47.78635536],[-3.69629418,47.78634872],[-3.69633118,47.78633395],[-3.69637264,47.78628009],[-3.69647388,47.78631765],[-3.69658971,47.78606713],[-3.69685848,47.78617909],[-3.69697417,47.78613995],[-3.69694842,47.78604206],[-3.6971153,47.78598372],[-3.69723612,47.78604906],[-3.69733012,47.78602922],[-3.6973522,47.78607673],[-3.69743512,47.78610721],[-3.69739587,47.78615733],[-3.6974404,47.78622343],[-3.69800964,47.78616733],[-3.69794664,47.78625223],[-3.69822389,47.7863357],[-3.69831783,47.78629419],[-3.69840719,47.78646069],[-3.69848429,47.78642375],[-3.69878602,47.78658441],[-3.69885828,47.78651975],[-3.69912084,47.78658238],[-3.69921824,47.78650454],[-3.69995314,47.78669907],[-3.70024418,47.78688111],[-3.70049366,47.78694629],[-3.70064983,47.78690934],[-3.70069686,47.78695271],[-3.70063066,47.78700167],[-3.70070372,47.78712394],[-3.7008489,47.78721227],[-3.70092201,47.78717556],[-3.70094576,47.78718323],[-3.70090394,47.78722357],[-3.70102013,47.78729459],[-3.70104442,47.7872959],[-3.7010374,47.78732521],[-3.70126338,47.78748026],[-3.70119679,47.78754731],[-3.70126802,47.78760194],[-3.70122255,47.78764519],[-3.70129069,47.78774968],[-3.70120714,47.78782041],[-3.70160783,47.78807474],[-3.70195583,47.78801776],[-3.70189939,47.78811222],[-3.70209903,47.78819652],[-3.7032231,47.7885006],[-3.70344054,47.78852427],[-3.70388313,47.7884203],[-3.70398389,47.78857079],[-3.70393352,47.78898918],[-3.70404833,47.78920842],[-3.70438444,47.78931199],[-3.70434939,47.78939529],[-3.7045298,47.78950779],[-3.70480852,47.78959207],[-3.70484491,47.78955114],[-3.70487786,47.78955738],[-3.7048658,47.789568],[-3.70499251,47.78966913],[-3.70543573,47.78976113],[-3.70558727,47.78994213],[-3.70572425,47.78994421],[-3.70580246,47.79003276],[-3.7059233,47.78992827],[-3.70602596,47.78999826],[-3.7055106,47.79022654],[-3.70557423,47.7902527],[-3.70554303,47.79032404],[-3.70564323,47.79047004],[-3.70584928,47.79054133],[-3.7062385,47.79030131],[-3.70649759,47.79067576],[-3.70688951,47.79057378],[-3.707112,47.79065857],[-3.70758389,47.79068027],[-3.70761948,47.79063306],[-3.70774636,47.79067185],[-3.70806399,47.7907033],[-3.70814333,47.79084327],[-3.70825285,47.79081892],[-3.708467,47.79093309],[-3.70840415,47.79098728],[-3.70857799,47.79120674],[-3.70845513,47.79126347],[-3.70847773,47.79129379],[-3.70853403,47.7913574],[-3.70846605,47.79140285],[-3.70851725,47.79155347],[-3.70833202,47.79159391],[-3.70851809,47.79169795],[-3.70828101,47.79172059],[-3.70823156,47.79197634],[-3.70851916,47.79201404],[-3.70849013,47.79194344],[-3.70870212,47.79191321],[-3.70872805,47.79182139],[-3.70900443,47.79181276],[-3.70898532,47.79188431],[-3.70932552,47.79185033],[-3.70934708,47.7919891],[-3.70968386,47.79200229],[-3.7096837,47.79210708],[-3.70972374,47.79210569],[-3.71000627,47.79211386],[-3.70997326,47.79217085],[-3.70988995,47.79216931],[-3.70984381,47.79220719],[-3.71010383,47.79230246],[-3.71009802,47.79244732],[-3.71023758,47.79245918],[-3.71028373,47.7924213],[-3.71037689,47.79245841],[-3.71027378,47.79255466],[-3.71041647,47.79265486],[-3.71036664,47.79268482],[-3.71044225,47.79275274],[-3.71035876,47.7928027],[-3.71049078,47.79297758],[-3.71079556,47.7931299],[-3.71078248,47.79317492],[-3.7108659,47.79317735],[-3.71106302,47.79326269],[-3.71110792,47.79345883],[-3.71134474,47.79358254],[-3.71170225,47.79354756],[-3.71172837,47.79360568],[-3.71173599,47.79363414],[-3.71161905,47.79370589],[-3.71169728,47.79383689],[-3.71208874,47.79380539],[-3.71195655,47.79389427],[-3.71208633,47.79397715],[-3.71199062,47.79410007],[-3.71209475,47.79421332],[-3.71229913,47.79415462],[-3.7123669,47.79427719],[-3.71249012,47.79399009],[-3.71285144,47.79373088],[-3.71313089,47.79386297],[-3.71303092,47.79377206],[-3.71332051,47.79384666],[-3.71335349,47.79377883],[-3.71354378,47.79379951],[-3.71364631,47.79397428],[-3.71393648,47.79393684],[-3.71387641,47.79399178],[-3.71419208,47.79414527],[-3.71417377,47.7942231],[-3.71444001,47.7943144],[-3.71450652,47.79441626],[-3.71447379,47.79445428],[-3.71456883,47.79448495],[-3.7145334,47.79458634],[-3.71462518,47.7946443],[-3.71455491,47.79481996],[-3.71498285,47.79482248],[-3.71494552,47.79491947],[-3.71449524,47.79505824],[-3.7150127,47.79510078],[-3.71512081,47.79524542],[-3.71541958,47.79538182],[-3.71564198,47.79538079],[-3.71583561,47.79552322],[-3.71604264,47.79553843],[-3.71626932,47.79544411],[-3.71650989,47.79562901],[-3.71695161,47.79579332],[-3.71705999,47.79595059],[-3.71758888,47.79610447],[-3.71747941,47.7963411],[-3.71768315,47.79644682],[-3.71773484,47.79641043],[-3.71777681,47.7965408],[-3.71792531,47.79652775],[-3.71793194,47.79655898],[-3.71811909,47.79675598],[-3.71832342,47.79683457],[-3.71831104,47.79692742],[-3.71855668,47.79686633],[-3.71854036,47.79705515],[-3.71879855,47.79711438],[-3.71859629,47.7971793],[-3.71863117,47.7972324],[-3.71885802,47.79723471],[-3.71889697,47.79739416],[-3.71917917,47.79754776],[-3.71963974,47.79758543],[-3.71974976,47.79750142],[-3.7198345,47.79753539],[-3.71982287,47.79758122],[-3.71987328,47.7975982],[-3.71993995,47.7975212],[-3.72010977,47.79759183],[-3.72028063,47.79756485],[-3.72059979,47.79772445],[-3.72075542,47.79772544],[-3.72074408,47.79775228],[-3.72096016,47.79790245],[-3.72106466,47.7978278],[-3.72143228,47.79783015],[-3.72131328,47.79780086],[-3.72134656,47.79772487],[-3.72162921,47.7978396],[-3.72226411,47.79778232],[-3.72250724,47.79784963],[-3.72236879,47.79792083],[-3.722645,47.79799527],[-3.72261263,47.79807843],[-3.72303645,47.79802696],[-3.72313984,47.79810231],[-3.72288615,47.79821626],[-3.72308134,47.79834956],[-3.7227961,47.79837319],[-3.72280635,47.79846474],[-3.72252893,47.79850779],[-3.72274045,47.79868532],[-3.72276866,47.79869634],[-3.72274119,47.79871237],[-3.72295482,47.79885365],[-3.7230026,47.79888161],[-3.72293421,47.79893432],[-3.72295378,47.79902533],[-3.72317848,47.79908468],[-3.72299646,47.79920354],[-3.72275556,47.79921739],[-3.72274053,47.79931039],[-3.72271473,47.79932904],[-3.72279902,47.79935942],[-3.72278237,47.79942903],[-3.72243054,47.79937157],[-3.72246669,47.79947699],[-3.7224283,47.79951262],[-3.7225587,47.79956835],[-3.72221412,47.7995999],[-3.72224118,47.79970765],[-3.721918,47.79969642],[-3.72180285,47.79984576],[-3.72163504,47.79989696],[-3.72169495,47.80001004],[-3.72160801,47.80009633],[-3.72183596,47.80012839],[-3.72183394,47.80019716],[-3.72163782,47.80023644],[-3.72168581,47.80037188],[-3.72153711,47.80039398],[-3.72157699,47.80048653],[-3.72133983,47.80052997],[-3.7214836,47.80060662],[-3.72127314,47.80063859],[-3.72123489,47.80076002],[-3.72098938,47.80083285],[-3.72054217,47.80085856],[-3.72027583,47.80143391],[-3.72046953,47.80196836],[-3.72079316,47.80235352],[-3.72098393,47.80237779],[-3.72132832,47.80223875],[-3.72148177,47.80228594],[-3.72187008,47.80207031],[-3.72262259,47.80218963],[-3.72285877,47.80214896],[-3.72302748,47.80232714],[-3.72258249,47.80243402],[-3.72286139,47.80250831],[-3.72293024,47.80260733],[-3.72268861,47.80260497],[-3.72279094,47.80269302],[-3.72316356,47.80279806],[-3.72284313,47.80286165],[-3.72298951,47.80291646],[-3.7229783,47.80298666],[-3.72247515,47.80297313],[-3.72257474,47.80303967],[-3.72258555,47.80309325],[-3.72264788,47.80316193],[-3.72251173,47.80318782],[-3.72269967,47.80330618],[-3.72266924,47.80340459],[-3.72220314,47.80350365],[-3.72188226,47.80375424],[-3.72167258,47.80379249],[-3.72162411,47.80390729],[-3.72120748,47.80393124],[-3.72137113,47.80404829],[-3.72127104,47.80411547],[-3.7211899,47.80414181],[-3.72126226,47.80422617],[-3.72120504,47.80427191],[-3.72127249,47.80430688],[-3.7209521,47.80434968],[-3.72103587,47.80442888],[-3.7208864,47.80445553],[-3.72097982,47.80468502],[-3.72051184,47.8047905],[-3.7204921,47.80505811],[-3.72013077,47.80506352],[-3.72024726,47.80517877],[-3.71997678,47.8053298],[-3.72006391,47.80538261],[-3.71951453,47.80561832],[-3.71956417,47.80567147],[-3.71927811,47.80573127],[-3.71906908,47.80599711],[-3.71883484,47.80594734],[-3.71886019,47.80604163],[-3.71868041,47.80610435],[-3.71879409,47.80616556],[-3.7187806,47.80626028],[-3.71848029,47.80622876],[-3.71842619,47.80639446],[-3.71874848,47.80643014],[-3.71879801,47.80652484],[-3.71836421,47.80667804],[-3.71822565,47.80687569],[-3.71801701,47.80693284],[-3.7180575,47.8070091],[-3.71709782,47.80705429],[-3.71643697,47.80696038],[-3.71612357,47.80677243],[-3.71601476,47.80682384],[-3.715793,47.80659721],[-3.71533731,47.80638672],[-3.71396256,47.80654245],[-3.71321088,47.80685388],[-3.712998,47.80718496],[-3.71260467,47.80729787],[-3.71246581,47.8078749],[-3.71203846,47.80820655],[-3.71217696,47.80837925],[-3.71194056,47.80867284],[-3.71208995,47.80877266],[-3.71157947,47.80913617],[-3.71179079,47.80932276],[-3.71161631,47.80945923],[-3.71154818,47.80977929],[-3.71174856,47.80985812],[-3.71185649,47.80996935],[-3.71180186,47.81003571],[-3.71197995,47.81016098],[-3.71182648,47.81067562],[-3.71079191,47.81147568],[-3.70889799,47.81229884],[-3.70850168,47.81260069],[-3.70851252,47.81275001],[-3.70834092,47.81277159],[-3.70825952,47.81291266],[-3.70793226,47.81310305],[-3.7078661,47.81325859],[-3.70752318,47.81319787],[-3.70721242,47.81288239],[-3.7070591,47.81293183],[-3.70700774,47.81285439],[-3.70613518,47.81257112],[-3.70589009,47.812372],[-3.70551523,47.81227065],[-3.70543351,47.81233496],[-3.70496599,47.8122326],[-3.70407176,47.81252052],[-3.7033601,47.81253422],[-3.70290233,47.81246652],[-3.70218707,47.81194207],[-3.70172608,47.81174267],[-3.70164918,47.81161159],[-3.70205436,47.81108254],[-3.70189169,47.81055894],[-3.70171373,47.81030719],[-3.70077419,47.80962035],[-3.70142056,47.80947221],[-3.7016187,47.80924678],[-3.7015946,47.80919397],[-3.70121522,47.80922655],[-3.70097204,47.80914835],[-3.70115726,47.80894805],[-3.70114905,47.8087769],[-3.70081985,47.80820864],[-3.7005588,47.80816941],[-3.70018996,47.80832784],[-3.69989852,47.8082497],[-3.69898908,47.80848065],[-3.69939135,47.80859761],[-3.70038812,47.80867598],[-3.69983244,47.80927688],[-3.69974295,47.8097788],[-3.6999958,47.81025208],[-3.70067431,47.8106558],[-3.7007831,47.81084828],[-3.70063775,47.81110952],[-3.70027007,47.81138351],[-3.70031586,47.81197975],[-3.69959399,47.81220988],[-3.69893916,47.81222753],[-3.69867277,47.81236924],[-3.69975949,47.812671],[-3.69988836,47.81277833],[-3.70059118,47.81277962],[-3.70146344,47.812997],[-3.70168511,47.81324444],[-3.7021531,47.8134886],[-3.70224308,47.81387184],[-3.70166381,47.81437112],[-3.70110035,47.81511247],[-3.70066237,47.81537151],[-3.70040728,47.81620809],[-3.70003285,47.81654569],[-3.70033424,47.81680843],[-3.69990033,47.81688748],[-3.69984723,47.81708292],[-3.69925781,47.81740663],[-3.6981405,47.81769192],[-3.69796814,47.81785625],[-3.69791329,47.8181123],[-3.69740701,47.81827679],[-3.6970991,47.81847236],[-3.69728919,47.81873516],[-3.69704426,47.81886661],[-3.69702731,47.81896603],[-3.6955769,47.8190563],[-3.69485571,47.81897384],[-3.69324491,47.81896216],[-3.69279424,47.81886601],[-3.69256565,47.81849973],[-3.69217356,47.81844268],[-3.69122873,47.81871351],[-3.69079768,47.81869843],[-3.69000987,47.81883201],[-3.68938683,47.81910249],[-3.68851655,47.81932659],[-3.68824398,47.81927082],[-3.68809895,47.81903524],[-3.68760048,47.81918749],[-3.68654111,47.81908186],[-3.68629153,47.81898503],[-3.68574533,47.81893948],[-3.68526869,47.81863704],[-3.68512963,47.81862963],[-3.68497054,47.81875073],[-3.68472861,47.81874649],[-3.68432163,47.8189224],[-3.68414108,47.81917117],[-3.68361338,47.81926185],[-3.68348501,47.81937125],[-3.68344873,47.81962623],[-3.68368529,47.8200562],[-3.68355514,47.82006635],[-3.68363464,47.82063356],[-3.68355781,47.82086466],[-3.68332847,47.8208859],[-3.68202609,47.8214598],[-3.68181926,47.82162788],[-3.68142916,47.82172513],[-3.6812907,47.82169059],[-3.68119192,47.82153455],[-3.68095586,47.82148119],[-3.68092854,47.8217754],[-3.68080135,47.82187299],[-3.68085835,47.82205942],[-3.68049496,47.82229424],[-3.67969906,47.82236408],[-3.67904339,47.8219499],[-3.67895109,47.82248447],[-3.67816695,47.82276499],[-3.67702854,47.82288417],[-3.67619956,47.82279781],[-3.67601403,47.82270905],[-3.67549121,47.82303063],[-3.6742686,47.82322685],[-3.67371429,47.82319164],[-3.67346873,47.8230521],[-3.67332686,47.82313968],[-3.67336819,47.82348958],[-3.67280604,47.82386127],[-3.6722411,47.82406149],[-3.67174363,47.82437168],[-3.67106708,47.82443104],[-3.66956617,47.82422759],[-3.66916207,47.82410702],[-3.66912234,47.82399367],[-3.66928857,47.82375839],[-3.6692312,47.82359005],[-3.66908958,47.82353038],[-3.66836629,47.82375136],[-3.66551242,47.82377402],[-3.66513379,47.82385611],[-3.6641139,47.82352041],[-3.66400379,47.8233912],[-3.66428573,47.82329746],[-3.66439598,47.82278718],[-3.66528936,47.82242557],[-3.66572282,47.822353],[-3.66593343,47.82216126],[-3.66559941,47.82211797],[-3.6650498,47.82179974],[-3.66456344,47.82177145],[-3.66447475,47.82170605],[-3.66438314,47.82185218],[-3.66447778,47.82190098],[-3.66414383,47.82195433],[-3.66393265,47.82219487],[-3.66312842,47.82251888],[-3.66282508,47.82255965],[-3.66203483,47.82246105],[-3.66173466,47.82229208],[-3.66167761,47.82216888],[-3.66121261,47.82210775],[-3.66109438,47.82196725],[-3.66105663,47.8214636],[-3.66123006,47.82126405],[-3.6610035,47.82105115],[-3.66131453,47.82047344],[-3.66129396,47.82014945],[-3.66113614,47.8198965],[-3.66090963,47.8204423],[-3.66057887,47.82065985],[-3.66037439,47.82099665],[-3.6600593,47.82116814],[-3.65998122,47.82144355],[-3.66011049,47.82155451],[-3.65972807,47.82149951],[-3.65933968,47.82164266],[-3.65920352,47.82184008],[-3.65935264,47.82206643],[-3.65929817,47.82245521],[-3.65870341,47.82263177],[-3.65765926,47.82254037],[-3.65611559,47.82199507],[-3.65605022,47.82173054],[-3.65569842,47.82147056],[-3.65571845,47.82118129],[-3.65597988,47.82096681],[-3.6558556,47.82077788],[-3.65521673,47.82092352],[-3.6548656,47.82111782],[-3.65430014,47.82110031],[-3.65385298,47.82127749],[-3.65315683,47.82128729],[-3.65264783,47.82118527],[-3.65246095,47.8209141],[-3.65261707,47.82083296],[-3.65261005,47.82061659],[-3.6523827,47.8200334],[-3.65228541,47.81998474],[-3.65230757,47.81982994],[-3.65200479,47.81980019],[-3.65264068,47.81920313],[-3.6529673,47.81854598],[-3.65296821,47.81822167],[-3.65289435,47.81804975],[-3.65253039,47.81766039],[-3.65266587,47.81758585],[-3.65280197,47.8175483],[-3.65363387,47.81765904],[-3.65463339,47.81759856],[-3.65602847,47.81764472],[-3.65640048,47.81754226],[-3.65686463,47.81732978],[-3.65811028,47.81664469],[-3.65843068,47.81653703],[-3.66048383,47.81643096],[-3.66086744,47.81636757],[-3.66120849,47.81590105],[-3.66158956,47.81517663],[-3.66177771,47.81496631],[-3.66201856,47.81487672],[-3.66336187,47.81462857],[-3.66435319,47.81437519],[-3.6650765,47.81416597],[-3.66625353,47.81372585],[-3.66723667,47.81345032],[-3.66721097,47.81318172],[-3.66700574,47.81245548],[-3.6668231,47.81233583],[-3.6663512,47.81216582],[-3.66617124,47.81205685],[-3.66572774,47.81135503],[-3.66346101,47.80895789],[-3.66262931,47.80768385],[-3.65952649,47.80817312],[-3.65626861,47.80859164],[-3.65490961,47.80874576],[-3.65323463,47.80883927],[-3.65191288,47.80885214],[-3.64987693,47.80878277],[-3.64578104,47.8085595],[-3.64038057,47.80851765],[-3.63944949,47.80853439],[-3.63851118,47.80861114],[-3.63824231,47.80858395],[-3.63819756,47.80855849],[-3.63909644,47.8078129],[-3.64111936,47.80686798],[-3.64511339,47.80593658],[-3.64583079,47.80573413],[-3.64667855,47.80539511],[-3.64799719,47.80472674],[-3.65085327,47.80312549],[-3.65228227,47.80237582],[-3.65289961,47.80195321],[-3.65329278,47.80156052],[-3.65379111,47.80076623],[-3.65441535,47.80017431],[-3.65507122,47.79921479],[-3.6552745,47.79905057],[-3.65605519,47.79863762],[-3.65660111,47.79845841],[-3.65853872,47.79827039],[-3.65953487,47.79802578],[-3.66029882,47.79770407],[-3.66188184,47.79689129],[-3.6645313,47.79581808],[-3.66510254,47.79551003],[-3.66584079,47.79495219],[-3.66798917,47.79296448],[-3.66817111,47.79252416],[-3.66838182,47.79136322],[-3.66911123,47.79058637],[-3.66898364,47.79050965],[-3.66914496,47.79031076],[-3.66930011,47.78967867],[-3.66917221,47.78904467]]]]},"bbox":[-3.72317848,47.77550121,-3.63819756,47.82443104]}]}