{"type":"FeatureCollection","metadata":{"sourceType":"iris","referenceFile":"milhaud-quartiers.geojson","source":"IGN / INSEE - Contours IRIS WFS Géoplateforme","sourceUrl":"https://geoservices.ign.fr/contoursiris","license":"Licence Ouverte / Open Licence 2.0","sourceYear":"2026"},"features":[{"type":"Feature","id":"fr-quartier-30169-2d85074bfe94","properties":{"id":"fr-quartier-30169-2d85074bfe94","kind":"quartier","name":"Chemin des Garrigues","cityCode":"30169","cityName":"Milhaud","sourceType":"iris","sourceIds":["301690102"],"colorIndex":0,"center":[4.307610714122402,43.79304516536825]},"geometry":{"type":"MultiPolygon","coordinates":[[[[4.29400437,43.78204097],[4.29373722,43.78236724],[4.29348191,43.78327207],[4.29284184,43.78424716],[4.29302908,43.78516653],[4.29075136,43.78568853],[4.28921784,43.78588488],[4.28896152,43.78619751],[4.28875292,43.78669857],[4.28865814,43.78673749],[4.28838373,43.78762633],[4.2880474,43.7881379],[4.28712725,43.78810107],[4.28710039,43.78839839],[4.28672975,43.78915246],[4.28646346,43.78935451],[4.28620513,43.78941335],[4.28612797,43.78935216],[4.28511908,43.78995626],[4.28446123,43.78981732],[4.28361654,43.79081907],[4.28344354,43.7911379],[4.28327845,43.79125504],[4.28293986,43.79133643],[4.2827247,43.79160356],[4.28282844,43.79212974],[4.28225237,43.79214822],[4.28207285,43.79339592],[4.28157058,43.79327043],[4.2815549,43.79318062],[4.28118232,43.7931877],[4.28114282,43.79347616],[4.28098361,43.79352393],[4.28097626,43.79369502],[4.2813295,43.79382316],[4.28137487,43.79462813],[4.28064914,43.79467806],[4.27884686,43.79548042],[4.2785326,43.7957622],[4.2781417,43.79634009],[4.27735156,43.79678945],[4.27668226,43.79764329],[4.27625388,43.7979903],[4.27618476,43.79812251],[4.27642888,43.79826005],[4.27628104,43.79865058],[4.27567062,43.79858033],[4.27591598,43.79960886],[4.2752647,43.80171888],[4.274501,43.80246671],[4.27432831,43.80285843],[4.27431973,43.80297553],[4.27446062,43.80310798],[4.27442077,43.80332715],[4.27465049,43.80365386],[4.2733357,43.80588414],[4.27287444,43.80833123],[4.27383327,43.81042424],[4.27454554,43.81059772],[4.27603087,43.81166306],[4.27722745,43.81187315],[4.27772678,43.8121382],[4.27930419,43.81370372],[4.28066383,43.81458776],[4.28088604,43.81485336],[4.28117566,43.81496515],[4.28301643,43.81646093],[4.28423279,43.81666081],[4.28443331,43.81673405],[4.28470485,43.81698105],[4.28542479,43.81721377],[4.2859427,43.81719597],[4.28666185,43.81695168],[4.28702894,43.81691495],[4.28858553,43.81726377],[4.29012957,43.81738591],[4.29141623,43.81728428],[4.29318806,43.81681598],[4.29381752,43.81678421],[4.29493876,43.8171174],[4.29644614,43.8173767],[4.29646755,43.81727924],[4.29767567,43.81749617],[4.2988615,43.81760716],[4.29928761,43.81748778],[4.29920679,43.81737714],[4.30033606,43.81680477],[4.30123365,43.81561054],[4.30104256,43.81551562],[4.30119175,43.81529874],[4.30110081,43.81523502],[4.30120565,43.81503577],[4.30082971,43.81484675],[4.29988592,43.8146096],[4.29981415,43.81451416],[4.29943429,43.81437108],[4.29932088,43.81441204],[4.29876832,43.81421702],[4.29962868,43.81318975],[4.29998405,43.81302171],[4.30028598,43.81274451],[4.29991461,43.81220893],[4.2998429,43.81184258],[4.30167405,43.81273515],[4.3040259,43.81340365],[4.30511074,43.81225126],[4.30565086,43.81190189],[4.30668573,43.81063217],[4.30783916,43.80949513],[4.30848126,43.80904192],[4.30872522,43.80856918],[4.30850129,43.80839637],[4.30868181,43.8078128],[4.30975906,43.80595844],[4.31053934,43.80557196],[4.3120222,43.80401421],[4.31229492,43.80387682],[4.31251003,43.80388233],[4.31389591,43.80194772],[4.31487939,43.80105295],[4.31546695,43.80034206],[4.3163046,43.79953814],[4.32247809,43.80556909],[4.32230141,43.80491512],[4.32257675,43.80338717],[4.32277366,43.80271337],[4.32306066,43.80244258],[4.32596103,43.80029952],[4.32670996,43.7995875],[4.32709685,43.79901758],[4.32790124,43.79716367],[4.32870537,43.79631686],[4.32910618,43.79517167],[4.33023021,43.79360364],[4.33134967,43.79269627],[4.33354709,43.7911313],[4.33490795,43.79024433],[4.33741849,43.78890135],[4.33435772,43.78790746],[4.33400007,43.78759413],[4.33264792,43.78671967],[4.33289019,43.78640081],[4.33145405,43.78570556],[4.33125769,43.78596896],[4.33058626,43.78578366],[4.33130021,43.78507384],[4.33082325,43.78491676],[4.3303732,43.78452806],[4.3313705,43.78323698],[4.33252072,43.78136622],[4.33305833,43.78066214],[4.33341798,43.77989094],[4.33322096,43.77975205],[4.33583367,43.77562146],[4.33595801,43.77568024],[4.33614728,43.77554112],[4.33672485,43.77554124],[4.33967476,43.77511621],[4.34039549,43.77385815],[4.34056819,43.77391362],[4.34092501,43.77323963],[4.34078032,43.77321351],[4.34144527,43.77180314],[4.3417234,43.77185281],[4.34214748,43.77102949],[4.34164454,43.77071439],[4.34122508,43.77025155],[4.34017287,43.76955081],[4.34000143,43.76912452],[4.33943104,43.76873823],[4.3395856,43.76865623],[4.34135757,43.76483106],[4.34169304,43.76367314],[4.34130454,43.76362842],[4.3431639,43.75697799],[4.34327953,43.75571478],[4.34303904,43.75446136],[4.34310646,43.75394844],[4.34255199,43.7524361],[4.34247071,43.75283489],[4.34226291,43.75323885],[4.3415008,43.75414912],[4.34128381,43.75453249],[4.34064268,43.75679215],[4.34045858,43.75714901],[4.34009609,43.75757647],[4.33960939,43.75794965],[4.33739626,43.75936552],[4.33462997,43.76171962],[4.3279282,43.76819774],[4.32705592,43.76892747],[4.32678593,43.76912065],[4.32644065,43.76928056],[4.32590657,43.76933206],[4.32575814,43.76941126],[4.32568618,43.76952194],[4.32566961,43.76977143],[4.32560647,43.7698874],[4.32466392,43.77058826],[4.32319972,43.77155824],[4.32251435,43.77188966],[4.31868834,43.77336882],[4.31814622,43.77366608],[4.31777858,43.77393602],[4.3160299,43.77583004],[4.31561294,43.77633278],[4.3143036,43.77810897],[4.31282099,43.77970003],[4.31152442,43.78122763],[4.31097637,43.78197582],[4.31046128,43.78253642],[4.31151389,43.78309795],[4.31249713,43.78377551],[4.31474125,43.78564026],[4.31710666,43.7876943],[4.31513864,43.78974037],[4.31163367,43.79390191],[4.31107722,43.79434331],[4.31088044,43.79416028],[4.31061327,43.79453789],[4.31021632,43.79472896],[4.31016749,43.79471245],[4.30993165,43.79434268],[4.30919141,43.79354067],[4.30686273,43.79135191],[4.30370364,43.78902365],[4.30309321,43.78862325],[4.30182116,43.78764575],[4.29400437,43.78204097]]]]},"bbox":[4.27287444,43.7524361,4.34327953,43.81760716]},{"type":"Feature","id":"fr-quartier-30169-59c595baaa9d","properties":{"id":"fr-quartier-30169-59c595baaa9d","kind":"quartier","name":"Route de Montpellier","cityCode":"30169","cityName":"Milhaud","sourceType":"iris","sourceIds":["301690101"],"colorIndex":1,"center":[4.31389658560161,43.77586078253892]},"geometry":{"type":"MultiPolygon","coordinates":[[[[4.34222922,43.74857285],[4.34103763,43.7495901],[4.33967045,43.75047991],[4.3396097,43.75080195],[4.33992617,43.75095556],[4.34010322,43.75119998],[4.34012947,43.75168475],[4.34005568,43.75182065],[4.3399215,43.75187],[4.33970669,43.75176285],[4.33955421,43.75177282],[4.33945801,43.7520656],[4.33895103,43.75225993],[4.33873218,43.75251101],[4.33858959,43.75294386],[4.3383274,43.75325308],[4.33769813,43.7537405],[4.33694753,43.75403051],[4.33681942,43.75428678],[4.33626679,43.75476065],[4.33613397,43.75508087],[4.33624645,43.75537829],[4.33613172,43.75567579],[4.33638478,43.75614428],[4.33629076,43.75658463],[4.33602625,43.75679577],[4.33518843,43.75718134],[4.33451755,43.75769805],[4.33422504,43.75804003],[4.33365214,43.75823244],[4.3334027,43.75866479],[4.33279407,43.75934993],[4.33223054,43.76031891],[4.33197559,43.76035532],[4.32668376,43.76412515],[4.32273559,43.76679303],[4.32052087,43.76924897],[4.31918322,43.77096885],[4.31887755,43.77101665],[4.31869958,43.7712699],[4.31774216,43.77133009],[4.31672758,43.77111915],[4.31187026,43.76884587],[4.31153333,43.76850433],[4.31066782,43.76726197],[4.31038194,43.76627542],[4.30905547,43.76670266],[4.30891768,43.76703101],[4.3088613,43.76787768],[4.30775815,43.76873241],[4.30664964,43.77049529],[4.3063783,43.77052374],[4.30450771,43.77029686],[4.30372314,43.77134753],[4.30367261,43.77141924],[4.30450928,43.77167292],[4.30434303,43.77200791],[4.30456833,43.77213841],[4.30311064,43.77422853],[4.3033952,43.77439792],[4.30293572,43.77505591],[4.30307951,43.77515229],[4.30292611,43.77583362],[4.3019532,43.77767313],[4.30138593,43.77747111],[4.30075866,43.77812659],[4.29896425,43.77896699],[4.29834882,43.77948912],[4.29766703,43.77960524],[4.2962535,43.78026466],[4.29460629,43.78146773],[4.29400437,43.78204097],[4.30182116,43.78764575],[4.30309321,43.78862325],[4.30370364,43.78902365],[4.30686273,43.79135191],[4.30919141,43.79354067],[4.30993165,43.79434268],[4.31016749,43.79471245],[4.31021632,43.79472896],[4.31061327,43.79453789],[4.31088044,43.79416028],[4.31107722,43.79434331],[4.31163367,43.79390191],[4.31513864,43.78974037],[4.31710666,43.7876943],[4.31474125,43.78564026],[4.31249713,43.78377551],[4.31151389,43.78309795],[4.31046128,43.78253642],[4.31097637,43.78197582],[4.31152442,43.78122763],[4.31282099,43.77970003],[4.3143036,43.77810897],[4.31561294,43.77633278],[4.3160299,43.77583004],[4.31777858,43.77393602],[4.31814622,43.77366608],[4.31868834,43.77336882],[4.32251435,43.77188966],[4.32319972,43.77155824],[4.32466392,43.77058826],[4.32560647,43.7698874],[4.32566961,43.76977143],[4.32568618,43.76952194],[4.32575814,43.76941126],[4.32590657,43.76933206],[4.32644065,43.76928056],[4.32678593,43.76912065],[4.32705592,43.76892747],[4.3279282,43.76819774],[4.33462997,43.76171962],[4.33739626,43.75936552],[4.33960939,43.75794965],[4.34009609,43.75757647],[4.34045858,43.75714901],[4.34064268,43.75679215],[4.34128381,43.75453249],[4.3415008,43.75414912],[4.34226291,43.75323885],[4.34247071,43.75283489],[4.34255199,43.7524361],[4.34245107,43.749192],[4.34222922,43.74857285]]]]},"bbox":[4.29400437,43.74857285,4.34255199,43.79472896]}]}