{"type":"FeatureCollection","metadata":{"sourceType":"iris","referenceFile":"uzes-quartiers.geojson","source":"IGN / INSEE - Contours IRIS WFS Géoplateforme","sourceUrl":"https://geoservices.ign.fr/contoursiris","license":"Licence Ouverte / Open Licence 2.0","sourceYear":"2026"},"features":[{"type":"Feature","id":"fr-quartier-30334-afb7113ccd90","properties":{"id":"fr-quartier-30334-afb7113ccd90","kind":"quartier","name":"Centre Est","cityCode":"30334","cityName":"Uzès","sourceType":"iris","sourceIds":["303340101"],"colorIndex":0,"center":[4.423796380624846,44.01273449799267]},"geometry":{"type":"MultiPolygon","coordinates":[[[[4.41718836,44.01528581],[4.41820571,44.01536714],[4.4189838,44.01530754],[4.41973661,44.01533468],[4.42005198,44.0153765],[4.42040365,44.01547365],[4.42125548,44.01601977],[4.42134188,44.01603305],[4.42165103,44.01627568],[4.42174135,44.01704593],[4.42193225,44.01714786],[4.42218601,44.0173696],[4.42238731,44.01768834],[4.42254987,44.01775464],[4.42281332,44.01796454],[4.42352538,44.01835585],[4.42375222,44.01844831],[4.42487345,44.01874066],[4.42543457,44.0190313],[4.42675109,44.01910146],[4.42759085,44.01901219],[4.42798198,44.01884056],[4.42825979,44.01902507],[4.43078467,44.01977521],[4.43134975,44.01878215],[4.43137745,44.01859366],[4.43118213,44.0179193],[4.43093591,44.01760207],[4.43086167,44.01717907],[4.43092687,44.01694418],[4.43103911,44.0168437],[4.43121779,44.01680625],[4.43129688,44.01662789],[4.43121362,44.0161438],[4.43118169,44.01536919],[4.43082908,44.01518567],[4.43076508,44.01517031],[4.43063648,44.0152152],[4.43013875,44.01506418],[4.43016029,44.01502789],[4.43000227,44.01504346],[4.42903246,44.01491841],[4.42801705,44.01471563],[4.42775224,44.01450125],[4.42743575,44.01451438],[4.42704816,44.01447713],[4.42588769,44.01400979],[4.4254242,44.01368097],[4.42515666,44.01335681],[4.42502916,44.01299661],[4.42510854,44.01243028],[4.42527132,44.0120069],[4.42549983,44.01161866],[4.42572153,44.01140694],[4.42603808,44.01089873],[4.42612566,44.01061044],[4.42605009,44.01053131],[4.42570803,44.01041875],[4.42557492,44.01028277],[4.42531249,44.00931493],[4.42509786,44.00896127],[4.42471011,44.00876649],[4.42469141,44.00861731],[4.42449359,44.00823733],[4.42423887,44.00787609],[4.4242181,44.00764412],[4.4240629,44.00727258],[4.42353194,44.0066863],[4.423076,44.00655721],[4.42261071,44.00650295],[4.42236867,44.00619915],[4.42233704,44.00603124],[4.42249998,44.00581399],[4.4228728,44.00546168],[4.42329577,44.00516994],[4.42360083,44.00505075],[4.42423518,44.00498398],[4.42473719,44.0047119],[4.42523935,44.00464505],[4.42594725,44.0044279],[4.42630435,44.00424591],[4.42665584,44.00393978],[4.42680353,44.00371192],[4.42677797,44.00348812],[4.42659345,44.00319078],[4.4262407,44.00299825],[4.42582157,44.0028939],[4.42429294,44.00265457],[4.42430682,44.00286052],[4.42412604,44.00281247],[4.42386218,44.00283301],[4.42333238,44.00269138],[4.42297973,44.00235211],[4.42274733,44.00198428],[4.42267115,44.00197987],[4.42281652,44.00250816],[4.42320637,44.00308818],[4.42344614,44.0040005],[4.42334978,44.00403686],[4.42306091,44.00340602],[4.42298955,44.00334484],[4.42290489,44.00335044],[4.4228766,44.00346603],[4.42300803,44.00373526],[4.42301962,44.00399975],[4.42274031,44.00455067],[4.42202963,44.0051567],[4.42161163,44.00524765],[4.4213828,44.00552336],[4.42101538,44.00579278],[4.42068412,44.00641188],[4.4202433,44.00683886],[4.4198207,44.00759687],[4.41961434,44.00812433],[4.41950016,44.00819692],[4.41932173,44.00824334],[4.41830767,44.00843922],[4.41985452,44.01055609],[4.41980705,44.01065302],[4.41959557,44.01072508],[4.41889186,44.010664],[4.4186263,44.01071785],[4.41799881,44.01101313],[4.4177868,44.01126432],[4.4176893,44.01160673],[4.41798816,44.01253991],[4.4182188,44.01308691],[4.41815731,44.01312191],[4.41785233,44.01369745],[4.41718836,44.01528581]]]]},"bbox":[4.41718836,44.00197987,4.43137745,44.01977521]},{"type":"Feature","id":"fr-quartier-30334-8edea115542a","properties":{"id":"fr-quartier-30334-8edea115542a","kind":"quartier","name":"Centre Ouest","cityCode":"30334","cityName":"Uzès","sourceType":"iris","sourceIds":["303340102"],"colorIndex":1,"center":[4.4121812916645,44.01253519128038]},"geometry":{"type":"MultiPolygon","coordinates":[[[[4.41830767,44.00843922],[4.41822086,44.00830893],[4.41803947,44.00838689],[4.4178804,44.00855998],[4.41766118,44.00867174],[4.41594756,44.00897298],[4.4152279,44.00877076],[4.41469703,44.00868761],[4.41287585,44.00827278],[4.41196793,44.01008568],[4.41194909,44.01038207],[4.41208785,44.01079794],[4.41207197,44.01106279],[4.4095727,44.01061614],[4.40820733,44.0104276],[4.405824,44.01002708],[4.40560687,44.01012349],[4.40544038,44.01035156],[4.40536218,44.01158036],[4.40543072,44.01198274],[4.40558681,44.0124452],[4.40572652,44.01340656],[4.40593177,44.01378828],[4.4062597,44.01403701],[4.40638233,44.01420466],[4.40663745,44.0155957],[4.40704595,44.01607562],[4.40742314,44.0162976],[4.40721989,44.01655316],[4.40719493,44.0166534],[4.40727942,44.01684224],[4.40742909,44.01704375],[4.40757984,44.01713722],[4.40772052,44.01717682],[4.40810503,44.01718987],[4.41392289,44.01493469],[4.41408772,44.01504238],[4.41451098,44.01510982],[4.41700595,44.01527377],[4.41715089,44.015334],[4.41718836,44.01528581],[4.41785233,44.01369745],[4.41815731,44.01312191],[4.4182188,44.01308691],[4.41798816,44.01253991],[4.4176893,44.01160673],[4.4177868,44.01126432],[4.41799881,44.01101313],[4.4186263,44.01071785],[4.41889186,44.010664],[4.41959557,44.01072508],[4.41980705,44.01065302],[4.41985452,44.01055609],[4.41830767,44.00843922]]]]},"bbox":[4.40536218,44.00827278,4.41985452,44.01718987]},{"type":"Feature","id":"fr-quartier-30334-d8735a7f7e18","properties":{"id":"fr-quartier-30334-d8735a7f7e18","kind":"quartier","name":"Chemin du Château d'Eau","cityCode":"30334","cityName":"Uzès","sourceType":"iris","sourceIds":["303340103"],"colorIndex":2,"center":[4.421073542185922,44.02639006206445]},"geometry":{"type":"MultiPolygon","coordinates":[[[[4.39598896,44.02190525],[4.39729592,44.02636589],[4.39987898,44.02537512],[4.40051478,44.02505283],[4.40084894,44.02479201],[4.40141471,44.02466595],[4.39871695,44.02718127],[4.39825042,44.02779393],[4.39776687,44.02883167],[4.39721914,44.02954258],[4.39643423,44.03029972],[4.39680331,44.03074869],[4.3988412,44.03107282],[4.39927583,44.03322402],[4.39875417,44.03342242],[4.39886911,44.03444442],[4.39939146,44.03442604],[4.39961317,44.03527384],[4.40020464,44.03532569],[4.40042655,44.03547047],[4.40048142,44.03597656],[4.40312204,44.03548366],[4.4029615,44.03722301],[4.4027377,44.03811703],[4.40224077,44.03916937],[4.40152222,44.04176381],[4.40157112,44.04217906],[4.40130762,44.04369289],[4.40113478,44.04463127],[4.40086526,44.04539355],[4.4028004,44.04547588],[4.40505064,44.04598712],[4.40046176,44.05760756],[4.40020941,44.05810678],[4.39994616,44.05831538],[4.39957024,44.05978025],[4.39947353,44.06061954],[4.40066109,44.06276745],[4.40056006,44.06337995],[4.40063361,44.06357885],[4.40095527,44.06391679],[4.4008511,44.06424939],[4.40115539,44.06454075],[4.40142462,44.06513231],[4.40227138,44.06595683],[4.40236048,44.06627974],[4.40225257,44.06696705],[4.40306815,44.06784237],[4.40305209,44.06835567],[4.40276726,44.06890572],[4.402647,44.07025751],[4.40250043,44.07079499],[4.40266991,44.07083243],[4.40387982,44.07194934],[4.40694772,44.07438183],[4.41019798,44.07670478],[4.40808751,44.07452562],[4.40737346,44.07321874],[4.40659359,44.07040943],[4.40638583,44.06912576],[4.40595492,44.0675515],[4.40575348,44.0671292],[4.40786955,44.06369399],[4.40840337,44.06231167],[4.40909375,44.06105245],[4.40973873,44.05947336],[4.40997576,44.0583082],[4.4098087,44.05730847],[4.41015684,44.05432985],[4.4106335,44.05220833],[4.40997385,44.05107362],[4.41047307,44.0488555],[4.41075935,44.04816949],[4.41109668,44.04803282],[4.41145852,44.04722341],[4.41155271,44.0472474],[4.41220798,44.04659533],[4.41335091,44.04598198],[4.41366082,44.04564672],[4.41387818,44.04449891],[4.41380386,44.03924296],[4.41300942,44.03785257],[4.41552012,44.03740426],[4.41672994,44.0373319],[4.4179846,44.03750738],[4.41830015,44.03765182],[4.41846728,44.03749843],[4.41936467,44.03740668],[4.41984297,44.03722224],[4.42018096,44.03701532],[4.42068297,44.03653083],[4.42092244,44.0364269],[4.42120057,44.0364719],[4.42157782,44.03638868],[4.42184849,44.03618443],[4.42194138,44.03590688],[4.42175558,44.03556183],[4.4220998,44.03550515],[4.42223386,44.03537739],[4.42199502,44.03455685],[4.42197882,44.03410788],[4.4228038,44.03391713],[4.42357577,44.03340301],[4.42395799,44.03252128],[4.42415689,44.03224235],[4.42439259,44.03208805],[4.42511838,44.0320237],[4.42553494,44.03206688],[4.42646525,44.03194854],[4.42674522,44.0320178],[4.42702023,44.0319386],[4.4269385,44.03161471],[4.42707505,44.03158683],[4.42739057,44.03168083],[4.42756017,44.0315778],[4.4281145,44.03159217],[4.4288677,44.0313276],[4.42899487,44.03102528],[4.42975059,44.03086149],[4.43181895,44.0311486],[4.43284148,44.03112621],[4.43328417,44.03091878],[4.43365573,44.03066097],[4.43375173,44.03045988],[4.43422868,44.03022589],[4.43472799,44.02969095],[4.43488816,44.029363],[4.43559595,44.02937802],[4.43595581,44.02974596],[4.43733021,44.02972612],[4.43904858,44.0300861],[4.43994693,44.03003828],[4.44110857,44.0300905],[4.44187275,44.03021365],[4.4442054,44.03029361],[4.44398041,44.02973579],[4.44263915,44.02786225],[4.44348079,44.02794117],[4.44433753,44.0258109],[4.44481161,44.02517183],[4.44521948,44.02418527],[4.44588544,44.02083421],[4.44605348,44.02077078],[4.44592867,44.02042407],[4.44583147,44.01826499],[4.44592516,44.01733659],[4.44613783,44.0168693],[4.44611462,44.01654466],[4.44626894,44.01594132],[4.44628378,44.01505177],[4.44602718,44.01373825],[4.44625512,44.01308713],[4.44685952,44.00992232],[4.44668525,44.0091991],[4.44602097,44.0080872],[4.44408428,44.00400903],[4.44224491,43.99947858],[4.44179457,43.99794348],[4.44192999,43.99679041],[4.44188418,43.99626083],[4.44132109,43.9952457],[4.44130398,43.99486517],[4.44067453,43.99398592],[4.44037845,43.99411134],[4.43952152,43.99439447],[4.43767066,43.99531355],[4.43679027,43.99590391],[4.4358984,43.99658352],[4.43522764,43.99693348],[4.4333909,43.99742834],[4.43259975,43.99760343],[4.43224685,43.99765216],[4.43191008,43.99759896],[4.43180277,43.99764537],[4.43165526,43.99777962],[4.43160843,43.99790085],[4.43179384,43.99828278],[4.43174882,43.998476],[4.43159754,43.99865891],[4.430701,43.99940515],[4.42990638,43.9997909],[4.42915267,44.00046595],[4.42881659,44.00063957],[4.42843505,44.00074087],[4.42831345,44.00091438],[4.42819742,44.00096181],[4.42809556,44.00097754],[4.42791398,44.0008971],[4.42735799,44.00110328],[4.42691699,44.00107123],[4.42619243,44.00141823],[4.42548855,44.00154533],[4.42433566,44.00246769],[4.42429294,44.00265457],[4.42582157,44.0028939],[4.4262407,44.00299825],[4.42659345,44.00319078],[4.42677797,44.00348812],[4.42680353,44.00371192],[4.42665584,44.00393978],[4.42630435,44.00424591],[4.42594725,44.0044279],[4.42523935,44.00464505],[4.42473719,44.0047119],[4.42423518,44.00498398],[4.42360083,44.00505075],[4.42329577,44.00516994],[4.4228728,44.00546168],[4.42249998,44.00581399],[4.42233704,44.00603124],[4.42236867,44.00619915],[4.42261071,44.00650295],[4.423076,44.00655721],[4.42353194,44.0066863],[4.4240629,44.00727258],[4.4242181,44.00764412],[4.42423887,44.00787609],[4.42449359,44.00823733],[4.42469141,44.00861731],[4.42471011,44.00876649],[4.42509786,44.00896127],[4.42531249,44.00931493],[4.42557492,44.01028277],[4.42570803,44.01041875],[4.42605009,44.01053131],[4.42612566,44.01061044],[4.42603808,44.01089873],[4.42572153,44.01140694],[4.42549983,44.01161866],[4.42527132,44.0120069],[4.42510854,44.01243028],[4.42502916,44.01299661],[4.42515666,44.01335681],[4.4254242,44.01368097],[4.42588769,44.01400979],[4.42704816,44.01447713],[4.42743575,44.01451438],[4.42775224,44.01450125],[4.42801705,44.01471563],[4.42903246,44.01491841],[4.43000227,44.01504346],[4.43016029,44.01502789],[4.43013875,44.01506418],[4.43063648,44.0152152],[4.43076508,44.01517031],[4.43082908,44.01518567],[4.43118169,44.01536919],[4.43121362,44.0161438],[4.43129688,44.01662789],[4.43121779,44.01680625],[4.43103911,44.0168437],[4.43092687,44.01694418],[4.43086167,44.01717907],[4.43093591,44.01760207],[4.43118213,44.0179193],[4.43137745,44.01859366],[4.43134975,44.01878215],[4.43078467,44.01977521],[4.42825979,44.01902507],[4.42798198,44.01884056],[4.42759085,44.01901219],[4.42675109,44.01910146],[4.42543457,44.0190313],[4.42487345,44.01874066],[4.42375222,44.01844831],[4.42352538,44.01835585],[4.42281332,44.01796454],[4.42254987,44.01775464],[4.42238731,44.01768834],[4.42218601,44.0173696],[4.42193225,44.01714786],[4.42174135,44.01704593],[4.42165103,44.01627568],[4.42134188,44.01603305],[4.42125548,44.01601977],[4.42040365,44.01547365],[4.42005198,44.0153765],[4.41973661,44.01533468],[4.4189838,44.01530754],[4.41820571,44.01536714],[4.41718836,44.01528581],[4.41715089,44.015334],[4.41700595,44.01527377],[4.41451098,44.01510982],[4.41408772,44.01504238],[4.41392289,44.01493469],[4.40810503,44.01718987],[4.40216973,44.01950655],[4.40166916,44.01954267],[4.40136789,44.01982107],[4.39598896,44.02190525]]]]},"bbox":[4.39598896,43.99398592,4.44685952,44.07670478]},{"type":"Feature","id":"fr-quartier-30334-941cfc7f54fd","properties":{"id":"fr-quartier-30334-941cfc7f54fd","kind":"quartier","name":"Font Froide","cityCode":"30334","cityName":"Uzès","sourceType":"iris","sourceIds":["303340104"],"colorIndex":3,"center":[4.410255641099732,43.99797834575624]},"geometry":{"type":"MultiPolygon","coordinates":[[[[4.40238326,43.98176124],[4.40226271,43.98344871],[4.40203689,43.98389717],[4.40050977,43.98597803],[4.40006452,43.98607194],[4.39906615,43.98460761],[4.39826262,43.98488433],[4.39742237,43.9843757],[4.39526379,43.98424754],[4.3937078,43.98398474],[4.3935255,43.98443173],[4.39277299,43.98419558],[4.39140801,43.98568016],[4.39015828,43.986066],[4.38995175,43.9865943],[4.38884431,43.98688561],[4.38918321,43.98800286],[4.38782377,43.98849359],[4.38698896,43.98907756],[4.38639174,43.98933266],[4.38521607,43.99010277],[4.38546515,43.99039935],[4.38583345,43.99067642],[4.38886746,43.99213394],[4.39017263,43.99284016],[4.3922727,43.99367397],[4.39255555,43.9939215],[4.39287143,43.99378606],[4.3943626,43.99429364],[4.39526118,43.99468453],[4.39587756,43.99505832],[4.39651406,43.99518432],[4.39795743,43.99567175],[4.39848668,43.99599983],[4.39698833,43.99662747],[4.39585509,43.99734854],[4.3957422,43.99757591],[4.39518395,43.99794759],[4.39200674,43.99907003],[4.39157641,43.99911601],[4.39108757,43.99901241],[4.3899048,43.99837215],[4.38949009,43.99834232],[4.38904876,43.99860176],[4.38773439,44.00080036],[4.38792225,44.00119223],[4.38937432,44.00198211],[4.39144828,44.0022951],[4.3935808,44.00224815],[4.39460853,44.00235747],[4.39364255,44.00334552],[4.39322838,44.00415552],[4.39151642,44.00518816],[4.39043901,44.0061623],[4.38958091,44.00728397],[4.38868477,44.00792094],[4.38841519,44.00842484],[4.38710866,44.00926504],[4.38859773,44.01038842],[4.38836751,44.01051196],[4.38909167,44.01161803],[4.38948529,44.01348982],[4.39009029,44.01466852],[4.39010171,44.01575034],[4.38994491,44.0168388],[4.39012022,44.01773581],[4.39006233,44.01904445],[4.3902448,44.02008089],[4.39222459,44.01998461],[4.39334852,44.02013773],[4.39411999,44.02036464],[4.3946809,44.02039799],[4.39663061,44.0202444],[4.39568103,44.02099644],[4.39598896,44.02190525],[4.40136789,44.01982107],[4.40166916,44.01954267],[4.40216973,44.01950655],[4.40810503,44.01718987],[4.40772052,44.01717682],[4.40757984,44.01713722],[4.40742909,44.01704375],[4.40727942,44.01684224],[4.40719493,44.0166534],[4.40721989,44.01655316],[4.40742314,44.0162976],[4.40704595,44.01607562],[4.40663745,44.0155957],[4.40638233,44.01420466],[4.4062597,44.01403701],[4.40593177,44.01378828],[4.40572652,44.01340656],[4.40558681,44.0124452],[4.40543072,44.01198274],[4.40536218,44.01158036],[4.40544038,44.01035156],[4.40560687,44.01012349],[4.405824,44.01002708],[4.40820733,44.0104276],[4.4095727,44.01061614],[4.41207197,44.01106279],[4.41208785,44.01079794],[4.41194909,44.01038207],[4.41196793,44.01008568],[4.41287585,44.00827278],[4.41469703,44.00868761],[4.4152279,44.00877076],[4.41594756,44.00897298],[4.41766118,44.00867174],[4.4178804,44.00855998],[4.41803947,44.00838689],[4.41822086,44.00830893],[4.41830767,44.00843922],[4.41932173,44.00824334],[4.41950016,44.00819692],[4.41961434,44.00812433],[4.4198207,44.00759687],[4.4202433,44.00683886],[4.42068412,44.00641188],[4.42101538,44.00579278],[4.4213828,44.00552336],[4.42161163,44.00524765],[4.42202963,44.0051567],[4.42274031,44.00455067],[4.42301962,44.00399975],[4.42300803,44.00373526],[4.4228766,44.00346603],[4.42290489,44.00335044],[4.42298955,44.00334484],[4.42306091,44.00340602],[4.42334978,44.00403686],[4.42344614,44.0040005],[4.42320637,44.00308818],[4.42281652,44.00250816],[4.42267115,44.00197987],[4.42274733,44.00198428],[4.42297973,44.00235211],[4.42333238,44.00269138],[4.42386218,44.00283301],[4.42412604,44.00281247],[4.42430682,44.00286052],[4.42429294,44.00265457],[4.42433566,44.00246769],[4.42548855,44.00154533],[4.42619243,44.00141823],[4.42691699,44.00107123],[4.42735799,44.00110328],[4.42791398,44.0008971],[4.42809556,44.00097754],[4.42819742,44.00096181],[4.42831345,44.00091438],[4.42843505,44.00074087],[4.42881659,44.00063957],[4.42915267,44.00046595],[4.42990638,43.9997909],[4.430701,43.99940515],[4.43159754,43.99865891],[4.43174882,43.998476],[4.43179384,43.99828278],[4.43160843,43.99790085],[4.43165526,43.99777962],[4.43180277,43.99764537],[4.43191008,43.99759896],[4.43224685,43.99765216],[4.43259975,43.99760343],[4.4333909,43.99742834],[4.43522764,43.99693348],[4.4358984,43.99658352],[4.43679027,43.99590391],[4.43767066,43.99531355],[4.43952152,43.99439447],[4.44037845,43.99411134],[4.43973509,43.99361844],[4.43940541,43.99325282],[4.43827475,43.99108756],[4.43701195,43.9900078],[4.43603347,43.98873076],[4.43735164,43.98800324],[4.43812437,43.98730178],[4.43989531,43.98535129],[4.44091386,43.98475998],[4.44237268,43.98432579],[4.44206966,43.98382931],[4.44201616,43.98348887],[4.4418751,43.98333321],[4.44133849,43.98326197],[4.44127538,43.98293515],[4.44115417,43.98282513],[4.44008157,43.9831012],[4.43982718,43.98309825],[4.43968919,43.98301456],[4.43965391,43.98201227],[4.43949501,43.98179203],[4.43937099,43.98127429],[4.43914269,43.98111887],[4.43838058,43.98115051],[4.43767591,43.98128489],[4.43660089,43.98121711],[4.43528713,43.98171773],[4.43489057,43.98176164],[4.43411568,43.98158278],[4.43201763,43.98163098],[4.43138343,43.98179231],[4.43085831,43.98207822],[4.42993825,43.98292017],[4.42890536,43.98353946],[4.42784533,43.98387196],[4.42727683,43.98397029],[4.42651643,43.98397211],[4.4238483,43.98360993],[4.42378489,43.98366657],[4.4234161,43.98367497],[4.423254,43.98397322],[4.42326021,43.98482106],[4.42315025,43.98511053],[4.4227718,43.9853819],[4.42198299,43.98624458],[4.42135205,43.98669024],[4.42103088,43.98685914],[4.42027904,43.98705614],[4.41905862,43.98625916],[4.41637893,43.98493201],[4.4160106,43.98480896],[4.41518824,43.984726],[4.41444457,43.98484993],[4.414662,43.98456898],[4.41469216,43.98432736],[4.41300145,43.98316015],[4.41231402,43.9829368],[4.41222498,43.98291545],[4.41227121,43.98317139],[4.41205485,43.98359634],[4.4118087,43.98377504],[4.41036895,43.98377922],[4.4095672,43.98362123],[4.40827734,43.98318329],[4.40754375,43.98305862],[4.40630027,43.9829837],[4.40591437,43.98300577],[4.40580878,43.98347609],[4.40554202,43.98317348],[4.40475388,43.98270654],[4.40298538,43.98206585],[4.40238326,43.98176124]]]]},"bbox":[4.38521607,43.98111887,4.44237268,44.02190525]}]}