{"type":"FeatureCollection","metadata":{"sourceType":"iris","referenceFile":"aucamville-quartiers.geojson","source":"IGN / INSEE - Contours IRIS WFS Géoplateforme","sourceUrl":"https://geoservices.ign.fr/contoursiris","license":"Licence Ouverte / Open Licence 2.0","sourceYear":"2026"},"features":[{"type":"Feature","id":"fr-quartier-31022-c741f78afeff","properties":{"id":"fr-quartier-31022-c741f78afeff","kind":"quartier","name":"Les Violettes","cityCode":"31022","cityName":"Aucamville","sourceType":"iris","sourceIds":["310220102"],"colorIndex":0,"center":[1.419484808850313,43.670674611406106]},"geometry":{"type":"MultiPolygon","coordinates":[[[[1.41193962,43.66671015],[1.41142962,43.66766569],[1.40984435,43.67274366],[1.40993645,43.67277561],[1.41002119,43.67378844],[1.40878576,43.67612655],[1.41018264,43.67681837],[1.41005556,43.67786771],[1.40950708,43.67953458],[1.4093183,43.68048311],[1.40907327,43.68091153],[1.40667489,43.68354402],[1.40643446,43.6836719],[1.40623851,43.68429633],[1.40639774,43.68436796],[1.40871635,43.68541349],[1.40903567,43.68490066],[1.41086431,43.6827773],[1.41351785,43.68028164],[1.41581077,43.68131315],[1.41563035,43.68160392],[1.41730611,43.68230871],[1.41740029,43.68208688],[1.41837421,43.68103815],[1.42036231,43.67860106],[1.42236611,43.67959583],[1.42282462,43.67866108],[1.42594417,43.67334863],[1.4274825,43.67083382],[1.42842843,43.66943542],[1.42911579,43.66815117],[1.42979339,43.66645279],[1.43148977,43.66132038],[1.43195568,43.65734019],[1.43148037,43.65776803],[1.43034847,43.65818098],[1.42977873,43.65852555],[1.42808393,43.65858026],[1.42707937,43.65968171],[1.42470045,43.66040596],[1.42431667,43.6605228],[1.42332221,43.66021679],[1.42165977,43.66111966],[1.4213113,43.6611695],[1.41965489,43.66122194],[1.41719256,43.66083063],[1.41652603,43.66157872],[1.41657712,43.66340913],[1.416399,43.66460621],[1.41586403,43.66530221],[1.41511459,43.66586278],[1.41415155,43.66630143],[1.41278555,43.6666064],[1.41193962,43.66671015]]]]},"bbox":[1.40623851,43.65734019,1.43195568,43.68541349]},{"type":"Feature","id":"fr-quartier-31022-8f3d56138550","properties":{"id":"fr-quartier-31022-8f3d56138550","kind":"quartier","name":"L'Hers","cityCode":"31022","cityName":"Aucamville","sourceType":"iris","sourceIds":["310220101"],"colorIndex":1,"center":[1.4344099836351636,43.67231739958586]},"geometry":{"type":"MultiPolygon","coordinates":[[[[1.42594417,43.67334863],[1.42921234,43.67439936],[1.42915261,43.6744975],[1.43233553,43.6754506],[1.43446731,43.67630299],[1.4345626,43.67617387],[1.43709061,43.67700401],[1.43566289,43.67865656],[1.43659948,43.67896162],[1.43947352,43.68020527],[1.43989965,43.67994859],[1.440483,43.67974725],[1.44081933,43.67941818],[1.44087681,43.67917421],[1.4405517,43.67858996],[1.44064181,43.67837705],[1.44115241,43.67811437],[1.44198139,43.67804525],[1.44242952,43.67775377],[1.44221404,43.67756079],[1.44187771,43.67761717],[1.44132722,43.67756879],[1.44125103,43.6769962],[1.4409428,43.67674879],[1.44066034,43.67687614],[1.440507,43.67727083],[1.44027261,43.67722607],[1.43979492,43.67673593],[1.43947173,43.67599061],[1.43912099,43.67571108],[1.43878125,43.6756198],[1.4390488,43.67499275],[1.43910733,43.67302623],[1.43942565,43.67208221],[1.43950206,43.67127962],[1.44008926,43.66970408],[1.44033129,43.66937545],[1.44089663,43.66887507],[1.43993024,43.66871362],[1.43906396,43.66842759],[1.43893297,43.66813862],[1.43775156,43.66767887],[1.43241187,43.66622326],[1.43213341,43.66711203],[1.42979339,43.66645279],[1.42911579,43.66815117],[1.42842843,43.66943542],[1.4274825,43.67083382],[1.42594417,43.67334863]]]]},"bbox":[1.42594417,43.66622326,1.44242952,43.68020527]}]}