{"type":"FeatureCollection","metadata":{"sourceType":"iris","referenceFile":"auterive-quartiers.geojson","source":"IGN / INSEE - Contours IRIS WFS Géoplateforme","sourceUrl":"https://geoservices.ign.fr/contoursiris","license":"Licence Ouverte / Open Licence 2.0","sourceYear":"2026"},"features":[{"type":"Feature","id":"fr-quartier-31033-f8c3ad209f99","properties":{"id":"fr-quartier-31033-f8c3ad209f99","kind":"quartier","name":"Chemin de la Malle","cityCode":"31033","cityName":"Auterive","sourceType":"iris","sourceIds":["310330102"],"colorIndex":0,"center":[1.4968612224665487,43.343941720745654]},"geometry":{"type":"MultiPolygon","coordinates":[[[[1.51525514,43.34824732],[1.51655439,43.34734649],[1.51903369,43.34629265],[1.51906219,43.34503968],[1.51858128,43.3435575],[1.51782492,43.34204905],[1.5168706,43.34224651],[1.51652053,43.34210135],[1.51570598,43.34070095],[1.51501691,43.33979084],[1.51448242,43.3387191],[1.5118985,43.33567031],[1.51156779,43.33563697],[1.50800152,43.33616997],[1.50558834,43.33705981],[1.50443241,43.33733265],[1.50283407,43.33797996],[1.50269456,43.33756144],[1.50255029,43.33756304],[1.50213497,43.33779663],[1.50082223,43.33684629],[1.49968321,43.33623217],[1.49939509,43.33711893],[1.49902783,43.33754211],[1.49862545,43.33784604],[1.49749827,43.33829107],[1.49665325,43.3383621],[1.49580471,43.33828463],[1.49398675,43.33780225],[1.49001621,43.3362515],[1.4890878,43.33607208],[1.48814023,43.33605884],[1.48737391,43.33613811],[1.48673014,43.33624427],[1.48575904,43.33647001],[1.48506617,43.33675543],[1.48430874,43.3371992],[1.48323042,43.33812523],[1.48287955,43.33834255],[1.48259767,43.33837369],[1.48190835,43.33885079],[1.48019553,43.34064875],[1.47878038,43.34200099],[1.47798824,43.34300748],[1.47744064,43.34343616],[1.47707969,43.34356605],[1.47669715,43.34427957],[1.47616659,43.34546159],[1.47550419,43.3475721],[1.47546425,43.34828956],[1.47552478,43.34963646],[1.47545286,43.35081684],[1.47538192,43.3509814],[1.47749918,43.35157897],[1.47911737,43.35179338],[1.47936596,43.35181127],[1.47963624,43.35175479],[1.48094529,43.35190994],[1.48103026,43.35182025],[1.48286104,43.35107934],[1.48408017,43.3504342],[1.48644526,43.34962603],[1.48652826,43.349611],[1.48692132,43.35008977],[1.48705911,43.35019517],[1.48819174,43.35044764],[1.48859499,43.35049197],[1.48894765,43.35044381],[1.49202104,43.34961032],[1.49286349,43.3494556],[1.49434181,43.34926564],[1.49460654,43.34927922],[1.50076443,43.35029778],[1.50470088,43.35088222],[1.5059792,43.35117791],[1.50634546,43.35122255],[1.50658646,43.351153],[1.50780397,43.35060745],[1.50936036,43.34968685],[1.51045358,43.34922504],[1.51137553,43.34904518],[1.51239291,43.34898899],[1.51338484,43.34886766],[1.51404072,43.34867783],[1.51464251,43.3482902],[1.51523233,43.34822361],[1.51525514,43.34824732]]]]},"bbox":[1.47538192,43.33563697,1.51906219,43.35190994]},{"type":"Feature","id":"fr-quartier-31033-b62a4e99f0b5","properties":{"id":"fr-quartier-31033-b62a4e99f0b5","kind":"quartier","name":"Route de Grazac","cityCode":"31033","cityName":"Auterive","sourceType":"iris","sourceIds":["310330103"],"colorIndex":1,"center":[1.4674496894039775,43.338121417129045]},"geometry":{"type":"MultiPolygon","coordinates":[[[[1.48015538,43.3201095],[1.47978029,43.31994047],[1.47897402,43.31981307],[1.47817717,43.31844234],[1.4778043,43.31818966],[1.47516914,43.3193285],[1.46882362,43.32217382],[1.46754805,43.32324265],[1.46422764,43.32432024],[1.45514672,43.32902979],[1.45336474,43.32865341],[1.45322097,43.32914263],[1.4530906,43.33064786],[1.45313743,43.3315204],[1.45326528,43.33240579],[1.45341347,43.33253298],[1.45318213,43.33476918],[1.45306728,43.33509865],[1.45168637,43.33745157],[1.45149672,43.33735258],[1.45121852,43.33830144],[1.45107285,43.33858458],[1.45090183,43.33866401],[1.45081593,43.33915406],[1.44972655,43.34083631],[1.44865034,43.34184392],[1.44505284,43.34555241],[1.44455406,43.34589795],[1.44473741,43.34600226],[1.44636814,43.3467932],[1.44686337,43.34699106],[1.456438,43.35035288],[1.45700745,43.35045188],[1.45968044,43.35040899],[1.45963722,43.35050375],[1.45906677,43.35076465],[1.45840131,43.35116637],[1.45833397,43.35124099],[1.45837398,43.35135853],[1.46268904,43.35326807],[1.4641526,43.35396368],[1.46420895,43.35402387],[1.46421387,43.35420929],[1.46286782,43.35562532],[1.46325954,43.3555481],[1.46445921,43.35504326],[1.46512859,43.35486471],[1.46578515,43.35475075],[1.46844012,43.35446535],[1.46760731,43.35592109],[1.46699597,43.35688418],[1.46667887,43.35726209],[1.46625488,43.35762499],[1.46589064,43.35801303],[1.46641022,43.35850628],[1.46685031,43.35878964],[1.4672009,43.35896107],[1.4689289,43.35955059],[1.468946,43.35983516],[1.46905585,43.3602956],[1.47020156,43.36057094],[1.47059064,43.36026872],[1.47271756,43.35976879],[1.47291395,43.35966359],[1.47322294,43.35926485],[1.47314287,43.35879674],[1.47374867,43.3587378],[1.47354649,43.35668797],[1.47354698,43.35625068],[1.47369561,43.35464309],[1.47383098,43.35395487],[1.47390427,43.35360859],[1.47410203,43.35307872],[1.47498793,43.35189181],[1.47538192,43.3509814],[1.47545286,43.35081684],[1.47552478,43.34963646],[1.47546425,43.34828956],[1.47550419,43.3475721],[1.47616659,43.34546159],[1.47669715,43.34427957],[1.47707969,43.34356605],[1.47744064,43.34343616],[1.47798824,43.34300748],[1.47878038,43.34200099],[1.48019553,43.34064875],[1.48190835,43.33885079],[1.48259767,43.33837369],[1.48287955,43.33834255],[1.48323042,43.33812523],[1.48430874,43.3371992],[1.48506617,43.33675543],[1.48575904,43.33647001],[1.48673014,43.33624427],[1.48737391,43.33613811],[1.4872306,43.33568082],[1.4872194,43.33526228],[1.48704481,43.33501061],[1.48455816,43.33366755],[1.48387242,43.333074],[1.48400498,43.33281403],[1.48452788,43.3322878],[1.4841638,43.33202447],[1.48416218,43.33189848],[1.48437092,43.33071013],[1.48462984,43.33005064],[1.48460933,43.32975254],[1.48366506,43.32750972],[1.48325356,43.32619301],[1.48237707,43.32404831],[1.48231276,43.32344817],[1.48245763,43.32314159],[1.48217075,43.32224232],[1.48191287,43.3218797],[1.48125298,43.32129369],[1.48038843,43.32075879],[1.4802096,43.32048366],[1.48015538,43.3201095]]]]},"bbox":[1.44455406,43.31818966,1.48737391,43.36057094]},{"type":"Feature","id":"fr-quartier-31033-27ed1b917137","properties":{"id":"fr-quartier-31033-27ed1b917137","kind":"quartier","name":"Route de Grépiac","cityCode":"31033","cityName":"Auterive","sourceType":"iris","sourceIds":["310330101"],"colorIndex":2,"center":[1.4774518713088136,43.36933810633223]},"geometry":{"type":"MultiPolygon","coordinates":[[[[1.44473741,43.34600226],[1.44182483,43.34862008],[1.44102214,43.34953348],[1.43820221,43.35222274],[1.43731738,43.35343276],[1.43472021,43.35662363],[1.4368817,43.35762934],[1.43852144,43.35864188],[1.44120041,43.3599429],[1.44163475,43.36038915],[1.44295327,43.362205],[1.44556962,43.36099192],[1.44614963,43.36189103],[1.44615897,43.36209362],[1.44521557,43.3636007],[1.44385383,43.36534381],[1.44377426,43.3664629],[1.44288459,43.36734629],[1.44173166,43.36920665],[1.44146709,43.36977691],[1.44143086,43.37011291],[1.44200098,43.37064929],[1.44244172,43.3716832],[1.44244566,43.37199368],[1.44231435,43.37233371],[1.44185759,43.37289491],[1.44190176,43.37331394],[1.44180302,43.37349878],[1.44131963,43.37408658],[1.44110684,43.37424638],[1.44086591,43.37430679],[1.442203,43.37503688],[1.44202314,43.37521065],[1.44334866,43.3757768],[1.4427109,43.37659904],[1.44265393,43.37678987],[1.44287843,43.37733748],[1.44278217,43.3790727],[1.44297959,43.38016609],[1.44352889,43.38152278],[1.44384427,43.3816299],[1.44344851,43.38203181],[1.44358607,43.38219126],[1.44331329,43.38288108],[1.44639103,43.38586314],[1.44662252,43.38633705],[1.44740044,43.38704466],[1.44758127,43.38711024],[1.44893609,43.38710446],[1.44957504,43.38747624],[1.45003604,43.38905029],[1.45134849,43.39002556],[1.45194216,43.39033908],[1.45301053,43.38997644],[1.45369751,43.38961823],[1.45408055,43.38890836],[1.4544149,43.38674822],[1.45662975,43.38710645],[1.45978051,43.38845333],[1.46124329,43.38921016],[1.46246851,43.3882378],[1.46262527,43.38828141],[1.46395036,43.38948346],[1.4645336,43.39120854],[1.46416594,43.39111515],[1.46423047,43.3923038],[1.46263207,43.39209306],[1.46160901,43.39348581],[1.4624566,43.39385867],[1.46222323,43.39418828],[1.46364411,43.39485721],[1.46252547,43.39534612],[1.46454286,43.39673705],[1.46547434,43.39753039],[1.46842454,43.39665796],[1.47174453,43.39644753],[1.47493403,43.39608489],[1.47513576,43.39643505],[1.47550968,43.39680654],[1.47849359,43.39595861],[1.480354,43.39531799],[1.48346573,43.39373388],[1.48337776,43.39337273],[1.48502487,43.39351817],[1.48654347,43.39306071],[1.48679733,43.39269715],[1.48593527,43.39230628],[1.48714176,43.39095276],[1.48738128,43.3909939],[1.48912647,43.39050269],[1.48666622,43.38984567],[1.48635707,43.38940314],[1.48632709,43.38885385],[1.48658566,43.38849845],[1.48724036,43.38799832],[1.48944682,43.38708615],[1.48951307,43.3869593],[1.48912465,43.38619896],[1.48925495,43.38602892],[1.48915319,43.38553441],[1.49072274,43.38458273],[1.49147751,43.38402729],[1.49092607,43.38388553],[1.49073032,43.38372894],[1.49061872,43.38299766],[1.49050554,43.38279722],[1.48984986,43.38230309],[1.49378758,43.38032444],[1.49891321,43.37819387],[1.49971686,43.37774433],[1.49995429,43.37734272],[1.50082674,43.3781826],[1.50432513,43.37718365],[1.50451816,43.37720792],[1.50540676,43.37766558],[1.50577109,43.37726841],[1.50618185,43.37698345],[1.51082686,43.37456767],[1.51319907,43.37584827],[1.51348913,43.3744549],[1.51715571,43.37322932],[1.51920508,43.37171786],[1.52016092,43.37095173],[1.52277086,43.36945777],[1.52577419,43.36747784],[1.52964235,43.36528465],[1.52857731,43.36318901],[1.52762091,43.36306983],[1.52542389,43.36145722],[1.52547926,43.36131761],[1.52538536,43.36103561],[1.52400678,43.35997219],[1.52389852,43.35972147],[1.52400525,43.35902111],[1.52374206,43.35860903],[1.5233802,43.35848622],[1.52222808,43.35869364],[1.52171349,43.3587082],[1.52146169,43.3585734],[1.52100075,43.35765114],[1.52081022,43.35753156],[1.52048337,43.35748661],[1.51767776,43.35759397],[1.51724222,43.35707693],[1.51640891,43.35759367],[1.51484773,43.35979648],[1.51269754,43.35858555],[1.51192895,43.35707148],[1.51003245,43.35764372],[1.50873208,43.35824125],[1.5077307,43.35833991],[1.50565188,43.35833102],[1.50419719,43.3587905],[1.50398887,43.35878762],[1.50433368,43.35828311],[1.50666936,43.35646995],[1.50735438,43.3561114],[1.50835813,43.35572935],[1.50979164,43.35484483],[1.51041722,43.35435138],[1.51199316,43.35267611],[1.51315541,43.35159528],[1.51317592,43.35099182],[1.51350135,43.3502297],[1.51437952,43.34911796],[1.51525514,43.34824732],[1.51523233,43.34822361],[1.51464251,43.3482902],[1.51404072,43.34867783],[1.51338484,43.34886766],[1.51239291,43.34898899],[1.51137553,43.34904518],[1.51045358,43.34922504],[1.50936036,43.34968685],[1.50780397,43.35060745],[1.50658646,43.351153],[1.50634546,43.35122255],[1.5059792,43.35117791],[1.50470088,43.35088222],[1.50076443,43.35029778],[1.49460654,43.34927922],[1.49434181,43.34926564],[1.49286349,43.3494556],[1.49202104,43.34961032],[1.48894765,43.35044381],[1.48859499,43.35049197],[1.48819174,43.35044764],[1.48705911,43.35019517],[1.48692132,43.35008977],[1.48652826,43.349611],[1.48644526,43.34962603],[1.48408017,43.3504342],[1.48286104,43.35107934],[1.48103026,43.35182025],[1.48094529,43.35190994],[1.47963624,43.35175479],[1.47936596,43.35181127],[1.47911737,43.35179338],[1.47749918,43.35157897],[1.47538192,43.3509814],[1.47498793,43.35189181],[1.47410203,43.35307872],[1.47390427,43.35360859],[1.47383098,43.35395487],[1.47369561,43.35464309],[1.47354698,43.35625068],[1.47354649,43.35668797],[1.47374867,43.3587378],[1.47314287,43.35879674],[1.47322294,43.35926485],[1.47291395,43.35966359],[1.47271756,43.35976879],[1.47059064,43.36026872],[1.47020156,43.36057094],[1.46905585,43.3602956],[1.468946,43.35983516],[1.4689289,43.35955059],[1.4672009,43.35896107],[1.46685031,43.35878964],[1.46641022,43.35850628],[1.46589064,43.35801303],[1.46625488,43.35762499],[1.46667887,43.35726209],[1.46699597,43.35688418],[1.46760731,43.35592109],[1.46844012,43.35446535],[1.46578515,43.35475075],[1.46512859,43.35486471],[1.46445921,43.35504326],[1.46325954,43.3555481],[1.46286782,43.35562532],[1.46421387,43.35420929],[1.46420895,43.35402387],[1.4641526,43.35396368],[1.46268904,43.35326807],[1.45837398,43.35135853],[1.45833397,43.35124099],[1.45840131,43.35116637],[1.45906677,43.35076465],[1.45963722,43.35050375],[1.45968044,43.35040899],[1.45700745,43.35045188],[1.456438,43.35035288],[1.44686337,43.34699106],[1.44636814,43.3467932],[1.44473741,43.34600226]]]]},"bbox":[1.43472021,43.34600226,1.52964235,43.39753039]}]}