{"type":"FeatureCollection","metadata":{"sourceType":"iris","referenceFile":"l-isle-jourdain-quartiers.geojson","source":"IGN / INSEE - Contours IRIS WFS Géoplateforme","sourceUrl":"https://geoservices.ign.fr/contoursiris","license":"Licence Ouverte / Open Licence 2.0","sourceYear":"2026"},"features":[{"type":"Feature","id":"fr-quartier-32160-d61c4b81d265","properties":{"id":"fr-quartier-32160-d61c4b81d265","kind":"quartier","name":"Casse Martin","cityCode":"32160","cityName":"L'Isle-Jourdain","sourceType":"iris","sourceIds":["321600102"],"colorIndex":0,"center":[1.0783483112686287,43.624032883439504]},"geometry":{"type":"MultiPolygon","coordinates":[[[[1.14270054,43.62146843],[1.14422522,43.62040905],[1.1450191,43.61972688],[1.14561401,43.61937433],[1.14796039,43.61814711],[1.1486134,43.61806553],[1.14880311,43.61790676],[1.14939472,43.61723282],[1.14953058,43.61693813],[1.15024449,43.61635087],[1.15036295,43.61609638],[1.15063654,43.61587153],[1.15088366,43.61539153],[1.15121681,43.61508669],[1.15114817,43.6141414],[1.15127334,43.61387082],[1.15180912,43.61323553],[1.15183382,43.61269953],[1.15230736,43.61157357],[1.15303997,43.61097941],[1.15479723,43.60995265],[1.1551927,43.60951836],[1.15565423,43.60876298],[1.15621971,43.60835677],[1.15711969,43.60717682],[1.15887907,43.60538322],[1.15620843,43.60404462],[1.15477255,43.60317243],[1.15385801,43.60195717],[1.14940049,43.60380736],[1.14841603,43.60414789],[1.14551102,43.60378514],[1.14342875,43.60406278],[1.14180577,43.60404043],[1.14142574,43.60369013],[1.14128673,43.60346994],[1.14124306,43.60309749],[1.14096552,43.60275704],[1.14108463,43.60221546],[1.14092102,43.60202816],[1.14081383,43.60166722],[1.14125473,43.60162887],[1.14138897,43.60130806],[1.14101518,43.60061315],[1.1409097,43.59962583],[1.13995674,43.5985367],[1.13992421,43.59827964],[1.14011763,43.59789055],[1.14008987,43.59756247],[1.13941067,43.59658693],[1.13870326,43.59487829],[1.13818412,43.59408548],[1.13796208,43.59375407],[1.13701282,43.59293678],[1.13750358,43.59231429],[1.13726993,43.59195928],[1.13736697,43.59129674],[1.13722577,43.59110712],[1.13745657,43.59090137],[1.13741819,43.58987111],[1.13639964,43.58867373],[1.13533444,43.58818924],[1.13475297,43.58821256],[1.13459935,43.58813882],[1.13449426,43.58779141],[1.13389253,43.58748587],[1.13361852,43.58723096],[1.1332989,43.58647486],[1.13294534,43.58603948],[1.13255681,43.5857655],[1.13257864,43.58536087],[1.13320444,43.58408822],[1.13320593,43.58392804],[1.13298517,43.58363535],[1.13292605,43.58339763],[1.13287149,43.58286749],[1.13297082,43.58240209],[1.13319791,43.581929],[1.13375525,43.58138957],[1.1327207,43.58148969],[1.13220642,43.58158075],[1.13140245,43.58178562],[1.13047403,43.58212424],[1.12965231,43.5825313],[1.12907431,43.58290564],[1.1283109,43.58353599],[1.12781867,43.58408911],[1.12724236,43.58501788],[1.1269279,43.58596557],[1.12684877,43.58679671],[1.1267492,43.59060564],[1.12672372,43.590931],[1.1266267,43.59128573],[1.12637011,43.59182491],[1.12606771,43.5922121],[1.12575098,43.59250724],[1.12521484,43.5928472],[1.12264963,43.59434461],[1.12206442,43.5946315],[1.12145295,43.59485043],[1.12042412,43.59507024],[1.11437278,43.59588608],[1.11314531,43.59615727],[1.11272286,43.59631284],[1.11226066,43.59666031],[1.11209548,43.59693825],[1.11198053,43.59689395],[1.11182419,43.59694073],[1.11179285,43.59706529],[1.11154188,43.59739124],[1.10728277,43.6011908],[1.10689124,43.60085817],[1.10661002,43.60078577],[1.10543148,43.60084623],[1.1045666,43.60097154],[1.10398467,43.60096679],[1.10294569,43.60085145],[1.10266938,43.60085562],[1.10231941,43.60095211],[1.10175215,43.60117801],[1.1003534,43.60152977],[1.09984458,43.60178548],[1.09929569,43.60216649],[1.09900716,43.60227754],[1.09848938,43.60242958],[1.09745588,43.6026338],[1.09659416,43.60299851],[1.0960782,43.60305787],[1.09593571,43.6038807],[1.09512499,43.60502123],[1.0949089,43.60522534],[1.09362711,43.60615329],[1.09357994,43.60623077],[1.09357336,43.60631705],[1.09403698,43.60630539],[1.09446656,43.60634892],[1.09450333,43.60650977],[1.09565779,43.60792506],[1.09513583,43.60820122],[1.09245698,43.60986788],[1.09282056,43.61029548],[1.09324958,43.61091593],[1.09358284,43.6114735],[1.09389361,43.61214858],[1.08906905,43.61288467],[1.08880182,43.61287457],[1.08864899,43.61296278],[1.08841893,43.61295244],[1.08408864,43.6136097],[1.08338888,43.61375396],[1.08337202,43.61370236],[1.08183727,43.61399659],[1.08155424,43.6139772],[1.08107946,43.61306157],[1.08063025,43.61256672],[1.07983399,43.61311428],[1.07913698,43.61258443],[1.07898738,43.61242788],[1.07898109,43.61235667],[1.07873551,43.61225512],[1.07775247,43.61153751],[1.07642002,43.61071289],[1.07423358,43.60957341],[1.07172249,43.60788721],[1.07106728,43.60740756],[1.07056697,43.60685235],[1.07050618,43.60648676],[1.07018182,43.60626139],[1.06994406,43.60585485],[1.06991329,43.60548079],[1.06953729,43.60517079],[1.067538,43.60186812],[1.06734021,43.60152619],[1.06728892,43.60128407],[1.06731022,43.60112964],[1.06723304,43.60106797],[1.06711379,43.60104154],[1.06694708,43.60088017],[1.06492015,43.59748786],[1.06469841,43.5972328],[1.0644939,43.59705455],[1.06409004,43.59680164],[1.06277736,43.59606722],[1.06174218,43.59540433],[1.0556,43.59127051],[1.05492951,43.59077609],[1.04755279,43.58361629],[1.04759268,43.58382672],[1.04710018,43.58425528],[1.04682083,43.58587841],[1.04697712,43.58616113],[1.04609706,43.58666192],[1.047087,43.58846268],[1.04699072,43.58896317],[1.04342929,43.59067754],[1.04192299,43.5908754],[1.0418257,43.59067834],[1.04134809,43.59037722],[1.0399717,43.59108592],[1.03922373,43.59159444],[1.03809827,43.59209704],[1.03806491,43.59234844],[1.03721299,43.59289018],[1.03710492,43.59289992],[1.03693606,43.59276817],[1.03631353,43.59319253],[1.03539485,43.59239199],[1.03219686,43.59436098],[1.03149355,43.59453905],[1.03098771,43.59480889],[1.02874347,43.59449368],[1.02839909,43.59492935],[1.02720669,43.5970858],[1.0254994,43.59861905],[1.02438955,43.59923611],[1.02447467,43.59935376],[1.02335394,43.5998545],[1.02315592,43.60013801],[1.02318062,43.60067939],[1.0222193,43.60122532],[1.02330276,43.60284982],[1.02426289,43.60464038],[1.02660551,43.6054552],[1.03066881,43.60962055],[1.03247881,43.61026268],[1.03308432,43.61059406],[1.03433826,43.61101728],[1.03599072,43.61387512],[1.03556188,43.61413468],[1.03578539,43.61462565],[1.03417226,43.61521031],[1.03252551,43.61630467],[1.03357942,43.61783224],[1.03265892,43.61779667],[1.03328721,43.6187306],[1.03473139,43.61964509],[1.03574047,43.61948242],[1.03610026,43.61975714],[1.0365383,43.61970025],[1.03641923,43.61992131],[1.03526435,43.62065108],[1.0349802,43.62113378],[1.03448599,43.62160007],[1.03348046,43.62230822],[1.03212945,43.62301011],[1.03109595,43.62337662],[1.02812364,43.62413278],[1.02721394,43.62442859],[1.02652298,43.62474097],[1.02595911,43.62510425],[1.02339672,43.62719172],[1.02242106,43.62770951],[1.02167592,43.62718381],[1.02110205,43.6276198],[1.01930529,43.62826842],[1.01841478,43.62893803],[1.01771661,43.62934833],[1.01282405,43.63179448],[1.01029876,43.63261144],[1.00849703,43.63296638],[1.00730794,43.63369974],[1.00667523,43.63429029],[1.00627371,43.63486077],[1.00702757,43.63502761],[1.00828726,43.63586616],[1.01363184,43.63505399],[1.01477893,43.63481663],[1.01638073,43.63476037],[1.01695286,43.63459259],[1.01844318,43.63471428],[1.02050371,43.63457991],[1.02191827,43.63463447],[1.02826342,43.63563542],[1.03070533,43.63576249],[1.03081753,43.63563492],[1.03222175,43.63566665],[1.03367287,43.63581262],[1.03452559,43.63602605],[1.0354299,43.63675975],[1.03826605,43.63652205],[1.0384952,43.63866294],[1.03843486,43.63915869],[1.03899298,43.6396899],[1.03977916,43.64022071],[1.03959449,43.64065572],[1.03918166,43.6410218],[1.0384819,43.64122519],[1.03770862,43.64162076],[1.03731599,43.64215642],[1.03643742,43.64255008],[1.03444367,43.64391096],[1.03400615,43.64441699],[1.0323593,43.64581471],[1.03184043,43.64670359],[1.03142441,43.64708758],[1.03124939,43.64756415],[1.03023362,43.64841163],[1.0307603,43.64910072],[1.03287424,43.65136127],[1.03357889,43.65148923],[1.03431813,43.65219925],[1.03437784,43.65237405],[1.03411724,43.65277977],[1.03446549,43.65307139],[1.03543462,43.65467034],[1.03583144,43.65502854],[1.03629233,43.65481904],[1.03716179,43.65466103],[1.04001315,43.65447574],[1.04158773,43.65454192],[1.04236882,43.65511943],[1.04342879,43.65522672],[1.04373004,43.65515383],[1.04378807,43.655415],[1.04365054,43.65621179],[1.0439767,43.6567532],[1.04385777,43.65878523],[1.04533535,43.65860928],[1.0491737,43.65838749],[1.04785961,43.66002455],[1.04706359,43.66126406],[1.04674323,43.6623699],[1.04702514,43.66355676],[1.04784225,43.66370105],[1.04895558,43.66359322],[1.04981689,43.66334944],[1.05061869,43.66295968],[1.05223866,43.6629014],[1.05278845,43.66281224],[1.05359702,43.66251439],[1.0543673,43.66235806],[1.05569478,43.66185706],[1.05593568,43.66184607],[1.05658437,43.66147243],[1.06089479,43.65998055],[1.06306104,43.65963933],[1.0641205,43.6597284],[1.06489541,43.66020393],[1.06572631,43.66023311],[1.06618538,43.6604798],[1.0692822,43.66066803],[1.07247111,43.66110444],[1.07280329,43.66118053],[1.07381368,43.66162416],[1.07487326,43.66178514],[1.07543622,43.66185631],[1.07653438,43.66216106],[1.07740251,43.66218991],[1.07927475,43.66255602],[1.07976839,43.66288336],[1.08029674,43.66309971],[1.08087829,43.66302356],[1.08135781,43.66318054],[1.0818141,43.66321649],[1.08442177,43.66398611],[1.08804014,43.66367355],[1.08978877,43.66380869],[1.09489439,43.66515204],[1.09510251,43.66474706],[1.09540493,43.66460115],[1.09593929,43.66411637],[1.0963159,43.6633417],[1.09742838,43.6623225],[1.09800197,43.66214892],[1.09839267,43.66191994],[1.1004118,43.66144849],[1.10090476,43.66112588],[1.10118051,43.66077337],[1.10147667,43.66062823],[1.10094591,43.65984671],[1.09971143,43.65856596],[1.09935148,43.65730769],[1.09874339,43.65665441],[1.09874799,43.65602985],[1.09909001,43.65536079],[1.09867201,43.65521847],[1.0976673,43.65452675],[1.09697445,43.65444893],[1.09657197,43.65395135],[1.09583838,43.65431653],[1.09474529,43.65501743],[1.09451674,43.65499362],[1.09246988,43.65261578],[1.09034677,43.65044807],[1.08981705,43.64979162],[1.08933729,43.64882643],[1.08927568,43.64833212],[1.08902513,43.64770488],[1.0888957,43.64686555],[1.08870595,43.64634828],[1.08775263,43.64512724],[1.08893902,43.64493389],[1.09147436,43.64420528],[1.09251836,43.64374568],[1.09478129,43.64226067],[1.09543817,43.64196166],[1.09617088,43.64150647],[1.09699402,43.64127607],[1.09912737,43.64111358],[1.10454605,43.64136751],[1.10766374,43.64055688],[1.10934948,43.63975997],[1.10986746,43.63938555],[1.11104677,43.63815949],[1.111961,43.63700352],[1.11226674,43.63705203],[1.11247333,43.63759024],[1.11303514,43.63817962],[1.11305553,43.63763545],[1.11361125,43.63720498],[1.11480055,43.63691509],[1.11550257,43.63689666],[1.11705396,43.63444843],[1.1171761,43.63438935],[1.1176356,43.63450981],[1.11781598,43.63441303],[1.11790351,43.63423814],[1.11797286,43.63359761],[1.11791253,43.63226451],[1.11828428,43.63094249],[1.11815051,43.63071426],[1.11770254,43.6305454],[1.11767583,43.63041533],[1.11851083,43.62898523],[1.11863766,43.6284051],[1.11859289,43.62757899],[1.11816418,43.62712605],[1.11833562,43.62658359],[1.11826457,43.62633215],[1.11845861,43.6260448],[1.11872638,43.6250585],[1.11881189,43.62486917],[1.11901093,43.62476911],[1.11917183,43.62424538],[1.11884692,43.62346123],[1.1188634,43.6232608],[1.11907285,43.62295662],[1.11896994,43.62250572],[1.11910374,43.62212822],[1.12005269,43.62239485],[1.12096665,43.62244396],[1.12343407,43.62105914],[1.12619582,43.61991426],[1.12731788,43.61954569],[1.12756718,43.6199163],[1.13041208,43.61899055],[1.13120985,43.61857406],[1.13218816,43.61771065],[1.13486148,43.61607442],[1.13568132,43.61570058],[1.13663928,43.61694734],[1.1381515,43.6184088],[1.13875413,43.61808612],[1.13866295,43.61852917],[1.13951222,43.61877592],[1.14104285,43.6182207],[1.14113709,43.61837081],[1.14149028,43.61851996],[1.14192772,43.61912776],[1.14175025,43.61944333],[1.14177028,43.61978118],[1.14145352,43.62003677],[1.14179192,43.62033687],[1.14180727,43.62055134],[1.14213752,43.62072079],[1.1427117,43.62120042],[1.14270054,43.62146843]]]]},"bbox":[1.00627371,43.58138957,1.15887907,43.66515204]},{"type":"Feature","id":"fr-quartier-32160-03a7acb9ab5d","properties":{"id":"fr-quartier-32160-03a7acb9ab5d","kind":"quartier","name":"Hesteil","cityCode":"32160","cityName":"L'Isle-Jourdain","sourceType":"iris","sourceIds":["321600101"],"colorIndex":1,"center":[1.0894609984605097,43.58859560267714]},"geometry":{"type":"MultiPolygon","coordinates":[[[[1.13375525,43.58138957],[1.13419794,43.58098678],[1.13416035,43.58073413],[1.1327233,43.58042053],[1.12969177,43.58170037],[1.12905731,43.58057884],[1.12861563,43.58068373],[1.12832465,43.57984981],[1.12814428,43.57888909],[1.12721273,43.57848963],[1.12667252,43.57835161],[1.12641512,43.57815907],[1.12566245,43.57724878],[1.12555596,43.57698414],[1.12554788,43.5762838],[1.12536078,43.57606187],[1.12548667,43.57467084],[1.12568591,43.57421798],[1.12572333,43.57375422],[1.12625551,43.57307491],[1.12645641,43.57253297],[1.1264732,43.57175296],[1.12674439,43.57061194],[1.12711097,43.56973357],[1.12778822,43.56881735],[1.12832561,43.56862142],[1.12878772,43.56826668],[1.12864225,43.56809678],[1.12696591,43.56822357],[1.12615223,43.56861723],[1.12510823,43.56867211],[1.12500862,43.56903129],[1.12377078,43.569639],[1.12354001,43.56965571],[1.12188701,43.57042903],[1.12056133,43.5708444],[1.11910097,43.57102521],[1.11885119,43.57192358],[1.11649227,43.57308059],[1.11554771,43.57330901],[1.11507435,43.57260779],[1.11440782,43.57288872],[1.11289015,43.57375606],[1.11111899,43.57461356],[1.11010666,43.57498115],[1.10732832,43.57529547],[1.10602352,43.57522141],[1.10428913,43.57529825],[1.10314133,43.57556801],[1.10243615,43.57592919],[1.1016552,43.57618555],[1.09939272,43.57762919],[1.09588365,43.58055936],[1.09500949,43.58108493],[1.09477563,43.58089453],[1.09233786,43.58067263],[1.09300085,43.57916325],[1.09383721,43.57843362],[1.09454512,43.57717253],[1.09357449,43.57661549],[1.09256337,43.57574992],[1.09194845,43.5747716],[1.09163852,43.57355654],[1.09195892,43.57237146],[1.09154457,43.57146777],[1.09074365,43.57072468],[1.08960271,43.56993331],[1.08938576,43.56942279],[1.08821669,43.56914301],[1.08748911,43.56883859],[1.08700671,43.56853129],[1.08648365,43.56810717],[1.08583282,43.56735769],[1.08575139,43.56720145],[1.08584889,43.56683867],[1.08560886,43.56672463],[1.08272247,43.56746481],[1.08104251,43.56810384],[1.07827,43.56902501],[1.07645097,43.57152094],[1.07442548,43.57300786],[1.07377195,43.57407539],[1.07327352,43.57450485],[1.07068179,43.57574316],[1.06947727,43.57666317],[1.06735316,43.5774282],[1.06694355,43.57738671],[1.06650288,43.57672365],[1.06566395,43.5763442],[1.06486329,43.57563782],[1.06331847,43.57500997],[1.06184903,43.57457064],[1.06165024,43.57455539],[1.06056004,43.57531264],[1.05953314,43.57507559],[1.05926101,43.57510583],[1.05659959,43.57638126],[1.05507831,43.57794707],[1.05374276,43.57888886],[1.05291072,43.57958497],[1.05241445,43.58034559],[1.05143936,43.58080511],[1.05090833,43.58091168],[1.04951872,43.58176426],[1.04917917,43.58206507],[1.04891873,43.58258781],[1.04840689,43.58293052],[1.04790778,43.58311686],[1.04755279,43.58361629],[1.05492951,43.59077609],[1.0556,43.59127051],[1.06174218,43.59540433],[1.06277736,43.59606722],[1.06409004,43.59680164],[1.0644939,43.59705455],[1.06469841,43.5972328],[1.06492015,43.59748786],[1.06694708,43.60088017],[1.06711379,43.60104154],[1.06723304,43.60106797],[1.06731022,43.60112964],[1.06728892,43.60128407],[1.06734021,43.60152619],[1.067538,43.60186812],[1.06953729,43.60517079],[1.06991329,43.60548079],[1.06994406,43.60585485],[1.07018182,43.60626139],[1.07050618,43.60648676],[1.07056697,43.60685235],[1.07106728,43.60740756],[1.07172249,43.60788721],[1.07423358,43.60957341],[1.07642002,43.61071289],[1.07775247,43.61153751],[1.07873551,43.61225512],[1.07898109,43.61235667],[1.07898738,43.61242788],[1.07913698,43.61258443],[1.07983399,43.61311428],[1.08063025,43.61256672],[1.08107946,43.61306157],[1.08155424,43.6139772],[1.08183727,43.61399659],[1.08337202,43.61370236],[1.08338888,43.61375396],[1.08408864,43.6136097],[1.08841893,43.61295244],[1.08864899,43.61296278],[1.08880182,43.61287457],[1.08906905,43.61288467],[1.09389361,43.61214858],[1.09358284,43.6114735],[1.09324958,43.61091593],[1.09282056,43.61029548],[1.09245698,43.60986788],[1.09513583,43.60820122],[1.09565779,43.60792506],[1.09450333,43.60650977],[1.09446656,43.60634892],[1.09403698,43.60630539],[1.09357336,43.60631705],[1.09357994,43.60623077],[1.09362711,43.60615329],[1.0949089,43.60522534],[1.09512499,43.60502123],[1.09593571,43.6038807],[1.0960782,43.60305787],[1.09659416,43.60299851],[1.09745588,43.6026338],[1.09848938,43.60242958],[1.09900716,43.60227754],[1.09929569,43.60216649],[1.09984458,43.60178548],[1.1003534,43.60152977],[1.10175215,43.60117801],[1.10231941,43.60095211],[1.10266938,43.60085562],[1.10294569,43.60085145],[1.10398467,43.60096679],[1.1045666,43.60097154],[1.10543148,43.60084623],[1.10661002,43.60078577],[1.10689124,43.60085817],[1.10728277,43.6011908],[1.11154188,43.59739124],[1.11179285,43.59706529],[1.11182419,43.59694073],[1.11198053,43.59689395],[1.11209548,43.59693825],[1.11226066,43.59666031],[1.11272286,43.59631284],[1.11314531,43.59615727],[1.11437278,43.59588608],[1.12042412,43.59507024],[1.12145295,43.59485043],[1.12206442,43.5946315],[1.12264963,43.59434461],[1.12521484,43.5928472],[1.12575098,43.59250724],[1.12606771,43.5922121],[1.12637011,43.59182491],[1.1266267,43.59128573],[1.12672372,43.590931],[1.1267492,43.59060564],[1.12684877,43.58679671],[1.1269279,43.58596557],[1.12724236,43.58501788],[1.12781867,43.58408911],[1.1283109,43.58353599],[1.12907431,43.58290564],[1.12965231,43.5825313],[1.13047403,43.58212424],[1.13140245,43.58178562],[1.13220642,43.58158075],[1.1327207,43.58148969],[1.13375525,43.58138957]]]]},"bbox":[1.04755279,43.56672463,1.13419794,43.61399659]}]}