{"type":"FeatureCollection","metadata":{"sourceType":"iris","referenceFile":"bruges-quartiers.geojson","source":"IGN / INSEE - Contours IRIS WFS Géoplateforme","sourceUrl":"https://geoservices.ign.fr/contoursiris","license":"Licence Ouverte / Open Licence 2.0","sourceYear":"2026"},"features":[{"type":"Feature","id":"fr-quartier-33075-adc2efa4e0a9","properties":{"id":"fr-quartier-33075-adc2efa4e0a9","kind":"quartier","name":"Centre Ville","cityCode":"33075","cityName":"Bruges","sourceType":"iris","sourceIds":["330750102"],"colorIndex":0,"center":[-0.6114011679362049,44.88336886257179]},"geometry":{"type":"MultiPolygon","coordinates":[[[[-0.60971091,44.88765814],[-0.60863801,44.8854263],[-0.6081964,44.8846313],[-0.60767824,44.88392712],[-0.60535532,44.88151416],[-0.60610294,44.88042455],[-0.60627051,44.88031005],[-0.60551609,44.87943959],[-0.60556266,44.87941464],[-0.60555831,44.87930753],[-0.60576992,44.87934572],[-0.60763274,44.88004587],[-0.60877453,44.88043415],[-0.61102151,44.88068102],[-0.61183765,44.88085455],[-0.61223058,44.87998734],[-0.61269135,44.87940634],[-0.61332949,44.88024088],[-0.61348694,44.88040249],[-0.61369499,44.8805228],[-0.61651659,44.88126639],[-0.61564515,44.88340199],[-0.61645976,44.88362961],[-0.61613956,44.88414928],[-0.61548554,44.88491865],[-0.61542431,44.88505043],[-0.61514943,44.88631308],[-0.61463638,44.88718511],[-0.61473618,44.88802547],[-0.6134943,44.88787753],[-0.61187187,44.88752926],[-0.61178451,44.88739331],[-0.61180459,44.88729171],[-0.61215285,44.88663596],[-0.61222966,44.88633243],[-0.61220897,44.88622765],[-0.61207485,44.88607429],[-0.61092818,44.88561229],[-0.61067327,44.88606401],[-0.61026196,44.88698138],[-0.61015743,44.88730744],[-0.61016502,44.88744509],[-0.60971091,44.88765814]]]]},"bbox":[-0.61651659,44.87930753,-0.60535532,44.88802547]},{"type":"Feature","id":"fr-quartier-33075-99d5d155582f","properties":{"id":"fr-quartier-33075-99d5d155582f","kind":"quartier","name":"Cimetière Nord-Petit Bruges","cityCode":"33075","cityName":"Bruges","sourceType":"iris","sourceIds":["330750104"],"colorIndex":1,"center":[-0.5914737579195579,44.87642653744286]},"geometry":{"type":"MultiPolygon","coordinates":[[[[-0.5769314,44.87729842],[-0.5769229,44.87722479],[-0.57663074,44.87504774],[-0.57646429,44.87283419],[-0.57619396,44.8712774],[-0.57606285,44.86927992],[-0.5817595,44.86935485],[-0.58288584,44.86940862],[-0.58336734,44.86918848],[-0.58398846,44.86919005],[-0.58503926,44.86944992],[-0.5859203,44.86955214],[-0.5875443,44.87019362],[-0.58919493,44.87024028],[-0.59051648,44.87011551],[-0.59204869,44.87037146],[-0.59318563,44.87074833],[-0.59333399,44.87055156],[-0.59413839,44.87078237],[-0.59519287,44.87135567],[-0.59428386,44.87220257],[-0.59380003,44.87288068],[-0.59376832,44.87315749],[-0.5947089,44.87333703],[-0.59611412,44.87336991],[-0.59745901,44.87327224],[-0.59855718,44.87310235],[-0.59882976,44.87339994],[-0.5997829,44.87359705],[-0.6001593,44.87377411],[-0.60087683,44.87444751],[-0.60110435,44.87449691],[-0.60129434,44.87437628],[-0.60153535,44.874537],[-0.60140651,44.87478092],[-0.60200706,44.87521117],[-0.6025295,44.87574759],[-0.60412363,44.87806891],[-0.60497614,44.87884876],[-0.6053589,44.87930139],[-0.60541708,44.87927967],[-0.60555831,44.87930753],[-0.60556266,44.87941464],[-0.60551609,44.87943959],[-0.60627051,44.88031005],[-0.60610294,44.88042455],[-0.60535532,44.88151416],[-0.60767824,44.88392712],[-0.6081964,44.8846313],[-0.60863801,44.8854263],[-0.60813365,44.88535076],[-0.60641125,44.88482631],[-0.60566131,44.88481553],[-0.60512347,44.88485012],[-0.60440328,44.88475004],[-0.60403372,44.88466109],[-0.60387372,44.88459779],[-0.60379554,44.8845057],[-0.60363735,44.88450993],[-0.60361057,44.88456668],[-0.60211475,44.8844503],[-0.60186533,44.88439621],[-0.60037896,44.88385409],[-0.59992571,44.88388321],[-0.5993724,44.88413099],[-0.59924348,44.8841568],[-0.59891299,44.88414318],[-0.59840626,44.88393158],[-0.59704422,44.88313304],[-0.59676714,44.88300322],[-0.59633664,44.8828928],[-0.5959455,44.88290186],[-0.59566052,44.88296517],[-0.59522903,44.88309632],[-0.59404606,44.88362763],[-0.59386905,44.88357568],[-0.59178419,44.88075278],[-0.59158153,44.88045831],[-0.59142198,44.88004528],[-0.59114529,44.88003981],[-0.59108203,44.8800022],[-0.58974683,44.87845105],[-0.58957927,44.87844745],[-0.58950412,44.87836246],[-0.58562261,44.87855913],[-0.5844959,44.87858201],[-0.5839727,44.8786665],[-0.58289857,44.87915542],[-0.5825342,44.87906715],[-0.58087297,44.87788512],[-0.58036109,44.8775907],[-0.57991659,44.87739865],[-0.57946524,44.87725819],[-0.57831104,44.8771476],[-0.57764584,44.87715192],[-0.5769314,44.87729842]]]]},"bbox":[-0.60863801,44.86918848,-0.57606285,44.8854263]},{"type":"Feature","id":"fr-quartier-33075-12a096a878b7","properties":{"id":"fr-quartier-33075-12a096a878b7","kind":"quartier","name":"La Marianne-Sainte Germaine","cityCode":"33075","cityName":"Bruges","sourceType":"iris","sourceIds":["330750103"],"colorIndex":2,"center":[-0.6097266470592982,44.8757013581811]},"geometry":{"type":"MultiPolygon","coordinates":[[[[-0.60129434,44.87437628],[-0.60175454,44.87394315],[-0.60209428,44.87394384],[-0.60251148,44.87382846],[-0.60313433,44.87346124],[-0.60329085,44.87311548],[-0.60386053,44.8728284],[-0.60509231,44.87241075],[-0.6059258,44.8722647],[-0.60661839,44.87199704],[-0.60800418,44.87178706],[-0.61271238,44.87128778],[-0.61369509,44.87103858],[-0.61645374,44.87289728],[-0.61724392,44.87351505],[-0.61564563,44.87640709],[-0.61520246,44.87702448],[-0.61499919,44.87721407],[-0.61475073,44.87754843],[-0.61490538,44.87762721],[-0.61507204,44.87848251],[-0.61502892,44.87893456],[-0.61490685,44.87940089],[-0.61411806,44.88000611],[-0.61387329,44.88026013],[-0.61369499,44.8805228],[-0.61348694,44.88040249],[-0.61332949,44.88024088],[-0.61269135,44.87940634],[-0.61223058,44.87998734],[-0.61183765,44.88085455],[-0.61102151,44.88068102],[-0.60877453,44.88043415],[-0.60763274,44.88004587],[-0.60576992,44.87934572],[-0.60555831,44.87930753],[-0.60541708,44.87927967],[-0.6053589,44.87930139],[-0.60497614,44.87884876],[-0.60412363,44.87806891],[-0.6025295,44.87574759],[-0.60200706,44.87521117],[-0.60140651,44.87478092],[-0.60153535,44.874537],[-0.60129434,44.87437628]]]]},"bbox":[-0.61724392,44.87103858,-0.60129434,44.88085455]},{"type":"Feature","id":"fr-quartier-33075-9bd03659d053","properties":{"id":"fr-quartier-33075-9bd03659d053","kind":"quartier","name":"Tour de Gassies-Treulon","cityCode":"33075","cityName":"Bruges","sourceType":"iris","sourceIds":["330750101"],"colorIndex":3,"center":[-0.6202654507717267,44.88851727244499]},"geometry":{"type":"MultiPolygon","coordinates":[[[[-0.61724392,44.87351505],[-0.62213012,44.8767337],[-0.62440105,44.87827467],[-0.62580411,44.87895798],[-0.62718849,44.87984198],[-0.6293443,44.88163718],[-0.62904576,44.88188218],[-0.62835051,44.88283415],[-0.62880918,44.88316345],[-0.62855446,44.88312581],[-0.62819866,44.88372058],[-0.62845037,44.88380969],[-0.62827013,44.88410039],[-0.62810518,44.88405891],[-0.62720658,44.88547448],[-0.62697712,44.88537652],[-0.62633813,44.88606256],[-0.62638257,44.88629905],[-0.62652998,44.88632397],[-0.62488655,44.88888866],[-0.62567241,44.88927759],[-0.62655305,44.88940655],[-0.62667062,44.89016611],[-0.62658284,44.89078907],[-0.62704161,44.89213864],[-0.62713972,44.89277355],[-0.62929005,44.89692585],[-0.62975854,44.89805158],[-0.62845301,44.89827632],[-0.62711685,44.89863544],[-0.62453889,44.8994605],[-0.62361257,44.89964756],[-0.62255384,44.89974791],[-0.62123312,44.90017044],[-0.62056703,44.9000083],[-0.61684766,44.90040172],[-0.61572173,44.90042397],[-0.61128091,44.89083549],[-0.60971091,44.88765814],[-0.61016502,44.88744509],[-0.61015743,44.88730744],[-0.61026196,44.88698138],[-0.61067327,44.88606401],[-0.61092818,44.88561229],[-0.61207485,44.88607429],[-0.61220897,44.88622765],[-0.61222966,44.88633243],[-0.61215285,44.88663596],[-0.61180459,44.88729171],[-0.61178451,44.88739331],[-0.61187187,44.88752926],[-0.6134943,44.88787753],[-0.61473618,44.88802547],[-0.61463638,44.88718511],[-0.61514943,44.88631308],[-0.61542431,44.88505043],[-0.61548554,44.88491865],[-0.61613956,44.88414928],[-0.61645976,44.88362961],[-0.61564515,44.88340199],[-0.61651659,44.88126639],[-0.61369499,44.8805228],[-0.61387329,44.88026013],[-0.61411806,44.88000611],[-0.61490685,44.87940089],[-0.61502892,44.87893456],[-0.61507204,44.87848251],[-0.61490538,44.87762721],[-0.61475073,44.87754843],[-0.61499919,44.87721407],[-0.61520246,44.87702448],[-0.61564563,44.87640709],[-0.61724392,44.87351505]]]]},"bbox":[-0.62975854,44.87351505,-0.60971091,44.90042397]},{"type":"Feature","id":"fr-quartier-33075-8daa22a17a7f","properties":{"id":"fr-quartier-33075-8daa22a17a7f","kind":"quartier","name":"Villabois-La Hutte","cityCode":"33075","cityName":"Bruges","sourceType":"iris","sourceIds":["330750105"],"colorIndex":4,"center":[-0.5937441102740166,44.89470553062624]},"geometry":{"type":"MultiPolygon","coordinates":[[[[-0.61572173,44.90042397],[-0.61162678,44.90028327],[-0.60988772,44.90068953],[-0.60824305,44.90118372],[-0.60687777,44.90172379],[-0.61002768,44.90418379],[-0.60708293,44.90656967],[-0.6060289,44.90725824],[-0.6044548,44.9080448],[-0.60286104,44.90860485],[-0.60132565,44.90879076],[-0.59961407,44.90933385],[-0.59905735,44.90939426],[-0.59522855,44.90916048],[-0.59416706,44.90928047],[-0.59256499,44.90931699],[-0.59051575,44.90892632],[-0.58852126,44.9083599],[-0.58806694,44.90831599],[-0.58767596,44.90835026],[-0.58684005,44.90866567],[-0.58644407,44.90874065],[-0.58506764,44.9088545],[-0.58406331,44.90911494],[-0.58196041,44.90947121],[-0.58048548,44.90945298],[-0.58035749,44.90931561],[-0.58032634,44.90900657],[-0.57908552,44.89793205],[-0.57887588,44.89498444],[-0.57898766,44.89476904],[-0.57885724,44.89461282],[-0.5785369,44.89281159],[-0.5781371,44.88731951],[-0.5769314,44.87729842],[-0.57764584,44.87715192],[-0.57831104,44.8771476],[-0.57946524,44.87725819],[-0.57991659,44.87739865],[-0.58036109,44.8775907],[-0.58087297,44.87788512],[-0.5825342,44.87906715],[-0.58289857,44.87915542],[-0.5839727,44.8786665],[-0.5844959,44.87858201],[-0.58562261,44.87855913],[-0.58950412,44.87836246],[-0.58957927,44.87844745],[-0.58974683,44.87845105],[-0.59108203,44.8800022],[-0.59114529,44.88003981],[-0.59142198,44.88004528],[-0.59158153,44.88045831],[-0.59178419,44.88075278],[-0.59386905,44.88357568],[-0.59404606,44.88362763],[-0.59522903,44.88309632],[-0.59566052,44.88296517],[-0.5959455,44.88290186],[-0.59633664,44.8828928],[-0.59676714,44.88300322],[-0.59704422,44.88313304],[-0.59840626,44.88393158],[-0.59891299,44.88414318],[-0.59924348,44.8841568],[-0.5993724,44.88413099],[-0.59992571,44.88388321],[-0.60037896,44.88385409],[-0.60186533,44.88439621],[-0.60211475,44.8844503],[-0.60361057,44.88456668],[-0.60363735,44.88450993],[-0.60379554,44.8845057],[-0.60387372,44.88459779],[-0.60403372,44.88466109],[-0.60440328,44.88475004],[-0.60512347,44.88485012],[-0.60566131,44.88481553],[-0.60641125,44.88482631],[-0.60813365,44.88535076],[-0.60863801,44.8854263],[-0.60971091,44.88765814],[-0.61128091,44.89083549],[-0.61572173,44.90042397]]]]},"bbox":[-0.61572173,44.8771476,-0.5769314,44.90947121]}]}