{"type":"FeatureCollection","metadata":{"sourceType":"iris","referenceFile":"le-haillan-quartiers.geojson","source":"IGN / INSEE - Contours IRIS WFS Géoplateforme","sourceUrl":"https://geoservices.ign.fr/contoursiris","license":"Licence Ouverte / Open Licence 2.0","sourceYear":"2026"},"features":[{"type":"Feature","id":"fr-quartier-33200-04251a9aa54c","properties":{"id":"fr-quartier-33200-04251a9aa54c","kind":"quartier","name":"Baraillot","cityCode":"33200","cityName":"Le Haillan","sourceType":"iris","sourceIds":["332000101"],"colorIndex":0,"center":[-0.6943335046181714,44.86082194887213]},"geometry":{"type":"MultiPolygon","coordinates":[[[[-0.67722521,44.85848895],[-0.69205453,44.85438933],[-0.69521793,44.85345569],[-0.70150509,44.85179854],[-0.70343405,44.8514214],[-0.70373905,44.85122374],[-0.70600063,44.85068402],[-0.70860274,44.84991024],[-0.71605965,44.84788594],[-0.71931792,44.8470755],[-0.71922212,44.84800077],[-0.71867135,44.85037803],[-0.71816957,44.85339989],[-0.71367697,44.85455898],[-0.71180867,44.85483873],[-0.7113379,44.85507801],[-0.71062153,44.85526332],[-0.70903571,44.85761294],[-0.70773434,44.85926351],[-0.70709047,44.86024044],[-0.70140275,44.86329297],[-0.69672117,44.86575554],[-0.69455932,44.8667424],[-0.69416732,44.86698709],[-0.69406529,44.86743935],[-0.69420245,44.86857946],[-0.69434119,44.86880018],[-0.69311687,44.86866608],[-0.69190613,44.87010612],[-0.69144636,44.87151757],[-0.69093048,44.8719223],[-0.6920494,44.87295766],[-0.69172829,44.87304766],[-0.69079242,44.87377371],[-0.69037106,44.87409327],[-0.69021632,44.87470862],[-0.68901858,44.87559749],[-0.688344,44.87752261],[-0.68706512,44.877429],[-0.68693561,44.87734858],[-0.68589646,44.87719923],[-0.68330219,44.8770348],[-0.68318929,44.87651217],[-0.68326306,44.87647728],[-0.68326618,44.87638974],[-0.6838062,44.87592657],[-0.68428052,44.87540878],[-0.68558757,44.87330766],[-0.68593568,44.87297253],[-0.68607332,44.87290666],[-0.68621336,44.8728966],[-0.68612307,44.87285364],[-0.68606629,44.8727032],[-0.68626314,44.87253532],[-0.68724788,44.87108663],[-0.68751825,44.87082257],[-0.68747659,44.87076717],[-0.68749795,44.87068714],[-0.68491449,44.86969859],[-0.68453976,44.86962811],[-0.68369298,44.86962649],[-0.68410843,44.86917826],[-0.68420568,44.86899927],[-0.68458651,44.86854498],[-0.68369846,44.86820402],[-0.68352295,44.8681756],[-0.68227539,44.8686911],[-0.681576,44.86867555],[-0.68169984,44.87058224],[-0.68106034,44.87128666],[-0.68092748,44.87235282],[-0.68082586,44.87254276],[-0.67773188,44.87171248],[-0.67724748,44.87159334],[-0.67702382,44.87158453],[-0.6769779,44.87152206],[-0.67668326,44.87145521],[-0.67644632,44.87134048],[-0.67540671,44.87073679],[-0.67545378,44.87054595],[-0.67446963,44.866163],[-0.67774546,44.86650513],[-0.67794467,44.86658595],[-0.67840419,44.86667437],[-0.67838122,44.86643989],[-0.67785207,44.86546328],[-0.67793983,44.86540989],[-0.67900647,44.86557643],[-0.67919272,44.86557566],[-0.6786496,44.86343862],[-0.67773774,44.86017995],[-0.67751079,44.85878593],[-0.67741154,44.85858643],[-0.67722521,44.85848895]]]]},"bbox":[-0.71931792,44.8470755,-0.67446963,44.87752261]},{"type":"Feature","id":"fr-quartier-33200-03459cb91b53","properties":{"id":"fr-quartier-33200-03459cb91b53","kind":"quartier","name":"Béchade","cityCode":"33200","cityName":"Le Haillan","sourceType":"iris","sourceIds":["332000102"],"colorIndex":1,"center":[-0.6711423942967072,44.86772149290439]},"geometry":{"type":"MultiPolygon","coordinates":[[[[-0.66864938,44.87800146],[-0.66853174,44.8779666],[-0.66846007,44.8751839],[-0.66809022,44.8747617],[-0.66726193,44.87324062],[-0.66654957,44.87291084],[-0.66555668,44.87207027],[-0.66484684,44.87205046],[-0.66391046,44.87176412],[-0.66318768,44.87174021],[-0.66132493,44.87132039],[-0.66181492,44.87036055],[-0.6627677,44.8693647],[-0.66331042,44.86857256],[-0.66375712,44.86706705],[-0.66466549,44.86479099],[-0.66587588,44.86322058],[-0.66625324,44.85914231],[-0.66641344,44.85837451],[-0.66654815,44.85828353],[-0.67506278,44.85888688],[-0.67582317,44.85881032],[-0.67692341,44.85850526],[-0.67722521,44.85848895],[-0.67741154,44.85858643],[-0.67751079,44.85878593],[-0.67773774,44.86017995],[-0.6786496,44.86343862],[-0.67919272,44.86557566],[-0.67900647,44.86557643],[-0.67793983,44.86540989],[-0.67785207,44.86546328],[-0.67838122,44.86643989],[-0.67840419,44.86667437],[-0.67794467,44.86658595],[-0.67774546,44.86650513],[-0.67446963,44.866163],[-0.67545378,44.87054595],[-0.67540671,44.87073679],[-0.67644632,44.87134048],[-0.67668326,44.87145521],[-0.6769779,44.87152206],[-0.67702382,44.87158453],[-0.67697513,44.87173125],[-0.67700447,44.8718114],[-0.67804937,44.87321077],[-0.676643,44.87499962],[-0.67694369,44.8755647],[-0.67707541,44.87598846],[-0.67723473,44.87762628],[-0.67718175,44.87790114],[-0.67725733,44.87799057],[-0.67718733,44.87808302],[-0.67702489,44.87808029],[-0.67697914,44.87798176],[-0.67658874,44.8781371],[-0.67641731,44.8780166],[-0.67480047,44.87752395],[-0.67411388,44.87741509],[-0.67347213,44.87737144],[-0.67314852,44.87740469],[-0.67286536,44.87749427],[-0.67229534,44.87777182],[-0.67180723,44.87788711],[-0.66864938,44.87800146]]]]},"bbox":[-0.67919272,44.85828353,-0.66132493,44.8781371]},{"type":"Feature","id":"fr-quartier-33200-19114563d6ca","properties":{"id":"fr-quartier-33200-19114563d6ca","kind":"quartier","name":"Gasquet","cityCode":"33200","cityName":"Le Haillan","sourceType":"iris","sourceIds":["332000104"],"colorIndex":2,"center":[-0.6760724314579418,44.88738245859191]},"geometry":{"type":"MultiPolygon","coordinates":[[[[-0.68424362,44.88511636],[-0.68629874,44.88687151],[-0.68639471,44.8871937],[-0.68708607,44.88750783],[-0.68676007,44.88796842],[-0.68639367,44.88816176],[-0.68603584,44.8884855],[-0.68571185,44.88901542],[-0.68568678,44.89038988],[-0.68524613,44.89078487],[-0.68529342,44.89135023],[-0.68497077,44.89161151],[-0.68424036,44.89164928],[-0.68397692,44.89173103],[-0.68377676,44.89192695],[-0.68397291,44.89277039],[-0.68367615,44.89331022],[-0.68360696,44.89337651],[-0.68231331,44.89333381],[-0.68117319,44.89449017],[-0.6805169,44.89488508],[-0.68002733,44.89465164],[-0.67928112,44.89406257],[-0.6788476,44.89391019],[-0.67828787,44.89341859],[-0.6777244,44.89335344],[-0.67665948,44.89355005],[-0.6755721,44.89344275],[-0.67457538,44.89363529],[-0.67380347,44.89400784],[-0.67250287,44.89430415],[-0.67172092,44.89440753],[-0.67148455,44.89461274],[-0.67027734,44.89499967],[-0.66972885,44.8954928],[-0.66923667,44.89552889],[-0.66902044,44.89445265],[-0.6683699,44.8934827],[-0.66832033,44.8929769],[-0.66850901,44.89295354],[-0.66862978,44.89121361],[-0.66821793,44.88962738],[-0.66795082,44.88897464],[-0.66790633,44.88842991],[-0.66880271,44.88668508],[-0.6690601,44.88596814],[-0.66921892,44.88587636],[-0.66933454,44.88562828],[-0.66944594,44.88488912],[-0.66916184,44.88397647],[-0.66925573,44.88291161],[-0.6691688,44.88276487],[-0.66961289,44.88189844],[-0.66988758,44.88162077],[-0.66989041,44.87871844],[-0.66893636,44.87808661],[-0.66864938,44.87800146],[-0.67180723,44.87788711],[-0.67229534,44.87777182],[-0.67286536,44.87749427],[-0.67314852,44.87740469],[-0.67347213,44.87737144],[-0.67411388,44.87741509],[-0.67480047,44.87752395],[-0.67641731,44.8780166],[-0.67658874,44.8781371],[-0.67624925,44.87827634],[-0.67627301,44.87846483],[-0.67596221,44.87942872],[-0.67519144,44.88134431],[-0.67484572,44.88349819],[-0.67497275,44.88477927],[-0.67503907,44.88482394],[-0.67549712,44.88457804],[-0.67728284,44.88342739],[-0.67855722,44.88217468],[-0.67975946,44.88117582],[-0.68030518,44.88056646],[-0.68044924,44.88057881],[-0.68050277,44.88054458],[-0.68095833,44.88076382],[-0.68099669,44.88125197],[-0.6809577,44.8814885],[-0.68053753,44.88204053],[-0.67979297,44.88286559],[-0.67946972,44.88327199],[-0.67949076,44.88330284],[-0.68341538,44.88439665],[-0.68424362,44.88511636]]]]},"bbox":[-0.68708607,44.87737144,-0.66790633,44.89552889]},{"type":"Feature","id":"fr-quartier-33200-a03ff0b0c3a1","properties":{"id":"fr-quartier-33200-a03ff0b0c3a1","kind":"quartier","name":"Miotte","cityCode":"33200","cityName":"Le Haillan","sourceType":"iris","sourceIds":["332000103"],"colorIndex":3,"center":[-0.6816558965139189,44.87752333518351]},"geometry":{"type":"MultiPolygon","coordinates":[[[[-0.68706512,44.877429],[-0.68684824,44.8780446],[-0.68696103,44.87873848],[-0.68634297,44.87951883],[-0.68623463,44.87997309],[-0.68651023,44.88081028],[-0.68759772,44.88171333],[-0.68780437,44.88202193],[-0.68769471,44.88234013],[-0.68680508,44.88344497],[-0.68588216,44.8842751],[-0.68424362,44.88511636],[-0.68341538,44.88439665],[-0.67949076,44.88330284],[-0.67946972,44.88327199],[-0.67979297,44.88286559],[-0.68053753,44.88204053],[-0.6809577,44.8814885],[-0.68099669,44.88125197],[-0.68095833,44.88076382],[-0.68050277,44.88054458],[-0.68044924,44.88057881],[-0.68030518,44.88056646],[-0.67975946,44.88117582],[-0.67855722,44.88217468],[-0.67728284,44.88342739],[-0.67549712,44.88457804],[-0.67503907,44.88482394],[-0.67497275,44.88477927],[-0.67484572,44.88349819],[-0.67519144,44.88134431],[-0.67596221,44.87942872],[-0.67627301,44.87846483],[-0.67624925,44.87827634],[-0.67658874,44.8781371],[-0.67697914,44.87798176],[-0.67702489,44.87808029],[-0.67718733,44.87808302],[-0.67725733,44.87799057],[-0.67718175,44.87790114],[-0.67723473,44.87762628],[-0.67707541,44.87598846],[-0.67694369,44.8755647],[-0.676643,44.87499962],[-0.67804937,44.87321077],[-0.67700447,44.8718114],[-0.67697513,44.87173125],[-0.67702382,44.87158453],[-0.67724748,44.87159334],[-0.67773188,44.87171248],[-0.68082586,44.87254276],[-0.68092748,44.87235282],[-0.68106034,44.87128666],[-0.68169984,44.87058224],[-0.681576,44.86867555],[-0.68227539,44.8686911],[-0.68352295,44.8681756],[-0.68369846,44.86820402],[-0.68458651,44.86854498],[-0.68420568,44.86899927],[-0.68410843,44.86917826],[-0.68369298,44.86962649],[-0.68453976,44.86962811],[-0.68491449,44.86969859],[-0.68749795,44.87068714],[-0.68747659,44.87076717],[-0.68751825,44.87082257],[-0.68724788,44.87108663],[-0.68626314,44.87253532],[-0.68606629,44.8727032],[-0.68612307,44.87285364],[-0.68621336,44.8728966],[-0.68607332,44.87290666],[-0.68593568,44.87297253],[-0.68558757,44.87330766],[-0.68428052,44.87540878],[-0.6838062,44.87592657],[-0.68326618,44.87638974],[-0.68326306,44.87647728],[-0.68318929,44.87651217],[-0.68330219,44.8770348],[-0.68589646,44.87719923],[-0.68693561,44.87734858],[-0.68706512,44.877429]]]]},"bbox":[-0.68780437,44.8681756,-0.67484572,44.88511636]}]}