{"type":"FeatureCollection","metadata":{"sourceType":"iris","referenceFile":"merignac-quartiers.geojson","source":"IGN / INSEE - Contours IRIS WFS Géoplateforme","sourceUrl":"https://geoservices.ign.fr/contoursiris","license":"Licence Ouverte / Open Licence 2.0","sourceYear":"2026"},"features":[{"type":"Feature","id":"fr-quartier-33281-fdaf12133461","properties":{"id":"fr-quartier-33281-fdaf12133461","kind":"quartier","name":"Arlac","cityCode":"33281","cityName":"Mérignac","sourceType":"iris","sourceIds":["iris-group:332810301+332810302"],"colorIndex":0,"center":[-0.6263254942324938,44.82286741034864]},"geometry":{"type":"Polygon","coordinates":[[[-0.63956957,44.82961951],[-0.63927156,44.82904706],[-0.63880617,44.82837375],[-0.63824021,44.82739911],[-0.63757942,44.82589852],[-0.63695706,44.8245607],[-0.63691229,44.82422149],[-0.63672306,44.82382212],[-0.63647631,44.82353189],[-0.63568403,44.82185715],[-0.63513796,44.82095305],[-0.63496257,44.82053249],[-0.63451195,44.81863745],[-0.63415723,44.81703039],[-0.63402457,44.81629118],[-0.63403338,44.81605566],[-0.63436037,44.81531671],[-0.63496011,44.81431194],[-0.63474528,44.81455332],[-0.63348186,44.8148507],[-0.63285832,44.81488105],[-0.63273019,44.81503396],[-0.6323079,44.81514153],[-0.63223456,44.81528003],[-0.63191496,44.81531123],[-0.63183266,44.81525264],[-0.6315937,44.815356],[-0.63143212,44.81518735],[-0.63073532,44.81504434],[-0.63037273,44.81474347],[-0.62991638,44.81469622],[-0.62983472,44.81441229],[-0.62968107,44.8143272],[-0.62703639,44.81462736],[-0.62637764,44.81489676],[-0.62638237,44.81500927],[-0.62566238,44.81552671],[-0.62528965,44.81548032],[-0.62459731,44.81554352],[-0.62415982,44.81578855],[-0.62358106,44.8159048],[-0.62339715,44.81607665],[-0.62329446,44.81617284],[-0.62309426,44.81701486],[-0.62276763,44.81711386],[-0.62178765,44.81740995],[-0.6213195,44.81780828],[-0.62088691,44.8179531],[-0.62019461,44.81786034],[-0.61949672,44.81762176],[-0.61825886,44.81788569],[-0.61788168,44.81822245],[-0.61730424,44.8190281],[-0.61332683,44.82013028],[-0.61355578,44.82048062],[-0.61162339,44.82154399],[-0.61136693,44.8217308],[-0.61120113,44.82218503],[-0.61054252,44.82265621],[-0.61188563,44.82288465],[-0.61315098,44.82251446],[-0.61316722,44.82310155],[-0.61403431,44.82319406],[-0.61487669,44.8230206],[-0.61503583,44.82307309],[-0.61490579,44.82526291],[-0.61412351,44.82528841],[-0.61389171,44.82538609],[-0.61358244,44.82650383],[-0.61566018,44.82686961],[-0.61664095,44.82693677],[-0.61692517,44.8270041],[-0.61812201,44.82769238],[-0.61820093,44.82777723],[-0.61834192,44.82780327],[-0.61941221,44.82835507],[-0.62004209,44.82857786],[-0.62317082,44.82870279],[-0.62440311,44.82897706],[-0.62510406,44.82908393],[-0.6255303,44.82911416],[-0.62624522,44.82906464],[-0.62671156,44.82902956],[-0.62770084,44.82895304],[-0.62832601,44.82904344],[-0.6293634,44.82931953],[-0.63045684,44.82969833],[-0.63273907,44.83030405],[-0.63331469,44.83046995],[-0.63338114,44.83051825],[-0.63378454,44.83035181],[-0.63724138,44.82951745],[-0.63802991,44.82948977],[-0.63956957,44.82961951]]]},"bbox":[-0.63956957,44.81431194,-0.61054252,44.83051825]},{"type":"Feature","id":"fr-quartier-33281-973805e3bd1c","properties":{"id":"fr-quartier-33281-973805e3bd1c","kind":"quartier","name":"Beaudésert","cityCode":"33281","cityName":"Mérignac","sourceType":"iris","sourceIds":["332811503"],"colorIndex":1,"center":[-0.6837754395025187,44.83805289858512]},"geometry":{"type":"MultiPolygon","coordinates":[[[[-0.69266072,44.84399678],[-0.6921323,44.84630642],[-0.69215999,44.84645782],[-0.69232685,44.84672176],[-0.69226167,44.84686724],[-0.69217639,44.8469575],[-0.69195828,44.84707022],[-0.69192115,44.84721837],[-0.69167747,44.84742387],[-0.68737292,44.84785818],[-0.6828943,44.84849819],[-0.68214644,44.84849328],[-0.681,44.84836098],[-0.68050111,44.84828831],[-0.67974717,44.84811323],[-0.67940603,44.84810833],[-0.67931412,44.8480591],[-0.6791079,44.84790911],[-0.67806541,44.84758406],[-0.6778266,44.84741983],[-0.67754651,44.84710915],[-0.67733005,44.84697663],[-0.67725983,44.8468717],[-0.67734847,44.84663892],[-0.67723764,44.84626225],[-0.67688017,44.84581443],[-0.67644504,44.84545751],[-0.6760502,44.84521283],[-0.6726804,44.84339566],[-0.67475934,44.84051202],[-0.67544624,44.83935541],[-0.67624256,44.83747143],[-0.67653694,44.83629898],[-0.67669495,44.83519144],[-0.67671114,44.83414269],[-0.67655925,44.8327516],[-0.67550207,44.82763119],[-0.67741942,44.82726117],[-0.67855269,44.82694778],[-0.68484565,44.82460722],[-0.68663114,44.82770966],[-0.68691547,44.8281049],[-0.68748649,44.82922066],[-0.68742829,44.82937581],[-0.68751255,44.82946314],[-0.68769205,44.829477],[-0.68830086,44.83028055],[-0.68598459,44.83094162],[-0.68637652,44.83220395],[-0.68360793,44.83259429],[-0.68594563,44.83275996],[-0.68715176,44.83289922],[-0.68763278,44.83281743],[-0.68777465,44.83333818],[-0.69095138,44.83368404],[-0.69149726,44.83362531],[-0.69147502,44.83380722],[-0.69156019,44.83394679],[-0.69165725,44.83401657],[-0.69185544,44.83406405],[-0.69209916,44.8340334],[-0.69230399,44.83391211],[-0.69244509,44.83388128],[-0.69347668,44.83385053],[-0.69431683,44.83375945],[-0.69492681,44.83363547],[-0.69468029,44.83499025],[-0.69440046,44.83518435],[-0.69428358,44.83539103],[-0.69429771,44.83562491],[-0.69449704,44.8360554],[-0.69452106,44.83626641],[-0.69441603,44.83638348],[-0.69450416,44.83647157],[-0.69427125,44.83657037],[-0.69419038,44.83670826],[-0.69413376,44.83696432],[-0.69416829,44.83735434],[-0.69411221,44.83777261],[-0.69266072,44.84399678]]]]},"bbox":[-0.69492681,44.82460722,-0.6726804,44.84849819]},{"type":"Feature","id":"fr-quartier-33281-c7b5604173a1","properties":{"id":"fr-quartier-33281-c7b5604173a1","kind":"quartier","name":"Beutre","cityCode":"33281","cityName":"Mérignac","sourceType":"iris","sourceIds":["332811401"],"colorIndex":2,"center":[-0.6999862645191024,44.81210733958303]},"geometry":{"type":"MultiPolygon","coordinates":[[[[-0.67241663,44.81298816],[-0.6730858,44.81307504],[-0.67521928,44.81309356],[-0.67924341,44.81280594],[-0.67981689,44.81270759],[-0.68281971,44.81144339],[-0.68543096,44.81067792],[-0.68690191,44.81015221],[-0.69295809,44.80697809],[-0.70145232,44.8024649],[-0.70139433,44.80241096],[-0.70450175,44.80023322],[-0.70470515,44.80024625],[-0.70636566,44.80123805],[-0.70876294,44.80077119],[-0.71320556,44.7997815],[-0.72159781,44.80204262],[-0.72328013,44.80205912],[-0.72356805,44.80178086],[-0.7294554,44.80159822],[-0.72847164,44.8038666],[-0.72887552,44.80405762],[-0.72889748,44.80429302],[-0.72792984,44.80585152],[-0.72661604,44.80967405],[-0.72614769,44.81351232],[-0.72602253,44.81355348],[-0.72569992,44.81357695],[-0.72185244,44.81299415],[-0.72075187,44.81295268],[-0.71909451,44.81318406],[-0.71492303,44.81388456],[-0.71448058,44.81389578],[-0.71393412,44.81382756],[-0.71372486,44.81384178],[-0.71349276,44.81391265],[-0.71333474,44.81387829],[-0.7125867,44.81422782],[-0.71153439,44.81453345],[-0.70962302,44.81529145],[-0.70340487,44.81700816],[-0.70249223,44.81730183],[-0.70072314,44.8180504],[-0.69931381,44.81872475],[-0.69960987,44.81904746],[-0.69887356,44.81948122],[-0.69888608,44.81982511],[-0.69847419,44.81991636],[-0.69845312,44.82009643],[-0.69815073,44.82025433],[-0.69755231,44.8202824],[-0.69755459,44.81983618],[-0.69737067,44.81954307],[-0.68956885,44.82293865],[-0.68484565,44.82460722],[-0.67855269,44.82694778],[-0.67741942,44.82726117],[-0.67550207,44.82763119],[-0.67390185,44.81999522],[-0.67241663,44.81298816]]]]},"bbox":[-0.7294554,44.7997815,-0.67241663,44.82763119]},{"type":"Feature","id":"fr-quartier-33281-b893a7976d0a","properties":{"id":"fr-quartier-33281-b893a7976d0a","kind":"quartier","name":"Bourdillot","cityCode":"33281","cityName":"Mérignac","sourceType":"iris","sourceIds":["332811201"],"colorIndex":3,"center":[-0.6198314287068742,44.83093210339838]},"geometry":{"type":"MultiPolygon","coordinates":[[[[-0.61262616,44.8325654],[-0.6130645,44.83227172],[-0.61362961,44.83156654],[-0.61387515,44.82987136],[-0.61379204,44.82909176],[-0.61352306,44.82896624],[-0.61286726,44.82780875],[-0.61284662,44.82776345],[-0.61261326,44.82663636],[-0.61358244,44.82650383],[-0.61566018,44.82686961],[-0.61664095,44.82693677],[-0.61692517,44.8270041],[-0.61812201,44.82769238],[-0.61820093,44.82777723],[-0.61834192,44.82780327],[-0.61941221,44.82835507],[-0.62004209,44.82857786],[-0.62317082,44.82870279],[-0.62440311,44.82897706],[-0.62510406,44.82908393],[-0.6255303,44.82911416],[-0.62624522,44.82906464],[-0.62671156,44.82902956],[-0.62643024,44.83083141],[-0.62648086,44.83188965],[-0.62678237,44.83204743],[-0.62650823,44.8334705],[-0.62665054,44.83532068],[-0.62647143,44.83537161],[-0.62530227,44.83488078],[-0.62389225,44.83450417],[-0.62313151,44.83443349],[-0.61983852,44.83398584],[-0.61262616,44.8325654]]]]},"bbox":[-0.62678237,44.82650383,-0.61261326,44.83537161]},{"type":"Feature","id":"fr-quartier-33281-de5d645d7825","properties":{"id":"fr-quartier-33281-de5d645d7825","kind":"quartier","name":"Bourran","cityCode":"33281","cityName":"Mérignac","sourceType":"iris","sourceIds":["332810502"],"colorIndex":4,"center":[-0.633586020069355,44.84127940649553]},"geometry":{"type":"MultiPolygon","coordinates":[[[[-0.63042086,44.84385324],[-0.62931876,44.84363875],[-0.62859369,44.84118215],[-0.62849284,44.84056266],[-0.62822072,44.84027234],[-0.6278848,44.84026891],[-0.62762275,44.83958529],[-0.6269654,44.83893984],[-0.62819196,44.83921968],[-0.62905694,44.83935361],[-0.62940516,44.83937105],[-0.63191368,44.83929795],[-0.63647105,44.83938925],[-0.63753556,44.83959138],[-0.63840254,44.8398144],[-0.63942471,44.84012515],[-0.63984198,44.84030884],[-0.63969198,44.84100415],[-0.63926478,44.84232864],[-0.6392462,44.84249148],[-0.63929019,44.84264236],[-0.63826478,44.8425363],[-0.63689407,44.8426146],[-0.63681184,44.84267498],[-0.63631635,44.84372861],[-0.63593039,44.84363762],[-0.63544365,44.84361391],[-0.63525064,44.84348955],[-0.63273335,44.84296006],[-0.63218166,44.84334225],[-0.63213618,44.84344198],[-0.63200761,44.84341284],[-0.63042086,44.84385324]]]]},"bbox":[-0.63984198,44.83893984,-0.6269654,44.84385324]},{"type":"Feature","id":"fr-quartier-33281-58df0e665bdd","properties":{"id":"fr-quartier-33281-58df0e665bdd","kind":"quartier","name":"Capeyron","cityCode":"33281","cityName":"Mérignac","sourceType":"iris","sourceIds":["iris-group:332810201+332810202+332810203"],"colorIndex":5,"center":[-0.6457037754960459,44.8510932019574]},"geometry":{"type":"Polygon","coordinates":[[[-0.65602867,44.84960147],[-0.65564916,44.84943552],[-0.65525238,44.84933503],[-0.6539094,44.84921885],[-0.65329797,44.8491101],[-0.65296223,44.849013],[-0.6523261,44.8487194],[-0.65062684,44.84744953],[-0.65005796,44.84688421],[-0.64908601,44.84625735],[-0.64874471,44.84609372],[-0.64790644,44.84582747],[-0.6474866,44.84562497],[-0.64728087,44.84546139],[-0.64673404,44.84488362],[-0.64643217,44.84466371],[-0.64599633,44.84452662],[-0.6450876,44.84432576],[-0.6417683,44.84395351],[-0.64047919,44.84400124],[-0.63959748,44.84396258],[-0.63896842,44.8471179],[-0.63900218,44.84732589],[-0.63910323,44.8474776],[-0.6389564,44.84759688],[-0.63806891,44.84928797],[-0.63793526,44.84963034],[-0.63791964,44.84989763],[-0.63780291,44.84995374],[-0.63786507,44.85005264],[-0.63761928,44.85038517],[-0.637113,44.85189881],[-0.6371441,44.85196809],[-0.63720275,44.85302969],[-0.63706991,44.85377581],[-0.63645635,44.85375176],[-0.63605408,44.85505289],[-0.63676755,44.85526925],[-0.63699669,44.85518783],[-0.63738355,44.85517425],[-0.63695766,44.85614989],[-0.63809718,44.85644871],[-0.63898548,44.85631232],[-0.64245364,44.85625348],[-0.64352739,44.85616324],[-0.64378265,44.85611339],[-0.64394431,44.85614414],[-0.64600219,44.85618377],[-0.64950277,44.85619485],[-0.65022819,44.85624309],[-0.65502371,44.85675846],[-0.65483209,44.85582021],[-0.65478949,44.85524388],[-0.65480812,44.85496567],[-0.65501589,44.8541089],[-0.65530855,44.85278516],[-0.65542727,44.85089212],[-0.65553867,44.8505793],[-0.65602867,44.84960147]]]},"bbox":[-0.65602867,44.84395351,-0.63605408,44.85675846]},{"type":"Feature","id":"fr-quartier-33281-adc2efa4e0a9","properties":{"id":"fr-quartier-33281-adc2efa4e0a9","kind":"quartier","name":"Centre Ville","cityCode":"33281","cityName":"Mérignac","sourceType":"iris","sourceIds":["iris-group:332810101+332810102+332810103+332810104"],"colorIndex":6,"center":[-0.6509199350700176,44.83996519003484]},"geometry":{"type":"Polygon","coordinates":[[[-0.66199933,44.83855916],[-0.66188596,44.83847187],[-0.6615015,44.83838452],[-0.66116254,44.83815957],[-0.66104372,44.83802739],[-0.66096198,44.83778404],[-0.66084412,44.83642336],[-0.66065346,44.83606373],[-0.66037195,44.83586482],[-0.65963826,44.83556908],[-0.65906952,44.83518046],[-0.65872668,44.83481773],[-0.65735698,44.83269169],[-0.65719447,44.83253031],[-0.65259473,44.83304604],[-0.64997646,44.83329719],[-0.6493249,44.83321138],[-0.64798067,44.83295277],[-0.64693743,44.83272571],[-0.64622677,44.83264634],[-0.64058487,44.83279656],[-0.64108354,44.83597435],[-0.64164279,44.83612092],[-0.64144554,44.83694667],[-0.64145793,44.83703999],[-0.64166295,44.83729103],[-0.64170079,44.83744481],[-0.6416268,44.83757342],[-0.64104018,44.83802079],[-0.64045474,44.83868173],[-0.64026848,44.83924754],[-0.64031011,44.84012403],[-0.64018187,44.84019764],[-0.6402267,44.84032235],[-0.64017389,44.84044576],[-0.63984198,44.84030884],[-0.63969198,44.84100415],[-0.63926478,44.84232864],[-0.6392462,44.84249148],[-0.63929019,44.84264236],[-0.6395717,44.84319372],[-0.63963062,44.84357484],[-0.63959748,44.84396258],[-0.64047919,44.84400124],[-0.6417683,44.84395351],[-0.6450876,44.84432576],[-0.64599633,44.84452662],[-0.64643217,44.84466371],[-0.64673404,44.84488362],[-0.64728087,44.84546139],[-0.6474866,44.84562497],[-0.64790644,44.84582747],[-0.64874471,44.84609372],[-0.64908601,44.84625735],[-0.65005796,44.84688421],[-0.65062684,44.84744953],[-0.6523261,44.8487194],[-0.65296223,44.849013],[-0.65329797,44.8491101],[-0.6539094,44.84921885],[-0.65525238,44.84933503],[-0.65564916,44.84943552],[-0.65602867,44.84960147],[-0.65614756,44.84940377],[-0.65657706,44.84891733],[-0.65809826,44.84727728],[-0.65918782,44.84574158],[-0.65942388,44.84524258],[-0.65961164,44.84454689],[-0.65961977,44.84430237],[-0.65958288,44.84391152],[-0.65965392,44.84352432],[-0.65977894,44.84328496],[-0.66022265,44.84278451],[-0.66071113,44.84211585],[-0.66102349,44.84115557],[-0.66129026,44.83971009],[-0.66172032,44.83882614],[-0.66196759,44.83867467],[-0.66199933,44.83855916]]]},"bbox":[-0.66199933,44.83253031,-0.6392462,44.84960147]},{"type":"Feature","id":"fr-quartier-33281-6deb06b4a2de","properties":{"id":"fr-quartier-33281-6deb06b4a2de","kind":"quartier","name":"Chemin Long et Garies","cityCode":"33281","cityName":"Mérignac","sourceType":"iris","sourceIds":["332810401"],"colorIndex":7,"center":[-0.6617142146821284,44.819246371618064]},"geometry":{"type":"MultiPolygon","coordinates":[[[[-0.64899849,44.81421485],[-0.65034999,44.81418297],[-0.65133911,44.81377726],[-0.65179058,44.81386604],[-0.65220525,44.81371989],[-0.65262312,44.81370071],[-0.65292007,44.81347732],[-0.65323256,44.81347334],[-0.6538444,44.81295205],[-0.65478659,44.81252623],[-0.65655474,44.81214616],[-0.65877113,44.81172783],[-0.65930069,44.81153821],[-0.65911575,44.81099272],[-0.65961303,44.81085193],[-0.65987638,44.81069632],[-0.66116801,44.81040762],[-0.66165982,44.81039678],[-0.66191305,44.8102415],[-0.66211583,44.81032223],[-0.66309528,44.81013935],[-0.66333585,44.81017827],[-0.66340586,44.81026157],[-0.6651198,44.81351537],[-0.67120903,44.81301284],[-0.67174488,44.81290045],[-0.67208076,44.81294431],[-0.67241663,44.81298816],[-0.67390185,44.81999522],[-0.67277228,44.82028591],[-0.6724073,44.82163733],[-0.67196286,44.82291658],[-0.67194515,44.82400143],[-0.67074982,44.82555429],[-0.67039327,44.82579593],[-0.67015337,44.82590391],[-0.67023034,44.82609334],[-0.67034717,44.82805521],[-0.66898204,44.82809679],[-0.66850973,44.82815658],[-0.66606342,44.82868994],[-0.66450906,44.82891797],[-0.66417221,44.82715265],[-0.66388599,44.82655103],[-0.66283856,44.82662799],[-0.6572656,44.82685522],[-0.65670793,44.82682945],[-0.65629061,44.82676119],[-0.65620666,44.82549134],[-0.65606314,44.82542667],[-0.65601061,44.825359],[-0.65585293,44.8239681],[-0.65605074,44.82375788],[-0.65641269,44.82375406],[-0.65625893,44.82279294],[-0.65529259,44.82294738],[-0.65131919,44.82328741],[-0.65015615,44.82380609],[-0.64959909,44.82049597],[-0.64945658,44.82023208],[-0.64938546,44.81960532],[-0.64892475,44.81863448],[-0.64856441,44.81766844],[-0.64843212,44.81629473],[-0.6484681,44.81501643],[-0.64852805,44.81478913],[-0.6486767,44.8145436],[-0.64899849,44.81421485]]]]},"bbox":[-0.67390185,44.81013935,-0.64843212,44.82891797]},{"type":"Feature","id":"fr-quartier-33281-3f67120da871","properties":{"id":"fr-quartier-33281-3f67120da871","kind":"quartier","name":"Eyquems","cityCode":"33281","cityName":"Mérignac","sourceType":"iris","sourceIds":["332810701"],"colorIndex":8,"center":[-0.6475437103567054,44.82832888712905]},"geometry":{"type":"MultiPolygon","coordinates":[[[[-0.63956957,44.82961951],[-0.63927156,44.82904706],[-0.63880617,44.82837375],[-0.63824021,44.82739911],[-0.63757942,44.82589852],[-0.63889177,44.82590322],[-0.6395382,44.82583334],[-0.64004305,44.82572844],[-0.64200877,44.8251844],[-0.6441929,44.82474762],[-0.64502287,44.82475458],[-0.64552396,44.82480661],[-0.64563025,44.82488333],[-0.64695666,44.82467567],[-0.6480346,44.82440588],[-0.64931543,44.82414021],[-0.65015615,44.82380609],[-0.65131919,44.82328741],[-0.65529259,44.82294738],[-0.65625893,44.82279294],[-0.65641269,44.82375406],[-0.65605074,44.82375788],[-0.65585293,44.8239681],[-0.65601061,44.825359],[-0.65606314,44.82542667],[-0.65620666,44.82549134],[-0.65629061,44.82676119],[-0.65464922,44.82650797],[-0.65403295,44.8264769],[-0.6535725,44.82650469],[-0.65422605,44.82926905],[-0.65409786,44.82986813],[-0.65412706,44.83021957],[-0.65401019,44.83025317],[-0.65395153,44.83034433],[-0.65408475,44.83048414],[-0.65445091,44.83198445],[-0.6543869,44.83216862],[-0.65443985,44.83220383],[-0.65332384,44.83278588],[-0.65259473,44.83304604],[-0.64997646,44.83329719],[-0.6493249,44.83321138],[-0.64798067,44.83295277],[-0.64693743,44.83272571],[-0.64622677,44.83264634],[-0.64058487,44.83279656],[-0.64042977,44.83251414],[-0.63956957,44.82961951]]]]},"bbox":[-0.65641269,44.82279294,-0.63757942,44.83329719]},{"type":"Feature","id":"fr-quartier-33281-5e774fefedac","properties":{"id":"fr-quartier-33281-5e774fefedac","kind":"quartier","name":"Labatut","cityCode":"33281","cityName":"Mérignac","sourceType":"iris","sourceIds":["iris-group:332811002+332811003"],"colorIndex":9,"center":[-0.6336681277281747,44.83465406631952]},"geometry":{"type":"Polygon","coordinates":[[[-0.64170079,44.83744481],[-0.64166295,44.83729103],[-0.64145793,44.83703999],[-0.64144554,44.83694667],[-0.64164279,44.83612092],[-0.64108354,44.83597435],[-0.64058487,44.83279656],[-0.64042977,44.83251414],[-0.63956957,44.82961951],[-0.63802991,44.82948977],[-0.63724138,44.82951745],[-0.63378454,44.83035181],[-0.63338114,44.83051825],[-0.63331469,44.83046995],[-0.63273907,44.83030405],[-0.63045684,44.82969833],[-0.6293634,44.82931953],[-0.62832601,44.82904344],[-0.62770084,44.82895304],[-0.62671156,44.82902956],[-0.62643024,44.83083141],[-0.62648086,44.83188965],[-0.62678237,44.83204743],[-0.62650823,44.8334705],[-0.62665054,44.83532068],[-0.62719705,44.8351532],[-0.62698533,44.83660127],[-0.62686231,44.83675581],[-0.62694159,44.83690463],[-0.62633369,44.83688666],[-0.62624512,44.83684899],[-0.62621716,44.83688686],[-0.62616472,44.83772226],[-0.62597065,44.83824774],[-0.62589029,44.83878843],[-0.62661796,44.8388755],[-0.6269654,44.83893984],[-0.62819196,44.83921968],[-0.62905694,44.83935361],[-0.62940516,44.83937105],[-0.63191368,44.83929795],[-0.63647105,44.83938925],[-0.63753556,44.83959138],[-0.63840254,44.8398144],[-0.63942471,44.84012515],[-0.63984198,44.84030884],[-0.64017389,44.84044576],[-0.6402267,44.84032235],[-0.64018187,44.84019764],[-0.64031011,44.84012403],[-0.64026848,44.83924754],[-0.64045474,44.83868173],[-0.64104018,44.83802079],[-0.6416268,44.83757342],[-0.64170079,44.83744481]]]},"bbox":[-0.64170079,44.82895304,-0.62589029,44.84044576]},{"type":"Feature","id":"fr-quartier-33281-3f59797cfbe1","properties":{"id":"fr-quartier-33281-3f59797cfbe1","kind":"quartier","name":"La Forêt","cityCode":"33281","cityName":"Mérignac","sourceType":"iris","sourceIds":["332810901"],"colorIndex":10,"center":[-0.648074871816131,44.859063992083925]},"geometry":{"type":"MultiPolygon","coordinates":[[[[-0.66022389,44.85743424],[-0.65738855,44.86012711],[-0.65646441,44.86039461],[-0.65543719,44.86092778],[-0.65313046,44.8617212],[-0.65310898,44.8627539],[-0.64609575,44.86248077],[-0.64511035,44.86223555],[-0.64306106,44.86141418],[-0.64219014,44.86123367],[-0.63832304,44.86073416],[-0.6386746,44.85999979],[-0.63826644,44.85993927],[-0.63869889,44.85916259],[-0.63786591,44.85886274],[-0.63791177,44.85878823],[-0.63757878,44.85865584],[-0.63729699,44.85868762],[-0.63701087,44.85857442],[-0.63851036,44.85691915],[-0.63747978,44.85660054],[-0.63809718,44.85644871],[-0.63898548,44.85631232],[-0.64245364,44.85625348],[-0.64352739,44.85616324],[-0.64378265,44.85611339],[-0.64394431,44.85614414],[-0.64600219,44.85618377],[-0.64950277,44.85619485],[-0.65022819,44.85624309],[-0.65502371,44.85675846],[-0.65768559,44.8570628],[-0.6602376,44.85741125],[-0.66022389,44.85743424]]]]},"bbox":[-0.6602376,44.85611339,-0.63701087,44.8627539]},{"type":"Feature","id":"fr-quartier-33281-0d5ca5872260","properties":{"id":"fr-quartier-33281-0d5ca5872260","kind":"quartier","name":"La Glacière","cityCode":"33281","cityName":"Mérignac","sourceType":"iris","sourceIds":["332811101"],"colorIndex":11,"center":[-0.6174215876327014,44.83613342277267]},"geometry":{"type":"MultiPolygon","coordinates":[[[[-0.62589029,44.83878843],[-0.6222515,44.83856125],[-0.62103344,44.83858931],[-0.61911964,44.83865178],[-0.6156533,44.83850528],[-0.61380518,44.83834831],[-0.61227783,44.83837283],[-0.61129387,44.83829853],[-0.60967456,44.83811421],[-0.60896147,44.83789858],[-0.60686853,44.83700591],[-0.6068492,44.83696148],[-0.608576,44.83674938],[-0.60884261,44.83664067],[-0.60940328,44.83594376],[-0.61031788,44.83419166],[-0.61062965,44.83423379],[-0.61121913,44.83331602],[-0.61262616,44.8325654],[-0.61983852,44.83398584],[-0.62313151,44.83443349],[-0.62389225,44.83450417],[-0.62530227,44.83488078],[-0.62647143,44.83537161],[-0.62665054,44.83532068],[-0.62719705,44.8351532],[-0.62698533,44.83660127],[-0.62686231,44.83675581],[-0.62694159,44.83690463],[-0.62633369,44.83688666],[-0.62624512,44.83684899],[-0.62621716,44.83688686],[-0.62616472,44.83772226],[-0.62597065,44.83824774],[-0.62589029,44.83878843]]]]},"bbox":[-0.62719705,44.8325654,-0.6068492,44.83878843]},{"type":"Feature","id":"fr-quartier-33281-8e45b047ade3","properties":{"id":"fr-quartier-33281-8e45b047ade3","kind":"quartier","name":"Le Burck","cityCode":"33281","cityName":"Mérignac","sourceType":"iris","sourceIds":["332811301"],"colorIndex":12,"center":[-0.6420667161073548,44.819534721253014]},"geometry":{"type":"MultiPolygon","coordinates":[[[[-0.63496011,44.81431194],[-0.63513616,44.81405832],[-0.63527266,44.81403492],[-0.63539873,44.8140461],[-0.63548153,44.81415154],[-0.63550035,44.81426629],[-0.63539141,44.81434377],[-0.63547791,44.81454552],[-0.63677467,44.81448947],[-0.63702018,44.81440931],[-0.63740998,44.81446502],[-0.63742101,44.81440066],[-0.63832324,44.8143332],[-0.63832864,44.81439702],[-0.63860926,44.81433103],[-0.63919758,44.81442167],[-0.64047882,44.81430209],[-0.64152112,44.81399297],[-0.64210923,44.81368974],[-0.6426993,44.81351443],[-0.64349257,44.81346583],[-0.64355933,44.81365561],[-0.64382603,44.81386315],[-0.64412508,44.81396418],[-0.64588661,44.8140072],[-0.64899849,44.81421485],[-0.6486767,44.8145436],[-0.64852805,44.81478913],[-0.6484681,44.81501643],[-0.64843212,44.81629473],[-0.64856441,44.81766844],[-0.64892475,44.81863448],[-0.64938546,44.81960532],[-0.64945658,44.82023208],[-0.64959909,44.82049597],[-0.65015615,44.82380609],[-0.64931543,44.82414021],[-0.6480346,44.82440588],[-0.64695666,44.82467567],[-0.64563025,44.82488333],[-0.64552396,44.82480661],[-0.64502287,44.82475458],[-0.6441929,44.82474762],[-0.64200877,44.8251844],[-0.64004305,44.82572844],[-0.6395382,44.82583334],[-0.63889177,44.82590322],[-0.63757942,44.82589852],[-0.63695706,44.8245607],[-0.63691229,44.82422149],[-0.63672306,44.82382212],[-0.63647631,44.82353189],[-0.63568403,44.82185715],[-0.63513796,44.82095305],[-0.63496257,44.82053249],[-0.63451195,44.81863745],[-0.63415723,44.81703039],[-0.63402457,44.81629118],[-0.63403338,44.81605566],[-0.63436037,44.81531671],[-0.63496011,44.81431194]]]]},"bbox":[-0.65015615,44.81346583,-0.63402457,44.82590322]},{"type":"Feature","id":"fr-quartier-33281-a874ca1b3cee","properties":{"id":"fr-quartier-33281-a874ca1b3cee","kind":"quartier","name":"Le Jard","cityCode":"33281","cityName":"Mérignac","sourceType":"iris","sourceIds":["332810501"],"colorIndex":13,"center":[-0.6355412448238368,44.846839652446945]},"geometry":{"type":"MultiPolygon","coordinates":[[[[-0.63213778,44.85139668],[-0.63354661,44.84832221],[-0.63278822,44.84799735],[-0.63310569,44.84732361],[-0.63298763,44.84722202],[-0.63307694,44.84709472],[-0.63296876,44.84698921],[-0.63348775,44.84637556],[-0.63341677,44.84629677],[-0.63199076,44.84618755],[-0.63196695,44.84609369],[-0.63157813,44.8460172],[-0.63043927,44.8455092],[-0.63107478,44.84456188],[-0.63132967,44.84401727],[-0.63082082,44.84386719],[-0.63042086,44.84385324],[-0.63200761,44.84341284],[-0.63213618,44.84344198],[-0.63218166,44.84334225],[-0.63273335,44.84296006],[-0.63525064,44.84348955],[-0.63544365,44.84361391],[-0.63593039,44.84363762],[-0.63631635,44.84372861],[-0.63681184,44.84267498],[-0.63689407,44.8426146],[-0.63826478,44.8425363],[-0.63929019,44.84264236],[-0.6395717,44.84319372],[-0.63963062,44.84357484],[-0.63959748,44.84396258],[-0.63896842,44.8471179],[-0.63900218,44.84732589],[-0.63910323,44.8474776],[-0.6389564,44.84759688],[-0.63806891,44.84928797],[-0.63793526,44.84963034],[-0.63791964,44.84989763],[-0.63780291,44.84995374],[-0.63786507,44.85005264],[-0.63761928,44.85038517],[-0.637113,44.85189881],[-0.6371441,44.85196809],[-0.6352026,44.85160993],[-0.63452783,44.85155994],[-0.6333855,44.85160728],[-0.63213778,44.85139668]]]]},"bbox":[-0.63963062,44.8425363,-0.63042086,44.85196809]},{"type":"Feature","id":"fr-quartier-33281-1fa65b742e8c","properties":{"id":"fr-quartier-33281-1fa65b742e8c","kind":"quartier","name":"Les Pins","cityCode":"33281","cityName":"Mérignac","sourceType":"iris","sourceIds":["332810801"],"colorIndex":14,"center":[-0.6605005351867235,44.852575324625676]},"geometry":{"type":"MultiPolygon","coordinates":[[[[-0.66220581,44.85770682],[-0.66022389,44.85743424],[-0.6602376,44.85741125],[-0.65768559,44.8570628],[-0.65502371,44.85675846],[-0.65483209,44.85582021],[-0.65478949,44.85524388],[-0.65480812,44.85496567],[-0.65501589,44.8541089],[-0.65530855,44.85278516],[-0.65542727,44.85089212],[-0.65553867,44.8505793],[-0.65602867,44.84960147],[-0.65614756,44.84940377],[-0.65657706,44.84891733],[-0.65809826,44.84727728],[-0.65975319,44.84809785],[-0.66025189,44.84826526],[-0.66529348,44.84906498],[-0.66605632,44.84929934],[-0.66617908,44.84921957],[-0.6662946,44.84922297],[-0.66637151,44.84923665],[-0.66649573,44.84933439],[-0.66682517,44.84931539],[-0.66821839,44.84957937],[-0.66364363,44.85589459],[-0.66220581,44.85770682]]]]},"bbox":[-0.66821839,44.84727728,-0.65478949,44.85770682]},{"type":"Feature","id":"fr-quartier-33281-a94a655ff04a","properties":{"id":"fr-quartier-33281-a94a655ff04a","kind":"quartier","name":"Marchegay","cityCode":"33281","cityName":"Mérignac","sourceType":"iris","sourceIds":["332811501"],"colorIndex":15,"center":[-0.7228033397838696,44.84340003857671]},"geometry":{"type":"MultiPolygon","coordinates":[[[[-0.73845549,44.82958514],[-0.74248182,44.83039843],[-0.7474407,44.83121431],[-0.75383461,44.83249968],[-0.75376138,44.83818696],[-0.753891,44.84052338],[-0.75358738,44.84075719],[-0.75418614,44.84128043],[-0.75389008,44.84187363],[-0.75397054,44.84218638],[-0.75423399,44.84245057],[-0.75481797,44.84265794],[-0.75501841,44.84283232],[-0.7549187,44.84333054],[-0.75501862,44.84351734],[-0.75518481,44.84365323],[-0.75564349,44.84371071],[-0.75588715,44.84383045],[-0.75609999,44.84419009],[-0.7557948,44.84457088],[-0.75579063,44.84494418],[-0.7560222,44.84520494],[-0.75677001,44.84549329],[-0.75708177,44.84583515],[-0.75705131,44.84642116],[-0.75694036,44.84669443],[-0.75624002,44.8466235],[-0.75438473,44.84665568],[-0.75315171,44.84904002],[-0.75178214,44.84923147],[-0.75108928,44.84940543],[-0.75079709,44.84965958],[-0.74639211,44.8504475],[-0.7294445,44.84826863],[-0.72772381,44.84807681],[-0.72517289,44.84793717],[-0.72111158,44.8472605],[-0.71931792,44.8470755],[-0.71605965,44.84788594],[-0.70860274,44.84991024],[-0.70600063,44.85068402],[-0.70373905,44.85122374],[-0.70343405,44.8514214],[-0.70150509,44.85179854],[-0.69521793,44.85345569],[-0.69205453,44.85438933],[-0.67722521,44.85848895],[-0.67705855,44.85789871],[-0.67671456,44.85744503],[-0.6764091,44.85696033],[-0.67637094,44.8568228],[-0.67727757,44.85406628],[-0.6774785,44.85388386],[-0.67742113,44.85362708],[-0.6793878,44.84823602],[-0.67931412,44.8480591],[-0.67940603,44.84810833],[-0.67974717,44.84811323],[-0.68050111,44.84828831],[-0.681,44.84836098],[-0.68214644,44.84849328],[-0.6828943,44.84849819],[-0.68737292,44.84785818],[-0.69167747,44.84742387],[-0.69192115,44.84721837],[-0.69195828,44.84707022],[-0.69217639,44.8469575],[-0.69226167,44.84686724],[-0.69232685,44.84672176],[-0.69215999,44.84645782],[-0.6921323,44.84630642],[-0.69266072,44.84399678],[-0.69479277,44.84436021],[-0.69661466,44.84311066],[-0.69669189,44.84355243],[-0.69844705,44.8434831],[-0.69827895,44.8419123],[-0.70139913,44.8397586],[-0.70202023,44.84080143],[-0.70430386,44.84497943],[-0.70438469,44.84499475],[-0.70441995,44.84481872],[-0.704534,44.84470405],[-0.70494443,44.84462634],[-0.71534182,44.83887867],[-0.71582917,44.83871993],[-0.71647831,44.83838362],[-0.71661664,44.83836816],[-0.71716655,44.83815955],[-0.71720553,44.83802124],[-0.71797719,44.83777545],[-0.71655492,44.83533095],[-0.71725666,44.83408703],[-0.72207487,44.83266806],[-0.72839704,44.8339681],[-0.72900449,44.83371153],[-0.7295141,44.83253527],[-0.73381239,44.83341814],[-0.73489912,44.83280739],[-0.73557376,44.83236194],[-0.73648396,44.83105949],[-0.73712007,44.83054953],[-0.73845549,44.82958514]]]]},"bbox":[-0.75708177,44.82958514,-0.67637094,44.85848895]},{"type":"Feature","id":"fr-quartier-33281-f824d028ad17","properties":{"id":"fr-quartier-33281-f824d028ad17","kind":"quartier","name":"Piquey","cityCode":"33281","cityName":"Mérignac","sourceType":"iris","sourceIds":["332810601"],"colorIndex":16,"center":[-0.6666338270908765,44.840528055439435]},"geometry":{"type":"MultiPolygon","coordinates":[[[[-0.6726804,44.84339566],[-0.66821839,44.84957937],[-0.66682517,44.84931539],[-0.66649573,44.84933439],[-0.66637151,44.84923665],[-0.6662946,44.84922297],[-0.66617908,44.84921957],[-0.66605632,44.84929934],[-0.66529348,44.84906498],[-0.66025189,44.84826526],[-0.65975319,44.84809785],[-0.65809826,44.84727728],[-0.65918782,44.84574158],[-0.65942388,44.84524258],[-0.65961164,44.84454689],[-0.65961977,44.84430237],[-0.65958288,44.84391152],[-0.65965392,44.84352432],[-0.65977894,44.84328496],[-0.66022265,44.84278451],[-0.66071113,44.84211585],[-0.66102349,44.84115557],[-0.66129026,44.83971009],[-0.66172032,44.83882614],[-0.66196759,44.83867467],[-0.66199933,44.83855916],[-0.66188596,44.83847187],[-0.6615015,44.83838452],[-0.66116254,44.83815957],[-0.66104372,44.83802739],[-0.66096198,44.83778404],[-0.66084412,44.83642336],[-0.66065346,44.83606373],[-0.66037195,44.83586482],[-0.65963826,44.83556908],[-0.65906952,44.83518046],[-0.65872668,44.83481773],[-0.65735698,44.83269169],[-0.65719447,44.83253031],[-0.65945057,44.83230086],[-0.66083078,44.83241123],[-0.66219672,44.83267166],[-0.66373303,44.83301929],[-0.66648232,44.83353409],[-0.6690465,44.83410363],[-0.669238,44.8341072],[-0.6716936,44.8345649],[-0.67669495,44.83519144],[-0.67653694,44.83629898],[-0.67624256,44.83747143],[-0.67544624,44.83935541],[-0.67475934,44.84051202],[-0.6726804,44.84339566]]]]},"bbox":[-0.67669495,44.83230086,-0.65719447,44.84957937]},{"type":"Feature","id":"fr-quartier-33281-89be257b9bc8","properties":{"id":"fr-quartier-33281-89be257b9bc8","kind":"quartier","name":"Z.I. du Phare","cityCode":"33281","cityName":"Mérignac","sourceType":"iris","sourceIds":["332811504"],"colorIndex":17,"center":[-0.6719870255476549,44.852409521313234]},"geometry":{"type":"MultiPolygon","coordinates":[[[[-0.67722521,44.85848895],[-0.67692341,44.85850526],[-0.67582317,44.85881032],[-0.67506278,44.85888688],[-0.66654815,44.85828353],[-0.66220581,44.85770682],[-0.66364363,44.85589459],[-0.66821839,44.84957937],[-0.6726804,44.84339566],[-0.6760502,44.84521283],[-0.67644504,44.84545751],[-0.67688017,44.84581443],[-0.67723764,44.84626225],[-0.67734847,44.84663892],[-0.67725983,44.8468717],[-0.67733005,44.84697663],[-0.67754651,44.84710915],[-0.6778266,44.84741983],[-0.67806541,44.84758406],[-0.6791079,44.84790911],[-0.67931412,44.8480591],[-0.6793878,44.84823602],[-0.67742113,44.85362708],[-0.6774785,44.85388386],[-0.67727757,44.85406628],[-0.67637094,44.8568228],[-0.6764091,44.85696033],[-0.67671456,44.85744503],[-0.67705855,44.85789871],[-0.67722521,44.85848895]]]]},"bbox":[-0.6793878,44.84339566,-0.66220581,44.85888688]},{"type":"Feature","id":"fr-quartier-33281-52d16c0f87eb","properties":{"id":"fr-quartier-33281-52d16c0f87eb","kind":"quartier","name":"Zone Aéroportuaire","cityCode":"33281","cityName":"Mérignac","sourceType":"iris","sourceIds":["332811502"],"colorIndex":18,"center":[-0.7104417626844413,44.82776196094811]},"geometry":{"type":"MultiPolygon","coordinates":[[[[-0.72614769,44.81351232],[-0.72619712,44.81376123],[-0.72727195,44.81539886],[-0.72831133,44.81741713],[-0.72985826,44.81988792],[-0.73369408,44.8255057],[-0.73486221,44.8269779],[-0.73828087,44.82954957],[-0.73845549,44.82958514],[-0.73712007,44.83054953],[-0.73648396,44.83105949],[-0.73557376,44.83236194],[-0.73489912,44.83280739],[-0.73381239,44.83341814],[-0.7295141,44.83253527],[-0.72900449,44.83371153],[-0.72839704,44.8339681],[-0.72207487,44.83266806],[-0.71725666,44.83408703],[-0.71655492,44.83533095],[-0.71797719,44.83777545],[-0.71720553,44.83802124],[-0.71716655,44.83815955],[-0.71661664,44.83836816],[-0.71647831,44.83838362],[-0.71582917,44.83871993],[-0.71534182,44.83887867],[-0.70494443,44.84462634],[-0.704534,44.84470405],[-0.70441995,44.84481872],[-0.70438469,44.84499475],[-0.70430386,44.84497943],[-0.70202023,44.84080143],[-0.70139913,44.8397586],[-0.69827895,44.8419123],[-0.69844705,44.8434831],[-0.69669189,44.84355243],[-0.69661466,44.84311066],[-0.69479277,44.84436021],[-0.69266072,44.84399678],[-0.69411221,44.83777261],[-0.69416829,44.83735434],[-0.69413376,44.83696432],[-0.69419038,44.83670826],[-0.69427125,44.83657037],[-0.69450416,44.83647157],[-0.69441603,44.83638348],[-0.69452106,44.83626641],[-0.69449704,44.8360554],[-0.69429771,44.83562491],[-0.69428358,44.83539103],[-0.69440046,44.83518435],[-0.69468029,44.83499025],[-0.69492681,44.83363547],[-0.69431683,44.83375945],[-0.69347668,44.83385053],[-0.69244509,44.83388128],[-0.69230399,44.83391211],[-0.69209916,44.8340334],[-0.69185544,44.83406405],[-0.69165725,44.83401657],[-0.69156019,44.83394679],[-0.69147502,44.83380722],[-0.69149726,44.83362531],[-0.69095138,44.83368404],[-0.68777465,44.83333818],[-0.68763278,44.83281743],[-0.68715176,44.83289922],[-0.68594563,44.83275996],[-0.68360793,44.83259429],[-0.68637652,44.83220395],[-0.68598459,44.83094162],[-0.68830086,44.83028055],[-0.68769205,44.829477],[-0.68751255,44.82946314],[-0.68742829,44.82937581],[-0.68748649,44.82922066],[-0.68691547,44.8281049],[-0.68663114,44.82770966],[-0.68484565,44.82460722],[-0.68956885,44.82293865],[-0.69737067,44.81954307],[-0.69755459,44.81983618],[-0.69755231,44.8202824],[-0.69815073,44.82025433],[-0.69845312,44.82009643],[-0.69847419,44.81991636],[-0.69888608,44.81982511],[-0.69887356,44.81948122],[-0.69960987,44.81904746],[-0.69931381,44.81872475],[-0.70072314,44.8180504],[-0.70249223,44.81730183],[-0.70340487,44.81700816],[-0.70962302,44.81529145],[-0.71153439,44.81453345],[-0.7125867,44.81422782],[-0.71333474,44.81387829],[-0.71349276,44.81391265],[-0.71372486,44.81384178],[-0.71393412,44.81382756],[-0.71448058,44.81389578],[-0.71492303,44.81388456],[-0.71909451,44.81318406],[-0.72075187,44.81295268],[-0.72185244,44.81299415],[-0.72569992,44.81357695],[-0.72602253,44.81355348],[-0.72614769,44.81351232]]]]},"bbox":[-0.73845549,44.81295268,-0.68360793,44.84499475]},{"type":"Feature","id":"fr-quartier-33281-6333ef39a198","properties":{"id":"fr-quartier-33281-6333ef39a198","kind":"quartier","name":"Zone Commerciale Chemin Long","cityCode":"33281","cityName":"Mérignac","sourceType":"iris","sourceIds":["332810402"],"colorIndex":19,"center":[-0.6666949781235018,44.82965539285478]},"geometry":{"type":"MultiPolygon","coordinates":[[[[-0.65719447,44.83253031],[-0.65259473,44.83304604],[-0.65332384,44.83278588],[-0.65443985,44.83220383],[-0.6543869,44.83216862],[-0.65445091,44.83198445],[-0.65408475,44.83048414],[-0.65395153,44.83034433],[-0.65401019,44.83025317],[-0.65412706,44.83021957],[-0.65409786,44.82986813],[-0.65422605,44.82926905],[-0.6535725,44.82650469],[-0.65403295,44.8264769],[-0.65464922,44.82650797],[-0.65629061,44.82676119],[-0.65670793,44.82682945],[-0.6572656,44.82685522],[-0.66283856,44.82662799],[-0.66388599,44.82655103],[-0.66417221,44.82715265],[-0.66450906,44.82891797],[-0.66606342,44.82868994],[-0.66850973,44.82815658],[-0.66898204,44.82809679],[-0.67034717,44.82805521],[-0.67023034,44.82609334],[-0.67015337,44.82590391],[-0.67039327,44.82579593],[-0.67074982,44.82555429],[-0.67194515,44.82400143],[-0.67196286,44.82291658],[-0.6724073,44.82163733],[-0.67277228,44.82028591],[-0.67390185,44.81999522],[-0.67550207,44.82763119],[-0.67655925,44.8327516],[-0.67671114,44.83414269],[-0.67669495,44.83519144],[-0.6716936,44.8345649],[-0.669238,44.8341072],[-0.6690465,44.83410363],[-0.66648232,44.83353409],[-0.66373303,44.83301929],[-0.66219672,44.83267166],[-0.66083078,44.83241123],[-0.65945057,44.83230086],[-0.65719447,44.83253031]]]]},"bbox":[-0.67671114,44.81999522,-0.65259473,44.83519144]}]}