{"type":"FeatureCollection","metadata":{"sourceType":"iris","referenceFile":"lattes-quartiers.geojson","source":"IGN / INSEE - Contours IRIS WFS Géoplateforme","sourceUrl":"https://geoservices.ign.fr/contoursiris","license":"Licence Ouverte / Open Licence 2.0","sourceYear":"2026"},"features":[{"type":"Feature","id":"fr-quartier-34129-090e6f505e37","properties":{"id":"fr-quartier-34129-090e6f505e37","kind":"quartier","name":"Boirargues","cityCode":"34129","cityName":"Lattes","sourceType":"iris","sourceIds":["341290104"],"colorIndex":0,"center":[3.921476439693242,43.58808493659986]},"geometry":{"type":"MultiPolygon","coordinates":[[[[3.90792232,43.59152823],[3.90826934,43.59147404],[3.91162769,43.59145311],[3.91511524,43.59161545],[3.91773043,43.5920361],[3.91856701,43.59224859],[3.91872609,43.59205468],[3.91890385,43.59163656],[3.91883698,43.5902433],[3.91928604,43.58937298],[3.91957924,43.5883564],[3.92006991,43.58838464],[3.92051766,43.58836105],[3.92203127,43.58802878],[3.92210847,43.58805692],[3.92244562,43.588854],[3.9226498,43.58907992],[3.92305256,43.58926096],[3.92464783,43.58984757],[3.92549078,43.58991778],[3.92602445,43.58992492],[3.92618126,43.58982281],[3.92630775,43.58960577],[3.92725021,43.58985868],[3.92735682,43.58986767],[3.92753659,43.58980764],[3.92779532,43.58988372],[3.92859481,43.58986969],[3.92882465,43.58991991],[3.92923836,43.59008734],[3.93022167,43.59026249],[3.93048728,43.59022782],[3.93073744,43.59008081],[3.9309493,43.58978565],[3.93097314,43.58965317],[3.93119492,43.5895118],[3.93159348,43.58897389],[3.93201305,43.58866345],[3.93138738,43.5882504],[3.9301323,43.58726866],[3.92964476,43.58659257],[3.92921157,43.5864442],[3.92908153,43.58613488],[3.92865292,43.5858866],[3.92641278,43.5840719],[3.9258182,43.5834318],[3.92565539,43.58346828],[3.92498404,43.58328684],[3.92489775,43.58330917],[3.92468649,43.58318049],[3.91850542,43.58623472],[3.91744376,43.5867269],[3.90905172,43.59084662],[3.90841471,43.59119388],[3.90792232,43.59152823]]]]},"bbox":[3.90792232,43.58318049,3.93201305,43.59224859]},{"type":"Feature","id":"fr-quartier-34129-6544e00fed69","properties":{"id":"fr-quartier-34129-6544e00fed69","kind":"quartier","name":"La Cougourdule","cityCode":"34129","cityName":"Lattes","sourceType":"iris","sourceIds":["341290102"],"colorIndex":1,"center":[3.912017810114497,43.57369294561644]},"geometry":{"type":"MultiPolygon","coordinates":[[[[3.91815893,43.57239045],[3.91706788,43.57203435],[3.91531626,43.57154073],[3.91431227,43.57136473],[3.91366449,43.57133149],[3.9112654,43.57167738],[3.90997156,43.57171882],[3.90875748,43.57163901],[3.90818197,43.57155834],[3.90655844,43.57117599],[3.90643705,43.57109062],[3.90597368,43.57097931],[3.90564222,43.57083541],[3.90513201,43.57120588],[3.90534894,43.57146412],[3.9057416,43.57164351],[3.90566644,43.57182139],[3.90568045,43.57255282],[3.90562208,43.57261809],[3.90570437,43.572657],[3.90594332,43.57383915],[3.90603601,43.57398774],[3.90598379,43.57405117],[3.90599625,43.57421303],[3.90610688,43.5747142],[3.90634566,43.57533577],[3.90682238,43.57597695],[3.90707714,43.57580746],[3.90772063,43.57509754],[3.90896678,43.57360243],[3.91084141,43.57506241],[3.91181858,43.57588383],[3.91213385,43.57601886],[3.91232657,43.57623049],[3.91424708,43.57706286],[3.91528184,43.57768761],[3.91541663,43.57768018],[3.91542816,43.57754961],[3.9158337,43.57690193],[3.91815893,43.57239045]]]]},"bbox":[3.90513201,43.57083541,3.91815893,43.57768761]},{"type":"Feature","id":"fr-quartier-34129-c93094293c94","properties":{"id":"fr-quartier-34129-c93094293c94","kind":"quartier","name":"Maurin","cityCode":"34129","cityName":"Lattes","sourceType":"iris","sourceIds":["341290103"],"colorIndex":2,"center":[3.877855754794639,43.56096047630611]},"geometry":{"type":"MultiPolygon","coordinates":[[[[3.89334876,43.55932532],[3.89294503,43.55778999],[3.89286016,43.55718603],[3.89232464,43.55672164],[3.89183014,43.55618942],[3.89077625,43.55692241],[3.88975582,43.55590321],[3.88969491,43.55572555],[3.88919539,43.55662494],[3.88900361,43.55678397],[3.88685258,43.55745931],[3.88474849,43.55837448],[3.88423778,43.55871426],[3.88405374,43.55889572],[3.88396843,43.55906017],[3.88182163,43.55671747],[3.88030374,43.5575378],[3.87937105,43.55795477],[3.87754487,43.55609438],[3.87756518,43.55604742],[3.87750297,43.55602453],[3.87534039,43.55375742],[3.87457939,43.55407398],[3.87292213,43.55468028],[3.8707269,43.55587483],[3.87015275,43.55635993],[3.86728534,43.55958703],[3.86634205,43.56054024],[3.86697629,43.5613261],[3.86723597,43.56221662],[3.86737282,43.56251156],[3.8686805,43.5647056],[3.86956785,43.56593932],[3.86998303,43.56671702],[3.87064678,43.56585059],[3.8719456,43.56728525],[3.8726222,43.56653298],[3.87393181,43.56712711],[3.87432048,43.56745961],[3.874577,43.56756462],[3.87593751,43.5664631],[3.87840495,43.568079],[3.87913226,43.56773389],[3.87968904,43.56740545],[3.87969875,43.56706975],[3.88090819,43.56685659],[3.88200639,43.56657144],[3.88288355,43.5661567],[3.88382751,43.56558035],[3.88271799,43.56472467],[3.88264606,43.56463347],[3.8827209,43.56378705],[3.88310306,43.56329176],[3.88401326,43.56253482],[3.88516034,43.56205578],[3.88522734,43.5617466],[3.88516162,43.56125585],[3.88488249,43.56016487],[3.88816287,43.56034144],[3.88864244,43.56038881],[3.88871105,43.56042424],[3.8892761,43.56039802],[3.88932192,43.560161],[3.88941671,43.56012963],[3.89002116,43.56017146],[3.89175969,43.56097421],[3.89268713,43.56133641],[3.89350851,43.5615609],[3.89410288,43.5615893],[3.89368709,43.56015575],[3.89334876,43.55932532]]]]},"bbox":[3.86634205,43.55375742,3.89410288,43.568079]},{"type":"Feature","id":"fr-quartier-34129-88969037f964","properties":{"id":"fr-quartier-34129-88969037f964","kind":"quartier","name":"Musée-Village","cityCode":"34129","cityName":"Lattes","sourceType":"iris","sourceIds":["341290101"],"colorIndex":3,"center":[3.905885354777654,43.56626773054696]},"geometry":{"type":"MultiPolygon","coordinates":[[[[3.89334876,43.55932532],[3.89368709,43.56015575],[3.89410288,43.5615893],[3.89431463,43.56302993],[3.89539334,43.56753444],[3.89554284,43.56831244],[3.89552388,43.56852494],[3.89568346,43.56923537],[3.89589305,43.56974023],[3.89634908,43.5714443],[3.89735885,43.57096446],[3.8986066,43.57050874],[3.89941782,43.57031216],[3.9003999,43.57019965],[3.90112637,43.57020262],[3.90165568,43.57025851],[3.90409601,43.57072412],[3.90474748,43.57091395],[3.90513201,43.57120588],[3.90564222,43.57083541],[3.90597368,43.57097931],[3.90643705,43.57109062],[3.90655844,43.57117599],[3.90818197,43.57155834],[3.90875748,43.57163901],[3.90997156,43.57171882],[3.9112654,43.57167738],[3.91366449,43.57133149],[3.91431227,43.57136473],[3.91531626,43.57154073],[3.91706788,43.57203435],[3.91815893,43.57239045],[3.91904878,43.57270145],[3.91947765,43.57297496],[3.91986083,43.57217269],[3.91995544,43.57043076],[3.9196051,43.56771992],[3.92007684,43.5664229],[3.91998732,43.56562463],[3.92002363,43.56495577],[3.91991941,43.56455264],[3.92004204,43.56386506],[3.91813789,43.56457492],[3.91780828,43.56477836],[3.91739997,43.5648583],[3.91649581,43.56527084],[3.91620624,43.56534797],[3.91531377,43.56548507],[3.91496893,43.56551047],[3.91386107,43.56548831],[3.91270627,43.56554931],[3.91272805,43.56528458],[3.91196881,43.56453963],[3.91009224,43.56535709],[3.90859787,43.56515096],[3.90843475,43.56508664],[3.9083567,43.56500271],[3.9081208,43.56456198],[3.90776524,43.56414385],[3.90724903,43.56334734],[3.90695766,43.56284048],[3.90668766,43.5621193],[3.90639137,43.5615351],[3.90626516,43.56114295],[3.90627756,43.56106636],[3.90636963,43.5610197],[3.90642273,43.56093468],[3.90654954,43.55964061],[3.90667487,43.55927154],[3.90656995,43.55920943],[3.90659864,43.55914531],[3.90444968,43.55915963],[3.90437613,43.5593609],[3.90423806,43.55955011],[3.90373165,43.55944905],[3.90346829,43.55946114],[3.90329614,43.56000065],[3.90309261,43.56004103],[3.90294216,43.55967967],[3.90279521,43.55969798],[3.90237062,43.55960703],[3.90233444,43.55903686],[3.90072423,43.55955772],[3.90059351,43.55919079],[3.90026794,43.55925917],[3.9004572,43.55973],[3.89979118,43.55978681],[3.89974015,43.55968825],[3.89636511,43.55939314],[3.89625702,43.55984033],[3.89500924,43.55988302],[3.89430998,43.5589179],[3.89368831,43.55935942],[3.89334876,43.55932532]]]]},"bbox":[3.89334876,43.5589179,3.92007684,43.57297496]},{"type":"Feature","id":"fr-quartier-34129-5352d5223dc1","properties":{"id":"fr-quartier-34129-5352d5223dc1","kind":"quartier","name":"Port Ariane Vasque Fontvin Périphérie","cityCode":"34129","cityName":"Lattes","sourceType":"iris","sourceIds":["341290108"],"colorIndex":4,"center":[3.9020225804407596,43.581474941393346]},"geometry":{"type":"MultiPolygon","coordinates":[[[[3.8941534,43.58684372],[3.89455806,43.58707344],[3.89480919,43.58722164],[3.89724259,43.58791422],[3.8980746,43.58823938],[3.90081536,43.58879077],[3.90426692,43.59100354],[3.90536837,43.59145147],[3.90650262,43.59068346],[3.90682868,43.5904],[3.90709787,43.59004322],[3.9072652,43.58958652],[3.90745016,43.58860057],[3.90747374,43.58821256],[3.90696961,43.58607881],[3.90697411,43.58573684],[3.9076851,43.5838089],[3.9077538,43.58306508],[3.9073946,43.58101471],[3.90730993,43.58090474],[3.90676932,43.58053133],[3.90380914,43.5791505],[3.90363394,43.57902869],[3.90058146,43.5764095],[3.90000825,43.57608313],[3.89922066,43.57542289],[3.89787647,43.57438754],[3.89764865,43.57414377],[3.89742678,43.57380548],[3.89734726,43.57362708],[3.89729267,43.5733018],[3.89796459,43.57345371],[3.8981341,43.57368896],[3.89810001,43.57380352],[3.89816156,43.57386149],[3.89830673,43.57388549],[3.89854937,43.5738106],[3.89959829,43.5743265],[3.90188563,43.5721345],[3.9025788,43.57245717],[3.90338121,43.57256477],[3.90417843,43.57281458],[3.90466369,43.57313627],[3.90503207,43.5735804],[3.90525376,43.57414004],[3.90519368,43.57480369],[3.90495408,43.5752277],[3.90478281,43.57543338],[3.90438809,43.5757534],[3.90390778,43.57598235],[3.90315001,43.57619831],[3.90309658,43.57626354],[3.90328333,43.57704123],[3.90371155,43.5773544],[3.90551832,43.57827965],[3.90580967,43.57831051],[3.90619294,43.57828392],[3.90707323,43.57830177],[3.90780077,43.57844326],[3.90792503,43.57839633],[3.90795123,43.57825304],[3.90776284,43.57808005],[3.90750216,43.57732729],[3.90682238,43.57597695],[3.90634566,43.57533577],[3.90610688,43.5747142],[3.90599625,43.57421303],[3.90598379,43.57405117],[3.90603601,43.57398774],[3.90594332,43.57383915],[3.90570437,43.572657],[3.90562208,43.57261809],[3.90568045,43.57255282],[3.90566644,43.57182139],[3.9057416,43.57164351],[3.90534894,43.57146412],[3.90513201,43.57120588],[3.90474748,43.57091395],[3.90409601,43.57072412],[3.90165568,43.57025851],[3.90112637,43.57020262],[3.9003999,43.57019965],[3.89941782,43.57031216],[3.8986066,43.57050874],[3.89735885,43.57096446],[3.89634908,43.5714443],[3.89663999,43.57263863],[3.89682365,43.57362061],[3.89682948,43.57391479],[3.89825989,43.57967164],[3.89833341,43.58001926],[3.89836116,43.58092244],[3.89828233,43.5813424],[3.89794389,43.58233769],[3.89747631,43.58338623],[3.89695102,43.5842283],[3.89624039,43.58509348],[3.89550788,43.58582657],[3.8941534,43.58684372]]]]},"bbox":[3.8941534,43.57019965,3.90795123,43.59145147]},{"type":"Feature","id":"fr-quartier-34129-6d3939b97f39","properties":{"id":"fr-quartier-34129-6d3939b97f39","kind":"quartier","name":"Port Céreirède","cityCode":"34129","cityName":"Lattes","sourceType":"iris","sourceIds":["341290109"],"colorIndex":5,"center":[3.920779818668507,43.55955942933285]},"geometry":{"type":"MultiPolygon","coordinates":[[[[3.90536837,43.59145147],[3.90580223,43.59156573],[3.90714482,43.5916823],[3.90792232,43.59152823],[3.90841471,43.59119388],[3.90905172,43.59084662],[3.91744376,43.5867269],[3.91736708,43.58642161],[3.91801303,43.58578808],[3.91769829,43.5854587],[3.91790745,43.5851465],[3.91827487,43.58474568],[3.91833222,43.58461652],[3.91834296,43.58435908],[3.91824141,43.58412419],[3.92008364,43.58182757],[3.92032451,43.58133333],[3.92097028,43.58154291],[3.92110994,43.58176128],[3.92119369,43.58165799],[3.92135595,43.58158823],[3.92141553,43.58152114],[3.92194261,43.5789648],[3.92432034,43.5784299],[3.92454818,43.57874379],[3.92484409,43.57897972],[3.92678888,43.58037945],[3.92900846,43.58116132],[3.93209969,43.57966814],[3.93289236,43.5774145],[3.93332985,43.57676558],[3.93582223,43.57462057],[3.9369317,43.57328919],[3.93780304,43.57268689],[3.94036937,43.57039358],[3.938901,43.57005176],[3.93830398,43.56948914],[3.93777573,43.56874236],[3.93749262,43.56731951],[3.93687783,43.56634853],[3.93818056,43.56587478],[3.93964542,43.56517736],[3.94146703,43.56374979],[3.94341547,43.56101007],[3.94329231,43.56089417],[3.94216085,43.56056026],[3.93954383,43.56017893],[3.93765552,43.55956359],[3.93835981,43.55685361],[3.93968312,43.55598825],[3.93970779,43.55590795],[3.94217059,43.55587581],[3.94359878,43.55567535],[3.94487953,43.55538797],[3.94547558,43.55537019],[3.94605618,43.55546591],[3.94941153,43.55456741],[3.95039918,43.55174869],[3.93316904,43.53824652],[3.90728425,43.54552931],[3.89991394,43.54022433],[3.89832495,43.54080436],[3.89767683,43.54096359],[3.89740562,43.54094243],[3.89517275,43.54664032],[3.89469433,43.54848704],[3.89428031,43.54922737],[3.89366399,43.55080078],[3.8935486,43.55141539],[3.89350381,43.55219408],[3.89345961,43.55372679],[3.89345619,43.55469949],[3.89349371,43.55480536],[3.89341822,43.55488336],[3.89344363,43.55492634],[3.89322964,43.55588369],[3.89303712,43.55655112],[3.89301128,43.55695804],[3.89286016,43.55718603],[3.89294503,43.55778999],[3.89334876,43.55932532],[3.89368831,43.55935942],[3.89430998,43.5589179],[3.89500924,43.55988302],[3.89625702,43.55984033],[3.89636511,43.55939314],[3.89974015,43.55968825],[3.89979118,43.55978681],[3.9004572,43.55973],[3.90026794,43.55925917],[3.90059351,43.55919079],[3.90072423,43.55955772],[3.90233444,43.55903686],[3.90237062,43.55960703],[3.90279521,43.55969798],[3.90294216,43.55967967],[3.90309261,43.56004103],[3.90329614,43.56000065],[3.90346829,43.55946114],[3.90373165,43.55944905],[3.90423806,43.55955011],[3.90437613,43.5593609],[3.90444968,43.55915963],[3.90659864,43.55914531],[3.90656995,43.55920943],[3.90667487,43.55927154],[3.90654954,43.55964061],[3.90642273,43.56093468],[3.90636963,43.5610197],[3.90627756,43.56106636],[3.90626516,43.56114295],[3.90639137,43.5615351],[3.90668766,43.5621193],[3.90695766,43.56284048],[3.90724903,43.56334734],[3.90776524,43.56414385],[3.9081208,43.56456198],[3.9083567,43.56500271],[3.90843475,43.56508664],[3.90859787,43.56515096],[3.91009224,43.56535709],[3.91196881,43.56453963],[3.91272805,43.56528458],[3.91270627,43.56554931],[3.91386107,43.56548831],[3.91496893,43.56551047],[3.91531377,43.56548507],[3.91620624,43.56534797],[3.91649581,43.56527084],[3.91739997,43.5648583],[3.91780828,43.56477836],[3.91813789,43.56457492],[3.92004204,43.56386506],[3.91991941,43.56455264],[3.92002363,43.56495577],[3.91998732,43.56562463],[3.92007684,43.5664229],[3.9196051,43.56771992],[3.91995544,43.57043076],[3.91986083,43.57217269],[3.91947765,43.57297496],[3.91904878,43.57270145],[3.91815893,43.57239045],[3.9158337,43.57690193],[3.91542816,43.57754961],[3.91541663,43.57768018],[3.91528184,43.57768761],[3.91424708,43.57706286],[3.91232657,43.57623049],[3.91213385,43.57601886],[3.91181858,43.57588383],[3.91084141,43.57506241],[3.90896678,43.57360243],[3.90772063,43.57509754],[3.90707714,43.57580746],[3.90682238,43.57597695],[3.90750216,43.57732729],[3.90776284,43.57808005],[3.90795123,43.57825304],[3.90792503,43.57839633],[3.90780077,43.57844326],[3.90707323,43.57830177],[3.90619294,43.57828392],[3.90580967,43.57831051],[3.90551832,43.57827965],[3.90371155,43.5773544],[3.90328333,43.57704123],[3.90309658,43.57626354],[3.90315001,43.57619831],[3.90390778,43.57598235],[3.90438809,43.5757534],[3.90478281,43.57543338],[3.90495408,43.5752277],[3.90519368,43.57480369],[3.90525376,43.57414004],[3.90503207,43.5735804],[3.90466369,43.57313627],[3.90417843,43.57281458],[3.90338121,43.57256477],[3.9025788,43.57245717],[3.90188563,43.5721345],[3.89959829,43.5743265],[3.89854937,43.5738106],[3.89830673,43.57388549],[3.89816156,43.57386149],[3.89810001,43.57380352],[3.8981341,43.57368896],[3.89796459,43.57345371],[3.89729267,43.5733018],[3.89734726,43.57362708],[3.89742678,43.57380548],[3.89764865,43.57414377],[3.89787647,43.57438754],[3.89922066,43.57542289],[3.90000825,43.57608313],[3.90058146,43.5764095],[3.90363394,43.57902869],[3.90380914,43.5791505],[3.90676932,43.58053133],[3.90730993,43.58090474],[3.9073946,43.58101471],[3.9077538,43.58306508],[3.9076851,43.5838089],[3.90697411,43.58573684],[3.90696961,43.58607881],[3.90747374,43.58821256],[3.90745016,43.58860057],[3.9072652,43.58958652],[3.90709787,43.59004322],[3.90682868,43.5904],[3.90650262,43.59068346],[3.90536837,43.59145147]]]]},"bbox":[3.89286016,43.53824652,3.95039918,43.5916823]},{"type":"Feature","id":"fr-quartier-34129-c00e02e7937c","properties":{"id":"fr-quartier-34129-c00e02e7937c","kind":"quartier","name":"Z.A. du Puech Radier","cityCode":"34129","cityName":"Lattes","sourceType":"iris","sourceIds":["341290107"],"colorIndex":6,"center":[3.8616615631523135,43.563175625]},"geometry":{"type":"MultiPolygon","coordinates":[[[[3.84764347,43.55348502],[3.84824213,43.55372778],[3.84858586,43.5541327],[3.85085769,43.55883341],[3.8509099,43.55918392],[3.85159869,43.55990915],[3.85242766,43.56057389],[3.85320159,43.5610312],[3.8543379,43.56147666],[3.85487772,43.56191511],[3.85553273,43.56310848],[3.85594387,43.56437575],[3.85637694,43.56487172],[3.85709751,43.56547879],[3.85829034,43.56713129],[3.85993356,43.56662701],[3.86058588,43.56672172],[3.86095955,43.56729642],[3.86585526,43.57199314],[3.86604056,43.57229939],[3.86664094,43.57280119],[3.86711019,43.5734705],[3.86763231,43.57485292],[3.86934304,43.57520096],[3.87111564,43.57579233],[3.87171186,43.57601519],[3.87282587,43.57626719],[3.87373968,43.57661976],[3.87547322,43.57756499],[3.87701514,43.57860263],[3.88003296,43.58015468],[3.88281588,43.58090953],[3.885971,43.58211658],[3.88707703,43.58296147],[3.88732239,43.58297926],[3.88974232,43.58393846],[3.89061599,43.5844019],[3.89254633,43.5856314],[3.89303595,43.58638951],[3.8941534,43.58684372],[3.89550788,43.58582657],[3.89624039,43.58509348],[3.89695102,43.5842283],[3.89747631,43.58338623],[3.89794389,43.58233769],[3.89828233,43.5813424],[3.89836116,43.58092244],[3.89833341,43.58001926],[3.89825989,43.57967164],[3.89682948,43.57391479],[3.89682365,43.57362061],[3.89663999,43.57263863],[3.89634908,43.5714443],[3.89589305,43.56974023],[3.89568346,43.56923537],[3.89552388,43.56852494],[3.89554284,43.56831244],[3.89539334,43.56753444],[3.89431463,43.56302993],[3.89410288,43.5615893],[3.89350851,43.5615609],[3.89268713,43.56133641],[3.89175969,43.56097421],[3.89002116,43.56017146],[3.88941671,43.56012963],[3.88932192,43.560161],[3.8892761,43.56039802],[3.88871105,43.56042424],[3.88864244,43.56038881],[3.88816287,43.56034144],[3.88488249,43.56016487],[3.88516162,43.56125585],[3.88522734,43.5617466],[3.88516034,43.56205578],[3.88401326,43.56253482],[3.88310306,43.56329176],[3.8827209,43.56378705],[3.88264606,43.56463347],[3.88271799,43.56472467],[3.88382751,43.56558035],[3.88288355,43.5661567],[3.88200639,43.56657144],[3.88090819,43.56685659],[3.87969875,43.56706975],[3.87968904,43.56740545],[3.87913226,43.56773389],[3.87840495,43.568079],[3.87593751,43.5664631],[3.874577,43.56756462],[3.87432048,43.56745961],[3.87393181,43.56712711],[3.8726222,43.56653298],[3.8719456,43.56728525],[3.87064678,43.56585059],[3.86998303,43.56671702],[3.86956785,43.56593932],[3.8686805,43.5647056],[3.86737282,43.56251156],[3.86723597,43.56221662],[3.86697629,43.5613261],[3.86634205,43.56054024],[3.86728534,43.55958703],[3.87015275,43.55635993],[3.8707269,43.55587483],[3.87292213,43.55468028],[3.87457939,43.55407398],[3.87534039,43.55375742],[3.87750297,43.55602453],[3.87756518,43.55604742],[3.87754487,43.55609438],[3.87937105,43.55795477],[3.88030374,43.5575378],[3.88182163,43.55671747],[3.88396843,43.55906017],[3.88405374,43.55889572],[3.88423778,43.55871426],[3.88474849,43.55837448],[3.88685258,43.55745931],[3.88900361,43.55678397],[3.88919539,43.55662494],[3.88969491,43.55572555],[3.88975582,43.55590321],[3.89077625,43.55692241],[3.89183014,43.55618942],[3.89232464,43.55672164],[3.89286016,43.55718603],[3.89301128,43.55695804],[3.89303712,43.55655112],[3.89322964,43.55588369],[3.89344363,43.55492634],[3.89341822,43.55488336],[3.89349371,43.55480536],[3.89345619,43.55469949],[3.89345961,43.55372679],[3.89350381,43.55219408],[3.8935486,43.55141539],[3.89366399,43.55080078],[3.89428031,43.54922737],[3.89469433,43.54848704],[3.89517275,43.54664032],[3.89740562,43.54094243],[3.89668705,43.54086829],[3.89623642,43.5405256],[3.89532502,43.54053762],[3.89334015,43.54040101],[3.89245123,43.54018787],[3.88963571,43.54064378],[3.88825751,43.54078464],[3.88778362,43.54061396],[3.88722803,43.54051952],[3.8868278,43.54031315],[3.8859995,43.539538],[3.88576402,43.53950753],[3.88533632,43.53968468],[3.88506302,43.54000903],[3.88462968,43.54030229],[3.88262349,43.54119051],[3.88175845,43.54116155],[3.88086758,43.54089975],[3.87953767,43.54177253],[3.87897947,43.5419921],[3.87858694,43.54204566],[3.87843992,43.54375554],[3.87815071,43.5440944],[3.87776223,43.54433239],[3.87657967,43.54473695],[3.87621139,43.54500266],[3.87577381,43.54518525],[3.8752041,43.54530231],[3.87450886,43.54529892],[3.87404993,43.54538],[3.87366863,43.54552253],[3.87331784,43.54580069],[3.87311228,43.54619285],[3.87308169,43.54645943],[3.87355916,43.54710884],[3.8735563,43.54732751],[3.87335237,43.54750191],[3.87229855,43.54775512],[3.87191276,43.54776632],[3.87155254,43.54766934],[3.87080382,43.54699601],[3.87001773,43.54679446],[3.86880991,43.5469265],[3.86829637,43.54707818],[3.86792812,43.54734926],[3.8671779,43.54813087],[3.86624474,43.549497],[3.86599665,43.54969873],[3.86571682,43.54976395],[3.8652359,43.54970209],[3.86440282,43.54876396],[3.86353819,43.54835784],[3.86326499,43.5479587],[3.86305444,43.54596646],[3.86269014,43.54567782],[3.86197077,43.54546849],[3.85997202,43.54515322],[3.85777679,43.54460193],[3.85508104,43.54457641],[3.854239,43.54476569],[3.8535393,43.54529397],[3.852998,43.5458273],[3.85275591,43.54626829],[3.85257683,43.54737104],[3.8523863,43.54761907],[3.85204447,43.5478422],[3.8514691,43.54849996],[3.84968324,43.54995181],[3.84951869,43.55011776],[3.84953642,43.55048023],[3.84945413,43.55060415],[3.84869836,43.55111304],[3.84822853,43.55155041],[3.8479409,43.55201154],[3.84776611,43.55257437],[3.84764347,43.55348502]]]]},"bbox":[3.84764347,43.53950753,3.89836116,43.58684372]},{"type":"Feature","id":"fr-quartier-34129-edb44ac3bc78","properties":{"id":"fr-quartier-34129-edb44ac3bc78","kind":"quartier","name":"Z.A. Le Soriech-Commandeurs-La Banquière","cityCode":"34129","cityName":"Lattes","sourceType":"iris","sourceIds":["341290105"],"colorIndex":7,"center":[3.9313729916923768,43.58705976]},"geometry":{"type":"MultiPolygon","coordinates":[[[[3.91856701,43.59224859],[3.92024669,43.59276976],[3.92381583,43.59345663],[3.92649949,43.59358494],[3.92991727,43.59386168],[3.93717287,43.59496101],[3.93804203,43.59519016],[3.93886857,43.59568962],[3.9388247,43.59482437],[3.9382062,43.59409995],[3.93812503,43.59413305],[3.93742851,43.59325453],[3.9370897,43.59183934],[3.93446245,43.59007852],[3.93229315,43.58883561],[3.93234112,43.58874072],[3.93223176,43.58848611],[3.93232706,43.58802728],[3.93224657,43.58764465],[3.93287503,43.5869347],[3.93334863,43.58614149],[3.93519422,43.58514841],[3.93644903,43.58497294],[3.93688448,43.58480452],[3.93861072,43.583861],[3.93616065,43.58315419],[3.93434413,43.58326701],[3.93103134,43.58316769],[3.92969958,43.58325198],[3.93018835,43.58278349],[3.93129756,43.58195245],[3.93209969,43.57966814],[3.92900846,43.58116132],[3.92678888,43.58037945],[3.92484409,43.57897972],[3.92454818,43.57874379],[3.92432034,43.5784299],[3.92194261,43.5789648],[3.92141553,43.58152114],[3.92135595,43.58158823],[3.92119369,43.58165799],[3.92110994,43.58176128],[3.92097028,43.58154291],[3.92032451,43.58133333],[3.92008364,43.58182757],[3.91824141,43.58412419],[3.91834296,43.58435908],[3.91833222,43.58461652],[3.91827487,43.58474568],[3.91790745,43.5851465],[3.91769829,43.5854587],[3.91801303,43.58578808],[3.91736708,43.58642161],[3.91744376,43.5867269],[3.91850542,43.58623472],[3.92468649,43.58318049],[3.92489775,43.58330917],[3.92498404,43.58328684],[3.92565539,43.58346828],[3.9258182,43.5834318],[3.92641278,43.5840719],[3.92865292,43.5858866],[3.92908153,43.58613488],[3.92921157,43.5864442],[3.92964476,43.58659257],[3.9301323,43.58726866],[3.93138738,43.5882504],[3.93201305,43.58866345],[3.93159348,43.58897389],[3.93119492,43.5895118],[3.93097314,43.58965317],[3.9309493,43.58978565],[3.93073744,43.59008081],[3.93048728,43.59022782],[3.93022167,43.59026249],[3.92923836,43.59008734],[3.92882465,43.58991991],[3.92859481,43.58986969],[3.92779532,43.58988372],[3.92753659,43.58980764],[3.92735682,43.58986767],[3.92725021,43.58985868],[3.92630775,43.58960577],[3.92618126,43.58982281],[3.92602445,43.58992492],[3.92549078,43.58991778],[3.92464783,43.58984757],[3.92305256,43.58926096],[3.9226498,43.58907992],[3.92244562,43.588854],[3.92210847,43.58805692],[3.92203127,43.58802878],[3.92051766,43.58836105],[3.92006991,43.58838464],[3.91957924,43.5883564],[3.91928604,43.58937298],[3.91883698,43.5902433],[3.91890385,43.59163656],[3.91872609,43.59205468],[3.91856701,43.59224859]]]]},"bbox":[3.91736708,43.5784299,3.93886857,43.59568962]}]}