{"type":"FeatureCollection","metadata":{"sourceType":"iris","referenceFile":"eybens-quartiers.geojson","source":"IGN / INSEE - Contours IRIS WFS Géoplateforme","sourceUrl":"https://geoservices.ign.fr/contoursiris","license":"Licence Ouverte / Open Licence 2.0","sourceYear":"2026"},"features":[{"type":"Feature","id":"fr-quartier-38158-22969da0d862","properties":{"id":"fr-quartier-38158-22969da0d862","kind":"quartier","name":"le Muret","cityCode":"38158","cityName":"Eybens","sourceType":"iris","sourceIds":["381580101"],"colorIndex":0,"center":[5.755251897850931,45.14913322270652]},"geometry":{"type":"MultiPolygon","coordinates":[[[[5.75619757,45.16046624],[5.75402678,45.15879722],[5.75442282,45.15820362],[5.75427403,45.15807845],[5.75563491,45.15665106],[5.75593933,45.15680752],[5.75824512,45.15494501],[5.75950455,45.15564274],[5.76156142,45.15408002],[5.7617734,45.15368015],[5.76163106,45.15340258],[5.76094691,45.15293119],[5.76171348,45.15182476],[5.76148886,45.1502176],[5.76163277,45.14903378],[5.76178547,45.14892909],[5.76298438,45.14879128],[5.76341949,45.14857869],[5.76508778,45.14750664],[5.765609,45.14697657],[5.76497494,45.14674453],[5.76439072,45.14569317],[5.76101278,45.14069003],[5.76028406,45.13995757],[5.7597273,45.13912355],[5.75945218,45.13899161],[5.7586805,45.13898637],[5.7583219,45.13883938],[5.75813537,45.13887733],[5.75701588,45.13845363],[5.7561628,45.13989462],[5.75572383,45.14103437],[5.75547751,45.1411765],[5.75509969,45.14123358],[5.75292604,45.14106652],[5.75023035,45.14074202],[5.74988534,45.14100009],[5.74900885,45.14246142],[5.74887058,45.14304054],[5.74847174,45.14419728],[5.74834589,45.14518423],[5.74825031,45.14549291],[5.74811915,45.14582859],[5.74766282,45.14649032],[5.74764519,45.14696015],[5.7477429,45.14718659],[5.74802908,45.14731017],[5.7483475,45.14728701],[5.74837489,45.14735211],[5.74811459,45.14741798],[5.74803604,45.14747758],[5.74792486,45.14762447],[5.7478418,45.14798059],[5.74764981,45.14803758],[5.74764946,45.14813399],[5.74773942,45.14866874],[5.74826216,45.14901985],[5.74949632,45.14959758],[5.7498405,45.14983866],[5.75012677,45.14993791],[5.74709713,45.15608591],[5.74750028,45.15641204],[5.7515162,45.16015384],[5.75356668,45.16199166],[5.75388579,45.16195495],[5.75619757,45.16046624]]]]},"bbox":[5.74709713,45.13845363,5.765609,45.16199166]},{"type":"Feature","id":"fr-quartier-38158-01bcfe6ba1d2","properties":{"id":"fr-quartier-38158-01bcfe6ba1d2","kind":"quartier","name":"les Javaux","cityCode":"38158","cityName":"Eybens","sourceType":"iris","sourceIds":["381580103"],"colorIndex":1,"center":[5.743127782635228,45.14817084042295]},"geometry":{"type":"MultiPolygon","coordinates":[[[[5.74988534,45.14100009],[5.74872075,45.14092699],[5.74840061,45.14096641],[5.74647678,45.14171115],[5.74484521,45.14200538],[5.74392949,45.14197115],[5.7411407,45.14208388],[5.73950406,45.14380707],[5.73616102,45.14726499],[5.73605362,45.14754151],[5.73555223,45.14801419],[5.73513182,45.14832091],[5.73485753,45.14864748],[5.73334427,45.15066215],[5.7335509,45.15069583],[5.73381175,45.1505624],[5.73416178,45.15056013],[5.73437746,45.15064854],[5.73449606,45.15075645],[5.73820511,45.1517457],[5.73950837,45.15214977],[5.74131291,45.1528307],[5.74296683,45.15355495],[5.74421532,45.15421618],[5.74616441,45.15542595],[5.74709713,45.15608591],[5.75012677,45.14993791],[5.7498405,45.14983866],[5.74949632,45.14959758],[5.74826216,45.14901985],[5.74773942,45.14866874],[5.74764946,45.14813399],[5.74764981,45.14803758],[5.7478418,45.14798059],[5.74792486,45.14762447],[5.74803604,45.14747758],[5.74811459,45.14741798],[5.74837489,45.14735211],[5.7483475,45.14728701],[5.74802908,45.14731017],[5.7477429,45.14718659],[5.74764519,45.14696015],[5.74766282,45.14649032],[5.74811915,45.14582859],[5.74825031,45.14549291],[5.74834589,45.14518423],[5.74847174,45.14419728],[5.74887058,45.14304054],[5.74900885,45.14246142],[5.74988534,45.14100009]]]]},"bbox":[5.73334427,45.14092699,5.75012677,45.15608591]},{"type":"Feature","id":"fr-quartier-38158-bab6288d490a","properties":{"id":"fr-quartier-38158-bab6288d490a","kind":"quartier","name":"Maisons Neuves","cityCode":"38158","cityName":"Eybens","sourceType":"iris","sourceIds":["381580102"],"colorIndex":2,"center":[5.7423165496167785,45.15813780878265]},"geometry":{"type":"MultiPolygon","coordinates":[[[[5.73334427,45.15066215],[5.73300677,45.15102449],[5.73184114,45.1528081],[5.73175738,45.15479224],[5.73311729,45.15479226],[5.73375852,45.15488556],[5.73381089,45.1550969],[5.73481791,45.15511907],[5.73486202,45.15414767],[5.73776803,45.15420612],[5.73769627,45.15585933],[5.73715987,45.1558788],[5.73702525,45.15801645],[5.73725735,45.15802337],[5.73754958,45.15930907],[5.73932915,45.15971046],[5.7397931,45.15984862],[5.73991832,45.16066181],[5.7398464,45.1612465],[5.74014808,45.16287882],[5.74030633,45.16324883],[5.74142397,45.1640944],[5.74093314,45.16447315],[5.74098235,45.16472331],[5.74138673,45.16522962],[5.74122577,45.16553089],[5.74079906,45.1656594],[5.74123959,45.16679819],[5.74161978,45.16670777],[5.74302218,45.16637418],[5.74633777,45.16299061],[5.74626668,45.16291758],[5.75356668,45.16199166],[5.7515162,45.16015384],[5.74750028,45.15641204],[5.74709713,45.15608591],[5.74616441,45.15542595],[5.74421532,45.15421618],[5.74296683,45.15355495],[5.74131291,45.1528307],[5.73950837,45.15214977],[5.73820511,45.1517457],[5.73449606,45.15075645],[5.73437746,45.15064854],[5.73416178,45.15056013],[5.73381175,45.1505624],[5.7335509,45.15069583],[5.73334427,45.15066215]]]]},"bbox":[5.73175738,45.15056013,5.75356668,45.16679819]}]}