{"type":"FeatureCollection","metadata":{"sourceType":"iris","referenceFile":"villard-bonnot-quartiers.geojson","source":"IGN / INSEE - Contours IRIS WFS Géoplateforme","sourceUrl":"https://geoservices.ign.fr/contoursiris","license":"Licence Ouverte / Open Licence 2.0","sourceYear":"2026"},"features":[{"type":"Feature","id":"fr-quartier-38547-bedb22d70cbe","properties":{"id":"fr-quartier-38547-bedb22d70cbe","kind":"quartier","name":"Brignoud","cityCode":"38547","cityName":"Villard-Bonnot","sourceType":"iris","sourceIds":["385470101"],"colorIndex":0,"center":[5.900069915106253,45.255194257906474]},"geometry":{"type":"MultiPolygon","coordinates":[[[[5.88977689,45.25745382],[5.89065968,45.25860954],[5.89313368,45.26077739],[5.89781635,45.26399892],[5.89958203,45.26534433],[5.90041478,45.2650416],[5.90180505,45.26412519],[5.90230353,45.26377436],[5.90353199,45.26252064],[5.90668195,45.2606574],[5.90761696,45.25996901],[5.90836776,45.25914935],[5.90865767,45.25900845],[5.90929143,45.25848917],[5.91006345,45.2583213],[5.91067813,45.25780341],[5.91170324,45.25676573],[5.91230646,45.25534529],[5.91224118,45.25451082],[5.91234715,45.25426838],[5.91264218,45.25385973],[5.91319236,45.25345163],[5.91201489,45.25237674],[5.91162091,45.25240503],[5.91065989,45.25205433],[5.90902194,45.25110044],[5.9084053,45.25087051],[5.90511164,45.24974429],[5.90379194,45.24916679],[5.90361605,45.24919389],[5.9032731,45.24905052],[5.90278776,45.24869551],[5.90226251,45.24808834],[5.90122703,45.24775031],[5.90006351,45.24710834],[5.90066591,45.2466494],[5.89962663,45.24579606],[5.89951977,45.24526182],[5.8987073,45.24440349],[5.89847356,45.2442744],[5.89834647,45.24425877],[5.8980069,45.2443757],[5.89782297,45.24456699],[5.89740223,45.24535549],[5.89727275,45.24551473],[5.8969598,45.24577604],[5.89604645,45.24638809],[5.89579396,45.24648744],[5.8963531,45.24728208],[5.89432627,45.24841224],[5.89390406,45.24843669],[5.89378023,45.24841016],[5.89357775,45.24829376],[5.8919757,45.24940116],[5.89120926,45.24999496],[5.89085064,45.25008983],[5.89169783,45.25179069],[5.89050073,45.25278847],[5.88961214,45.25334036],[5.88907795,45.25354339],[5.88867358,45.25378991],[5.88823595,45.25418236],[5.88881285,45.25588662],[5.88977689,45.25745382]]]]},"bbox":[5.88823595,45.24425877,5.91319236,45.26534433]},{"type":"Feature","id":"fr-quartier-38547-a5b529c8cb55","properties":{"id":"fr-quartier-38547-a5b529c8cb55","kind":"quartier","name":"Lancey-Villard Bonnot","cityCode":"38547","cityName":"Villard-Bonnot","sourceType":"iris","sourceIds":["385470102"],"colorIndex":1,"center":[5.88906570193185,45.24011014]},"geometry":{"type":"MultiPolygon","coordinates":[[[[5.8987073,45.24440349],[5.89903437,45.24429138],[5.90024135,45.24358788],[5.90126057,45.24344339],[5.90175635,45.24326472],[5.90205878,45.24277751],[5.90121277,45.24252467],[5.9005536,45.24218588],[5.89938278,45.24181801],[5.89819182,45.24113619],[5.89687477,45.24082526],[5.89632158,45.240144],[5.89612722,45.24015895],[5.89567027,45.23958693],[5.89459929,45.2385857],[5.89126912,45.23634187],[5.89025283,45.23538425],[5.88965384,45.23499789],[5.88858899,45.23408655],[5.8881977,45.23354885],[5.8891857,45.23253397],[5.88929998,45.23230305],[5.89016538,45.2318761],[5.89001811,45.2315195],[5.8901276,45.23124546],[5.88956475,45.23037431],[5.88926085,45.23016953],[5.88889009,45.22965832],[5.8877212,45.2292966],[5.88628298,45.22772184],[5.88558932,45.22683423],[5.88526875,45.22679926],[5.88393154,45.2271014],[5.88362792,45.22603792],[5.88272568,45.22646667],[5.88246215,45.22684469],[5.88218294,45.2269438],[5.88202609,45.22719023],[5.88150267,45.22747404],[5.88089558,45.22764378],[5.87892993,45.22856755],[5.87698805,45.22923659],[5.87480261,45.23084622],[5.87462935,45.23114621],[5.87370505,45.23122406],[5.8734813,45.23138569],[5.87129446,45.23131218],[5.87049956,45.23145154],[5.86702512,45.23326893],[5.86436543,45.23277943],[5.86331794,45.232818],[5.86250882,45.23198548],[5.86192753,45.23154175],[5.86026489,45.23087344],[5.85896051,45.23060139],[5.85738844,45.23065423],[5.8559978,45.23161063],[5.85569612,45.23169583],[5.8545721,45.23223183],[5.85448468,45.23286568],[5.85400178,45.2340196],[5.85443174,45.23544393],[5.85400228,45.23893823],[5.85383505,45.23905963],[5.85462825,45.23973135],[5.85483365,45.24067937],[5.8559576,45.23964061],[5.8568813,45.23770593],[5.8571754,45.23734792],[5.85842928,45.23752758],[5.86042674,45.23738545],[5.86247078,45.23708261],[5.8658652,45.23603329],[5.86735642,45.23547153],[5.86865576,45.23512192],[5.87020368,45.23479563],[5.87214898,45.23455912],[5.87494562,45.23426372],[5.87575392,45.23426004],[5.87787069,45.23457945],[5.87891367,45.23497155],[5.87934293,45.23528305],[5.88090655,45.23731059],[5.88146979,45.238462],[5.88194874,45.23995616],[5.88276907,45.24129374],[5.88315653,45.24197934],[5.88328997,45.24298144],[5.88323238,45.24408759],[5.88365026,45.245213],[5.88373319,45.2460272],[5.88444582,45.24816496],[5.8853523,45.24963547],[5.88658536,45.25117952],[5.88744958,45.25249703],[5.88823595,45.25418236],[5.88867358,45.25378991],[5.88907795,45.25354339],[5.88961214,45.25334036],[5.89050073,45.25278847],[5.89169783,45.25179069],[5.89085064,45.25008983],[5.89120926,45.24999496],[5.8919757,45.24940116],[5.89357775,45.24829376],[5.89378023,45.24841016],[5.89390406,45.24843669],[5.89432627,45.24841224],[5.8963531,45.24728208],[5.89579396,45.24648744],[5.89604645,45.24638809],[5.8969598,45.24577604],[5.89727275,45.24551473],[5.89740223,45.24535549],[5.89782297,45.24456699],[5.8980069,45.2443757],[5.89834647,45.24425877],[5.89847356,45.2442744],[5.8987073,45.24440349]]]]},"bbox":[5.85383505,45.22603792,5.90205878,45.25418236]}]}