{"type":"FeatureCollection","metadata":{"sourceType":"iris","source":"IGN / INSEE — Contours IRIS 2026","sourceUrl":"https://data.geopf.fr/wfs/ows?service=WFS&version=2.0.0&request=GetFeature&typeNames=STATISTICALUNITS.IRIS%3Acontours_iris&outputFormat=application%2Fjson&srsName=CRS%3A84&count=1000&CQL_FILTER=code_insee%3D%2744009%27&sortBy=code_iris","retrievedDate":"2026-09-10","sourceYear":"2026","license":"Licence Ouverte 2.0"},"features":[{"type":"Feature","id":"fr-quartier-44009-2bd5fb5dde0b","properties":{"id":"fr-quartier-44009-2bd5fb5dde0b","kind":"quartier","name":"Centre","cityCode":"44009","cityName":"Basse-Goulaine","sourceType":"iris","sourceIds":["440090102"],"colorIndex":0,"center":[-1.4709532925162039,47.209426715]},"geometry":{"type":"MultiPolygon","coordinates":[[[[-1.47598816,47.20028304],[-1.47610297,47.20061314],[-1.47720948,47.20050722],[-1.47854748,47.20205241],[-1.47955604,47.2034381],[-1.47960803,47.20366513],[-1.47973523,47.20369898],[-1.47925946,47.2062305],[-1.4771209,47.20616355],[-1.47594156,47.20604776],[-1.47591635,47.20630121],[-1.47574194,47.20651085],[-1.47510048,47.20665738],[-1.47497076,47.20673634],[-1.47471309,47.20715388],[-1.474111,47.20791656],[-1.47394839,47.20804548],[-1.47381765,47.20812808],[-1.47321497,47.20816851],[-1.47304012,47.20821404],[-1.47275146,47.2083866],[-1.47267604,47.20851395],[-1.47251985,47.20954704],[-1.47241939,47.20977094],[-1.47186874,47.21043695],[-1.47151703,47.2106949],[-1.47048132,47.21093869],[-1.47026624,47.21104168],[-1.47015303,47.21104875],[-1.47003823,47.21094137],[-1.46911996,47.21099036],[-1.46903305,47.21094772],[-1.46896515,47.21051301],[-1.46885843,47.21023219],[-1.46892378,47.21017466],[-1.46888451,47.210132],[-1.4691962,47.2098224],[-1.46955971,47.20956309],[-1.46952474,47.20946075],[-1.46928215,47.20940789],[-1.46865546,47.20943029],[-1.46826676,47.2096094],[-1.46806562,47.20962528],[-1.46644329,47.20941828],[-1.46609442,47.21042723],[-1.46598562,47.21096525],[-1.46575285,47.21123753],[-1.46586515,47.21134681],[-1.4662254,47.21203535],[-1.46644138,47.21288274],[-1.46638974,47.21294605],[-1.4664659,47.21300262],[-1.46646192,47.21308213],[-1.46540978,47.21293787],[-1.4648339,47.21309443],[-1.46458907,47.21296682],[-1.46302195,47.21288387],[-1.46202446,47.21271223],[-1.46116504,47.21283282],[-1.46092066,47.21345991],[-1.46089744,47.21377009],[-1.46098995,47.21413532],[-1.46113464,47.21439575],[-1.46140629,47.21471891],[-1.46144162,47.21492134],[-1.46114778,47.2151121],[-1.4609938,47.21531371],[-1.46079697,47.21589207],[-1.46066461,47.21619474],[-1.46040215,47.21660431],[-1.46032417,47.21686069],[-1.46093754,47.21683616],[-1.46173572,47.21674228],[-1.46071756,47.21707186],[-1.46014304,47.21719769],[-1.45747536,47.21742577],[-1.45743184,47.21769886],[-1.45627173,47.21957308],[-1.45659072,47.22046702],[-1.4548346,47.21855356],[-1.4538883,47.21741956],[-1.45324416,47.21656157],[-1.45254108,47.21540738],[-1.45174473,47.21373379],[-1.45133918,47.21262405],[-1.45094306,47.21084489],[-1.45079622,47.20942314],[-1.45073652,47.20817477],[-1.45152564,47.20762144],[-1.45192277,47.20695243],[-1.45214298,47.20667164],[-1.45260369,47.20627521],[-1.45282019,47.20618933],[-1.45597483,47.20434025],[-1.45576145,47.20417624],[-1.45550467,47.20383987],[-1.45511507,47.20303431],[-1.45823595,47.20185012],[-1.4577289,47.20154323],[-1.45810815,47.20137804],[-1.45930627,47.2014987],[-1.45952631,47.20155153],[-1.46182434,47.20123122],[-1.46174023,47.20133365],[-1.4617291,47.20143868],[-1.46171429,47.20237613],[-1.46241851,47.20236431],[-1.46281433,47.20220748],[-1.46378932,47.20298684],[-1.46419655,47.20354101],[-1.46432306,47.20361458],[-1.46456074,47.20364058],[-1.46572676,47.2034378],[-1.46712582,47.20325306],[-1.46692159,47.2020851],[-1.46658633,47.20121887],[-1.466655,47.20113777],[-1.46932119,47.20091762],[-1.47054904,47.20093421],[-1.47146852,47.20101321],[-1.47204853,47.20100343],[-1.47271495,47.20091906],[-1.47354941,47.2007236],[-1.47598816,47.20028304]]]]},"bbox":[-1.47973523,47.20028304,-1.45073652,47.22046702]},{"type":"Feature","id":"fr-quartier-44009-c1e58600b23f","properties":{"id":"fr-quartier-44009-c1e58600b23f","kind":"quartier","name":"Nord","cityCode":"44009","cityName":"Basse-Goulaine","sourceType":"iris","sourceIds":["440090101"],"colorIndex":1,"center":[-1.4842188300878496,47.21261034]},"geometry":{"type":"MultiPolygon","coordinates":[[[[-1.48097061,47.22632856],[-1.47889471,47.22780113],[-1.47896487,47.22792826],[-1.47250624,47.23215626],[-1.47092317,47.23123633],[-1.46773963,47.22904181],[-1.46376783,47.22678833],[-1.46117938,47.22491515],[-1.4592885,47.22334328],[-1.45793186,47.22197173],[-1.45659072,47.22046702],[-1.45627173,47.21957308],[-1.45743184,47.21769886],[-1.45747536,47.21742577],[-1.46014304,47.21719769],[-1.46071756,47.21707186],[-1.46173572,47.21674228],[-1.46093754,47.21683616],[-1.46032417,47.21686069],[-1.46040215,47.21660431],[-1.46066461,47.21619474],[-1.46079697,47.21589207],[-1.4609938,47.21531371],[-1.46114778,47.2151121],[-1.46144162,47.21492134],[-1.46140629,47.21471891],[-1.46113464,47.21439575],[-1.46098995,47.21413532],[-1.46089744,47.21377009],[-1.46092066,47.21345991],[-1.46116504,47.21283282],[-1.46202446,47.21271223],[-1.46302195,47.21288387],[-1.46458907,47.21296682],[-1.4648339,47.21309443],[-1.46540978,47.21293787],[-1.46646192,47.21308213],[-1.4664659,47.21300262],[-1.46638974,47.21294605],[-1.46644138,47.21288274],[-1.4662254,47.21203535],[-1.46586515,47.21134681],[-1.46575285,47.21123753],[-1.46598562,47.21096525],[-1.46609442,47.21042723],[-1.46644329,47.20941828],[-1.46806562,47.20962528],[-1.46826676,47.2096094],[-1.46865546,47.20943029],[-1.46928215,47.20940789],[-1.46952474,47.20946075],[-1.46955971,47.20956309],[-1.4691962,47.2098224],[-1.46888451,47.210132],[-1.46892378,47.21017466],[-1.46885843,47.21023219],[-1.46896515,47.21051301],[-1.46903305,47.21094772],[-1.46911996,47.21099036],[-1.47003823,47.21094137],[-1.47015303,47.21104875],[-1.47026624,47.21104168],[-1.47048132,47.21093869],[-1.47151703,47.2106949],[-1.47186874,47.21043695],[-1.47241939,47.20977094],[-1.47251985,47.20954704],[-1.47267604,47.20851395],[-1.47275146,47.2083866],[-1.47304012,47.20821404],[-1.47321497,47.20816851],[-1.47381765,47.20812808],[-1.47394839,47.20804548],[-1.474111,47.20791656],[-1.47471309,47.20715388],[-1.47497076,47.20673634],[-1.47510048,47.20665738],[-1.47574194,47.20651085],[-1.47591635,47.20630121],[-1.47594156,47.20604776],[-1.4771209,47.20616355],[-1.47925946,47.2062305],[-1.47921941,47.20644846],[-1.47946285,47.2065752],[-1.48007046,47.20672121],[-1.48107999,47.20713299],[-1.48101298,47.20747193],[-1.48165161,47.20754549],[-1.48182526,47.2089139],[-1.48139383,47.20970699],[-1.48136769,47.21194878],[-1.48175285,47.21196543],[-1.48218658,47.21280257],[-1.48246329,47.2128676],[-1.48254242,47.21257869],[-1.48284363,47.21238217],[-1.48307028,47.21264031],[-1.4836705,47.21255394],[-1.48417041,47.2125977],[-1.48500236,47.21243381],[-1.48517033,47.21262298],[-1.48449699,47.21283212],[-1.48521428,47.21437062],[-1.48360598,47.21538154],[-1.48321117,47.21582064],[-1.48345951,47.21641788],[-1.48365746,47.21652203],[-1.48394936,47.21654679],[-1.48450002,47.21643709],[-1.48501649,47.21718626],[-1.4831065,47.2187066],[-1.48185173,47.22005456],[-1.48094025,47.22172646],[-1.48006164,47.22441242],[-1.48097061,47.22632856]]]]},"bbox":[-1.48521428,47.20604776,-1.45627173,47.23215626]},{"type":"Feature","id":"fr-quartier-44009-16d46b61271f","properties":{"id":"fr-quartier-44009-16d46b61271f","kind":"quartier","name":"Sud-Est","cityCode":"44009","cityName":"Basse-Goulaine","sourceType":"iris","sourceIds":["440090103"],"colorIndex":2,"center":[-1.4652395593404675,47.20334543]},"geometry":{"type":"MultiPolygon","coordinates":[[[[-1.47250624,47.23215626],[-1.46954026,47.23539519],[-1.46641941,47.23782666],[-1.46098461,47.24165375],[-1.45890633,47.24051107],[-1.45724998,47.23915465],[-1.45597255,47.23778453],[-1.45566982,47.23785389],[-1.45506753,47.23713676],[-1.4549027,47.2373523],[-1.45300632,47.23619622],[-1.45299939,47.23600081],[-1.45217486,47.23568446],[-1.45116122,47.23442769],[-1.44363574,47.22603248],[-1.44291054,47.22500984],[-1.44149104,47.22359364],[-1.44155087,47.22321263],[-1.44111485,47.22306164],[-1.44114909,47.22280334],[-1.44094668,47.2216353],[-1.44035069,47.22015684],[-1.44053997,47.21916402],[-1.44125436,47.21872815],[-1.44126188,47.21582441],[-1.44310644,47.21654171],[-1.44342372,47.21679373],[-1.44399873,47.21750564],[-1.44462441,47.21779],[-1.44529561,47.21681655],[-1.44589631,47.21636698],[-1.44632317,47.21575186],[-1.44626063,47.21549186],[-1.44688344,47.21473396],[-1.44584638,47.21437163],[-1.44557651,47.21317282],[-1.4459687,47.2131307],[-1.44676795,47.21279433],[-1.44811096,47.21183292],[-1.44930233,47.21148596],[-1.44958214,47.21107756],[-1.44959097,47.2107526],[-1.4500278,47.21021102],[-1.44991311,47.20962481],[-1.44853652,47.20883644],[-1.44863538,47.2076487],[-1.44837331,47.20542525],[-1.44838859,47.2053381],[-1.44856925,47.20536272],[-1.44835956,47.20473147],[-1.44868492,47.20444214],[-1.44861351,47.20357925],[-1.44850165,47.20349067],[-1.44845603,47.20309928],[-1.44815047,47.20297216],[-1.44794474,47.20269242],[-1.44810261,47.20236174],[-1.44806208,47.20193589],[-1.44758506,47.20175134],[-1.44800627,47.20094165],[-1.44790288,47.20087529],[-1.44770798,47.2009982],[-1.44738952,47.20092297],[-1.44733414,47.20081329],[-1.44774384,47.19933678],[-1.44748379,47.19848024],[-1.4473116,47.19841382],[-1.44723635,47.19822374],[-1.44681656,47.1982029],[-1.4468679,47.19751203],[-1.44646448,47.19688912],[-1.4470941,47.1963762],[-1.44687654,47.19616094],[-1.44775063,47.19534106],[-1.44785154,47.19512167],[-1.44786424,47.1946036],[-1.44761878,47.1942749],[-1.44716622,47.19408129],[-1.44666315,47.19367682],[-1.44564417,47.19258433],[-1.44566296,47.19186765],[-1.44587078,47.19178934],[-1.44596001,47.19160466],[-1.44573067,47.19057471],[-1.44560779,47.19043245],[-1.4459809,47.18708991],[-1.44644812,47.18722164],[-1.44647763,47.18690671],[-1.44559,47.18508149],[-1.45477604,47.18541979],[-1.45838648,47.18574961],[-1.47408463,47.1867424],[-1.47383935,47.18797553],[-1.47385914,47.18935801],[-1.47355288,47.19041496],[-1.47455289,47.19141598],[-1.47425026,47.19172164],[-1.47464306,47.19243595],[-1.47471413,47.1931627],[-1.47492563,47.19328798],[-1.47475226,47.19514682],[-1.47536406,47.19555148],[-1.47561712,47.19588976],[-1.47566314,47.19618826],[-1.47541433,47.19712485],[-1.47557226,47.1971467],[-1.47569133,47.19783011],[-1.47607459,47.19782521],[-1.47581504,47.19877574],[-1.47598816,47.20028304],[-1.47354941,47.2007236],[-1.47271495,47.20091906],[-1.47204853,47.20100343],[-1.47146852,47.20101321],[-1.47054904,47.20093421],[-1.46932119,47.20091762],[-1.466655,47.20113777],[-1.46658633,47.20121887],[-1.46692159,47.2020851],[-1.46712582,47.20325306],[-1.46572676,47.2034378],[-1.46456074,47.20364058],[-1.46432306,47.20361458],[-1.46419655,47.20354101],[-1.46378932,47.20298684],[-1.46281433,47.20220748],[-1.46241851,47.20236431],[-1.46171429,47.20237613],[-1.4617291,47.20143868],[-1.46174023,47.20133365],[-1.46182434,47.20123122],[-1.45952631,47.20155153],[-1.45930627,47.2014987],[-1.45810815,47.20137804],[-1.4577289,47.20154323],[-1.45823595,47.20185012],[-1.45511507,47.20303431],[-1.45550467,47.20383987],[-1.45576145,47.20417624],[-1.45597483,47.20434025],[-1.45282019,47.20618933],[-1.45260369,47.20627521],[-1.45214298,47.20667164],[-1.45192277,47.20695243],[-1.45152564,47.20762144],[-1.45073652,47.20817477],[-1.45079622,47.20942314],[-1.45094306,47.21084489],[-1.45133918,47.21262405],[-1.45174473,47.21373379],[-1.45254108,47.21540738],[-1.45324416,47.21656157],[-1.4538883,47.21741956],[-1.4548346,47.21855356],[-1.45659072,47.22046702],[-1.45793186,47.22197173],[-1.4592885,47.22334328],[-1.46117938,47.22491515],[-1.46376783,47.22678833],[-1.46773963,47.22904181],[-1.47092317,47.23123633],[-1.47250624,47.23215626]]]]},"bbox":[-1.47607459,47.18508149,-1.44035069,47.24165375]}]}