{"type":"FeatureCollection","metadata":{"sourceType":"iris","referenceFile":"blain-quartiers.geojson","source":"IGN / INSEE - Contours IRIS WFS Géoplateforme","sourceUrl":"https://geoservices.ign.fr/contoursiris","license":"Licence Ouverte / Open Licence 2.0","sourceYear":"2026"},"features":[{"type":"Feature","id":"fr-quartier-44015-9990416337b4","properties":{"id":"fr-quartier-44015-9990416337b4","kind":"quartier","name":"la Chaussée","cityCode":"44015","cityName":"Blain","sourceType":"iris","sourceIds":["440150102"],"colorIndex":0,"center":[-1.7971471822177654,47.48481769480454]},"geometry":{"type":"MultiPolygon","coordinates":[[[[-1.83444409,47.48524846],[-1.82862769,47.49491433],[-1.82231267,47.4979124],[-1.81946694,47.49871749],[-1.81913665,47.49872936],[-1.81864808,47.49843215],[-1.8184451,47.49753871],[-1.8169346,47.49606091],[-1.81193992,47.4958031],[-1.81190067,47.49601756],[-1.80854125,47.495802],[-1.80490776,47.49731836],[-1.8046435,47.49736896],[-1.80147214,47.49689202],[-1.79820311,47.49657143],[-1.79502913,47.49639023],[-1.7932293,47.49639674],[-1.79195752,47.4964897],[-1.78957175,47.49684764],[-1.78447202,47.49642525],[-1.78058578,47.49921465],[-1.77837372,47.50060951],[-1.77768697,47.50090645],[-1.77478929,47.50188299],[-1.77293077,47.50288808],[-1.77224768,47.503018],[-1.77040533,47.50410084],[-1.76934488,47.50461053],[-1.76883543,47.50474774],[-1.76455846,47.50461809],[-1.76329984,47.50450277],[-1.76304626,47.50461415],[-1.76079643,47.50462143],[-1.76144209,47.50399623],[-1.76327186,47.50377076],[-1.7639063,47.50384128],[-1.76452457,47.50370054],[-1.76491304,47.50340057],[-1.76463079,47.50305592],[-1.76459304,47.5028266],[-1.76535593,47.50229307],[-1.76599617,47.50208559],[-1.76618393,47.50195255],[-1.76625743,47.50156808],[-1.76619432,47.50106926],[-1.76607102,47.50071629],[-1.76599903,47.50002846],[-1.76587041,47.49976499],[-1.76547112,47.49930158],[-1.76532069,47.49904712],[-1.76544312,47.49840544],[-1.76533468,47.49796529],[-1.76537185,47.4961286],[-1.76520862,47.49510362],[-1.76528403,47.49284512],[-1.76524837,47.49044508],[-1.76544316,47.48758559],[-1.76542537,47.48426676],[-1.76568279,47.48367726],[-1.76580027,47.48356242],[-1.76595854,47.4834874],[-1.7655306,47.48156695],[-1.76553114,47.48073726],[-1.76533716,47.47891904],[-1.76505592,47.47768877],[-1.76486047,47.4764658],[-1.76464845,47.47565384],[-1.76469488,47.47550314],[-1.76536374,47.47536662],[-1.76746306,47.47553491],[-1.77103833,47.4756228],[-1.77257357,47.47559589],[-1.77326112,47.47549012],[-1.77443524,47.47512811],[-1.77498306,47.47511103],[-1.77643844,47.47517303],[-1.77756388,47.47511508],[-1.7777897,47.47506703],[-1.7779564,47.47498263],[-1.77809311,47.47481559],[-1.77813805,47.47467847],[-1.77812879,47.47435149],[-1.77821738,47.47412239],[-1.77843742,47.47383108],[-1.77885267,47.47356602],[-1.77935505,47.47344257],[-1.78159661,47.47313401],[-1.78225074,47.4729971],[-1.78216225,47.47249842],[-1.7819596,47.47234442],[-1.78187478,47.47210983],[-1.7919098,47.46998336],[-1.79491045,47.46943584],[-1.80459973,47.46834157],[-1.80655975,47.46808562],[-1.80781203,47.46813848],[-1.8086419,47.46827101],[-1.80958605,47.46862428],[-1.81104198,47.46950649],[-1.81175685,47.46982413],[-1.81297124,47.470076],[-1.81527887,47.47012027],[-1.81646076,47.47004067],[-1.81789097,47.46966128],[-1.81889648,47.46957273],[-1.81962936,47.46957302],[-1.8210506,47.46975852],[-1.82336195,47.47077288],[-1.8261247,47.47145281],[-1.8290731,47.47275898],[-1.82750146,47.47431228],[-1.82725502,47.47469136],[-1.82621795,47.47586081],[-1.82788112,47.4762779],[-1.82826772,47.47633129],[-1.8290726,47.47636191],[-1.83103122,47.47923868],[-1.83135818,47.47939735],[-1.83142021,47.47962745],[-1.83174619,47.48001073],[-1.83142823,47.48027555],[-1.831169,47.48030706],[-1.82855677,47.48093138],[-1.8257239,47.48259019],[-1.82566105,47.48279301],[-1.82472568,47.48327822],[-1.82469135,47.48338426],[-1.82507064,47.48415223],[-1.82513215,47.48515795],[-1.82552949,47.48516762],[-1.82563574,47.48578459],[-1.82579463,47.48582039],[-1.82683536,47.4855734],[-1.82764471,47.48568141],[-1.82789645,47.48519839],[-1.83444409,47.48524846]]]]},"bbox":[-1.83444409,47.46808562,-1.76079643,47.50474774]},{"type":"Feature","id":"fr-quartier-44015-f96b00bd37cf","properties":{"id":"fr-quartier-44015-f96b00bd37cf","kind":"quartier","name":"la Miltais","cityCode":"44015","cityName":"Blain","sourceType":"iris","sourceIds":["440150101"],"colorIndex":1,"center":[-1.7201808058206343,47.48470444516316]},"geometry":{"type":"MultiPolygon","coordinates":[[[[-1.76079643,47.50462143],[-1.76070057,47.50483006],[-1.76035538,47.50479458],[-1.75894268,47.50411468],[-1.75702713,47.50351124],[-1.7565778,47.50347188],[-1.75610412,47.50324866],[-1.75383421,47.50163791],[-1.75320215,47.50072586],[-1.75216622,47.50025505],[-1.75218879,47.50011976],[-1.74813815,47.49992618],[-1.74713408,47.49975341],[-1.74475444,47.49988472],[-1.74248764,47.50170764],[-1.74012841,47.50208511],[-1.73972202,47.50221438],[-1.73647179,47.5022989],[-1.73411432,47.50265183],[-1.73393328,47.50230569],[-1.73380006,47.50120733],[-1.73319608,47.50089373],[-1.73218005,47.50064558],[-1.73221773,47.50042491],[-1.73266704,47.49980335],[-1.73274253,47.4993034],[-1.73112666,47.49934385],[-1.73013639,47.49926597],[-1.72976281,47.49905932],[-1.72857182,47.49868298],[-1.72843623,47.49838369],[-1.72799228,47.49811857],[-1.72642973,47.49778345],[-1.72607814,47.49779503],[-1.72559632,47.49792912],[-1.72443095,47.49793225],[-1.72293741,47.49771512],[-1.72268291,47.49757575],[-1.72229471,47.49777547],[-1.72024003,47.49763789],[-1.71945995,47.49746843],[-1.71905612,47.4969185],[-1.71803892,47.49673069],[-1.71726445,47.49676028],[-1.71515088,47.49708581],[-1.71215849,47.49815928],[-1.71101913,47.49842724],[-1.71110435,47.49851847],[-1.71094211,47.49858005],[-1.71029724,47.49937085],[-1.70952774,47.50006118],[-1.70813395,47.50087054],[-1.7071346,47.50126355],[-1.70583003,47.50198361],[-1.70411171,47.50259954],[-1.70362952,47.50270018],[-1.70323646,47.50257359],[-1.70207681,47.50268808],[-1.70174252,47.50265469],[-1.7011737,47.502179],[-1.70043382,47.50196721],[-1.69896926,47.50180722],[-1.69849459,47.50158471],[-1.69806394,47.50151463],[-1.69590498,47.50265951],[-1.69188038,47.50426101],[-1.69046959,47.5044865],[-1.68887227,47.504467],[-1.68131697,47.50049595],[-1.67970295,47.49935703],[-1.67959293,47.49919463],[-1.67958468,47.49859891],[-1.67888307,47.49721138],[-1.67723139,47.49500178],[-1.67701414,47.49461735],[-1.67671324,47.49359604],[-1.67548598,47.49177965],[-1.67609451,47.49129892],[-1.67669533,47.49050198],[-1.67777391,47.48821688],[-1.67793298,47.4876478],[-1.67880598,47.48602472],[-1.67882275,47.48582115],[-1.67823067,47.48434535],[-1.67845016,47.48335723],[-1.6782012,47.48219947],[-1.6785029,47.48157325],[-1.67846617,47.48124469],[-1.67907384,47.48084692],[-1.67932157,47.48095689],[-1.67946236,47.48092418],[-1.67962167,47.4808294],[-1.67977981,47.48053899],[-1.68044473,47.4804915],[-1.68077871,47.48061423],[-1.68118621,47.48052839],[-1.68185657,47.47996578],[-1.68172043,47.47927691],[-1.68134114,47.47853019],[-1.68124128,47.47805808],[-1.68162389,47.477278],[-1.68166948,47.47685685],[-1.68253125,47.47635415],[-1.68353868,47.4752369],[-1.68355466,47.47514608],[-1.68337175,47.47504704],[-1.68334245,47.47459103],[-1.68323174,47.47449629],[-1.6833653,47.47383444],[-1.68423533,47.47210591],[-1.68457049,47.47210593],[-1.68517192,47.4719726],[-1.68550271,47.47107285],[-1.68597873,47.47116278],[-1.68668541,47.47113792],[-1.68709626,47.4713946],[-1.68812609,47.47146041],[-1.68836787,47.47115398],[-1.68890544,47.47085367],[-1.68918567,47.47081893],[-1.68945557,47.47090904],[-1.69003498,47.47134378],[-1.69046202,47.47139058],[-1.69114909,47.47124835],[-1.69213865,47.46611076],[-1.69246498,47.4606906],[-1.69301596,47.45919578],[-1.70060188,47.46272374],[-1.70261117,47.46361643],[-1.70420133,47.46414279],[-1.70579273,47.46141817],[-1.70510252,47.46078238],[-1.70648057,47.45971483],[-1.70697587,47.4594504],[-1.70743432,47.45900891],[-1.70768359,47.45889511],[-1.70772584,47.45914861],[-1.70797673,47.45920428],[-1.70803758,47.45936684],[-1.70830193,47.45946976],[-1.70852415,47.45947159],[-1.70906052,47.45993052],[-1.70992806,47.46007304],[-1.71013202,47.45988262],[-1.71049765,47.45982182],[-1.7109625,47.45981561],[-1.71150224,47.45998041],[-1.71166336,47.46016416],[-1.71235264,47.46041128],[-1.71246472,47.46074761],[-1.71266796,47.46083586],[-1.71282376,47.46111],[-1.71327674,47.46164805],[-1.71384811,47.46183951],[-1.71399164,47.46197437],[-1.71476982,47.46227919],[-1.71495937,47.46260427],[-1.71567594,47.46337149],[-1.71574524,47.46353911],[-1.71580086,47.46400398],[-1.71616628,47.46427232],[-1.71611605,47.46447185],[-1.71613598,47.46483356],[-1.71635376,47.46504116],[-1.71718702,47.46523101],[-1.71758914,47.46537251],[-1.71790976,47.46553986],[-1.71813052,47.46553992],[-1.71794844,47.46741039],[-1.71848204,47.46773052],[-1.71901593,47.46818951],[-1.72188377,47.4711933],[-1.72220057,47.47122643],[-1.73035536,47.47075259],[-1.73068961,47.46981015],[-1.73115746,47.46782251],[-1.73321291,47.46801123],[-1.73409573,47.46839914],[-1.73953088,47.46907147],[-1.74000725,47.46917921],[-1.74083804,47.46926439],[-1.73928438,47.47145234],[-1.74565977,47.47316824],[-1.74646867,47.47330568],[-1.74713602,47.47357153],[-1.7490838,47.47404212],[-1.75147931,47.4744466],[-1.75339929,47.47449892],[-1.75469268,47.47462462],[-1.75500816,47.47456753],[-1.75531983,47.47458726],[-1.75571711,47.4746125],[-1.75705864,47.47496526],[-1.76034167,47.47323566],[-1.76191275,47.47383598],[-1.76203665,47.47404735],[-1.7642602,47.47392383],[-1.76516058,47.4740123],[-1.76469488,47.47550314],[-1.76464845,47.47565384],[-1.76486047,47.4764658],[-1.76505592,47.47768877],[-1.76533716,47.47891904],[-1.76553114,47.48073726],[-1.7655306,47.48156695],[-1.76595854,47.4834874],[-1.76580027,47.48356242],[-1.76568279,47.48367726],[-1.76542537,47.48426676],[-1.76544316,47.48758559],[-1.76524837,47.49044508],[-1.76528403,47.49284512],[-1.76520862,47.49510362],[-1.76537185,47.4961286],[-1.76533468,47.49796529],[-1.76544312,47.49840544],[-1.76532069,47.49904712],[-1.76547112,47.49930158],[-1.76587041,47.49976499],[-1.76599903,47.50002846],[-1.76607102,47.50071629],[-1.76619432,47.50106926],[-1.76625743,47.50156808],[-1.76618393,47.50195255],[-1.76599617,47.50208559],[-1.76535593,47.50229307],[-1.76459304,47.5028266],[-1.76463079,47.50305592],[-1.76491304,47.50340057],[-1.76452457,47.50370054],[-1.7639063,47.50384128],[-1.76327186,47.50377076],[-1.76144209,47.50399623],[-1.76079643,47.50462143]]]]},"bbox":[-1.76625743,47.45889511,-1.67548598,47.50483006]},{"type":"Feature","id":"fr-quartier-44015-8656b5c418cd","properties":{"id":"fr-quartier-44015-8656b5c418cd","kind":"quartier","name":"Saint-Émilien de Blain","cityCode":"44015","cityName":"Blain","sourceType":"iris","sourceIds":["440150104"],"colorIndex":2,"center":[-1.735104028465341,47.44338753590871]},"geometry":{"type":"MultiPolygon","coordinates":[[[[-1.69301596,47.45919578],[-1.69323373,47.45772252],[-1.69309766,47.45758102],[-1.69313015,47.45632986],[-1.69287056,47.45626549],[-1.69428911,47.45299161],[-1.69426792,47.45185623],[-1.69469826,47.45042758],[-1.6957946,47.44845351],[-1.69578002,47.44799961],[-1.69510527,47.44777887],[-1.69463102,47.44793419],[-1.69424333,47.44769734],[-1.69384084,47.44730689],[-1.6933545,47.44721831],[-1.6929748,47.4470118],[-1.69280228,47.44671216],[-1.69302002,47.44664837],[-1.6929571,47.44606746],[-1.69317669,47.44537325],[-1.69293723,47.44465879],[-1.69266079,47.44437146],[-1.69220382,47.44432948],[-1.69208777,47.44414299],[-1.69186862,47.44402378],[-1.69189571,47.44383241],[-1.69214438,47.44378811],[-1.6921897,47.4434409],[-1.69176062,47.44338337],[-1.69142727,47.44361415],[-1.6913119,47.44348084],[-1.69130815,47.44298321],[-1.69143661,47.44255329],[-1.69242622,47.44221215],[-1.69273781,47.44190019],[-1.69278162,47.4416874],[-1.69267622,47.44139497],[-1.69305624,47.44055992],[-1.69335201,47.44040099],[-1.69329276,47.4400589],[-1.69395488,47.43975803],[-1.69406166,47.4396419],[-1.69391624,47.43930239],[-1.693969,47.43878264],[-1.69404012,47.43868418],[-1.69427579,47.43867376],[-1.69438149,47.4385757],[-1.69425657,47.43839408],[-1.69429017,47.43811047],[-1.69442744,47.43787226],[-1.69482208,47.43758309],[-1.69510857,47.43662194],[-1.69467353,47.4363293],[-1.69420181,47.4362699],[-1.69363358,47.43576169],[-1.69352788,47.43555675],[-1.69349142,47.43524711],[-1.69360061,47.43505242],[-1.69380814,47.43503953],[-1.69389701,47.43494667],[-1.69389992,47.43458584],[-1.69361896,47.43432214],[-1.69285667,47.43394983],[-1.69218745,47.43244111],[-1.6923812,47.43204372],[-1.69288872,47.43195109],[-1.69294319,47.43173877],[-1.6927204,47.43142583],[-1.69298387,47.43120238],[-1.69302018,47.43105572],[-1.6932304,47.43093722],[-1.69276782,47.43031473],[-1.69241588,47.43024147],[-1.69219381,47.42995194],[-1.69191119,47.42979021],[-1.6919002,47.42939207],[-1.69158575,47.42909455],[-1.69158513,47.42886011],[-1.69129259,47.4286609],[-1.69152138,47.42810248],[-1.69249193,47.42695591],[-1.69354024,47.42618133],[-1.69352488,47.42593036],[-1.69318241,47.42557085],[-1.69311952,47.42523251],[-1.69270117,47.42500773],[-1.69272176,47.42487884],[-1.69306143,47.42470641],[-1.69279844,47.42428328],[-1.69281965,47.4240705],[-1.69300526,47.42391421],[-1.69351851,47.42370591],[-1.69409504,47.42323444],[-1.69442659,47.42328778],[-1.69458301,47.42345009],[-1.69488991,47.42346475],[-1.69505195,47.42326702],[-1.69537791,47.42318081],[-1.69592453,47.42317135],[-1.69613932,47.4229237],[-1.69636179,47.42286962],[-1.69655608,47.422676],[-1.69702119,47.42257063],[-1.69769988,47.42224921],[-1.69827543,47.4222061],[-1.69857925,47.42197378],[-1.69944133,47.42198582],[-1.69987386,47.42179699],[-1.70044227,47.42199043],[-1.7013577,47.42192905],[-1.70146215,47.42180218],[-1.70147627,47.42147877],[-1.7015851,47.42143198],[-1.70223911,47.42135953],[-1.70269505,47.42148266],[-1.70350499,47.42147603],[-1.70435478,47.42118191],[-1.70470616,47.42114334],[-1.70478841,47.42108139],[-1.70472453,47.4209442],[-1.70494648,47.42079364],[-1.70587298,47.42076784],[-1.70631579,47.42066604],[-1.70669278,47.42067693],[-1.70691774,47.42057583],[-1.70740989,47.42056672],[-1.70789224,47.4208087],[-1.70850499,47.42052415],[-1.70924315,47.42054745],[-1.70949695,47.42041181],[-1.70979319,47.42038087],[-1.70995225,47.42045198],[-1.71093478,47.42027778],[-1.71208155,47.41911666],[-1.71272332,47.41889044],[-1.71327278,47.4184912],[-1.71394529,47.4187047],[-1.71501035,47.41848744],[-1.71519372,47.41829153],[-1.71589603,47.41810431],[-1.71724627,47.41729379],[-1.71763669,47.41670349],[-1.7184076,47.41620957],[-1.71902521,47.41596625],[-1.71941009,47.41606695],[-1.72001088,47.41572331],[-1.72044864,47.41562526],[-1.72061388,47.41576644],[-1.72102098,47.41583287],[-1.72147226,47.41576764],[-1.72375856,47.41418403],[-1.72537556,47.41323721],[-1.72579053,47.41288125],[-1.7258393,47.41265111],[-1.72572925,47.41235258],[-1.72600038,47.41214315],[-1.72639646,47.41205489],[-1.72676309,47.4122501],[-1.72716196,47.41234389],[-1.72772402,47.41184847],[-1.7285972,47.4117922],[-1.72880581,47.41155194],[-1.72920493,47.41133279],[-1.72932355,47.41102134],[-1.7303532,47.41043563],[-1.73046884,47.41021088],[-1.73034907,47.40951685],[-1.73050633,47.40926696],[-1.73113027,47.40915678],[-1.73136226,47.409031],[-1.73157093,47.40861127],[-1.73222527,47.40852961],[-1.73235671,47.40807786],[-1.7323084,47.40765146],[-1.73246657,47.4074872],[-1.73473671,47.40871767],[-1.73516148,47.40880407],[-1.73709105,47.41002763],[-1.73789294,47.41069745],[-1.7384944,47.41102373],[-1.74321262,47.41425543],[-1.7452229,47.41530603],[-1.74940693,47.41664113],[-1.75237184,47.41808548],[-1.75285579,47.41885207],[-1.75370317,47.41914748],[-1.75413822,47.42053022],[-1.75442171,47.42077474],[-1.7563441,47.42331317],[-1.75689242,47.42418985],[-1.75529407,47.42504527],[-1.7548382,47.42513426],[-1.75204485,47.42451984],[-1.75178294,47.42573088],[-1.75116105,47.42700353],[-1.75103412,47.42754981],[-1.75113492,47.428296],[-1.75138117,47.42827061],[-1.75214976,47.42873969],[-1.7546311,47.42948953],[-1.75578937,47.42999135],[-1.75626329,47.43047878],[-1.75587476,47.43089239],[-1.7559954,47.43094877],[-1.75808315,47.43073797],[-1.75876377,47.43084448],[-1.75905556,47.43107692],[-1.75995295,47.43293311],[-1.76110467,47.43292652],[-1.764846,47.43238902],[-1.76738595,47.43261404],[-1.76837828,47.43257874],[-1.77060119,47.43213942],[-1.77105153,47.43194327],[-1.77160898,47.43142798],[-1.77200247,47.43136944],[-1.77255246,47.43162012],[-1.77314867,47.43159924],[-1.77366789,47.43144535],[-1.77416579,47.43102268],[-1.77522161,47.43093962],[-1.775688,47.43096825],[-1.7760433,47.4312711],[-1.77704362,47.43132559],[-1.77755882,47.43112675],[-1.78194154,47.43115123],[-1.78300494,47.43122741],[-1.78198061,47.43268906],[-1.78182071,47.43308614],[-1.7824404,47.43529089],[-1.78226337,47.43744456],[-1.78265242,47.43920968],[-1.78240509,47.44033904],[-1.7815956,47.44158892],[-1.78049837,47.44475169],[-1.78042772,47.44757644],[-1.7793334,47.44870543],[-1.77873385,47.44994124],[-1.77679122,47.4523063],[-1.77659253,47.45344626],[-1.77636877,47.45414174],[-1.77523857,47.4563309],[-1.77288148,47.45898796],[-1.77090036,47.46137521],[-1.77072748,47.46185215],[-1.77007035,47.46560723],[-1.7700674,47.46640907],[-1.76913147,47.46720318],[-1.76872501,47.46790973],[-1.76791329,47.46990356],[-1.76749862,47.47035433],[-1.76278189,47.46818301],[-1.76137464,47.46955547],[-1.76098125,47.46964823],[-1.76089356,47.46982857],[-1.76065958,47.47005369],[-1.75934492,47.47107783],[-1.75899191,47.47128076],[-1.75880969,47.47154974],[-1.75799415,47.47172649],[-1.75726536,47.47214588],[-1.75700566,47.47224668],[-1.75659519,47.47267108],[-1.756026,47.4734645],[-1.75531983,47.47458726],[-1.75500816,47.47456753],[-1.75469268,47.47462462],[-1.75339929,47.47449892],[-1.75147931,47.4744466],[-1.7490838,47.47404212],[-1.74713602,47.47357153],[-1.74646867,47.47330568],[-1.74565977,47.47316824],[-1.73928438,47.47145234],[-1.74083804,47.46926439],[-1.74000725,47.46917921],[-1.73953088,47.46907147],[-1.73409573,47.46839914],[-1.73321291,47.46801123],[-1.73115746,47.46782251],[-1.73068961,47.46981015],[-1.73035536,47.47075259],[-1.72220057,47.47122643],[-1.72188377,47.4711933],[-1.71901593,47.46818951],[-1.71848204,47.46773052],[-1.71794844,47.46741039],[-1.71813052,47.46553992],[-1.71790976,47.46553986],[-1.71758914,47.46537251],[-1.71718702,47.46523101],[-1.71635376,47.46504116],[-1.71613598,47.46483356],[-1.71611605,47.46447185],[-1.71616628,47.46427232],[-1.71580086,47.46400398],[-1.71574524,47.46353911],[-1.71567594,47.46337149],[-1.71495937,47.46260427],[-1.71476982,47.46227919],[-1.71399164,47.46197437],[-1.71384811,47.46183951],[-1.71327674,47.46164805],[-1.71282376,47.46111],[-1.71266796,47.46083586],[-1.71246472,47.46074761],[-1.71235264,47.46041128],[-1.71166336,47.46016416],[-1.71150224,47.45998041],[-1.7109625,47.45981561],[-1.71049765,47.45982182],[-1.71013202,47.45988262],[-1.70992806,47.46007304],[-1.70906052,47.45993052],[-1.70852415,47.45947159],[-1.70830193,47.45946976],[-1.70803758,47.45936684],[-1.70797673,47.45920428],[-1.70772584,47.45914861],[-1.70768359,47.45889511],[-1.70743432,47.45900891],[-1.70697587,47.4594504],[-1.70648057,47.45971483],[-1.70510252,47.46078238],[-1.70579273,47.46141817],[-1.70420133,47.46414279],[-1.70261117,47.46361643],[-1.70060188,47.46272374],[-1.69301596,47.45919578]]]]},"bbox":[-1.78300494,47.4074872,-1.69129259,47.47462462]},{"type":"Feature","id":"fr-quartier-44015-fcc5903be98f","properties":{"id":"fr-quartier-44015-fcc5903be98f","kind":"quartier","name":"Saint-Omer de Blain","cityCode":"44015","cityName":"Blain","sourceType":"iris","sourceIds":["440150103"],"colorIndex":3,"center":[-1.8244153580137978,47.45843393806872]},"geometry":{"type":"MultiPolygon","coordinates":[[[[-1.88796425,47.4633841],[-1.88776092,47.46366231],[-1.88709799,47.46400494],[-1.8856906,47.4644095],[-1.88380748,47.46481869],[-1.88354697,47.46483504],[-1.88315537,47.46465397],[-1.88246443,47.46479211],[-1.88233394,47.46487786],[-1.88157062,47.4647187],[-1.88033921,47.46504095],[-1.87995053,47.46503742],[-1.87967525,47.46516893],[-1.87961067,47.46507333],[-1.87937111,47.46507166],[-1.87927841,47.46485729],[-1.8790535,47.46487033],[-1.87862214,47.46534659],[-1.87833148,47.4658927],[-1.87629365,47.46647331],[-1.87523398,47.46704624],[-1.87321875,47.46764207],[-1.87288154,47.46780952],[-1.87245908,47.46817986],[-1.87203364,47.4682987],[-1.87187721,47.46853794],[-1.87259748,47.46972802],[-1.87286448,47.47058535],[-1.87262797,47.4706611],[-1.8724183,47.47088544],[-1.87171988,47.4710157],[-1.87046411,47.47161304],[-1.87020075,47.47200737],[-1.86916974,47.4730868],[-1.86901983,47.47347096],[-1.86915201,47.47391457],[-1.86853336,47.47391341],[-1.86852433,47.47413565],[-1.86833767,47.47427694],[-1.86787065,47.47420269],[-1.867597,47.47444052],[-1.86668514,47.47446244],[-1.8665796,47.4746328],[-1.86609269,47.47464686],[-1.86569047,47.47475838],[-1.86420774,47.47580164],[-1.86368671,47.47601102],[-1.86318955,47.47600024],[-1.86304887,47.47631096],[-1.86285635,47.47647593],[-1.86307279,47.47679337],[-1.86302284,47.47693164],[-1.8625286,47.47709931],[-1.86160225,47.4776061],[-1.86130985,47.47782846],[-1.86111806,47.47826487],[-1.8601276,47.47811054],[-1.85991567,47.47841341],[-1.8586761,47.47925072],[-1.85828631,47.47938244],[-1.85786663,47.47975621],[-1.85701495,47.47985581],[-1.85635822,47.48046133],[-1.85592015,47.48070598],[-1.85540427,47.48126593],[-1.85418041,47.48386028],[-1.85420481,47.48412893],[-1.85382449,47.48420432],[-1.85359722,47.48442664],[-1.85270007,47.48452449],[-1.8521307,47.48502352],[-1.85108022,47.48539651],[-1.85101851,47.48562545],[-1.8505875,47.48580215],[-1.84247909,47.48532645],[-1.83444409,47.48524846],[-1.82789645,47.48519839],[-1.82764471,47.48568141],[-1.82683536,47.4855734],[-1.82579463,47.48582039],[-1.82563574,47.48578459],[-1.82552949,47.48516762],[-1.82513215,47.48515795],[-1.82507064,47.48415223],[-1.82469135,47.48338426],[-1.82472568,47.48327822],[-1.82566105,47.48279301],[-1.8257239,47.48259019],[-1.82855677,47.48093138],[-1.831169,47.48030706],[-1.83142823,47.48027555],[-1.83174619,47.48001073],[-1.83142021,47.47962745],[-1.83135818,47.47939735],[-1.83103122,47.47923868],[-1.8290726,47.47636191],[-1.82826772,47.47633129],[-1.82788112,47.4762779],[-1.82621795,47.47586081],[-1.82725502,47.47469136],[-1.82750146,47.47431228],[-1.8290731,47.47275898],[-1.8261247,47.47145281],[-1.82336195,47.47077288],[-1.8210506,47.46975852],[-1.81962936,47.46957302],[-1.81889648,47.46957273],[-1.81789097,47.46966128],[-1.81646076,47.47004067],[-1.81527887,47.47012027],[-1.81297124,47.470076],[-1.81175685,47.46982413],[-1.81104198,47.46950649],[-1.80958605,47.46862428],[-1.8086419,47.46827101],[-1.80781203,47.46813848],[-1.80655975,47.46808562],[-1.80459973,47.46834157],[-1.79491045,47.46943584],[-1.7919098,47.46998336],[-1.78187478,47.47210983],[-1.7819596,47.47234442],[-1.78216225,47.47249842],[-1.78225074,47.4729971],[-1.78159661,47.47313401],[-1.77935505,47.47344257],[-1.77885267,47.47356602],[-1.77843742,47.47383108],[-1.77821738,47.47412239],[-1.77812879,47.47435149],[-1.77813805,47.47467847],[-1.77809311,47.47481559],[-1.7779564,47.47498263],[-1.7777897,47.47506703],[-1.77756388,47.47511508],[-1.77643844,47.47517303],[-1.77498306,47.47511103],[-1.77443524,47.47512811],[-1.77326112,47.47549012],[-1.77257357,47.47559589],[-1.77103833,47.4756228],[-1.76746306,47.47553491],[-1.76536374,47.47536662],[-1.76469488,47.47550314],[-1.76516058,47.4740123],[-1.7642602,47.47392383],[-1.76203665,47.47404735],[-1.76191275,47.47383598],[-1.76034167,47.47323566],[-1.75705864,47.47496526],[-1.75571711,47.4746125],[-1.75531983,47.47458726],[-1.756026,47.4734645],[-1.75659519,47.47267108],[-1.75700566,47.47224668],[-1.75726536,47.47214588],[-1.75799415,47.47172649],[-1.75880969,47.47154974],[-1.75899191,47.47128076],[-1.75934492,47.47107783],[-1.76065958,47.47005369],[-1.76089356,47.46982857],[-1.76098125,47.46964823],[-1.76137464,47.46955547],[-1.76278189,47.46818301],[-1.76749862,47.47035433],[-1.76791329,47.46990356],[-1.76872501,47.46790973],[-1.76913147,47.46720318],[-1.7700674,47.46640907],[-1.77007035,47.46560723],[-1.77072748,47.46185215],[-1.77090036,47.46137521],[-1.77288148,47.45898796],[-1.77523857,47.4563309],[-1.77636877,47.45414174],[-1.77659253,47.45344626],[-1.77679122,47.4523063],[-1.77873385,47.44994124],[-1.7793334,47.44870543],[-1.78042772,47.44757644],[-1.78049837,47.44475169],[-1.7815956,47.44158892],[-1.78240509,47.44033904],[-1.78265242,47.43920968],[-1.78226337,47.43744456],[-1.7824404,47.43529089],[-1.78182071,47.43308614],[-1.78198061,47.43268906],[-1.78300494,47.43122741],[-1.78487767,47.43136226],[-1.78635541,47.42994865],[-1.78790055,47.43006177],[-1.78873941,47.4306585],[-1.78769331,47.43171166],[-1.78763651,47.43184928],[-1.78781456,47.43242815],[-1.79024946,47.43216098],[-1.79022914,47.43294372],[-1.79047992,47.43341406],[-1.79205126,47.43371454],[-1.79220123,47.43393472],[-1.79243444,47.43403062],[-1.79331776,47.43390581],[-1.79557583,47.43314801],[-1.79600785,47.43366768],[-1.79641201,47.43374299],[-1.79643352,47.43401266],[-1.79552719,47.43517106],[-1.79587187,47.43533901],[-1.7958687,47.436149],[-1.79683387,47.4366106],[-1.79686474,47.43701426],[-1.79841493,47.43701792],[-1.79839585,47.43720539],[-1.7985297,47.437364],[-1.79968805,47.43800789],[-1.80110539,47.43861944],[-1.80168741,47.43955046],[-1.80271224,47.43971284],[-1.80305766,47.43969586],[-1.80364804,47.4392981],[-1.80722316,47.43961656],[-1.81017181,47.44081761],[-1.81025154,47.44099468],[-1.81104372,47.44094927],[-1.81221482,47.4421165],[-1.81372895,47.44217557],[-1.8149396,47.4424519],[-1.81660052,47.44269424],[-1.81886141,47.44283773],[-1.82001448,47.44275475],[-1.82054249,47.44278697],[-1.82072836,47.44243024],[-1.82125072,47.44185393],[-1.82166206,47.44082768],[-1.82191601,47.44044468],[-1.82342245,47.43968143],[-1.82472328,47.43886446],[-1.82510711,47.43853648],[-1.82491997,47.43781735],[-1.82575344,47.43769977],[-1.82555945,47.43718474],[-1.82563778,47.43703629],[-1.82611272,47.4367902],[-1.82671521,47.43679404],[-1.82710516,47.43693207],[-1.82732045,47.43682843],[-1.82747812,47.43546727],[-1.82772539,47.43437746],[-1.82893479,47.4339782],[-1.82860004,47.43327331],[-1.8284811,47.43270647],[-1.82869561,47.43150437],[-1.82954237,47.43072514],[-1.82923903,47.43039774],[-1.82930426,47.42994229],[-1.83002134,47.42946426],[-1.83214035,47.42833631],[-1.83268428,47.42817841],[-1.83341627,47.42813083],[-1.83335001,47.42788287],[-1.83521084,47.42825279],[-1.83585168,47.42818194],[-1.83667271,47.42875203],[-1.83729863,47.42947183],[-1.83800879,47.43059398],[-1.83893579,47.43107126],[-1.83893553,47.43127419],[-1.83952799,47.43154985],[-1.83986071,47.43196619],[-1.83958084,47.43306011],[-1.8393554,47.4331687],[-1.83959282,47.43347177],[-1.83955799,47.43365991],[-1.83915057,47.43376976],[-1.83906747,47.43407084],[-1.83868682,47.43425625],[-1.83862356,47.43446811],[-1.8383313,47.43469042],[-1.83834243,47.43476932],[-1.8385902,47.43481943],[-1.83873704,47.43500271],[-1.83874536,47.43512412],[-1.83852519,47.43514411],[-1.83836268,47.43527263],[-1.83877554,47.43553142],[-1.83867359,47.43587387],[-1.83885658,47.43616297],[-1.83915064,47.43640145],[-1.83904475,47.43692083],[-1.83938138,47.4371891],[-1.8391044,47.4373747],[-1.83911061,47.43747274],[-1.83980557,47.43811661],[-1.839467,47.43850318],[-1.839512,47.43861855],[-1.84025459,47.43859846],[-1.84023379,47.43891227],[-1.84207925,47.43881377],[-1.84293003,47.43950434],[-1.8431315,47.43954194],[-1.84394935,47.43935454],[-1.84576548,47.43987138],[-1.84600343,47.43987138],[-1.84725442,47.44047399],[-1.84858265,47.440755],[-1.84879395,47.44131167],[-1.84877689,47.44165149],[-1.84849581,47.44198248],[-1.84779678,47.44387763],[-1.85037843,47.44455097],[-1.85330334,47.44550485],[-1.85846629,47.44701901],[-1.85929868,47.44715197],[-1.8607948,47.44759539],[-1.86196667,47.44773308],[-1.86287103,47.44772141],[-1.86626794,47.45036612],[-1.866883,47.45030159],[-1.86906307,47.45184455],[-1.86939438,47.45183248],[-1.87027963,47.45125967],[-1.87047708,47.4512523],[-1.87076202,47.45232264],[-1.8717268,47.45278367],[-1.87384803,47.45356149],[-1.87499791,47.45383526],[-1.87399538,47.45576226],[-1.88382173,47.45553753],[-1.88465243,47.4570476],[-1.88438791,47.45745645],[-1.88503935,47.45975509],[-1.88500508,47.45994773],[-1.88481921,47.46014043],[-1.88548713,47.46136692],[-1.88635639,47.46224943],[-1.8876305,47.46323939],[-1.88796425,47.4633841]]]]},"bbox":[-1.88796425,47.42788287,-1.75531983,47.48582039]}]}