{"type":"FeatureCollection","metadata":{"sourceType":"iris","source":"IGN / INSEE — Contours IRIS 2026","sourceUrl":"https://data.geopf.fr/wfs/ows?service=WFS&version=2.0.0&request=GetFeature&typeNames=STATISTICALUNITS.IRIS%3Acontours_iris&outputFormat=application%2Fjson&srsName=CRS%3A84&count=1000&CQL_FILTER=code_insee%3D%2744035%27&sortBy=code_iris","retrievedDate":"2026-09-10","sourceYear":"2026","license":"Licence Ouverte 2.0"},"features":[{"type":"Feature","id":"fr-quartier-44035-57b866f483b0","properties":{"id":"fr-quartier-44035-57b866f483b0","kind":"quartier","name":"Bords de l'Erdre","cityCode":"44035","cityName":"La Chapelle-sur-Erdre","sourceType":"iris","sourceIds":["440350103"],"colorIndex":0,"center":[-1.540018844915472,47.289569235]},"geometry":{"type":"MultiPolygon","coordinates":[[[[-1.54236639,47.31671108],[-1.5423875,47.31591132],[-1.54193245,47.31561084],[-1.54091644,47.31537199],[-1.53876625,47.31525236],[-1.53772084,47.31494791],[-1.53747872,47.31485999],[-1.5365007,47.31400374],[-1.53480031,47.31329115],[-1.53437215,47.31302565],[-1.53403686,47.31272947],[-1.53227102,47.31045672],[-1.53182792,47.31006105],[-1.53144885,47.30956008],[-1.53090696,47.3084027],[-1.53072087,47.30745505],[-1.53079832,47.3061274],[-1.53085476,47.30535152],[-1.53072739,47.30500482],[-1.52959691,47.30389388],[-1.52929707,47.30348268],[-1.52920297,47.30268202],[-1.52948679,47.30188283],[-1.52955202,47.30133655],[-1.53031176,47.29980009],[-1.53066335,47.29936434],[-1.53143002,47.29867973],[-1.53217634,47.297472],[-1.532267,47.29721147],[-1.53215765,47.29632484],[-1.53221601,47.2951954],[-1.53242282,47.2950232],[-1.53294601,47.29439137],[-1.53342116,47.2934891],[-1.53340848,47.29148776],[-1.53273905,47.29112529],[-1.52764428,47.28571925],[-1.5271203,47.28447189],[-1.52661648,47.28255195],[-1.52650485,47.28052111],[-1.52683688,47.27895897],[-1.52733429,47.27753555],[-1.52884273,47.27617632],[-1.52954691,47.27539856],[-1.53607831,47.26827277],[-1.53775995,47.2657551],[-1.53762402,47.2648208],[-1.537241,47.26216935],[-1.53605665,47.25939237],[-1.53633108,47.25857998],[-1.53728523,47.25748848],[-1.53848602,47.25636927],[-1.53870247,47.25596853],[-1.53910645,47.25490307],[-1.53919067,47.2549124],[-1.5403515,47.25502922],[-1.54161292,47.25495723],[-1.54239759,47.25513658],[-1.54307857,47.25534253],[-1.54443007,47.25610019],[-1.54538721,47.25637645],[-1.54634155,47.25640032],[-1.54679743,47.25648162],[-1.54743211,47.25635932],[-1.54804295,47.25645618],[-1.54903111,47.2562695],[-1.54926131,47.25632899],[-1.54957438,47.25656919],[-1.55032788,47.25656755],[-1.55065273,47.25668103],[-1.55084349,47.25688455],[-1.5508821,47.25710577],[-1.5506541,47.25749436],[-1.54892415,47.2573053],[-1.54421553,47.2569301],[-1.54326948,47.25678505],[-1.54217698,47.25669353],[-1.54278195,47.25698722],[-1.54353441,47.25744286],[-1.5444872,47.25826215],[-1.54484847,47.25868081],[-1.54525898,47.25927429],[-1.54564485,47.26020238],[-1.54578164,47.2610672],[-1.5457764,47.26149033],[-1.54567047,47.26211669],[-1.54428877,47.26577787],[-1.54331851,47.26840122],[-1.54256157,47.27021184],[-1.54137784,47.27322676],[-1.54099988,47.27433448],[-1.5408167,47.27536423],[-1.5408102,47.27644658],[-1.54085744,47.27686403],[-1.54109065,47.27791354],[-1.54154017,47.27898252],[-1.54177828,47.27940061],[-1.54234701,47.28020252],[-1.54495968,47.28331209],[-1.54472429,47.28339617],[-1.54433753,47.28341403],[-1.54371139,47.28296787],[-1.54247017,47.28255032],[-1.54163061,47.28221261],[-1.54143149,47.28217713],[-1.54053586,47.28327536],[-1.54005843,47.28405423],[-1.53991576,47.2841536],[-1.53990529,47.28536143],[-1.54019703,47.28606869],[-1.54095319,47.28759727],[-1.54111842,47.28803084],[-1.54109885,47.28811276],[-1.54174351,47.28818219],[-1.54267341,47.28836488],[-1.54787192,47.28696624],[-1.54837713,47.28798612],[-1.54858499,47.28860918],[-1.54872057,47.28916114],[-1.54880963,47.28997733],[-1.54901529,47.28998008],[-1.54923408,47.28998141],[-1.54926545,47.29003879],[-1.54933427,47.29005323],[-1.54934851,47.29036196],[-1.54916322,47.29044318],[-1.54911313,47.29218189],[-1.54915898,47.29236315],[-1.54913038,47.29329216],[-1.5491668,47.29348731],[-1.54904334,47.29353183],[-1.54896689,47.29366197],[-1.54906103,47.29603887],[-1.54901774,47.29609106],[-1.5489668,47.29713186],[-1.54890191,47.29722639],[-1.54882117,47.29722775],[-1.54879368,47.29726309],[-1.5484008,47.29716308],[-1.54771331,47.29976451],[-1.54722684,47.30103159],[-1.5486615,47.3014893],[-1.54821381,47.30207225],[-1.54722294,47.30294071],[-1.54653953,47.30324524],[-1.54647602,47.30334061],[-1.54619461,47.30347699],[-1.54594759,47.30367513],[-1.54542009,47.3043649],[-1.54350317,47.30663483],[-1.54290944,47.30746694],[-1.54281195,47.30774038],[-1.54285417,47.30781628],[-1.54278294,47.30788309],[-1.54273513,47.30814827],[-1.54279374,47.30822983],[-1.54262704,47.30843745],[-1.54252987,47.3090905],[-1.54283764,47.31203611],[-1.54279298,47.31227591],[-1.54288232,47.31239144],[-1.54313143,47.3147379],[-1.54315761,47.31543841],[-1.54313488,47.31571794],[-1.54297541,47.31621472],[-1.54283684,47.31623818],[-1.54253094,47.3166343],[-1.54236639,47.31671108]]]]},"bbox":[-1.5508821,47.25490307,-1.52650485,47.31671108]},{"type":"Feature","id":"fr-quartier-44035-adc2efa4e0a9","properties":{"id":"fr-quartier-44035-adc2efa4e0a9","kind":"quartier","name":"Centre Ville","cityCode":"44035","cityName":"La Chapelle-sur-Erdre","sourceType":"iris","sourceIds":["440350101"],"colorIndex":1,"center":[-1.5538834841708709,47.29722707]},"geometry":{"type":"MultiPolygon","coordinates":[[[[-1.5486615,47.3014893],[-1.54722684,47.30103159],[-1.54771331,47.29976451],[-1.5484008,47.29716308],[-1.54879368,47.29726309],[-1.54882117,47.29722775],[-1.54890191,47.29722639],[-1.5489668,47.29713186],[-1.54901774,47.29609106],[-1.54906103,47.29603887],[-1.54896689,47.29366197],[-1.54904334,47.29353183],[-1.5491668,47.29348731],[-1.54913038,47.29329216],[-1.54915898,47.29236315],[-1.54911313,47.29218189],[-1.54916322,47.29044318],[-1.54934851,47.29036196],[-1.54944692,47.29052222],[-1.54962524,47.29065589],[-1.55142586,47.29175928],[-1.55172959,47.29190245],[-1.55412575,47.29279125],[-1.55423463,47.29277795],[-1.5545968,47.29228219],[-1.55468236,47.29227522],[-1.55602316,47.2925661],[-1.55599732,47.29304234],[-1.5580373,47.29349689],[-1.55813382,47.29374378],[-1.55826934,47.29384125],[-1.55825876,47.29430967],[-1.55858345,47.29526087],[-1.55869545,47.29586153],[-1.55874746,47.29589646],[-1.55896654,47.29774183],[-1.55900862,47.29859593],[-1.55918652,47.29889552],[-1.55936776,47.29945289],[-1.56034559,47.29940091],[-1.56007186,47.30068764],[-1.56080346,47.30067059],[-1.56080664,47.30264167],[-1.56016221,47.3028113],[-1.5587144,47.30310538],[-1.5590999,47.30391352],[-1.55755191,47.30438647],[-1.55708489,47.30414782],[-1.55672507,47.3045939],[-1.55308777,47.30311455],[-1.55193407,47.30273513],[-1.55149755,47.30254306],[-1.55013884,47.30176228],[-1.5500864,47.30189419],[-1.54943039,47.30167736],[-1.54951566,47.30152613],[-1.54900629,47.30136577],[-1.54911395,47.30107209],[-1.54903313,47.30102566],[-1.54903742,47.30096688],[-1.5486615,47.3014893]]]]},"bbox":[-1.56080664,47.29036196,-1.54722684,47.3045939]},{"type":"Feature","id":"fr-quartier-44035-2e15fb6644b2","properties":{"id":"fr-quartier-44035-2e15fb6644b2","kind":"quartier","name":"Côte-Azalées-Beausoleil","cityCode":"44035","cityName":"La Chapelle-sur-Erdre","sourceType":"iris","sourceIds":["440350106"],"colorIndex":2,"center":[-1.5587772751238793,47.291164120000005]},"geometry":{"type":"MultiPolygon","coordinates":[[[[-1.54934851,47.29036196],[-1.54933427,47.29005323],[-1.54926545,47.29003879],[-1.54923408,47.28998141],[-1.54901529,47.28998008],[-1.5491246,47.28864302],[-1.54948573,47.2862744],[-1.54963317,47.28591874],[-1.54971948,47.28582698],[-1.55017194,47.285646],[-1.55097553,47.28552699],[-1.55231243,47.2854772],[-1.55413701,47.28550562],[-1.55408296,47.28436884],[-1.55317101,47.28439745],[-1.55305003,47.28281513],[-1.55474322,47.28256105],[-1.55600855,47.28241844],[-1.55609096,47.28232773],[-1.55620615,47.28238903],[-1.557183,47.28221987],[-1.55906991,47.2822656],[-1.56048256,47.2817826],[-1.5606594,47.28175851],[-1.5607509,47.28182164],[-1.56086108,47.28180829],[-1.561015,47.28173279],[-1.56174289,47.28109817],[-1.56336555,47.2799531],[-1.56387405,47.27962197],[-1.56417574,47.27947663],[-1.56498213,47.27926723],[-1.5657089,47.27916556],[-1.5656886,47.2792385],[-1.56605936,47.27936006],[-1.56628305,47.27938822],[-1.56644378,47.27961093],[-1.56643427,47.27974837],[-1.56659367,47.27975291],[-1.56665007,47.2798084],[-1.56654316,47.27993796],[-1.5664752,47.28015164],[-1.56657153,47.2808945],[-1.56651073,47.28133245],[-1.56634111,47.28153481],[-1.56543183,47.28224875],[-1.56536911,47.28238377],[-1.56550295,47.28306925],[-1.56535183,47.28370733],[-1.56516405,47.28410157],[-1.56504108,47.28454106],[-1.56504401,47.28473122],[-1.56521281,47.28490853],[-1.56546351,47.28508261],[-1.56576167,47.28520703],[-1.56659517,47.28528421],[-1.56685275,47.28543006],[-1.56711174,47.28585721],[-1.56720107,47.28650205],[-1.56730773,47.28668091],[-1.56740746,47.28676264],[-1.56769218,47.28683799],[-1.56805298,47.2872467],[-1.56825406,47.28788082],[-1.56829339,47.28828055],[-1.56817976,47.2884248],[-1.56787701,47.28852691],[-1.56685897,47.28875819],[-1.56569059,47.28921631],[-1.56543503,47.28945272],[-1.5653034,47.28974375],[-1.56543038,47.29006789],[-1.56589829,47.29033352],[-1.56601943,47.29049557],[-1.56632117,47.29075511],[-1.56660077,47.29083247],[-1.56672684,47.29097449],[-1.5669224,47.29109213],[-1.56730952,47.29124911],[-1.56757084,47.29123611],[-1.56760933,47.29133018],[-1.56743284,47.29146789],[-1.56740194,47.2915719],[-1.56747288,47.29186037],[-1.5677244,47.29202811],[-1.56763402,47.29221202],[-1.56755825,47.29262981],[-1.56741759,47.2928148],[-1.56741845,47.2929338],[-1.56789714,47.29312324],[-1.56855638,47.29375194],[-1.56948965,47.29436081],[-1.57000875,47.29480655],[-1.57033038,47.29497242],[-1.5703374,47.29507044],[-1.5700962,47.29574003],[-1.57018423,47.29622891],[-1.57005977,47.29693087],[-1.56999239,47.29699575],[-1.56975452,47.29700422],[-1.56933688,47.29745443],[-1.56898148,47.29754598],[-1.56891809,47.29759537],[-1.56890002,47.29780349],[-1.56883849,47.297906],[-1.56866552,47.29802283],[-1.56836961,47.29801916],[-1.568158,47.29808702],[-1.56793428,47.29837086],[-1.5676235,47.29903327],[-1.56742451,47.29918719],[-1.56724546,47.29924835],[-1.5669985,47.29924365],[-1.56683507,47.29919237],[-1.56620158,47.29885121],[-1.56613111,47.29986124],[-1.56601791,47.30035354],[-1.56602031,47.30047519],[-1.56618099,47.30089899],[-1.5661527,47.30157912],[-1.56576237,47.30241328],[-1.56570811,47.3028194],[-1.56574635,47.30372054],[-1.56551985,47.30397203],[-1.56266376,47.30472919],[-1.56161977,47.30515801],[-1.56155193,47.30515527],[-1.561523,47.30522043],[-1.56059691,47.3056951],[-1.56009481,47.30560574],[-1.5595303,47.30537455],[-1.55755191,47.30438647],[-1.5590999,47.30391352],[-1.5587144,47.30310538],[-1.56016221,47.3028113],[-1.56080664,47.30264167],[-1.56080346,47.30067059],[-1.56007186,47.30068764],[-1.56034559,47.29940091],[-1.55936776,47.29945289],[-1.55918652,47.29889552],[-1.55900862,47.29859593],[-1.55896654,47.29774183],[-1.55874746,47.29589646],[-1.55869545,47.29586153],[-1.55858345,47.29526087],[-1.55825876,47.29430967],[-1.55826934,47.29384125],[-1.55813382,47.29374378],[-1.5580373,47.29349689],[-1.55599732,47.29304234],[-1.55602316,47.2925661],[-1.55468236,47.29227522],[-1.5545968,47.29228219],[-1.55423463,47.29277795],[-1.55412575,47.29279125],[-1.55172959,47.29190245],[-1.55142586,47.29175928],[-1.54962524,47.29065589],[-1.54944692,47.29052222],[-1.54934851,47.29036196]]]]},"bbox":[-1.5703374,47.27916556,-1.54901529,47.3056951]},{"type":"Feature","id":"fr-quartier-44035-f3e6e5b95080","properties":{"id":"fr-quartier-44035-f3e6e5b95080","kind":"quartier","name":"Gesvrine Est","cityCode":"44035","cityName":"La Chapelle-sur-Erdre","sourceType":"iris","sourceIds":["440350108"],"colorIndex":3,"center":[-1.550291963177957,47.26670448]},"geometry":{"type":"MultiPolygon","coordinates":[[[[-1.54428877,47.26577787],[-1.54456565,47.26585629],[-1.54475543,47.265829],[-1.54489615,47.26573872],[-1.54493699,47.26561087],[-1.54591843,47.26501419],[-1.54652867,47.26471161],[-1.54688706,47.26462631],[-1.54746169,47.26393466],[-1.54813054,47.26344852],[-1.54826244,47.26342621],[-1.54851426,47.26320892],[-1.54880987,47.26424334],[-1.5490203,47.26449118],[-1.5497704,47.26501089],[-1.54984746,47.26518551],[-1.54997436,47.26583881],[-1.54959601,47.26587621],[-1.54857609,47.2660966],[-1.54837029,47.26623182],[-1.54852682,47.26629692],[-1.54919069,47.26675239],[-1.54925841,47.26666046],[-1.54997755,47.2661579],[-1.55006863,47.26616965],[-1.55012135,47.26613512],[-1.55057923,47.26623888],[-1.55078426,47.26632911],[-1.55142522,47.2667485],[-1.55189749,47.26713123],[-1.5526018,47.26776635],[-1.5527823,47.26809831],[-1.55275147,47.26843768],[-1.55171092,47.27080597],[-1.55187076,47.2714724],[-1.55115039,47.27363332],[-1.55119339,47.27379665],[-1.55142812,47.2740805],[-1.55031663,47.27453535],[-1.54945984,47.2748377],[-1.54854359,47.27511083],[-1.54756514,47.27532236],[-1.54734619,47.27472408],[-1.54713532,47.27453397],[-1.54700256,47.2744995],[-1.54683245,47.27436821],[-1.54682956,47.27419338],[-1.54690669,47.27410289],[-1.54706503,47.27403265],[-1.54626878,47.27145154],[-1.54431508,47.27148849],[-1.54384344,47.27128515],[-1.54377232,47.2701788],[-1.54256157,47.27021184],[-1.54331851,47.26840122],[-1.54428877,47.26577787]]]]},"bbox":[-1.5527823,47.26320892,-1.54256157,47.27532236]},{"type":"Feature","id":"fr-quartier-44035-a7954cf210bd","properties":{"id":"fr-quartier-44035-a7954cf210bd","kind":"quartier","name":"Gesvrine Ouest","cityCode":"44035","cityName":"La Chapelle-sur-Erdre","sourceType":"iris","sourceIds":["440350107"],"colorIndex":4,"center":[-1.553703745187692,47.26611569]},"geometry":{"type":"MultiPolygon","coordinates":[[[[-1.55422008,47.26043463],[-1.554384,47.26093046],[-1.55493417,47.26143546],[-1.55484237,47.2622272],[-1.55463634,47.26287464],[-1.55478618,47.26343866],[-1.55511913,47.26411541],[-1.55544762,47.26431802],[-1.55580804,47.26431918],[-1.55622278,47.26449224],[-1.55668009,47.26451123],[-1.55695093,47.26468994],[-1.55735322,47.26473183],[-1.55750145,47.26494874],[-1.55773559,47.26500716],[-1.5578228,47.26511374],[-1.55834136,47.26515196],[-1.55847262,47.26524689],[-1.55858214,47.26569436],[-1.55835346,47.26582509],[-1.55889376,47.26613478],[-1.55889454,47.26644045],[-1.55877776,47.2667345],[-1.55845597,47.26686078],[-1.55834765,47.26700482],[-1.55840357,47.26710181],[-1.55863141,47.26711719],[-1.55871505,47.26727532],[-1.55814856,47.26795228],[-1.55816923,47.26866385],[-1.55828372,47.26916974],[-1.55852178,47.26952378],[-1.55884335,47.26965992],[-1.55912962,47.2699264],[-1.5579423,47.27070352],[-1.55527258,47.27224769],[-1.55386129,47.27297857],[-1.55142812,47.2740805],[-1.55119339,47.27379665],[-1.55115039,47.27363332],[-1.55187076,47.2714724],[-1.55171092,47.27080597],[-1.55275147,47.26843768],[-1.5527823,47.26809831],[-1.5526018,47.26776635],[-1.55189749,47.26713123],[-1.55142522,47.2667485],[-1.55078426,47.26632911],[-1.55057923,47.26623888],[-1.55012135,47.26613512],[-1.55006863,47.26616965],[-1.54997755,47.2661579],[-1.54925841,47.26666046],[-1.54919069,47.26675239],[-1.54852682,47.26629692],[-1.54837029,47.26623182],[-1.54857609,47.2660966],[-1.54959601,47.26587621],[-1.54997436,47.26583881],[-1.54984746,47.26518551],[-1.5497704,47.26501089],[-1.5490203,47.26449118],[-1.54880987,47.26424334],[-1.54851426,47.26320892],[-1.54895817,47.2628353],[-1.5490287,47.26268284],[-1.54923116,47.26249274],[-1.55007841,47.26201761],[-1.55149868,47.26139553],[-1.55257935,47.26100229],[-1.55278077,47.26086272],[-1.55328763,47.26076345],[-1.55422008,47.26043463]]]]},"bbox":[-1.55912962,47.26043463,-1.54837029,47.2740805]},{"type":"Feature","id":"fr-quartier-44035-a1a1e41d9d41","properties":{"id":"fr-quartier-44035-a1a1e41d9d41","kind":"quartier","name":"Nord-Ouest","cityCode":"44035","cityName":"La Chapelle-sur-Erdre","sourceType":"iris","sourceIds":["440350104"],"colorIndex":5,"center":[-1.5795151355343973,47.315319705]},"geometry":{"type":"MultiPolygon","coordinates":[[[[-1.58619946,47.28823179],[-1.58583737,47.28959336],[-1.58578681,47.29081634],[-1.58526047,47.29160547],[-1.58515449,47.29197848],[-1.58510537,47.29245835],[-1.58528386,47.29290308],[-1.58527793,47.29331452],[-1.58448637,47.29424217],[-1.58416567,47.29486354],[-1.58433272,47.29532946],[-1.58505566,47.29581668],[-1.58526313,47.29611958],[-1.58565977,47.29841871],[-1.58511891,47.29934908],[-1.58459684,47.29989455],[-1.58228012,47.30193302],[-1.57948246,47.30405446],[-1.5791399,47.30459191],[-1.57822402,47.30667596],[-1.57820408,47.30692382],[-1.57836777,47.30725732],[-1.57901168,47.3077495],[-1.57926128,47.30806428],[-1.58047774,47.30825881],[-1.58086685,47.30845264],[-1.58088445,47.30884511],[-1.5812651,47.30917274],[-1.58125148,47.30926165],[-1.5810583,47.30935946],[-1.5810459,47.30961785],[-1.58087541,47.30979502],[-1.58098312,47.31045085],[-1.58091226,47.31078549],[-1.58115277,47.31090043],[-1.58117146,47.31144525],[-1.5812744,47.31148627],[-1.58190293,47.31125404],[-1.5824674,47.31152932],[-1.58261707,47.31155857],[-1.58293966,47.31147008],[-1.58315125,47.31160329],[-1.58348187,47.31148472],[-1.58382995,47.31169459],[-1.58446087,47.3118473],[-1.58437583,47.31207791],[-1.58403352,47.31215276],[-1.58397903,47.31222885],[-1.58458702,47.31245461],[-1.58463696,47.31272857],[-1.58441178,47.31294848],[-1.58481394,47.31296865],[-1.58672298,47.31360105],[-1.58686956,47.31378011],[-1.58758978,47.31413938],[-1.58746034,47.31423828],[-1.58658541,47.31438019],[-1.58608248,47.31493392],[-1.58605308,47.31533456],[-1.58577428,47.31609043],[-1.58561875,47.31723369],[-1.58578702,47.31796107],[-1.58622959,47.31912036],[-1.58655322,47.31943129],[-1.58668534,47.32010779],[-1.58719599,47.32108584],[-1.58738537,47.32140839],[-1.58855075,47.32269148],[-1.58838393,47.32275669],[-1.58866478,47.32312522],[-1.58878145,47.32372929],[-1.5889318,47.32398305],[-1.58961838,47.32456727],[-1.59094793,47.32524147],[-1.59137386,47.32564664],[-1.5934705,47.32710022],[-1.59298836,47.32800574],[-1.59282965,47.32873884],[-1.59246066,47.32898339],[-1.59251767,47.32904516],[-1.59776734,47.33363997],[-1.59632243,47.33505887],[-1.59569575,47.33562475],[-1.59547195,47.33572199],[-1.59487796,47.33632894],[-1.59486826,47.33649435],[-1.59191082,47.33833017],[-1.57923498,47.34688095],[-1.57786603,47.34786284],[-1.57740825,47.3482975],[-1.57681096,47.34857445],[-1.57537473,47.34954634],[-1.57501293,47.34989334],[-1.57474773,47.35031499],[-1.5741642,47.35241738],[-1.57411972,47.35329562],[-1.57383606,47.35314358],[-1.57240262,47.35292143],[-1.57205587,47.3528386],[-1.57192116,47.35258151],[-1.57172028,47.35248211],[-1.5700768,47.35217713],[-1.56828767,47.35167316],[-1.5676703,47.35160639],[-1.56715719,47.35145525],[-1.56699652,47.35131369],[-1.56654358,47.35113674],[-1.56652081,47.35100959],[-1.56670702,47.35084356],[-1.56670672,47.35060642],[-1.56623122,47.34986858],[-1.56585342,47.34890687],[-1.56533216,47.34803647],[-1.56463693,47.34772476],[-1.563999,47.34754065],[-1.56360708,47.34753442],[-1.56352251,47.34738265],[-1.56358292,47.34630001],[-1.56387225,47.34608304],[-1.56368038,47.34563701],[-1.56375804,47.34544279],[-1.56365969,47.34514458],[-1.56394461,47.34490704],[-1.56397112,47.3447509],[-1.56354824,47.34431847],[-1.56314303,47.34415586],[-1.56317904,47.3436594],[-1.56275431,47.34361027],[-1.56270198,47.34305777],[-1.562563,47.3428901],[-1.56171,47.34234473],[-1.56085829,47.34220417],[-1.56056161,47.34128976],[-1.56018339,47.3407735],[-1.55977892,47.34055675],[-1.55904162,47.34048202],[-1.55822464,47.34007859],[-1.55787717,47.33961162],[-1.55787595,47.33903546],[-1.5575712,47.3386651],[-1.55699949,47.33833768],[-1.55526795,47.33812975],[-1.55449783,47.33818342],[-1.55387549,47.33811858],[-1.55363314,47.33784224],[-1.55367684,47.33721653],[-1.55359192,47.33673203],[-1.55273784,47.33528131],[-1.55193632,47.33487091],[-1.55038181,47.33466859],[-1.54904377,47.33429725],[-1.54870587,47.33412925],[-1.54775853,47.33393825],[-1.54724433,47.3336933],[-1.54704836,47.33347825],[-1.54643579,47.3324797],[-1.54636311,47.33138786],[-1.54605271,47.33044871],[-1.54592402,47.32938431],[-1.54566271,47.32914928],[-1.54504074,47.32885263],[-1.54464138,47.32855358],[-1.54360895,47.32809266],[-1.5433517,47.32785837],[-1.54163818,47.3248515],[-1.54151133,47.3244029],[-1.54151381,47.32342984],[-1.54132013,47.32220748],[-1.54120215,47.32197314],[-1.54084107,47.32170233],[-1.54050201,47.32125302],[-1.54056122,47.32113799],[-1.54084339,47.32107194],[-1.54092936,47.32074034],[-1.540489,47.31995595],[-1.54033441,47.31947687],[-1.5404111,47.31916097],[-1.5406281,47.31888918],[-1.54147434,47.31826542],[-1.54244131,47.3180968],[-1.54279416,47.31787919],[-1.54289819,47.31747926],[-1.54278848,47.31706065],[-1.54270705,47.31691325],[-1.54236639,47.31671108],[-1.54253094,47.3166343],[-1.54283684,47.31623818],[-1.54297541,47.31621472],[-1.54313488,47.31571794],[-1.54315761,47.31543841],[-1.54313143,47.3147379],[-1.54288232,47.31239144],[-1.54279298,47.31227591],[-1.54283764,47.31203611],[-1.54252987,47.3090905],[-1.54262704,47.30843745],[-1.54279374,47.30822983],[-1.54273513,47.30814827],[-1.54278294,47.30788309],[-1.54285417,47.30781628],[-1.54281195,47.30774038],[-1.54302691,47.30766433],[-1.54389734,47.30761039],[-1.5445869,47.30734621],[-1.54551097,47.30719006],[-1.54613236,47.30718554],[-1.54697192,47.30731494],[-1.54692298,47.30586146],[-1.54749874,47.30585061],[-1.5483194,47.30538198],[-1.54857582,47.30592018],[-1.54876386,47.30723114],[-1.55192736,47.30742171],[-1.55197159,47.30780231],[-1.55277844,47.30784277],[-1.55285467,47.30833483],[-1.55285333,47.3090689],[-1.55302138,47.30964302],[-1.55425111,47.31157224],[-1.55423468,47.31286236],[-1.5543626,47.31332263],[-1.55463496,47.31376641],[-1.55439356,47.31414019],[-1.55449405,47.31424626],[-1.55455262,47.3144207],[-1.55459618,47.31508988],[-1.55474586,47.31530673],[-1.55529634,47.31552768],[-1.55599176,47.31556619],[-1.55642931,47.31547235],[-1.55698981,47.31554591],[-1.55724538,47.31551062],[-1.55734153,47.31556546],[-1.55745894,47.3159017],[-1.55749055,47.31683556],[-1.55814571,47.31780443],[-1.55854757,47.31819532],[-1.55906707,47.31856625],[-1.55917265,47.3187163],[-1.55915626,47.31891352],[-1.55923142,47.31908009],[-1.55917989,47.31944101],[-1.55898323,47.31973278],[-1.55863963,47.32008985],[-1.55846388,47.32044032],[-1.55821323,47.32157914],[-1.55827346,47.32205379],[-1.5587671,47.32243205],[-1.55926032,47.32268048],[-1.55963409,47.32280286],[-1.55982628,47.32295761],[-1.55990144,47.32296818],[-1.56031924,47.32281289],[-1.56073744,47.32306787],[-1.56097341,47.32316049],[-1.56151532,47.32324829],[-1.56164813,47.32339095],[-1.56175659,47.32360581],[-1.56185036,47.32360122],[-1.56222558,47.32347555],[-1.56239766,47.32334705],[-1.56292038,47.3225546],[-1.56302813,47.32244937],[-1.56318331,47.32238736],[-1.56351463,47.32235358],[-1.56626582,47.32240943],[-1.5676397,47.32194234],[-1.57029396,47.32124986],[-1.57201188,47.32058791],[-1.5732015,47.32018482],[-1.57308028,47.3192608],[-1.57317553,47.31634982],[-1.57310767,47.31566266],[-1.57299202,47.31533268],[-1.57248758,47.31492153],[-1.57084949,47.31390401],[-1.57066018,47.31375186],[-1.56977412,47.31279846],[-1.56929517,47.31218792],[-1.56837039,47.31127752],[-1.56785328,47.3106856],[-1.56721339,47.30933655],[-1.56687226,47.30898928],[-1.566129,47.30863711],[-1.5659155,47.30823162],[-1.56568095,47.30804608],[-1.56296515,47.30674535],[-1.56074256,47.30584898],[-1.56060708,47.30575242],[-1.56059691,47.3056951],[-1.561523,47.30522043],[-1.56155193,47.30515527],[-1.56161977,47.30515801],[-1.56266376,47.30472919],[-1.56551985,47.30397203],[-1.56574635,47.30372054],[-1.56570811,47.3028194],[-1.56576237,47.30241328],[-1.5661527,47.30157912],[-1.56618099,47.30089899],[-1.56602031,47.30047519],[-1.56601791,47.30035354],[-1.56613111,47.29986124],[-1.56620158,47.29885121],[-1.56683507,47.29919237],[-1.5669985,47.29924365],[-1.56724546,47.29924835],[-1.56742451,47.29918719],[-1.5676235,47.29903327],[-1.56793428,47.29837086],[-1.568158,47.29808702],[-1.56836961,47.29801916],[-1.56866552,47.29802283],[-1.56883849,47.297906],[-1.56890002,47.29780349],[-1.56891809,47.29759537],[-1.56898148,47.29754598],[-1.56933688,47.29745443],[-1.56975452,47.29700422],[-1.56999239,47.29699575],[-1.57005977,47.29693087],[-1.57018423,47.29622891],[-1.5700962,47.29574003],[-1.5703374,47.29507044],[-1.57033038,47.29497242],[-1.57000875,47.29480655],[-1.56948965,47.29436081],[-1.56855638,47.29375194],[-1.56789714,47.29312324],[-1.56741845,47.2929338],[-1.56741759,47.2928148],[-1.56755825,47.29262981],[-1.56942029,47.29290812],[-1.56989643,47.29291189],[-1.57005746,47.29301285],[-1.57080903,47.2932781],[-1.5713083,47.29336662],[-1.57173039,47.29329587],[-1.57242226,47.29303142],[-1.57323798,47.29283603],[-1.57526214,47.29259024],[-1.57559349,47.29249691],[-1.57646196,47.29215874],[-1.57783856,47.29188886],[-1.5799488,47.29105255],[-1.58050083,47.29092072],[-1.58140351,47.29079758],[-1.57963538,47.29054822],[-1.57956507,47.29046984],[-1.57946004,47.289969],[-1.57929865,47.28984823],[-1.5789536,47.2897807],[-1.58310222,47.28702149],[-1.5833853,47.28741879],[-1.58366334,47.2876639],[-1.58412443,47.28791078],[-1.58493734,47.28813383],[-1.58619946,47.28823179]]]]},"bbox":[-1.59776734,47.28702149,-1.54033441,47.35329562]},{"type":"Feature","id":"fr-quartier-44035-f0b3278ea70b","properties":{"id":"fr-quartier-44035-f0b3278ea70b","kind":"quartier","name":"Ouest Gesvres","cityCode":"44035","cityName":"La Chapelle-sur-Erdre","sourceType":"iris","sourceIds":["440350105"],"colorIndex":6,"center":[-1.576309310434349,47.281433629999995]},"geometry":{"type":"MultiPolygon","coordinates":[[[[-1.55912962,47.2699264],[-1.55929445,47.2701201],[-1.56063985,47.2698318],[-1.5618146,47.26981171],[-1.56235687,47.26992563],[-1.56272719,47.26987137],[-1.56297374,47.26968582],[-1.56432912,47.26962432],[-1.56500992,47.27015209],[-1.56629016,47.27092044],[-1.56656874,47.27115835],[-1.56652509,47.2713305],[-1.56699684,47.27134708],[-1.5669036,47.27154373],[-1.56750431,47.27176804],[-1.56757803,47.27176243],[-1.56754829,47.27152193],[-1.5687065,47.27188297],[-1.56924007,47.27195661],[-1.57145249,47.27179902],[-1.57198825,47.27186716],[-1.57391793,47.27202998],[-1.57677543,47.27190183],[-1.57727447,47.27195877],[-1.5777525,47.27212655],[-1.57819074,47.27210744],[-1.57964379,47.27253788],[-1.58063805,47.27262213],[-1.58134034,47.27277832],[-1.58204456,47.27309676],[-1.58302112,47.27311315],[-1.58366463,47.27296867],[-1.584007,47.27297497],[-1.58398757,47.2732129],[-1.58451305,47.27531668],[-1.58587103,47.27806024],[-1.58606866,47.27921029],[-1.58607622,47.28083407],[-1.58662978,47.2836834],[-1.58710312,47.28497313],[-1.58714315,47.28575157],[-1.58696559,47.28713199],[-1.58619946,47.28823179],[-1.58493734,47.28813383],[-1.58412443,47.28791078],[-1.58366334,47.2876639],[-1.5833853,47.28741879],[-1.58310222,47.28702149],[-1.5789536,47.2897807],[-1.57929865,47.28984823],[-1.57946004,47.289969],[-1.57956507,47.29046984],[-1.57963538,47.29054822],[-1.58140351,47.29079758],[-1.58050083,47.29092072],[-1.5799488,47.29105255],[-1.57783856,47.29188886],[-1.57646196,47.29215874],[-1.57559349,47.29249691],[-1.57526214,47.29259024],[-1.57323798,47.29283603],[-1.57242226,47.29303142],[-1.57173039,47.29329587],[-1.5713083,47.29336662],[-1.57080903,47.2932781],[-1.57005746,47.29301285],[-1.56989643,47.29291189],[-1.56942029,47.29290812],[-1.56755825,47.29262981],[-1.56763402,47.29221202],[-1.5677244,47.29202811],[-1.56747288,47.29186037],[-1.56740194,47.2915719],[-1.56743284,47.29146789],[-1.56760933,47.29133018],[-1.56757084,47.29123611],[-1.56730952,47.29124911],[-1.5669224,47.29109213],[-1.56672684,47.29097449],[-1.56660077,47.29083247],[-1.56632117,47.29075511],[-1.56601943,47.29049557],[-1.56589829,47.29033352],[-1.56543038,47.29006789],[-1.5653034,47.28974375],[-1.56543503,47.28945272],[-1.56569059,47.28921631],[-1.56685897,47.28875819],[-1.56787701,47.28852691],[-1.56817976,47.2884248],[-1.56829339,47.28828055],[-1.56825406,47.28788082],[-1.56805298,47.2872467],[-1.56769218,47.28683799],[-1.56740746,47.28676264],[-1.56730773,47.28668091],[-1.56720107,47.28650205],[-1.56711174,47.28585721],[-1.56685275,47.28543006],[-1.56659517,47.28528421],[-1.56576167,47.28520703],[-1.56546351,47.28508261],[-1.56521281,47.28490853],[-1.56504401,47.28473122],[-1.56504108,47.28454106],[-1.56516405,47.28410157],[-1.56535183,47.28370733],[-1.56550295,47.28306925],[-1.56536911,47.28238377],[-1.56543183,47.28224875],[-1.56634111,47.28153481],[-1.56651073,47.28133245],[-1.56657153,47.2808945],[-1.5664752,47.28015164],[-1.56654316,47.27993796],[-1.56665007,47.2798084],[-1.56659367,47.27975291],[-1.56643427,47.27974837],[-1.56644378,47.27961093],[-1.56628305,47.27938822],[-1.56605936,47.27936006],[-1.5656886,47.2792385],[-1.5657089,47.27916556],[-1.56498213,47.27926723],[-1.56417574,47.27947663],[-1.56387405,47.27962197],[-1.56336555,47.2799531],[-1.56174289,47.28109817],[-1.561015,47.28173279],[-1.56086108,47.28180829],[-1.5607509,47.28182164],[-1.5606594,47.28175851],[-1.56048256,47.2817826],[-1.55906991,47.2822656],[-1.557183,47.28221987],[-1.55620615,47.28238903],[-1.55609096,47.28232773],[-1.55600855,47.28241844],[-1.55474322,47.28256105],[-1.55305003,47.28281513],[-1.55354664,47.28114002],[-1.55387311,47.28111457],[-1.55422259,47.28078252],[-1.5546582,47.28055981],[-1.55374949,47.2798137],[-1.55311625,47.27989358],[-1.55286963,47.27906375],[-1.55264989,47.27886317],[-1.55183786,47.27892843],[-1.55081547,47.27857542],[-1.5507313,47.27845789],[-1.55054659,47.2775138],[-1.55095171,47.27754118],[-1.55100901,47.27751368],[-1.55099742,47.2772364],[-1.55084207,47.27676367],[-1.55045612,47.27618097],[-1.55052502,47.27608718],[-1.55036213,47.27580682],[-1.55059481,47.27569128],[-1.550628,47.27572334],[-1.55118452,47.2755518],[-1.55089834,47.27533309],[-1.55111024,47.27519131],[-1.551682,47.27438705],[-1.55142812,47.2740805],[-1.55386129,47.27297857],[-1.55527258,47.27224769],[-1.5579423,47.27070352],[-1.55912962,47.2699264]]]]},"bbox":[-1.58714315,47.26962432,-1.55036213,47.29336662]},{"type":"Feature","id":"fr-quartier-44035-b4a6e67abc18","properties":{"id":"fr-quartier-44035-b4a6e67abc18","kind":"quartier","name":"Plessis-Coutancière","cityCode":"44035","cityName":"La Chapelle-sur-Erdre","sourceType":"iris","sourceIds":["440350102"],"colorIndex":7,"center":[-1.5620194501086053,47.312830410000004]},"geometry":{"type":"MultiPolygon","coordinates":[[[[-1.54281195,47.30774038],[-1.54290944,47.30746694],[-1.54350317,47.30663483],[-1.54542009,47.3043649],[-1.54594759,47.30367513],[-1.54619461,47.30347699],[-1.54647602,47.30334061],[-1.54653953,47.30324524],[-1.54722294,47.30294071],[-1.54821381,47.30207225],[-1.5486615,47.3014893],[-1.54903742,47.30096688],[-1.54903313,47.30102566],[-1.54911395,47.30107209],[-1.54900629,47.30136577],[-1.54951566,47.30152613],[-1.54943039,47.30167736],[-1.5500864,47.30189419],[-1.55013884,47.30176228],[-1.55149755,47.30254306],[-1.55193407,47.30273513],[-1.55308777,47.30311455],[-1.55672507,47.3045939],[-1.55708489,47.30414782],[-1.55755191,47.30438647],[-1.5595303,47.30537455],[-1.56009481,47.30560574],[-1.56059691,47.3056951],[-1.56060708,47.30575242],[-1.56074256,47.30584898],[-1.56296515,47.30674535],[-1.56568095,47.30804608],[-1.5659155,47.30823162],[-1.566129,47.30863711],[-1.56687226,47.30898928],[-1.56721339,47.30933655],[-1.56785328,47.3106856],[-1.56837039,47.31127752],[-1.56929517,47.31218792],[-1.56977412,47.31279846],[-1.57066018,47.31375186],[-1.57084949,47.31390401],[-1.57248758,47.31492153],[-1.57299202,47.31533268],[-1.57310767,47.31566266],[-1.57317553,47.31634982],[-1.57308028,47.3192608],[-1.5732015,47.32018482],[-1.57201188,47.32058791],[-1.57029396,47.32124986],[-1.5676397,47.32194234],[-1.56626582,47.32240943],[-1.56351463,47.32235358],[-1.56318331,47.32238736],[-1.56302813,47.32244937],[-1.56292038,47.3225546],[-1.56239766,47.32334705],[-1.56222558,47.32347555],[-1.56185036,47.32360122],[-1.56175659,47.32360581],[-1.56164813,47.32339095],[-1.56151532,47.32324829],[-1.56097341,47.32316049],[-1.56073744,47.32306787],[-1.56031924,47.32281289],[-1.55990144,47.32296818],[-1.55982628,47.32295761],[-1.55963409,47.32280286],[-1.55926032,47.32268048],[-1.5587671,47.32243205],[-1.55827346,47.32205379],[-1.55821323,47.32157914],[-1.55846388,47.32044032],[-1.55863963,47.32008985],[-1.55898323,47.31973278],[-1.55917989,47.31944101],[-1.55923142,47.31908009],[-1.55915626,47.31891352],[-1.55917265,47.3187163],[-1.55906707,47.31856625],[-1.55854757,47.31819532],[-1.55814571,47.31780443],[-1.55749055,47.31683556],[-1.55745894,47.3159017],[-1.55734153,47.31556546],[-1.55724538,47.31551062],[-1.55698981,47.31554591],[-1.55642931,47.31547235],[-1.55599176,47.31556619],[-1.55529634,47.31552768],[-1.55474586,47.31530673],[-1.55459618,47.31508988],[-1.55455262,47.3144207],[-1.55449405,47.31424626],[-1.55439356,47.31414019],[-1.55463496,47.31376641],[-1.5543626,47.31332263],[-1.55423468,47.31286236],[-1.55425111,47.31157224],[-1.55302138,47.30964302],[-1.55285333,47.3090689],[-1.55285467,47.30833483],[-1.55277844,47.30784277],[-1.55197159,47.30780231],[-1.55192736,47.30742171],[-1.54876386,47.30723114],[-1.54857582,47.30592018],[-1.5483194,47.30538198],[-1.54749874,47.30585061],[-1.54692298,47.30586146],[-1.54697192,47.30731494],[-1.54613236,47.30718554],[-1.54551097,47.30719006],[-1.5445869,47.30734621],[-1.54389734,47.30761039],[-1.54302691,47.30766433],[-1.54281195,47.30774038]]]]},"bbox":[-1.5732015,47.30096688,-1.54281195,47.32360581]},{"type":"Feature","id":"fr-quartier-44035-eb94e019f007","properties":{"id":"fr-quartier-44035-eb94e019f007","kind":"quartier","name":"Z.A. Erdre Active","cityCode":"44035","cityName":"La Chapelle-sur-Erdre","sourceType":"iris","sourceIds":["440350109"],"colorIndex":8,"center":[-1.5471942181644591,47.279023135]},"geometry":{"type":"MultiPolygon","coordinates":[[[[-1.54901529,47.28998008],[-1.54880963,47.28997733],[-1.54872057,47.28916114],[-1.54858499,47.28860918],[-1.54837713,47.28798612],[-1.54787192,47.28696624],[-1.54267341,47.28836488],[-1.54174351,47.28818219],[-1.54109885,47.28811276],[-1.54111842,47.28803084],[-1.54095319,47.28759727],[-1.54019703,47.28606869],[-1.53990529,47.28536143],[-1.53991576,47.2841536],[-1.54005843,47.28405423],[-1.54053586,47.28327536],[-1.54143149,47.28217713],[-1.54163061,47.28221261],[-1.54247017,47.28255032],[-1.54371139,47.28296787],[-1.54433753,47.28341403],[-1.54472429,47.28339617],[-1.54495968,47.28331209],[-1.54234701,47.28020252],[-1.54177828,47.27940061],[-1.54154017,47.27898252],[-1.54109065,47.27791354],[-1.54085744,47.27686403],[-1.5408102,47.27644658],[-1.5408167,47.27536423],[-1.54099988,47.27433448],[-1.54137784,47.27322676],[-1.54256157,47.27021184],[-1.54377232,47.2701788],[-1.54384344,47.27128515],[-1.54431508,47.27148849],[-1.54626878,47.27145154],[-1.54706503,47.27403265],[-1.54690669,47.27410289],[-1.54682956,47.27419338],[-1.54683245,47.27436821],[-1.54700256,47.2744995],[-1.54713532,47.27453397],[-1.54734619,47.27472408],[-1.54756514,47.27532236],[-1.54854359,47.27511083],[-1.54945984,47.2748377],[-1.55031663,47.27453535],[-1.55142812,47.2740805],[-1.551682,47.27438705],[-1.55111024,47.27519131],[-1.55089834,47.27533309],[-1.55118452,47.2755518],[-1.550628,47.27572334],[-1.55059481,47.27569128],[-1.55036213,47.27580682],[-1.55052502,47.27608718],[-1.55045612,47.27618097],[-1.55084207,47.27676367],[-1.55099742,47.2772364],[-1.55100901,47.27751368],[-1.55095171,47.27754118],[-1.55054659,47.2775138],[-1.5507313,47.27845789],[-1.55081547,47.27857542],[-1.55183786,47.27892843],[-1.55264989,47.27886317],[-1.55286963,47.27906375],[-1.55311625,47.27989358],[-1.55374949,47.2798137],[-1.5546582,47.28055981],[-1.55422259,47.28078252],[-1.55387311,47.28111457],[-1.55354664,47.28114002],[-1.55305003,47.28281513],[-1.55317101,47.28439745],[-1.55408296,47.28436884],[-1.55413701,47.28550562],[-1.55231243,47.2854772],[-1.55097553,47.28552699],[-1.55017194,47.285646],[-1.54971948,47.28582698],[-1.54963317,47.28591874],[-1.54948573,47.2862744],[-1.5491246,47.28864302],[-1.54901529,47.28998008]]]]},"bbox":[-1.5546582,47.2701788,-1.53990529,47.28998008]},{"type":"Feature","id":"fr-quartier-44035-99901dce883c","properties":{"id":"fr-quartier-44035-99901dce883c","kind":"quartier","name":"Z.A. Newton-Ampère-Babinière","cityCode":"44035","cityName":"La Chapelle-sur-Erdre","sourceType":"iris","sourceIds":["440350110"],"colorIndex":9,"center":[-1.5491333331816146,47.261034745]},"geometry":{"type":"MultiPolygon","coordinates":[[[[-1.5506541,47.25749436],[-1.5508378,47.25769275],[-1.55123204,47.2575934],[-1.55265873,47.25843909],[-1.55328297,47.25858409],[-1.55422008,47.26043463],[-1.55328763,47.26076345],[-1.55278077,47.26086272],[-1.55257935,47.26100229],[-1.55149868,47.26139553],[-1.55007841,47.26201761],[-1.54923116,47.26249274],[-1.5490287,47.26268284],[-1.54895817,47.2628353],[-1.54851426,47.26320892],[-1.54826244,47.26342621],[-1.54813054,47.26344852],[-1.54746169,47.26393466],[-1.54688706,47.26462631],[-1.54652867,47.26471161],[-1.54591843,47.26501419],[-1.54493699,47.26561087],[-1.54489615,47.26573872],[-1.54475543,47.265829],[-1.54456565,47.26585629],[-1.54428877,47.26577787],[-1.54567047,47.26211669],[-1.5457764,47.26149033],[-1.54578164,47.2610672],[-1.54564485,47.26020238],[-1.54525898,47.25927429],[-1.54484847,47.25868081],[-1.5444872,47.25826215],[-1.54353441,47.25744286],[-1.54278195,47.25698722],[-1.54217698,47.25669353],[-1.54326948,47.25678505],[-1.54421553,47.2569301],[-1.54892415,47.2573053],[-1.5506541,47.25749436]]]]},"bbox":[-1.55422008,47.25669353,-1.54217698,47.26585629]}]}