{"type":"FeatureCollection","metadata":{"sourceType":"iris","source":"IGN / INSEE — Contours IRIS 2026","sourceUrl":"https://data.geopf.fr/wfs/ows?service=WFS&version=2.0.0&request=GetFeature&typeNames=STATISTICALUNITS.IRIS%3Acontours_iris&outputFormat=application%2Fjson&srsName=CRS%3A84&count=1000&CQL_FILTER=code_insee%3D%2744162%27&sortBy=code_iris","retrievedDate":"2026-09-10","sourceYear":"2026","license":"Licence Ouverte 2.0"},"features":[{"type":"Feature","id":"fr-quartier-44162-4432738a5981","properties":{"id":"fr-quartier-44162-4432738a5981","kind":"quartier","name":"Atlantis","cityCode":"44162","cityName":"Saint-Herblain","sourceType":"iris","sourceIds":["441620805"],"colorIndex":0,"center":[-1.639393455605922,47.222324965]},"geometry":{"type":"MultiPolygon","coordinates":[[[[-1.63945154,47.22232113],[-1.63956127,47.22253407],[-1.63898788,47.22385027],[-1.63846459,47.22476584],[-1.637576,47.22600447],[-1.63748675,47.22616676],[-1.6375046,47.22622016],[-1.6372658,47.2263677],[-1.63646526,47.22718525],[-1.6359254,47.22766409],[-1.63557811,47.2277817],[-1.63557367,47.22789912],[-1.63540401,47.22808086],[-1.63273388,47.22731477],[-1.62964544,47.22657887],[-1.62720386,47.22611284],[-1.62509645,47.22576057],[-1.62348392,47.22549761],[-1.62284226,47.22534828],[-1.62247369,47.22520338],[-1.62227171,47.22491745],[-1.62199867,47.22479037],[-1.62162377,47.22477197],[-1.62134213,47.22485265],[-1.62136585,47.22468217],[-1.62124576,47.22436321],[-1.62123618,47.22400557],[-1.62190711,47.22212557],[-1.6225876,47.2205572],[-1.62314464,47.21961601],[-1.62371594,47.21973297],[-1.62378737,47.21984014],[-1.62392626,47.2198851],[-1.62410815,47.21984537],[-1.6242115,47.21986198],[-1.62677072,47.22032967],[-1.62703702,47.22039388],[-1.62716882,47.22052569],[-1.62730601,47.22053554],[-1.62741256,47.22049701],[-1.63074094,47.2211954],[-1.63079035,47.22127729],[-1.63090604,47.22132948],[-1.63104595,47.22132478],[-1.63112852,47.22128451],[-1.63329229,47.22160104],[-1.63338005,47.22166697],[-1.6339514,47.22170723],[-1.63529189,47.22190157],[-1.63669043,47.22204757],[-1.63682755,47.22213316],[-1.63702286,47.22209558],[-1.6373601,47.22216865],[-1.63921525,47.2223288],[-1.63945154,47.22232113]]]]},"bbox":[-1.63956127,47.21961601,-1.62123618,47.22808086]},{"type":"Feature","id":"fr-quartier-44162-7491578760f1","properties":{"id":"fr-quartier-44162-7491578760f1","kind":"quartier","name":"Beauséjour","cityCode":"44162","cityName":"Saint-Herblain","sourceType":"iris","sourceIds":["441620203"],"colorIndex":1,"center":[-1.5878362627638096,47.235211895]},"geometry":{"type":"MultiPolygon","coordinates":[[[[-1.58787706,47.23847941],[-1.58620919,47.23761664],[-1.58380391,47.2358542],[-1.58470893,47.23472992],[-1.58547949,47.23396987],[-1.58788954,47.23194368],[-1.58905093,47.23270657],[-1.59018279,47.23344896],[-1.59209325,47.23445537],[-1.59087906,47.23569387],[-1.59004464,47.23665127],[-1.58896369,47.23757516],[-1.5883382,47.23817348],[-1.58787706,47.23847941]]]]},"bbox":[-1.59209325,47.23194368,-1.58380391,47.23847941]},{"type":"Feature","id":"fr-quartier-44162-ffb65409ce60","properties":{"id":"fr-quartier-44162-ffb65409ce60","kind":"quartier","name":"Bergerie-Les Écarts","cityCode":"44162","cityName":"Saint-Herblain","sourceType":"iris","sourceIds":["441620801"],"colorIndex":2,"center":[-1.6579918106534566,47.230511225]},"geometry":{"type":"MultiPolygon","coordinates":[[[[-1.6670698,47.20405522],[-1.66877342,47.20456369],[-1.67020238,47.2052158],[-1.67190678,47.20574764],[-1.67283692,47.2061565],[-1.67409336,47.206315],[-1.67506709,47.20653991],[-1.67612671,47.20690023],[-1.67716569,47.20700796],[-1.67732409,47.20709445],[-1.67653721,47.20763309],[-1.67629807,47.20836784],[-1.67559641,47.20900404],[-1.67448131,47.20869104],[-1.67424882,47.20895475],[-1.67314061,47.20873616],[-1.67235101,47.21050771],[-1.673373,47.21101297],[-1.672144,47.21136922],[-1.67203913,47.21192899],[-1.67186868,47.21219109],[-1.67145862,47.21371644],[-1.67127115,47.21407212],[-1.67106681,47.21529966],[-1.67286907,47.21572023],[-1.67288306,47.2161246],[-1.67269695,47.21629805],[-1.67291613,47.21641366],[-1.67330304,47.21684445],[-1.67390274,47.21721074],[-1.67473538,47.21817006],[-1.67432764,47.21938688],[-1.67415723,47.22056256],[-1.67354543,47.22199053],[-1.67307847,47.22240529],[-1.6725943,47.22348992],[-1.6721431,47.22408621],[-1.67040859,47.2257732],[-1.66881756,47.22664452],[-1.66861831,47.22685006],[-1.66850866,47.22702042],[-1.66882789,47.2270833],[-1.66884113,47.22717475],[-1.66831119,47.22794736],[-1.66799233,47.22799539],[-1.66794537,47.22871965],[-1.66780079,47.22886887],[-1.66710228,47.22940838],[-1.66612895,47.23074716],[-1.66529462,47.23153742],[-1.66486616,47.23212284],[-1.66456578,47.23342096],[-1.66447855,47.23342267],[-1.66395264,47.23413646],[-1.66366079,47.23480115],[-1.66370585,47.23541168],[-1.66386425,47.23571102],[-1.66358304,47.23640684],[-1.66334913,47.23665615],[-1.66154817,47.23792088],[-1.66050289,47.23901359],[-1.66056026,47.24023958],[-1.6610971,47.24038301],[-1.66069484,47.24096645],[-1.65988912,47.24146331],[-1.65865587,47.24257348],[-1.65847472,47.24289731],[-1.65831858,47.24392175],[-1.65791242,47.2445829],[-1.65755005,47.24486351],[-1.65685786,47.24502121],[-1.65672252,47.24517094],[-1.6547997,47.24534022],[-1.65329112,47.24579674],[-1.65204549,47.24676664],[-1.65096861,47.24812564],[-1.65084057,47.24840584],[-1.65086644,47.24922456],[-1.64991609,47.25170935],[-1.64974295,47.25172893],[-1.64957009,47.25237887],[-1.64958125,47.25394578],[-1.64927695,47.25469929],[-1.64852856,47.25584668],[-1.64855467,47.25646969],[-1.64813794,47.258419],[-1.64103695,47.25719766],[-1.63865879,47.25676264],[-1.63266214,47.25562374],[-1.63080349,47.255175],[-1.62087058,47.25138638],[-1.62073652,47.25021307],[-1.62086917,47.24850698],[-1.6229136,47.24214794],[-1.62087128,47.24308255],[-1.62070701,47.24312788],[-1.62063102,47.24309123],[-1.62055719,47.24311041],[-1.620449,47.24302274],[-1.61859509,47.24217595],[-1.6176913,47.2417214],[-1.61759512,47.24172704],[-1.61756665,47.24167317],[-1.61745255,47.24165517],[-1.61538766,47.24083297],[-1.61534088,47.2407663],[-1.61538247,47.23960132],[-1.615235,47.23834738],[-1.6152127,47.23822652],[-1.61510059,47.23812368],[-1.61513974,47.23805538],[-1.6151035,47.23801895],[-1.6153854,47.23773988],[-1.61543932,47.23762771],[-1.61554794,47.23702729],[-1.6152835,47.23700086],[-1.61526504,47.23697093],[-1.61536069,47.23623486],[-1.61505827,47.23559671],[-1.61512594,47.23476616],[-1.61489718,47.23463098],[-1.61481201,47.23453338],[-1.61466497,47.23408563],[-1.61426827,47.23376777],[-1.61220165,47.23153337],[-1.61186586,47.2313231],[-1.61137179,47.23115069],[-1.61160504,47.23079872],[-1.61199419,47.23079765],[-1.6150219,47.23056519],[-1.615774,47.23044323],[-1.6164226,47.23025685],[-1.61686195,47.23025466],[-1.61683219,47.23017018],[-1.61687979,47.23010786],[-1.61699528,47.23008071],[-1.61707134,47.2300876],[-1.61714698,47.23015131],[-1.61720729,47.23012907],[-1.61738352,47.23000751],[-1.61786787,47.22983579],[-1.61886387,47.2293632],[-1.6208687,47.22881426],[-1.62112565,47.22861553],[-1.62120844,47.22843908],[-1.62250059,47.22753168],[-1.62250621,47.22742775],[-1.62336783,47.22679455],[-1.62464331,47.2260943],[-1.62486939,47.22601403],[-1.62509645,47.22576057],[-1.62720386,47.22611284],[-1.62964544,47.22657887],[-1.63273388,47.22731477],[-1.63540401,47.22808086],[-1.63523862,47.22822005],[-1.63508278,47.22830114],[-1.63494184,47.22832482],[-1.63479141,47.22863746],[-1.63385048,47.22945519],[-1.63373197,47.22947797],[-1.63372195,47.22956134],[-1.6330591,47.2301037],[-1.63591536,47.23167488],[-1.63523842,47.23263716],[-1.63472136,47.23353443],[-1.63459507,47.23362064],[-1.63308117,47.23633166],[-1.63311573,47.23751526],[-1.6346635,47.2382812],[-1.63682755,47.23928306],[-1.63900277,47.24062804],[-1.64163478,47.23783335],[-1.64201045,47.23749183],[-1.64189767,47.23738182],[-1.64195525,47.23725146],[-1.64206252,47.23720567],[-1.64224408,47.23722275],[-1.64381089,47.23581801],[-1.64433532,47.23542092],[-1.64571472,47.23451427],[-1.64583012,47.23442487],[-1.64587125,47.23430328],[-1.64622888,47.23413652],[-1.6468429,47.23358161],[-1.64693554,47.23330554],[-1.64723442,47.23320967],[-1.64753047,47.23289748],[-1.6477313,47.23266307],[-1.64768969,47.23261063],[-1.64771505,47.2325059],[-1.64793066,47.23244223],[-1.64871007,47.23165702],[-1.64972897,47.23045726],[-1.65003145,47.22982195],[-1.6500029,47.22949212],[-1.65010634,47.2294023],[-1.65025992,47.22937178],[-1.65056136,47.2290305],[-1.65127877,47.22756056],[-1.65132699,47.22735301],[-1.65124842,47.22717941],[-1.65132546,47.22709064],[-1.65147756,47.22704304],[-1.65186105,47.22654876],[-1.65430688,47.22158958],[-1.65486007,47.22074758],[-1.65523644,47.22030948],[-1.65530609,47.22019666],[-1.65526437,47.22005133],[-1.65540447,47.21992666],[-1.65550054,47.21992009],[-1.65577564,47.21976473],[-1.65682598,47.21884049],[-1.66260674,47.21434299],[-1.66365439,47.21345125],[-1.66458489,47.21247584],[-1.66528293,47.21152151],[-1.66578723,47.21059212],[-1.66602497,47.21002249],[-1.66627454,47.20922331],[-1.66692589,47.206147],[-1.66705433,47.20505059],[-1.6670698,47.20405522]]]]},"bbox":[-1.67732409,47.20405522,-1.61137179,47.258419]},{"type":"Feature","id":"fr-quartier-44162-2a24f2bf8296","properties":{"id":"fr-quartier-44162-2a24f2bf8296","kind":"quartier","name":"Bernardière","cityCode":"44162","cityName":"Saint-Herblain","sourceType":"iris","sourceIds":["441620504"],"colorIndex":3,"center":[-1.6222745764085467,47.205174995]},"geometry":{"type":"MultiPolygon","coordinates":[[[[-1.61298165,47.2070038],[-1.61474823,47.20496832],[-1.61481628,47.20458955],[-1.61481142,47.20436339],[-1.61647271,47.20258279],[-1.61685124,47.20095073],[-1.61676981,47.20000256],[-1.61768783,47.19995331],[-1.61811192,47.19891373],[-1.61817132,47.19874271],[-1.61775205,47.1984366],[-1.61791214,47.19766637],[-1.6181036,47.19738457],[-1.61774298,47.19669825],[-1.61791398,47.19656337],[-1.61802098,47.19665379],[-1.6194569,47.19724308],[-1.61959981,47.19735101],[-1.61976228,47.19740945],[-1.61992192,47.19758885],[-1.62016736,47.19770441],[-1.62212221,47.19835772],[-1.62334711,47.19887693],[-1.62373431,47.19914824],[-1.62415437,47.19955531],[-1.62435476,47.19968529],[-1.62473457,47.19980899],[-1.62562934,47.19995089],[-1.62623383,47.20020989],[-1.62680783,47.20051431],[-1.62723512,47.20066677],[-1.62722672,47.20073835],[-1.62737875,47.20078277],[-1.62755359,47.20112298],[-1.62774675,47.20244454],[-1.62791579,47.20274801],[-1.62830841,47.202974],[-1.63176216,47.20420299],[-1.63172514,47.20429556],[-1.6317868,47.20438147],[-1.63160736,47.20449507],[-1.62948572,47.20538167],[-1.62908569,47.20568445],[-1.62872255,47.20613907],[-1.62857575,47.20661659],[-1.62858104,47.20695456],[-1.62904432,47.20818506],[-1.62911415,47.20851955],[-1.62909454,47.20886032],[-1.62879699,47.20978486],[-1.62882776,47.20994235],[-1.62886723,47.21004719],[-1.6287406,47.21011358],[-1.62846898,47.21055551],[-1.62845971,47.21070919],[-1.62818971,47.21116999],[-1.62791982,47.21107888],[-1.62783365,47.21093894],[-1.62765561,47.21088473],[-1.62748533,47.21084374],[-1.62663612,47.21081817],[-1.62643907,47.21075841],[-1.62635298,47.21068069],[-1.62616012,47.21063879],[-1.62561748,47.21076148],[-1.62034526,47.21065823],[-1.6196286,47.21074274],[-1.61908028,47.21086112],[-1.61827248,47.21110167],[-1.61833283,47.21091079],[-1.61866892,47.21030939],[-1.61873077,47.21005893],[-1.61876723,47.20784983],[-1.61860319,47.20777341],[-1.61853232,47.20767253],[-1.61750294,47.20824477],[-1.61467401,47.20710948],[-1.61427272,47.2075836],[-1.61315008,47.20713146],[-1.61309645,47.20703079],[-1.61298165,47.2070038]]]]},"bbox":[-1.6317868,47.19656337,-1.61298165,47.21116999]},{"type":"Feature","id":"fr-quartier-44162-d6f9346e8a46","properties":{"id":"fr-quartier-44162-d6f9346e8a46","kind":"quartier","name":"Bourg Centre","cityCode":"44162","cityName":"Saint-Herblain","sourceType":"iris","sourceIds":["441620603"],"colorIndex":4,"center":[-1.647991655309943,47.215743245]},"geometry":{"type":"MultiPolygon","coordinates":[[[[-1.6457767,47.21025982],[-1.64585909,47.21021773],[-1.64644552,47.21021944],[-1.64740918,47.21035932],[-1.64795251,47.21052057],[-1.64918261,47.2111241],[-1.65076243,47.21150163],[-1.65323116,47.21193449],[-1.65276688,47.21375683],[-1.65201024,47.21536725],[-1.65181825,47.21554992],[-1.65118506,47.21595684],[-1.65066885,47.2166756],[-1.65052941,47.21700677],[-1.64970442,47.21762971],[-1.64945902,47.21774598],[-1.6494498,47.21782301],[-1.6495253,47.21785424],[-1.6486695,47.21858032],[-1.64658933,47.21826612],[-1.64584566,47.21810027],[-1.64530855,47.21793515],[-1.64401721,47.21743595],[-1.64387677,47.21743436],[-1.64375642,47.2173436],[-1.64384036,47.21725816],[-1.64394883,47.21724209],[-1.64409269,47.21728321],[-1.64431832,47.21721374],[-1.6457045,47.21660529],[-1.64579605,47.21653128],[-1.64581233,47.21642872],[-1.64538166,47.21602485],[-1.64474626,47.21580955],[-1.64418551,47.21567694],[-1.64541232,47.21397556],[-1.64534418,47.21384572],[-1.64504251,47.21372436],[-1.64489291,47.21355541],[-1.64517547,47.21342503],[-1.64539345,47.2130835],[-1.64594128,47.21242392],[-1.64625929,47.21176995],[-1.64653124,47.21133337],[-1.6452919,47.21103591],[-1.6457767,47.21025982]]]]},"bbox":[-1.65323116,47.21021773,-1.64375642,47.21858032]},{"type":"Feature","id":"fr-quartier-44162-69fc4151bf7c","properties":{"id":"fr-quartier-44162-69fc4151bf7c","kind":"quartier","name":"Bourgonnière","cityCode":"44162","cityName":"Saint-Herblain","sourceType":"iris","sourceIds":["441620701"],"colorIndex":5,"center":[-1.6613367929116627,47.20572487]},"geometry":{"type":"MultiPolygon","coordinates":[[[[-1.66481475,47.20318477],[-1.66500566,47.20337188],[-1.66516846,47.2033112],[-1.6658777,47.20347831],[-1.666188,47.20366872],[-1.6663646,47.2036147],[-1.66671433,47.20398479],[-1.6670698,47.20405522],[-1.66705433,47.20505059],[-1.66692589,47.206147],[-1.66627454,47.20922331],[-1.66602497,47.21002249],[-1.66578723,47.21059212],[-1.66528293,47.21152151],[-1.66458489,47.21247584],[-1.66365439,47.21345125],[-1.66260674,47.21434299],[-1.66206581,47.21399683],[-1.66087858,47.21343229],[-1.66046921,47.21335137],[-1.65866919,47.21284756],[-1.65803064,47.2125504],[-1.65752751,47.21236502],[-1.65619338,47.21213552],[-1.65505586,47.21222005],[-1.65458001,47.21212015],[-1.65438186,47.21212451],[-1.65323116,47.21193449],[-1.65343406,47.2114195],[-1.6538462,47.21001951],[-1.65489823,47.21012511],[-1.65540126,47.20720817],[-1.65542527,47.20708816],[-1.65550439,47.20703898],[-1.65544503,47.20699538],[-1.65548518,47.20687833],[-1.6554449,47.20684117],[-1.65551634,47.206795],[-1.65562832,47.20587243],[-1.65576817,47.20557731],[-1.65585901,47.20555652],[-1.65583889,47.20547707],[-1.65606969,47.20526938],[-1.65663373,47.20502844],[-1.65751836,47.20495947],[-1.65758677,47.20490892],[-1.65766102,47.20495644],[-1.6606333,47.20486564],[-1.66094292,47.20491089],[-1.66108508,47.20484113],[-1.6612794,47.20482338],[-1.66197848,47.20496477],[-1.66219581,47.20489199],[-1.66231915,47.20489513],[-1.66293819,47.20507491],[-1.66338991,47.20526323],[-1.66393374,47.20482016],[-1.66409836,47.20450599],[-1.66429719,47.20368632],[-1.66450526,47.20340016],[-1.66481475,47.20318477]]]]},"bbox":[-1.6670698,47.20318477,-1.65323116,47.21434299]},{"type":"Feature","id":"fr-quartier-44162-2d34aebd561e","properties":{"id":"fr-quartier-44162-2d34aebd561e","kind":"quartier","name":"C.H.U.","cityCode":"44162","cityName":"Saint-Herblain","sourceType":"iris","sourceIds":["441620802"],"colorIndex":6,"center":[-1.6407688093851938,47.233558020000004]},"geometry":{"type":"MultiPolygon","coordinates":[[[[-1.63540401,47.22808086],[-1.63927335,47.22934896],[-1.64158202,47.23020425],[-1.64364427,47.23108742],[-1.64753047,47.23289748],[-1.64723442,47.23320967],[-1.64693554,47.23330554],[-1.6468429,47.23358161],[-1.64622888,47.23413652],[-1.64587125,47.23430328],[-1.64583012,47.23442487],[-1.64571472,47.23451427],[-1.64433532,47.23542092],[-1.64381089,47.23581801],[-1.64224408,47.23722275],[-1.64206252,47.23720567],[-1.64195525,47.23725146],[-1.64189767,47.23738182],[-1.64201045,47.23749183],[-1.64163478,47.23783335],[-1.63900277,47.24062804],[-1.63682755,47.23928306],[-1.6346635,47.2382812],[-1.63311573,47.23751526],[-1.63308117,47.23633166],[-1.63459507,47.23362064],[-1.63472136,47.23353443],[-1.63523842,47.23263716],[-1.63591536,47.23167488],[-1.6330591,47.2301037],[-1.63372195,47.22956134],[-1.63373197,47.22947797],[-1.63385048,47.22945519],[-1.63479141,47.22863746],[-1.63494184,47.22832482],[-1.63508278,47.22830114],[-1.63523862,47.22822005],[-1.63540401,47.22808086]]]]},"bbox":[-1.64753047,47.22808086,-1.6330591,47.24062804]},{"type":"Feature","id":"fr-quartier-44162-e717f3b8bd4d","properties":{"id":"fr-quartier-44162-e717f3b8bd4d","kind":"quartier","name":"Clos Amis","cityCode":"44162","cityName":"Saint-Herblain","sourceType":"iris","sourceIds":["441620602"],"colorIndex":7,"center":[-1.656147791041261,47.215753379999995]},"geometry":{"type":"MultiPolygon","coordinates":[[[[-1.65540447,47.21992666],[-1.65327672,47.21929344],[-1.65268007,47.21917493],[-1.65231863,47.2191588],[-1.6486695,47.21858032],[-1.6495253,47.21785424],[-1.6494498,47.21782301],[-1.64945902,47.21774598],[-1.64970442,47.21762971],[-1.65052941,47.21700677],[-1.65066885,47.2166756],[-1.65118506,47.21595684],[-1.65181825,47.21554992],[-1.65201024,47.21536725],[-1.65276688,47.21375683],[-1.65323116,47.21193449],[-1.65438186,47.21212451],[-1.65458001,47.21212015],[-1.65505586,47.21222005],[-1.65619338,47.21213552],[-1.65752751,47.21236502],[-1.65803064,47.2125504],[-1.65866919,47.21284756],[-1.66046921,47.21335137],[-1.66087858,47.21343229],[-1.66206581,47.21399683],[-1.66260674,47.21434299],[-1.65682598,47.21884049],[-1.65577564,47.21976473],[-1.65550054,47.21992009],[-1.65540447,47.21992666]]]]},"bbox":[-1.66260674,47.21193449,-1.6486695,47.21992666]},{"type":"Feature","id":"fr-quartier-44162-11cb323efd1b","properties":{"id":"fr-quartier-44162-11cb323efd1b","kind":"quartier","name":"Crémetterie","cityCode":"44162","cityName":"Saint-Herblain","sourceType":"iris","sourceIds":["441620402"],"colorIndex":8,"center":[-1.6079828894034067,47.220663435]},"geometry":{"type":"MultiPolygon","coordinates":[[[[-1.6040169,47.22118089],[-1.60387102,47.22071414],[-1.60354789,47.22051146],[-1.60321684,47.22043264],[-1.60397993,47.21806122],[-1.60479925,47.21647032],[-1.60529697,47.21577597],[-1.6071876,47.21408471],[-1.60760835,47.21422217],[-1.61088719,47.21640294],[-1.61190154,47.2169947],[-1.61246799,47.21724087],[-1.6135908,47.21760014],[-1.61486372,47.21788848],[-1.61461543,47.21804898],[-1.61443204,47.21828715],[-1.61373307,47.21896431],[-1.61217368,47.22061273],[-1.61218723,47.22097111],[-1.61190032,47.22088244],[-1.61160903,47.22086609],[-1.6102252,47.22122962],[-1.60996198,47.22124731],[-1.60879621,47.22102048],[-1.60864598,47.22130602],[-1.60794183,47.22187784],[-1.60783738,47.22187929],[-1.60775727,47.22193298],[-1.60702385,47.22174664],[-1.60691122,47.22166815],[-1.60682796,47.22166966],[-1.60676438,47.22171548],[-1.6040169,47.22118089]]]]},"bbox":[-1.61486372,47.21408471,-1.60321684,47.22193298]},{"type":"Feature","id":"fr-quartier-44162-4fdc1a0d1e16","properties":{"id":"fr-quartier-44162-4fdc1a0d1e16","kind":"quartier","name":"Harlière Nord","cityCode":"44162","cityName":"Saint-Herblain","sourceType":"iris","sourceIds":["441620501"],"colorIndex":9,"center":[-1.6111634123171064,47.214153440000004]},"geometry":{"type":"MultiPolygon","coordinates":[[[[-1.6071876,47.21408471],[-1.60761246,47.21369896],[-1.60885401,47.21190994],[-1.60938762,47.21194371],[-1.6114227,47.21272568],[-1.61147913,47.21282804],[-1.61162291,47.21280698],[-1.61536012,47.21432909],[-1.61374615,47.21628001],[-1.61271381,47.21628057],[-1.61264977,47.21679896],[-1.61246799,47.21724087],[-1.61190154,47.2169947],[-1.61088719,47.21640294],[-1.60760835,47.21422217],[-1.6071876,47.21408471]]]]},"bbox":[-1.61536012,47.21190994,-1.6071876,47.21724087]},{"type":"Feature","id":"fr-quartier-44162-a7b153afd5f3","properties":{"id":"fr-quartier-44162-a7b153afd5f3","kind":"quartier","name":"Harlière Sud","cityCode":"44162","cityName":"Saint-Herblain","sourceType":"iris","sourceIds":["441620502"],"colorIndex":10,"center":[-1.6136917667551112,47.211181104999994]},"geometry":{"type":"MultiPolygon","coordinates":[[[[-1.60885401,47.21190994],[-1.60956035,47.21091779],[-1.6116131,47.20852829],[-1.61177797,47.20850639],[-1.61289322,47.20901115],[-1.61436425,47.20959009],[-1.6145106,47.20969157],[-1.61472059,47.2097328],[-1.61725528,47.21075357],[-1.61749104,47.21078655],[-1.61827248,47.21110167],[-1.61774881,47.21126054],[-1.61773349,47.21134412],[-1.61765861,47.21136605],[-1.61767156,47.21157836],[-1.61752079,47.21182606],[-1.61536012,47.21432909],[-1.61162291,47.21280698],[-1.61147913,47.21282804],[-1.6114227,47.21272568],[-1.60938762,47.21194371],[-1.60885401,47.21190994]]]]},"bbox":[-1.61827248,47.20850639,-1.60885401,47.21432909]},{"type":"Feature","id":"fr-quartier-44162-c9465c484884","properties":{"id":"fr-quartier-44162-c9465c484884","kind":"quartier","name":"La Bouvardière","cityCode":"44162","cityName":"Saint-Herblain","sourceType":"iris","sourceIds":["441620202"],"colorIndex":11,"center":[-1.596594872645176,47.233917160000004]},"geometry":{"type":"MultiPolygon","coordinates":[[[[-1.58905093,47.23270657],[-1.59020366,47.23184927],[-1.59058717,47.23207665],[-1.59199015,47.23131311],[-1.5923992,47.23171532],[-1.59699003,47.22949601],[-1.59708346,47.22961314],[-1.59683572,47.22992057],[-1.59696813,47.23010649],[-1.59700003,47.2302937],[-1.59684729,47.23048914],[-1.59656673,47.23058324],[-1.59644177,47.23079381],[-1.59644717,47.23112005],[-1.59658797,47.23140393],[-1.59683764,47.23150584],[-1.59743136,47.23191513],[-1.59793911,47.2321087],[-1.59805184,47.23226564],[-1.59850701,47.23230889],[-1.59907964,47.23302832],[-1.5993345,47.233268],[-1.60034039,47.23348054],[-1.60051344,47.23341415],[-1.60058538,47.23332652],[-1.60048645,47.23317625],[-1.60062368,47.23317079],[-1.60084892,47.23326555],[-1.60106001,47.23319494],[-1.60119646,47.23319583],[-1.60129926,47.23336038],[-1.60145852,47.23347309],[-1.60158464,47.23369353],[-1.60208443,47.23377827],[-1.60215192,47.23405605],[-1.60274635,47.23431829],[-1.6029838,47.23450905],[-1.60235566,47.23505887],[-1.60214379,47.23524404],[-1.60196411,47.23557312],[-1.60176447,47.23602473],[-1.60166362,47.23650128],[-1.60135553,47.2367534],[-1.60137952,47.2372809],[-1.60146785,47.23772468],[-1.60139537,47.23814599],[-1.60146532,47.23845253],[-1.60162985,47.23861102],[-1.60205066,47.23846895],[-1.60283306,47.2385136],[-1.60296716,47.23913592],[-1.60293605,47.23932924],[-1.60305703,47.23995298],[-1.60198879,47.23969424],[-1.60188203,47.23973094],[-1.60182255,47.23965485],[-1.59946621,47.23912081],[-1.59902698,47.23895519],[-1.59795373,47.23809601],[-1.59799694,47.23802847],[-1.59795888,47.23797046],[-1.59781149,47.23795016],[-1.59749168,47.23746236],[-1.59696639,47.23760586],[-1.59561271,47.23775517],[-1.59521488,47.23655625],[-1.59505871,47.23627838],[-1.59485143,47.23603771],[-1.5945272,47.23577644],[-1.59209325,47.23445537],[-1.59018279,47.23344896],[-1.58905093,47.23270657]]]]},"bbox":[-1.60305703,47.22949601,-1.58905093,47.23995298]},{"type":"Feature","id":"fr-quartier-44162-04b6a58d23af","properties":{"id":"fr-quartier-44162-04b6a58d23af","kind":"quartier","name":"Le Golf","cityCode":"44162","cityName":"Saint-Herblain","sourceType":"iris","sourceIds":["441620103"],"colorIndex":12,"center":[-1.6050192744499734,47.238301615]},"geometry":{"type":"MultiPolygon","coordinates":[[[[-1.60235566,47.23505887],[-1.60315379,47.23564307],[-1.60384752,47.23602851],[-1.60719004,47.23728615],[-1.60774071,47.23736164],[-1.60809126,47.23734228],[-1.61008958,47.23694441],[-1.60978926,47.23737931],[-1.6086581,47.23779136],[-1.60870968,47.23785244],[-1.60865119,47.23792691],[-1.6086929,47.2381507],[-1.60850898,47.23847635],[-1.60845266,47.2386842],[-1.60834321,47.23882834],[-1.60820209,47.23881952],[-1.60809687,47.23888954],[-1.60813029,47.23947979],[-1.60824342,47.23982609],[-1.60820579,47.23994301],[-1.60755525,47.23962982],[-1.60663369,47.23901268],[-1.60613793,47.23885204],[-1.60443295,47.23848698],[-1.60444036,47.23914499],[-1.60391054,47.24014721],[-1.60305703,47.23995298],[-1.60293605,47.23932924],[-1.60296716,47.23913592],[-1.60283306,47.2385136],[-1.60205066,47.23846895],[-1.60162985,47.23861102],[-1.60146532,47.23845253],[-1.60139537,47.23814599],[-1.60146785,47.23772468],[-1.60137952,47.2372809],[-1.60135553,47.2367534],[-1.60166362,47.23650128],[-1.60176447,47.23602473],[-1.60196411,47.23557312],[-1.60214379,47.23524404],[-1.60235566,47.23505887]]]]},"bbox":[-1.61008958,47.23505887,-1.60135553,47.24014721]},{"type":"Feature","id":"fr-quartier-44162-d7ac3eec3e55","properties":{"id":"fr-quartier-44162-d7ac3eec3e55","kind":"quartier","name":"Les Lions-Angevinière","cityCode":"44162","cityName":"Saint-Herblain","sourceType":"iris","sourceIds":["441620104"],"colorIndex":13,"center":[-1.6196802958957641,47.24539841]},"geometry":{"type":"MultiPolygon","coordinates":[[[[-1.62087058,47.25138638],[-1.62014766,47.25117353],[-1.60972318,47.24836673],[-1.60677694,47.24749197],[-1.60442241,47.24655124],[-1.60468077,47.24619738],[-1.60505332,47.24586243],[-1.60566512,47.24515184],[-1.60582586,47.24484876],[-1.6076362,47.24554418],[-1.60806493,47.24560198],[-1.60923115,47.24541129],[-1.60958385,47.24538553],[-1.61098625,47.24513852],[-1.61179336,47.24505318],[-1.61358252,47.24508474],[-1.61531926,47.24550793],[-1.61646789,47.24592928],[-1.61677558,47.24602704],[-1.61684507,47.24601886],[-1.61702055,47.24593431],[-1.61722187,47.24570354],[-1.61718805,47.24563364],[-1.61732633,47.24559386],[-1.61787701,47.24494426],[-1.61801077,47.24494433],[-1.61800529,47.24486519],[-1.61939773,47.24391778],[-1.6194525,47.2438155],[-1.61953991,47.24381562],[-1.62055823,47.24323031],[-1.62051214,47.24317173],[-1.62055719,47.24311041],[-1.62063102,47.24309123],[-1.62070701,47.24312788],[-1.62087128,47.24308255],[-1.6229136,47.24214794],[-1.62086917,47.24850698],[-1.62073652,47.25021307],[-1.62087058,47.25138638]]]]},"bbox":[-1.6229136,47.24214794,-1.60442241,47.25138638]},{"type":"Feature","id":"fr-quartier-44162-00d5332d52b7","properties":{"id":"fr-quartier-44162-00d5332d52b7","kind":"quartier","name":"Les Quatre Vents","cityCode":"44162","cityName":"Saint-Herblain","sourceType":"iris","sourceIds":["441620301"],"colorIndex":14,"center":[-1.617155456363598,47.23014019]},"geometry":{"type":"MultiPolygon","coordinates":[[[[-1.59699003,47.22949601],[-1.59793296,47.2290203],[-1.59797785,47.22908074],[-1.59795773,47.22920148],[-1.59826274,47.22939317],[-1.59845355,47.2294415],[-1.59900292,47.22947199],[-1.59991626,47.22942399],[-1.60010684,47.22946962],[-1.60317297,47.22977883],[-1.6032296,47.22982167],[-1.60352294,47.22984608],[-1.60374742,47.22991651],[-1.60405952,47.23011332],[-1.60454733,47.23066115],[-1.60506624,47.23066035],[-1.6067877,47.22904349],[-1.60685568,47.22892535],[-1.60811721,47.22930982],[-1.60817855,47.2292686],[-1.60830505,47.2292771],[-1.60927764,47.22831494],[-1.60912612,47.22809191],[-1.60822076,47.22607184],[-1.60826651,47.22600329],[-1.60899685,47.22572081],[-1.60951005,47.22543796],[-1.60962215,47.22521706],[-1.60998976,47.22479571],[-1.60999988,47.22472857],[-1.60973976,47.22402651],[-1.60966169,47.2234714],[-1.60954913,47.22327027],[-1.60905817,47.22268561],[-1.60883803,47.22252663],[-1.60885638,47.22246278],[-1.60897194,47.22243653],[-1.60895218,47.22239133],[-1.61033014,47.222607],[-1.61307116,47.22329592],[-1.61420061,47.22366935],[-1.61430087,47.22366535],[-1.61437767,47.22371189],[-1.6171379,47.22436117],[-1.61865629,47.22468478],[-1.62080272,47.22506086],[-1.62098664,47.2250445],[-1.62134213,47.22485265],[-1.62162377,47.22477197],[-1.62199867,47.22479037],[-1.62227171,47.22491745],[-1.62247369,47.22520338],[-1.62284226,47.22534828],[-1.62348392,47.22549761],[-1.62509645,47.22576057],[-1.62486939,47.22601403],[-1.62464331,47.2260943],[-1.62336783,47.22679455],[-1.62250621,47.22742775],[-1.62250059,47.22753168],[-1.62120844,47.22843908],[-1.62112565,47.22861553],[-1.6208687,47.22881426],[-1.61886387,47.2293632],[-1.61786787,47.22983579],[-1.61738352,47.23000751],[-1.61720729,47.23012907],[-1.61714698,47.23015131],[-1.61707134,47.2300876],[-1.61699528,47.23008071],[-1.61687979,47.23010786],[-1.61683219,47.23017018],[-1.61686195,47.23025466],[-1.6164226,47.23025685],[-1.615774,47.23044323],[-1.6150219,47.23056519],[-1.61199419,47.23079765],[-1.61160504,47.23079872],[-1.61137179,47.23115069],[-1.61186586,47.2313231],[-1.61220165,47.23153337],[-1.61426827,47.23376777],[-1.61466497,47.23408563],[-1.61481201,47.23453338],[-1.61489718,47.23463098],[-1.61512594,47.23476616],[-1.61505827,47.23559671],[-1.61536069,47.23623486],[-1.61526504,47.23697093],[-1.6152835,47.23700086],[-1.61554794,47.23702729],[-1.61543932,47.23762771],[-1.6153854,47.23773988],[-1.6151035,47.23801895],[-1.61498716,47.23800555],[-1.61492566,47.23804498],[-1.61493635,47.23809235],[-1.6146996,47.2381108],[-1.61403061,47.23804547],[-1.61336138,47.23783856],[-1.6123278,47.23732062],[-1.61214733,47.2371772],[-1.61154609,47.23700636],[-1.61111534,47.23692431],[-1.61069722,47.23689677],[-1.61008958,47.23694441],[-1.60809126,47.23734228],[-1.60774071,47.23736164],[-1.60719004,47.23728615],[-1.60384752,47.23602851],[-1.60315379,47.23564307],[-1.60235566,47.23505887],[-1.6029838,47.23450905],[-1.60274635,47.23431829],[-1.60215192,47.23405605],[-1.60208443,47.23377827],[-1.60158464,47.23369353],[-1.60145852,47.23347309],[-1.60129926,47.23336038],[-1.60119646,47.23319583],[-1.60106001,47.23319494],[-1.60084892,47.23326555],[-1.60062368,47.23317079],[-1.60048645,47.23317625],[-1.60058538,47.23332652],[-1.60051344,47.23341415],[-1.60034039,47.23348054],[-1.5993345,47.233268],[-1.59907964,47.23302832],[-1.59850701,47.23230889],[-1.59805184,47.23226564],[-1.59793911,47.2321087],[-1.59743136,47.23191513],[-1.59683764,47.23150584],[-1.59658797,47.23140393],[-1.59644717,47.23112005],[-1.59644177,47.23079381],[-1.59656673,47.23058324],[-1.59684729,47.23048914],[-1.59700003,47.2302937],[-1.59696813,47.23010649],[-1.59683572,47.22992057],[-1.59708346,47.22961314],[-1.59699003,47.22949601]]]]},"bbox":[-1.62509645,47.22239133,-1.59644177,47.2381108]},{"type":"Feature","id":"fr-quartier-44162-3ae28e62df24","properties":{"id":"fr-quartier-44162-3ae28e62df24","kind":"quartier","name":"Les Thébaudières","cityCode":"44162","cityName":"Saint-Herblain","sourceType":"iris","sourceIds":["441620102"],"colorIndex":15,"center":[-1.611792419612945,47.239712589999996]},"geometry":{"type":"MultiPolygon","coordinates":[[[[-1.60188203,47.23973094],[-1.60198879,47.23969424],[-1.60305703,47.23995298],[-1.60391054,47.24014721],[-1.60444036,47.23914499],[-1.60443295,47.23848698],[-1.60613793,47.23885204],[-1.60663369,47.23901268],[-1.60755525,47.23962982],[-1.60820579,47.23994301],[-1.60824342,47.23982609],[-1.60813029,47.23947979],[-1.60809687,47.23888954],[-1.60820209,47.23881952],[-1.60834321,47.23882834],[-1.60845266,47.2386842],[-1.60850898,47.23847635],[-1.6086929,47.2381507],[-1.60865119,47.23792691],[-1.60870968,47.23785244],[-1.6086581,47.23779136],[-1.60978926,47.23737931],[-1.61008958,47.23694441],[-1.61069722,47.23689677],[-1.61111534,47.23692431],[-1.61154609,47.23700636],[-1.61214733,47.2371772],[-1.6123278,47.23732062],[-1.61336138,47.23783856],[-1.61403061,47.23804547],[-1.6146996,47.2381108],[-1.61493635,47.23809235],[-1.61492566,47.23804498],[-1.61498716,47.23800555],[-1.6151035,47.23801895],[-1.61513974,47.23805538],[-1.61510059,47.23812368],[-1.6152127,47.23822652],[-1.615235,47.23834738],[-1.61538247,47.23960132],[-1.61534088,47.2407663],[-1.61538766,47.24083297],[-1.61530653,47.24084432],[-1.61526914,47.24079441],[-1.61371943,47.24029614],[-1.61309667,47.24024519],[-1.61268687,47.24028406],[-1.61251327,47.2406526],[-1.61265599,47.24103469],[-1.61272757,47.24148274],[-1.61249464,47.24157678],[-1.61154644,47.24216193],[-1.6111813,47.24241274],[-1.61081198,47.24278456],[-1.60987237,47.24249821],[-1.60837113,47.24220986],[-1.60816874,47.24224317],[-1.60704211,47.24355862],[-1.60667717,47.24407453],[-1.60599632,47.2447518],[-1.60582586,47.24484876],[-1.60273454,47.24331325],[-1.60302932,47.24304453],[-1.60306914,47.24281389],[-1.60276106,47.24141303],[-1.60234855,47.2414204],[-1.60169997,47.24133074],[-1.60167346,47.24126867],[-1.601578,47.24123639],[-1.60172918,47.2406361],[-1.60167536,47.24033253],[-1.60188203,47.23973094]]]]},"bbox":[-1.61538766,47.23689677,-1.601578,47.24484876]},{"type":"Feature","id":"fr-quartier-44162-16c344b4d8ce","properties":{"id":"fr-quartier-44162-16c344b4d8ce","kind":"quartier","name":"Moulin du Bois","cityCode":"44162","cityName":"Saint-Herblain","sourceType":"iris","sourceIds":["441620505"],"colorIndex":16,"center":[-1.615268897701594,47.208375579999995]},"geometry":{"type":"MultiPolygon","coordinates":[[[[-1.6116131,47.20852829],[-1.61241409,47.20779206],[-1.61233647,47.2077203],[-1.61298165,47.2070038],[-1.61309645,47.20703079],[-1.61315008,47.20713146],[-1.61427272,47.2075836],[-1.61467401,47.20710948],[-1.61750294,47.20824477],[-1.61853232,47.20767253],[-1.61860319,47.20777341],[-1.61876723,47.20784983],[-1.61873077,47.21005893],[-1.61866892,47.21030939],[-1.61833283,47.21091079],[-1.61827248,47.21110167],[-1.61749104,47.21078655],[-1.61725528,47.21075357],[-1.61472059,47.2097328],[-1.6145106,47.20969157],[-1.61436425,47.20959009],[-1.61289322,47.20901115],[-1.61177797,47.20850639],[-1.6116131,47.20852829]]]]},"bbox":[-1.61876723,47.2070038,-1.6116131,47.21110167]},{"type":"Feature","id":"fr-quartier-44162-6cd1fd876442","properties":{"id":"fr-quartier-44162-6cd1fd876442","kind":"quartier","name":"Moulin du Tillay-La Garotterie","cityCode":"44162","cityName":"Saint-Herblain","sourceType":"iris","sourceIds":["441620302"],"colorIndex":17,"center":[-1.606103899209201,47.22532751]},"geometry":{"type":"MultiPolygon","coordinates":[[[[-1.59793296,47.2290203],[-1.59945802,47.22770533],[-1.60155467,47.22623326],[-1.60285824,47.22514708],[-1.60313049,47.22443105],[-1.60275761,47.22306071],[-1.60291111,47.22179299],[-1.60345876,47.22174236],[-1.60384646,47.22147804],[-1.6040169,47.22118089],[-1.60676438,47.22171548],[-1.60682796,47.22166966],[-1.60691122,47.22166815],[-1.60702385,47.22174664],[-1.60775727,47.22193298],[-1.60783738,47.22187929],[-1.60794183,47.22187784],[-1.60802598,47.22194844],[-1.60801493,47.22200479],[-1.60880467,47.2222457],[-1.60895218,47.22239133],[-1.60897194,47.22243653],[-1.60885638,47.22246278],[-1.60883803,47.22252663],[-1.60905817,47.22268561],[-1.60954913,47.22327027],[-1.60966169,47.2234714],[-1.60973976,47.22402651],[-1.60999988,47.22472857],[-1.60998976,47.22479571],[-1.60962215,47.22521706],[-1.60951005,47.22543796],[-1.60899685,47.22572081],[-1.60826651,47.22600329],[-1.60822076,47.22607184],[-1.60912612,47.22809191],[-1.60927764,47.22831494],[-1.60830505,47.2292771],[-1.60817855,47.2292686],[-1.60811721,47.22930982],[-1.60685568,47.22892535],[-1.6067877,47.22904349],[-1.60506624,47.23066035],[-1.60454733,47.23066115],[-1.60405952,47.23011332],[-1.60374742,47.22991651],[-1.60352294,47.22984608],[-1.6032296,47.22982167],[-1.60317297,47.22977883],[-1.60010684,47.22946962],[-1.59991626,47.22942399],[-1.59900292,47.22947199],[-1.59845355,47.2294415],[-1.59826274,47.22939317],[-1.59795773,47.22920148],[-1.59797785,47.22908074],[-1.59793296,47.2290203]]]]},"bbox":[-1.60999988,47.22118089,-1.59793296,47.23066115]},{"type":"Feature","id":"fr-quartier-44162-c101f342bf3c","properties":{"id":"fr-quartier-44162-c101f342bf3c","kind":"quartier","name":"Pelousière","cityCode":"44162","cityName":"Saint-Herblain","sourceType":"iris","sourceIds":["441620702"],"colorIndex":18,"center":[-1.6626210877196623,47.204832255]},"geometry":{"type":"MultiPolygon","coordinates":[[[[-1.64582728,47.19371271],[-1.64581209,47.19385852],[-1.64531566,47.19399298],[-1.64520455,47.19423823],[-1.64533153,47.19514129],[-1.64576172,47.1955109],[-1.64562245,47.1958132],[-1.64574937,47.19607234],[-1.6453175,47.19670924],[-1.64696547,47.1973447],[-1.64633,47.19792215],[-1.64827941,47.19844719],[-1.64885223,47.19846115],[-1.64954343,47.19897178],[-1.65253506,47.19970468],[-1.65314001,47.19943235],[-1.65578347,47.19971923],[-1.65580612,47.19999609],[-1.65565745,47.200067],[-1.65525711,47.20002809],[-1.65504353,47.20040374],[-1.65476382,47.20039785],[-1.65442021,47.20072371],[-1.65438783,47.20119036],[-1.65396561,47.20141837],[-1.65402879,47.20156734],[-1.65463615,47.20152127],[-1.65539942,47.20176292],[-1.65554847,47.20191024],[-1.65603394,47.20201517],[-1.65618152,47.20191634],[-1.65681362,47.20212538],[-1.65745264,47.20210869],[-1.65787073,47.20232183],[-1.65911158,47.20240896],[-1.66015088,47.2022625],[-1.66081218,47.20230441],[-1.66107178,47.20223082],[-1.66110494,47.20232328],[-1.6627808,47.20277253],[-1.66433428,47.20303098],[-1.66481475,47.20318477],[-1.66450526,47.20340016],[-1.66429719,47.20368632],[-1.66409836,47.20450599],[-1.66393374,47.20482016],[-1.66338991,47.20526323],[-1.66293819,47.20507491],[-1.66231915,47.20489513],[-1.66219581,47.20489199],[-1.66197848,47.20496477],[-1.6612794,47.20482338],[-1.66108508,47.20484113],[-1.66094292,47.20491089],[-1.6606333,47.20486564],[-1.65766102,47.20495644],[-1.65758677,47.20490892],[-1.65751836,47.20495947],[-1.65663373,47.20502844],[-1.65606969,47.20526938],[-1.65583889,47.20547707],[-1.65585901,47.20555652],[-1.65576817,47.20557731],[-1.65562832,47.20587243],[-1.65551634,47.206795],[-1.6554449,47.20684117],[-1.65548518,47.20687833],[-1.65544503,47.20699538],[-1.65550439,47.20703898],[-1.65542527,47.20708816],[-1.65540126,47.20720817],[-1.65489823,47.21012511],[-1.6538462,47.21001951],[-1.65343406,47.2114195],[-1.65323116,47.21193449],[-1.65076243,47.21150163],[-1.64918261,47.2111241],[-1.64795251,47.21052057],[-1.64740918,47.21035932],[-1.64644552,47.21021944],[-1.64585909,47.21021773],[-1.6457767,47.21025982],[-1.64573899,47.21020632],[-1.64510809,47.21014957],[-1.6441497,47.20988682],[-1.64271049,47.20972631],[-1.64236898,47.2096336],[-1.64225307,47.20965538],[-1.64218394,47.20962118],[-1.6421723,47.20956303],[-1.64069128,47.20888742],[-1.63991719,47.20862807],[-1.63762521,47.20809316],[-1.63762684,47.20805071],[-1.63750869,47.20800043],[-1.63740116,47.20804262],[-1.63722351,47.20802358],[-1.63642384,47.20783557],[-1.63625356,47.20782526],[-1.63620158,47.20785169],[-1.63603332,47.20777276],[-1.63580796,47.20776826],[-1.63562952,47.20778622],[-1.63533681,47.20790617],[-1.63448951,47.20870034],[-1.63417747,47.20888778],[-1.63371709,47.20905862],[-1.63325796,47.20918252],[-1.63163907,47.20940874],[-1.62882776,47.20994235],[-1.62879699,47.20978486],[-1.62909454,47.20886032],[-1.62911415,47.20851955],[-1.62904432,47.20818506],[-1.62858104,47.20695456],[-1.62857575,47.20661659],[-1.62872255,47.20613907],[-1.62908569,47.20568445],[-1.62948572,47.20538167],[-1.63160736,47.20449507],[-1.6317868,47.20438147],[-1.63172514,47.20429556],[-1.63176216,47.20420299],[-1.63194206,47.20415611],[-1.63204018,47.20420449],[-1.63347867,47.20296191],[-1.63376852,47.20256342],[-1.63390109,47.20252023],[-1.63387543,47.20240673],[-1.63446213,47.20196749],[-1.63534522,47.20149744],[-1.63594695,47.2011099],[-1.63642527,47.20054964],[-1.63721149,47.19883442],[-1.63735679,47.19837137],[-1.63744679,47.19757415],[-1.6375654,47.19497663],[-1.63772379,47.19474212],[-1.63806676,47.19445422],[-1.63807436,47.19438898],[-1.63817744,47.19429557],[-1.63878643,47.1941927],[-1.63939821,47.19413751],[-1.64582728,47.19371271]]]]},"bbox":[-1.66481475,47.19371271,-1.62857575,47.21193449]},{"type":"Feature","id":"fr-quartier-44162-a05cb52b8795","properties":{"id":"fr-quartier-44162-a05cb52b8795","kind":"quartier","name":"Pontpierre","cityCode":"44162","cityName":"Saint-Herblain","sourceType":"iris","sourceIds":["441620604"],"colorIndex":19,"center":[-1.637004168376123,47.21063235]},"geometry":{"type":"MultiPolygon","coordinates":[[[[-1.62818971,47.21116999],[-1.62845971,47.21070919],[-1.62846898,47.21055551],[-1.6287406,47.21011358],[-1.62886723,47.21004719],[-1.62882776,47.20994235],[-1.63163907,47.20940874],[-1.63325796,47.20918252],[-1.63371709,47.20905862],[-1.63417747,47.20888778],[-1.63448951,47.20870034],[-1.63533681,47.20790617],[-1.63562952,47.20778622],[-1.63580796,47.20776826],[-1.63603332,47.20777276],[-1.63620158,47.20785169],[-1.63625356,47.20782526],[-1.63642384,47.20783557],[-1.63722351,47.20802358],[-1.63740116,47.20804262],[-1.63750869,47.20800043],[-1.63762684,47.20805071],[-1.63762521,47.20809316],[-1.63991719,47.20862807],[-1.64069128,47.20888742],[-1.6421723,47.20956303],[-1.64218394,47.20962118],[-1.64225307,47.20965538],[-1.64236898,47.2096336],[-1.64271049,47.20972631],[-1.6441497,47.20988682],[-1.64510809,47.21014957],[-1.64573899,47.21020632],[-1.6457767,47.21025982],[-1.6452919,47.21103591],[-1.64653124,47.21133337],[-1.64625929,47.21176995],[-1.64594128,47.21242392],[-1.64539345,47.2130835],[-1.64517547,47.21342503],[-1.64489291,47.21355541],[-1.64504251,47.21372436],[-1.64534418,47.21384572],[-1.64541232,47.21397556],[-1.64418551,47.21567694],[-1.64474626,47.21580955],[-1.64538166,47.21602485],[-1.64581233,47.21642872],[-1.64579605,47.21653128],[-1.6457045,47.21660529],[-1.64431832,47.21721374],[-1.64409269,47.21728321],[-1.64394883,47.21724209],[-1.64384036,47.21725816],[-1.63893722,47.21506041],[-1.63870391,47.21491825],[-1.63867365,47.21479772],[-1.63859327,47.21474051],[-1.63817135,47.21471323],[-1.63695984,47.21421707],[-1.63169605,47.21180531],[-1.63085168,47.21145221],[-1.63009187,47.21122018],[-1.62933082,47.21105041],[-1.62880559,47.21100649],[-1.62818971,47.21116999]]]]},"bbox":[-1.64653124,47.20776826,-1.62818971,47.21728321]},{"type":"Feature","id":"fr-quartier-44162-9d38b67d5836","properties":{"id":"fr-quartier-44162-9d38b67d5836","kind":"quartier","name":"Preux","cityCode":"44162","cityName":"Saint-Herblain","sourceType":"iris","sourceIds":["441620401"],"colorIndex":20,"center":[-1.6152162763184528,47.22159193]},"geometry":{"type":"MultiPolygon","coordinates":[[[[-1.62395486,47.21972523],[-1.6238829,47.21981198],[-1.62378737,47.21984014],[-1.62371594,47.21973297],[-1.62314464,47.21961601],[-1.6225876,47.2205572],[-1.62190711,47.22212557],[-1.62123618,47.22400557],[-1.62124576,47.22436321],[-1.62136585,47.22468217],[-1.62134213,47.22485265],[-1.62098664,47.2250445],[-1.62080272,47.22506086],[-1.61865629,47.22468478],[-1.6171379,47.22436117],[-1.61437767,47.22371189],[-1.61430087,47.22366535],[-1.61420061,47.22366935],[-1.61307116,47.22329592],[-1.61033014,47.222607],[-1.60895218,47.22239133],[-1.60880467,47.2222457],[-1.60801493,47.22200479],[-1.60802598,47.22194844],[-1.60794183,47.22187784],[-1.60864598,47.22130602],[-1.60879621,47.22102048],[-1.60996198,47.22124731],[-1.6102252,47.22122962],[-1.61160903,47.22086609],[-1.61190032,47.22088244],[-1.61218723,47.22097111],[-1.61217368,47.22061273],[-1.61373307,47.21896431],[-1.61443204,47.21828715],[-1.61461543,47.21804898],[-1.61486372,47.21788848],[-1.62011098,47.21898681],[-1.62395486,47.21972523]]]]},"bbox":[-1.62395486,47.21788848,-1.60794183,47.22506086]},{"type":"Feature","id":"fr-quartier-44162-f9f4b8b45759","properties":{"id":"fr-quartier-44162-f9f4b8b45759","kind":"quartier","name":"Route de Vannes","cityCode":"44162","cityName":"Saint-Herblain","sourceType":"iris","sourceIds":["441620201"],"colorIndex":21,"center":[-1.5953912866730142,47.239456454999996]},"geometry":{"type":"MultiPolygon","coordinates":[[[[-1.60442241,47.24655124],[-1.60428915,47.24649521],[-1.59912901,47.24409044],[-1.59238991,47.24072906],[-1.58943716,47.23925806],[-1.58787706,47.23847941],[-1.5883382,47.23817348],[-1.58896369,47.23757516],[-1.59004464,47.23665127],[-1.59087906,47.23569387],[-1.59209325,47.23445537],[-1.5945272,47.23577644],[-1.59485143,47.23603771],[-1.59505871,47.23627838],[-1.59521488,47.23655625],[-1.59561271,47.23775517],[-1.59696639,47.23760586],[-1.59749168,47.23746236],[-1.59781149,47.23795016],[-1.59795888,47.23797046],[-1.59799694,47.23802847],[-1.59795373,47.23809601],[-1.59902698,47.23895519],[-1.59946621,47.23912081],[-1.60182255,47.23965485],[-1.60188203,47.23973094],[-1.60167536,47.24033253],[-1.60172918,47.2406361],[-1.601578,47.24123639],[-1.60167346,47.24126867],[-1.60169997,47.24133074],[-1.60234855,47.2414204],[-1.60276106,47.24141303],[-1.60306914,47.24281389],[-1.60302932,47.24304453],[-1.60273454,47.24331325],[-1.60582586,47.24484876],[-1.60566512,47.24515184],[-1.60505332,47.24586243],[-1.60468077,47.24619738],[-1.60442241,47.24655124]]]]},"bbox":[-1.60582586,47.23445537,-1.58787706,47.24655124]},{"type":"Feature","id":"fr-quartier-44162-ca80d60b55de","properties":{"id":"fr-quartier-44162-ca80d60b55de","kind":"quartier","name":"Sillon de Bretagne","cityCode":"44162","cityName":"Saint-Herblain","sourceType":"iris","sourceIds":["441620101"],"colorIndex":22,"center":[-1.61372766796985,47.243394465]},"geometry":{"type":"MultiPolygon","coordinates":[[[[-1.61538766,47.24083297],[-1.61745255,47.24165517],[-1.61756665,47.24167317],[-1.61759512,47.24172704],[-1.6176913,47.2417214],[-1.61859509,47.24217595],[-1.620449,47.24302274],[-1.62055719,47.24311041],[-1.62051214,47.24317173],[-1.62055823,47.24323031],[-1.61953991,47.24381562],[-1.6194525,47.2438155],[-1.61939773,47.24391778],[-1.61800529,47.24486519],[-1.61801077,47.24494433],[-1.61787701,47.24494426],[-1.61732633,47.24559386],[-1.61718805,47.24563364],[-1.61722187,47.24570354],[-1.61702055,47.24593431],[-1.61684507,47.24601886],[-1.61677558,47.24602704],[-1.61646789,47.24592928],[-1.61531926,47.24550793],[-1.61358252,47.24508474],[-1.61179336,47.24505318],[-1.61098625,47.24513852],[-1.60958385,47.24538553],[-1.60923115,47.24541129],[-1.60806493,47.24560198],[-1.6076362,47.24554418],[-1.60582586,47.24484876],[-1.60599632,47.2447518],[-1.60667717,47.24407453],[-1.60704211,47.24355862],[-1.60816874,47.24224317],[-1.60837113,47.24220986],[-1.60987237,47.24249821],[-1.61081198,47.24278456],[-1.6111813,47.24241274],[-1.61154644,47.24216193],[-1.61249464,47.24157678],[-1.61272757,47.24148274],[-1.61265599,47.24103469],[-1.61251327,47.2406526],[-1.61268687,47.24028406],[-1.61309667,47.24024519],[-1.61371943,47.24029614],[-1.61526914,47.24079441],[-1.61530653,47.24084432],[-1.61538766,47.24083297]]]]},"bbox":[-1.62055823,47.24024519,-1.60582586,47.24602704]},{"type":"Feature","id":"fr-quartier-44162-b85dfca7da39","properties":{"id":"fr-quartier-44162-b85dfca7da39","kind":"quartier","name":"Solvardière","cityCode":"44162","cityName":"Saint-Herblain","sourceType":"iris","sourceIds":["441620601"],"colorIndex":23,"center":[-1.6427906802132588,47.219768605]},"geometry":{"type":"MultiPolygon","coordinates":[[[[-1.62378737,47.21984014],[-1.6238829,47.21981198],[-1.62395486,47.21972523],[-1.62402645,47.21957267],[-1.62419998,47.21946654],[-1.62453602,47.21843407],[-1.62513964,47.21746575],[-1.62555839,47.21662566],[-1.62631634,47.21486749],[-1.62649409,47.21424174],[-1.62786658,47.21185928],[-1.62796119,47.21171301],[-1.62826351,47.21145833],[-1.62832855,47.21133759],[-1.62818971,47.21116999],[-1.62880559,47.21100649],[-1.62933082,47.21105041],[-1.63009187,47.21122018],[-1.63085168,47.21145221],[-1.63169605,47.21180531],[-1.63695984,47.21421707],[-1.63817135,47.21471323],[-1.63859327,47.21474051],[-1.63867365,47.21479772],[-1.63870391,47.21491825],[-1.63893722,47.21506041],[-1.64384036,47.21725816],[-1.64375642,47.2173436],[-1.64387677,47.21743436],[-1.64401721,47.21743595],[-1.64530855,47.21793515],[-1.64363304,47.22032729],[-1.64048899,47.21948119],[-1.64007721,47.22139604],[-1.63976403,47.22207684],[-1.63963584,47.22218659],[-1.63949135,47.22223026],[-1.63945154,47.22232113],[-1.63921525,47.2223288],[-1.6373601,47.22216865],[-1.63702286,47.22209558],[-1.63682755,47.22213316],[-1.63669043,47.22204757],[-1.63529189,47.22190157],[-1.6339514,47.22170723],[-1.63338005,47.22166697],[-1.63329229,47.22160104],[-1.63112852,47.22128451],[-1.63104595,47.22132478],[-1.63090604,47.22132948],[-1.63079035,47.22127729],[-1.63074094,47.2211954],[-1.62741256,47.22049701],[-1.62730601,47.22053554],[-1.62716882,47.22052569],[-1.62703702,47.22039388],[-1.62677072,47.22032967],[-1.6242115,47.21986198],[-1.62410815,47.21984537],[-1.62392626,47.2198851],[-1.62378737,47.21984014]]]]},"bbox":[-1.64530855,47.21100649,-1.62378737,47.2223288]},{"type":"Feature","id":"fr-quartier-44162-156e1ab94f4d","properties":{"id":"fr-quartier-44162-156e1ab94f4d","kind":"quartier","name":"Village Expo","cityCode":"44162","cityName":"Saint-Herblain","sourceType":"iris","sourceIds":["441620503"],"colorIndex":24,"center":[-1.6229300840201029,47.211518345]},"geometry":{"type":"MultiPolygon","coordinates":[[[[-1.61486372,47.21788848],[-1.6135908,47.21760014],[-1.61246799,47.21724087],[-1.61264977,47.21679896],[-1.61271381,47.21628057],[-1.61374615,47.21628001],[-1.61536012,47.21432909],[-1.61752079,47.21182606],[-1.61767156,47.21157836],[-1.61765861,47.21136605],[-1.61773349,47.21134412],[-1.61774881,47.21126054],[-1.61827248,47.21110167],[-1.61908028,47.21086112],[-1.6196286,47.21074274],[-1.62034526,47.21065823],[-1.62561748,47.21076148],[-1.62616012,47.21063879],[-1.62635298,47.21068069],[-1.62643907,47.21075841],[-1.62663612,47.21081817],[-1.62748533,47.21084374],[-1.62765561,47.21088473],[-1.62783365,47.21093894],[-1.62791982,47.21107888],[-1.62818971,47.21116999],[-1.62832855,47.21133759],[-1.62826351,47.21145833],[-1.62796119,47.21171301],[-1.62786658,47.21185928],[-1.62649409,47.21424174],[-1.62631634,47.21486749],[-1.62555839,47.21662566],[-1.62513964,47.21746575],[-1.62453602,47.21843407],[-1.62419998,47.21946654],[-1.62402645,47.21957267],[-1.62395486,47.21972523],[-1.62011098,47.21898681],[-1.61486372,47.21788848]]]]},"bbox":[-1.62832855,47.21063879,-1.61246799,47.21972523]},{"type":"Feature","id":"fr-quartier-44162-60c03237ad76","properties":{"id":"fr-quartier-44162-60c03237ad76","kind":"quartier","name":"Z.I. Chêne Lassé","cityCode":"44162","cityName":"Saint-Herblain","sourceType":"iris","sourceIds":["441620803"],"colorIndex":25,"center":[-1.6511902461982841,47.22711776]},"geometry":{"type":"MultiPolygon","coordinates":[[[[-1.63540401,47.22808086],[-1.63557367,47.22789912],[-1.63557811,47.2277817],[-1.6359254,47.22766409],[-1.63646526,47.22718525],[-1.6372658,47.2263677],[-1.6375046,47.22622016],[-1.63748675,47.22616676],[-1.637576,47.22600447],[-1.63846459,47.22476584],[-1.63898788,47.22385027],[-1.63956127,47.22253407],[-1.63945154,47.22232113],[-1.64002764,47.22240085],[-1.64134831,47.22284031],[-1.64208466,47.22302813],[-1.64381637,47.22381181],[-1.64392509,47.22381376],[-1.64397166,47.22390839],[-1.64465783,47.22418929],[-1.64544195,47.2244392],[-1.64621992,47.22457211],[-1.64670605,47.22472846],[-1.64701237,47.2249335],[-1.64849392,47.22655774],[-1.64874803,47.22674053],[-1.65000391,47.22710224],[-1.65093728,47.22713328],[-1.65132546,47.22709064],[-1.65124842,47.22717941],[-1.65132699,47.22735301],[-1.65127877,47.22756056],[-1.65056136,47.2290305],[-1.65025992,47.22937178],[-1.65010634,47.2294023],[-1.6500029,47.22949212],[-1.65003145,47.22982195],[-1.64972897,47.23045726],[-1.64871007,47.23165702],[-1.64793066,47.23244223],[-1.64771505,47.2325059],[-1.64768969,47.23261063],[-1.6477313,47.23266307],[-1.64753047,47.23289748],[-1.64364427,47.23108742],[-1.64158202,47.23020425],[-1.63927335,47.22934896],[-1.63540401,47.22808086]]]]},"bbox":[-1.65132699,47.22232113,-1.63540401,47.23289748]},{"type":"Feature","id":"fr-quartier-44162-f103811fdb5c","properties":{"id":"fr-quartier-44162-f103811fdb5c","kind":"quartier","name":"Z.I. Tisserand","cityCode":"44162","cityName":"Saint-Herblain","sourceType":"iris","sourceIds":["441620804"],"colorIndex":26,"center":[-1.6467199691403667,47.222275695]},"geometry":{"type":"MultiPolygon","coordinates":[[[[-1.64530855,47.21793515],[-1.64584566,47.21810027],[-1.64658933,47.21826612],[-1.6486695,47.21858032],[-1.65231863,47.2191588],[-1.65268007,47.21917493],[-1.65327672,47.21929344],[-1.65540447,47.21992666],[-1.65526437,47.22005133],[-1.65530609,47.22019666],[-1.65523644,47.22030948],[-1.65486007,47.22074758],[-1.65430688,47.22158958],[-1.65186105,47.22654876],[-1.65147756,47.22704304],[-1.65132546,47.22709064],[-1.65093728,47.22713328],[-1.65000391,47.22710224],[-1.64874803,47.22674053],[-1.64849392,47.22655774],[-1.64701237,47.2249335],[-1.64670605,47.22472846],[-1.64621992,47.22457211],[-1.64544195,47.2244392],[-1.64465783,47.22418929],[-1.64397166,47.22390839],[-1.64392509,47.22381376],[-1.64381637,47.22381181],[-1.64208466,47.22302813],[-1.64134831,47.22284031],[-1.64002764,47.22240085],[-1.63945154,47.22232113],[-1.63949135,47.22223026],[-1.63963584,47.22218659],[-1.63976403,47.22207684],[-1.64007721,47.22139604],[-1.64048899,47.21948119],[-1.64363304,47.22032729],[-1.64530855,47.21793515]]]]},"bbox":[-1.65540447,47.21793515,-1.63945154,47.22713328]},{"type":"Feature","id":"fr-quartier-44162-6a8e9a7f5e80","properties":{"id":"fr-quartier-44162-6a8e9a7f5e80","kind":"quartier","name":"Zone Industrielle de la Loire","cityCode":"44162","cityName":"Saint-Herblain","sourceType":"iris","sourceIds":["441620506"],"colorIndex":27,"center":[-1.628741623783021,47.19764663]},"geometry":{"type":"MultiPolygon","coordinates":[[[[-1.64177432,47.19117888],[-1.64561963,47.19078917],[-1.64563725,47.1922792],[-1.64582728,47.19371271],[-1.63939821,47.19413751],[-1.63878643,47.1941927],[-1.63817744,47.19429557],[-1.63807436,47.19438898],[-1.63806676,47.19445422],[-1.63772379,47.19474212],[-1.6375654,47.19497663],[-1.63744679,47.19757415],[-1.63735679,47.19837137],[-1.63721149,47.19883442],[-1.63642527,47.20054964],[-1.63594695,47.2011099],[-1.63534522,47.20149744],[-1.63446213,47.20196749],[-1.63387543,47.20240673],[-1.63390109,47.20252023],[-1.63376852,47.20256342],[-1.63347867,47.20296191],[-1.63204018,47.20420449],[-1.63194206,47.20415611],[-1.63176216,47.20420299],[-1.62830841,47.202974],[-1.62791579,47.20274801],[-1.62774675,47.20244454],[-1.62755359,47.20112298],[-1.62737875,47.20078277],[-1.62722672,47.20073835],[-1.62723512,47.20066677],[-1.62680783,47.20051431],[-1.62623383,47.20020989],[-1.62562934,47.19995089],[-1.62473457,47.19980899],[-1.62435476,47.19968529],[-1.62415437,47.19955531],[-1.62373431,47.19914824],[-1.62334711,47.19887693],[-1.62212221,47.19835772],[-1.62016736,47.19770441],[-1.61992192,47.19758885],[-1.61976228,47.19740945],[-1.61959981,47.19735101],[-1.6194569,47.19724308],[-1.61802098,47.19665379],[-1.61791398,47.19656337],[-1.61860286,47.19583426],[-1.61904667,47.19499409],[-1.61902586,47.19322735],[-1.62208941,47.193298],[-1.62676152,47.19301208],[-1.62853321,47.19309092],[-1.63243193,47.19296556],[-1.63562108,47.19260517],[-1.63661589,47.19261942],[-1.63788976,47.19218779],[-1.63828476,47.19198167],[-1.64074611,47.19126792],[-1.64177432,47.19117888]]]]},"bbox":[-1.64582728,47.19078917,-1.61791398,47.20420449]}]}