{"type":"FeatureCollection","metadata":{"sourceType":"iris","referenceFile":"checy-quartiers.geojson","source":"IGN / INSEE - Contours IRIS WFS Géoplateforme","sourceUrl":"https://geoservices.ign.fr/contoursiris","license":"Licence Ouverte / Open Licence 2.0","sourceYear":"2026"},"features":[{"type":"Feature","id":"fr-quartier-45089-a326e12defb0","properties":{"id":"fr-quartier-45089-a326e12defb0","kind":"quartier","name":"la Malécotière","cityCode":"45089","cityName":"Chécy","sourceType":"iris","sourceIds":["450890102"],"colorIndex":0,"center":[2.035660212430062,47.90471382252701]},"geometry":{"type":"MultiPolygon","coordinates":[[[[2.00639525,47.91787896],[2.0068322,47.91814006],[2.00825381,47.9190152],[2.00894173,47.91931711],[2.0102976,47.92041848],[2.01142124,47.92119476],[2.01165824,47.92105095],[2.01182679,47.92105957],[2.01364892,47.92150239],[2.02174741,47.92191663],[2.02466969,47.92115341],[2.02707827,47.92131108],[2.03528852,47.92243092],[2.03640813,47.9219028],[2.03704436,47.9213005],[2.03713835,47.92084316],[2.03747713,47.92039863],[2.03712326,47.91953441],[2.03712615,47.91893231],[2.0375544,47.91827881],[2.04045386,47.91830973],[2.0421326,47.91758001],[2.0422481,47.91770876],[2.04247191,47.91762238],[2.04436018,47.91603482],[2.0468222,47.91447348],[2.04896764,47.91286543],[2.05218407,47.90959824],[2.05223785,47.90733601],[2.05245988,47.90479612],[2.05264028,47.90421256],[2.05344622,47.90277811],[2.05385269,47.90129994],[2.0538933,47.89962171],[2.05353745,47.89735976],[2.05358154,47.89616308],[2.05261954,47.8957737],[2.04990889,47.89505697],[2.04993329,47.89481506],[2.05041247,47.89473613],[2.04930354,47.89433385],[2.04941037,47.89225383],[2.04382865,47.89024552],[2.04356125,47.89023254],[2.04321991,47.88971854],[2.04160446,47.88350589],[2.03753852,47.88245737],[2.03748276,47.88235971],[2.03653252,47.88266963],[2.03552057,47.88328325],[2.03238758,47.88229442],[2.03199309,47.88228307],[2.03078915,47.88314977],[2.03014912,47.88354141],[2.02999445,47.88373184],[2.02965013,47.88441572],[2.02949363,47.88463224],[2.0288429,47.88509578],[2.02820645,47.88543613],[2.02789476,47.88572426],[2.02771146,47.88579655],[2.02743134,47.88816044],[2.02740454,47.88918536],[2.02722236,47.88992638],[2.02725627,47.89041269],[2.0271047,47.89094335],[2.02694689,47.89108425],[2.02706406,47.89118963],[2.02731273,47.89127539],[2.02880568,47.89152176],[2.03045056,47.89194937],[2.03073271,47.89313435],[2.03122205,47.89352631],[2.03145789,47.89365606],[2.03237459,47.89395073],[2.03310738,47.89435008],[2.03363767,47.89455246],[2.03384446,47.89473507],[2.03403862,47.89502378],[2.03174501,47.8954513],[2.02524633,47.89697349],[2.02552275,47.89744471],[2.0266668,47.89899146],[2.02783165,47.90116029],[2.02794652,47.90153925],[2.02802995,47.90283059],[2.02821628,47.90318135],[2.02980705,47.90461205],[2.03005718,47.90476802],[2.03015719,47.90493535],[2.03031357,47.90502125],[2.03047636,47.9052692],[2.03064878,47.90542993],[2.0312461,47.90585247],[2.03279268,47.90677875],[2.03285493,47.90696197],[2.03265746,47.90729426],[2.03220316,47.90783593],[2.0318574,47.90815169],[2.03074083,47.90889311],[2.02803955,47.91042243],[2.02624399,47.91131838],[2.02449966,47.91204643],[2.02223939,47.91279986],[2.01096264,47.91598604],[2.00997271,47.91630172],[2.00844222,47.91688552],[2.00639525,47.91787896]]]]},"bbox":[2.00639525,47.88228307,2.0538933,47.92243092]},{"type":"Feature","id":"fr-quartier-45089-007f54cfb76d","properties":{"id":"fr-quartier-45089-007f54cfb76d","kind":"quartier","name":"les Bourgneufs","cityCode":"45089","cityName":"Chécy","sourceType":"iris","sourceIds":["450890103"],"colorIndex":1,"center":[2.0107524882585004,47.90117616127073]},"geometry":{"type":"MultiPolygon","coordinates":[[[[2.00612331,47.88678311],[2.00399342,47.88704947],[2.00206765,47.88763164],[2.00035178,47.88836408],[1.99789455,47.8898039],[1.9957894,47.8915131],[1.99206248,47.89341535],[1.99367215,47.89809048],[1.99386598,47.89810294],[1.99522743,47.90126923],[1.99575522,47.90202438],[1.99632209,47.90333338],[1.99066824,47.90487979],[1.99099038,47.90539648],[1.99148,47.9059056],[1.99285202,47.90689482],[1.99354601,47.90756949],[1.99348662,47.90837181],[1.99296171,47.90986227],[1.99301908,47.91057829],[1.99460469,47.91259715],[1.99815642,47.91444016],[2.00186742,47.9158713],[2.00434175,47.91664743],[2.00639525,47.91787896],[2.00844222,47.91688552],[2.00997271,47.91630172],[2.01096264,47.91598604],[2.02223939,47.91279986],[2.02449966,47.91204643],[2.02624399,47.91131838],[2.02803955,47.91042243],[2.03074083,47.90889311],[2.0318574,47.90815169],[2.03220316,47.90783593],[2.03265746,47.90729426],[2.03285493,47.90696197],[2.03279268,47.90677875],[2.0312461,47.90585247],[2.03064878,47.90542993],[2.03047636,47.9052692],[2.03031357,47.90502125],[2.03015719,47.90493535],[2.03005718,47.90476802],[2.02980705,47.90461205],[2.02821628,47.90318135],[2.02802995,47.90283059],[2.02794652,47.90153925],[2.02783165,47.90116029],[2.0266668,47.89899146],[2.02552275,47.89744471],[2.02524633,47.89697349],[2.01997856,47.89820769],[2.01837531,47.895739],[2.01726763,47.89434097],[2.01687238,47.89371484],[2.01845774,47.89330688],[2.02020994,47.89263119],[2.02107092,47.89245926],[2.02093602,47.89222773],[2.02099327,47.8921706],[2.02181586,47.89190295],[2.02314795,47.89158192],[2.02369373,47.89137496],[2.02406439,47.89137624],[2.02422096,47.89166735],[2.024764,47.89146396],[2.02515599,47.8911783],[2.02563116,47.89102654],[2.02584284,47.89101299],[2.02694689,47.89108425],[2.0271047,47.89094335],[2.02725627,47.89041269],[2.02722236,47.88992638],[2.02740454,47.88918536],[2.02743134,47.88816044],[2.02771146,47.88579655],[2.02789476,47.88572426],[2.02820645,47.88543613],[2.0288429,47.88509578],[2.02949363,47.88463224],[2.02965013,47.88441572],[2.02999445,47.88373184],[2.03014912,47.88354141],[2.03078915,47.88314977],[2.03199309,47.88228307],[2.03013494,47.88131368],[2.02836992,47.88264465],[2.02721783,47.88374486],[2.02573481,47.8845741],[2.02441393,47.88502395],[2.02284841,47.88538805],[2.02023276,47.88573706],[2.01733017,47.88633293],[2.01478895,47.88663205],[2.00777117,47.88646133],[2.00612331,47.88678311]]]]},"bbox":[1.99066824,47.88131368,2.03285493,47.91787896]},{"type":"Feature","id":"fr-quartier-45089-7f9f05029a27","properties":{"id":"fr-quartier-45089-7f9f05029a27","kind":"quartier","name":"les Muids","cityCode":"45089","cityName":"Chécy","sourceType":"iris","sourceIds":["450890101"],"colorIndex":2,"center":[2.0247510036248855,47.894403972147956]},"geometry":{"type":"MultiPolygon","coordinates":[[[[2.02694689,47.89108425],[2.02584284,47.89101299],[2.02563116,47.89102654],[2.02515599,47.8911783],[2.024764,47.89146396],[2.02422096,47.89166735],[2.02406439,47.89137624],[2.02369373,47.89137496],[2.02314795,47.89158192],[2.02181586,47.89190295],[2.02099327,47.8921706],[2.02093602,47.89222773],[2.02107092,47.89245926],[2.02020994,47.89263119],[2.01845774,47.89330688],[2.01687238,47.89371484],[2.01726763,47.89434097],[2.01837531,47.895739],[2.01997856,47.89820769],[2.02524633,47.89697349],[2.03174501,47.8954513],[2.03403862,47.89502378],[2.03384446,47.89473507],[2.03363767,47.89455246],[2.03310738,47.89435008],[2.03237459,47.89395073],[2.03145789,47.89365606],[2.03122205,47.89352631],[2.03073271,47.89313435],[2.03045056,47.89194937],[2.02880568,47.89152176],[2.02731273,47.89127539],[2.02706406,47.89118963],[2.02694689,47.89108425]]]]},"bbox":[2.01687238,47.89101299,2.03403862,47.89820769]}]}