{"type":"FeatureCollection","metadata":{"sourceType":"iris","referenceFile":"cahors-quartiers.geojson","source":"IGN / INSEE - Contours IRIS WFS Géoplateforme","sourceUrl":"https://geoservices.ign.fr/contoursiris","license":"Licence Ouverte / Open Licence 2.0","sourceYear":"2026"},"features":[{"type":"Feature","id":"fr-quartier-46042-7282d4f79064","properties":{"id":"fr-quartier-46042-7282d4f79064","kind":"quartier","name":"Cabazat","cityCode":"46042","cityName":"Cahors","sourceType":"iris","sourceIds":["460420501"],"colorIndex":0,"center":[1.4134377268917833,44.43477677780289]},"geometry":{"type":"MultiPolygon","coordinates":[[[[1.44144347,44.42570991],[1.43951708,44.42276006],[1.43930611,44.42225557],[1.43924553,44.41853083],[1.43904626,44.41742056],[1.43872144,44.41690005],[1.4373497,44.41553366],[1.43697031,44.41503398],[1.43665133,44.41516721],[1.43630752,44.41478958],[1.43604204,44.4147597],[1.43595144,44.41467468],[1.43592666,44.4143439],[1.43544657,44.41426145],[1.43536042,44.41410627],[1.43434772,44.41375154],[1.43423793,44.4135429],[1.43387082,44.41337292],[1.43323616,44.41220423],[1.43249753,44.41134378],[1.4323141,44.41102785],[1.43246196,44.4096353],[1.43103751,44.40773507],[1.43000242,44.40574764],[1.429957,44.40466836],[1.43015181,44.40425608],[1.43010145,44.40353597],[1.42131428,44.40351661],[1.42009498,44.40404924],[1.41884019,44.40409786],[1.41759205,44.40431313],[1.41725964,44.40425343],[1.41559251,44.40350827],[1.4150552,44.4034105],[1.41420938,44.40338662],[1.41382557,44.40457857],[1.41369873,44.40466768],[1.41307344,44.40452722],[1.41236765,44.40551015],[1.41097246,44.40644261],[1.41065066,44.40694397],[1.4104547,44.40739222],[1.41030885,44.40864972],[1.41048924,44.40987412],[1.41037467,44.41006244],[1.4097373,44.41043949],[1.4092402,44.41087529],[1.40957505,44.41134112],[1.40961752,44.41255632],[1.40994078,44.41298776],[1.40955781,44.41298223],[1.40884382,44.41340229],[1.40817295,44.41465581],[1.40915805,44.41536152],[1.40979697,44.4160046],[1.41029916,44.41673034],[1.41072119,44.41709028],[1.41115906,44.41782589],[1.4112505,44.41828279],[1.4118591,44.41902357],[1.41193729,44.41946047],[1.4136208,44.42071193],[1.41553669,44.42264017],[1.41619866,44.42309357],[1.41621106,44.42354843],[1.41668108,44.42394775],[1.41712056,44.42463024],[1.41638215,44.42461783],[1.41539249,44.42446944],[1.41411329,44.4241179],[1.41373291,44.42392785],[1.41300355,44.423324],[1.41225975,44.42305668],[1.41080715,44.42288628],[1.40835332,44.42284725],[1.40778112,44.42277776],[1.40700103,44.42250627],[1.40660002,44.42229159],[1.40656126,44.42219559],[1.40458403,44.42165196],[1.40405045,44.4213273],[1.40358787,44.42053458],[1.40189533,44.41912167],[1.40114401,44.41823471],[1.40051717,44.41801132],[1.39890092,44.41776996],[1.39854742,44.41778733],[1.39668712,44.41746945],[1.39624093,44.41747736],[1.39570062,44.41770359],[1.39471984,44.4186653],[1.39406828,44.41891511],[1.39353147,44.41901713],[1.39302086,44.4193023],[1.39431324,44.42002253],[1.3952089,44.42033541],[1.39542386,44.42064106],[1.3953615,44.42106783],[1.39484873,44.42231458],[1.3951848,44.42295694],[1.39476704,44.42337853],[1.39461809,44.42424431],[1.39471593,44.42460409],[1.39519595,44.42517741],[1.39521473,44.42535686],[1.39515069,44.42544417],[1.39446852,44.42557468],[1.3941222,44.42586856],[1.39459488,44.42687756],[1.39484851,44.42812378],[1.3947292,44.42869738],[1.3944002,44.42926612],[1.3944174,44.42954549],[1.39484543,44.42995959],[1.39640126,44.43079258],[1.3951474,44.43100843],[1.39407162,44.43097024],[1.39327237,44.43084064],[1.39252727,44.43083968],[1.39221229,44.43002925],[1.39084272,44.42949784],[1.39018378,44.42947201],[1.38956053,44.42960516],[1.38855297,44.42959943],[1.38790237,44.42967815],[1.38673007,44.43020572],[1.38625798,44.42992869],[1.385847,44.42953551],[1.38544827,44.42941802],[1.38510831,44.42944275],[1.38451893,44.42962139],[1.38343439,44.42967121],[1.38166983,44.42994873],[1.38124587,44.43009827],[1.38057673,44.43064847],[1.38008227,44.43084649],[1.37879716,44.4310977],[1.37733957,44.43127253],[1.37612313,44.43131944],[1.37571426,44.43151149],[1.37516958,44.43192574],[1.37486648,44.43228502],[1.37396267,44.43391398],[1.37362796,44.43432322],[1.3732548,44.43532614],[1.37248654,44.43577849],[1.3726306,44.43592558],[1.37281778,44.43592744],[1.37401401,44.4357128],[1.37520624,44.4357682],[1.37615778,44.43514656],[1.37691421,44.43497403],[1.37774214,44.43498082],[1.37802343,44.43687216],[1.37814513,44.43709814],[1.37895918,44.43723978],[1.37926543,44.43764765],[1.38029806,44.43967969],[1.38208072,44.44194332],[1.37992366,44.44327391],[1.3791645,44.44358239],[1.37865657,44.44398279],[1.37807406,44.44501146],[1.37807016,44.44519148],[1.37755545,44.44591501],[1.37779624,44.44654703],[1.37778968,44.4469512],[1.37759852,44.44713027],[1.37671498,44.44734686],[1.37557867,44.44778661],[1.37538624,44.44800977],[1.37531817,44.44827888],[1.37687724,44.44865661],[1.37825206,44.4492801],[1.37934082,44.44799956],[1.3798461,44.44782421],[1.38149625,44.44752342],[1.38331215,44.44775536],[1.38471664,44.44637315],[1.38573362,44.44566325],[1.38617216,44.44566697],[1.38743267,44.44536308],[1.38818273,44.44559375],[1.39231142,44.44639416],[1.39319834,44.44645392],[1.39363985,44.4465747],[1.39419345,44.44690871],[1.39460819,44.44691025],[1.39578734,44.44672663],[1.3969694,44.44670601],[1.3987516,44.44639788],[1.39962607,44.44632054],[1.40217477,44.44646287],[1.40317978,44.44670343],[1.40178187,44.44760155],[1.40143251,44.44791072],[1.40089834,44.44924364],[1.40052371,44.44982345],[1.40030259,44.45061978],[1.40001648,44.45104691],[1.39820373,44.45256203],[1.39715123,44.45332917],[1.39667873,44.45376708],[1.39646995,44.45417012],[1.39663746,44.45438054],[1.39760734,44.45462245],[1.3980049,44.45483261],[1.39845697,44.45493822],[1.39854033,44.45514652],[1.39875535,44.4552775],[1.39888767,44.45566569],[1.39903699,44.45580831],[1.39916249,44.45688159],[1.40012579,44.45829117],[1.40026249,44.45883609],[1.40049292,44.4590006],[1.40063437,44.45928898],[1.40061453,44.45959032],[1.40085319,44.46017543],[1.40089079,44.46053523],[1.40078557,44.46069937],[1.40040993,44.46095683],[1.40038316,44.46110321],[1.40098492,44.46187457],[1.40079741,44.4622365],[1.40095533,44.46287627],[1.40534952,44.46309568],[1.40787577,44.46272342],[1.40838676,44.46270379],[1.4094809,44.46287084],[1.41044594,44.4632026],[1.41111236,44.46382626],[1.41214486,44.46386095],[1.41381391,44.46329973],[1.41396738,44.46316237],[1.41413507,44.46323502],[1.41476612,44.46314865],[1.41759509,44.46305334],[1.42008925,44.46315123],[1.42060816,44.46307313],[1.42149811,44.46271942],[1.42210238,44.46318637],[1.42254799,44.46370776],[1.4229633,44.463693],[1.42465413,44.46424119],[1.4246038,44.46410722],[1.42504481,44.46362101],[1.4259624,44.46308668],[1.42770057,44.46175191],[1.42837925,44.46117184],[1.42890505,44.46057338],[1.4290894,44.45986561],[1.42911835,44.45914032],[1.42900441,44.45835447],[1.42872074,44.45761481],[1.42864392,44.45716713],[1.42861563,44.45551634],[1.42864098,44.45419675],[1.42884167,44.45181451],[1.42921226,44.45023874],[1.43008854,44.44823979],[1.43120215,44.445975],[1.43159029,44.44503153],[1.43192207,44.44430695],[1.43251056,44.4432988],[1.4330273,44.44256605],[1.43394943,44.44153473],[1.43428974,44.44127215],[1.43472547,44.44101273],[1.43514319,44.4408593],[1.43554082,44.4407506],[1.43634992,44.44066844],[1.43755463,44.43927645],[1.43760666,44.43916734],[1.43857255,44.43809339],[1.43926958,44.43738027],[1.44110588,44.43572798],[1.44162792,44.43516093],[1.44190239,44.43477675],[1.442191,44.43410736],[1.44232009,44.43361759],[1.4423728,44.43288994],[1.4422961,44.43234413],[1.44203724,44.43156886],[1.44176662,44.43112926],[1.44139401,44.4306522],[1.43993822,44.42922072],[1.43957846,44.42877985],[1.43925062,44.42822959],[1.43977765,44.42807229],[1.4403219,44.42774596],[1.44051023,44.42756855],[1.44065604,44.42738424],[1.44093715,44.42675797],[1.44114651,44.426182],[1.4411558,44.42589041],[1.44144347,44.42570991]]]]},"bbox":[1.37248654,44.40338662,1.4423728,44.46424119]},{"type":"Feature","id":"fr-quartier-46042-293b4a5bd979","properties":{"id":"fr-quartier-46042-293b4a5bd979","kind":"quartier","name":"Cabessut","cityCode":"46042","cityName":"Cahors","sourceType":"iris","sourceIds":["460420201"],"colorIndex":1,"center":[1.4462611104062444,44.45886720641918]},"geometry":{"type":"MultiPolygon","coordinates":[[[[1.44138046,44.46480306],[1.44182847,44.4650615],[1.44569138,44.46641437],[1.44706941,44.46700913],[1.4477084,44.46635816],[1.44801831,44.46615273],[1.44824731,44.46605511],[1.44823073,44.46597204],[1.44790969,44.46571272],[1.44772018,44.46542553],[1.44773694,44.46536454],[1.44784473,44.46533095],[1.44790587,44.46539393],[1.44796735,44.4653984],[1.44845493,44.46527021],[1.45148561,44.4643296],[1.4520981,44.4640924],[1.45244244,44.46391446],[1.45253812,44.4639095],[1.45255956,44.46386118],[1.4537126,44.46339656],[1.45537774,44.46259426],[1.45655382,44.46188233],[1.45358841,44.45952501],[1.45073483,44.4567199],[1.45033932,44.45651896],[1.44922775,44.45616299],[1.44890649,44.45595949],[1.44867068,44.45571127],[1.44851565,44.45540566],[1.44847873,44.45514764],[1.44859448,44.45312793],[1.44844183,44.44948288],[1.4484372,44.44942249],[1.44815622,44.44944735],[1.44644096,44.44924761],[1.4456354,44.44924256],[1.44524776,44.44916956],[1.44512324,44.44921823],[1.44502995,44.4491827],[1.44501725,44.44909608],[1.44433423,44.44893158],[1.44337766,44.45089709],[1.44266046,44.45192779],[1.44154207,44.45323823],[1.44077685,44.45445822],[1.44018939,44.45552135],[1.43986235,44.45671332],[1.43970809,44.45815804],[1.43967197,44.45996818],[1.4397517,44.46231839],[1.44000455,44.46372566],[1.44054385,44.46432034],[1.44138046,44.46480306]]]]},"bbox":[1.43967197,44.44893158,1.45655382,44.46700913]},{"type":"Feature","id":"fr-quartier-46042-bf66cafb793e","properties":{"id":"fr-quartier-46042-bf66cafb793e","kind":"quartier","name":"Charles de Gaulle","cityCode":"46042","cityName":"Cahors","sourceType":"iris","sourceIds":["460420102"],"colorIndex":2,"center":[1.4357926262570953,44.45076239538135]},"geometry":{"type":"MultiPolygon","coordinates":[[[[1.43123614,44.45258873],[1.43191085,44.45423161],[1.43232315,44.45473088],[1.43240059,44.45488504],[1.43234354,44.45512913],[1.43275247,44.45511514],[1.43283155,44.45516488],[1.43295926,44.45536478],[1.43295845,44.45548452],[1.43283455,44.45560071],[1.43236856,44.45572284],[1.43225841,44.45584192],[1.43228558,44.45599537],[1.43268603,44.45624237],[1.43289477,44.45619491],[1.43336426,44.45562895],[1.43358721,44.45556729],[1.43393788,44.45556957],[1.43383851,44.45493609],[1.43369443,44.45469185],[1.43340955,44.45440238],[1.43338834,44.45426072],[1.4340318,44.45417532],[1.43715288,44.45459057],[1.43722794,44.45464926],[1.4379755,44.45484533],[1.43816118,44.45494971],[1.43827811,44.45494866],[1.43837406,44.45502475],[1.4387674,44.45457384],[1.43975157,44.45261865],[1.43994946,44.4520065],[1.44003938,44.45148106],[1.43997783,44.44929228],[1.44010332,44.44802363],[1.44023046,44.44742398],[1.43924141,44.4474649],[1.43941328,44.4468848],[1.43745722,44.44666981],[1.43624876,44.44660045],[1.43616878,44.446584],[1.43624791,44.44649509],[1.43614726,44.44645315],[1.43544727,44.44631356],[1.43535692,44.44653557],[1.43458418,44.44639044],[1.43356694,44.44613379],[1.43208454,44.44955393],[1.43169978,44.45028406],[1.43140554,44.45146657],[1.43123614,44.45258873]]]]},"bbox":[1.43123614,44.44613379,1.44023046,44.45624237]},{"type":"Feature","id":"fr-quartier-46042-75707c15e956","properties":{"id":"fr-quartier-46042-75707c15e956","kind":"quartier","name":"Fénelon","cityCode":"46042","cityName":"Cahors","sourceType":"iris","sourceIds":["460420101"],"colorIndex":3,"center":[1.437418613416133,44.44379281486704]},"geometry":{"type":"MultiPolygon","coordinates":[[[[1.43159029,44.44503153],[1.43269801,44.44528769],[1.43368902,44.44540172],[1.43356694,44.44613379],[1.43458418,44.44639044],[1.43535692,44.44653557],[1.43544727,44.44631356],[1.43614726,44.44645315],[1.43624791,44.44649509],[1.43616878,44.446584],[1.43624876,44.44660045],[1.43745722,44.44666981],[1.43941328,44.4468848],[1.43924141,44.4474649],[1.44023046,44.44742398],[1.44034055,44.44721485],[1.44116144,44.44611541],[1.44136898,44.44574469],[1.44164781,44.44461147],[1.44210555,44.44323317],[1.44219898,44.44298959],[1.44235859,44.44294413],[1.44236308,44.44287216],[1.44227045,44.44281323],[1.44266213,44.4416879],[1.4394551,44.44099607],[1.4373821,44.44065427],[1.43634992,44.44066844],[1.43554082,44.4407506],[1.43514319,44.4408593],[1.43472547,44.44101273],[1.43428974,44.44127215],[1.43394943,44.44153473],[1.4330273,44.44256605],[1.43251056,44.4432988],[1.43192207,44.44430695],[1.43159029,44.44503153]]]]},"bbox":[1.43159029,44.44065427,1.44266213,44.4474649]},{"type":"Feature","id":"fr-quartier-46042-32758cd2ddd0","properties":{"id":"fr-quartier-46042-32758cd2ddd0","kind":"quartier","name":"Les Badernes","cityCode":"46042","cityName":"Cahors","sourceType":"iris","sourceIds":["460420104"],"colorIndex":4,"center":[1.4420101439982662,44.45013744551385]},"geometry":{"type":"MultiPolygon","coordinates":[[[[1.4400301,44.46512341],[1.44138046,44.46480306],[1.44054385,44.46432034],[1.44000455,44.46372566],[1.4397517,44.46231839],[1.43967197,44.45996818],[1.43970809,44.45815804],[1.43986235,44.45671332],[1.44018939,44.45552135],[1.44077685,44.45445822],[1.44154207,44.45323823],[1.44266046,44.45192779],[1.44337766,44.45089709],[1.44433423,44.44893158],[1.44460343,44.44832943],[1.4451401,44.44773646],[1.44630369,44.44623754],[1.44657595,44.44570566],[1.4466701,44.44529822],[1.44650878,44.44435326],[1.44621017,44.44378542],[1.44565155,44.44312118],[1.44469504,44.44248463],[1.44266213,44.4416879],[1.44227045,44.44281323],[1.44236308,44.44287216],[1.44235859,44.44294413],[1.44219898,44.44298959],[1.44210555,44.44323317],[1.44164781,44.44461147],[1.44136898,44.44574469],[1.44116144,44.44611541],[1.44034055,44.44721485],[1.44023046,44.44742398],[1.44010332,44.44802363],[1.43997783,44.44929228],[1.44003938,44.45148106],[1.43994946,44.4520065],[1.43975157,44.45261865],[1.4387674,44.45457384],[1.43837406,44.45502475],[1.4384785,44.45515769],[1.43848242,44.45524328],[1.43841646,44.45804161],[1.4384965,44.45996865],[1.43883015,44.46227293],[1.43890461,44.46249008],[1.4390172,44.46251058],[1.43902595,44.46269438],[1.43946109,44.46423839],[1.4400301,44.46512341]]]]},"bbox":[1.43837406,44.4416879,1.4466701,44.46512341]},{"type":"Feature","id":"fr-quartier-46042-da92f203d77d","properties":{"id":"fr-quartier-46042-da92f203d77d","kind":"quartier","name":"Plaine de la Barre","cityCode":"46042","cityName":"Cahors","sourceType":"iris","sourceIds":["460420103"],"colorIndex":5,"center":[1.4340975323285161,44.460646978367976]},"geometry":{"type":"MultiPolygon","coordinates":[[[[1.43837406,44.45502475],[1.43827811,44.45494866],[1.43816118,44.45494971],[1.4379755,44.45484533],[1.43722794,44.45464926],[1.43715288,44.45459057],[1.4340318,44.45417532],[1.43338834,44.45426072],[1.43340955,44.45440238],[1.43369443,44.45469185],[1.43383851,44.45493609],[1.43393788,44.45556957],[1.43358721,44.45556729],[1.43336426,44.45562895],[1.43289477,44.45619491],[1.43268603,44.45624237],[1.43228558,44.45599537],[1.43225841,44.45584192],[1.43236856,44.45572284],[1.43283455,44.45560071],[1.43295845,44.45548452],[1.43295926,44.45536478],[1.43283155,44.45516488],[1.43275247,44.45511514],[1.43234354,44.45512913],[1.43240059,44.45488504],[1.43232315,44.45473088],[1.43191085,44.45423161],[1.43123614,44.45258873],[1.43153863,44.45405524],[1.43163867,44.45430067],[1.43136338,44.4546632],[1.43130766,44.45490461],[1.43125582,44.45645612],[1.43027793,44.45916854],[1.4302188,44.45953235],[1.42972578,44.46049054],[1.42882036,44.46154008],[1.42799734,44.46220183],[1.4275211,44.46269025],[1.42715223,44.46320541],[1.42681074,44.46391093],[1.42860231,44.46427413],[1.4285189,44.46478706],[1.428988,44.46505395],[1.42919959,44.46522174],[1.43000055,44.4651287],[1.43016419,44.46466914],[1.43099649,44.4647152],[1.4319671,44.46498742],[1.4318515,44.46598249],[1.43173327,44.46621041],[1.4322787,44.46667286],[1.43260826,44.46639572],[1.43302236,44.46619812],[1.43390692,44.46603782],[1.43501365,44.46593649],[1.43569581,44.46582011],[1.43627085,44.46562208],[1.43734484,44.46511239],[1.43855125,44.46476933],[1.4389175,44.46548402],[1.4400301,44.46512341],[1.43946109,44.46423839],[1.43902595,44.46269438],[1.4390172,44.46251058],[1.43890461,44.46249008],[1.43883015,44.46227293],[1.4384965,44.45996865],[1.43841646,44.45804161],[1.43848242,44.45524328],[1.4384785,44.45515769],[1.43837406,44.45502475]]]]},"bbox":[1.42681074,44.45258873,1.4400301,44.46667286]},{"type":"Feature","id":"fr-quartier-46042-83a04f1b4020","properties":{"id":"fr-quartier-46042-83a04f1b4020","kind":"quartier","name":"Regourd","cityCode":"46042","cityName":"Cahors","sourceType":"iris","sourceIds":["460420601"],"colorIndex":6,"center":[1.4318413224261475,44.48724320847979]},"geometry":{"type":"MultiPolygon","coordinates":[[[[1.42465413,44.46424119],[1.42508446,44.46436439],[1.42304656,44.46683832],[1.42282736,44.4673493],[1.42274956,44.46788482],[1.42282275,44.46837117],[1.42405928,44.47128359],[1.42504476,44.4744103],[1.42511684,44.47570518],[1.4247543,44.47675615],[1.42448307,44.47701249],[1.42371736,44.47723294],[1.42123889,44.4774514],[1.41922445,44.47726497],[1.41810075,44.47702016],[1.41710539,44.47690773],[1.41398039,44.47668275],[1.41014264,44.47604584],[1.40907949,44.4760197],[1.4082344,44.47619928],[1.40759985,44.47649355],[1.40702602,44.47708763],[1.4067143,44.47766207],[1.40639061,44.47910703],[1.4064543,44.47956895],[1.40702237,44.48047484],[1.40816784,44.48182306],[1.40880991,44.4829164],[1.40887743,44.48382407],[1.40875164,44.48449485],[1.40856977,44.48496853],[1.40752191,44.48667046],[1.40685207,44.48843546],[1.40594291,44.49025553],[1.4046744,44.49188041],[1.4055736,44.49282352],[1.40641816,44.49485802],[1.40702597,44.49574288],[1.40754802,44.49596652],[1.40778701,44.49632472],[1.4081626,44.49652283],[1.40937795,44.49660789],[1.41180443,44.49750993],[1.41208596,44.49769857],[1.41262928,44.49837538],[1.412396,44.49911125],[1.41173638,44.50024436],[1.41168322,44.50065868],[1.41199367,44.50174363],[1.41275168,44.50275128],[1.41292848,44.50362361],[1.41285789,44.50443475],[1.41138708,44.50600099],[1.41077606,44.5064766],[1.41043584,44.50662837],[1.40959808,44.50675496],[1.40950904,44.50669965],[1.40958146,44.50636214],[1.41014355,44.50610553],[1.41055146,44.50547032],[1.40994506,44.50582624],[1.40908715,44.5058643],[1.40881032,44.50595485],[1.40802581,44.50682592],[1.40807889,44.50704099],[1.40842273,44.50747544],[1.40882742,44.50771538],[1.4090832,44.50850692],[1.40933278,44.50866989],[1.41058248,44.50901925],[1.41073953,44.50916197],[1.41072595,44.50937607],[1.41247717,44.50961108],[1.41377196,44.50996915],[1.41438495,44.51005179],[1.41667921,44.50972368],[1.41812561,44.50961117],[1.41893625,44.50969032],[1.41978223,44.50981049],[1.42116532,44.51025257],[1.42235317,44.51074768],[1.423474,44.51134535],[1.43088642,44.51212812],[1.4312707,44.51202013],[1.43270309,44.51091679],[1.43357431,44.51040063],[1.43677503,44.50905041],[1.43750442,44.50865556],[1.43839189,44.50832238],[1.44005036,44.50786323],[1.44402471,44.50596009],[1.44432802,44.50572847],[1.44458404,44.50538632],[1.44516188,44.50423116],[1.44553574,44.50390419],[1.44640832,44.50337624],[1.44724026,44.50313585],[1.44854854,44.50305071],[1.44959589,44.50289166],[1.44960817,44.50294855],[1.44993361,44.50278025],[1.45088075,44.50200842],[1.45157225,44.50165797],[1.45132342,44.50114305],[1.45146644,44.50088215],[1.45180573,44.49823346],[1.45074634,44.49672395],[1.44979114,44.49513305],[1.44958941,44.49446213],[1.44962018,44.49398265],[1.44986247,44.49335849],[1.4505138,44.4928175],[1.4513964,44.49159457],[1.45266081,44.48910474],[1.45274827,44.48866658],[1.45262877,44.48595655],[1.45303611,44.48527347],[1.45340802,44.48496536],[1.45399524,44.48464855],[1.45455061,44.48393243],[1.45473277,44.48324979],[1.45450306,44.48235969],[1.45624385,44.48212297],[1.45670445,44.48188181],[1.45725373,44.48106384],[1.45804572,44.47955418],[1.45818378,44.47910322],[1.4584202,44.47592188],[1.45948496,44.47422785],[1.45874109,44.47406889],[1.4588658,44.47387615],[1.45736519,44.47352383],[1.45896025,44.47114933],[1.45752023,44.47069882],[1.45541425,44.46972574],[1.4517369,44.46888093],[1.44881281,44.46776118],[1.44706941,44.46700913],[1.44569138,44.46641437],[1.44182847,44.4650615],[1.44138046,44.46480306],[1.4400301,44.46512341],[1.4389175,44.46548402],[1.43855125,44.46476933],[1.43734484,44.46511239],[1.43627085,44.46562208],[1.43569581,44.46582011],[1.43501365,44.46593649],[1.43390692,44.46603782],[1.43302236,44.46619812],[1.43260826,44.46639572],[1.4322787,44.46667286],[1.43173327,44.46621041],[1.4318515,44.46598249],[1.4319671,44.46498742],[1.43099649,44.4647152],[1.43016419,44.46466914],[1.43000055,44.4651287],[1.42919959,44.46522174],[1.428988,44.46505395],[1.4285189,44.46478706],[1.42860231,44.46427413],[1.42681074,44.46391093],[1.42715223,44.46320541],[1.4275211,44.46269025],[1.42799734,44.46220183],[1.42882036,44.46154008],[1.42972578,44.46049054],[1.4302188,44.45953235],[1.43027793,44.45916854],[1.43125582,44.45645612],[1.43130766,44.45490461],[1.43136338,44.4546632],[1.43163867,44.45430067],[1.43153863,44.45405524],[1.43123614,44.45258873],[1.43140554,44.45146657],[1.43169978,44.45028406],[1.43208454,44.44955393],[1.43356694,44.44613379],[1.43368902,44.44540172],[1.43269801,44.44528769],[1.43159029,44.44503153],[1.43120215,44.445975],[1.43008854,44.44823979],[1.42921226,44.45023874],[1.42884167,44.45181451],[1.42864098,44.45419675],[1.42861563,44.45551634],[1.42864392,44.45716713],[1.42872074,44.45761481],[1.42900441,44.45835447],[1.42911835,44.45914032],[1.4290894,44.45986561],[1.42890505,44.46057338],[1.42837925,44.46117184],[1.42770057,44.46175191],[1.4259624,44.46308668],[1.42504481,44.46362101],[1.4246038,44.46410722],[1.42465413,44.46424119]]]]},"bbox":[1.4046744,44.44503153,1.45948496,44.51212812]},{"type":"Feature","id":"fr-quartier-46042-b81bf0a3ac0a","properties":{"id":"fr-quartier-46042-b81bf0a3ac0a","kind":"quartier","name":"Saint-Georges","cityCode":"46042","cityName":"Cahors","sourceType":"iris","sourceIds":["460420401"],"colorIndex":7,"center":[1.4690671608409358,44.43347758801588]},"geometry":{"type":"MultiPolygon","coordinates":[[[[1.50491204,44.42912754],[1.50432416,44.42969219],[1.50358902,44.43017109],[1.50264441,44.43096768],[1.50230073,44.43108725],[1.5013738,44.43093059],[1.50066337,44.43009621],[1.50039366,44.42993768],[1.49968535,44.42978218],[1.49941285,44.43001346],[1.49800536,44.43040034],[1.4974747,44.43046333],[1.49536593,44.43047687],[1.49324906,44.43032279],[1.49229905,44.43013783],[1.4918369,44.43012881],[1.49041079,44.43059907],[1.48897938,44.4307028],[1.48869559,44.43078984],[1.48738801,44.43157231],[1.4868112,44.43176247],[1.48644359,44.43070851],[1.48471595,44.42897049],[1.48376846,44.42827139],[1.48342513,44.42790832],[1.48309184,44.42726448],[1.48325053,44.4265941],[1.48321823,44.42629924],[1.48211618,44.4250884],[1.48134601,44.42485449],[1.48023082,44.42507051],[1.4798986,44.42527751],[1.47687577,44.4245758],[1.47462997,44.42529923],[1.47414807,44.42481266],[1.47374087,44.42458464],[1.47243761,44.4243667],[1.47192805,44.42420747],[1.4707741,44.4240438],[1.47097509,44.42344065],[1.47164807,44.42280534],[1.47155052,44.42213772],[1.47161637,44.42174608],[1.47181645,44.42098986],[1.47218667,44.42035304],[1.4724343,44.42020792],[1.47353538,44.42004671],[1.4751745,44.41945267],[1.47584454,44.41873626],[1.47629678,44.41789708],[1.4767012,44.41743359],[1.47784569,44.41640321],[1.47875307,44.416061],[1.47908598,44.41559292],[1.47902192,44.41531202],[1.47886787,44.41520186],[1.47624789,44.41397448],[1.4748873,44.41309582],[1.47404592,44.41271502],[1.47262412,44.41224514],[1.47095399,44.41139005],[1.46963431,44.41016525],[1.46853354,44.40832585],[1.46840262,44.40666558],[1.46784542,44.40595286],[1.46790673,44.40582226],[1.46776727,44.40466428],[1.46720434,44.40342207],[1.46730744,44.40300034],[1.46814503,44.40202971],[1.46803386,44.40089373],[1.46776397,44.40130684],[1.46655828,44.40195811],[1.46559311,44.40272347],[1.4647622,44.40316837],[1.46434085,44.40309857],[1.46304845,44.40333264],[1.46117873,44.4035055],[1.45935251,44.40443254],[1.45915755,44.4043974],[1.45859219,44.40408157],[1.45718333,44.40457774],[1.45622278,44.40466062],[1.45367423,44.4065084],[1.45313486,44.40662057],[1.45063179,44.40776395],[1.45022654,44.40783928],[1.44958136,44.40805349],[1.44941964,44.40817996],[1.44804086,44.40858011],[1.44732906,44.40929936],[1.44645384,44.41052591],[1.44581985,44.41243472],[1.44591864,44.41304566],[1.44582959,44.41372687],[1.44465246,44.41455389],[1.44350533,44.41511121],[1.44323785,44.41533612],[1.44283417,44.4160372],[1.44278685,44.41666138],[1.44263052,44.41709224],[1.44163066,44.41791003],[1.44081724,44.4188448],[1.44064777,44.41943304],[1.44063513,44.42021077],[1.44085816,44.42077935],[1.44202339,44.42198791],[1.44272462,44.4224372],[1.44315385,44.42281872],[1.44430223,44.42441507],[1.44385826,44.42470592],[1.44241058,44.4252653],[1.44165901,44.42573006],[1.44144347,44.42570991],[1.4411558,44.42589041],[1.44114651,44.426182],[1.44093715,44.42675797],[1.44065604,44.42738424],[1.44051023,44.42756855],[1.4403219,44.42774596],[1.43977765,44.42807229],[1.43925062,44.42822959],[1.43957846,44.42877985],[1.43993822,44.42922072],[1.44139401,44.4306522],[1.44176662,44.43112926],[1.44203724,44.43156886],[1.4422961,44.43234413],[1.4423728,44.43288994],[1.44232009,44.43361759],[1.442191,44.43410736],[1.44190239,44.43477675],[1.44162792,44.43516093],[1.44110588,44.43572798],[1.43926958,44.43738027],[1.43857255,44.43809339],[1.43760666,44.43916734],[1.43755463,44.43927645],[1.43634992,44.44066844],[1.4373821,44.44065427],[1.4394551,44.44099607],[1.44266213,44.4416879],[1.44469504,44.44248463],[1.44565155,44.44312118],[1.44621017,44.44378542],[1.44650878,44.44435326],[1.4466701,44.44529822],[1.44657595,44.44570566],[1.44630369,44.44623754],[1.4451401,44.44773646],[1.44460343,44.44832943],[1.44433423,44.44893158],[1.44501725,44.44909608],[1.44502995,44.4491827],[1.44512324,44.44921823],[1.44524776,44.44916956],[1.4456354,44.44924256],[1.44644096,44.44924761],[1.44815622,44.44944735],[1.4484372,44.44942249],[1.44844183,44.44948288],[1.44851593,44.44953074],[1.44855876,44.4496646],[1.44870313,44.44976297],[1.44891279,44.44968039],[1.44909682,44.44966137],[1.45054734,44.4497529],[1.45121827,44.44971731],[1.45306159,44.44992327],[1.4534693,44.44990648],[1.45365634,44.44982357],[1.45383998,44.44981895],[1.45419428,44.44973298],[1.45441362,44.4498477],[1.45515916,44.45007154],[1.45593743,44.45043179],[1.45654067,44.45057349],[1.45683876,44.45070462],[1.45753115,44.45085026],[1.45773592,44.45094677],[1.45805708,44.45092335],[1.4581011,44.45087625],[1.45817918,44.45087104],[1.45842698,44.45091052],[1.45918806,44.45088785],[1.46003573,44.45063949],[1.46034511,44.45040251],[1.46125843,44.45060524],[1.46585849,44.44848868],[1.46624177,44.44825992],[1.46663058,44.44838327],[1.46512664,44.44989026],[1.46487661,44.45034957],[1.46402778,44.45115077],[1.46690058,44.45261155],[1.47028071,44.45209848],[1.4733115,44.4531156],[1.47290369,44.45369429],[1.47563571,44.45437496],[1.47580714,44.4535643],[1.47583172,44.45283895],[1.47593909,44.45258653],[1.47645902,44.45293045],[1.4768992,44.45310851],[1.47735052,44.45310664],[1.47761551,44.45306888],[1.47854002,44.45276562],[1.47884266,44.45268336],[1.47904648,44.45267627],[1.47927411,44.45271903],[1.47964592,44.45286911],[1.48044826,44.45332316],[1.48117645,44.45340252],[1.48165266,44.45331634],[1.48181881,44.45363556],[1.48175495,44.45409477],[1.48178307,44.4542176],[1.48185443,44.45432213],[1.48228595,44.45468372],[1.48247749,44.45508792],[1.48244387,44.45530984],[1.48208773,44.45579294],[1.48207043,44.45592235],[1.48226785,44.45676331],[1.48209202,44.45722548],[1.48218327,44.45766611],[1.4820565,44.45789306],[1.48180894,44.45817056],[1.48192658,44.45851792],[1.48210414,44.45944324],[1.48226594,44.45959763],[1.48270354,44.45978103],[1.48357469,44.46057994],[1.48368308,44.4605229],[1.48395626,44.46069683],[1.48420995,44.46080026],[1.48487795,44.46097151],[1.48502932,44.46104652],[1.48577028,44.46187333],[1.4864702,44.46254381],[1.48644331,44.46260917],[1.48754288,44.46182834],[1.4886,44.46089475],[1.48925586,44.45996826],[1.48935142,44.45996777],[1.49006758,44.4588062],[1.49156953,44.45745191],[1.4926977,44.45705408],[1.49339935,44.4569052],[1.49447108,44.45678479],[1.49511409,44.45680798],[1.49548873,44.45619274],[1.49616144,44.45547713],[1.49672911,44.45511843],[1.49739625,44.45484751],[1.49828036,44.45369629],[1.50015089,44.45302938],[1.50048524,44.45127553],[1.49971621,44.44975066],[1.49933494,44.44919805],[1.49904878,44.44894566],[1.49819973,44.44859106],[1.49726712,44.44844869],[1.49749318,44.4475091],[1.49784143,44.44674854],[1.49630652,44.44666459],[1.49497103,44.44621869],[1.49577973,44.44553645],[1.49693938,44.44522094],[1.49816336,44.44508547],[1.498875,44.44488538],[1.49942922,44.4443185],[1.50072007,44.44360318],[1.50192636,44.44271022],[1.5024691,44.4424799],[1.50325453,44.4422916],[1.5037898,44.44224844],[1.50517319,44.44268768],[1.50548196,44.44270268],[1.50525451,44.44227372],[1.50523971,44.44164507],[1.50512112,44.44137696],[1.50549006,44.44111186],[1.50553112,44.44079459],[1.50537206,44.44034586],[1.50500127,44.43992036],[1.50486375,44.43960788],[1.50449507,44.43781927],[1.50479089,44.43589833],[1.50458994,44.43413542],[1.50441691,44.43340829],[1.50445225,44.43264167],[1.50431926,44.43187367],[1.50406694,44.43115176],[1.5049857,44.42981101],[1.50491204,44.42912754]]]]},"bbox":[1.43634992,44.40089373,1.50553112,44.46260917]},{"type":"Feature","id":"fr-quartier-46042-d4952d58ec45","properties":{"id":"fr-quartier-46042-d4952d58ec45","kind":"quartier","name":"Terre Rouge","cityCode":"46042","cityName":"Cahors","sourceType":"iris","sourceIds":["460420301"],"colorIndex":8,"center":[1.466053909051281,44.46148584817777]},"geometry":{"type":"MultiPolygon","coordinates":[[[[1.45896025,44.47114933],[1.45900089,44.47108867],[1.46026376,44.47158082],[1.46158642,44.47190991],[1.46225534,44.47218845],[1.46489584,44.47367485],[1.46571626,44.47397889],[1.4674052,44.47434452],[1.46877843,44.47457428],[1.46979839,44.47466227],[1.47111998,44.47452394],[1.47203855,44.47426926],[1.47276534,44.47394439],[1.474257,44.47281527],[1.4759819,44.47082138],[1.47681997,44.46991098],[1.47777202,44.46906248],[1.47928392,44.46810734],[1.48007045,44.46747352],[1.4833567,44.46453585],[1.48514137,44.46329267],[1.48644331,44.46260917],[1.4864702,44.46254381],[1.48577028,44.46187333],[1.48502932,44.46104652],[1.48487795,44.46097151],[1.48420995,44.46080026],[1.48395626,44.46069683],[1.48368308,44.4605229],[1.48357469,44.46057994],[1.48270354,44.45978103],[1.48226594,44.45959763],[1.48210414,44.45944324],[1.48192658,44.45851792],[1.48180894,44.45817056],[1.4820565,44.45789306],[1.48218327,44.45766611],[1.48209202,44.45722548],[1.48226785,44.45676331],[1.48207043,44.45592235],[1.48208773,44.45579294],[1.48244387,44.45530984],[1.48247749,44.45508792],[1.48228595,44.45468372],[1.48185443,44.45432213],[1.48178307,44.4542176],[1.48175495,44.45409477],[1.48181881,44.45363556],[1.48165266,44.45331634],[1.48117645,44.45340252],[1.48044826,44.45332316],[1.47964592,44.45286911],[1.47927411,44.45271903],[1.47904648,44.45267627],[1.47884266,44.45268336],[1.47854002,44.45276562],[1.47761551,44.45306888],[1.47735052,44.45310664],[1.4768992,44.45310851],[1.47645902,44.45293045],[1.47593909,44.45258653],[1.47583172,44.45283895],[1.47580714,44.4535643],[1.47563571,44.45437496],[1.47290369,44.45369429],[1.4733115,44.4531156],[1.47028071,44.45209848],[1.46690058,44.45261155],[1.46402778,44.45115077],[1.46487661,44.45034957],[1.46512664,44.44989026],[1.46663058,44.44838327],[1.46624177,44.44825992],[1.46585849,44.44848868],[1.46125843,44.45060524],[1.46034511,44.45040251],[1.46003573,44.45063949],[1.45918806,44.45088785],[1.45842698,44.45091052],[1.45817918,44.45087104],[1.4581011,44.45087625],[1.45805708,44.45092335],[1.45773592,44.45094677],[1.45753115,44.45085026],[1.45683876,44.45070462],[1.45654067,44.45057349],[1.45593743,44.45043179],[1.45515916,44.45007154],[1.45441362,44.4498477],[1.45419428,44.44973298],[1.45383998,44.44981895],[1.45365634,44.44982357],[1.4534693,44.44990648],[1.45306159,44.44992327],[1.45121827,44.44971731],[1.45054734,44.4497529],[1.44909682,44.44966137],[1.44891279,44.44968039],[1.44870313,44.44976297],[1.44855876,44.4496646],[1.44851593,44.44953074],[1.44844183,44.44948288],[1.44859448,44.45312793],[1.44847873,44.45514764],[1.44851565,44.45540566],[1.44867068,44.45571127],[1.44890649,44.45595949],[1.44922775,44.45616299],[1.45033932,44.45651896],[1.45073483,44.4567199],[1.45358841,44.45952501],[1.45655382,44.46188233],[1.45537774,44.46259426],[1.4537126,44.46339656],[1.45255956,44.46386118],[1.45253812,44.4639095],[1.45244244,44.46391446],[1.4520981,44.4640924],[1.45148561,44.4643296],[1.44845493,44.46527021],[1.44796735,44.4653984],[1.44790587,44.46539393],[1.44784473,44.46533095],[1.44773694,44.46536454],[1.44772018,44.46542553],[1.44790969,44.46571272],[1.44823073,44.46597204],[1.44824731,44.46605511],[1.44801831,44.46615273],[1.4477084,44.46635816],[1.44706941,44.46700913],[1.44881281,44.46776118],[1.4517369,44.46888093],[1.45541425,44.46972574],[1.45752023,44.47069882],[1.45896025,44.47114933]]]]},"bbox":[1.44706941,44.44825992,1.4864702,44.47466227]}]}