{"type":"FeatureCollection","metadata":{"sourceType":"iris","referenceFile":"beaufort-en-anjou-quartiers.geojson","source":"IGN / INSEE - Contours IRIS WFS Géoplateforme","sourceUrl":"https://geoservices.ign.fr/contoursiris","license":"Licence Ouverte / Open Licence 2.0","sourceYear":"2026"},"features":[{"type":"Feature","id":"fr-quartier-49021-2727ae1d3b81","properties":{"id":"fr-quartier-49021-2727ae1d3b81","kind":"quartier","name":"Beaufort Agglomération","cityCode":"49021","cityName":"Beaufort-en-Anjou","sourceType":"iris","sourceIds":["490210101"],"colorIndex":0,"center":[-0.2160136343622315,47.43928862118855]},"geometry":{"type":"MultiPolygon","coordinates":[[[[-0.23243801,47.44124456],[-0.23223209,47.44139714],[-0.23209439,47.44144781],[-0.23186801,47.44145951],[-0.22470417,47.44052134],[-0.22468296,47.44182288],[-0.22487527,47.44208332],[-0.22529818,47.44288694],[-0.22240385,47.44309779],[-0.22230363,47.44315372],[-0.2222196,47.44356687],[-0.22063352,47.44384684],[-0.21971965,47.44377754],[-0.21885593,47.44405641],[-0.21808765,47.44413352],[-0.21677827,47.4441346],[-0.21540613,47.44401937],[-0.21525724,47.44395051],[-0.21162915,47.44293358],[-0.21107977,47.44360462],[-0.21093883,47.44357968],[-0.21085629,47.44366485],[-0.20924589,47.44376154],[-0.20893384,47.44382871],[-0.20847499,47.44399452],[-0.20764357,47.44439223],[-0.20673778,47.44467937],[-0.20603211,47.44504838],[-0.20580369,47.44522585],[-0.20572359,47.4452632],[-0.20555133,47.44526975],[-0.20547961,47.4452474],[-0.20548826,47.44508139],[-0.20501085,47.44327377],[-0.20605392,47.44303962],[-0.20618264,47.44292706],[-0.20943609,47.44259229],[-0.20935871,47.44205477],[-0.20955755,47.44169432],[-0.20957963,47.44155316],[-0.20974642,47.44149991],[-0.21018361,47.44101756],[-0.20943577,47.44059314],[-0.20902282,47.43995136],[-0.20866557,47.43952967],[-0.20855384,47.43959311],[-0.20844887,47.43956988],[-0.20842102,47.4396148],[-0.20492843,47.43990027],[-0.2046909,47.43990321],[-0.20446982,47.43984804],[-0.20417065,47.43964186],[-0.2039028,47.4387384],[-0.20330188,47.43606298],[-0.20319746,47.43580459],[-0.20298125,47.43554206],[-0.20287422,47.43532879],[-0.20283634,47.43511721],[-0.20286635,47.4349308],[-0.20306369,47.4344785],[-0.20380635,47.43439678],[-0.20396552,47.43450502],[-0.20429612,47.43461573],[-0.20621693,47.43491777],[-0.21055099,47.43511894],[-0.21319808,47.4351981],[-0.22125369,47.43563567],[-0.22260886,47.43564858],[-0.2231542,47.43561996],[-0.22328695,47.43568565],[-0.22335565,47.43579006],[-0.22356861,47.43588686],[-0.22438597,47.43609755],[-0.22552431,47.43647862],[-0.22661233,47.43697189],[-0.22768702,47.437552],[-0.2281939,47.43789831],[-0.2287803,47.43837395],[-0.23111184,47.44048227],[-0.23190425,47.4409819],[-0.23243801,47.44124456]]]]},"bbox":[-0.23243801,47.43439678,-0.20283634,47.44526975]},{"type":"Feature","id":"fr-quartier-49021-b6773b346107","properties":{"id":"fr-quartier-49021-b6773b346107","kind":"quartier","name":"Beaufort-Écart","cityCode":"49021","cityName":"Beaufort-en-Anjou","sourceType":"iris","sourceIds":["490210102"],"colorIndex":1,"center":[-0.20629121,47.43122009]},"geometry":{"type":"MultiPolygon","coordinates":[[[[-0.2211801,47.41520888],[-0.22511966,47.41584926],[-0.22592644,47.41606563],[-0.22750634,47.41664434],[-0.22852256,47.4171639],[-0.22914811,47.41763214],[-0.23003872,47.41868764],[-0.23053042,47.41902715],[-0.231476,47.41943063],[-0.23313342,47.41983953],[-0.23580852,47.42034983],[-0.23793008,47.42055205],[-0.24134327,47.42071012],[-0.24195264,47.42084269],[-0.24265217,47.42106104],[-0.24559854,47.42225549],[-0.24813188,47.42340104],[-0.24866368,47.42380783],[-0.25024579,47.425443],[-0.25215265,47.42676184],[-0.25281659,47.42735412],[-0.25451483,47.42893013],[-0.25497099,47.42955433],[-0.25476206,47.43055123],[-0.25411628,47.43229102],[-0.25239454,47.43533575],[-0.2523984,47.43574918],[-0.25288761,47.43647968],[-0.25336272,47.43682497],[-0.2538929,47.43700565],[-0.25809664,47.43717448],[-0.25876914,47.4373151],[-0.26102564,47.43845554],[-0.261418,47.43874906],[-0.26236449,47.44050911],[-0.26258458,47.44080836],[-0.26315626,47.44123289],[-0.26224905,47.44175296],[-0.26198031,47.4423335],[-0.26182718,47.44302432],[-0.26161834,47.44330226],[-0.26145684,47.44337617],[-0.26112692,47.44332325],[-0.26076924,47.4436432],[-0.26028789,47.44382968],[-0.26004517,47.44381305],[-0.25700613,47.44775695],[-0.26086219,47.45027159],[-0.25994211,47.45077938],[-0.25839675,47.45092178],[-0.25826111,47.4513337],[-0.25776836,47.45170518],[-0.2571125,47.45199382],[-0.25654692,47.45282772],[-0.25487069,47.45230432],[-0.25392863,47.45256131],[-0.25213135,47.45240615],[-0.2510666,47.4535738],[-0.2515382,47.45401199],[-0.25155595,47.45463224],[-0.25108184,47.4549401],[-0.25021765,47.45516786],[-0.25041055,47.45530392],[-0.25027981,47.45531658],[-0.24975794,47.45549423],[-0.24873648,47.45602007],[-0.24777514,47.45637665],[-0.24721191,47.45525989],[-0.24460589,47.45524069],[-0.24452666,47.4542843],[-0.24483525,47.45365585],[-0.2447796,47.45332946],[-0.24462197,47.45333656],[-0.24285239,47.45374807],[-0.24223947,47.45408949],[-0.24199816,47.4541845],[-0.24170686,47.45419983],[-0.24109864,47.45415821],[-0.24000798,47.4543976],[-0.23968372,47.4545706],[-0.2393718,47.45483786],[-0.23904312,47.45500377],[-0.2385274,47.45506407],[-0.23780733,47.45490843],[-0.23696392,47.45495352],[-0.23694408,47.45513065],[-0.23665885,47.45520255],[-0.23639071,47.45538119],[-0.23622159,47.45605529],[-0.23441881,47.45602974],[-0.23432431,47.4553891],[-0.23375469,47.45545899],[-0.23307348,47.45535269],[-0.23294061,47.45539602],[-0.2326741,47.45568992],[-0.23183444,47.45588532],[-0.23090865,47.45564436],[-0.23037366,47.45582588],[-0.22983275,47.45586522],[-0.22861239,47.45620181],[-0.22815406,47.45624515],[-0.22787262,47.45642414],[-0.22724034,47.45653447],[-0.22714903,47.45660638],[-0.22623333,47.45692908],[-0.22614099,47.45698389],[-0.22603407,47.45717154],[-0.22592771,47.45721413],[-0.22455889,47.45731424],[-0.22422327,47.45741003],[-0.22355253,47.45745564],[-0.22306868,47.45758256],[-0.22272182,47.45760208],[-0.22220069,47.45757326],[-0.22081687,47.45832961],[-0.2200342,47.45865669],[-0.21969591,47.45884083],[-0.21936433,47.45895992],[-0.2186314,47.45914236],[-0.21816362,47.45920575],[-0.21799995,47.45937785],[-0.21783922,47.45966518],[-0.21736524,47.45978009],[-0.21703242,47.46003344],[-0.21676736,47.46011014],[-0.21626408,47.46022406],[-0.21560547,47.46014045],[-0.21476398,47.46048443],[-0.21432681,47.46050462],[-0.21343487,47.4608716],[-0.21281689,47.46093371],[-0.21236012,47.46109227],[-0.21188142,47.46143882],[-0.21193566,47.4616121],[-0.21148737,47.46239927],[-0.21138505,47.46246516],[-0.2105677,47.46250393],[-0.21015664,47.4631369],[-0.209454,47.46287339],[-0.20915818,47.46288065],[-0.20780558,47.46265577],[-0.20637972,47.46271579],[-0.20590279,47.46284875],[-0.20541173,47.46285687],[-0.20395227,47.46344302],[-0.2031889,47.46365142],[-0.20255103,47.46371492],[-0.20177392,47.4636273],[-0.20113385,47.4633431],[-0.20077194,47.46337828],[-0.19976508,47.46291407],[-0.19915556,47.46178486],[-0.19859698,47.46186328],[-0.19789898,47.46174282],[-0.19770525,47.4619022],[-0.19700931,47.4619051],[-0.19687043,47.46184856],[-0.19642282,47.4624951],[-0.19524236,47.46214823],[-0.19460962,47.46218632],[-0.19096006,47.46574685],[-0.18906267,47.46832951],[-0.18791794,47.46780321],[-0.18618894,47.46725956],[-0.18669633,47.46629791],[-0.18575995,47.46603436],[-0.18490007,47.466766],[-0.18352759,47.46732338],[-0.1820291,47.46645444],[-0.18116596,47.46702038],[-0.17952228,47.46674818],[-0.17821312,47.46682898],[-0.17630449,47.46715136],[-0.17444435,47.46587238],[-0.17327924,47.46486451],[-0.17012371,47.46656402],[-0.1676869,47.46840064],[-0.16570785,47.46836529],[-0.16505073,47.46848677],[-0.16447285,47.46839798],[-0.16092766,47.46838981],[-0.1586841,47.46799217],[-0.15865065,47.46713272],[-0.15608563,47.46707258],[-0.15339555,47.46714459],[-0.15311634,47.46590082],[-0.15243382,47.46518508],[-0.15103306,47.46553743],[-0.15065162,47.46474506],[-0.15018005,47.46406864],[-0.1501571,47.46345305],[-0.15033983,47.46287874],[-0.15015923,47.46166112],[-0.15002568,47.46137825],[-0.14942616,47.4608071],[-0.1500633,47.46050517],[-0.15078119,47.46044699],[-0.15167122,47.46051478],[-0.15354776,47.45942431],[-0.15366636,47.45976885],[-0.15375549,47.45977093],[-0.15465709,47.45958434],[-0.1551861,47.45956729],[-0.15572765,47.45928954],[-0.15604467,47.45928185],[-0.15742439,47.45893631],[-0.15776915,47.45861074],[-0.15835212,47.4586751],[-0.15883465,47.45859083],[-0.15984572,47.45863906],[-0.16088142,47.45815958],[-0.16244197,47.45779556],[-0.16367576,47.45729716],[-0.16459081,47.4574966],[-0.16503682,47.45769348],[-0.16563425,47.45771056],[-0.16588994,47.4576991],[-0.16700659,47.45730925],[-0.1673695,47.4576282],[-0.17055087,47.45704517],[-0.1726488,47.45685195],[-0.17425346,47.45644963],[-0.17483199,47.45612573],[-0.17584605,47.45438904],[-0.17613339,47.45423975],[-0.17682803,47.45356763],[-0.17707766,47.45343199],[-0.17820556,47.45135522],[-0.17866163,47.45008869],[-0.1762325,47.44946313],[-0.18194051,47.44422871],[-0.18146486,47.44391199],[-0.1807718,47.4431994],[-0.17998563,47.44163438],[-0.17796537,47.44044092],[-0.17580957,47.4387295],[-0.17410559,47.43715617],[-0.17319033,47.43645501],[-0.17261398,47.43575901],[-0.17138382,47.43420154],[-0.17280783,47.43304737],[-0.17262509,47.43278659],[-0.17252075,47.43284078],[-0.17026034,47.43112582],[-0.16913357,47.4304376],[-0.16788451,47.42947701],[-0.16771007,47.42949078],[-0.1672876,47.42971039],[-0.16673511,47.42966237],[-0.16476963,47.42888884],[-0.16368323,47.42832019],[-0.16490915,47.42695889],[-0.16582842,47.42467798],[-0.16725043,47.42263922],[-0.16793796,47.42131326],[-0.16940406,47.41973094],[-0.17174268,47.41759686],[-0.17056906,47.41696489],[-0.17311064,47.41541444],[-0.17469402,47.41373334],[-0.17656572,47.41239479],[-0.17709909,47.41212345],[-0.17785926,47.41198376],[-0.17924921,47.41145295],[-0.1802059,47.41082316],[-0.18079062,47.41059004],[-0.18096171,47.41047635],[-0.18087766,47.41037955],[-0.18146511,47.41012563],[-0.18159441,47.40937522],[-0.18232203,47.40900124],[-0.1832529,47.40818384],[-0.18335435,47.4082162],[-0.18450845,47.40653318],[-0.18494339,47.40610323],[-0.18510053,47.40602325],[-0.18618824,47.40630517],[-0.18818132,47.40576672],[-0.18853044,47.40554543],[-0.18807156,47.40456879],[-0.18827496,47.40403977],[-0.18888208,47.40396185],[-0.1891794,47.40266986],[-0.18745213,47.40158476],[-0.18642499,47.40104804],[-0.1854716,47.40072461],[-0.18637129,47.39936386],[-0.18403428,47.39703592],[-0.18343311,47.39605145],[-0.18209957,47.39468702],[-0.18432514,47.39395937],[-0.1863176,47.39395341],[-0.18702408,47.39409801],[-0.18845272,47.39471741],[-0.19329892,47.39539791],[-0.19439507,47.39602457],[-0.19536601,47.39719884],[-0.19593895,47.39768401],[-0.19622245,47.3977654],[-0.19672389,47.39827506],[-0.19728187,47.39868676],[-0.19929175,47.39972519],[-0.20263733,47.40033129],[-0.20405988,47.40079842],[-0.20477415,47.40120397],[-0.20589618,47.40221452],[-0.20967948,47.40618058],[-0.21078972,47.40685806],[-0.21295319,47.40841187],[-0.21378999,47.40919779],[-0.21489594,47.41070873],[-0.21543516,47.41117942],[-0.21735774,47.41265063],[-0.21869022,47.4139084],[-0.21991117,47.41465662],[-0.2211801,47.41520888]],[[-0.23243801,47.44124456],[-0.23190425,47.4409819],[-0.23111184,47.44048227],[-0.2287803,47.43837395],[-0.2281939,47.43789831],[-0.22768702,47.437552],[-0.22661233,47.43697189],[-0.22552431,47.43647862],[-0.22438597,47.43609755],[-0.22356861,47.43588686],[-0.22335565,47.43579006],[-0.22328695,47.43568565],[-0.2231542,47.43561996],[-0.22260886,47.43564858],[-0.22125369,47.43563567],[-0.21319808,47.4351981],[-0.21055099,47.43511894],[-0.20621693,47.43491777],[-0.20429612,47.43461573],[-0.20396552,47.43450502],[-0.20380635,47.43439678],[-0.20306369,47.4344785],[-0.20286635,47.4349308],[-0.20283634,47.43511721],[-0.20287422,47.43532879],[-0.20298125,47.43554206],[-0.20319746,47.43580459],[-0.20330188,47.43606298],[-0.2039028,47.4387384],[-0.20417065,47.43964186],[-0.20446982,47.43984804],[-0.2046909,47.43990321],[-0.20492843,47.43990027],[-0.20842102,47.4396148],[-0.20844887,47.43956988],[-0.20855384,47.43959311],[-0.20866557,47.43952967],[-0.20902282,47.43995136],[-0.20943577,47.44059314],[-0.21018361,47.44101756],[-0.20974642,47.44149991],[-0.20957963,47.44155316],[-0.20955755,47.44169432],[-0.20935871,47.44205477],[-0.20943609,47.44259229],[-0.20618264,47.44292706],[-0.20605392,47.44303962],[-0.20501085,47.44327377],[-0.20548826,47.44508139],[-0.20547961,47.4452474],[-0.20555133,47.44526975],[-0.20572359,47.4452632],[-0.20580369,47.44522585],[-0.20603211,47.44504838],[-0.20673778,47.44467937],[-0.20764357,47.44439223],[-0.20847499,47.44399452],[-0.20893384,47.44382871],[-0.20924589,47.44376154],[-0.21085629,47.44366485],[-0.21093883,47.44357968],[-0.21107977,47.44360462],[-0.21162915,47.44293358],[-0.21525724,47.44395051],[-0.21540613,47.44401937],[-0.21677827,47.4441346],[-0.21808765,47.44413352],[-0.21885593,47.44405641],[-0.21971965,47.44377754],[-0.22063352,47.44384684],[-0.2222196,47.44356687],[-0.22230363,47.44315372],[-0.22240385,47.44309779],[-0.22529818,47.44288694],[-0.22487527,47.44208332],[-0.22468296,47.44182288],[-0.22470417,47.44052134],[-0.23186801,47.44145951],[-0.23209439,47.44144781],[-0.23223209,47.44139714],[-0.23243801,47.44124456]]]]},"bbox":[-0.26315626,47.39395341,-0.14942616,47.46848677]},{"type":"Feature","id":"fr-quartier-49021-b9dc9011965e","properties":{"id":"fr-quartier-49021-b9dc9011965e","kind":"quartier","name":"Gée","cityCode":"49021","cityName":"Beaufort-en-Anjou","sourceType":"iris","sourceIds":["490210201"],"colorIndex":2,"center":[-0.23053265819383445,47.46768388930273]},"geometry":{"type":"MultiPolygon","coordinates":[[[[-0.25041055,47.45530392],[-0.24981576,47.45684042],[-0.24926819,47.45738276],[-0.24945688,47.45784328],[-0.25125381,47.45779308],[-0.25170298,47.45794901],[-0.25160875,47.45814715],[-0.25141353,47.45830126],[-0.251344,47.45857799],[-0.25113448,47.45880277],[-0.25049465,47.45898551],[-0.25015861,47.4591832],[-0.24869257,47.46026472],[-0.24805216,47.46089794],[-0.24776142,47.46173312],[-0.24717134,47.4623424],[-0.24734294,47.46282772],[-0.2468103,47.46309214],[-0.24665244,47.46370918],[-0.24621192,47.46446294],[-0.2455899,47.46478751],[-0.24509301,47.46544463],[-0.24439018,47.46557595],[-0.24389075,47.46579708],[-0.24456252,47.46649009],[-0.24405216,47.46668451],[-0.24325294,47.46733023],[-0.24284975,47.46802167],[-0.24283374,47.468196],[-0.24303481,47.46837869],[-0.24348655,47.46857602],[-0.24430846,47.46872068],[-0.24431357,47.46963769],[-0.24520942,47.46981813],[-0.24510889,47.46995697],[-0.24556639,47.46996403],[-0.24552283,47.47045085],[-0.24511559,47.4705496],[-0.24546629,47.47094254],[-0.24575165,47.47106882],[-0.24339304,47.47479325],[-0.24428199,47.47525318],[-0.24501218,47.47583374],[-0.2456177,47.47611147],[-0.24614832,47.47662191],[-0.2466042,47.4765137],[-0.24647894,47.47723073],[-0.24569163,47.47809686],[-0.24526435,47.4793998],[-0.24501858,47.48078147],[-0.24123611,47.47998772],[-0.23868961,47.47969822],[-0.23872978,47.47941782],[-0.23834347,47.47951235],[-0.23594418,47.4797007],[-0.23562233,47.47978442],[-0.23486923,47.48016482],[-0.23408097,47.48038132],[-0.23150038,47.48040704],[-0.22962753,47.48022477],[-0.22861954,47.48001579],[-0.22605366,47.47929321],[-0.2251355,47.47929523],[-0.22458649,47.47938071],[-0.22340142,47.47995949],[-0.21922181,47.47814628],[-0.21883397,47.4786354],[-0.21774138,47.47816739],[-0.21831543,47.47757043],[-0.21667406,47.47688155],[-0.21711779,47.47643775],[-0.21693212,47.47635549],[-0.21676064,47.47653141],[-0.21385448,47.47518193],[-0.21335596,47.47566507],[-0.21039667,47.47429175],[-0.20973703,47.47408291],[-0.20891051,47.47366154],[-0.20938805,47.47302765],[-0.20978801,47.47192021],[-0.21142752,47.46930557],[-0.2116705,47.46839524],[-0.21194762,47.46807587],[-0.21132445,47.46772099],[-0.21051308,47.46750643],[-0.21059391,47.46736997],[-0.21044345,47.46727592],[-0.21068299,47.46672876],[-0.21105684,47.46642745],[-0.21106977,47.4660451],[-0.21179752,47.46575204],[-0.21224918,47.46528641],[-0.2127354,47.46499821],[-0.21257169,47.4639973],[-0.21354159,47.46240563],[-0.21454331,47.4618311],[-0.21687489,47.46105945],[-0.21676736,47.46011014],[-0.21703242,47.46003344],[-0.21736524,47.45978009],[-0.21783922,47.45966518],[-0.21799995,47.45937785],[-0.21816362,47.45920575],[-0.2186314,47.45914236],[-0.21936433,47.45895992],[-0.21969591,47.45884083],[-0.2200342,47.45865669],[-0.22081687,47.45832961],[-0.22220069,47.45757326],[-0.22272182,47.45760208],[-0.22306868,47.45758256],[-0.22355253,47.45745564],[-0.22422327,47.45741003],[-0.22455889,47.45731424],[-0.22592771,47.45721413],[-0.22603407,47.45717154],[-0.22614099,47.45698389],[-0.22623333,47.45692908],[-0.22714903,47.45660638],[-0.22724034,47.45653447],[-0.22787262,47.45642414],[-0.22815406,47.45624515],[-0.22861239,47.45620181],[-0.22983275,47.45586522],[-0.23037366,47.45582588],[-0.23090865,47.45564436],[-0.23183444,47.45588532],[-0.2326741,47.45568992],[-0.23294061,47.45539602],[-0.23307348,47.45535269],[-0.23375469,47.45545899],[-0.23432431,47.4553891],[-0.23441881,47.45602974],[-0.23622159,47.45605529],[-0.23639071,47.45538119],[-0.23665885,47.45520255],[-0.23694408,47.45513065],[-0.23696392,47.45495352],[-0.23780733,47.45490843],[-0.2385274,47.45506407],[-0.23904312,47.45500377],[-0.2393718,47.45483786],[-0.23968372,47.4545706],[-0.24000798,47.4543976],[-0.24109864,47.45415821],[-0.24170686,47.45419983],[-0.24199816,47.4541845],[-0.24223947,47.45408949],[-0.24285239,47.45374807],[-0.24462197,47.45333656],[-0.2447796,47.45332946],[-0.24483525,47.45365585],[-0.24452666,47.4542843],[-0.24460589,47.45524069],[-0.24721191,47.45525989],[-0.24777514,47.45637665],[-0.24873648,47.45602007],[-0.24975794,47.45549423],[-0.25027981,47.45531658],[-0.25041055,47.45530392]]]]},"bbox":[-0.25170298,47.45332946,-0.20891051,47.48078147]}]}