{"type":"FeatureCollection","metadata":{"sourceType":"iris","referenceFile":"montrevault-sur-evre-quartiers.geojson","source":"IGN / INSEE - Contours IRIS WFS Géoplateforme","sourceUrl":"https://geoservices.ign.fr/contoursiris","license":"Licence Ouverte / Open Licence 2.0","sourceYear":"2026"},"features":[{"type":"Feature","id":"fr-quartier-49218-ea57ed64dc86","properties":{"id":"fr-quartier-49218-ea57ed64dc86","kind":"quartier","name":"Chaudron-en-Mauges","cityCode":"49218","cityName":"Montrevault-sur-Èvre","sourceType":"iris","sourceIds":["492180104"],"colorIndex":0,"center":[-0.9453409316723339,47.27525930283698]},"geometry":{"type":"MultiPolygon","coordinates":[[[[-0.91949885,47.32028949],[-0.91713045,47.31920404],[-0.91348497,47.31703585],[-0.91175117,47.31556114],[-0.91156834,47.31339868],[-0.9117033,47.31235939],[-0.90999896,47.31263227],[-0.90729302,47.31331021],[-0.90648105,47.31307977],[-0.90605715,47.31250006],[-0.90527673,47.3118287],[-0.90532156,47.31126115],[-0.90514857,47.31046839],[-0.90568222,47.3091516],[-0.90637313,47.30795659],[-0.90699426,47.30716863],[-0.90735632,47.30699059],[-0.90548938,47.30568253],[-0.90321262,47.30498762],[-0.9023138,47.30459964],[-0.90114879,47.30315612],[-0.90021605,47.30253763],[-0.89984286,47.30212474],[-0.89899238,47.30163507],[-0.89714625,47.30099136],[-0.89546488,47.30053589],[-0.89450115,47.3008035],[-0.89406074,47.30032165],[-0.89339708,47.29979412],[-0.89261476,47.29958513],[-0.89166586,47.2987598],[-0.89146826,47.29842843],[-0.89133971,47.29778829],[-0.89099968,47.29735624],[-0.89068153,47.29711635],[-0.89032565,47.29701381],[-0.88902508,47.29689249],[-0.88822662,47.29649654],[-0.8877039,47.29657805],[-0.88657371,47.29394258],[-0.88670069,47.29298832],[-0.88653275,47.29248019],[-0.88629477,47.29226734],[-0.88582485,47.29207127],[-0.88517299,47.2920886],[-0.88382201,47.29242228],[-0.87877206,47.29335923],[-0.87799807,47.29306154],[-0.8773281,47.29269998],[-0.87655555,47.29267894],[-0.87625655,47.29283134],[-0.87628044,47.29301531],[-0.8756601,47.29312077],[-0.8749566,47.29345073],[-0.87395984,47.29348043],[-0.87320495,47.29359397],[-0.87302856,47.29366476],[-0.87288466,47.29389219],[-0.87237176,47.29394447],[-0.8722032,47.29403212],[-0.87129362,47.29403996],[-0.87106748,47.2942476],[-0.87080948,47.29421565],[-0.87007716,47.2943852],[-0.86989585,47.29451654],[-0.86965728,47.29453351],[-0.86950668,47.29472331],[-0.86924686,47.29472116],[-0.86861646,47.29490804],[-0.86839843,47.29511811],[-0.86821744,47.29552974],[-0.86798189,47.29551506],[-0.86776798,47.29537798],[-0.86735078,47.29558208],[-0.86644834,47.29570771],[-0.86633237,47.29547723],[-0.86611595,47.29543397],[-0.86592726,47.29527892],[-0.86555728,47.29527413],[-0.86542572,47.29513971],[-0.86502202,47.29514506],[-0.86431674,47.29484408],[-0.86409646,47.29482078],[-0.86382047,47.29498049],[-0.86320994,47.29481786],[-0.86261482,47.2947773],[-0.86199668,47.29441663],[-0.86104689,47.2941418],[-0.86094163,47.29396775],[-0.86066872,47.29393087],[-0.85990925,47.29407332],[-0.85951479,47.29396747],[-0.85921813,47.29398726],[-0.85863656,47.29337929],[-0.85821318,47.29318427],[-0.8578909,47.2931977],[-0.85748922,47.29299114],[-0.85720667,47.29294916],[-0.85660393,47.2930972],[-0.85615314,47.29290759],[-0.85580167,47.29258849],[-0.85591101,47.29235862],[-0.85559065,47.2919745],[-0.85482321,47.29167373],[-0.85490387,47.29148719],[-0.85517331,47.2914575],[-0.85512746,47.29133554],[-0.85487649,47.29130873],[-0.85477115,47.29100398],[-0.85419596,47.29092666],[-0.85407506,47.29095862],[-0.85409625,47.29108771],[-0.85373237,47.2911674],[-0.85355303,47.29093902],[-0.85288583,47.29061328],[-0.85296557,47.29043217],[-0.85288987,47.29030039],[-0.85246873,47.29006201],[-0.85242677,47.28968034],[-0.85282868,47.28891259],[-0.85284297,47.2886318],[-0.85258421,47.28768411],[-0.85228945,47.28719457],[-0.85229273,47.28709261],[-0.85249726,47.28695242],[-0.85240494,47.28681038],[-0.85248967,47.28668048],[-0.85220525,47.28651958],[-0.85212438,47.28594632],[-0.85223215,47.28567595],[-0.85271899,47.28522444],[-0.85276282,47.28485705],[-0.85240826,47.28334921],[-0.85247696,47.28273763],[-0.8521138,47.28216204],[-0.85252044,47.28181143],[-0.85224156,47.28174589],[-0.85229301,47.28141069],[-0.85241953,47.28136503],[-0.85236512,47.28123434],[-0.85248681,47.28112124],[-0.8523475,47.28091496],[-0.85312514,47.28036365],[-0.85342167,47.27999236],[-0.85370083,47.27980372],[-0.85377193,47.279558],[-0.85366688,47.2792938],[-0.85323015,47.27887388],[-0.85270045,47.27854267],[-0.85261699,47.27813625],[-0.85276549,47.27778791],[-0.85255818,47.27729817],[-0.85332653,47.2772456],[-0.85406998,47.27706766],[-0.8548623,47.27701698],[-0.85544027,47.27684003],[-0.85594266,47.27682783],[-0.85630552,47.27666163],[-0.85694327,47.2765611],[-0.85785483,47.27621621],[-0.85859342,47.27604471],[-0.85958553,47.27558626],[-0.86026942,47.27498574],[-0.86101225,47.27470773],[-0.86161843,47.27437118],[-0.86199813,47.27397907],[-0.8623181,47.27345645],[-0.86259358,47.27157882],[-0.86254688,47.27092962],[-0.86199369,47.2698295],[-0.86195156,47.26922521],[-0.86238119,47.26858898],[-0.86311353,47.26801927],[-0.86379292,47.26825982],[-0.86569153,47.26829296],[-0.86652406,47.26847159],[-0.86811108,47.26807614],[-0.86968214,47.26797413],[-0.87038896,47.26808032],[-0.87150272,47.26855959],[-0.87217717,47.2680882],[-0.87330564,47.26814694],[-0.87347353,47.26764739],[-0.87342989,47.26614272],[-0.87417859,47.26587524],[-0.87476879,47.2658519],[-0.87585329,47.26601754],[-0.87667456,47.26585668],[-0.87860255,47.26615091],[-0.88082991,47.26681275],[-0.88090438,47.26694546],[-0.88071778,47.26713018],[-0.88036402,47.26786039],[-0.88044698,47.26812891],[-0.88135381,47.26891336],[-0.88249645,47.27032175],[-0.88288373,47.27109925],[-0.88481935,47.27008619],[-0.88469711,47.26841469],[-0.88494784,47.26710294],[-0.88543237,47.26636923],[-0.88707783,47.26493591],[-0.88807894,47.26515651],[-0.88784006,47.26571615],[-0.88791461,47.26584975],[-0.8885941,47.26614513],[-0.88983584,47.26694532],[-0.88810379,47.26882866],[-0.88772596,47.26948128],[-0.88750136,47.26945186],[-0.88678611,47.27215734],[-0.88853882,47.27181914],[-0.89108619,47.27237812],[-0.89174894,47.27240455],[-0.89194391,47.27235384],[-0.89364108,47.27086641],[-0.89534717,47.26955802],[-0.89554539,47.26955226],[-0.89698307,47.27036742],[-0.89772031,47.27052651],[-0.89857091,47.27036811],[-0.89973063,47.27096546],[-0.90284125,47.27209381],[-0.90337509,47.27216868],[-0.90405242,47.27133916],[-0.90418265,47.27129061],[-0.90674499,47.27319987],[-0.90728734,47.27340964],[-0.90794683,47.27339101],[-0.90859569,47.27198916],[-0.90813865,47.27164133],[-0.90868774,47.27143443],[-0.90910836,47.27182766],[-0.90915273,47.27254635],[-0.90988577,47.27326524],[-0.91179984,47.27190722],[-0.91550979,47.27087971],[-0.91604924,47.27084977],[-0.91693774,47.27175626],[-0.9169496,47.27269958],[-0.91776405,47.27266304],[-0.91825798,47.27240839],[-0.91736757,47.27104048],[-0.91725604,47.27060078],[-0.91945222,47.26986404],[-0.91990354,47.2701327],[-0.92047987,47.2708983],[-0.92296378,47.27473519],[-0.92319802,47.27471464],[-0.92388179,47.27461128],[-0.92298366,47.27246939],[-0.92244816,47.27153838],[-0.92073224,47.27016507],[-0.92030702,47.26958275],[-0.92011806,47.26913485],[-0.92292415,47.26839184],[-0.92377131,47.26831449],[-0.92508146,47.26766892],[-0.92715132,47.26736265],[-0.93030551,47.26576939],[-0.93137333,47.26461908],[-0.93248786,47.26436043],[-0.9327297,47.26440811],[-0.9339604,47.26504868],[-0.93510664,47.2654217],[-0.93700535,47.26617837],[-0.93908385,47.26665939],[-0.94045726,47.26745639],[-0.9420129,47.26638765],[-0.94343975,47.26553148],[-0.94447208,47.2651998],[-0.94632253,47.26430664],[-0.9473737,47.26390759],[-0.9472636,47.26379686],[-0.94773374,47.26343742],[-0.94788,47.26317555],[-0.94825051,47.26142507],[-0.94808793,47.26043818],[-0.94754783,47.25953898],[-0.9462955,47.25882086],[-0.94198147,47.25881535],[-0.94243213,47.25795633],[-0.94210586,47.2565775],[-0.94231012,47.25604145],[-0.94348406,47.2554769],[-0.9443529,47.25540947],[-0.94649322,47.25489853],[-0.94712083,47.25459322],[-0.94640102,47.25414811],[-0.9457042,47.25351113],[-0.94501987,47.25329647],[-0.94445493,47.25324719],[-0.9435259,47.25343205],[-0.94185538,47.25341678],[-0.94015615,47.25315458],[-0.93974214,47.25323175],[-0.93897029,47.25299659],[-0.93875368,47.25275067],[-0.93856735,47.2527552],[-0.93846057,47.25285167],[-0.93731417,47.25301502],[-0.93177352,47.25331852],[-0.93031628,47.25352209],[-0.92899707,47.25224632],[-0.9232637,47.24749927],[-0.92523815,47.24674915],[-0.92501246,47.24630521],[-0.92773284,47.24645279],[-0.92886617,47.2459132],[-0.9299234,47.24522024],[-0.93130142,47.24411798],[-0.93264069,47.24368042],[-0.92755269,47.24186999],[-0.92894711,47.23921863],[-0.92780958,47.23843155],[-0.92875289,47.23792003],[-0.93016843,47.23735101],[-0.93087573,47.23652659],[-0.93076952,47.23556301],[-0.93054908,47.23520904],[-0.93060135,47.23498282],[-0.93159941,47.23400881],[-0.93284815,47.23405566],[-0.93377645,47.23399169],[-0.93438863,47.23411061],[-0.9346128,47.23399123],[-0.93527893,47.2343589],[-0.93701198,47.23288754],[-0.93669075,47.23285609],[-0.93630367,47.23261235],[-0.93442923,47.23271299],[-0.9324414,47.23155371],[-0.93101803,47.23096385],[-0.93033021,47.2305338],[-0.92931352,47.23011219],[-0.92876299,47.22976761],[-0.92833446,47.22886544],[-0.92967775,47.22810778],[-0.92983172,47.22787901],[-0.93052742,47.22829077],[-0.93140045,47.22852164],[-0.93217271,47.22931028],[-0.9333151,47.22987632],[-0.93485288,47.23032976],[-0.93492602,47.23026238],[-0.93601518,47.23055258],[-0.93669645,47.23089268],[-0.93729073,47.23087609],[-0.93833865,47.23071156],[-0.93768406,47.22865883],[-0.93690587,47.22782626],[-0.93703403,47.22737211],[-0.93788964,47.22770809],[-0.93837086,47.22800901],[-0.93873495,47.22925767],[-0.93977708,47.23065724],[-0.94004821,47.23143132],[-0.94189977,47.23121779],[-0.94503518,47.23106147],[-0.94560899,47.23073004],[-0.94601903,47.22986245],[-0.94700487,47.2297901],[-0.9482666,47.22988862],[-0.95033989,47.23028034],[-0.9516591,47.23024255],[-0.95193903,47.22942445],[-0.95236815,47.22887168],[-0.9529366,47.22845025],[-0.95339018,47.22830227],[-0.95490541,47.22821358],[-0.95543896,47.22828911],[-0.9564973,47.22830343],[-0.95723944,47.22855211],[-0.95809119,47.22843827],[-0.95971269,47.22794206],[-0.96082648,47.22777508],[-0.96467077,47.22689899],[-0.9658735,47.22711291],[-0.96385201,47.22855404],[-0.96265203,47.22956231],[-0.96423008,47.2304683],[-0.9639069,47.23164848],[-0.96393139,47.23205237],[-0.9652699,47.23232925],[-0.96586269,47.23238197],[-0.9673323,47.23219373],[-0.96837772,47.23219307],[-0.96855388,47.23384381],[-0.96923302,47.23459936],[-0.97005881,47.23513624],[-0.97029504,47.23541388],[-0.97093184,47.23547048],[-0.97155524,47.23566815],[-0.97186156,47.2352466],[-0.97212239,47.23519439],[-0.97332493,47.23538481],[-0.97346767,47.2355611],[-0.9740119,47.23581555],[-0.97410275,47.23647136],[-0.9746931,47.23654395],[-0.97491536,47.2363281],[-0.97525311,47.23618851],[-0.9757148,47.2361321],[-0.97616494,47.23584803],[-0.97625674,47.23569345],[-0.9760644,47.23559819],[-0.97616927,47.23545938],[-0.97651573,47.2353303],[-0.97681326,47.23495142],[-0.97712074,47.23499314],[-0.97728911,47.23485395],[-0.97732836,47.23459751],[-0.97778072,47.23452248],[-0.97804035,47.23457937],[-0.97822233,47.2343739],[-0.97849708,47.23431309],[-0.97880898,47.23446823],[-0.97931421,47.23449955],[-0.97953599,47.2345992],[-0.98012242,47.23415449],[-0.98042455,47.23369521],[-0.9824255,47.23399781],[-0.98269832,47.23412545],[-0.98277501,47.23430309],[-0.98218737,47.23440983],[-0.98142635,47.23492726],[-0.98128593,47.23528273],[-0.98230299,47.2353271],[-0.98290328,47.23526589],[-0.98321212,47.23498665],[-0.98360711,47.2349947],[-0.98454137,47.23545744],[-0.98428977,47.23574103],[-0.984389,47.23586562],[-0.98476448,47.23582476],[-0.98499788,47.23608084],[-0.98519596,47.23607493],[-0.98518403,47.23627094],[-0.98533679,47.23629634],[-0.98545069,47.23617253],[-0.9855892,47.23620202],[-0.98561207,47.23633194],[-0.98575121,47.23640557],[-0.98551751,47.23662725],[-0.98554911,47.23669647],[-0.98574563,47.23670503],[-0.98614441,47.23656782],[-0.98627088,47.2366491],[-0.98649303,47.23661081],[-0.98660083,47.23670805],[-0.98673179,47.23670715],[-0.98681865,47.23652208],[-0.98716042,47.23657972],[-0.98719656,47.23671009],[-0.98731736,47.23671494],[-0.98739217,47.23649242],[-0.98748239,47.2364776],[-0.98766315,47.23659487],[-0.98759989,47.23674127],[-0.98779558,47.23679223],[-0.98811328,47.23670377],[-0.98877082,47.23682535],[-0.98884156,47.23688692],[-0.98878349,47.2370674],[-0.98886722,47.23710778],[-0.98905455,47.23709953],[-0.98909002,47.23688197],[-0.98939484,47.23695891],[-0.98998186,47.23696844],[-0.99010592,47.23715977],[-0.99050012,47.23699656],[-0.99081015,47.23705438],[-0.99083459,47.23692013],[-0.99100198,47.23683955],[-0.99122881,47.23686418],[-0.99154222,47.23655772],[-0.99197509,47.23646979],[-0.99202748,47.23637334],[-0.99183217,47.23630976],[-0.99204594,47.23612301],[-0.99226598,47.2361632],[-0.99250144,47.23632185],[-0.99289099,47.23636341],[-0.99324447,47.23659641],[-0.99349798,47.23657054],[-0.99389069,47.2368148],[-0.99408286,47.23676491],[-0.994125,47.23694014],[-0.99501323,47.23688877],[-0.99542334,47.23667271],[-0.99600277,47.23661577],[-0.99629418,47.23645878],[-0.99647549,47.23617399],[-0.99675497,47.23610575],[-0.99712811,47.23576657],[-0.99702482,47.23557002],[-0.9974798,47.23556603],[-0.99803497,47.2357524],[-0.99810171,47.23595562],[-0.99852255,47.2362043],[-0.99867011,47.23649758],[-0.9999806,47.23749618],[-1.00043538,47.23747146],[-1.00072962,47.23776147],[-1.00064824,47.23789499],[-1.00072109,47.23800244],[-1.00116075,47.23809453],[-1.0014588,47.23848897],[-1.00168187,47.2385696],[-1.00256997,47.23862275],[-1.00310347,47.23880173],[-1.00298503,47.23897078],[-1.00309291,47.23917528],[-1.00305922,47.23945138],[-1.00287544,47.23957852],[-1.00261243,47.24029432],[-1.00229754,47.24059816],[-1.00222866,47.24093497],[-1.00204925,47.24113858],[-1.0021062,47.24137008],[-1.00225891,47.24144773],[-1.00217107,47.24165449],[-1.00232392,47.24168076],[-1.00239114,47.24181906],[-1.00232199,47.24197469],[-1.00216306,47.24200902],[-1.0021296,47.24207508],[-1.00218195,47.24213817],[-1.00237118,47.2421731],[-1.00236096,47.24230236],[-1.00223898,47.24244178],[-1.00223911,47.24256798],[-1.00210253,47.2426358],[-1.00213096,47.24273307],[-1.00226546,47.24276177],[-1.00233692,47.24285035],[-1.00228726,47.24289443],[-1.00204473,47.24290822],[-1.00187737,47.24314927],[-1.0018784,47.24337639],[-1.00199827,47.24354622],[-1.00188903,47.24375011],[-1.0018852,47.24392963],[-1.00180276,47.2440136],[-1.0018084,47.24416034],[-1.00196601,47.24437484],[-1.00204311,47.24436136],[-1.00218702,47.24423199],[-1.00226214,47.24422759],[-1.00232628,47.24432453],[-1.00253178,47.24443552],[-1.00245653,47.24468691],[-1.00211657,47.24465449],[-1.00211984,47.24475173],[-1.00226638,47.24497743],[-1.00240223,47.24502412],[-1.00257476,47.2451723],[-1.00282947,47.24530412],[-1.00307727,47.24539652],[-1.00341753,47.24587693],[-1.0037483,47.24594573],[-1.00384802,47.24591614],[-1.00404516,47.24603913],[-1.00412338,47.2461473],[-1.00412739,47.24643201],[-1.00437961,47.2468677],[-1.00438886,47.24711617],[-1.00427901,47.24736515],[-1.00395779,47.24763766],[-1.00303413,47.24805088],[-1.00268815,47.24827556],[-1.00255134,47.24857145],[-1.00262315,47.24898452],[-1.00277283,47.24928763],[-1.00275869,47.24934671],[-1.00222875,47.24937674],[-1.00212175,47.24952196],[-1.00208698,47.24997927],[-1.0017985,47.25021189],[-1.00132554,47.25088265],[-1.00090929,47.25117736],[-1.00080503,47.25135944],[-1.00042496,47.25178451],[-1.00014204,47.25223417],[-1.00016416,47.25249572],[-1.00040826,47.25268019],[-1.00122426,47.2530243],[-1.00143582,47.25321621],[-1.00153598,47.25321005],[-1.00154346,47.25329272],[-1.00187491,47.25353006],[-1.00231261,47.25394943],[-1.00244037,47.25413611],[-1.00258961,47.25457536],[-1.00281095,47.25482732],[-1.00293243,47.25505388],[-1.00279892,47.25560746],[-1.00299261,47.25623446],[-1.00308165,47.25632783],[-1.00345078,47.25639531],[-1.00389896,47.25670614],[-1.00453305,47.2569889],[-1.00465903,47.25715131],[-1.00487222,47.2572404],[-1.00535784,47.2576626],[-1.00585286,47.25815749],[-1.0066241,47.25857433],[-1.00688725,47.25856974],[-1.00703244,47.25843942],[-1.0072756,47.25839766],[-1.00741766,47.25847387],[-1.00749212,47.25867322],[-1.00764956,47.2586894],[-1.00800755,47.25864277],[-1.00857653,47.25865554],[-1.00925593,47.25856894],[-1.00981547,47.25875691],[-1.0101136,47.25895482],[-1.01058677,47.25913856],[-1.01053703,47.25939448],[-1.01076252,47.2595949],[-1.01066409,47.25983718],[-1.01093219,47.25998746],[-1.01093754,47.26004136],[-1.01091086,47.26014504],[-1.01067414,47.26016675],[-1.01046495,47.26029118],[-1.01045523,47.26060431],[-1.01065123,47.26081747],[-1.01096387,47.26099685],[-1.01143366,47.26152504],[-1.01165277,47.26162202],[-1.01185722,47.26230273],[-1.01197331,47.26240327],[-1.01245097,47.26261119],[-1.01271436,47.26262731],[-1.01334722,47.26257294],[-1.0135189,47.26260215],[-1.01562677,47.26366222],[-1.01572331,47.26374902],[-1.01578464,47.26393168],[-1.01573696,47.26423261],[-1.01575375,47.2645989],[-1.01560009,47.26576706],[-1.01573516,47.26617432],[-1.01589213,47.26641407],[-1.01588296,47.26652166],[-1.01560116,47.26687937],[-1.01521926,47.26701429],[-1.01511073,47.26710368],[-1.01457881,47.26797755],[-1.01408572,47.26839666],[-1.0140197,47.26852334],[-1.01398452,47.26884997],[-1.01420912,47.26917933],[-1.01420387,47.26946345],[-1.01435954,47.26950854],[-1.0144656,47.2696518],[-1.01488717,47.26994097],[-1.0149618,47.27008893],[-1.01493502,47.27036839],[-1.01456732,47.27067589],[-1.01452266,47.27076938],[-1.01458037,47.27147049],[-1.01485313,47.27205417],[-1.01534765,47.27275186],[-1.01562634,47.27306041],[-1.01610241,47.2732278],[-1.01661576,47.27366343],[-1.01695022,47.27388531],[-1.01722305,47.27390289],[-1.01729813,47.27398593],[-1.01767212,47.27402795],[-1.01779163,47.27408511],[-1.01784645,47.27423374],[-1.0177993,47.27443549],[-1.01780448,47.27489413],[-1.01788119,47.27510511],[-1.0180414,47.2753168],[-1.01798455,47.27547742],[-1.01788956,47.27557085],[-1.01756589,47.27572359],[-1.01734919,47.27594293],[-1.01700707,47.27607918],[-1.01702227,47.27628238],[-1.0171777,47.27643023],[-1.01705101,47.27663113],[-1.01692339,47.27667792],[-1.01661604,47.27669488],[-1.01652303,47.27674407],[-1.01652526,47.27682693],[-1.01668042,47.276918],[-1.01671926,47.27706539],[-1.01652401,47.27737683],[-1.01652774,47.27749749],[-1.01662943,47.27767064],[-1.01663502,47.27824105],[-1.01641295,47.27865438],[-1.01619815,47.27872221],[-1.01563345,47.27866335],[-1.01539986,47.27860384],[-1.01515151,47.27863047],[-1.01480099,47.27853083],[-1.01412954,47.27851442],[-1.01376451,47.2786812],[-1.01275594,47.27948862],[-1.01277903,47.27967352],[-1.0126144,47.27988113],[-1.01261082,47.279975],[-1.0129422,47.28024387],[-1.01301659,47.2805658],[-1.01318699,47.28078976],[-1.01331289,47.28109189],[-1.01379113,47.28176581],[-1.01393554,47.28212047],[-1.01388902,47.28241955],[-1.01377235,47.28252455],[-1.0134774,47.28265465],[-1.01332487,47.28291773],[-1.01283885,47.28314999],[-1.01217973,47.28321066],[-1.01191926,47.28312863],[-1.01139932,47.2830664],[-1.01084834,47.2828547],[-1.01018664,47.28270361],[-1.00945208,47.28265871],[-1.00926218,47.28268781],[-1.0089717,47.28286011],[-1.00885636,47.28308945],[-1.008979,47.28327721],[-1.00891775,47.28343257],[-1.008937,47.28361939],[-1.00916834,47.28382593],[-1.00916343,47.28402621],[-1.00925916,47.28424375],[-1.00876059,47.28460983],[-1.00885067,47.28491139],[-1.00870557,47.28506153],[-1.00868706,47.28527491],[-1.00840088,47.28552277],[-1.00828598,47.28574038],[-1.00826795,47.28613762],[-1.00803903,47.28670891],[-1.00804704,47.28683393],[-1.00814987,47.28691601],[-1.00814234,47.28702804],[-1.00800166,47.28729071],[-1.00759483,47.28709384],[-1.00741703,47.28709007],[-1.00704035,47.28713734],[-1.00656619,47.28733401],[-1.00627483,47.28769022],[-1.0061898,47.28827276],[-1.00580623,47.28883136],[-1.00550861,47.28880198],[-1.00447464,47.28838519],[-1.00395876,47.28844897],[-1.00372743,47.28856243],[-1.00351921,47.28902122],[-1.00303408,47.28960405],[-1.00253769,47.290729],[-1.00139002,47.29139959],[-1.00118063,47.29159431],[-1.00096678,47.29201363],[-1.00005303,47.29248143],[-1.00000456,47.29270214],[-0.99983808,47.29286833],[-0.99965391,47.29292156],[-0.99948517,47.2933952],[-0.99968878,47.29374513],[-0.99967112,47.29391701],[-0.99929565,47.29442573],[-0.99897779,47.29467646],[-0.99862874,47.29584229],[-0.99817665,47.29614091],[-0.99639805,47.29625901],[-0.99563994,47.29645189],[-0.99531178,47.29708065],[-0.99481721,47.29721847],[-0.99461283,47.29744545],[-0.99370564,47.29736222],[-0.99300171,47.29771366],[-0.99235915,47.29791066],[-0.99079585,47.29794914],[-0.98973909,47.29785029],[-0.98878916,47.29795868],[-0.98815898,47.2979479],[-0.98785416,47.29805393],[-0.98781735,47.29796867],[-0.98498552,47.29866092],[-0.98421826,47.2990884],[-0.98339888,47.29974211],[-0.98274277,47.30009635],[-0.98236263,47.3005628],[-0.98203906,47.30073796],[-0.98187682,47.30092652],[-0.98154291,47.30098034],[-0.98141138,47.30113629],[-0.98101554,47.30128419],[-0.97960799,47.30217348],[-0.97707183,47.30162049],[-0.97670589,47.30159969],[-0.97546062,47.30187223],[-0.97488755,47.30243631],[-0.97399929,47.30264522],[-0.9718856,47.30260765],[-0.97132652,47.30280617],[-0.97074353,47.30277115],[-0.97061476,47.30258897],[-0.96993474,47.30265732],[-0.96952774,47.30290561],[-0.96946085,47.30316569],[-0.96772116,47.30347309],[-0.96688554,47.30369547],[-0.96586512,47.30408911],[-0.96557965,47.30438641],[-0.96452617,47.30461983],[-0.96421305,47.30484776],[-0.95965283,47.3067648],[-0.95935006,47.30679226],[-0.95868545,47.30644178],[-0.95839294,47.30651847],[-0.95831314,47.30667622],[-0.95810158,47.30670057],[-0.95746174,47.3065241],[-0.95726145,47.30639573],[-0.95690724,47.30637266],[-0.95586269,47.30665616],[-0.9532466,47.30872295],[-0.95254383,47.30895151],[-0.95214614,47.30956176],[-0.95143594,47.31026559],[-0.94744874,47.31189489],[-0.94684989,47.31232989],[-0.94537035,47.31297241],[-0.94499456,47.3130528],[-0.94427748,47.3135567],[-0.94395727,47.31405072],[-0.94310212,47.31314508],[-0.94215273,47.31239947],[-0.94096507,47.31172955],[-0.94072296,47.31238495],[-0.94044285,47.3128118],[-0.93871522,47.31446316],[-0.93644699,47.31413093],[-0.93689403,47.3133415],[-0.93480263,47.31428136],[-0.93474503,47.31266448],[-0.93452866,47.31175604],[-0.93389614,47.31014244],[-0.93360248,47.31004153],[-0.93332944,47.30969746],[-0.93257739,47.3096166],[-0.93265431,47.30885775],[-0.9323213,47.30859954],[-0.93178263,47.30880798],[-0.93156981,47.30903242],[-0.9314541,47.30946088],[-0.93148818,47.30983559],[-0.9311534,47.31056621],[-0.93113445,47.31126631],[-0.93099294,47.31174071],[-0.93095172,47.31318607],[-0.93061645,47.3139104],[-0.92875061,47.31550679],[-0.92781733,47.31593859],[-0.92607031,47.31700543],[-0.92497878,47.31837275],[-0.92402739,47.31910168],[-0.92341027,47.31939926],[-0.92115773,47.31979088],[-0.9209884,47.32059339],[-0.9204674,47.32053798],[-0.91949885,47.32028949]]]]},"bbox":[-1.0180414,47.22689899,-0.8521138,47.32059339]},{"type":"Feature","id":"fr-quartier-49218-8ba75c1f6183","properties":{"id":"fr-quartier-49218-8ba75c1f6183","kind":"quartier","name":"Le Fief-Sauvin","cityCode":"49218","cityName":"Montrevault-sur-Èvre","sourceType":"iris","sourceIds":["492180101"],"colorIndex":1,"center":[-1.1064478972204563,47.22290786501249]},"geometry":{"type":"MultiPolygon","coordinates":[[[[-1.02634523,47.23770327],[-1.02441049,47.23618758],[-1.02365837,47.23436217],[-1.02158366,47.2327242],[-1.02090428,47.23197526],[-1.02073005,47.23152158],[-1.02074872,47.23104587],[-1.02151169,47.22937517],[-1.02222763,47.22895097],[-1.02259224,47.22883645],[-1.02328164,47.22890625],[-1.02386865,47.22964126],[-1.02402445,47.23002527],[-1.02421418,47.23010251],[-1.02540242,47.23017119],[-1.02597123,47.230009],[-1.02620434,47.22974669],[-1.02612691,47.2288191],[-1.02474484,47.22762856],[-1.02423827,47.22733156],[-1.02308191,47.22685701],[-1.02066732,47.22541203],[-1.02022939,47.22523613],[-1.01995735,47.22451811],[-1.02002468,47.22405604],[-1.02034868,47.22380592],[-1.02145361,47.2238595],[-1.02150202,47.22374604],[-1.02170859,47.22371273],[-1.0222569,47.22379014],[-1.02293978,47.22405668],[-1.02383584,47.22455469],[-1.02514878,47.22500035],[-1.02820137,47.22540443],[-1.02883524,47.22586375],[-1.02911402,47.22642286],[-1.03036636,47.22680026],[-1.03092814,47.22677439],[-1.0316253,47.22659508],[-1.03317904,47.22575132],[-1.0334902,47.22538351],[-1.03344701,47.22496675],[-1.0332575,47.2243811],[-1.03271538,47.22354],[-1.03232867,47.22350028],[-1.03128675,47.2235636],[-1.03066896,47.22337146],[-1.02970644,47.22352305],[-1.0288922,47.22346394],[-1.02826301,47.22327849],[-1.02715371,47.22247783],[-1.0263078,47.2221016],[-1.02404165,47.22072905],[-1.02353283,47.22015358],[-1.02302103,47.21983873],[-1.02291267,47.21929262],[-1.02339796,47.21858165],[-1.02351504,47.21823684],[-1.02401585,47.21776872],[-1.0242871,47.21736266],[-1.02476857,47.21716654],[-1.02546966,47.21712955],[-1.02571426,47.21721569],[-1.02592752,47.21716591],[-1.02636086,47.21752855],[-1.02684053,47.21776788],[-1.02720622,47.21772181],[-1.02754996,47.21743581],[-1.02812707,47.21752752],[-1.02846752,47.21776267],[-1.02890379,47.2182523],[-1.0293756,47.21850992],[-1.02974518,47.21888648],[-1.02996712,47.21898783],[-1.03113742,47.21883802],[-1.03216468,47.21923315],[-1.03549093,47.21949679],[-1.0360605,47.21939941],[-1.03696686,47.21899462],[-1.03725445,47.21831392],[-1.03763919,47.21795795],[-1.03804578,47.21718836],[-1.03792104,47.21644361],[-1.0379776,47.2144314],[-1.03896418,47.21381015],[-1.0404041,47.21196873],[-1.04036755,47.21074313],[-1.04139393,47.20966703],[-1.04249068,47.20674769],[-1.04246083,47.20640348],[-1.04226444,47.2060786],[-1.04195157,47.20580557],[-1.04164137,47.20572625],[-1.04143632,47.20546207],[-1.04046719,47.2055563],[-1.04005718,47.20592668],[-1.03924487,47.20629487],[-1.03779446,47.20646266],[-1.03534448,47.20700692],[-1.03382091,47.20755762],[-1.03333264,47.20783785],[-1.03298038,47.20866143],[-1.03234071,47.20944543],[-1.03150244,47.20973334],[-1.03105208,47.20972558],[-1.03052879,47.20957433],[-1.02970744,47.20955875],[-1.02918806,47.20988332],[-1.02860264,47.20999744],[-1.02775322,47.20983679],[-1.02703641,47.20983919],[-1.02509676,47.20964071],[-1.02435306,47.20935466],[-1.02379075,47.20938863],[-1.02337746,47.20915149],[-1.02322803,47.20883397],[-1.02364168,47.20833372],[-1.0237094,47.20803659],[-1.0233688,47.20728581],[-1.02335028,47.20666716],[-1.02345634,47.20633445],[-1.02356023,47.2061848],[-1.02419547,47.20592384],[-1.02414351,47.20549475],[-1.02429042,47.20508941],[-1.02499305,47.2040148],[-1.02523955,47.20347347],[-1.02727757,47.20145636],[-1.02909446,47.2006206],[-1.03012933,47.20068103],[-1.03081747,47.20047408],[-1.03180274,47.20045509],[-1.03258893,47.20010949],[-1.03393079,47.20020697],[-1.03551211,47.19972366],[-1.03793813,47.19951646],[-1.03855356,47.19939853],[-1.03915726,47.19914219],[-1.03939116,47.198805],[-1.03942089,47.19856688],[-1.0397839,47.19846947],[-1.03985719,47.19828302],[-1.03967823,47.19790795],[-1.03957601,47.19679371],[-1.0390633,47.195884],[-1.03828052,47.19387853],[-1.03811341,47.19362564],[-1.03781882,47.19341867],[-1.03610611,47.19350545],[-1.03578068,47.19338068],[-1.03536058,47.19289322],[-1.03515923,47.19281821],[-1.03478865,47.19283203],[-1.03376284,47.19310216],[-1.03274085,47.19321169],[-1.03220525,47.19367026],[-1.03184892,47.19376831],[-1.03122525,47.19381077],[-1.03048272,47.19422606],[-1.02999297,47.19404389],[-1.0298771,47.19392713],[-1.02944106,47.19384405],[-1.02931762,47.19373206],[-1.02936287,47.19352406],[-1.02916854,47.19317204],[-1.02928681,47.19305615],[-1.02924817,47.19289343],[-1.02965497,47.19288648],[-1.02968601,47.19278894],[-1.02947123,47.19251697],[-1.02949535,47.19238001],[-1.02981347,47.19226617],[-1.03003445,47.19237386],[-1.03010706,47.19216039],[-1.03068506,47.19210871],[-1.03063526,47.19169127],[-1.03097307,47.1914875],[-1.03120337,47.19156061],[-1.03209246,47.19154857],[-1.03279558,47.19138434],[-1.03308885,47.19116859],[-1.03353256,47.191319],[-1.03363932,47.19119087],[-1.03367036,47.19093468],[-1.03338348,47.19074185],[-1.03344311,47.19042607],[-1.03328145,47.19013963],[-1.0333897,47.18987263],[-1.03291652,47.18968179],[-1.03295875,47.18957485],[-1.03267135,47.18949832],[-1.03259564,47.18917644],[-1.03201938,47.18914513],[-1.03179133,47.18906654],[-1.03168533,47.18860508],[-1.03144507,47.1883989],[-1.03171289,47.18794966],[-1.03155921,47.18776932],[-1.03168095,47.18711783],[-1.03176765,47.18702196],[-1.03211038,47.1870605],[-1.03228399,47.18680114],[-1.03218237,47.18668028],[-1.03247429,47.18662324],[-1.03260461,47.18650962],[-1.03255896,47.18621824],[-1.0339572,47.18640208],[-1.03461154,47.18629363],[-1.03593012,47.18624405],[-1.03719048,47.18635243],[-1.03941093,47.18700783],[-1.04240209,47.18732527],[-1.04490977,47.18729715],[-1.04602246,47.18712934],[-1.04810577,47.18666345],[-1.04926464,47.18617848],[-1.05051337,47.18609692],[-1.05107853,47.18563001],[-1.05248025,47.1848237],[-1.05455375,47.18314195],[-1.05482303,47.18322356],[-1.05594313,47.18319061],[-1.05642128,47.183447],[-1.05707208,47.18329257],[-1.05979735,47.18460779],[-1.06087134,47.18489194],[-1.06192886,47.1849053],[-1.0635019,47.18472387],[-1.06501828,47.18498252],[-1.06569527,47.18368766],[-1.06634133,47.18135447],[-1.06746734,47.17956423],[-1.06831259,47.17935963],[-1.06894554,47.17893531],[-1.07011249,47.17847418],[-1.07170753,47.1775905],[-1.07181437,47.1783557],[-1.07167636,47.18034021],[-1.07176464,47.1817335],[-1.07257801,47.18517647],[-1.07388926,47.18530971],[-1.07525994,47.1852326],[-1.07589294,47.18527973],[-1.07580478,47.18607073],[-1.07587167,47.18813997],[-1.07628796,47.19038712],[-1.07655585,47.19111239],[-1.07799686,47.19133297],[-1.0790195,47.1918261],[-1.07927196,47.19208585],[-1.08006936,47.19372368],[-1.07809851,47.19509758],[-1.07714098,47.19562082],[-1.07550229,47.19612656],[-1.07556564,47.19649123],[-1.07618727,47.19799194],[-1.07778318,47.19843875],[-1.07885197,47.19863187],[-1.07912694,47.19880428],[-1.07972548,47.19991184],[-1.07839588,47.20196538],[-1.07929248,47.20196264],[-1.07946481,47.20200254],[-1.07947395,47.20207073],[-1.08041589,47.20217726],[-1.08237766,47.20292844],[-1.08284242,47.20319601],[-1.08353557,47.20328334],[-1.08637619,47.20410983],[-1.08903501,47.20503191],[-1.08826251,47.20602378],[-1.08837939,47.20606473],[-1.09150352,47.20590297],[-1.09461722,47.20555218],[-1.09510917,47.20612345],[-1.09433929,47.20735687],[-1.09429115,47.20762812],[-1.09468108,47.20856179],[-1.09396747,47.20876281],[-1.09304358,47.20879097],[-1.09253485,47.20888558],[-1.09282643,47.20969202],[-1.09288969,47.21019281],[-1.09303333,47.21022019],[-1.09321374,47.21040041],[-1.09382214,47.21164909],[-1.09399988,47.2144347],[-1.0945705,47.21405753],[-1.09496102,47.21395628],[-1.09583772,47.2142453],[-1.09710495,47.21443304],[-1.09941027,47.21431899],[-1.10021338,47.21447536],[-1.10259463,47.21552959],[-1.10393343,47.21580487],[-1.10485962,47.21582253],[-1.10955878,47.21491661],[-1.111457,47.21463467],[-1.11297491,47.21521],[-1.11366265,47.21567327],[-1.11414667,47.21509986],[-1.1153596,47.21469796],[-1.11542902,47.21474056],[-1.11495577,47.2156102],[-1.11490781,47.21588235],[-1.11605763,47.21629764],[-1.11612917,47.21638524],[-1.11563374,47.21689597],[-1.1157747,47.21702619],[-1.1179481,47.21795227],[-1.11904447,47.21854973],[-1.12083775,47.21971106],[-1.12260679,47.22038281],[-1.12282493,47.21988012],[-1.12285339,47.21952663],[-1.12307806,47.2191436],[-1.12345552,47.21901026],[-1.12448801,47.21906725],[-1.12503742,47.2193641],[-1.12523008,47.21935724],[-1.12579548,47.21906935],[-1.12581997,47.21899185],[-1.12605313,47.218961],[-1.12613502,47.2187868],[-1.12651551,47.21855508],[-1.1267949,47.21855774],[-1.12668238,47.21814346],[-1.1269664,47.21791337],[-1.12747047,47.21787827],[-1.12820983,47.21802951],[-1.12848549,47.21798362],[-1.12883763,47.21807203],[-1.1297303,47.21780761],[-1.13029108,47.21733956],[-1.1306903,47.216715],[-1.13082403,47.2162685],[-1.13158768,47.2160303],[-1.13182775,47.21586577],[-1.13183459,47.21523177],[-1.1321249,47.21477426],[-1.13241451,47.21470353],[-1.13280461,47.21482122],[-1.13313728,47.21472551],[-1.13352752,47.214845],[-1.13388472,47.21472407],[-1.13399049,47.21448229],[-1.13386526,47.21416132],[-1.13390875,47.21390103],[-1.1342822,47.21373354],[-1.13494037,47.21313938],[-1.13550953,47.21286754],[-1.13567555,47.21177529],[-1.13518703,47.21158178],[-1.1349665,47.21132913],[-1.13461386,47.2113886],[-1.13430734,47.21056835],[-1.13451841,47.21001],[-1.13425767,47.20980204],[-1.13403021,47.20933868],[-1.13403854,47.20912022],[-1.13425555,47.20886275],[-1.13419585,47.2083961],[-1.13462173,47.20746586],[-1.13469312,47.20700083],[-1.13446211,47.20659439],[-1.13468316,47.20601133],[-1.1354553,47.20521476],[-1.13589468,47.20447786],[-1.13706843,47.2037093],[-1.13781269,47.202792],[-1.13817258,47.20208858],[-1.13925488,47.20159372],[-1.1393164,47.20127599],[-1.13982098,47.20106051],[-1.14103886,47.19976745],[-1.14141019,47.19917899],[-1.14145919,47.19890498],[-1.1417141,47.19862541],[-1.14173153,47.19823353],[-1.14231318,47.19774843],[-1.14218334,47.19745377],[-1.14250872,47.1971275],[-1.14300914,47.19694461],[-1.14276668,47.19675045],[-1.14354227,47.1962593],[-1.14359922,47.19608868],[-1.14340455,47.19572513],[-1.14348989,47.19559676],[-1.14338602,47.19529577],[-1.14408609,47.19454588],[-1.1438782,47.19395922],[-1.14414523,47.1936143],[-1.14394933,47.19321743],[-1.14429201,47.19296175],[-1.1446514,47.19281996],[-1.14562444,47.19192326],[-1.14576144,47.19155594],[-1.14610354,47.19139584],[-1.14606934,47.19114103],[-1.14649945,47.19104178],[-1.14667281,47.191352],[-1.14694998,47.19139616],[-1.14687104,47.19157298],[-1.14695425,47.19174309],[-1.1474278,47.19176128],[-1.14742368,47.19196517],[-1.14793095,47.19223187],[-1.14847553,47.19200501],[-1.14861422,47.19201987],[-1.14879045,47.19226417],[-1.14881208,47.19276735],[-1.14892821,47.19284973],[-1.14929674,47.19289512],[-1.14938629,47.19275307],[-1.14960093,47.19268948],[-1.15007456,47.19270856],[-1.15023797,47.19240971],[-1.15112678,47.19229038],[-1.15147018,47.19202744],[-1.15182989,47.19189013],[-1.15176263,47.19146432],[-1.15223368,47.19105615],[-1.15253945,47.19090545],[-1.15284333,47.19047353],[-1.15433896,47.1899754],[-1.15539497,47.1892992],[-1.15529721,47.18888981],[-1.15455652,47.18871717],[-1.15403108,47.18886585],[-1.1536999,47.18836207],[-1.15398073,47.18812841],[-1.15424886,47.18814132],[-1.1541178,47.18774575],[-1.1542437,47.18745815],[-1.15415707,47.18727825],[-1.15427256,47.18711273],[-1.15474578,47.186956],[-1.15507062,47.18698401],[-1.15566415,47.18722053],[-1.15618568,47.1871414],[-1.15657475,47.18745288],[-1.15662418,47.18766476],[-1.15700758,47.18817658],[-1.15702711,47.18841208],[-1.15749855,47.18847178],[-1.15771154,47.18818195],[-1.15762885,47.18789913],[-1.1581966,47.18771646],[-1.15854958,47.1879544],[-1.15870422,47.18791909],[-1.15870022,47.18702942],[-1.15894277,47.18672861],[-1.15889693,47.18649496],[-1.1590527,47.18611523],[-1.15883309,47.18554975],[-1.15944741,47.18547357],[-1.1599332,47.18558233],[-1.16055958,47.1850297],[-1.16067806,47.18502274],[-1.1610812,47.18520838],[-1.16117849,47.1855087],[-1.16131739,47.18562902],[-1.1612669,47.18583098],[-1.16209284,47.18578955],[-1.1617465,47.18620139],[-1.16223704,47.18712314],[-1.16222391,47.18741481],[-1.16430151,47.1878936],[-1.16483473,47.18794834],[-1.1656884,47.18790589],[-1.16733839,47.18854878],[-1.16785879,47.18864273],[-1.16827666,47.18867637],[-1.16879271,47.18840715],[-1.16948005,47.18763501],[-1.17029781,47.18695915],[-1.1704382,47.18668903],[-1.17053316,47.18671987],[-1.17125745,47.18732845],[-1.17223198,47.18848605],[-1.17368184,47.19111584],[-1.17399377,47.19123261],[-1.17533643,47.19215604],[-1.17790872,47.19322709],[-1.17843399,47.19362104],[-1.17842472,47.19467617],[-1.17799915,47.19561652],[-1.17768627,47.19606686],[-1.17694666,47.19664259],[-1.17572257,47.19716277],[-1.17679924,47.19838878],[-1.17358367,47.19871212],[-1.17361197,47.19916187],[-1.1745084,47.19971915],[-1.17542408,47.20059216],[-1.17644665,47.20209149],[-1.17675983,47.20281945],[-1.17772589,47.20374382],[-1.1804885,47.20737374],[-1.18046645,47.20795783],[-1.17959833,47.20883933],[-1.17864503,47.20940835],[-1.17691467,47.21022718],[-1.17571562,47.2110737],[-1.17497728,47.2119072],[-1.17450844,47.21282113],[-1.17438098,47.21390576],[-1.17447827,47.21440891],[-1.17596045,47.21446364],[-1.17691382,47.21471143],[-1.17717465,47.21500313],[-1.17726374,47.21572385],[-1.17814106,47.21630343],[-1.17865575,47.2167798],[-1.178872,47.21688919],[-1.1793012,47.2169296],[-1.17934905,47.21706851],[-1.17971453,47.21715719],[-1.17974007,47.21724732],[-1.17997846,47.21719905],[-1.1801897,47.21743123],[-1.18030925,47.21735209],[-1.18046797,47.21741938],[-1.18062829,47.21735409],[-1.18076277,47.21753495],[-1.18110581,47.21747118],[-1.18127468,47.21754982],[-1.18117471,47.21760843],[-1.18187417,47.21782297],[-1.18266837,47.21828562],[-1.18423965,47.21883739],[-1.18637014,47.21922918],[-1.18701277,47.2192402],[-1.1881729,47.21949034],[-1.18820174,47.21962273],[-1.18840334,47.21969657],[-1.18834668,47.2199204],[-1.18876388,47.22012889],[-1.18849947,47.22033589],[-1.18821751,47.22086087],[-1.18802526,47.22168822],[-1.18820015,47.22252303],[-1.18833922,47.22276231],[-1.18836841,47.22320481],[-1.18809513,47.2234509],[-1.18785429,47.22402848],[-1.18728689,47.22444026],[-1.18707319,47.22478877],[-1.18691935,47.22609254],[-1.1869784,47.22642578],[-1.18680555,47.22690803],[-1.18706072,47.22739736],[-1.18678898,47.22803735],[-1.18624882,47.22844274],[-1.18547844,47.22859409],[-1.18530782,47.22856149],[-1.18514172,47.22865494],[-1.18512375,47.22901891],[-1.18485581,47.22945321],[-1.18425453,47.23002577],[-1.1842036,47.23045945],[-1.1836456,47.23131622],[-1.18298479,47.23183864],[-1.18254377,47.23188612],[-1.18224453,47.23205469],[-1.18205532,47.23244648],[-1.18181469,47.23258589],[-1.18156665,47.23290226],[-1.18154115,47.23352704],[-1.18175752,47.23448747],[-1.18165941,47.23470648],[-1.18179181,47.23492798],[-1.1814391,47.23556638],[-1.18160011,47.23576431],[-1.18142437,47.23619347],[-1.18154351,47.23643168],[-1.18193743,47.23657793],[-1.18205855,47.23675657],[-1.18197268,47.23687777],[-1.18220002,47.23704355],[-1.18203883,47.23726844],[-1.18212898,47.23759334],[-1.18184866,47.23798842],[-1.18213717,47.23832779],[-1.18189273,47.23865666],[-1.1819058,47.23879052],[-1.18230018,47.23911255],[-1.18223781,47.23926355],[-1.18199916,47.23939477],[-1.18190173,47.23960564],[-1.18157638,47.2398644],[-1.18150135,47.24014208],[-1.18118485,47.24034463],[-1.18129041,47.2406293],[-1.18118443,47.2408495],[-1.18139456,47.240896],[-1.18082322,47.24177037],[-1.18035529,47.24206853],[-1.18003261,47.24217484],[-1.17986335,47.24243247],[-1.17937761,47.24270603],[-1.17931987,47.24324001],[-1.17906214,47.24375596],[-1.17867733,47.24399973],[-1.17826897,47.24453644],[-1.17833695,47.24488288],[-1.17805025,47.24514565],[-1.17814506,47.24551365],[-1.17788128,47.24561151],[-1.17770626,47.24593156],[-1.17786156,47.24636229],[-1.17723889,47.24679944],[-1.17687282,47.24691001],[-1.17654695,47.24711198],[-1.17638361,47.24730989],[-1.17639169,47.24749892],[-1.17603194,47.24762277],[-1.17593315,47.24783368],[-1.17565279,47.24802499],[-1.17567131,47.24828036],[-1.1753387,47.24849789],[-1.1753632,47.24876205],[-1.17503682,47.24878734],[-1.1747529,47.24896706],[-1.17472788,47.2492925],[-1.17449548,47.24955601],[-1.17451551,47.24976263],[-1.17418707,47.24984659],[-1.17413249,47.24994502],[-1.17423059,47.25008302],[-1.17414469,47.2507325],[-1.17428604,47.25091583],[-1.17397941,47.25116127],[-1.17410639,47.25138117],[-1.17373652,47.25146031],[-1.17326392,47.25187039],[-1.17327545,47.25218912],[-1.1731242,47.25228742],[-1.17283102,47.25233133],[-1.17272565,47.25262812],[-1.17284348,47.25291777],[-1.17269245,47.25322342],[-1.17240279,47.25339792],[-1.17261742,47.25365524],[-1.17228775,47.25370678],[-1.17202241,47.25424552],[-1.17120932,47.25465343],[-1.17120115,47.25473576],[-1.17141963,47.25488927],[-1.17109915,47.25499096],[-1.17074039,47.25535005],[-1.17054263,47.25542929],[-1.17018572,47.25531773],[-1.16919761,47.25575716],[-1.16850463,47.2559047],[-1.16821796,47.25618637],[-1.16764273,47.25619624],[-1.16721244,47.25635055],[-1.1668714,47.25630692],[-1.16594288,47.25676402],[-1.16495708,47.25696083],[-1.16432839,47.25723765],[-1.16346345,47.25716596],[-1.16330202,47.25723576],[-1.16299834,47.25709342],[-1.16238503,47.25719298],[-1.16178175,47.25704607],[-1.16154338,47.25714839],[-1.16122993,47.25706769],[-1.16095687,47.25711536],[-1.16016874,47.25752229],[-1.15929332,47.25757175],[-1.15907623,47.25776074],[-1.15819495,47.25817911],[-1.15784643,47.25843232],[-1.15775526,47.25862311],[-1.1574421,47.25876867],[-1.15731021,47.25898074],[-1.15692093,47.25899831],[-1.15653363,47.25941788],[-1.15572422,47.25970474],[-1.15565328,47.25996872],[-1.15530326,47.26001463],[-1.15507782,47.26043831],[-1.15462481,47.26083048],[-1.15401249,47.26097774],[-1.15399074,47.26136436],[-1.15380441,47.26150626],[-1.15304159,47.26153991],[-1.15285636,47.26171333],[-1.15216249,47.26200504],[-1.15129825,47.2618575],[-1.15099145,47.26201724],[-1.15041483,47.26200994],[-1.14818958,47.26239793],[-1.14685084,47.26287946],[-1.14641191,47.2628546],[-1.14609717,47.26292897],[-1.14572216,47.26314883],[-1.14414051,47.26364082],[-1.14388799,47.2636805],[-1.14348506,47.26362459],[-1.14293695,47.2638326],[-1.14205184,47.26346578],[-1.14165675,47.26347719],[-1.14091196,47.26322975],[-1.1397909,47.26129644],[-1.13850166,47.26073668],[-1.13814894,47.26038688],[-1.13785887,47.25999067],[-1.13612747,47.25955215],[-1.13612154,47.25890779],[-1.13585052,47.25810522],[-1.13572588,47.25751829],[-1.13579355,47.25667749],[-1.13576406,47.25583024],[-1.1362602,47.25537801],[-1.13667503,47.25512521],[-1.13767411,47.25487678],[-1.13743488,47.25446974],[-1.13691771,47.25390944],[-1.13653413,47.25235003],[-1.13552069,47.25217075],[-1.13455975,47.25195083],[-1.13307414,47.25170904],[-1.13257739,47.2515681],[-1.13127869,47.25093288],[-1.13083598,47.25104693],[-1.13041816,47.25131244],[-1.12861359,47.25227735],[-1.12745368,47.25272434],[-1.12727465,47.25277219],[-1.12663267,47.25275719],[-1.12527342,47.25293631],[-1.12523544,47.2525969],[-1.12467845,47.25163681],[-1.12467224,47.25153877],[-1.12484208,47.2507331],[-1.12493936,47.25060343],[-1.1253035,47.25031101],[-1.12547959,47.25003519],[-1.12551774,47.24987697],[-1.12539704,47.24932235],[-1.12560526,47.24898229],[-1.12467423,47.24737473],[-1.12423555,47.24671333],[-1.12341951,47.24580933],[-1.12191671,47.24613416],[-1.11822542,47.24783852],[-1.11470685,47.24853418],[-1.11224642,47.24842231],[-1.10869711,47.24892505],[-1.10295091,47.24926571],[-1.10261765,47.24932258],[-1.1014979,47.2476963],[-1.10134705,47.24754118],[-1.10269738,47.24695158],[-1.10548233,47.24502293],[-1.10600539,47.24471321],[-1.10697288,47.24396585],[-1.10725577,47.24318145],[-1.10711454,47.24282316],[-1.10691989,47.24252807],[-1.10673372,47.24239584],[-1.10660339,47.24197225],[-1.1065905,47.24176898],[-1.10675333,47.24138819],[-1.10743217,47.24060598],[-1.10798693,47.24012294],[-1.10605067,47.2394686],[-1.10367165,47.23845851],[-1.10279319,47.2381696],[-1.10209073,47.23801869],[-1.10075167,47.23882245],[-1.09421533,47.24255497],[-1.09325721,47.24304498],[-1.09230109,47.2433528],[-1.09158635,47.24278037],[-1.0902525,47.24309972],[-1.08894029,47.24326864],[-1.08751219,47.24353269],[-1.08733929,47.2437308],[-1.08658932,47.24319925],[-1.08619306,47.24321052],[-1.08489359,47.24356465],[-1.08431918,47.24389681],[-1.08354134,47.24475719],[-1.08267349,47.24502576],[-1.08129012,47.24561808],[-1.07901251,47.24667278],[-1.07950199,47.24485532],[-1.07887769,47.24484485],[-1.07735098,47.24450826],[-1.07663359,47.24449204],[-1.07624638,47.24443084],[-1.07495347,47.24401748],[-1.074669,47.24387965],[-1.0727266,47.24455463],[-1.0696815,47.24554507],[-1.06838187,47.24589902],[-1.0675038,47.2466456],[-1.06846836,47.24828213],[-1.06847593,47.24841708],[-1.06766697,47.24862578],[-1.06786921,47.2490063],[-1.06705897,47.24926822],[-1.06600366,47.24942335],[-1.065503,47.24933275],[-1.06510094,47.249373],[-1.06401508,47.24929931],[-1.06379596,47.2493079],[-1.06323138,47.24942235],[-1.06242514,47.24935236],[-1.06216858,47.24923335],[-1.06278695,47.2483598],[-1.06238767,47.24794651],[-1.0625158,47.24782032],[-1.06253154,47.24767824],[-1.06185866,47.24720063],[-1.06152287,47.24701408],[-1.06072046,47.24744966],[-1.06021483,47.24767832],[-1.05790748,47.24832798],[-1.0570201,47.24853303],[-1.05668184,47.2486819],[-1.05663089,47.24865573],[-1.05604967,47.24874279],[-1.05576961,47.24820722],[-1.05564851,47.24816368],[-1.05546812,47.24815918],[-1.0553162,47.24809328],[-1.05449733,47.24738185],[-1.05296536,47.24639518],[-1.05297174,47.24598841],[-1.05274806,47.24591871],[-1.05263055,47.24592282],[-1.05212164,47.24603798],[-1.05211378,47.246004],[-1.05191722,47.24596039],[-1.05181991,47.24589889],[-1.05176083,47.24583515],[-1.05170907,47.24557013],[-1.05161174,47.24552576],[-1.0511601,47.24555778],[-1.05085004,47.24564164],[-1.05055152,47.24565027],[-1.05018945,47.24571161],[-1.04962034,47.2457306],[-1.04858855,47.24588115],[-1.04739654,47.24576775],[-1.04677965,47.24559188],[-1.04651715,47.24555147],[-1.04585294,47.24559089],[-1.04449824,47.24591854],[-1.0441688,47.24606165],[-1.04413528,47.24621426],[-1.0437822,47.24660609],[-1.04375843,47.24678271],[-1.04232021,47.2474612],[-1.04180097,47.24791471],[-1.0416246,47.24815704],[-1.04153383,47.24819987],[-1.04144753,47.24823172],[-1.04116785,47.24822706],[-1.04076068,47.24811145],[-1.03967273,47.2479033],[-1.0379572,47.24732398],[-1.03734279,47.24719846],[-1.03677562,47.24694418],[-1.03496974,47.24563691],[-1.03457792,47.24516107],[-1.03371884,47.24442116],[-1.03324644,47.24391207],[-1.03310901,47.24359775],[-1.03286171,47.242631],[-1.03281742,47.24227016],[-1.03284509,47.24163369],[-1.03258973,47.24130003],[-1.03246504,47.24122595],[-1.03235655,47.24108549],[-1.03222865,47.24045714],[-1.03220644,47.239826],[-1.03211019,47.23933717],[-1.03211526,47.2387168],[-1.03252466,47.23806974],[-1.03251281,47.23780604],[-1.03218711,47.23646431],[-1.03177559,47.235954],[-1.03157887,47.23578417],[-1.03144824,47.23570127],[-1.03086037,47.23560995],[-1.03016663,47.23539521],[-1.02964372,47.23551707],[-1.02890006,47.23592515],[-1.02882261,47.23625146],[-1.02898467,47.23659468],[-1.02903187,47.23697705],[-1.02896364,47.23716151],[-1.0287826,47.23734178],[-1.02810146,47.23777202],[-1.02768129,47.23788759],[-1.02676447,47.23784014],[-1.02634523,47.23770327]]]]},"bbox":[-1.18876388,47.1775905,-1.01995735,47.2638326]},{"type":"Feature","id":"fr-quartier-49218-04bf7edddca9","properties":{"id":"fr-quartier-49218-04bf7edddca9","kind":"quartier","name":"Le Fuilet","cityCode":"49218","cityName":"Montrevault-sur-Èvre","sourceType":"iris","sourceIds":["492180102"],"colorIndex":2,"center":[-1.0985483923995676,47.277888896176]},"geometry":{"type":"MultiPolygon","coordinates":[[[[-1.14641191,47.2628546],[-1.14654912,47.26346542],[-1.14685184,47.26404146],[-1.14734418,47.26551221],[-1.14786543,47.26639685],[-1.14985485,47.26819895],[-1.14895639,47.27038659],[-1.14722345,47.27151147],[-1.14680234,47.27187271],[-1.14459697,47.27562967],[-1.14310958,47.2765068],[-1.14225541,47.27685285],[-1.14154402,47.27726411],[-1.1403336,47.27843601],[-1.14014746,47.27880505],[-1.14021241,47.28004228],[-1.14000546,47.28232321],[-1.13947357,47.28281278],[-1.13764296,47.28417356],[-1.13684035,47.2850532],[-1.13651899,47.28519809],[-1.13559159,47.28518069],[-1.1340403,47.28669551],[-1.13441702,47.28807757],[-1.13492419,47.28908898],[-1.1357753,47.29045411],[-1.13682597,47.29188063],[-1.13749401,47.29317296],[-1.13776716,47.29430989],[-1.13796525,47.29662143],[-1.13821577,47.297413],[-1.13859425,47.29807651],[-1.13693764,47.29785075],[-1.13484955,47.29806134],[-1.13394822,47.29826476],[-1.13191757,47.29953158],[-1.13085258,47.30000223],[-1.12919866,47.30122403],[-1.12730019,47.30197221],[-1.12709485,47.30212826],[-1.12635157,47.30371606],[-1.12546774,47.3044245],[-1.12500572,47.30496559],[-1.12478167,47.30549911],[-1.12465145,47.30644307],[-1.12486427,47.30776337],[-1.12534166,47.30840446],[-1.12512612,47.30885925],[-1.12531238,47.30964411],[-1.12606635,47.31050344],[-1.12666694,47.31181534],[-1.12694755,47.31218938],[-1.12475125,47.31224136],[-1.12116737,47.31177828],[-1.12121889,47.31460614],[-1.12079635,47.31595622],[-1.11944272,47.3160052],[-1.11908131,47.31595943],[-1.11866341,47.31623119],[-1.11752325,47.31647088],[-1.11594295,47.31638183],[-1.11478127,47.31594346],[-1.1118558,47.31532152],[-1.11082091,47.31437471],[-1.10826937,47.31292181],[-1.10720498,47.3125232],[-1.10645974,47.31251894],[-1.10584669,47.31266594],[-1.1043784,47.31272241],[-1.10253834,47.31290919],[-1.10190572,47.31441265],[-1.10041102,47.31684712],[-1.10033479,47.31682097],[-1.09990082,47.31705716],[-1.09910478,47.31706546],[-1.09895611,47.31690665],[-1.09879639,47.31688074],[-1.09761549,47.31684854],[-1.09618709,47.31683859],[-1.09511478,47.31696118],[-1.09027403,47.31642522],[-1.09016701,47.31649931],[-1.08782,47.31614123],[-1.08515764,47.31583658],[-1.0850417,47.31596776],[-1.08552816,47.31659426],[-1.0850907,47.31729025],[-1.08422647,47.31713408],[-1.08411669,47.3172939],[-1.08360375,47.31708569],[-1.08297592,47.31700503],[-1.0827403,47.31746224],[-1.08234145,47.3174294],[-1.0819336,47.31726076],[-1.08197086,47.31680963],[-1.08157963,47.31691173],[-1.08087347,47.31724757],[-1.07826186,47.31781988],[-1.07799522,47.31778237],[-1.07821309,47.31705627],[-1.078138,47.31692279],[-1.07618062,47.3156205],[-1.07794825,47.31451362],[-1.07984049,47.31359973],[-1.08087361,47.31278815],[-1.0781244,47.3112334],[-1.07760304,47.31068653],[-1.07719215,47.30984912],[-1.07678274,47.3096066],[-1.07656475,47.30933662],[-1.07639407,47.30900908],[-1.07663105,47.3083427],[-1.07609557,47.30713827],[-1.07585577,47.30694748],[-1.07563761,47.30641338],[-1.07476282,47.30590596],[-1.07466803,47.3056001],[-1.0747721,47.30520792],[-1.07397352,47.30435978],[-1.07402521,47.30406319],[-1.07392349,47.30370078],[-1.07413556,47.30309027],[-1.07382323,47.3025721],[-1.07341026,47.30219448],[-1.07323141,47.30216019],[-1.0730081,47.30222122],[-1.07302344,47.30205662],[-1.07276307,47.30131486],[-1.07243803,47.30061144],[-1.07237834,47.30010422],[-1.07231428,47.30001092],[-1.07216643,47.2999485],[-1.07080676,47.29963296],[-1.06950655,47.2995596],[-1.0691299,47.29943309],[-1.06855102,47.29933081],[-1.06839751,47.29924605],[-1.06765025,47.29900273],[-1.06655069,47.29869154],[-1.06605797,47.29860695],[-1.06544946,47.29842816],[-1.0652765,47.29833146],[-1.06512276,47.29817369],[-1.06492719,47.29786595],[-1.06475956,47.29740218],[-1.06458173,47.29654123],[-1.06471144,47.29624191],[-1.06493593,47.29595189],[-1.06542298,47.29552467],[-1.0663654,47.29481194],[-1.06650879,47.29451845],[-1.06658358,47.29419402],[-1.06646471,47.29337698],[-1.06647626,47.29302231],[-1.06566753,47.29257831],[-1.0655014,47.29257152],[-1.06515209,47.29264777],[-1.0648719,47.29263956],[-1.06469285,47.29270713],[-1.06458257,47.29282548],[-1.06450321,47.29312484],[-1.06420792,47.29333711],[-1.06347714,47.29362504],[-1.06275211,47.29379647],[-1.0622315,47.2938679],[-1.06180565,47.29379087],[-1.06060718,47.29332623],[-1.06022518,47.29311065],[-1.06003477,47.29290548],[-1.05994301,47.29276085],[-1.05989697,47.29255514],[-1.05989786,47.29207644],[-1.05996551,47.29188477],[-1.06037339,47.29147927],[-1.06055325,47.29089695],[-1.06099929,47.29048831],[-1.06189502,47.28952665],[-1.06201734,47.28923481],[-1.06211208,47.28868342],[-1.06202873,47.28857997],[-1.06168166,47.28849297],[-1.06060015,47.28846955],[-1.05937466,47.28838175],[-1.05912474,47.28833551],[-1.05841385,47.2880449],[-1.05810298,47.28782321],[-1.05782356,47.28747421],[-1.05743908,47.28696213],[-1.05723139,47.28644026],[-1.05672747,47.28580255],[-1.05673929,47.28560833],[-1.05699396,47.28515681],[-1.05707594,47.28480419],[-1.05707777,47.28463555],[-1.05697349,47.28430748],[-1.05698377,47.28356704],[-1.05705828,47.28299292],[-1.05760026,47.28178586],[-1.05823313,47.27995903],[-1.05819721,47.2794663],[-1.05805809,47.27918541],[-1.05722331,47.2785683],[-1.05587265,47.27776731],[-1.05574113,47.2776394],[-1.05523839,47.27682316],[-1.05472948,47.27639836],[-1.05364742,47.27445214],[-1.05281794,47.27328944],[-1.05245033,47.27268301],[-1.05197833,47.27172866],[-1.05160125,47.27110182],[-1.05148646,47.27103733],[-1.0504967,47.27080329],[-1.04967401,47.27048408],[-1.04856248,47.26974137],[-1.04814693,47.269517],[-1.04795286,47.2694724],[-1.04780756,47.26930169],[-1.04741186,47.26902435],[-1.04897119,47.2692953],[-1.04970347,47.26936437],[-1.04924984,47.26847698],[-1.04857916,47.26801273],[-1.04835099,47.26723465],[-1.04804124,47.26658652],[-1.04822891,47.26608958],[-1.04939464,47.26512849],[-1.04877331,47.26468596],[-1.04897476,47.26449503],[-1.04904989,47.26413904],[-1.04958795,47.26414458],[-1.05070902,47.26401436],[-1.05425751,47.26385061],[-1.05603147,47.26254635],[-1.05612539,47.26242227],[-1.05654872,47.26220644],[-1.05590343,47.26076327],[-1.05408771,47.26072404],[-1.05385188,47.26007334],[-1.05440791,47.25984385],[-1.05500645,47.25951101],[-1.0568607,47.25806239],[-1.05719739,47.2577342],[-1.05753245,47.25729699],[-1.05795221,47.25691179],[-1.05865398,47.25608853],[-1.05920801,47.25569322],[-1.06026202,47.25520377],[-1.0614504,47.25451308],[-1.06256008,47.25365747],[-1.06339328,47.25313786],[-1.06437052,47.25231752],[-1.06452909,47.25233089],[-1.06484055,47.25224785],[-1.06554765,47.25181198],[-1.06600643,47.25164624],[-1.06770814,47.25121511],[-1.06888051,47.25096211],[-1.07006138,47.25050686],[-1.06949754,47.24991458],[-1.06889672,47.24960304],[-1.0681557,47.24932798],[-1.0680243,47.24923614],[-1.06786921,47.2490063],[-1.06766697,47.24862578],[-1.06847593,47.24841708],[-1.06846836,47.24828213],[-1.0675038,47.2466456],[-1.06838187,47.24589902],[-1.0696815,47.24554507],[-1.0727266,47.24455463],[-1.074669,47.24387965],[-1.07495347,47.24401748],[-1.07624638,47.24443084],[-1.07663359,47.24449204],[-1.07735098,47.24450826],[-1.07887769,47.24484485],[-1.07950199,47.24485532],[-1.07901251,47.24667278],[-1.08129012,47.24561808],[-1.08267349,47.24502576],[-1.08354134,47.24475719],[-1.08431918,47.24389681],[-1.08489359,47.24356465],[-1.08619306,47.24321052],[-1.08658932,47.24319925],[-1.08733929,47.2437308],[-1.08751219,47.24353269],[-1.08894029,47.24326864],[-1.0902525,47.24309972],[-1.09158635,47.24278037],[-1.09230109,47.2433528],[-1.09325721,47.24304498],[-1.09421533,47.24255497],[-1.10075167,47.23882245],[-1.10209073,47.23801869],[-1.10279319,47.2381696],[-1.10367165,47.23845851],[-1.10605067,47.2394686],[-1.10798693,47.24012294],[-1.10743217,47.24060598],[-1.10675333,47.24138819],[-1.1065905,47.24176898],[-1.10660339,47.24197225],[-1.10673372,47.24239584],[-1.10691989,47.24252807],[-1.10711454,47.24282316],[-1.10725577,47.24318145],[-1.10697288,47.24396585],[-1.10600539,47.24471321],[-1.10548233,47.24502293],[-1.10269738,47.24695158],[-1.10134705,47.24754118],[-1.1014979,47.2476963],[-1.10261765,47.24932258],[-1.10295091,47.24926571],[-1.10869711,47.24892505],[-1.11224642,47.24842231],[-1.11470685,47.24853418],[-1.11822542,47.24783852],[-1.12191671,47.24613416],[-1.12341951,47.24580933],[-1.12423555,47.24671333],[-1.12467423,47.24737473],[-1.12560526,47.24898229],[-1.12539704,47.24932235],[-1.12551774,47.24987697],[-1.12547959,47.25003519],[-1.1253035,47.25031101],[-1.12493936,47.25060343],[-1.12484208,47.2507331],[-1.12467224,47.25153877],[-1.12467845,47.25163681],[-1.12523544,47.2525969],[-1.12527342,47.25293631],[-1.12663267,47.25275719],[-1.12727465,47.25277219],[-1.12745368,47.25272434],[-1.12861359,47.25227735],[-1.13041816,47.25131244],[-1.13083598,47.25104693],[-1.13127869,47.25093288],[-1.13257739,47.2515681],[-1.13307414,47.25170904],[-1.13455975,47.25195083],[-1.13552069,47.25217075],[-1.13653413,47.25235003],[-1.13691771,47.25390944],[-1.13743488,47.25446974],[-1.13767411,47.25487678],[-1.13667503,47.25512521],[-1.1362602,47.25537801],[-1.13576406,47.25583024],[-1.13579355,47.25667749],[-1.13572588,47.25751829],[-1.13585052,47.25810522],[-1.13612154,47.25890779],[-1.13612747,47.25955215],[-1.13785887,47.25999067],[-1.13814894,47.26038688],[-1.13850166,47.26073668],[-1.1397909,47.26129644],[-1.14091196,47.26322975],[-1.14165675,47.26347719],[-1.14205184,47.26346578],[-1.14293695,47.2638326],[-1.14348506,47.26362459],[-1.14388799,47.2636805],[-1.14414051,47.26364082],[-1.14572216,47.26314883],[-1.14609717,47.26292897],[-1.14641191,47.2628546]]]]},"bbox":[-1.14985485,47.23801869,-1.04741186,47.31781988]},{"type":"Feature","id":"fr-quartier-49218-1ebc9dfb760c","properties":{"id":"fr-quartier-49218-1ebc9dfb760c","kind":"quartier","name":"Saint-Pierre-Montlimart","cityCode":"49218","cityName":"Montrevault-sur-Èvre","sourceType":"iris","sourceIds":["492180103"],"colorIndex":3,"center":[-1.035661769128983,47.27372689445597]},"geometry":{"type":"MultiPolygon","coordinates":[[[[-1.00261243,47.24029432],[-1.00367771,47.2405045],[-1.00415159,47.24089556],[-1.00442385,47.240979],[-1.00530813,47.24229425],[-1.00674242,47.24193186],[-1.0122518,47.24175921],[-1.01181202,47.24038985],[-1.01171049,47.23837417],[-1.01156512,47.23756162],[-1.01294326,47.23735343],[-1.01398992,47.23880272],[-1.01591909,47.24005194],[-1.01641508,47.2405783],[-1.01722908,47.24091425],[-1.01758302,47.24124002],[-1.01887702,47.24089676],[-1.01935796,47.24035454],[-1.02022664,47.23984664],[-1.02129648,47.23969232],[-1.02245023,47.23936831],[-1.02340814,47.2392395],[-1.02400432,47.23885822],[-1.02505341,47.23835663],[-1.02586071,47.23782558],[-1.02634523,47.23770327],[-1.02676447,47.23784014],[-1.02768129,47.23788759],[-1.02810146,47.23777202],[-1.0287826,47.23734178],[-1.02896364,47.23716151],[-1.02903187,47.23697705],[-1.02898467,47.23659468],[-1.02882261,47.23625146],[-1.02890006,47.23592515],[-1.02964372,47.23551707],[-1.03016663,47.23539521],[-1.03086037,47.23560995],[-1.03144824,47.23570127],[-1.03157887,47.23578417],[-1.03177559,47.235954],[-1.03218711,47.23646431],[-1.03251281,47.23780604],[-1.03252466,47.23806974],[-1.03211526,47.2387168],[-1.03211019,47.23933717],[-1.03220644,47.239826],[-1.03222865,47.24045714],[-1.03235655,47.24108549],[-1.03246504,47.24122595],[-1.03258973,47.24130003],[-1.03284509,47.24163369],[-1.03281742,47.24227016],[-1.03286171,47.242631],[-1.03310901,47.24359775],[-1.03324644,47.24391207],[-1.03371884,47.24442116],[-1.03457792,47.24516107],[-1.03496974,47.24563691],[-1.03677562,47.24694418],[-1.03734279,47.24719846],[-1.0379572,47.24732398],[-1.03967273,47.2479033],[-1.04076068,47.24811145],[-1.04116785,47.24822706],[-1.04144753,47.24823172],[-1.04153383,47.24819987],[-1.0416246,47.24815704],[-1.04180097,47.24791471],[-1.04232021,47.2474612],[-1.04375843,47.24678271],[-1.0437822,47.24660609],[-1.04413528,47.24621426],[-1.0441688,47.24606165],[-1.04449824,47.24591854],[-1.04585294,47.24559089],[-1.04651715,47.24555147],[-1.04677965,47.24559188],[-1.04739654,47.24576775],[-1.04858855,47.24588115],[-1.04962034,47.2457306],[-1.05018945,47.24571161],[-1.05055152,47.24565027],[-1.05085004,47.24564164],[-1.0511601,47.24555778],[-1.05161174,47.24552576],[-1.05170907,47.24557013],[-1.05176083,47.24583515],[-1.05181991,47.24589889],[-1.05191722,47.24596039],[-1.05211378,47.246004],[-1.05212164,47.24603798],[-1.05263055,47.24592282],[-1.05274806,47.24591871],[-1.05297174,47.24598841],[-1.05296536,47.24639518],[-1.05449733,47.24738185],[-1.0553162,47.24809328],[-1.05546812,47.24815918],[-1.05564851,47.24816368],[-1.05576961,47.24820722],[-1.05604967,47.24874279],[-1.05663089,47.24865573],[-1.05668184,47.2486819],[-1.0570201,47.24853303],[-1.05790748,47.24832798],[-1.06021483,47.24767832],[-1.06072046,47.24744966],[-1.06152287,47.24701408],[-1.06185866,47.24720063],[-1.06253154,47.24767824],[-1.0625158,47.24782032],[-1.06238767,47.24794651],[-1.06278695,47.2483598],[-1.06216858,47.24923335],[-1.06242514,47.24935236],[-1.06323138,47.24942235],[-1.06379596,47.2493079],[-1.06401508,47.24929931],[-1.06510094,47.249373],[-1.065503,47.24933275],[-1.06600366,47.24942335],[-1.06705897,47.24926822],[-1.06786921,47.2490063],[-1.0680243,47.24923614],[-1.0681557,47.24932798],[-1.06889672,47.24960304],[-1.06949754,47.24991458],[-1.07006138,47.25050686],[-1.06888051,47.25096211],[-1.06770814,47.25121511],[-1.06600643,47.25164624],[-1.06554765,47.25181198],[-1.06484055,47.25224785],[-1.06452909,47.25233089],[-1.06437052,47.25231752],[-1.06339328,47.25313786],[-1.06256008,47.25365747],[-1.0614504,47.25451308],[-1.06026202,47.25520377],[-1.05920801,47.25569322],[-1.05865398,47.25608853],[-1.05795221,47.25691179],[-1.05753245,47.25729699],[-1.05719739,47.2577342],[-1.0568607,47.25806239],[-1.05500645,47.25951101],[-1.05440791,47.25984385],[-1.05385188,47.26007334],[-1.05408771,47.26072404],[-1.05590343,47.26076327],[-1.05654872,47.26220644],[-1.05612539,47.26242227],[-1.05603147,47.26254635],[-1.05425751,47.26385061],[-1.05070902,47.26401436],[-1.04958795,47.26414458],[-1.04904989,47.26413904],[-1.04897476,47.26449503],[-1.04877331,47.26468596],[-1.04939464,47.26512849],[-1.04822891,47.26608958],[-1.04804124,47.26658652],[-1.04835099,47.26723465],[-1.04857916,47.26801273],[-1.04924984,47.26847698],[-1.04970347,47.26936437],[-1.04897119,47.2692953],[-1.04741186,47.26902435],[-1.04780756,47.26930169],[-1.04795286,47.2694724],[-1.04814693,47.269517],[-1.04856248,47.26974137],[-1.04967401,47.27048408],[-1.0504967,47.27080329],[-1.05148646,47.27103733],[-1.05160125,47.27110182],[-1.05197833,47.27172866],[-1.05245033,47.27268301],[-1.05281794,47.27328944],[-1.05364742,47.27445214],[-1.05472948,47.27639836],[-1.05523839,47.27682316],[-1.05574113,47.2776394],[-1.05587265,47.27776731],[-1.05722331,47.2785683],[-1.05805809,47.27918541],[-1.05819721,47.2794663],[-1.05823313,47.27995903],[-1.05760026,47.28178586],[-1.05705828,47.28299292],[-1.05698377,47.28356704],[-1.05697349,47.28430748],[-1.05707777,47.28463555],[-1.05707594,47.28480419],[-1.05699396,47.28515681],[-1.05673929,47.28560833],[-1.05672747,47.28580255],[-1.05723139,47.28644026],[-1.05743908,47.28696213],[-1.05782356,47.28747421],[-1.05810298,47.28782321],[-1.05841385,47.2880449],[-1.05912474,47.28833551],[-1.05937466,47.28838175],[-1.06060015,47.28846955],[-1.06168166,47.28849297],[-1.06202873,47.28857997],[-1.06211208,47.28868342],[-1.06201734,47.28923481],[-1.06189502,47.28952665],[-1.06099929,47.29048831],[-1.06055325,47.29089695],[-1.06037339,47.29147927],[-1.05996551,47.29188477],[-1.05989786,47.29207644],[-1.05989697,47.29255514],[-1.05994301,47.29276085],[-1.06003477,47.29290548],[-1.06022518,47.29311065],[-1.06060718,47.29332623],[-1.06180565,47.29379087],[-1.0622315,47.2938679],[-1.06275211,47.29379647],[-1.06347714,47.29362504],[-1.06420792,47.29333711],[-1.06450321,47.29312484],[-1.06458257,47.29282548],[-1.06469285,47.29270713],[-1.0648719,47.29263956],[-1.06515209,47.29264777],[-1.0655014,47.29257152],[-1.06566753,47.29257831],[-1.06647626,47.29302231],[-1.06646471,47.29337698],[-1.06658358,47.29419402],[-1.06650879,47.29451845],[-1.0663654,47.29481194],[-1.06542298,47.29552467],[-1.06493593,47.29595189],[-1.06471144,47.29624191],[-1.06458173,47.29654123],[-1.06475956,47.29740218],[-1.06492719,47.29786595],[-1.06512276,47.29817369],[-1.0652765,47.29833146],[-1.06544946,47.29842816],[-1.06605797,47.29860695],[-1.06655069,47.29869154],[-1.06765025,47.29900273],[-1.06839751,47.29924605],[-1.06855102,47.29933081],[-1.0691299,47.29943309],[-1.06950655,47.2995596],[-1.07080676,47.29963296],[-1.07216643,47.2999485],[-1.07231428,47.30001092],[-1.07237834,47.30010422],[-1.07243803,47.30061144],[-1.07276307,47.30131486],[-1.07302344,47.30205662],[-1.0730081,47.30222122],[-1.07284898,47.3027262],[-1.07269659,47.30290103],[-1.07126205,47.30329394],[-1.07067887,47.30329277],[-1.07018958,47.30311433],[-1.06991764,47.30309323],[-1.06876027,47.30343672],[-1.0678766,47.30356236],[-1.06565912,47.30346975],[-1.06390523,47.30398644],[-1.06211228,47.30475777],[-1.06179008,47.30512332],[-1.06091449,47.30570655],[-1.06034668,47.30634662],[-1.05993621,47.30649169],[-1.05915835,47.30649277],[-1.05862146,47.30617533],[-1.05853331,47.30606123],[-1.05863527,47.30567455],[-1.05857644,47.30526466],[-1.05825053,47.30463515],[-1.05798663,47.30438747],[-1.05761745,47.30420208],[-1.05657963,47.30395443],[-1.05558218,47.30389015],[-1.05506592,47.30403801],[-1.05446747,47.30458897],[-1.05415576,47.30558513],[-1.05357743,47.30649054],[-1.05348631,47.30735458],[-1.05353471,47.30853917],[-1.05343958,47.30882373],[-1.05302981,47.30939964],[-1.05274375,47.30940242],[-1.05176021,47.31033099],[-1.05129955,47.31132152],[-1.05126379,47.3116554],[-1.05091015,47.31192195],[-1.04995929,47.31216067],[-1.0486707,47.31317558],[-1.04792753,47.31339171],[-1.04723906,47.31348965],[-1.0466539,47.31372731],[-1.04583699,47.31379186],[-1.04509607,47.31433691],[-1.04413076,47.31480685],[-1.04360764,47.31525236],[-1.04311012,47.31589709],[-1.04220856,47.31661538],[-1.04199161,47.31699072],[-1.04202119,47.3171898],[-1.0421876,47.31726964],[-1.04275083,47.31726804],[-1.0429594,47.31745007],[-1.04288196,47.3183046],[-1.04274644,47.31863474],[-1.04299666,47.3198267],[-1.04265329,47.32040656],[-1.04203744,47.32094182],[-1.04163186,47.32113623],[-1.04049035,47.32127514],[-1.04016032,47.32124067],[-1.03973566,47.32107607],[-1.03927781,47.32061156],[-1.03925075,47.32034028],[-1.03886397,47.31990394],[-1.03826041,47.31882432],[-1.03754152,47.31804348],[-1.037288,47.31662988],[-1.03746387,47.31572595],[-1.03766011,47.31548025],[-1.03831641,47.31502473],[-1.03900132,47.31487919],[-1.03932215,47.31473912],[-1.03967431,47.31445192],[-1.03993754,47.31393436],[-1.03993158,47.31355597],[-1.03959422,47.31256084],[-1.03931612,47.31244072],[-1.03850815,47.31235978],[-1.03762075,47.31175157],[-1.03727488,47.31092439],[-1.0373889,47.30981529],[-1.0365102,47.30877589],[-1.03569931,47.30853188],[-1.03567986,47.30832614],[-1.0359525,47.3077749],[-1.03477072,47.3074275],[-1.03430734,47.30743371],[-1.03328901,47.30767374],[-1.03259018,47.30816227],[-1.03162249,47.30817697],[-1.03103164,47.30837419],[-1.03077483,47.30827224],[-1.03057115,47.30796021],[-1.03085247,47.30768272],[-1.03116429,47.30767008],[-1.031312,47.30741345],[-1.03091876,47.3073478],[-1.03083721,47.30723254],[-1.03125952,47.30708536],[-1.03100774,47.30694448],[-1.031218,47.30683261],[-1.03120039,47.30665113],[-1.03147618,47.30651174],[-1.03127771,47.3062338],[-1.03159842,47.30591617],[-1.03180661,47.30477135],[-1.03217148,47.30435393],[-1.03185422,47.3041351],[-1.03192067,47.30390834],[-1.0318519,47.30368087],[-1.03196289,47.30275937],[-1.03215991,47.30240097],[-1.03216743,47.30190133],[-1.03238163,47.30129534],[-1.03220882,47.30090022],[-1.03128088,47.30027805],[-1.03116179,47.29994506],[-1.03051522,47.29978725],[-1.03035053,47.29953517],[-1.03030642,47.29843607],[-1.03050544,47.29771614],[-1.03077936,47.29739383],[-1.03088304,47.29709817],[-1.03135659,47.29689331],[-1.03167877,47.29666667],[-1.03175299,47.29650815],[-1.03169829,47.29627388],[-1.03112713,47.29593767],[-1.0306959,47.29548843],[-1.03075087,47.29519717],[-1.03046428,47.29515665],[-1.03034599,47.29493991],[-1.03009,47.29490104],[-1.02988647,47.29473143],[-1.02944025,47.29470006],[-1.02904205,47.29444347],[-1.02873621,47.29442886],[-1.02841001,47.29428425],[-1.0278371,47.29427711],[-1.02732107,47.29448072],[-1.02713662,47.29481254],[-1.02693404,47.29486735],[-1.0267203,47.29540931],[-1.02666898,47.29603216],[-1.02637669,47.29628659],[-1.02620549,47.2963358],[-1.02514238,47.29564076],[-1.02464124,47.29542469],[-1.024266,47.29540346],[-1.0239977,47.29481153],[-1.02367397,47.29471729],[-1.02292428,47.29388967],[-1.02225179,47.29347311],[-1.02156349,47.29275692],[-1.02086593,47.29253593],[-1.02050374,47.29205181],[-1.01976373,47.2918476],[-1.0181979,47.2919208],[-1.01758358,47.2920151],[-1.01701469,47.29188428],[-1.01660859,47.29159186],[-1.01616151,47.29084025],[-1.01581944,47.29048252],[-1.01590783,47.29007022],[-1.01565601,47.28966159],[-1.01543836,47.28940862],[-1.01511767,47.28923043],[-1.01482539,47.28909542],[-1.01313027,47.2887674],[-1.01244525,47.28841161],[-1.01181974,47.28830255],[-1.01159733,47.28786135],[-1.01111147,47.28767083],[-1.01051929,47.28713875],[-1.00971675,47.28731975],[-1.00927388,47.28770464],[-1.00892468,47.28780054],[-1.0083445,47.28757091],[-1.00810943,47.28758084],[-1.00800166,47.28729071],[-1.00814234,47.28702804],[-1.00814987,47.28691601],[-1.00804704,47.28683393],[-1.00803903,47.28670891],[-1.00826795,47.28613762],[-1.00828598,47.28574038],[-1.00840088,47.28552277],[-1.00868706,47.28527491],[-1.00870557,47.28506153],[-1.00885067,47.28491139],[-1.00876059,47.28460983],[-1.00925916,47.28424375],[-1.00916343,47.28402621],[-1.00916834,47.28382593],[-1.008937,47.28361939],[-1.00891775,47.28343257],[-1.008979,47.28327721],[-1.00885636,47.28308945],[-1.0089717,47.28286011],[-1.00926218,47.28268781],[-1.00945208,47.28265871],[-1.01018664,47.28270361],[-1.01084834,47.2828547],[-1.01139932,47.2830664],[-1.01191926,47.28312863],[-1.01217973,47.28321066],[-1.01283885,47.28314999],[-1.01332487,47.28291773],[-1.0134774,47.28265465],[-1.01377235,47.28252455],[-1.01388902,47.28241955],[-1.01393554,47.28212047],[-1.01379113,47.28176581],[-1.01331289,47.28109189],[-1.01318699,47.28078976],[-1.01301659,47.2805658],[-1.0129422,47.28024387],[-1.01261082,47.279975],[-1.0126144,47.27988113],[-1.01277903,47.27967352],[-1.01275594,47.27948862],[-1.01376451,47.2786812],[-1.01412954,47.27851442],[-1.01480099,47.27853083],[-1.01515151,47.27863047],[-1.01539986,47.27860384],[-1.01563345,47.27866335],[-1.01619815,47.27872221],[-1.01641295,47.27865438],[-1.01663502,47.27824105],[-1.01662943,47.27767064],[-1.01652774,47.27749749],[-1.01652401,47.27737683],[-1.01671926,47.27706539],[-1.01668042,47.276918],[-1.01652526,47.27682693],[-1.01652303,47.27674407],[-1.01661604,47.27669488],[-1.01692339,47.27667792],[-1.01705101,47.27663113],[-1.0171777,47.27643023],[-1.01702227,47.27628238],[-1.01700707,47.27607918],[-1.01734919,47.27594293],[-1.01756589,47.27572359],[-1.01788956,47.27557085],[-1.01798455,47.27547742],[-1.0180414,47.2753168],[-1.01788119,47.27510511],[-1.01780448,47.27489413],[-1.0177993,47.27443549],[-1.01784645,47.27423374],[-1.01779163,47.27408511],[-1.01767212,47.27402795],[-1.01729813,47.27398593],[-1.01722305,47.27390289],[-1.01695022,47.27388531],[-1.01661576,47.27366343],[-1.01610241,47.2732278],[-1.01562634,47.27306041],[-1.01534765,47.27275186],[-1.01485313,47.27205417],[-1.01458037,47.27147049],[-1.01452266,47.27076938],[-1.01456732,47.27067589],[-1.01493502,47.27036839],[-1.0149618,47.27008893],[-1.01488717,47.26994097],[-1.0144656,47.2696518],[-1.01435954,47.26950854],[-1.01420387,47.26946345],[-1.01420912,47.26917933],[-1.01398452,47.26884997],[-1.0140197,47.26852334],[-1.01408572,47.26839666],[-1.01457881,47.26797755],[-1.01511073,47.26710368],[-1.01521926,47.26701429],[-1.01560116,47.26687937],[-1.01588296,47.26652166],[-1.01589213,47.26641407],[-1.01573516,47.26617432],[-1.01560009,47.26576706],[-1.01575375,47.2645989],[-1.01573696,47.26423261],[-1.01578464,47.26393168],[-1.01572331,47.26374902],[-1.01562677,47.26366222],[-1.0135189,47.26260215],[-1.01334722,47.26257294],[-1.01271436,47.26262731],[-1.01245097,47.26261119],[-1.01197331,47.26240327],[-1.01185722,47.26230273],[-1.01165277,47.26162202],[-1.01143366,47.26152504],[-1.01096387,47.26099685],[-1.01065123,47.26081747],[-1.01045523,47.26060431],[-1.01046495,47.26029118],[-1.01067414,47.26016675],[-1.01091086,47.26014504],[-1.01093754,47.26004136],[-1.01093219,47.25998746],[-1.01066409,47.25983718],[-1.01076252,47.2595949],[-1.01053703,47.25939448],[-1.01058677,47.25913856],[-1.0101136,47.25895482],[-1.00981547,47.25875691],[-1.00925593,47.25856894],[-1.00857653,47.25865554],[-1.00800755,47.25864277],[-1.00764956,47.2586894],[-1.00749212,47.25867322],[-1.00741766,47.25847387],[-1.0072756,47.25839766],[-1.00703244,47.25843942],[-1.00688725,47.25856974],[-1.0066241,47.25857433],[-1.00585286,47.25815749],[-1.00535784,47.2576626],[-1.00487222,47.2572404],[-1.00465903,47.25715131],[-1.00453305,47.2569889],[-1.00389896,47.25670614],[-1.00345078,47.25639531],[-1.00308165,47.25632783],[-1.00299261,47.25623446],[-1.00279892,47.25560746],[-1.00293243,47.25505388],[-1.00281095,47.25482732],[-1.00258961,47.25457536],[-1.00244037,47.25413611],[-1.00231261,47.25394943],[-1.00187491,47.25353006],[-1.00154346,47.25329272],[-1.00153598,47.25321005],[-1.00143582,47.25321621],[-1.00122426,47.2530243],[-1.00040826,47.25268019],[-1.00016416,47.25249572],[-1.00014204,47.25223417],[-1.00042496,47.25178451],[-1.00080503,47.25135944],[-1.00090929,47.25117736],[-1.00132554,47.25088265],[-1.0017985,47.25021189],[-1.00208698,47.24997927],[-1.00212175,47.24952196],[-1.00222875,47.24937674],[-1.00275869,47.24934671],[-1.00277283,47.24928763],[-1.00262315,47.24898452],[-1.00255134,47.24857145],[-1.00268815,47.24827556],[-1.00303413,47.24805088],[-1.00395779,47.24763766],[-1.00427901,47.24736515],[-1.00438886,47.24711617],[-1.00437961,47.2468677],[-1.00412739,47.24643201],[-1.00412338,47.2461473],[-1.00404516,47.24603913],[-1.00384802,47.24591614],[-1.0037483,47.24594573],[-1.00341753,47.24587693],[-1.00307727,47.24539652],[-1.00282947,47.24530412],[-1.00257476,47.2451723],[-1.00240223,47.24502412],[-1.00226638,47.24497743],[-1.00211984,47.24475173],[-1.00211657,47.24465449],[-1.00245653,47.24468691],[-1.00253178,47.24443552],[-1.00232628,47.24432453],[-1.00226214,47.24422759],[-1.00218702,47.24423199],[-1.00204311,47.24436136],[-1.00196601,47.24437484],[-1.0018084,47.24416034],[-1.00180276,47.2440136],[-1.0018852,47.24392963],[-1.00188903,47.24375011],[-1.00199827,47.24354622],[-1.0018784,47.24337639],[-1.00187737,47.24314927],[-1.00204473,47.24290822],[-1.00228726,47.24289443],[-1.00233692,47.24285035],[-1.00226546,47.24276177],[-1.00213096,47.24273307],[-1.00210253,47.2426358],[-1.00223911,47.24256798],[-1.00223898,47.24244178],[-1.00236096,47.24230236],[-1.00237118,47.2421731],[-1.00218195,47.24213817],[-1.0021296,47.24207508],[-1.00216306,47.24200902],[-1.00232199,47.24197469],[-1.00239114,47.24181906],[-1.00232392,47.24168076],[-1.00217107,47.24165449],[-1.00225891,47.24144773],[-1.0021062,47.24137008],[-1.00204925,47.24113858],[-1.00222866,47.24093497],[-1.00229754,47.24059816],[-1.00261243,47.24029432]]]]},"bbox":[-1.07302344,47.23539521,-1.00014204,47.32127514]}]}