{"type":"FeatureCollection","metadata":{"sourceType":"iris","referenceFile":"carentan-les-marais-quartiers.geojson","source":"IGN / INSEE - Contours IRIS WFS Géoplateforme","sourceUrl":"https://geoservices.ign.fr/contoursiris","license":"Licence Ouverte / Open Licence 2.0","sourceYear":"2026"},"features":[{"type":"Feature","id":"fr-quartier-50099-a39226aa6f51","properties":{"id":"fr-quartier-50099-a39226aa6f51","kind":"quartier","name":"Brévands-Brucheville","cityCode":"50099","cityName":"Carentan-les-Marais","sourceType":"iris","sourceIds":["500990202"],"colorIndex":0,"center":[-1.2454545754412922,49.347724916318725]},"geometry":{"type":"MultiPolygon","coordinates":[[[[-1.21470388,49.32859799],[-1.2133496,49.33091915],[-1.21304087,49.33118648],[-1.21257431,49.33142691],[-1.21095118,49.33207766],[-1.20846345,49.33276754],[-1.20671411,49.33283482],[-1.20660028,49.33279018],[-1.20660817,49.33259996],[-1.20618866,49.33280992],[-1.20464822,49.33305713],[-1.20431021,49.33330385],[-1.20398592,49.33339796],[-1.20367776,49.33341949],[-1.20380974,49.33324746],[-1.20367068,49.3332145],[-1.20220437,49.33337447],[-1.20096352,49.33366431],[-1.19780521,49.33512084],[-1.19756997,49.33529375],[-1.19327749,49.33713615],[-1.18679185,49.34076207],[-1.18606721,49.34128768],[-1.18192702,49.34484815],[-1.17906695,49.34800949],[-1.1781338,49.34870159],[-1.17759067,49.34932708],[-1.17739761,49.34981804],[-1.17718793,49.35005303],[-1.17694245,49.3499652],[-1.17613148,49.34993834],[-1.17573207,49.35009348],[-1.1755577,49.35037315],[-1.17558293,49.3505145],[-1.17594789,49.35076743],[-1.17642827,49.35088043],[-1.17637488,49.3509867],[-1.17073026,49.35744584],[-1.17064972,49.357319],[-1.17045695,49.35726985],[-1.16030413,49.35763442],[-1.16014142,49.35826471],[-1.16019974,49.35840672],[-1.1604554,49.3582962],[-1.16052839,49.35834679],[-1.16009915,49.3585092],[-1.15994736,49.35918952],[-1.1588564,49.36016863],[-1.15517598,49.36241329],[-1.15420206,49.36211104],[-1.15172731,49.36153454],[-1.15051002,49.36158088],[-1.14907125,49.3615295],[-1.14901201,49.36149553],[-1.14979429,49.36152356],[-1.15018345,49.36137607],[-1.15036485,49.36150666],[-1.1505088,49.3614288],[-1.15050735,49.36139375],[-1.15059198,49.36140074],[-1.1501138,49.36117864],[-1.14318392,49.35959292],[-1.13868752,49.35848061],[-1.13803703,49.35808525],[-1.13739678,49.35731958],[-1.13721014,49.35696863],[-1.13650975,49.3544921],[-1.13601283,49.35422378],[-1.11804563,49.34497347],[-1.11528693,49.33171335],[-1.11458858,49.32905477],[-1.11419782,49.32685018],[-1.11448972,49.32614172],[-1.11515417,49.3255979],[-1.13419119,49.3139439],[-1.1347509,49.31369519],[-1.13504365,49.31368876],[-1.13535932,49.3134358],[-1.13575519,49.31344473],[-1.13768569,49.31214264],[-1.13983142,49.31057297],[-1.14035385,49.31003205],[-1.14068279,49.30932764],[-1.14075083,49.30880321],[-1.14028283,49.30870135],[-1.14112228,49.30521591],[-1.14095943,49.30485063],[-1.14022508,49.30405398],[-1.13988057,49.30290008],[-1.13978429,49.30216345],[-1.1398039,49.30143004],[-1.1403217,49.29856863],[-1.1402686,49.29734082],[-1.13958827,49.29620384],[-1.13809665,49.29426924],[-1.13751092,49.29333245],[-1.13712379,49.29310448],[-1.13786871,49.29281697],[-1.13803717,49.29278959],[-1.13811002,49.29266827],[-1.14017733,49.29212113],[-1.14103477,49.29174423],[-1.14216078,49.29095841],[-1.14240935,49.29091747],[-1.14302214,49.29071638],[-1.14320391,49.29056341],[-1.14321945,49.29049986],[-1.14307227,49.29032938],[-1.14356227,49.28962751],[-1.14374211,49.28924506],[-1.14394344,49.28913012],[-1.1441111,49.28909285],[-1.14443657,49.28908437],[-1.1448028,49.28900067],[-1.14504795,49.28898594],[-1.14559123,49.28930754],[-1.14588721,49.28958272],[-1.14614781,49.28969169],[-1.14726295,49.28945711],[-1.14743464,49.28950431],[-1.14760938,49.28940108],[-1.14789288,49.28945255],[-1.14833804,49.28961457],[-1.14855394,49.28961255],[-1.14872968,49.28965871],[-1.14913874,49.28938899],[-1.14976485,49.28933684],[-1.1504569,49.28940305],[-1.15071903,49.28937692],[-1.15088855,49.28958533],[-1.15115523,49.28973549],[-1.15145081,49.28957768],[-1.15175418,49.28958524],[-1.15193758,49.28948711],[-1.15207922,49.28946873],[-1.15367322,49.28892594],[-1.15510482,49.28853726],[-1.15731055,49.28875561],[-1.1580764,49.28866169],[-1.15847409,49.28857596],[-1.15850992,49.28861074],[-1.15915449,49.28848049],[-1.15980933,49.2884435],[-1.16019336,49.28835914],[-1.16051031,49.2883473],[-1.16089516,49.28842675],[-1.16114125,49.28838945],[-1.16297265,49.28838566],[-1.16296866,49.28833629],[-1.16306906,49.28833552],[-1.16813269,49.28856481],[-1.16896785,49.28886902],[-1.16973039,49.28905781],[-1.17011451,49.28924707],[-1.17088524,49.28950308],[-1.17230189,49.28978175],[-1.17299982,49.2901924],[-1.17371402,49.29046386],[-1.1745333,49.29048591],[-1.17514429,49.29057009],[-1.17597492,49.29076638],[-1.17684303,49.29077953],[-1.17697424,49.2908362],[-1.17757558,49.29068214],[-1.17806646,49.2905067],[-1.17838419,49.29045338],[-1.17830123,49.29024471],[-1.17890632,49.29037498],[-1.18032798,49.29044274],[-1.18114521,49.29067727],[-1.18156973,49.29066796],[-1.18157166,49.29152398],[-1.1823483,49.29159698],[-1.18306109,49.29156145],[-1.18371941,49.29139729],[-1.18412467,49.29120139],[-1.18482774,49.29099515],[-1.18452607,49.29049971],[-1.18493218,49.2904163],[-1.18517432,49.29089041],[-1.19742404,49.28604465],[-1.19972166,49.28519227],[-1.20041684,49.28489079],[-1.20115945,49.28464796],[-1.21279248,49.28349224],[-1.21236955,49.28380679],[-1.21212457,49.28405931],[-1.21171426,49.28474791],[-1.21149313,49.28495549],[-1.21132863,49.28530062],[-1.2107964,49.2853048],[-1.21043637,49.28537858],[-1.20991981,49.28589534],[-1.2095094,49.28614463],[-1.20933747,49.28656744],[-1.20943653,49.2866684],[-1.20942823,49.28673531],[-1.20922339,49.2877165],[-1.2090038,49.28836513],[-1.20870622,49.28817566],[-1.20829609,49.28836102],[-1.20821622,49.28857986],[-1.20817983,49.28885929],[-1.20829769,49.28924138],[-1.20804254,49.28994345],[-1.2080172,49.29049347],[-1.20811455,49.2906071],[-1.20846932,49.29070455],[-1.20753585,49.29144289],[-1.20735185,49.29149882],[-1.20633699,49.29242094],[-1.20613846,49.29253499],[-1.20593668,49.29279498],[-1.20576182,49.29309815],[-1.20560867,49.29371834],[-1.20552755,49.29420909],[-1.20556026,49.29461034],[-1.20551496,49.29481447],[-1.20502773,49.29540579],[-1.20417771,49.29629153],[-1.2036113,49.29712776],[-1.20362625,49.29726047],[-1.20373514,49.29743132],[-1.20435781,49.29785972],[-1.20448202,49.29810025],[-1.20484046,49.29849555],[-1.20475673,49.29870102],[-1.20457142,49.29884251],[-1.20415459,49.29901457],[-1.20323353,49.29929963],[-1.20284367,49.29934652],[-1.20262078,49.2994155],[-1.2021197,49.29980384],[-1.20108549,49.30025486],[-1.20100935,49.30041865],[-1.20086503,49.3005227],[-1.20032162,49.30071266],[-1.19988721,49.3008043],[-1.20049427,49.30315431],[-1.19950756,49.30310764],[-1.19915311,49.30311638],[-1.19864698,49.30318981],[-1.1987561,49.30336335],[-1.19908891,49.30330855],[-1.2007633,49.30334748],[-1.2009618,49.30429749],[-1.19968684,49.30446431],[-1.19974899,49.30463588],[-1.19877511,49.30457796],[-1.19908289,49.30558538],[-1.19881775,49.30562611],[-1.19890831,49.30612977],[-1.19887761,49.3063784],[-1.19771224,49.30658999],[-1.19599435,49.30682979],[-1.19585368,49.30642059],[-1.19613175,49.30636951],[-1.19601872,49.30601246],[-1.19651824,49.30594197],[-1.19573884,49.30511029],[-1.195076,49.30530528],[-1.19474494,49.30495851],[-1.19448482,49.30504407],[-1.19415082,49.30462719],[-1.19292562,49.30489843],[-1.1928354,49.30456759],[-1.19291349,49.30454597],[-1.19269712,49.30403498],[-1.19024477,49.30446856],[-1.18727717,49.30464361],[-1.1871106,49.3033207],[-1.1871023,49.30279438],[-1.18716897,49.30224204],[-1.18535827,49.30238859],[-1.18418085,49.30256987],[-1.18120965,49.30247844],[-1.17958038,49.3025538],[-1.17957202,49.30435358],[-1.17747368,49.30424712],[-1.17746686,49.30433287],[-1.17770089,49.30434997],[-1.17759228,49.30491275],[-1.17724418,49.30568006],[-1.1775927,49.30575081],[-1.17727206,49.30684034],[-1.17749288,49.3068471],[-1.17747869,49.30840581],[-1.17697073,49.3084576],[-1.17693275,49.3098587],[-1.17697447,49.3100508],[-1.17791315,49.31096529],[-1.1779454,49.31098938],[-1.17833999,49.31093161],[-1.17834216,49.31136632],[-1.17828493,49.3113737],[-1.17834088,49.31211532],[-1.17693091,49.31233517],[-1.17551511,49.31265333],[-1.1759489,49.31386166],[-1.17593663,49.31437338],[-1.17610499,49.31463311],[-1.17555214,49.31572975],[-1.17575082,49.31576879],[-1.17522473,49.31629469],[-1.17545618,49.3168745],[-1.17484466,49.3176041],[-1.17458597,49.31803163],[-1.17361105,49.31913745],[-1.17303405,49.31956249],[-1.17170064,49.32025491],[-1.1718912,49.32073801],[-1.17266764,49.32070127],[-1.17300225,49.32063299],[-1.17485151,49.32003613],[-1.17595595,49.31973056],[-1.17615704,49.31962909],[-1.17622651,49.31950066],[-1.17675633,49.31915646],[-1.17709027,49.31865521],[-1.17719137,49.3186283],[-1.1773558,49.31865232],[-1.17795901,49.31855132],[-1.17879252,49.31867549],[-1.17964439,49.31892414],[-1.18016417,49.31903396],[-1.18174585,49.31887474],[-1.18196971,49.3189354],[-1.18223157,49.31907395],[-1.18328156,49.31908257],[-1.18335467,49.31915205],[-1.18554265,49.31933723],[-1.18604325,49.31949901],[-1.18619757,49.31941534],[-1.18697559,49.31982223],[-1.18753245,49.32001536],[-1.18788483,49.31975918],[-1.18829888,49.31934693],[-1.18854904,49.31947687],[-1.18910468,49.31987527],[-1.18976144,49.32017924],[-1.19032104,49.32033804],[-1.19079806,49.32034489],[-1.1910374,49.32039239],[-1.19124461,49.32048511],[-1.19160198,49.32073105],[-1.19200869,49.32083845],[-1.19224772,49.32076353],[-1.19321101,49.32021336],[-1.19435434,49.31971003],[-1.19470955,49.31933671],[-1.19574337,49.31892629],[-1.19678117,49.31946183],[-1.19767428,49.31997898],[-1.19765168,49.32009048],[-1.19875543,49.32036985],[-1.19951803,49.32063678],[-1.20051381,49.32090909],[-1.20097935,49.32123135],[-1.20112937,49.32143317],[-1.20210151,49.32234453],[-1.20235014,49.3224889],[-1.20290206,49.32300889],[-1.20356077,49.32347025],[-1.20418452,49.3238068],[-1.20493797,49.32409562],[-1.2054144,49.32419604],[-1.20636985,49.32451292],[-1.20674994,49.32454648],[-1.207434,49.32481159],[-1.20776539,49.32499088],[-1.20820067,49.32532948],[-1.20848798,49.32564353],[-1.20887229,49.32589748],[-1.20984608,49.3253081],[-1.20992954,49.325352],[-1.21010006,49.32561881],[-1.21038077,49.32622295],[-1.21075549,49.32654475],[-1.21085527,49.32656917],[-1.21151469,49.32629591],[-1.21207657,49.32619438],[-1.21220516,49.32625111],[-1.21300046,49.32634308],[-1.21345414,49.32685565],[-1.21474605,49.32677184],[-1.21533319,49.32669282],[-1.21638133,49.32671022],[-1.21470388,49.32859799]]],[[[-1.2434512,49.36897685],[-1.24164446,49.3706219],[-1.24198244,49.37077566],[-1.24195791,49.37139854],[-1.2427727,49.37190192],[-1.24130763,49.37326131],[-1.24103874,49.37382975],[-1.24163339,49.37437147],[-1.24065518,49.37503142],[-1.24144511,49.37548348],[-1.24235996,49.37582852],[-1.24212586,49.37609959],[-1.24120272,49.37660819],[-1.2407682,49.37650462],[-1.23885654,49.37637637],[-1.23846603,49.37623794],[-1.23794616,49.37588441],[-1.23747074,49.37571926],[-1.23742379,49.37550037],[-1.23707897,49.37546475],[-1.23692306,49.37529559],[-1.23672859,49.375261],[-1.23607901,49.3748553],[-1.23573506,49.37486376],[-1.23550318,49.37477648],[-1.23511037,49.37481095],[-1.23469995,49.37469842],[-1.23447261,49.37486751],[-1.23378998,49.37483113],[-1.23287648,49.37502156],[-1.23134599,49.37495095],[-1.22972171,49.37529948],[-1.22888421,49.37493813],[-1.22919447,49.3745195],[-1.22857448,49.374507],[-1.22767877,49.37410807],[-1.22656169,49.3738168],[-1.22362294,49.37467751],[-1.22344568,49.37493665],[-1.22207605,49.37551651],[-1.22193442,49.37575639],[-1.22143323,49.37564609],[-1.22010227,49.37627768],[-1.21983978,49.37650648],[-1.21934352,49.37674255],[-1.21918706,49.37688574],[-1.21920005,49.37707792],[-1.21894632,49.3772623],[-1.21877885,49.37728796],[-1.21834771,49.37769637],[-1.2161194,49.3787013],[-1.21597169,49.37856423],[-1.21474602,49.3786646],[-1.21422907,49.37881675],[-1.21384857,49.37878322],[-1.21332377,49.37890684],[-1.21232338,49.3788625],[-1.21131136,49.37870965],[-1.21112945,49.37839014],[-1.21045371,49.37799963],[-1.21038051,49.37782935],[-1.21016202,49.37771995],[-1.21050123,49.37696191],[-1.21018853,49.37659385],[-1.20842023,49.37668336],[-1.20806882,49.37649937],[-1.20742287,49.37652367],[-1.20602018,49.37627906],[-1.20441317,49.37616577],[-1.2041725,49.37593651],[-1.20378891,49.37603357],[-1.20356013,49.37588221],[-1.20306314,49.37611013],[-1.20262229,49.37602915],[-1.20233174,49.37620218],[-1.20182937,49.37602613],[-1.2015804,49.37610049],[-1.20132273,49.37600054],[-1.20074487,49.37603143],[-1.20002026,49.3758856],[-1.1997668,49.37595562],[-1.19944985,49.37590633],[-1.19915908,49.37607666],[-1.19898913,49.37585213],[-1.19912873,49.37556914],[-1.1988367,49.37555498],[-1.19849979,49.37534526],[-1.19836036,49.3753429],[-1.19777455,49.37561439],[-1.19748486,49.37554435],[-1.1972409,49.37522337],[-1.19670157,49.37528712],[-1.19611681,49.37519941],[-1.1955701,49.37500327],[-1.19505917,49.37502641],[-1.19508008,49.37467373],[-1.19464498,49.37417216],[-1.1952503,49.37205833],[-1.19476344,49.37210584],[-1.19430269,49.37205073],[-1.19421772,49.37192136],[-1.1941016,49.37191729],[-1.19406113,49.37170806],[-1.19416569,49.3714686],[-1.19400411,49.37124467],[-1.19414228,49.37114716],[-1.19501002,49.37108823],[-1.1952344,49.3708644],[-1.19527484,49.37059926],[-1.1946377,49.37017222],[-1.19434048,49.37014473],[-1.19352787,49.36641036],[-1.19331098,49.36630267],[-1.19281569,49.36622895],[-1.19259264,49.36665526],[-1.19219293,49.36689237],[-1.19200296,49.36726802],[-1.19146405,49.36711569],[-1.1911119,49.36683627],[-1.19070477,49.36615188],[-1.18958378,49.36553637],[-1.18874224,49.36447549],[-1.18881495,49.36428484],[-1.18913832,49.36402428],[-1.1888897,49.36361074],[-1.18849701,49.3632391],[-1.18832201,49.36320556],[-1.1880308,49.36331917],[-1.18799127,49.36379942],[-1.18770373,49.36399212],[-1.18645608,49.36410648],[-1.18591422,49.36446011],[-1.18539177,49.36462853],[-1.18389112,49.36413954],[-1.1824288,49.36346017],[-1.18269766,49.36332574],[-1.18330521,49.36272862],[-1.1828197,49.36163736],[-1.18242044,49.35994452],[-1.18247428,49.35913073],[-1.1827883,49.35858517],[-1.18323215,49.35817914],[-1.18424155,49.35757618],[-1.18571971,49.35692547],[-1.18558938,49.35681387],[-1.18169948,49.35534006],[-1.18143594,49.35433382],[-1.18165168,49.35181315],[-1.1822584,49.34828696],[-1.18299903,49.34681926],[-1.18338485,49.34639542],[-1.18329901,49.34615266],[-1.18341098,49.34597055],[-1.18371658,49.34574662],[-1.18429531,49.34603622],[-1.18445563,49.34604237],[-1.18985477,49.34263257],[-1.18993506,49.3421797],[-1.19016982,49.3418646],[-1.19060028,49.34170293],[-1.19147207,49.34161506],[-1.19262347,49.34089996],[-1.19283079,49.3405696],[-1.19329165,49.34047708],[-1.19415147,49.33993772],[-1.19413982,49.3398283],[-1.19332566,49.3394218],[-1.19354181,49.33920006],[-1.19353856,49.33894002],[-1.19399759,49.33848659],[-1.19437927,49.33848774],[-1.19540121,49.33785902],[-1.19633132,49.33757464],[-1.19868029,49.33889723],[-1.20295882,49.33571837],[-1.20274777,49.33503889],[-1.20316654,49.33492079],[-1.20305175,49.33464483],[-1.20287654,49.33460772],[-1.20453441,49.33424573],[-1.20758617,49.33376492],[-1.2093504,49.33328933],[-1.21319603,49.33193902],[-1.21385469,49.33158836],[-1.21450991,49.33102717],[-1.21533656,49.32980015],[-1.21551661,49.32972815],[-1.21775276,49.32687475],[-1.21869785,49.32590191],[-1.21978912,49.3250833],[-1.22126314,49.3243647],[-1.22144209,49.32365719],[-1.2230774,49.32132697],[-1.2236713,49.32070936],[-1.22434363,49.32015831],[-1.22535033,49.31963785],[-1.22576784,49.31967454],[-1.22632048,49.31989825],[-1.22766931,49.32091414],[-1.22868323,49.32147275],[-1.23135114,49.32243428],[-1.23166658,49.32240161],[-1.23267725,49.32300352],[-1.23345424,49.32364422],[-1.23526012,49.32438654],[-1.23726419,49.32544505],[-1.23823361,49.32616359],[-1.23904368,49.32650152],[-1.23992661,49.32670366],[-1.23996919,49.3268363],[-1.24016981,49.32673023],[-1.24210393,49.32665146],[-1.2447415,49.32605011],[-1.24553294,49.32565948],[-1.24524055,49.32545372],[-1.24621674,49.32506559],[-1.24884597,49.32424749],[-1.25078558,49.32358505],[-1.25927613,49.32086769],[-1.26387974,49.31913333],[-1.27051334,49.31654014],[-1.27202031,49.31598087],[-1.27285661,49.315737],[-1.27347994,49.31564831],[-1.27379035,49.31565532],[-1.27443609,49.31575398],[-1.27494327,49.31590885],[-1.2763149,49.31649132],[-1.27850828,49.31755057],[-1.28101385,49.31908484],[-1.28298283,49.32052377],[-1.28425635,49.32166328],[-1.28555394,49.32317461],[-1.28711815,49.32464496],[-1.28802958,49.32586661],[-1.2887541,49.32631439],[-1.28938492,49.32652964],[-1.28997691,49.3265266],[-1.29125226,49.32675763],[-1.29173509,49.32666755],[-1.29293578,49.32605139],[-1.29356496,49.32584986],[-1.29443028,49.32593701],[-1.29486635,49.32660837],[-1.29594137,49.32780704],[-1.2959165,49.32858303],[-1.29605104,49.32923902],[-1.29560681,49.32977607],[-1.29555245,49.32961956],[-1.29524336,49.32991053],[-1.29627099,49.33070488],[-1.29971588,49.33199198],[-1.30022454,49.33232676],[-1.30035881,49.33339145],[-1.30005531,49.3342944],[-1.30013925,49.3346236],[-1.30112133,49.33538172],[-1.30281861,49.33589468],[-1.30414426,49.33604817],[-1.30471558,49.33698385],[-1.30495871,49.33798164],[-1.30516042,49.33836785],[-1.30546841,49.33865755],[-1.30596258,49.33875155],[-1.3066814,49.3386818],[-1.30802215,49.33805871],[-1.30840484,49.33798924],[-1.30877134,49.33808868],[-1.30910771,49.33828913],[-1.31010799,49.33916356],[-1.31063697,49.33919599],[-1.31117773,49.33899033],[-1.31187815,49.33837116],[-1.31204047,49.33802237],[-1.31220076,49.33713891],[-1.31459363,49.33690757],[-1.31532345,49.33692019],[-1.31645343,49.33708865],[-1.31850147,49.33759245],[-1.3045197,49.34706082],[-1.30418961,49.34848685],[-1.30427763,49.34851792],[-1.30357552,49.34979605],[-1.30255101,49.35135574],[-1.30129227,49.35427048],[-1.30129457,49.35679101],[-1.3010976,49.35773335],[-1.3009515,49.35773315],[-1.30061305,49.35840056],[-1.2992931,49.35819009],[-1.29916089,49.35824071],[-1.29981034,49.35905389],[-1.3005651,49.35970847],[-1.3003761,49.3601356],[-1.30042543,49.36026438],[-1.30053854,49.36028195],[-1.30068948,49.36258562],[-1.3052045,49.36294509],[-1.30527438,49.36231335],[-1.30559707,49.36149075],[-1.30677505,49.35993549],[-1.30712833,49.35962762],[-1.30818519,49.35804245],[-1.30813769,49.35773807],[-1.30773332,49.35723667],[-1.3079975,49.35686896],[-1.30817471,49.35689504],[-1.30838231,49.35637811],[-1.30823716,49.35635629],[-1.30841271,49.35609886],[-1.30872217,49.35614093],[-1.30881714,49.35623837],[-1.31049297,49.35620557],[-1.31277648,49.35559561],[-1.31424596,49.35550171],[-1.3142536,49.35544472],[-1.31592885,49.35535606],[-1.31621878,49.35539521],[-1.31755182,49.35508739],[-1.31772569,49.35515589],[-1.31671514,49.35589149],[-1.31436851,49.35796935],[-1.31412448,49.35801767],[-1.31403951,49.35790818],[-1.31334197,49.35762612],[-1.31282255,49.35766088],[-1.31089442,49.35878028],[-1.31078147,49.35914349],[-1.31078487,49.35982664],[-1.3120753,49.36098416],[-1.31252196,49.36103483],[-1.3129752,49.36096643],[-1.31411035,49.35998876],[-1.31637728,49.36312785],[-1.30541016,49.36387217],[-1.29694462,49.36417184],[-1.29668067,49.36414702],[-1.29598212,49.36305922],[-1.29587331,49.36302708],[-1.29484671,49.36322833],[-1.29540446,49.36436345],[-1.29459078,49.36419254],[-1.29365416,49.36377034],[-1.29356344,49.36387259],[-1.29129512,49.36392709],[-1.29119572,49.36397473],[-1.29142964,49.36453265],[-1.29008312,49.36473262],[-1.28881542,49.36452198],[-1.28813505,49.36431299],[-1.2878513,49.36388466],[-1.28783155,49.36341546],[-1.28704237,49.36239564],[-1.28379861,49.36346494],[-1.28070677,49.3646557],[-1.28068572,49.36456822],[-1.27755038,49.36541926],[-1.27713359,49.36557895],[-1.27674502,49.36597889],[-1.27591627,49.36554283],[-1.27457556,49.36463429],[-1.27374268,49.36436399],[-1.27313905,49.36280281],[-1.27275311,49.36105749],[-1.27235536,49.36121379],[-1.26926124,49.36199565],[-1.2690496,49.36190321],[-1.26537453,49.36169548],[-1.26531479,49.36090722],[-1.26056313,49.36096241],[-1.25769179,49.36062258],[-1.25691238,49.36159795],[-1.25578123,49.36328784],[-1.25375751,49.36505237],[-1.2526764,49.36563054],[-1.25144011,49.36663365],[-1.25094012,49.36672146],[-1.24969926,49.36778682],[-1.2489316,49.3681892],[-1.24828954,49.36840982],[-1.24649133,49.3687683],[-1.24420939,49.36936249],[-1.24382663,49.3691671],[-1.2434512,49.36897685]]]]},"bbox":[-1.31850147,49.28349224,-1.11419782,49.37890684]},{"type":"Feature","id":"fr-quartier-50099-90822baa9076","properties":{"id":"fr-quartier-50099-90822baa9076","kind":"quartier","name":"Centre Ancien","cityCode":"50099","cityName":"Carentan-les-Marais","sourceType":"iris","sourceIds":["500990101"],"colorIndex":1,"center":[-1.2444422442380632,49.30191420963507]},"geometry":{"type":"MultiPolygon","coordinates":[[[[-1.23421495,49.30449697],[-1.23409448,49.30443819],[-1.23429438,49.30405578],[-1.2344351,49.30340538],[-1.23435312,49.30306077],[-1.23444759,49.30290351],[-1.23437948,49.30237567],[-1.23428429,49.30244023],[-1.23421401,49.30240579],[-1.23418748,49.30062337],[-1.23413888,49.30050084],[-1.23400659,49.29776519],[-1.2340435,49.29762796],[-1.23620973,49.2948404],[-1.23721457,49.2928633],[-1.23723924,49.29249334],[-1.23808855,49.29333222],[-1.23861749,49.29368904],[-1.23888305,49.29373822],[-1.23819352,49.2924319],[-1.2382919,49.29212146],[-1.2509666,49.29522595],[-1.2519764,49.29565399],[-1.25261626,49.29603564],[-1.25293779,49.29617914],[-1.25294961,49.29627235],[-1.25234154,49.29701128],[-1.25030982,49.29980161],[-1.24959415,49.3008729],[-1.24850224,49.30244086],[-1.24802331,49.30287724],[-1.24777069,49.30278531],[-1.24761483,49.30304916],[-1.24771539,49.30308343],[-1.2477065,49.30315936],[-1.24914868,49.30383776],[-1.25011929,49.30435632],[-1.25077367,49.3048797],[-1.25733209,49.31216629],[-1.25677215,49.31253893],[-1.25271088,49.31423324],[-1.25224604,49.31437385],[-1.2519332,49.31433716],[-1.25053288,49.31326842],[-1.25012006,49.31275363],[-1.24973641,49.31237554],[-1.24883496,49.31177893],[-1.24871414,49.31154913],[-1.24862052,49.3110645],[-1.24798183,49.31011385],[-1.24725222,49.3092123],[-1.24621626,49.30748252],[-1.24564647,49.30606311],[-1.24297817,49.30602735],[-1.24106012,49.30684468],[-1.24050016,49.30656459],[-1.2399016,49.30640108],[-1.23955752,49.30610079],[-1.23859519,49.30564848],[-1.23824251,49.30564557],[-1.23787502,49.3057305],[-1.23781289,49.30569487],[-1.2377464,49.30572331],[-1.23753596,49.30557497],[-1.23678593,49.30529343],[-1.23421495,49.30449697]]]]},"bbox":[-1.25733209,49.29212146,-1.23400659,49.31437385]},{"type":"Feature","id":"fr-quartier-50099-91ac17eab2f4","properties":{"id":"fr-quartier-50099-91ac17eab2f4","kind":"quartier","name":"Le Bocage Sud","cityCode":"50099","cityName":"Carentan-les-Marais","sourceType":"iris","sourceIds":["500990102"],"colorIndex":2,"center":[-1.2603434655967007,49.28309769843214]},"geometry":{"type":"MultiPolygon","coordinates":[[[[-1.2382919,49.29212146],[-1.2408118,49.29062851],[-1.240851,49.29040207],[-1.24060365,49.28988773],[-1.24053904,49.28931925],[-1.24082183,49.28885828],[-1.24090789,49.28816387],[-1.24120462,49.28753767],[-1.2419787,49.28679205],[-1.24268796,49.28571021],[-1.24292307,49.2848539],[-1.2420419,49.28210314],[-1.24207856,49.28187949],[-1.242522,49.28134804],[-1.24215942,49.28025169],[-1.24192566,49.27996913],[-1.24187586,49.27902832],[-1.24223644,49.27824232],[-1.24297599,49.27724582],[-1.24631909,49.27518268],[-1.24777622,49.27367833],[-1.25067283,49.27261386],[-1.25759852,49.26870627],[-1.25881483,49.26820777],[-1.2605518,49.26735055],[-1.26070851,49.26674903],[-1.26099802,49.26660646],[-1.26114481,49.2663681],[-1.26162287,49.26624316],[-1.26229646,49.26558735],[-1.26468389,49.26401295],[-1.26504563,49.2641622],[-1.26712849,49.26328183],[-1.2672932,49.26339394],[-1.27108155,49.26312652],[-1.27193076,49.26368071],[-1.27217154,49.26368118],[-1.27249308,49.26382643],[-1.27284433,49.2638653],[-1.27298018,49.26401083],[-1.27495673,49.26365896],[-1.27650066,49.26306672],[-1.27543002,49.26503851],[-1.2753834,49.26934262],[-1.27558939,49.26970353],[-1.2774174,49.27152477],[-1.27891229,49.27569944],[-1.27705894,49.27709491],[-1.27958407,49.27782726],[-1.27877349,49.27955214],[-1.2781518,49.28063473],[-1.2766761,49.28280361],[-1.27639702,49.28352112],[-1.27500182,49.28583296],[-1.27367284,49.28755006],[-1.2717062,49.28967864],[-1.27096842,49.29080848],[-1.27048016,49.29136143],[-1.26816537,49.29510831],[-1.26747534,49.29640118],[-1.26585333,49.29792686],[-1.26543598,49.29940542],[-1.26459134,49.30102782],[-1.26463965,49.30107923],[-1.26469132,49.3010549],[-1.26532714,49.30106933],[-1.26544771,49.30122891],[-1.26504171,49.30302845],[-1.26507247,49.30361702],[-1.26525687,49.30401561],[-1.26464031,49.30413464],[-1.26224677,49.30439117],[-1.26046734,49.30453235],[-1.25819818,49.30461157],[-1.25661835,49.30456919],[-1.25477435,49.30441188],[-1.25264726,49.30409348],[-1.25330434,49.30354728],[-1.25285314,49.3028502],[-1.2548693,49.30252524],[-1.25427459,49.30102301],[-1.25385282,49.30069939],[-1.25358977,49.30014692],[-1.24959415,49.3008729],[-1.25030982,49.29980161],[-1.25234154,49.29701128],[-1.25294961,49.29627235],[-1.25293779,49.29617914],[-1.25261626,49.29603564],[-1.2519764,49.29565399],[-1.2509666,49.29522595],[-1.2382919,49.29212146]]]]},"bbox":[-1.27958407,49.26306672,-1.2382919,49.30461157]},{"type":"Feature","id":"fr-quartier-50099-b19286507476","properties":{"id":"fr-quartier-50099-b19286507476","kind":"quartier","name":"Le Marais Nord","cityCode":"50099","cityName":"Carentan-les-Marais","sourceType":"iris","sourceIds":["500990103"],"colorIndex":3,"center":[-1.2523915740521943,49.31445811598905]},"geometry":{"type":"MultiPolygon","coordinates":[[[[-1.24524055,49.32545372],[-1.24485425,49.32527826],[-1.24467751,49.32547352],[-1.24377143,49.32582676],[-1.24153379,49.32621689],[-1.23966345,49.32616648],[-1.23913316,49.32598166],[-1.23879484,49.32570278],[-1.23846259,49.32559832],[-1.23665977,49.32452556],[-1.23630498,49.32441468],[-1.23561794,49.32391398],[-1.23272852,49.32242019],[-1.22838505,49.31983493],[-1.22801282,49.31952749],[-1.22725588,49.31837384],[-1.22643324,49.31779592],[-1.22648718,49.31761399],[-1.2263699,49.31752718],[-1.23910338,49.30707459],[-1.23781289,49.30569487],[-1.23787502,49.3057305],[-1.23824251,49.30564557],[-1.23859519,49.30564848],[-1.23955752,49.30610079],[-1.2399016,49.30640108],[-1.24050016,49.30656459],[-1.24106012,49.30684468],[-1.24297817,49.30602735],[-1.24564647,49.30606311],[-1.24621626,49.30748252],[-1.24725222,49.3092123],[-1.24798183,49.31011385],[-1.24862052,49.3110645],[-1.24871414,49.31154913],[-1.24883496,49.31177893],[-1.24973641,49.31237554],[-1.25012006,49.31275363],[-1.25053288,49.31326842],[-1.2519332,49.31433716],[-1.25224604,49.31437385],[-1.25271088,49.31423324],[-1.25677215,49.31253893],[-1.25733209,49.31216629],[-1.25077367,49.3048797],[-1.25011929,49.30435632],[-1.24914868,49.30383776],[-1.2477065,49.30315936],[-1.24771539,49.30308343],[-1.24761483,49.30304916],[-1.24777069,49.30278531],[-1.24802331,49.30287724],[-1.24850224,49.30244086],[-1.24959415,49.3008729],[-1.25358977,49.30014692],[-1.25385282,49.30069939],[-1.25427459,49.30102301],[-1.2548693,49.30252524],[-1.25285314,49.3028502],[-1.25330434,49.30354728],[-1.25264726,49.30409348],[-1.25477435,49.30441188],[-1.25661835,49.30456919],[-1.25819818,49.30461157],[-1.26046734,49.30453235],[-1.26224677,49.30439117],[-1.26464031,49.30413464],[-1.26489879,49.30464674],[-1.26532797,49.30497546],[-1.26612175,49.30533449],[-1.26748586,49.30579758],[-1.26822915,49.30592883],[-1.26882072,49.3062563],[-1.2702501,49.30642627],[-1.271662,49.30646811],[-1.2719424,49.30754298],[-1.27128274,49.30878796],[-1.27203215,49.30929167],[-1.27208221,49.30977963],[-1.27222728,49.30998515],[-1.27311686,49.31025253],[-1.27379617,49.31012584],[-1.27432696,49.31038341],[-1.2747613,49.31034101],[-1.27508051,49.31038822],[-1.2765338,49.31079494],[-1.28015058,49.31228443],[-1.2800835,49.31230571],[-1.28072817,49.31262404],[-1.28129117,49.31305328],[-1.28326958,49.31351421],[-1.28504679,49.31412179],[-1.28496344,49.31456047],[-1.2846275,49.31547264],[-1.28419175,49.31551512],[-1.28334963,49.31543969],[-1.28300222,49.31551774],[-1.28244264,49.31585989],[-1.28155577,49.31566],[-1.28135043,49.31605619],[-1.2807713,49.3166772],[-1.27948149,49.31673285],[-1.27850828,49.31755057],[-1.2763149,49.31649132],[-1.27494327,49.31590885],[-1.27443609,49.31575398],[-1.27379035,49.31565532],[-1.27347994,49.31564831],[-1.27285661,49.315737],[-1.27202031,49.31598087],[-1.27051334,49.31654014],[-1.26387974,49.31913333],[-1.25927613,49.32086769],[-1.25078558,49.32358505],[-1.24884597,49.32424749],[-1.24621674,49.32506559],[-1.24524055,49.32545372]]]]},"bbox":[-1.28504679,49.30014692,-1.2263699,49.32621689]},{"type":"Feature","id":"fr-quartier-50099-b54fb167067c","properties":{"id":"fr-quartier-50099-b54fb167067c","kind":"quartier","name":"Saint-Hilaire-Petitville-Montmartin","cityCode":"50099","cityName":"Carentan-les-Marais","sourceType":"iris","sourceIds":["500990401"],"colorIndex":4,"center":[-1.1781956711812265,49.27822315563534]},"geometry":{"type":"MultiPolygon","coordinates":[[[[-1.23418283,49.30242849],[-1.23415089,49.30242511],[-1.23408044,49.30242218],[-1.23399073,49.30257026],[-1.23412124,49.30308691],[-1.23368865,49.30462617],[-1.23333546,49.30530473],[-1.2324301,49.30631774],[-1.23152001,49.30713916],[-1.22993761,49.30820739],[-1.22896584,49.30871407],[-1.22890502,49.30882873],[-1.22852477,49.30890957],[-1.22763331,49.3093045],[-1.22597158,49.31022962],[-1.22483209,49.31104281],[-1.22465583,49.31119392],[-1.22470773,49.31135684],[-1.22441034,49.3115923],[-1.22407365,49.31168421],[-1.2236059,49.3122101],[-1.22322606,49.31313711],[-1.22326372,49.31393338],[-1.22442235,49.31634498],[-1.22499443,49.31715945],[-1.22527024,49.31738294],[-1.22529642,49.31785373],[-1.22515477,49.31800723],[-1.22359656,49.31882155],[-1.22266661,49.31965707],[-1.22167998,49.32077633],[-1.21913486,49.32422398],[-1.21847547,49.32491767],[-1.21705995,49.32598166],[-1.21638133,49.32671022],[-1.21533319,49.32669282],[-1.21474605,49.32677184],[-1.21345414,49.32685565],[-1.21300046,49.32634308],[-1.21220516,49.32625111],[-1.21207657,49.32619438],[-1.21151469,49.32629591],[-1.21085527,49.32656917],[-1.21075549,49.32654475],[-1.21038077,49.32622295],[-1.21010006,49.32561881],[-1.20992954,49.325352],[-1.20984608,49.3253081],[-1.20887229,49.32589748],[-1.20848798,49.32564353],[-1.20820067,49.32532948],[-1.20776539,49.32499088],[-1.207434,49.32481159],[-1.20674994,49.32454648],[-1.20636985,49.32451292],[-1.2054144,49.32419604],[-1.20493797,49.32409562],[-1.20418452,49.3238068],[-1.20356077,49.32347025],[-1.20290206,49.32300889],[-1.20235014,49.3224889],[-1.20210151,49.32234453],[-1.20112937,49.32143317],[-1.20097935,49.32123135],[-1.20051381,49.32090909],[-1.19951803,49.32063678],[-1.19875543,49.32036985],[-1.19765168,49.32009048],[-1.19767428,49.31997898],[-1.19678117,49.31946183],[-1.19574337,49.31892629],[-1.19470955,49.31933671],[-1.19435434,49.31971003],[-1.19321101,49.32021336],[-1.19224772,49.32076353],[-1.19200869,49.32083845],[-1.19160198,49.32073105],[-1.19124461,49.32048511],[-1.1910374,49.32039239],[-1.19079806,49.32034489],[-1.19032104,49.32033804],[-1.18976144,49.32017924],[-1.18910468,49.31987527],[-1.18854904,49.31947687],[-1.18829888,49.31934693],[-1.18788483,49.31975918],[-1.18753245,49.32001536],[-1.18697559,49.31982223],[-1.18619757,49.31941534],[-1.18604325,49.31949901],[-1.18554265,49.31933723],[-1.18335467,49.31915205],[-1.18328156,49.31908257],[-1.18223157,49.31907395],[-1.18196971,49.3189354],[-1.18174585,49.31887474],[-1.18016417,49.31903396],[-1.17964439,49.31892414],[-1.17879252,49.31867549],[-1.17795901,49.31855132],[-1.1773558,49.31865232],[-1.17719137,49.3186283],[-1.17709027,49.31865521],[-1.17675633,49.31915646],[-1.17622651,49.31950066],[-1.17615704,49.31962909],[-1.17595595,49.31973056],[-1.17485151,49.32003613],[-1.17300225,49.32063299],[-1.17266764,49.32070127],[-1.1718912,49.32073801],[-1.17170064,49.32025491],[-1.17303405,49.31956249],[-1.17361105,49.31913745],[-1.17458597,49.31803163],[-1.17484466,49.3176041],[-1.17545618,49.3168745],[-1.17522473,49.31629469],[-1.17575082,49.31576879],[-1.17555214,49.31572975],[-1.17610499,49.31463311],[-1.17593663,49.31437338],[-1.1759489,49.31386166],[-1.17551511,49.31265333],[-1.17693091,49.31233517],[-1.17834088,49.31211532],[-1.17828493,49.3113737],[-1.17834216,49.31136632],[-1.17833999,49.31093161],[-1.1779454,49.31098938],[-1.17791315,49.31096529],[-1.17697447,49.3100508],[-1.17693275,49.3098587],[-1.17697073,49.3084576],[-1.17747869,49.30840581],[-1.17749288,49.3068471],[-1.17727206,49.30684034],[-1.1775927,49.30575081],[-1.17724418,49.30568006],[-1.17759228,49.30491275],[-1.17770089,49.30434997],[-1.17746686,49.30433287],[-1.17747368,49.30424712],[-1.17957202,49.30435358],[-1.17958038,49.3025538],[-1.18120965,49.30247844],[-1.18418085,49.30256987],[-1.18535827,49.30238859],[-1.18716897,49.30224204],[-1.1871023,49.30279438],[-1.1871106,49.3033207],[-1.18727717,49.30464361],[-1.19024477,49.30446856],[-1.19269712,49.30403498],[-1.19291349,49.30454597],[-1.1928354,49.30456759],[-1.19292562,49.30489843],[-1.19415082,49.30462719],[-1.19448482,49.30504407],[-1.19474494,49.30495851],[-1.195076,49.30530528],[-1.19573884,49.30511029],[-1.19651824,49.30594197],[-1.19601872,49.30601246],[-1.19613175,49.30636951],[-1.19585368,49.30642059],[-1.19599435,49.30682979],[-1.19771224,49.30658999],[-1.19887761,49.3063784],[-1.19890831,49.30612977],[-1.19881775,49.30562611],[-1.19908289,49.30558538],[-1.19877511,49.30457796],[-1.19974899,49.30463588],[-1.19968684,49.30446431],[-1.2009618,49.30429749],[-1.2007633,49.30334748],[-1.19908891,49.30330855],[-1.1987561,49.30336335],[-1.19864698,49.30318981],[-1.19915311,49.30311638],[-1.19950756,49.30310764],[-1.20049427,49.30315431],[-1.19988721,49.3008043],[-1.20032162,49.30071266],[-1.20086503,49.3005227],[-1.20100935,49.30041865],[-1.20108549,49.30025486],[-1.2021197,49.29980384],[-1.20262078,49.2994155],[-1.20284367,49.29934652],[-1.20323353,49.29929963],[-1.20415459,49.29901457],[-1.20457142,49.29884251],[-1.20475673,49.29870102],[-1.20484046,49.29849555],[-1.20448202,49.29810025],[-1.20435781,49.29785972],[-1.20373514,49.29743132],[-1.20362625,49.29726047],[-1.2036113,49.29712776],[-1.20417771,49.29629153],[-1.20502773,49.29540579],[-1.20551496,49.29481447],[-1.20556026,49.29461034],[-1.20552755,49.29420909],[-1.20560867,49.29371834],[-1.20576182,49.29309815],[-1.20593668,49.29279498],[-1.20613846,49.29253499],[-1.20633699,49.29242094],[-1.20735185,49.29149882],[-1.20753585,49.29144289],[-1.20846932,49.29070455],[-1.20811455,49.2906071],[-1.2080172,49.29049347],[-1.20804254,49.28994345],[-1.20829769,49.28924138],[-1.20817983,49.28885929],[-1.20821622,49.28857986],[-1.20829609,49.28836102],[-1.20870622,49.28817566],[-1.2090038,49.28836513],[-1.20922339,49.2877165],[-1.20942823,49.28673531],[-1.20943653,49.2866684],[-1.20933747,49.28656744],[-1.2095094,49.28614463],[-1.20991981,49.28589534],[-1.21043637,49.28537858],[-1.2107964,49.2853048],[-1.21132863,49.28530062],[-1.21149313,49.28495549],[-1.21171426,49.28474791],[-1.21212457,49.28405931],[-1.21236955,49.28380679],[-1.21279248,49.28349224],[-1.20115945,49.28464796],[-1.20041684,49.28489079],[-1.19972166,49.28519227],[-1.19742404,49.28604465],[-1.18517432,49.29089041],[-1.18493218,49.2904163],[-1.18452607,49.29049971],[-1.18482774,49.29099515],[-1.18412467,49.29120139],[-1.18371941,49.29139729],[-1.18306109,49.29156145],[-1.1823483,49.29159698],[-1.18157166,49.29152398],[-1.18156973,49.29066796],[-1.18114521,49.29067727],[-1.18032798,49.29044274],[-1.17890632,49.29037498],[-1.17830123,49.29024471],[-1.17838419,49.29045338],[-1.17806646,49.2905067],[-1.17757558,49.29068214],[-1.17697424,49.2908362],[-1.17684303,49.29077953],[-1.17597492,49.29076638],[-1.17514429,49.29057009],[-1.1745333,49.29048591],[-1.17371402,49.29046386],[-1.17299982,49.2901924],[-1.17230189,49.28978175],[-1.17088524,49.28950308],[-1.17011451,49.28924707],[-1.16973039,49.28905781],[-1.16896785,49.28886902],[-1.16813269,49.28856481],[-1.16306906,49.28833552],[-1.16296866,49.28833629],[-1.16297265,49.28838566],[-1.16114125,49.28838945],[-1.16089516,49.28842675],[-1.16051031,49.2883473],[-1.16019336,49.28835914],[-1.15980933,49.2884435],[-1.15915449,49.28848049],[-1.15850992,49.28861074],[-1.15847409,49.28857596],[-1.1580764,49.28866169],[-1.15731055,49.28875561],[-1.15510482,49.28853726],[-1.15367322,49.28892594],[-1.15207922,49.28946873],[-1.15193758,49.28948711],[-1.15175418,49.28958524],[-1.15145081,49.28957768],[-1.15115523,49.28973549],[-1.15088855,49.28958533],[-1.15071903,49.28937692],[-1.1504569,49.28940305],[-1.14976485,49.28933684],[-1.14913874,49.28938899],[-1.14872968,49.28965871],[-1.14855394,49.28961255],[-1.14833804,49.28961457],[-1.14789288,49.28945255],[-1.14760938,49.28940108],[-1.14743464,49.28950431],[-1.14726295,49.28945711],[-1.14614781,49.28969169],[-1.14588721,49.28958272],[-1.14559123,49.28930754],[-1.14504795,49.28898594],[-1.1448028,49.28900067],[-1.14443657,49.28908437],[-1.1441111,49.28909285],[-1.14394344,49.28913012],[-1.14374211,49.28924506],[-1.14356227,49.28962751],[-1.14307227,49.29032938],[-1.14321945,49.29049986],[-1.14320391,49.29056341],[-1.14302214,49.29071638],[-1.14240935,49.29091747],[-1.14216078,49.29095841],[-1.14103477,49.29174423],[-1.14017733,49.29212113],[-1.13811002,49.29266827],[-1.13803717,49.29278959],[-1.13786871,49.29281697],[-1.13712379,49.29310448],[-1.13622895,49.29160757],[-1.13544588,49.28994209],[-1.13504348,49.28883607],[-1.13457755,49.28659349],[-1.1343162,49.28604524],[-1.13400546,49.28568772],[-1.13357698,49.28538914],[-1.13282793,49.28516006],[-1.12951658,49.28470638],[-1.12777028,49.28401722],[-1.12567218,49.282989],[-1.12297345,49.2820713],[-1.1218392,49.28158347],[-1.12104953,49.28111986],[-1.12056203,49.28054601],[-1.12045352,49.28013473],[-1.12054155,49.27966903],[-1.12070177,49.2793665],[-1.12223463,49.27767938],[-1.12321504,49.27519196],[-1.12356882,49.27478108],[-1.12409345,49.27449398],[-1.1248096,49.27441727],[-1.12571817,49.27454462],[-1.12639637,49.27483648],[-1.12674084,49.27508394],[-1.12717396,49.27661203],[-1.12756678,49.27710269],[-1.12797288,49.27734624],[-1.13127147,49.27852324],[-1.13326222,49.27884749],[-1.13446348,49.27862537],[-1.13480136,49.27846346],[-1.13507652,49.27820557],[-1.13510168,49.27788424],[-1.13460799,49.27733765],[-1.13360551,49.27648534],[-1.13305136,49.2758535],[-1.13270037,49.27518138],[-1.13263829,49.27454348],[-1.13291149,49.27390038],[-1.13328533,49.27346627],[-1.13478283,49.27254714],[-1.13590648,49.2715814],[-1.13613672,49.27096947],[-1.13600069,49.27049073],[-1.13553004,49.27009369],[-1.13422933,49.26948386],[-1.13099132,49.26849031],[-1.12910629,49.26776272],[-1.12854471,49.26727695],[-1.12838097,49.26677754],[-1.12790353,49.26689652],[-1.12781852,49.26710647],[-1.12749468,49.2673057],[-1.12719965,49.26764167],[-1.12712659,49.26793223],[-1.12728287,49.26906113],[-1.12843381,49.27043142],[-1.12862329,49.27089123],[-1.1286047,49.27112321],[-1.12834867,49.27139664],[-1.12792063,49.27154902],[-1.12693747,49.2716754],[-1.12629899,49.27158743],[-1.12451164,49.2702578],[-1.12422886,49.2699038],[-1.1242973,49.26952067],[-1.12378415,49.2693825],[-1.12421196,49.26871072],[-1.12546506,49.26783157],[-1.12540038,49.26724596],[-1.12513941,49.26663105],[-1.12519831,49.26650751],[-1.12467044,49.26615019],[-1.12413886,49.26597034],[-1.12326694,49.26592095],[-1.12252689,49.26605878],[-1.12204078,49.26579365],[-1.12172004,49.26548054],[-1.12155432,49.26516214],[-1.12189053,49.26456642],[-1.12232876,49.26445601],[-1.12209242,49.26426965],[-1.1222851,49.26404702],[-1.12222513,49.26388163],[-1.12150977,49.26358743],[-1.11976464,49.2632645],[-1.11919125,49.26340472],[-1.11827343,49.26427956],[-1.11777619,49.26420202],[-1.1170545,49.26369016],[-1.11673369,49.26365161],[-1.11613662,49.26387454],[-1.11562209,49.26437371],[-1.11523942,49.26440478],[-1.11494825,49.26430669],[-1.11394635,49.26355773],[-1.11180962,49.26266923],[-1.11376515,49.26169782],[-1.10524205,49.25339968],[-1.10518747,49.25333583],[-1.1053301,49.25317523],[-1.10668875,49.25352053],[-1.1074246,49.25348735],[-1.10801333,49.25329895],[-1.10949592,49.25226359],[-1.10965282,49.25202329],[-1.10978376,49.25121495],[-1.10992049,49.25101494],[-1.11019425,49.25084357],[-1.11060889,49.25078352],[-1.11128237,49.25098649],[-1.11482497,49.25354368],[-1.11565833,49.25402654],[-1.11721956,49.2543585],[-1.11815318,49.25433921],[-1.11926046,49.25389357],[-1.12184364,49.25229742],[-1.12226173,49.25212558],[-1.12306791,49.25199178],[-1.12420804,49.25228584],[-1.1296196,49.24828094],[-1.13481352,49.24447046],[-1.13451211,49.24415762],[-1.13449117,49.24396479],[-1.13458015,49.24377089],[-1.13488476,49.2435912],[-1.13512215,49.24327608],[-1.1349433,49.24224426],[-1.13692434,49.24218976],[-1.13852278,49.24202774],[-1.13889684,49.24166831],[-1.13923086,49.2415128],[-1.13930286,49.24129607],[-1.13960467,49.24121909],[-1.13994811,49.2408724],[-1.13979564,49.24080562],[-1.14021986,49.24033463],[-1.14064566,49.24017506],[-1.14086884,49.23959755],[-1.1411561,49.23933921],[-1.14147554,49.23872778],[-1.14174443,49.23865192],[-1.1419159,49.23820131],[-1.14234691,49.2381928],[-1.14240099,49.2372727],[-1.14618239,49.23680144],[-1.14856576,49.23590468],[-1.14888059,49.2357507],[-1.14883882,49.23570983],[-1.15014776,49.23514711],[-1.15179285,49.23455929],[-1.15319091,49.23378911],[-1.15332326,49.23430668],[-1.15348048,49.23439849],[-1.15364716,49.23428291],[-1.15508209,49.23407409],[-1.15580818,49.23412826],[-1.1563693,49.23382353],[-1.15674749,49.23331265],[-1.15950778,49.23322547],[-1.16012912,49.23341287],[-1.16087239,49.23391925],[-1.16077234,49.23412796],[-1.16089225,49.23447311],[-1.1608282,49.23461666],[-1.16039311,49.23462539],[-1.16044046,49.2351621],[-1.16075809,49.23517994],[-1.16081571,49.23671466],[-1.1606691,49.23724997],[-1.16051311,49.23732737],[-1.16079945,49.23868045],[-1.16060382,49.23913642],[-1.15955949,49.23909236],[-1.15976833,49.24103687],[-1.15981756,49.24111889],[-1.15998599,49.24114458],[-1.15960318,49.24178617],[-1.15957042,49.24228423],[-1.15958118,49.24233247],[-1.16007363,49.24230106],[-1.15966543,49.2474762],[-1.15455468,49.24854193],[-1.15492441,49.25209498],[-1.18564724,49.24875511],[-1.1974424,49.26072234],[-1.19857991,49.26183863],[-1.19890652,49.2619983],[-1.21328358,49.26488155],[-1.22070269,49.26451667],[-1.22726396,49.26397436],[-1.22758329,49.26466536],[-1.22905453,49.26768003],[-1.22929185,49.26844412],[-1.22936707,49.26911037],[-1.22878984,49.26957084],[-1.22859003,49.2708265],[-1.22783694,49.27157582],[-1.22805154,49.27310412],[-1.22742601,49.27415143],[-1.22717026,49.27516148],[-1.22557095,49.27762569],[-1.22518491,49.27850705],[-1.22431043,49.2796918],[-1.22488459,49.28124261],[-1.22583186,49.28202233],[-1.22784047,49.28398196],[-1.22876042,49.28526675],[-1.23102809,49.2870093],[-1.23249046,49.28856311],[-1.23441619,49.28982516],[-1.23480912,49.29026958],[-1.23493928,49.29071513],[-1.23520636,49.29105144],[-1.23707638,49.29220288],[-1.23723924,49.29249334],[-1.23721457,49.2928633],[-1.23620973,49.2948404],[-1.2340435,49.29762796],[-1.23400659,49.29776519],[-1.23413888,49.30050084],[-1.23418748,49.30062337],[-1.23421401,49.30240579],[-1.23418283,49.30242849]]],[[[-1.22621379,49.31747053],[-1.22602376,49.31750419],[-1.22549165,49.31716094],[-1.22481187,49.31551936],[-1.22404524,49.31401045],[-1.22398185,49.31306835],[-1.22422557,49.31253049],[-1.22476102,49.31194011],[-1.22471189,49.31174378],[-1.22496809,49.31150976],[-1.22527489,49.31149001],[-1.22707516,49.31023868],[-1.23094533,49.30830709],[-1.23184574,49.30765256],[-1.23280961,49.30674823],[-1.23290485,49.30675119],[-1.23295745,49.30688888],[-1.23335615,49.30688209],[-1.23300673,49.30643254],[-1.23302498,49.30626896],[-1.23373541,49.30541403],[-1.23421495,49.30449697],[-1.23678593,49.30529343],[-1.23753596,49.30557497],[-1.2377464,49.30572331],[-1.23781289,49.30569487],[-1.23910338,49.30707459],[-1.2263699,49.31752718],[-1.22621379,49.31747053]]]]},"bbox":[-1.23910338,49.23322547,-1.10518747,49.32685565]}]}