{"type":"FeatureCollection","metadata":{"sourceType":"iris","referenceFile":"champigneulles-quartiers.geojson","source":"IGN / INSEE - Contours IRIS WFS Géoplateforme","sourceUrl":"https://geoservices.ign.fr/contoursiris","license":"Licence Ouverte / Open Licence 2.0","sourceYear":"2026"},"features":[{"type":"Feature","id":"fr-quartier-54115-ebbc786268cd","properties":{"id":"fr-quartier-54115-ebbc786268cd","kind":"quartier","name":"Les Mouettes","cityCode":"54115","cityName":"Champigneulles","sourceType":"iris","sourceIds":["541150103"],"colorIndex":0,"center":[6.161077134915547,48.73551655557903]},"geometry":{"type":"MultiPolygon","coordinates":[[[[6.15773568,48.73380394],[6.15724475,48.73515903],[6.15683119,48.73606111],[6.15625842,48.7369638],[6.1558738,48.73746725],[6.15759945,48.73796347],[6.15811058,48.73739186],[6.15841405,48.7371894],[6.15893475,48.737091],[6.1594209,48.73741118],[6.15957335,48.73743415],[6.16076697,48.7365375],[6.16184379,48.73708326],[6.16185353,48.73715411],[6.16199885,48.73717186],[6.16252883,48.73747376],[6.16431385,48.73614194],[6.16486813,48.73583469],[6.16663443,48.7350038],[6.16632523,48.73423609],[6.1663433,48.73408529],[6.16577217,48.73393482],[6.16560243,48.73376109],[6.16499377,48.73406889],[6.16476326,48.73383556],[6.16444289,48.73373604],[6.16426365,48.73360758],[6.16424641,48.73352522],[6.16437745,48.7332625],[6.16365692,48.73331852],[6.16337494,48.73338091],[6.16252995,48.73383087],[6.16216965,48.7343076],[6.16204879,48.73440171],[6.16162806,48.73446507],[6.16124494,48.73445272],[6.16107539,48.73455173],[6.16058301,48.73426323],[6.16027704,48.73419932],[6.15893184,48.73371466],[6.15881767,48.7338293],[6.15863496,48.73375583],[6.15840069,48.73397716],[6.15773568,48.73380394]]]]},"bbox":[6.1558738,48.7332625,6.16663443,48.73796347]},{"type":"Feature","id":"fr-quartier-54115-0f875316409b","properties":{"id":"fr-quartier-54115-0f875316409b","kind":"quartier","name":"Le Vallon","cityCode":"54115","cityName":"Champigneulles","sourceType":"iris","sourceIds":["541150102"],"colorIndex":1,"center":[6.116695951949987,48.71887086687192]},"geometry":{"type":"MultiPolygon","coordinates":[[[[6.16911328,48.72257627],[6.1670961,48.72289719],[6.16590698,48.72226805],[6.16439936,48.72174816],[6.16360706,48.72268283],[6.16172093,48.72161845],[6.16117102,48.72064737],[6.1603732,48.72012032],[6.16006633,48.71995022],[6.15626589,48.71939644],[6.15524463,48.71888517],[6.15363916,48.71743969],[6.15152896,48.71678075],[6.15101275,48.71677008],[6.14905653,48.71564076],[6.14658482,48.71525592],[6.14252624,48.71383989],[6.14056619,48.71338834],[6.13820757,48.71352424],[6.13689382,48.71325635],[6.13458323,48.71169955],[6.13460829,48.71152786],[6.13429918,48.71106881],[6.13370765,48.71041375],[6.12938932,48.70719211],[6.12884301,48.7068815],[6.12679963,48.70539495],[6.1230796,48.70311335],[6.11926671,48.70150289],[6.1178615,48.70119939],[6.1168992,48.70088879],[6.11551921,48.70080244],[6.11383619,48.70056016],[6.11202983,48.70066673],[6.11116844,48.7005884],[6.10940929,48.69947761],[6.1077272,48.69890667],[6.10682518,48.69876185],[6.10666312,48.69729434],[6.10641444,48.69629086],[6.10611918,48.69635616],[6.10597358,48.69591978],[6.10651607,48.69479847],[6.10682528,48.69274978],[6.1056999,48.69284842],[6.104366,48.6937626],[6.10418496,48.6936449],[6.09681349,48.69338204],[6.09277052,48.69337088],[6.09088242,48.69321822],[6.08903134,48.6932545],[6.07687503,48.69280015],[6.0739041,48.69256715],[6.07361041,48.69282136],[6.07393906,48.69332326],[6.07402281,48.69366045],[6.08214008,48.70599238],[6.08618151,48.71187728],[6.07555763,48.72095845],[6.07711887,48.72145825],[6.0796843,48.72253788],[6.08321921,48.72365272],[6.08474931,48.72438275],[6.08587844,48.72509524],[6.08775708,48.72594314],[6.0899727,48.72719634],[6.09191463,48.72786971],[6.09237051,48.72796321],[6.09368714,48.72848444],[6.09399804,48.72872571],[6.09478954,48.7296836],[6.09471559,48.72999696],[6.09484529,48.7308766],[6.09600881,48.73253142],[6.09643214,48.73352046],[6.09781006,48.73569086],[6.09932539,48.73840854],[6.09960349,48.73855434],[6.09998233,48.73872362],[6.10110649,48.73902294],[6.10153593,48.73931062],[6.10227163,48.73959933],[6.10379201,48.73912324],[6.10475358,48.73865627],[6.10619647,48.73857101],[6.10723696,48.73881305],[6.10949506,48.7385688],[6.11020092,48.73865302],[6.11097384,48.73856086],[6.11144088,48.73872511],[6.11498085,48.73911881],[6.11841278,48.73824966],[6.12085254,48.73856392],[6.12258522,48.73825036],[6.13283225,48.73808706],[6.14440935,48.73763851],[6.14570366,48.73782132],[6.14619424,48.73819364],[6.1464148,48.73862439],[6.14677236,48.738912],[6.14838199,48.73947083],[6.14964239,48.74003795],[6.15315589,48.74120264],[6.15369109,48.74028476],[6.1558738,48.73746725],[6.15625842,48.7369638],[6.15683119,48.73606111],[6.15724475,48.73515903],[6.15773568,48.73380394],[6.15827045,48.73256649],[6.15885856,48.73169399],[6.15959637,48.73091203],[6.16036128,48.73030848],[6.16118216,48.72979796],[6.16209915,48.72934699],[6.16326478,48.72891282],[6.16544701,48.72819063],[6.16629755,48.7278341],[6.1674303,48.72717303],[6.16813682,48.72657367],[6.16860421,48.72604727],[6.16894836,48.72550794],[6.16927868,48.72467373],[6.16935423,48.72430446],[6.16937264,48.72359915],[6.16925481,48.72298028],[6.16911328,48.72257627]]]]},"bbox":[6.07361041,48.69256715,6.16937264,48.74120264]},{"type":"Feature","id":"fr-quartier-54115-da25f68f9551","properties":{"id":"fr-quartier-54115-da25f68f9551","kind":"quartier","name":"Rue de Nancy","cityCode":"54115","cityName":"Champigneulles","sourceType":"iris","sourceIds":["541150101"],"colorIndex":2,"center":[6.167442112811434,48.7364407116181]},"geometry":{"type":"MultiPolygon","coordinates":[[[[6.16711448,48.74720051],[6.1676526,48.74711872],[6.16772644,48.7467207],[6.16804433,48.74574642],[6.17207404,48.7457834],[6.17672696,48.74512404],[6.17944017,48.74486546],[6.17965468,48.74478953],[6.1798176,48.74433602],[6.17989999,48.74334277],[6.17967979,48.74281125],[6.17765963,48.74168678],[6.17361583,48.73861511],[6.17113146,48.73571339],[6.17078866,48.73515541],[6.17057895,48.73454799],[6.17096466,48.7336394],[6.17137922,48.73298207],[6.17204571,48.73250708],[6.17390501,48.73141886],[6.17419054,48.73116912],[6.17530721,48.72968477],[6.17607104,48.72828361],[6.176142,48.72783974],[6.17599257,48.72753047],[6.17457904,48.72529521],[6.17448875,48.7240563],[6.17542569,48.72210233],[6.17224015,48.7222033],[6.17134727,48.72224145],[6.16911328,48.72257627],[6.16925481,48.72298028],[6.16937264,48.72359915],[6.16935423,48.72430446],[6.16927868,48.72467373],[6.16894836,48.72550794],[6.16860421,48.72604727],[6.16813682,48.72657367],[6.1674303,48.72717303],[6.16629755,48.7278341],[6.16544701,48.72819063],[6.16326478,48.72891282],[6.16209915,48.72934699],[6.16118216,48.72979796],[6.16036128,48.73030848],[6.15959637,48.73091203],[6.15885856,48.73169399],[6.15827045,48.73256649],[6.15773568,48.73380394],[6.15840069,48.73397716],[6.15863496,48.73375583],[6.15881767,48.7338293],[6.15893184,48.73371466],[6.16027704,48.73419932],[6.16058301,48.73426323],[6.16107539,48.73455173],[6.16124494,48.73445272],[6.16162806,48.73446507],[6.16204879,48.73440171],[6.16216965,48.7343076],[6.16252995,48.73383087],[6.16337494,48.73338091],[6.16365692,48.73331852],[6.16437745,48.7332625],[6.16424641,48.73352522],[6.16426365,48.73360758],[6.16444289,48.73373604],[6.16476326,48.73383556],[6.16499377,48.73406889],[6.16560243,48.73376109],[6.16577217,48.73393482],[6.1663433,48.73408529],[6.16632523,48.73423609],[6.16663443,48.7350038],[6.16486813,48.73583469],[6.16431385,48.73614194],[6.16252883,48.73747376],[6.16199885,48.73717186],[6.16185353,48.73715411],[6.16184379,48.73708326],[6.16076697,48.7365375],[6.15957335,48.73743415],[6.1594209,48.73741118],[6.15893475,48.737091],[6.15841405,48.7371894],[6.15811058,48.73739186],[6.15759945,48.73796347],[6.1558738,48.73746725],[6.15369109,48.74028476],[6.15315589,48.74120264],[6.15654872,48.74243973],[6.15622983,48.74283792],[6.15717895,48.74349871],[6.15768368,48.74351776],[6.15797109,48.74300428],[6.16036905,48.74374371],[6.16080009,48.74400684],[6.16039697,48.74440727],[6.16136022,48.7446707],[6.16190263,48.74465993],[6.16165386,48.74477724],[6.16334479,48.74566136],[6.16445119,48.74588316],[6.16646213,48.74602785],[6.16719273,48.74546208],[6.16711448,48.74720051]]]]},"bbox":[6.15315589,48.72210233,6.17989999,48.74720051]}]}