{"type":"FeatureCollection","metadata":{"sourceType":"iris","referenceFile":"saint-max-quartiers.geojson","source":"IGN / INSEE - Contours IRIS WFS Géoplateforme","sourceUrl":"https://geoservices.ign.fr/contoursiris","license":"Licence Ouverte / Open Licence 2.0","sourceYear":"2026"},"features":[{"type":"Feature","id":"fr-quartier-54482-4eaa9db5053d","properties":{"id":"fr-quartier-54482-4eaa9db5053d","kind":"quartier","name":"Quartier Jean XXIII","cityCode":"54482","cityName":"Saint-Max","sourceType":"iris","sourceIds":["544820103"],"colorIndex":0,"center":[6.210291075539701,48.69953216554173]},"geometry":{"type":"MultiPolygon","coordinates":[[[[6.21575473,48.70277248],[6.21586996,48.70183857],[6.21428292,48.70146368],[6.21467028,48.69942691],[6.21485068,48.69829231],[6.21356824,48.69815854],[6.21175532,48.69784552],[6.20820324,48.69706888],[6.20896336,48.69620494],[6.2086229,48.69606377],[6.20608291,48.6984816],[6.20556044,48.69838853],[6.20479042,48.69844974],[6.2036032,48.69891464],[6.2034338,48.69932337],[6.20478562,48.69972363],[6.21488156,48.70257278],[6.21575473,48.70277248]]]]},"bbox":[6.2034338,48.69606377,6.21586996,48.70277248]},{"type":"Feature","id":"fr-quartier-54482-a6afbf45a1ce","properties":{"id":"fr-quartier-54482-a6afbf45a1ce","kind":"quartier","name":"Rue Jules Ferry","cityCode":"54482","cityName":"Saint-Max","sourceType":"iris","sourceIds":["544820104"],"colorIndex":1,"center":[6.208591204483117,48.702900475965656]},"geometry":{"type":"MultiPolygon","coordinates":[[[[6.21499954,48.7049758],[6.21521655,48.70489973],[6.21552457,48.70413707],[6.21566049,48.70415771],[6.21591645,48.70347746],[6.21592655,48.70337637],[6.21581921,48.70335586],[6.21590152,48.70290354],[6.21575473,48.70277248],[6.21488156,48.70257278],[6.20478562,48.69972363],[6.20186853,48.70083182],[6.20300497,48.70115687],[6.20307281,48.70122076],[6.20296107,48.70150552],[6.20265441,48.70202686],[6.20233004,48.70237044],[6.20161903,48.70348416],[6.20146196,48.70380614],[6.20216302,48.70361718],[6.20315713,48.70352746],[6.2038426,48.70357206],[6.20575101,48.70390964],[6.20671538,48.7043545],[6.20743205,48.70475201],[6.20933814,48.70611311],[6.21012943,48.70635196],[6.21146145,48.70655915],[6.21141488,48.70648749],[6.21112577,48.70638635],[6.21108731,48.70591569],[6.21119698,48.70566428],[6.21123724,48.70510239],[6.21150494,48.70441284],[6.21335046,48.70467728],[6.21499954,48.7049758]]]]},"bbox":[6.20146196,48.69972363,6.21592655,48.70655915]},{"type":"Feature","id":"fr-quartier-54482-edcae66fc756","properties":{"id":"fr-quartier-54482-edcae66fc756","kind":"quartier","name":"Saint-Michel Mainvaux","cityCode":"54482","cityName":"Saint-Max","sourceType":"iris","sourceIds":["544820102"],"colorIndex":2,"center":[6.198945713248255,48.70307127225917]},"geometry":{"type":"MultiPolygon","coordinates":[[[[6.19226084,48.70297262],[6.19363358,48.70391525],[6.19424216,48.70468211],[6.19529484,48.70457109],[6.19574539,48.70459952],[6.19701759,48.70483097],[6.19873565,48.70525838],[6.19840152,48.7060208],[6.20129548,48.70672629],[6.20279411,48.70723335],[6.20280747,48.70729601],[6.20285741,48.70713444],[6.20277778,48.70701145],[6.2034164,48.70593658],[6.20223526,48.70499521],[6.20160156,48.70439741],[6.20146895,48.70416422],[6.20146196,48.70380614],[6.20161903,48.70348416],[6.20233004,48.70237044],[6.20265441,48.70202686],[6.20296107,48.70150552],[6.20307281,48.70122076],[6.20300497,48.70115687],[6.20186853,48.70083182],[6.20478562,48.69972363],[6.2034338,48.69932337],[6.20292997,48.6998005],[6.2020845,48.70011757],[6.20074716,48.70006437],[6.19928898,48.69968132],[6.19835769,48.69959648],[6.19803695,48.70035494],[6.19610986,48.70146523],[6.19226084,48.70297262]]]]},"bbox":[6.19226084,48.69932337,6.20478562,48.70729601]},{"type":"Feature","id":"fr-quartier-54482-71099a693e6b","properties":{"id":"fr-quartier-54482-71099a693e6b","kind":"quartier","name":"Trinité-Jolimont Vieux Saint-Max","cityCode":"54482","cityName":"Saint-Max","sourceType":"iris","sourceIds":["544820101"],"colorIndex":3,"center":[6.207269262828436,48.70877554856832]},"geometry":{"type":"MultiPolygon","coordinates":[[[[6.20280747,48.70729601],[6.2032007,48.70745378],[6.20283143,48.707975],[6.20268305,48.70799519],[6.20269188,48.70833882],[6.20113681,48.71075074],[6.20170428,48.71086603],[6.2009401,48.71162469],[6.19986467,48.71229898],[6.20028753,48.71285114],[6.20070528,48.71318649],[6.20058082,48.71330866],[6.20208335,48.71434223],[6.20327915,48.71352336],[6.20371807,48.71369341],[6.20388622,48.71450535],[6.20424335,48.71480541],[6.20434812,48.71513836],[6.20547306,48.71589129],[6.20658401,48.71617198],[6.20641295,48.71595604],[6.20625181,48.71273324],[6.20640837,48.71187116],[6.20669868,48.71183635],[6.20726749,48.71000179],[6.21028946,48.71019503],[6.21103077,48.71041632],[6.21124576,48.7107274],[6.21218303,48.71101632],[6.21259694,48.71029312],[6.21320241,48.71051716],[6.21370496,48.70955482],[6.2140516,48.70964],[6.2140515,48.70979303],[6.21498135,48.70996151],[6.21570262,48.70828842],[6.2159205,48.7070997],[6.2154465,48.70706658],[6.21429574,48.70675553],[6.21489367,48.70555387],[6.21499954,48.7049758],[6.21335046,48.70467728],[6.21150494,48.70441284],[6.21123724,48.70510239],[6.21119698,48.70566428],[6.21108731,48.70591569],[6.21112577,48.70638635],[6.21141488,48.70648749],[6.21146145,48.70655915],[6.21012943,48.70635196],[6.20933814,48.70611311],[6.20743205,48.70475201],[6.20671538,48.7043545],[6.20575101,48.70390964],[6.2038426,48.70357206],[6.20315713,48.70352746],[6.20216302,48.70361718],[6.20146196,48.70380614],[6.20146895,48.70416422],[6.20160156,48.70439741],[6.20223526,48.70499521],[6.2034164,48.70593658],[6.20277778,48.70701145],[6.20285741,48.70713444],[6.20280747,48.70729601]]]]},"bbox":[6.19986467,48.70352746,6.2159205,48.71617198]}]}