{"type":"FeatureCollection","metadata":{"sourceType":"iris","referenceFile":"hettange-grande-quartiers.geojson","source":"IGN / INSEE - Contours IRIS WFS Géoplateforme","sourceUrl":"https://geoservices.ign.fr/contoursiris","license":"Licence Ouverte / Open Licence 2.0","sourceYear":"2026"},"features":[{"type":"Feature","id":"fr-quartier-57323-0ffb3a2dde74","properties":{"id":"fr-quartier-57323-0ffb3a2dde74","kind":"quartier","name":"Rue de Rome","cityCode":"57323","cityName":"Hettange-Grande","sourceType":"iris","sourceIds":["573230103"],"colorIndex":0,"center":[6.163699543165352,49.40668294141068]},"geometry":{"type":"MultiPolygon","coordinates":[[[[6.17492359,49.41546914],[6.17452895,49.4146591],[6.17399987,49.41401632],[6.17159808,49.41047931],[6.17097543,49.41006205],[6.17092854,49.40930045],[6.17054567,49.40825441],[6.1697604,49.40727739],[6.16946349,49.40704499],[6.16949505,49.40641537],[6.16989137,49.40532911],[6.17052365,49.40534402],[6.17064224,49.4051655],[6.17113315,49.40503389],[6.17028036,49.40042891],[6.16988604,49.3994866],[6.16984007,49.39882933],[6.16967912,49.39838646],[6.16895241,49.39692483],[6.16938524,49.39658964],[6.16965218,49.39608968],[6.1708003,49.39526166],[6.1701198,49.39452836],[6.17029668,49.39444636],[6.16970107,49.39390515],[6.16980522,49.39376118],[6.16955954,49.393397],[6.16860211,49.39183525],[6.1675634,49.39211075],[6.16687084,49.39286114],[6.16645253,49.39338755],[6.16613439,49.39361538],[6.16606629,49.39383036],[6.15996962,49.40086969],[6.15548156,49.40590834],[6.15527159,49.4059462],[6.15494782,49.40610668],[6.15460659,49.40634226],[6.15352906,49.40684533],[6.1524538,49.40634982],[6.15230285,49.40633846],[6.15223548,49.40620619],[6.15226978,49.40613603],[6.15162799,49.40598813],[6.15155677,49.40586046],[6.15119974,49.40601818],[6.15068211,49.4061648],[6.15041966,49.40631377],[6.14975904,49.40702992],[6.14956786,49.40762321],[6.15020277,49.40790622],[6.15101582,49.40837439],[6.15145779,49.40845553],[6.15221445,49.40867779],[6.15234756,49.40878047],[6.15244835,49.40894066],[6.15248457,49.40910433],[6.15222666,49.40944029],[6.15224922,49.40958363],[6.1521229,49.40974974],[6.15208088,49.40991905],[6.15188861,49.4100437],[6.15143284,49.41068346],[6.1514581,49.41080334],[6.1518483,49.41125464],[6.1522452,49.41077923],[6.15249963,49.41065656],[6.15293825,49.41023223],[6.15327406,49.40999769],[6.15380769,49.40972921],[6.15767842,49.41570285],[6.1603847,49.41558629],[6.17492359,49.41546914]]]]},"bbox":[6.14956786,49.39183525,6.17492359,49.41570285]},{"type":"Feature","id":"fr-quartier-57323-fd1bf695fc51","properties":{"id":"fr-quartier-57323-fd1bf695fc51","kind":"quartier","name":"Rue des Vignes","cityCode":"57323","cityName":"Hettange-Grande","sourceType":"iris","sourceIds":["573230102"],"colorIndex":1,"center":[6.1449960480651855,49.40059673476276]},"geometry":{"type":"MultiPolygon","coordinates":[[[[6.16687084,49.39286114],[6.1642883,49.39192124],[6.16359542,49.39185931],[6.1629078,49.39152377],[6.16239231,49.39089407],[6.16204863,49.39106498],[6.16160813,49.39060152],[6.16129645,49.39048553],[6.16033964,49.39034413],[6.15908912,49.39035702],[6.15852852,49.39047422],[6.15829869,49.39036688],[6.15795345,49.39046765],[6.15736583,49.39000892],[6.156583,49.39106477],[6.15618332,49.39133428],[6.15601055,49.39211331],[6.15549198,49.39248937],[6.1539108,49.39333753],[6.15335318,49.39354908],[6.15301684,49.39348049],[6.15255735,49.39380912],[6.14904207,49.39320806],[6.14697694,49.39301715],[6.14458042,49.39290589],[6.14276512,49.39235938],[6.14244291,49.39243162],[6.14215031,49.392289],[6.14181927,49.39226162],[6.14105929,49.39195752],[6.14064977,49.39190879],[6.13994802,49.39197199],[6.13917468,49.39185534],[6.13902027,49.39192232],[6.13878603,49.39176468],[6.13819643,49.39172331],[6.13720373,49.39142164],[6.13688876,49.39154495],[6.13674091,49.39174219],[6.13650296,49.39179514],[6.13455379,49.39160551],[6.13298217,49.3959695],[6.13164535,49.39780682],[6.13155953,49.39805012],[6.13153033,49.39945147],[6.13120673,49.39963796],[6.13016591,49.40414823],[6.12760072,49.40773629],[6.12869107,49.40814347],[6.12821105,49.40872889],[6.12884925,49.40884101],[6.12848309,49.40932634],[6.13010494,49.40960911],[6.12890379,49.41091843],[6.13007504,49.41099967],[6.13030953,49.41315608],[6.13043625,49.41331292],[6.13057537,49.41335609],[6.13113397,49.41331465],[6.13140364,49.41335084],[6.13195102,49.41319275],[6.13212076,49.41333138],[6.1321892,49.41332331],[6.13230742,49.41320421],[6.13260595,49.41321627],[6.1328715,49.41309425],[6.133166,49.41301736],[6.13322095,49.41290079],[6.13337259,49.41276463],[6.1335161,49.41272134],[6.13367373,49.41259312],[6.13394569,49.41255369],[6.13451059,49.41270636],[6.13452967,49.41263481],[6.13469018,49.41262165],[6.1348436,49.4125601],[6.13546525,49.41249002],[6.13549969,49.41228583],[6.1364883,49.41194806],[6.13673713,49.41161957],[6.13714069,49.41138692],[6.1373321,49.41131539],[6.13753329,49.41129128],[6.13759795,49.41122124],[6.13789199,49.41115964],[6.13840813,49.41091957],[6.13880557,49.41083549],[6.13894808,49.4106177],[6.1392814,49.41059016],[6.13941802,49.41052455],[6.13971755,49.41030448],[6.13975859,49.41023145],[6.13974909,49.40984939],[6.13983406,49.40979591],[6.14033481,49.40975593],[6.14051829,49.40964502],[6.14054188,49.40955715],[6.14067216,49.40952318],[6.14154784,49.40948245],[6.14206382,49.40930803],[6.1423548,49.40926449],[6.14242634,49.40919426],[6.14244951,49.40903175],[6.14250287,49.40900247],[6.14262426,49.40900382],[6.14320125,49.40921911],[6.14326141,49.40927871],[6.14330782,49.40949699],[6.14339297,49.40955955],[6.14362091,49.40934133],[6.14414718,49.40958402],[6.144465,49.40966392],[6.14470143,49.40960739],[6.14463469,49.40944002],[6.14478177,49.40929766],[6.14532301,49.40915315],[6.14561831,49.40924802],[6.14572225,49.40923452],[6.14589159,49.40905021],[6.1469106,49.40855774],[6.14706701,49.40859055],[6.14726468,49.40875722],[6.14749601,49.40884295],[6.14771034,49.40885357],[6.14818911,49.40877004],[6.14881936,49.4082328],[6.14923428,49.40805198],[6.14939364,49.40784004],[6.14943644,49.40766081],[6.1493846,49.40755692],[6.14915743,49.40731366],[6.14883859,49.40710427],[6.1488552,49.40683487],[6.14913744,49.40660353],[6.14961252,49.40636987],[6.15078996,49.40522376],[6.15038613,49.40502199],[6.15061749,49.4047479],[6.15200228,49.40550432],[6.15268736,49.40539111],[6.15327313,49.405052],[6.15339689,49.40502448],[6.15366829,49.40504439],[6.15548156,49.40590834],[6.15996962,49.40086969],[6.16606629,49.39383036],[6.16613439,49.39361538],[6.16645253,49.39338755],[6.16687084,49.39286114]]]]},"bbox":[6.12760072,49.39000892,6.16687084,49.41335609]},{"type":"Feature","id":"fr-quartier-57323-c24d6e87daef","properties":{"id":"fr-quartier-57323-c24d6e87daef","kind":"quartier","name":"Soetrich","cityCode":"57323","cityName":"Hettange-Grande","sourceType":"iris","sourceIds":["573230101"],"colorIndex":2,"center":[6.152990185633623,49.42633096370717]},"geometry":{"type":"MultiPolygon","coordinates":[[[[6.17871315,49.42088475],[6.17492359,49.41546914],[6.1603847,49.41558629],[6.15767842,49.41570285],[6.15380769,49.40972921],[6.15327406,49.40999769],[6.15293825,49.41023223],[6.15249963,49.41065656],[6.1522452,49.41077923],[6.1518483,49.41125464],[6.1514581,49.41080334],[6.15143284,49.41068346],[6.15188861,49.4100437],[6.15208088,49.40991905],[6.1521229,49.40974974],[6.15224922,49.40958363],[6.15222666,49.40944029],[6.15248457,49.40910433],[6.15244835,49.40894066],[6.15234756,49.40878047],[6.15221445,49.40867779],[6.15145779,49.40845553],[6.15101582,49.40837439],[6.15020277,49.40790622],[6.14956786,49.40762321],[6.14975904,49.40702992],[6.15041966,49.40631377],[6.15068211,49.4061648],[6.15119974,49.40601818],[6.15155677,49.40586046],[6.15162799,49.40598813],[6.15226978,49.40613603],[6.15223548,49.40620619],[6.15230285,49.40633846],[6.1524538,49.40634982],[6.15352906,49.40684533],[6.15460659,49.40634226],[6.15494782,49.40610668],[6.15527159,49.4059462],[6.15548156,49.40590834],[6.15366829,49.40504439],[6.15339689,49.40502448],[6.15327313,49.405052],[6.15268736,49.40539111],[6.15200228,49.40550432],[6.15061749,49.4047479],[6.15038613,49.40502199],[6.15078996,49.40522376],[6.14961252,49.40636987],[6.14913744,49.40660353],[6.1488552,49.40683487],[6.14883859,49.40710427],[6.14915743,49.40731366],[6.1493846,49.40755692],[6.14943644,49.40766081],[6.14939364,49.40784004],[6.14923428,49.40805198],[6.14881936,49.4082328],[6.14818911,49.40877004],[6.14771034,49.40885357],[6.14749601,49.40884295],[6.14726468,49.40875722],[6.14706701,49.40859055],[6.1469106,49.40855774],[6.14589159,49.40905021],[6.14572225,49.40923452],[6.14561831,49.40924802],[6.14532301,49.40915315],[6.14478177,49.40929766],[6.14463469,49.40944002],[6.14470143,49.40960739],[6.144465,49.40966392],[6.14414718,49.40958402],[6.14362091,49.40934133],[6.14339297,49.40955955],[6.14330782,49.40949699],[6.14326141,49.40927871],[6.14320125,49.40921911],[6.14262426,49.40900382],[6.14250287,49.40900247],[6.14244951,49.40903175],[6.14242634,49.40919426],[6.1423548,49.40926449],[6.14206382,49.40930803],[6.14154784,49.40948245],[6.14067216,49.40952318],[6.14054188,49.40955715],[6.14051829,49.40964502],[6.14033481,49.40975593],[6.13983406,49.40979591],[6.13974909,49.40984939],[6.13975859,49.41023145],[6.13971755,49.41030448],[6.13941802,49.41052455],[6.1392814,49.41059016],[6.13894808,49.4106177],[6.13880557,49.41083549],[6.13840813,49.41091957],[6.13789199,49.41115964],[6.13759795,49.41122124],[6.13753329,49.41129128],[6.1373321,49.41131539],[6.13714069,49.41138692],[6.13673713,49.41161957],[6.1364883,49.41194806],[6.13549969,49.41228583],[6.13546525,49.41249002],[6.1348436,49.4125601],[6.13469018,49.41262165],[6.13452967,49.41263481],[6.13451059,49.41270636],[6.13394569,49.41255369],[6.13367373,49.41259312],[6.1335161,49.41272134],[6.13337259,49.41276463],[6.13322095,49.41290079],[6.133166,49.41301736],[6.1328715,49.41309425],[6.13260595,49.41321627],[6.13230742,49.41320421],[6.1321892,49.41332331],[6.13212076,49.41333138],[6.13195102,49.41319275],[6.13140364,49.41335084],[6.13113397,49.41331465],[6.13057537,49.41335609],[6.13043625,49.41331292],[6.13030953,49.41315608],[6.13020821,49.4131677],[6.13132698,49.41426675],[6.13154964,49.41418723],[6.13198851,49.41376388],[6.13313068,49.41522393],[6.13355336,49.41591641],[6.13170476,49.41585364],[6.13037852,49.41689904],[6.12838562,49.41743454],[6.12658331,49.41872518],[6.12856709,49.41928647],[6.12959564,49.41978429],[6.13015877,49.42029235],[6.13101578,49.42084856],[6.13189564,49.42089595],[6.13125184,49.42178246],[6.13129702,49.42195849],[6.13060488,49.42266274],[6.13007484,49.42349323],[6.13038474,49.42378205],[6.13043753,49.42415129],[6.13282161,49.42446558],[6.13335692,49.42433388],[6.13353834,49.42747301],[6.13332957,49.42814406],[6.13289891,49.42877228],[6.13431656,49.42908818],[6.13437844,49.42953813],[6.13473865,49.42965563],[6.1341399,49.42978808],[6.13588795,49.43115773],[6.1355611,49.43131642],[6.13592705,49.43213899],[6.13618587,49.43310466],[6.1365026,49.43307397],[6.13792122,49.43322249],[6.1366361,49.43705265],[6.13973679,49.43782049],[6.14018061,49.43783776],[6.14204044,49.43784526],[6.1420428,49.43942024],[6.1422633,49.44007206],[6.14201736,49.4407207],[6.14227841,49.44138136],[6.14297628,49.44244085],[6.14337657,49.44269311],[6.1445098,49.4440813],[6.14525408,49.44470241],[6.14519502,49.44520318],[6.14585528,49.44593891],[6.14628417,49.44688393],[6.14663487,49.44733986],[6.14873644,49.44833854],[6.14923958,49.44875991],[6.14992782,49.4491171],[6.14969748,49.4465487],[6.15204773,49.44629143],[6.15330045,49.44599974],[6.15414013,49.44547413],[6.15471022,49.44484941],[6.1550917,49.44481608],[6.15508195,49.44463463],[6.15539224,49.44443045],[6.15761649,49.44461711],[6.15756701,49.44430537],[6.15974112,49.44369813],[6.16159195,49.44348788],[6.1632097,49.44226904],[6.16411024,49.44197295],[6.1631762,49.44089365],[6.16250314,49.43966091],[6.16514731,49.4388056],[6.16436348,49.43781323],[6.1654426,49.43730467],[6.16942531,49.43594648],[6.17014578,49.43579718],[6.17047089,49.43581295],[6.17149484,49.43539572],[6.17221612,49.43487938],[6.17296519,49.43483635],[6.17306068,49.43423746],[6.1722931,49.43386809],[6.17232693,49.43352178],[6.17149848,49.43346254],[6.17110307,49.43333527],[6.17115893,49.43278689],[6.17261277,49.43287832],[6.17297045,49.43246055],[6.17471017,49.43228988],[6.17502861,49.43172832],[6.17505121,49.43128965],[6.17456036,49.43088964],[6.17483073,49.43021959],[6.17307975,49.42955758],[6.17351035,49.42871242],[6.17262479,49.42841901],[6.17380093,49.42637949],[6.17409598,49.42642303],[6.17440307,49.42608034],[6.17384466,49.42554537],[6.17405464,49.42532757],[6.17442474,49.42502281],[6.17547709,49.42509235],[6.17600741,49.42499297],[6.17730932,49.4255309],[6.17782213,49.42503617],[6.17911781,49.42562912],[6.18042731,49.42590954],[6.18084443,49.42542901],[6.18141174,49.42508037],[6.17961162,49.42243805],[6.17871315,49.42088475]]]]},"bbox":[6.12658331,49.4047479,6.18141174,49.4491171]}]}