{"type":"FeatureCollection","metadata":{"sourceType":"iris","referenceFile":"feignies-quartiers.geojson","source":"IGN / INSEE - Contours IRIS WFS Géoplateforme","sourceUrl":"https://geoservices.ign.fr/contoursiris","license":"Licence Ouverte / Open Licence 2.0","sourceYear":"2026"},"features":[{"type":"Feature","id":"fr-quartier-59225-c42d70981d08","properties":{"id":"fr-quartier-59225-c42d70981d08","kind":"quartier","name":"les Guides","cityCode":"59225","cityName":"Feignies","sourceType":"iris","sourceIds":["592250102"],"colorIndex":0,"center":[3.9079723952510164,50.28609868475164]},"geometry":{"type":"MultiPolygon","coordinates":[[[[3.94778459,50.29547296],[3.94810882,50.29542108],[3.94853622,50.29481619],[3.94782621,50.2946268],[3.94551887,50.29484386],[3.9449694,50.29529434],[3.94451309,50.29435322],[3.94413696,50.2944028],[3.94367364,50.29398612],[3.94513224,50.2934317],[3.94489587,50.29315874],[3.94356988,50.2930827],[3.94215606,50.29333237],[3.9421047,50.29283261],[3.94013974,50.29299129],[3.93980554,50.29318509],[3.9376655,50.29312507],[3.9375899,50.29244951],[3.9385823,50.29192295],[3.93857178,50.29165814],[3.9391301,50.29153267],[3.93818056,50.29013734],[3.9366826,50.29045762],[3.93661851,50.28994808],[3.93646366,50.28991155],[3.93599158,50.28924348],[3.9355557,50.28939495],[3.93447361,50.28817569],[3.9338829,50.28806344],[3.9329055,50.2873498],[3.93275556,50.28712286],[3.9321019,50.28686382],[3.93272918,50.28668038],[3.93187937,50.28566317],[3.93150469,50.2847995],[3.93073594,50.28376729],[3.93191297,50.28079251],[3.93235992,50.27964785],[3.93238976,50.27898584],[3.93313747,50.27720765],[3.93232703,50.27664628],[3.93065275,50.27558769],[3.93025637,50.2756724],[3.92855886,50.27456547],[3.92731665,50.27406299],[3.92549828,50.27308264],[3.9245175,50.27354257],[3.92397579,50.27664005],[3.92323831,50.27715292],[3.9228187,50.27688668],[3.92174094,50.2765661],[3.91990541,50.27649092],[3.91535715,50.27525151],[3.91283571,50.2746659],[3.91285333,50.2744772],[3.91321901,50.27447629],[3.91341452,50.27312074],[3.91376417,50.27308672],[3.91376853,50.27107798],[3.91365529,50.27016022],[3.91248921,50.26904822],[3.90921142,50.269622],[3.90777262,50.27009236],[3.90724794,50.269975],[3.90677945,50.26963094],[3.90584016,50.26959655],[3.90402341,50.26914476],[3.90147013,50.26997162],[3.9009288,50.26954726],[3.90080157,50.26964068],[3.89892317,50.26855531],[3.89769922,50.26747772],[3.89559134,50.2661614],[3.89512253,50.26571403],[3.89439408,50.26468399],[3.89372779,50.26415813],[3.89309172,50.26447074],[3.89275255,50.26605],[3.89239809,50.26636596],[3.89201573,50.26692725],[3.89139907,50.26723073],[3.88998376,50.26760823],[3.8901945,50.26827927],[3.89040575,50.26977552],[3.8895164,50.26995076],[3.88772931,50.26990438],[3.88634694,50.26792898],[3.88578081,50.26808031],[3.88319994,50.26910544],[3.88204654,50.26940464],[3.88203825,50.26957172],[3.88251275,50.27059108],[3.88256243,50.27191339],[3.88301402,50.27201971],[3.88322496,50.2721448],[3.88525274,50.27377169],[3.88599964,50.27481871],[3.88634462,50.27507573],[3.88693043,50.27828074],[3.88773084,50.27949617],[3.889447,50.28003153],[3.88923834,50.28035809],[3.88862012,50.28265767],[3.8884929,50.28267475],[3.88826406,50.28312985],[3.88796321,50.28315536],[3.88723303,50.28379097],[3.88840649,50.28485644],[3.88926618,50.28632733],[3.8888646,50.28644336],[3.88890978,50.28662173],[3.89026588,50.28850386],[3.88972222,50.28954669],[3.89074853,50.28948899],[3.8921942,50.29016275],[3.89276591,50.2905528],[3.89180081,50.29130147],[3.89124898,50.29203996],[3.88831806,50.29386773],[3.88817133,50.29389303],[3.88765019,50.29478751],[3.88741647,50.29488797],[3.8874677,50.29541108],[3.88764214,50.29584621],[3.8875703,50.29598591],[3.88582663,50.2961502],[3.88529504,50.29637131],[3.88446461,50.29689806],[3.88401121,50.297423],[3.88357126,50.29775569],[3.88421388,50.2984317],[3.88334554,50.298877],[3.88314615,50.29877787],[3.88298522,50.2988742],[3.88258319,50.29872982],[3.88058069,50.3001368],[3.87895728,50.30013222],[3.87847754,50.3001949],[3.8789575,50.30103192],[3.880479,50.3025089],[3.88049529,50.30304214],[3.87996462,50.30420781],[3.88026801,50.30440139],[3.88020976,50.30484088],[3.87979738,50.30490937],[3.8796605,50.30501989],[3.87933272,50.30560048],[3.88006318,50.30536001],[3.88149851,50.30526266],[3.88191413,50.30521839],[3.88204498,50.30516448],[3.88243566,50.30521825],[3.88258093,50.30510677],[3.88356242,50.30495248],[3.88825995,50.30444643],[3.89145701,50.3038442],[3.89229789,50.30374833],[3.89347489,50.30371287],[3.89414988,50.30359125],[3.89471342,50.30343092],[3.89552446,50.30307575],[3.89609397,50.30277799],[3.89683987,50.30222933],[3.89690183,50.30208701],[3.89692864,50.30170162],[3.89702152,50.30156356],[3.89789629,50.30108938],[3.89844103,50.30089865],[3.8992529,50.30067274],[3.899953,50.30054731],[3.90232906,50.3004644],[3.90618858,50.30000778],[3.90659916,50.29992036],[3.90752779,50.29964236],[3.90846476,50.29943881],[3.90910786,50.29903001],[3.90956752,50.29886679],[3.91334093,50.29799844],[3.91422311,50.29786889],[3.91515534,50.29779373],[3.91627826,50.29779885],[3.91771758,50.29770464],[3.91893803,50.29744593],[3.92028483,50.29735237],[3.92229287,50.29700693],[3.92270292,50.29697064],[3.9234754,50.29697653],[3.92539072,50.29731145],[3.92594972,50.29737101],[3.93084725,50.29758554],[3.93384879,50.29722432],[3.9412359,50.2965351],[3.94778459,50.29547296]]]]},"bbox":[3.87847754,50.26415813,3.94853622,50.30560048]},{"type":"Feature","id":"fr-quartier-59225-65c1b50a8dbc","properties":{"id":"fr-quartier-59225-65c1b50a8dbc","kind":"quartier","name":"Rue des Lanières","cityCode":"59225","cityName":"Feignies","sourceType":"iris","sourceIds":["592250103"],"colorIndex":1,"center":[3.8984128984329645,50.30957444709628]},"geometry":{"type":"MultiPolygon","coordinates":[[[[3.87933272,50.30560048],[3.87794754,50.30568039],[3.87830373,50.31036667],[3.87629853,50.31221803],[3.87615556,50.31286822],[3.87526511,50.31464698],[3.87676458,50.31564466],[3.87725634,50.31586204],[3.87755287,50.31581863],[3.87810027,50.31600958],[3.87817277,50.31614733],[3.87858648,50.31639131],[3.87877638,50.31626425],[3.8792008,50.31631779],[3.88008374,50.31628905],[3.8804746,50.31618659],[3.88058505,50.31608703],[3.88140512,50.3160722],[3.88159724,50.3159119],[3.88173658,50.31594143],[3.88186258,50.31617039],[3.88215363,50.3162958],[3.88299633,50.31629157],[3.88339426,50.31619265],[3.88364065,50.31600861],[3.88418277,50.31597689],[3.88451404,50.31607597],[3.88495509,50.31603779],[3.88542923,50.31588713],[3.88558224,50.31573609],[3.88588043,50.315628],[3.88654598,50.31559807],[3.88698209,50.31583826],[3.88761055,50.31657091],[3.8883905,50.3169855],[3.88866301,50.31725111],[3.88916832,50.317278],[3.8895311,50.31749357],[3.88988939,50.31753318],[3.89038999,50.3177702],[3.89102323,50.31789493],[3.89247231,50.31784225],[3.89327671,50.31749433],[3.89455186,50.31728126],[3.89567778,50.31743202],[3.89593968,50.31733404],[3.89713822,50.31730916],[3.89750761,50.31702544],[3.89820343,50.31696201],[3.89901512,50.31702703],[3.8990135,50.31669931],[3.89971666,50.3168127],[3.90048793,50.31681246],[3.90074299,50.31711857],[3.90120468,50.31721576],[3.90257267,50.31694268],[3.90300174,50.3167833],[3.90327896,50.31683784],[3.90354087,50.31721214],[3.90431851,50.31741116],[3.90450672,50.31734962],[3.90551392,50.31768163],[3.90615046,50.31775327],[3.90685663,50.31771935],[3.90708225,50.31778862],[3.91026185,50.31727225],[3.91491042,50.31703313],[3.91490739,50.31694337],[3.91551164,50.31693529],[3.91803918,50.31287418],[3.91777259,50.31278727],[3.91744332,50.31256884],[3.91703301,50.31213461],[3.91668494,50.31165233],[3.91602579,50.31032924],[3.91586741,50.30940378],[3.91569761,50.30893095],[3.91507106,50.30777911],[3.91418211,50.30707815],[3.91357815,50.30624219],[3.91279253,50.30536088],[3.91263613,50.30523992],[3.91335796,50.30352137],[3.91469049,50.30169951],[3.91509306,50.30093689],[3.91523968,50.30082805],[3.91528557,50.30072984],[3.91424914,50.29822337],[3.91422311,50.29786889],[3.91334093,50.29799844],[3.90956752,50.29886679],[3.90910786,50.29903001],[3.90846476,50.29943881],[3.90752779,50.29964236],[3.90659916,50.29992036],[3.90618858,50.30000778],[3.90232906,50.3004644],[3.899953,50.30054731],[3.8992529,50.30067274],[3.89844103,50.30089865],[3.89789629,50.30108938],[3.89702152,50.30156356],[3.89692864,50.30170162],[3.89690183,50.30208701],[3.89683987,50.30222933],[3.89609397,50.30277799],[3.89552446,50.30307575],[3.89471342,50.30343092],[3.89414988,50.30359125],[3.89347489,50.30371287],[3.89229789,50.30374833],[3.89145701,50.3038442],[3.88825995,50.30444643],[3.88356242,50.30495248],[3.88258093,50.30510677],[3.88243566,50.30521825],[3.88204498,50.30516448],[3.88191413,50.30521839],[3.88149851,50.30526266],[3.88006318,50.30536001],[3.87933272,50.30560048]]]]},"bbox":[3.87526511,50.29786889,3.91803918,50.31789493]},{"type":"Feature","id":"fr-quartier-59225-fdfb68d5803a","properties":{"id":"fr-quartier-59225-fdfb68d5803a","kind":"quartier","name":"Rue Louis Pasteur","cityCode":"59225","cityName":"Feignies","sourceType":"iris","sourceIds":["592250101"],"colorIndex":2,"center":[3.9275741199922165,50.30476739428335]},"geometry":{"type":"MultiPolygon","coordinates":[[[[3.9185829,50.31671491],[3.91858091,50.31660538],[3.92085376,50.31643579],[3.92344205,50.3158795],[3.92428835,50.31561187],[3.92538951,50.3150963],[3.9255681,50.31489383],[3.9254195,50.31443612],[3.92561146,50.31327909],[3.92615451,50.31330105],[3.92832362,50.31260772],[3.92790508,50.31134753],[3.92832818,50.31125186],[3.92852671,50.31099177],[3.92907717,50.31111243],[3.92926089,50.31065671],[3.93014707,50.31065811],[3.93090332,50.31053298],[3.93169269,50.31106396],[3.93275986,50.31145097],[3.93352025,50.31147395],[3.93383574,50.31139793],[3.93371835,50.31088791],[3.93402673,50.31019958],[3.93321991,50.30902764],[3.93377139,50.30874871],[3.93408197,50.30878766],[3.93554742,50.30774126],[3.93680459,50.30718579],[3.93797924,50.30702062],[3.93986177,50.3069982],[3.93998488,50.30766261],[3.93906118,50.30790311],[3.93868435,50.30837379],[3.93923939,50.30881672],[3.93990248,50.30903794],[3.94113649,50.30897106],[3.94307832,50.30829087],[3.94244106,50.30757562],[3.94181055,50.30714585],[3.94245761,50.30673326],[3.94276281,50.3061832],[3.94386406,50.30614335],[3.94426577,50.30588257],[3.94225395,50.30430597],[3.94205862,50.3039052],[3.94217734,50.30305307],[3.94338091,50.30309145],[3.9433219,50.30233317],[3.94300246,50.30121591],[3.94301219,50.30030895],[3.94297867,50.30016554],[3.94270658,50.30000779],[3.94266383,50.29921885],[3.94310597,50.29902331],[3.94341636,50.29905505],[3.9426586,50.29863703],[3.94270068,50.29856308],[3.94233183,50.298178],[3.9424201,50.29810011],[3.94379951,50.29735146],[3.94477796,50.29667681],[3.94533634,50.29647768],[3.94586375,50.29642156],[3.94636064,50.29645725],[3.94643602,50.29666499],[3.94635235,50.29713794],[3.94691906,50.29730868],[3.94779393,50.29716817],[3.94793361,50.29706653],[3.94783197,50.2970287],[3.94760656,50.29651951],[3.94755215,50.29608444],[3.94758828,50.29569357],[3.94773269,50.29569515],[3.94778459,50.29547296],[3.9412359,50.2965351],[3.93384879,50.29722432],[3.93084725,50.29758554],[3.92594972,50.29737101],[3.92539072,50.29731145],[3.9234754,50.29697653],[3.92270292,50.29697064],[3.92229287,50.29700693],[3.92028483,50.29735237],[3.91893803,50.29744593],[3.91771758,50.29770464],[3.91627826,50.29779885],[3.91515534,50.29779373],[3.91422311,50.29786889],[3.91424914,50.29822337],[3.91528557,50.30072984],[3.91523968,50.30082805],[3.91509306,50.30093689],[3.91469049,50.30169951],[3.91335796,50.30352137],[3.91263613,50.30523992],[3.91279253,50.30536088],[3.91357815,50.30624219],[3.91418211,50.30707815],[3.91507106,50.30777911],[3.91569761,50.30893095],[3.91586741,50.30940378],[3.91602579,50.31032924],[3.91668494,50.31165233],[3.91703301,50.31213461],[3.91744332,50.31256884],[3.91777259,50.31278727],[3.91803918,50.31287418],[3.91551164,50.31693529],[3.91665005,50.31692055],[3.9185829,50.31671491]]]]},"bbox":[3.91263613,50.29547296,3.94793361,50.31693529]}]}