{"type":"FeatureCollection","metadata":{"sourceType":"iris","referenceFile":"fresnes-sur-escaut-quartiers.geojson","source":"IGN / INSEE - Contours IRIS WFS Géoplateforme","sourceUrl":"https://geoservices.ign.fr/contoursiris","license":"Licence Ouverte / Open Licence 2.0","sourceYear":"2026"},"features":[{"type":"Feature","id":"fr-quartier-59253-dba13f7f9c0f","properties":{"id":"fr-quartier-59253-dba13f7f9c0f","kind":"quartier","name":"Lieu Dit Champ du Moulin","cityCode":"59253","cityName":"Fresnes-sur-Escaut","sourceType":"iris","sourceIds":["592530101"],"colorIndex":0,"center":[3.569780263615,50.44423767170337]},"geometry":{"type":"MultiPolygon","coordinates":[[[[3.553027,50.43998088],[3.55143762,50.44092069],[3.55190952,50.44178127],[3.55130829,50.44233424],[3.55333919,50.44370762],[3.55460587,50.44499283],[3.55499175,50.44556562],[3.55599285,50.44787448],[3.55679042,50.4482955],[3.55829717,50.44940363],[3.55888116,50.4507197],[3.55894658,50.45116735],[3.55473686,50.45280932],[3.55531829,50.45313257],[3.55726662,50.45245682],[3.55759993,50.45220936],[3.55817253,50.45198774],[3.55931852,50.45174288],[3.56239066,50.45414013],[3.56364747,50.45462364],[3.56473256,50.45471295],[3.56593738,50.45469577],[3.56875171,50.45438932],[3.56938869,50.45401834],[3.57143853,50.45251155],[3.5747178,50.44995949],[3.57600037,50.44888168],[3.5763373,50.44846986],[3.57689096,50.44807768],[3.57777795,50.44782039],[3.57855849,50.44808875],[3.5807367,50.44837388],[3.58099752,50.4483152],[3.58113944,50.44818616],[3.58106234,50.4479621],[3.57997746,50.44690343],[3.58000272,50.44641048],[3.5801437,50.44607767],[3.58046422,50.44583289],[3.58085909,50.44569548],[3.5827821,50.44543777],[3.58455986,50.44502093],[3.58470081,50.44505258],[3.58498301,50.44538429],[3.58593752,50.44538067],[3.58674511,50.4441075],[3.58711927,50.44340193],[3.58731008,50.44276635],[3.58731385,50.44224477],[3.58722122,50.44177481],[3.58700433,50.44125697],[3.58594201,50.43971886],[3.58544947,50.43918616],[3.58463697,50.43857687],[3.58385913,50.43816761],[3.57669433,50.4354345],[3.5753817,50.43483197],[3.57341392,50.43383927],[3.5714432,50.43481343],[3.57077516,50.43527435],[3.57003355,50.43594118],[3.56991695,50.4359471],[3.56986757,50.43605505],[3.56845879,50.43664236],[3.56738063,50.43725954],[3.56650119,50.43755174],[3.56563944,50.43791746],[3.56502765,50.43826228],[3.56294064,50.43930057],[3.5623456,50.43963902],[3.56222315,50.43975089],[3.56071089,50.44002437],[3.55984778,50.44027515],[3.55842891,50.44086148],[3.55589889,50.44215749],[3.55578105,50.44217956],[3.55566111,50.44213881],[3.55414466,50.44101811],[3.5536003,50.44060132],[3.553027,50.43998088]]]]},"bbox":[3.55130829,50.43383927,3.58731385,50.45471295]},{"type":"Feature","id":"fr-quartier-59253-5913db7a82f4","properties":{"id":"fr-quartier-59253-5913db7a82f4","kind":"quartier","name":"Rue Emile Tabary","cityCode":"59253","cityName":"Fresnes-sur-Escaut","sourceType":"iris","sourceIds":["592530103"],"colorIndex":1,"center":[3.5616074084581766,50.43507750987008]},"geometry":{"type":"MultiPolygon","coordinates":[[[[3.56187314,50.42789196],[3.56176839,50.42794989],[3.56229269,50.42821233],[3.56238112,50.42845431],[3.55961932,50.42982239],[3.55760912,50.43130283],[3.55561817,50.43313863],[3.55689187,50.43367781],[3.55590121,50.43420743],[3.55457073,50.43476818],[3.55443539,50.43485856],[3.55429792,50.43526674],[3.55355324,50.43541819],[3.55327791,50.43530452],[3.55307321,50.43509448],[3.5528847,50.43507916],[3.55208796,50.43522546],[3.5518884,50.43535651],[3.55197976,50.43638398],[3.55244507,50.43651835],[3.55255505,50.43667765],[3.55285876,50.43758477],[3.55366613,50.43891514],[3.55361251,50.43953659],[3.553027,50.43998088],[3.5536003,50.44060132],[3.55414466,50.44101811],[3.55566111,50.44213881],[3.55578105,50.44217956],[3.55589889,50.44215749],[3.55842891,50.44086148],[3.55984778,50.44027515],[3.56071089,50.44002437],[3.56222315,50.43975089],[3.5623456,50.43963902],[3.56294064,50.43930057],[3.56502765,50.43826228],[3.56563944,50.43791746],[3.56650119,50.43755174],[3.56738063,50.43725954],[3.56845879,50.43664236],[3.56986757,50.43605505],[3.56991695,50.4359471],[3.57003355,50.43594118],[3.57077516,50.43527435],[3.5714432,50.43481343],[3.57341392,50.43383927],[3.56471502,50.42917351],[3.56187314,50.42789196]]]]},"bbox":[3.5518884,50.42789196,3.57341392,50.44217956]},{"type":"Feature","id":"fr-quartier-59253-6dd515fad0c2","properties":{"id":"fr-quartier-59253-6dd515fad0c2","kind":"quartier","name":"Rue Jean Jaurès","cityCode":"59253","cityName":"Fresnes-sur-Escaut","sourceType":"iris","sourceIds":["592530102"],"colorIndex":2,"center":[3.5869601651892578,50.426439266269966]},"geometry":{"type":"MultiPolygon","coordinates":[[[[3.58043049,50.41029512],[3.5807833,50.41067859],[3.58127196,50.41212165],[3.57641406,50.41238859],[3.57332197,50.41314002],[3.57318224,50.41283543],[3.57243763,50.41320696],[3.57072739,50.41329207],[3.56819988,50.41316367],[3.56753673,50.41328612],[3.5681447,50.41437677],[3.56984861,50.41522087],[3.57020558,50.41572734],[3.57056052,50.41704716],[3.57105997,50.41772623],[3.57135551,50.41975373],[3.57120991,50.42004886],[3.57165211,50.42137635],[3.5718426,50.42231448],[3.57182104,50.42276793],[3.57228432,50.42334841],[3.56896479,50.42405857],[3.56829278,50.42440549],[3.56805508,50.42438594],[3.56769763,50.42421522],[3.56711593,50.42422148],[3.56651259,50.42530331],[3.56561427,50.42552198],[3.56599821,50.42579941],[3.56187314,50.42789196],[3.56471502,50.42917351],[3.57341392,50.43383927],[3.5753817,50.43483197],[3.57669433,50.4354345],[3.58385913,50.43816761],[3.58463697,50.43857687],[3.58544947,50.43918616],[3.58594201,50.43971886],[3.58700433,50.44125697],[3.58722122,50.44177481],[3.58731385,50.44224477],[3.58731008,50.44276635],[3.58711927,50.44340193],[3.58674511,50.4441075],[3.58593752,50.44538067],[3.58633957,50.44537966],[3.58634199,50.44522435],[3.58660606,50.44520514],[3.58654739,50.44475388],[3.5867235,50.44466687],[3.58697554,50.44458039],[3.5875559,50.44455968],[3.5882255,50.44435631],[3.58892981,50.44351451],[3.5900271,50.44382167],[3.59032628,50.44404018],[3.59047166,50.44397036],[3.59074978,50.44419077],[3.59123986,50.44402504],[3.59213875,50.44467337],[3.59241016,50.44396289],[3.59264484,50.44383609],[3.59401364,50.44356111],[3.59479022,50.44325305],[3.59549796,50.44283132],[3.59603067,50.44223088],[3.59637377,50.44200121],[3.59859816,50.44097965],[3.59918504,50.44009167],[3.59914206,50.43978756],[3.59935258,50.43928652],[3.59999154,50.43888035],[3.60183621,50.43797637],[3.60384289,50.43710928],[3.60873526,50.43531949],[3.60861167,50.43509477],[3.60869968,50.43388602],[3.60858145,50.43340633],[3.6079743,50.4328249],[3.60774352,50.43245169],[3.60804588,50.43060181],[3.60613412,50.42858146],[3.6057065,50.42878285],[3.60548073,50.42870675],[3.60270595,50.42595174],[3.60256587,50.42575403],[3.60367522,50.42545057],[3.6038018,50.42545983],[3.60382141,50.42521914],[3.60155311,50.42355326],[3.60164878,50.42344506],[3.6021925,50.42331853],[3.60244364,50.42316828],[3.60110143,50.42196917],[3.59972963,50.42004841],[3.59969118,50.41988791],[3.60024026,50.419624],[3.59837786,50.41755748],[3.59774223,50.41751118],[3.59674799,50.41696298],[3.59703416,50.4165675],[3.59540657,50.41520989],[3.59624873,50.4150209],[3.59707251,50.41387231],[3.59471471,50.41301288],[3.59073477,50.40955143],[3.58885254,50.40969238],[3.58153584,50.41027196],[3.58043049,50.41029512]]]]},"bbox":[3.56187314,50.40955143,3.60873526,50.44538067]}]}