{"type":"FeatureCollection","metadata":{"sourceType":"iris","source":"IGN / INSEE — Contours IRIS 2026","sourceUrl":"https://data.geopf.fr/wfs/ows?service=WFS&version=2.0.0&request=GetFeature&typeNames=STATISTICALUNITS.IRIS%3Acontours_iris&outputFormat=application%2Fjson&srsName=CRS%3A84&count=1000&CQL_FILTER=code_insee%3D%2759317%27&sortBy=code_iris","retrievedDate":"2026-09-10","sourceYear":"2026","license":"Licence Ouverte 2.0"},"features":[{"type":"Feature","id":"fr-quartier-59317-c1e58600b23f","properties":{"id":"fr-quartier-59317-c1e58600b23f","kind":"quartier","name":"Nord","cityCode":"59317","cityName":"Houplines","sourceType":"iris","sourceIds":["593170102"],"colorIndex":0,"center":[2.911364066250835,50.694932515000005]},"geometry":{"type":"MultiPolygon","coordinates":[[[[2.91095555,50.69475365],[2.91089542,50.69599285],[2.90982881,50.69753371],[2.90994966,50.69868329],[2.90987113,50.69914178],[2.90950368,50.69997604],[2.90960526,50.70084653],[2.90938011,50.70111377],[2.90878069,50.70129729],[2.9086047,50.70172609],[2.90868892,50.70203214],[2.90977255,50.70288899],[2.91128839,50.70386728],[2.91173746,50.70401835],[2.91232525,50.7040403],[2.91430215,50.70400668],[2.91698024,50.70377519],[2.9184646,50.70335622],[2.9189932,50.70327491],[2.92027743,50.70339957],[2.92141457,50.70271653],[2.92199949,50.70275728],[2.92291451,50.70315267],[2.92335573,50.70291515],[2.92368366,50.70284087],[2.92549814,50.70272263],[2.92695754,50.70287873],[2.92780315,50.70342032],[2.92893059,50.70352865],[2.929712,50.70352192],[2.93105592,50.70239113],[2.93272688,50.70073825],[2.93241452,50.69976986],[2.93249394,50.69954556],[2.93509724,50.69790213],[2.93581036,50.6970922],[2.93583746,50.6968921],[2.93536554,50.69581953],[2.93736901,50.69460286],[2.93859363,50.69365228],[2.94057003,50.69248939],[2.94128418,50.69186337],[2.94169462,50.69121209],[2.938942,50.69064903],[2.93725126,50.6904741],[2.93600143,50.69018182],[2.93510758,50.68990677],[2.93478008,50.68973251],[2.9341323,50.68926286],[2.9325096,50.68791237],[2.92983381,50.68917526],[2.92944372,50.68932041],[2.92908776,50.68930495],[2.92840152,50.68909906],[2.92844258,50.68903627],[2.9283834,50.68893035],[2.92710269,50.68759344],[2.92695474,50.6873394],[2.92638235,50.68561614],[2.92623288,50.68544197],[2.92491394,50.68615458],[2.92111016,50.68784194],[2.91928979,50.688442],[2.91763656,50.68873973],[2.91565653,50.68931092],[2.91483818,50.68957508],[2.91373556,50.69001851],[2.91334237,50.69029552],[2.91271886,50.69141408],[2.91247847,50.69154761],[2.91131796,50.69193714],[2.91236743,50.69284241],[2.91243216,50.69298693],[2.91242327,50.69322472],[2.91286111,50.69328874],[2.91309949,50.69349978],[2.91398171,50.69393202],[2.91621587,50.6952688],[2.91449189,50.69631662],[2.91431376,50.69638559],[2.914153,50.69620512],[2.91248562,50.69716501],[2.91177574,50.69511138],[2.91178923,50.69467439],[2.91172156,50.69459178],[2.91144591,50.69468491],[2.91095555,50.69475365]]]]},"bbox":[2.9086047,50.68544197,2.94169462,50.7040403]},{"type":"Feature","id":"fr-quartier-59317-577323e6219f","properties":{"id":"fr-quartier-59317-577323e6219f","kind":"quartier","name":"Ouest","cityCode":"59317","cityName":"Houplines","sourceType":"iris","sourceIds":["593170101"],"colorIndex":1,"center":[2.903117806747896,50.692412515]},"geometry":{"type":"MultiPolygon","coordinates":[[[[2.8978526,50.68546137],[2.89857516,50.6871795],[2.89775939,50.68753688],[2.89725643,50.68757505],[2.89523638,50.68693355],[2.8943722,50.68879752],[2.89616652,50.68933206],[2.8974678,50.68989937],[2.89840332,50.69042419],[2.89934976,50.69114823],[2.9011617,50.69284926],[2.90176711,50.69317907],[2.90219491,50.69330862],[2.90324178,50.69329419],[2.90394128,50.69319154],[2.90492995,50.69257312],[2.90532578,50.69243075],[2.90575249,50.69239428],[2.9064925,50.69252855],[2.90792009,50.69289214],[2.90990077,50.69365544],[2.91077694,50.69429678],[2.91095555,50.69475365],[2.91144591,50.69468491],[2.91172156,50.69459178],[2.91178923,50.69467439],[2.91177574,50.69511138],[2.91248562,50.69716501],[2.914153,50.69620512],[2.91431376,50.69638559],[2.91449189,50.69631662],[2.91621587,50.6952688],[2.91398171,50.69393202],[2.91309949,50.69349978],[2.91286111,50.69328874],[2.91242327,50.69322472],[2.91243216,50.69298693],[2.91236743,50.69284241],[2.91131796,50.69193714],[2.90929935,50.69108499],[2.90588944,50.68942774],[2.90515266,50.68910413],[2.9048392,50.68903121],[2.90323604,50.68894472],[2.90346149,50.68704071],[2.90286546,50.68700525],[2.90236856,50.68683975],[2.90244648,50.68671956],[2.90243539,50.68661097],[2.90236203,50.68656425],[2.90191568,50.68583435],[2.89980752,50.68404872],[2.89834374,50.68288275],[2.89768111,50.6836674],[2.8978526,50.68546137]]]]},"bbox":[2.8943722,50.68288275,2.91621587,50.69716501]},{"type":"Feature","id":"fr-quartier-59317-c02d1bfa451b","properties":{"id":"fr-quartier-59317-c02d1bfa451b","kind":"quartier","name":"Sud","cityCode":"59317","cityName":"Houplines","sourceType":"iris","sourceIds":["593170103"],"colorIndex":2,"center":[2.9271514265374843,50.68250706]},"geometry":{"type":"MultiPolygon","coordinates":[[[[2.94169462,50.69121209],[2.94286953,50.69035298],[2.94539669,50.68912653],[2.94618952,50.68879217],[2.94791335,50.68836845],[2.95013364,50.68725485],[2.95236131,50.68571227],[2.95300321,50.68505385],[2.95325249,50.6843208],[2.95448207,50.68353338],[2.95546882,50.68257087],[2.95983645,50.68031818],[2.95775825,50.67936897],[2.9570623,50.67896851],[2.95656561,50.67845504],[2.9557433,50.67723882],[2.95332561,50.67557331],[2.95258876,50.67521319],[2.95222056,50.67480026],[2.95213198,50.67439192],[2.94965059,50.67313282],[2.9488335,50.67258868],[2.9483992,50.67196661],[2.94788277,50.67021562],[2.94758248,50.66975065],[2.94703656,50.66922814],[2.94603739,50.66869736],[2.9415211,50.66677133],[2.94016612,50.66751372],[2.9394762,50.66705213],[2.93889262,50.66740451],[2.93833395,50.6670058],[2.93240932,50.67007804],[2.93195313,50.66909875],[2.93204861,50.66845449],[2.93096777,50.66686642],[2.9304375,50.66640308],[2.93001231,50.66653385],[2.92979645,50.66641079],[2.92928448,50.66600309],[2.92963775,50.66580138],[2.92959691,50.66572418],[2.92719887,50.66414968],[2.92554488,50.66362911],[2.92355751,50.66231233],[2.92002335,50.66425385],[2.92186944,50.66561098],[2.91773569,50.66791369],[2.91932945,50.66904723],[2.91802338,50.66986568],[2.91802181,50.6699617],[2.92000014,50.67173082],[2.91511029,50.67402755],[2.91310369,50.6747656],[2.91005727,50.67571195],[2.91054326,50.67640148],[2.91048387,50.67644272],[2.90587847,50.67795946],[2.90358153,50.67896814],[2.90244577,50.67909468],[2.90011661,50.67991302],[2.8989523,50.6801759],[2.89690445,50.68082481],[2.89741033,50.68139595],[2.89871607,50.68245322],[2.89870456,50.6825609],[2.89834374,50.68288275],[2.89980752,50.68404872],[2.90191568,50.68583435],[2.90236203,50.68656425],[2.90243539,50.68661097],[2.90244648,50.68671956],[2.90236856,50.68683975],[2.90286546,50.68700525],[2.90346149,50.68704071],[2.90323604,50.68894472],[2.9048392,50.68903121],[2.90515266,50.68910413],[2.90588944,50.68942774],[2.90929935,50.69108499],[2.91131796,50.69193714],[2.91247847,50.69154761],[2.91271886,50.69141408],[2.91334237,50.69029552],[2.91373556,50.69001851],[2.91483818,50.68957508],[2.91565653,50.68931092],[2.91763656,50.68873973],[2.91928979,50.688442],[2.92111016,50.68784194],[2.92491394,50.68615458],[2.92623288,50.68544197],[2.92638235,50.68561614],[2.92695474,50.6873394],[2.92710269,50.68759344],[2.9283834,50.68893035],[2.92844258,50.68903627],[2.92840152,50.68909906],[2.92908776,50.68930495],[2.92944372,50.68932041],[2.92983381,50.68917526],[2.9325096,50.68791237],[2.9341323,50.68926286],[2.93478008,50.68973251],[2.93510758,50.68990677],[2.93600143,50.69018182],[2.93725126,50.6904741],[2.938942,50.69064903],[2.94169462,50.69121209]]]]},"bbox":[2.89690445,50.66231233,2.95983645,50.69193714]}]}