{"type":"FeatureCollection","metadata":{"sourceType":"iris","source":"IGN / INSEE — Contours IRIS 2026","sourceUrl":"https://data.geopf.fr/wfs/ows?service=WFS&version=2.0.0&request=GetFeature&typeNames=STATISTICALUNITS.IRIS%3Acontours_iris&outputFormat=application%2Fjson&srsName=CRS%3A84&count=1000&CQL_FILTER=code_insee%3D%2759352%27&sortBy=code_iris","retrievedDate":"2026-09-10","sourceYear":"2026","license":"Licence Ouverte 2.0"},"features":[{"type":"Feature","id":"fr-quartier-59352-2bd5fb5dde0b","properties":{"id":"fr-quartier-59352-2bd5fb5dde0b","kind":"quartier","name":"Centre","cityCode":"59352","cityName":"Linselles","sourceType":"iris","sourceIds":["593520101"],"colorIndex":0,"center":[3.0758051365769616,50.738363485]},"geometry":{"type":"MultiPolygon","coordinates":[[[[3.07707333,50.74028514],[3.08164702,50.7424043],[3.08160906,50.74254071],[3.08197116,50.74259162],[3.08226131,50.74274307],[3.08355158,50.74394277],[3.08430097,50.74471123],[3.0843575,50.74468876],[3.08451281,50.7445415],[3.08455066,50.74434318],[3.08510573,50.74310007],[3.08506684,50.74268286],[3.08491791,50.74242185],[3.08443176,50.74176088],[3.08359507,50.74203691],[3.08211805,50.74161618],[3.08249061,50.74115652],[3.08338733,50.74041746],[3.08372915,50.74018842],[3.08703129,50.73874153],[3.08759492,50.7384199],[3.08801848,50.738058],[3.08837529,50.73752655],[3.08849723,50.73691631],[3.08844566,50.73654307],[3.0880439,50.73562274],[3.08783758,50.73568749],[3.08697476,50.73631978],[3.0855422,50.73701079],[3.0848486,50.73740159],[3.08305066,50.73778774],[3.082943,50.73766578],[3.08226798,50.73733513],[3.08120733,50.73810211],[3.08086274,50.73836524],[3.08073123,50.73836173],[3.08068605,50.73840394],[3.08029579,50.73840509],[3.08000742,50.73846539],[3.07931826,50.73812217],[3.08139765,50.73688257],[3.08140008,50.7366394],[3.08124165,50.73659823],[3.08007835,50.73595204],[3.07911896,50.73548247],[3.07750317,50.73478001],[3.07740805,50.73452793],[3.07672668,50.73368669],[3.07576602,50.73419874],[3.07274509,50.73652542],[3.071864,50.73737477],[3.07177692,50.73778398],[3.07178585,50.73809534],[3.07184199,50.7387916],[3.0724175,50.73879216],[3.07328585,50.73889036],[3.07450658,50.73918215],[3.07707333,50.74028514]]]]},"bbox":[3.07177692,50.73368669,3.08849723,50.74471123]},{"type":"Feature","id":"fr-quartier-59352-665de1f2775c","properties":{"id":"fr-quartier-59352-665de1f2775c","kind":"quartier","name":"Est","cityCode":"59352","cityName":"Linselles","sourceType":"iris","sourceIds":["593520103"],"colorIndex":1,"center":[3.0667690362479947,50.74193991]},"geometry":{"type":"MultiPolygon","coordinates":[[[[3.0604349,50.74448105],[3.05984189,50.74526825],[3.06025689,50.74580462],[3.06210291,50.7473228],[3.0615675,50.74780759],[3.06225242,50.74813655],[3.06276312,50.74825115],[3.06346496,50.74852895],[3.06408332,50.74877987],[3.06468817,50.74841167],[3.06651953,50.7493672],[3.06749686,50.74939808],[3.06860615,50.74973664],[3.07151066,50.75036668],[3.07223516,50.7496305],[3.07370124,50.75020031],[3.07406908,50.75027725],[3.07425601,50.75043775],[3.07744434,50.75068884],[3.07789883,50.75191064],[3.08037493,50.75248332],[3.08152691,50.75288634],[3.08364375,50.75341073],[3.08509866,50.75392657],[3.08573166,50.75436131],[3.0866079,50.75475999],[3.08705019,50.75450306],[3.08753155,50.75394821],[3.08797966,50.75298962],[3.08904901,50.75222169],[3.09077053,50.75077405],[3.09157721,50.75027009],[3.09456488,50.74907807],[3.09486709,50.74883827],[3.09503224,50.74866766],[3.0950865,50.74819835],[3.0963199,50.74679855],[3.09838796,50.74557843],[3.10016427,50.74490585],[3.10169207,50.74443892],[3.10289597,50.74396417],[3.10454043,50.74318306],[3.1037114,50.74165299],[3.1038334,50.74115849],[3.10590582,50.74086064],[3.10549414,50.74010099],[3.10623174,50.73918064],[3.10568587,50.73848481],[3.10627086,50.7382896],[3.10596837,50.73767253],[3.10720151,50.73707926],[3.10658666,50.73652257],[3.10705379,50.73610314],[3.10859131,50.73571328],[3.10765917,50.73488678],[3.10822309,50.73478131],[3.10805676,50.73436063],[3.10814628,50.733911],[3.11000704,50.73202147],[3.10685671,50.72855795],[3.10669001,50.72728482],[3.10680852,50.72717435],[3.10447509,50.72609149],[3.10421979,50.72568523],[3.10299645,50.72474049],[3.10170025,50.72408831],[3.10019924,50.72420528],[3.10021186,50.72485941],[3.09872497,50.72642281],[3.0977144,50.72725002],[3.09681496,50.72781154],[3.09399409,50.72904031],[3.09323515,50.72992741],[3.09290413,50.72981998],[3.09002394,50.73198728],[3.08846072,50.73305708],[3.0879906,50.73344953],[3.08775552,50.73323524],[3.08743708,50.73305421],[3.08701992,50.73301054],[3.08532925,50.73318579],[3.08427885,50.73324572],[3.08412763,50.73328172],[3.08389035,50.73342993],[3.08289967,50.7345558],[3.08169809,50.73556425],[3.08159805,50.73664825],[3.08163281,50.7371516],[3.08136783,50.737674],[3.08115479,50.73796396],[3.08120733,50.73810211],[3.08226798,50.73733513],[3.082943,50.73766578],[3.08305066,50.73778774],[3.0848486,50.73740159],[3.0855422,50.73701079],[3.08697476,50.73631978],[3.08783758,50.73568749],[3.0880439,50.73562274],[3.08844566,50.73654307],[3.08849723,50.73691631],[3.08837529,50.73752655],[3.08801848,50.738058],[3.08759492,50.7384199],[3.08703129,50.73874153],[3.08372915,50.74018842],[3.08338733,50.74041746],[3.08249061,50.74115652],[3.08211805,50.74161618],[3.08359507,50.74203691],[3.08443176,50.74176088],[3.08491791,50.74242185],[3.08506684,50.74268286],[3.08510573,50.74310007],[3.08455066,50.74434318],[3.08451281,50.7445415],[3.0843575,50.74468876],[3.08430097,50.74471123],[3.08355158,50.74394277],[3.08226131,50.74274307],[3.08197116,50.74259162],[3.08160906,50.74254071],[3.08164702,50.7424043],[3.07707333,50.74028514],[3.07633194,50.74094062],[3.07628688,50.74106537],[3.07538436,50.74178015],[3.07416717,50.74297517],[3.07425974,50.74341029],[3.07339919,50.74580026],[3.07361369,50.74644348],[3.07198228,50.7458935],[3.07162001,50.74572682],[3.07087406,50.74526425],[3.06902814,50.74395526],[3.06850557,50.7434109],[3.06830372,50.74265102],[3.06809395,50.7422976],[3.06767476,50.74184291],[3.06695857,50.74135428],[3.06619401,50.74170821],[3.06517942,50.74226776],[3.06481475,50.74240433],[3.06438496,50.74247813],[3.06285073,50.74255608],[3.06160643,50.74266348],[3.061468,50.74279007],[3.06132132,50.74310509],[3.06122524,50.74317064],[3.06078501,50.74397751],[3.0604349,50.74448105]]]]},"bbox":[3.05984189,50.72408831,3.11000704,50.75475999]},{"type":"Feature","id":"fr-quartier-59352-577323e6219f","properties":{"id":"fr-quartier-59352-577323e6219f","kind":"quartier","name":"Ouest","cityCode":"59352","cityName":"Linselles","sourceType":"iris","sourceIds":["593520102"],"colorIndex":2,"center":[3.0555953298147442,50.73561436]},"geometry":{"type":"MultiPolygon","coordinates":[[[[3.03501892,50.73181752],[3.03477596,50.73212536],[3.03538568,50.73262857],[3.03508893,50.73286195],[3.03590933,50.7333651],[3.03639124,50.73307692],[3.03821976,50.73360398],[3.03765111,50.73511699],[3.03748451,50.73543558],[3.03720048,50.73566447],[3.03874332,50.73598523],[3.03847376,50.73663226],[3.03985282,50.73720071],[3.03910529,50.73779585],[3.03953696,50.73830178],[3.03968816,50.7381815],[3.04058726,50.73793176],[3.04106136,50.73843319],[3.04260976,50.73850625],[3.04268234,50.73905536],[3.04312455,50.73861374],[3.04610122,50.73879662],[3.04634025,50.73886921],[3.0463645,50.73909173],[3.04696282,50.73929339],[3.04735062,50.73966742],[3.05154619,50.73977881],[3.05176819,50.73977064],[3.05189393,50.73965843],[3.05365085,50.74029834],[3.05473567,50.74051681],[3.0548811,50.74030947],[3.05632379,50.74062646],[3.05639181,50.74075564],[3.05622282,50.74137395],[3.05665566,50.74148771],[3.05708296,50.74170555],[3.05706618,50.74186617],[3.05737599,50.74197729],[3.05724742,50.74206977],[3.05711634,50.74245476],[3.05934586,50.74317962],[3.05880533,50.74410767],[3.0604349,50.74448105],[3.06078501,50.74397751],[3.06122524,50.74317064],[3.06132132,50.74310509],[3.061468,50.74279007],[3.06160643,50.74266348],[3.06285073,50.74255608],[3.06438496,50.74247813],[3.06481475,50.74240433],[3.06517942,50.74226776],[3.06619401,50.74170821],[3.06695857,50.74135428],[3.06767476,50.74184291],[3.06809395,50.7422976],[3.06830372,50.74265102],[3.06850557,50.7434109],[3.06902814,50.74395526],[3.07087406,50.74526425],[3.07162001,50.74572682],[3.07198228,50.7458935],[3.07361369,50.74644348],[3.07339919,50.74580026],[3.07425974,50.74341029],[3.07416717,50.74297517],[3.07538436,50.74178015],[3.07628688,50.74106537],[3.07633194,50.74094062],[3.07707333,50.74028514],[3.07450658,50.73918215],[3.07328585,50.73889036],[3.0724175,50.73879216],[3.07184199,50.7387916],[3.07178585,50.73809534],[3.07177692,50.73778398],[3.071864,50.73737477],[3.07274509,50.73652542],[3.07576602,50.73419874],[3.07672668,50.73368669],[3.07740805,50.73452793],[3.07750317,50.73478001],[3.07911896,50.73548247],[3.08007835,50.73595204],[3.08124165,50.73659823],[3.08140008,50.7366394],[3.08139765,50.73688257],[3.07931826,50.73812217],[3.08000742,50.73846539],[3.08029579,50.73840509],[3.08068605,50.73840394],[3.08073123,50.73836173],[3.08086274,50.73836524],[3.08120733,50.73810211],[3.08115479,50.73796396],[3.08136783,50.737674],[3.08163281,50.7371516],[3.08159805,50.73664825],[3.08169809,50.73556425],[3.08289967,50.7345558],[3.08389035,50.73342993],[3.08412763,50.73328172],[3.08427885,50.73324572],[3.08532925,50.73318579],[3.08701992,50.73301054],[3.08743708,50.73305421],[3.08775552,50.73323524],[3.0879906,50.73344953],[3.08846072,50.73305708],[3.09002394,50.73198728],[3.09290413,50.72981998],[3.09215146,50.72952444],[3.09089003,50.72932527],[3.08872822,50.72842504],[3.08678615,50.72946279],[3.0854067,50.72885897],[3.08487454,50.72934208],[3.08389836,50.72892639],[3.08370344,50.7290333],[3.08241921,50.72783716],[3.08271284,50.72758034],[3.08255129,50.72734804],[3.08196839,50.72706398],[3.08133701,50.72652871],[3.0807491,50.7257628],[3.08007962,50.72524279],[3.07985999,50.72492259],[3.07942833,50.72460253],[3.07885479,50.72394876],[3.07732251,50.72307395],[3.07793377,50.72254595],[3.07703694,50.72213734],[3.07530366,50.72101676],[3.07389518,50.72059767],[3.0729702,50.72022044],[3.07136976,50.71996474],[3.06991333,50.71958062],[3.06962776,50.71954758],[3.06776273,50.72010764],[3.06748712,50.72012035],[3.06676039,50.7199691],[3.06581565,50.7195694],[3.06474131,50.71949459],[3.06132959,50.71866451],[3.06123783,50.71876505],[3.06134563,50.72022403],[3.06091193,50.72274748],[3.05878724,50.72507432],[3.05642859,50.72443922],[3.054183,50.72372417],[3.05406567,50.72372871],[3.0533384,50.72441187],[3.05025756,50.72383349],[3.04873744,50.72331276],[3.04819482,50.72352115],[3.04655522,50.72369226],[3.04359497,50.7251021],[3.04322439,50.72485637],[3.04180694,50.72534858],[3.04024043,50.72686644],[3.04143408,50.72747441],[3.04128859,50.72762252],[3.03982896,50.72853465],[3.03900562,50.72963859],[3.03799011,50.72907899],[3.03701779,50.72952345],[3.03692459,50.72967691],[3.03727828,50.73000611],[3.0359343,50.73072614],[3.03501892,50.73181752]]]]},"bbox":[3.03477596,50.71866451,3.09290413,50.74644348]}]}