{"type":"FeatureCollection","metadata":{"sourceType":"iris","referenceFile":"lille-quartiers.geojson","source":"IGN / INSEE Contours IRIS and Ville de Lille municipal quarters","sourceUrl":"https://geoservices.ign.fr/contoursiris","license":"Licence Ouverte / Open Licence","sourceYear":"2026"},"features":[{"type":"Feature","id":"fr-quartier-59350-2b390e665dcc","properties":{"id":"fr-quartier-59350-2b390e665dcc","kind":"quartier","name":"400 Maisons-Cimetière du Sud","cityCode":"59350","cityName":"Lille","sourceType":"iris","sourceIds":["593500707"],"colorIndex":0,"center":[3.051440619354121,50.60892139868896]},"geometry":{"type":"MultiPolygon","coordinates":[[[[3.05873877,50.60650924],[3.05680673,50.60406725],[3.0542737,50.60513008],[3.05372247,50.60529904],[3.05303438,50.60540524],[3.04899859,50.60579999],[3.04852257,50.60648315],[3.0480411,50.60737272],[3.04734468,50.60915714],[3.04656846,50.61164877],[3.04638814,50.61188039],[3.04755071,50.61375204],[3.04994417,50.61359673],[3.04976549,50.61262845],[3.0508584,50.61242967],[3.05104851,50.6135218],[3.05209502,50.61345315],[3.05210759,50.61332751],[3.05327856,50.61225545],[3.05314166,50.61217115],[3.052903,50.61189483],[3.05235967,50.6115998],[3.05230034,50.61151277],[3.05411708,50.61028786],[3.05422279,50.61022768],[3.05442444,50.61018811],[3.05433917,50.60959582],[3.0538093,50.60736856],[3.05873877,50.60650924]]]]},"bbox":[3.04638814,50.60406725,3.05873877,50.61375204]},{"type":"Feature","id":"fr-quartier-59350-10a637eb2264","properties":{"id":"fr-quartier-59350-10a637eb2264","kind":"quartier","name":"Arbonnoise","cityCode":"59350","cityName":"Lille","sourceType":"iris","sourceIds":["593500306"],"colorIndex":1,"center":[3.0386570976432234,50.623395062994916]},"geometry":{"type":"MultiPolygon","coordinates":[[[[3.03503323,50.62081015],[3.03485414,50.6209161],[3.0344987,50.62099607],[3.03468924,50.62112614],[3.03485713,50.62115033],[3.03495526,50.62431468],[3.03733877,50.62333667],[3.03989423,50.62581999],[3.04068147,50.62580448],[3.04062656,50.62594629],[3.04131748,50.62546952],[3.04325885,50.6239145],[3.04256441,50.62351717],[3.04075097,50.62278098],[3.03842967,50.621983],[3.03530847,50.62103353],[3.03522098,50.62099676],[3.03525476,50.62088278],[3.03519119,50.62076523],[3.03503323,50.62081015]]]]},"bbox":[3.0344987,50.62076523,3.04325885,50.62594629]},{"type":"Feature","id":"fr-quartier-59350-714b9d35c051","properties":{"id":"fr-quartier-59350-714b9d35c051","kind":"quartier","name":"Arras","cityCode":"59350","cityName":"Lille","sourceType":"iris","sourceIds":["593500506"],"colorIndex":2,"center":[3.068020936510958,50.62193209931302]},"geometry":{"type":"MultiPolygon","coordinates":[[[[3.0647493,50.61952293],[3.06375619,50.61951896],[3.06421357,50.62308337],[3.06776606,50.62427508],[3.06787054,50.62433964],[3.06836164,50.62444616],[3.0697695,50.62436192],[3.07115904,50.62428933],[3.07215384,50.62343888],[3.07217962,50.62273168],[3.0720465,50.62237099],[3.07190402,50.62237466],[3.07190674,50.62230645],[3.07260737,50.62097693],[3.06870386,50.6198753],[3.06861374,50.61999561],[3.06785026,50.61977166],[3.0678911,50.619716],[3.06762445,50.61969191],[3.0670727,50.6195576],[3.0647493,50.61952293]]]]},"bbox":[3.06375619,50.61951896,3.07260737,50.62444616]},{"type":"Feature","id":"fr-quartier-59350-1c9059170910","properties":{"id":"fr-quartier-59350-1c9059170910","kind":"quartier","name":"Arsenal","cityCode":"59350","cityName":"Lille","sourceType":"iris","sourceIds":["593500503"],"colorIndex":3,"center":[3.0575134032349163,50.619378621768625]},"geometry":{"type":"MultiPolygon","coordinates":[[[[3.05056527,50.61827848],[3.05055413,50.61843105],[3.05117649,50.61869734],[3.06126386,50.62208691],[3.06120225,50.61783394],[3.06084525,50.61774258],[3.06068867,50.61773637],[3.05429196,50.61811178],[3.05308872,50.61813114],[3.05056527,50.61827848]]]]},"bbox":[3.05055413,50.61773637,3.06126386,50.62208691]},{"type":"Feature","id":"fr-quartier-59350-a4e3b0098f5d","properties":{"id":"fr-quartier-59350-a4e3b0098f5d","kind":"quartier","name":"Aviateurs","cityCode":"59350","cityName":"Lille","sourceType":"iris","sourceIds":["593500804"],"colorIndex":4,"center":[3.0256473641624715,50.628599943080054]},"geometry":{"type":"MultiPolygon","coordinates":[[[[3.02109337,50.62906794],[3.02203586,50.62903816],[3.02223343,50.62912517],[3.02386631,50.63005102],[3.02468709,50.62923868],[3.02794314,50.63108311],[3.02809827,50.63095205],[3.0284185,50.6308398],[3.02854414,50.63095016],[3.02950807,50.63133762],[3.02950528,50.63138429],[3.03059624,50.63181928],[3.0321796,50.63214913],[3.03247991,50.6317847],[3.03294113,50.63151355],[3.03261643,50.63124351],[3.03207727,50.63099506],[3.02959268,50.6288562],[3.02887986,50.6283224],[3.0272596,50.62734456],[3.02705916,50.62716601],[3.02683342,50.62714991],[3.0256424,50.62668978],[3.02445285,50.62628348],[3.02298117,50.62593286],[3.02086054,50.62558593],[3.02057837,50.62558777],[3.01959368,50.62575395],[3.01945839,50.62614975],[3.01953188,50.62648179],[3.01984374,50.62663251],[3.02000182,50.62679312],[3.02025748,50.62751552],[3.02080229,50.62802876],[3.02109337,50.62906794]]]]},"bbox":[3.01945839,50.62558593,3.03294113,50.63214913]},{"type":"Feature","id":"fr-quartier-59350-fab5885f58db","properties":{"id":"fr-quartier-59350-fab5885f58db","kind":"quartier","name":"Baltique-Vieux Faubourg","cityCode":"59350","cityName":"Lille","sourceType":"iris","sourceIds":["593500601"],"colorIndex":5,"center":[3.028216368311648,50.61762400698628]},"geometry":{"type":"MultiPolygon","coordinates":[[[[3.02470896,50.61633796],[3.02396733,50.61702107],[3.02303472,50.6196364],[3.02275137,50.62007172],[3.02202928,50.62046224],[3.02136239,50.6213239],[3.02122009,50.62175649],[3.0215728,50.62181566],[3.02251096,50.62187742],[3.02297226,50.62188002],[3.02345048,50.62182699],[3.02406124,50.62165994],[3.0260006,50.62093262],[3.0266015,50.62081224],[3.02708819,50.62080944],[3.02758904,50.62091703],[3.02816197,50.62124087],[3.0284161,50.6215971],[3.02874951,50.62244241],[3.02891892,50.62265148],[3.02867699,50.62143371],[3.02868652,50.62083331],[3.02890331,50.62003992],[3.02935705,50.61919083],[3.03010147,50.61850949],[3.03076422,50.61810727],[3.03250085,50.61835363],[3.03286063,50.61845943],[3.03568063,50.61470014],[3.02792372,50.61391596],[3.02470896,50.61633796]]],[[[3.02899093,50.62275467],[3.02959348,50.62303273],[3.02997134,50.62265302],[3.03050724,50.62235315],[3.03036758,50.62236664],[3.02963274,50.62261452],[3.02891892,50.62265148],[3.02899093,50.62275467]]]]},"bbox":[3.02122009,50.61391596,3.03568063,50.62303273]},{"type":"Feature","id":"fr-quartier-59350-e12d9cf4c990","properties":{"id":"fr-quartier-59350-e12d9cf4c990","kind":"quartier","name":"Balzac-Lazarre Garreau","cityCode":"59350","cityName":"Lille","sourceType":"iris","sourceIds":["593500711"],"colorIndex":6,"center":[3.0556967934729506,50.614569585420256]},"geometry":{"type":"MultiPolygon","coordinates":[[[[3.06198852,50.6125682],[3.06072046,50.61019237],[3.05970239,50.61039299],[3.05986932,50.6108192],[3.05993334,50.61127957],[3.06004787,50.61151375],[3.06001549,50.61156582],[3.05769885,50.61218437],[3.05791565,50.613053],[3.0563492,50.61357694],[3.05548058,50.61252103],[3.05462361,50.61176754],[3.05327856,50.61225545],[3.05210759,50.61332751],[3.05209502,50.61345315],[3.05104851,50.6135218],[3.0508584,50.61242967],[3.04976549,50.61262845],[3.04994417,50.61359673],[3.04755071,50.61375204],[3.04826406,50.61484755],[3.04846334,50.6152594],[3.04826006,50.6165563],[3.04821375,50.61680311],[3.04824776,50.61697182],[3.05231325,50.61713441],[3.05426548,50.61710216],[3.05626693,50.61694332],[3.06230762,50.61625388],[3.06266087,50.61560844],[3.06266201,50.61539215],[3.06258515,50.61370947],[3.06198852,50.6125682]]]]},"bbox":[3.04755071,50.61019237,3.06266201,50.61713441]},{"type":"Feature","id":"fr-quartier-59350-e41068ce554c","properties":{"id":"fr-quartier-59350-e41068ce554c","kind":"quartier","name":"Barthélemy","cityCode":"59350","cityName":"Lille","sourceType":"iris","sourceIds":["593500410"],"colorIndex":7,"center":[3.0526618127811638,50.624065253363305]},"geometry":{"type":"MultiPolygon","coordinates":[[[[3.04995891,50.62558032],[3.0516861,50.62591346],[3.05565346,50.62597905],[3.05590274,50.62558317],[3.05398145,50.62320581],[3.05411111,50.62307831],[3.05399105,50.62294375],[3.05376532,50.62294115],[3.0518951,50.62064091],[3.05170903,50.62077829],[3.05085879,50.62257174],[3.05061805,50.62306363],[3.05113867,50.62311368],[3.04995891,50.62558032]]]]},"bbox":[3.04995891,50.62064091,3.05590274,50.62597905]},{"type":"Feature","id":"fr-quartier-59350-2e38504a5b40","properties":{"id":"fr-quartier-59350-2e38504a5b40","kind":"quartier","name":"Belfort","cityCode":"59350","cityName":"Lille","sourceType":"iris","sourceIds":["593500507"],"colorIndex":8,"center":[3.0778972940280642,50.619535202947546]},"geometry":{"type":"MultiPolygon","coordinates":[[[[3.07493773,50.61616882],[3.07431426,50.61617099],[3.0736037,50.61834503],[3.07440234,50.61849533],[3.07656988,50.61902889],[3.07733496,50.61935778],[3.07774592,50.61965996],[3.07812454,50.62001691],[3.07836773,50.62037304],[3.07914212,50.62211359],[3.07894844,50.62275449],[3.07834793,50.62395833],[3.07843393,50.62392238],[3.08056561,50.62391025],[3.08051701,50.6235163],[3.08041921,50.62323098],[3.08109913,50.62318926],[3.08101664,50.62278008],[3.08088781,50.62249477],[3.08111567,50.6212041],[3.08105859,50.6207967],[3.08060089,50.62040302],[3.08043377,50.61999389],[3.07962969,50.61910235],[3.07843398,50.61762681],[3.07796071,50.61716582],[3.07733242,50.61679287],[3.07683558,50.61659126],[3.07604817,50.61638533],[3.07493773,50.61616882]]]]},"bbox":[3.0736037,50.61616882,3.08111567,50.62395833]},{"type":"Feature","id":"fr-quartier-59350-ec3de2d272f8","properties":{"id":"fr-quartier-59350-ec3de2d272f8","kind":"quartier","name":"Brigode","cityCode":"59350","cityName":"Lille","sourceType":"iris","sourceIds":["593500405"],"colorIndex":9,"center":[3.043185677348913,50.626341518942915]},"geometry":{"type":"MultiPolygon","coordinates":[[[[3.04062656,50.62594629],[3.04051947,50.62611235],[3.04051261,50.62635915],[3.04053244,50.62645068],[3.0406807,50.62659422],[3.04188796,50.62777215],[3.04216165,50.62774424],[3.04237618,50.62782942],[3.04354678,50.6289526],[3.04368078,50.6289041],[3.04507673,50.62793616],[3.04410974,50.62734779],[3.04486131,50.6268665],[3.04580002,50.62585115],[3.04527077,50.62563866],[3.0450943,50.62550949],[3.04502053,50.62505452],[3.04482845,50.62482394],[3.04325885,50.6239145],[3.04131748,50.62546952],[3.04062656,50.62594629]]]]},"bbox":[3.04051261,50.6239145,3.04580002,50.6289526]},{"type":"Feature","id":"fr-quartier-59350-c717833f29f1","properties":{"id":"fr-quartier-59350-c717833f29f1","kind":"quartier","name":"Buisson","cityCode":"59350","cityName":"Lille","sourceType":"iris","sourceIds":["593500901"],"colorIndex":10,"center":[3.08734045732555,50.65367427899002]},"geometry":{"type":"MultiPolygon","coordinates":[[[[3.08380948,50.65209881],[3.08493131,50.65438552],[3.08545994,50.65643751],[3.08519291,50.65713945],[3.08637839,50.65692954],[3.08766996,50.65684877],[3.08882705,50.65655719],[3.09005025,50.65614261],[3.08991872,50.65522018],[3.09014921,50.6522909],[3.09006535,50.65197238],[3.08966488,50.65141359],[3.08867825,50.65063894],[3.08818944,50.65040058],[3.08777538,50.65012626],[3.08572456,50.651026],[3.08569786,50.65109332],[3.08583096,50.65133732],[3.08501553,50.65160262],[3.08380948,50.65209881]]]]},"bbox":[3.08380948,50.65012626,3.09014921,50.65713945]},{"type":"Feature","id":"fr-quartier-59350-b47911718feb","properties":{"id":"fr-quartier-59350-b47911718feb","kind":"quartier","name":"Canteleu","cityCode":"59350","cityName":"Lille","sourceType":"iris","sourceIds":["593500802"],"colorIndex":11,"center":[3.0232666007633267,50.63427731460012]},"geometry":{"type":"MultiPolygon","coordinates":[[[[3.02371477,50.63779315],[3.02374862,50.6377725],[3.02583367,50.63647082],[3.02886843,50.63543991],[3.02931305,50.6356498],[3.02937373,50.63565697],[3.02946678,50.63551964],[3.02991671,50.63515249],[3.03027765,50.63465612],[3.02847106,50.63394041],[3.02689865,50.63303705],[3.02602489,50.63241083],[3.025472,50.63286055],[3.02528421,50.63261918],[3.02508517,50.63245589],[3.02423829,50.63190235],[3.0215201,50.6305235],[3.02122934,50.63029111],[3.02174265,50.629635],[3.02223343,50.62912517],[3.02203586,50.62903816],[3.02109337,50.62906794],[3.02061817,50.62975455],[3.02026834,50.62994666],[3.0214948,50.63074966],[3.02175588,50.63087166],[3.02141448,50.63099916],[3.01924098,50.63314706],[3.01792217,50.63460827],[3.0169714,50.63549506],[3.01811451,50.63579015],[3.01952997,50.63606993],[3.02090174,50.63646188],[3.02264341,50.63719477],[3.02320518,50.63746658],[3.02371477,50.63779315]]]]},"bbox":[3.0169714,50.62903816,3.03027765,50.63779315]},{"type":"Feature","id":"fr-quartier-59350-de932f0a3bb2","properties":{"id":"fr-quartier-59350-de932f0a3bb2","kind":"quartier","name":"Catinat","cityCode":"59350","cityName":"Lille","sourceType":"iris","sourceIds":["593500303"],"colorIndex":12,"center":[3.0407850290446907,50.63250807557283]},"geometry":{"type":"MultiPolygon","coordinates":[[[[3.04014703,50.63496294],[3.04078579,50.63438838],[3.04186997,50.63327162],[3.04272015,50.63247172],[3.04395377,50.63129207],[3.04179833,50.63026346],[3.04038396,50.63128789],[3.03865237,50.63273331],[3.03748083,50.63222123],[3.03700523,50.63209394],[3.03745431,50.63260355],[3.03810384,50.63320911],[3.03954838,50.63452339],[3.04014703,50.63496294]]]]},"bbox":[3.03700523,50.63026346,3.04395377,50.63496294]},{"type":"Feature","id":"fr-quartier-59350-4301756eb2a3","properties":{"id":"fr-quartier-59350-4301756eb2a3","kind":"quartier","name":"Caulier","cityCode":"59350","cityName":"Lille","sourceType":"iris","sourceIds":["593501003"],"colorIndex":13,"center":[3.0835582977382634,50.63555240879483]},"geometry":{"type":"MultiPolygon","coordinates":[[[[3.09230723,50.63371192],[3.09150961,50.63350521],[3.09143105,50.63453282],[3.09018462,50.63428604],[3.08914994,50.63408487],[3.08868116,50.63471161],[3.08813903,50.63455135],[3.08760262,50.63444135],[3.08617579,50.63430504],[3.08537506,50.63392419],[3.08543309,50.63319813],[3.0853672,50.63262113],[3.08542741,50.63234558],[3.08506344,50.63239249],[3.08383864,50.63237358],[3.08335607,50.63237211],[3.08305983,50.63241718],[3.08178264,50.63315033],[3.08145824,50.63323849],[3.08108994,50.63322976],[3.08091627,50.63316077],[3.08020738,50.63281931],[3.08016486,50.63269998],[3.07899636,50.63348957],[3.07836049,50.63381753],[3.07750725,50.63411512],[3.07634222,50.63444789],[3.07658725,50.63597156],[3.07677874,50.63662118],[3.07714523,50.63727787],[3.07734302,50.63742133],[3.07770025,50.63755572],[3.07639007,50.63900677],[3.07739547,50.63940639],[3.07868488,50.63822458],[3.07882718,50.63808],[3.078851,50.6379696],[3.07900483,50.63797489],[3.07936773,50.63812094],[3.07956392,50.63814325],[3.07985315,50.63810268],[3.0810874,50.63777073],[3.0820114,50.63757897],[3.08331225,50.63743003],[3.08440584,50.6373907],[3.08656202,50.63734525],[3.08740846,50.63720196],[3.08907786,50.63720167],[3.08942499,50.63718976],[3.09151719,50.63689388],[3.09219162,50.63684043],[3.09230723,50.63371192]]]]},"bbox":[3.07634222,50.63234558,3.09230723,50.63940639]},{"type":"Feature","id":"fr-quartier-59350-2bd5fb5dde0b","properties":{"id":"fr-quartier-59350-2bd5fb5dde0b","kind":"quartier","name":"Centre","cityCode":"59350","cityName":"Lille","sourceType":"iris","sourceIds":["593501001"],"colorIndex":14,"center":[3.0908866310722285,50.631561504358494]},"geometry":{"type":"MultiPolygon","coordinates":[[[[3.09230723,50.63371192],[3.09309066,50.63386749],[3.09295118,50.63245953],[3.092835,50.63220026],[3.09443813,50.63156367],[3.09371991,50.6307996],[3.09296677,50.63020966],[3.09212627,50.62967542],[3.08833159,50.62931112],[3.08816306,50.63055688],[3.08783271,50.63206569],[3.08785703,50.63225593],[3.08895055,50.63224797],[3.08920891,50.63232587],[3.08967133,50.6328963],[3.08998792,50.63318504],[3.08974107,50.63323099],[3.08958345,50.63346712],[3.09056736,50.63368897],[3.09018462,50.63428604],[3.09143105,50.63453282],[3.09150961,50.63350521],[3.09230723,50.63371192]]]]},"bbox":[3.08783271,50.62931112,3.09443813,50.63453282]},{"type":"Feature","id":"fr-quartier-59350-52018ef6a64f","properties":{"id":"fr-quartier-59350-52018ef6a64f","kind":"quartier","name":"C.H.R.","cityCode":"59350","cityName":"Lille","sourceType":"iris","sourceIds":["593500701"],"colorIndex":15,"center":[3.0340660338271124,50.610001262825314]},"geometry":{"type":"MultiPolygon","coordinates":[[[[3.04306928,50.60685491],[3.04159221,50.60456868],[3.04110137,50.60447102],[3.03947387,50.60436385],[3.03939225,50.60458914],[3.03719249,50.60487162],[3.03543287,50.60540344],[3.03401459,50.60605988],[3.02914087,50.6088603],[3.02836693,50.60947614],[3.02621257,50.61080395],[3.02548213,50.61112181],[3.02381521,50.61154484],[3.02370148,50.61263886],[3.02450722,50.61338449],[3.02496566,50.61343465],[3.02529296,50.61357549],[3.02798857,50.61386479],[3.02792372,50.61391596],[3.03568063,50.61470014],[3.036302,50.6137693],[3.03690997,50.61383553],[3.03869037,50.6142873],[3.03859241,50.61345809],[3.0389385,50.61230744],[3.03916337,50.61127799],[3.03907369,50.6102253],[3.03867029,50.61019312],[3.03895062,50.60974789],[3.03920705,50.60941575],[3.04105067,50.60800525],[3.04161313,50.60768825],[3.04321196,50.60713038],[3.04306928,50.60685491]]]]},"bbox":[3.02370148,50.60436385,3.04321196,50.61470014]},{"type":"Feature","id":"fr-quartier-59350-d30133a46105","properties":{"id":"fr-quartier-59350-d30133a46105","kind":"quartier","name":"Citadelle","cityCode":"59350","cityName":"Lille","sourceType":"iris","sourceIds":["593500310"],"colorIndex":16,"center":[3.044803741761024,50.64123714623495]},"geometry":{"type":"MultiPolygon","coordinates":[[[[3.03676818,50.63980199],[3.03688096,50.64156448],[3.03732232,50.64296611],[3.03793829,50.6438068],[3.0385527,50.64442673],[3.0407851,50.64570841],[3.04589793,50.64807759],[3.04723018,50.64789401],[3.04728927,50.64769656],[3.04727893,50.64720299],[3.04746344,50.64678922],[3.04762131,50.64657288],[3.04987347,50.64468384],[3.05131471,50.64353187],[3.05214944,50.64278039],[3.05242999,50.639782],[3.05217313,50.63976775],[3.05210929,50.6394474],[3.05198631,50.63925271],[3.05141569,50.63877552],[3.05094551,50.63852892],[3.05105689,50.63842298],[3.05101306,50.63833954],[3.05076038,50.63826157],[3.05119586,50.63770409],[3.0516908,50.63733415],[3.05038847,50.63609355],[3.05016551,50.63609633],[3.04842259,50.63590408],[3.04643691,50.63565535],[3.04515481,50.63631902],[3.04476688,50.63646723],[3.04418546,50.63643603],[3.04193999,50.63600784],[3.0398033,50.63569983],[3.03923887,50.63571976],[3.03860831,50.635982],[3.03825986,50.63611224],[3.04029333,50.637919],[3.03958941,50.63824679],[3.03918882,50.63848024],[3.03850217,50.63927198],[3.03832164,50.63940845],[3.03815235,50.63948478],[3.03798443,50.63950188],[3.03729293,50.63950389],[3.03708979,50.63960446],[3.03702499,50.63975973],[3.03676818,50.63980199]]]]},"bbox":[3.03676818,50.63565535,3.05242999,50.64807759]},{"type":"Feature","id":"fr-quartier-59350-af3180a59863","properties":{"id":"fr-quartier-59350-af3180a59863","kind":"quartier","name":"Colson","cityCode":"59350","cityName":"Lille","sourceType":"iris","sourceIds":["593500305"],"colorIndex":17,"center":[3.0469490319722263,50.63242190179478]},"geometry":{"type":"MultiPolygon","coordinates":[[[[3.04871892,50.63445103],[3.05216147,50.63261708],[3.04755966,50.63065895],[3.04354678,50.6289526],[3.04323795,50.62914117],[3.04469248,50.63056847],[3.04395377,50.63129207],[3.04272015,50.63247172],[3.0445285,50.63339992],[3.04676836,50.63548472],[3.04871892,50.63445103]]]]},"bbox":[3.04272015,50.6289526,3.05216147,50.63548472]},{"type":"Feature","id":"fr-quartier-59350-23b585ae9f32","properties":{"id":"fr-quartier-59350-23b585ae9f32","kind":"quartier","name":"Concorde","cityCode":"59350","cityName":"Lille","sourceType":"iris","sourceIds":["iris-group:593500602+593500604"],"colorIndex":18,"center":[3.0401347135934826,50.61759064561394]},"geometry":{"type":"Polygon","coordinates":[[[3.03286063,50.61845943],[3.03568063,50.61470014],[3.04004656,50.61514484],[3.04171117,50.61536327],[3.04589564,50.61623142],[3.04685215,50.61638722],[3.04826006,50.6165563],[3.04821375,50.61680311],[3.04824776,50.61697182],[3.04834384,50.61713781],[3.04852315,50.61729928],[3.04971583,50.61803651],[3.04947763,50.61822956],[3.04948345,50.61841533],[3.04344521,50.61917593],[3.04347761,50.61913105],[3.04343665,50.61906555],[3.04327159,50.61904856],[3.04319829,50.61911858],[3.04325761,50.61919574],[3.04117288,50.61946389],[3.04107277,50.61951059],[3.04096836,50.61949447],[3.03815871,50.61999435],[3.03714602,50.62022978],[3.03519119,50.62076523],[3.03503323,50.62081015],[3.03358752,50.61907937],[3.033236,50.61867113],[3.03286063,50.61845943]]]},"bbox":[3.03286063,50.61470014,3.04971583,50.62081015]},{"type":"Feature","id":"fr-quartier-59350-593ff2b475f3","properties":{"id":"fr-quartier-59350-593ff2b475f3","kind":"quartier","name":"Convention","cityCode":"59350","cityName":"Lille","sourceType":"iris","sourceIds":["593501006"],"colorIndex":19,"center":[3.093716767243595,50.63760159460064]},"geometry":{"type":"MultiPolygon","coordinates":[[[[3.09318793,50.64218113],[3.09357091,50.6409433],[3.0941951,50.64116629],[3.09561373,50.64132674],[3.09586974,50.64088681],[3.09675749,50.64018434],[3.0963421,50.63993518],[3.0951911,50.63948825],[3.09533331,50.63931853],[3.09453238,50.63890992],[3.09535609,50.63793918],[3.09595901,50.6381182],[3.09627144,50.63693695],[3.09736814,50.63706084],[3.09753733,50.63553149],[3.09662137,50.63545593],[3.09666377,50.63475321],[3.09677276,50.63419493],[3.09309066,50.63386749],[3.09230723,50.63371192],[3.09219162,50.63684043],[3.09151719,50.63689388],[3.08942499,50.63718976],[3.08907786,50.63720167],[3.09090255,50.63957493],[3.09231661,50.64111745],[3.09318793,50.64218113]]]]},"bbox":[3.08907786,50.63371192,3.09753733,50.64218113]},{"type":"Feature","id":"fr-quartier-59350-0e808843bc94","properties":{"id":"fr-quartier-59350-0e808843bc94","kind":"quartier","name":"Cordonnier","cityCode":"59350","cityName":"Lille","sourceType":"iris","sourceIds":["593500304"],"colorIndex":20,"center":[3.043187415792456,50.63480157254978]},"geometry":{"type":"MultiPolygon","coordinates":[[[[3.04014703,50.63496294],[3.03860831,50.635982],[3.03923887,50.63571976],[3.0398033,50.63569983],[3.04193999,50.63600784],[3.04418546,50.63643603],[3.04476688,50.63646723],[3.04515481,50.63631902],[3.04643691,50.63565535],[3.04676836,50.63548472],[3.0445285,50.63339992],[3.04272015,50.63247172],[3.04186997,50.63327162],[3.04078579,50.63438838],[3.04014703,50.63496294]]]]},"bbox":[3.03860831,50.63247172,3.04676836,50.63646723]},{"type":"Feature","id":"fr-quartier-59350-b41c42df40c9","properties":{"id":"fr-quartier-59350-b41c42df40c9","kind":"quartier","name":"Croisette A","cityCode":"59350","cityName":"Lille","sourceType":"iris","sourceIds":["593500704"],"colorIndex":21,"center":[3.053079953667808,50.603542884783536]},"geometry":{"type":"MultiPolygon","coordinates":[[[[3.05680673,50.60406725],[3.05441735,50.60104385],[3.05170164,50.60125322],[3.05155863,50.60206459],[3.05085776,50.60343711],[3.0499621,50.60468406],[3.04899859,50.60579999],[3.05303438,50.60540524],[3.05372247,50.60529904],[3.0542737,50.60513008],[3.05680673,50.60406725]]]]},"bbox":[3.04899859,50.60104385,3.05680673,50.60579999]},{"type":"Feature","id":"fr-quartier-59350-4422afd75fd3","properties":{"id":"fr-quartier-59350-4422afd75fd3","kind":"quartier","name":"Croisette B","cityCode":"59350","cityName":"Lille","sourceType":"iris","sourceIds":["593500705"],"colorIndex":22,"center":[3.048181510134672,50.60396286044737]},"geometry":{"type":"MultiPolygon","coordinates":[[[[3.05170164,50.60125322],[3.05174512,50.60102525],[3.04919123,50.60089974],[3.0483548,50.60213589],[3.04764758,50.60286849],[3.04306928,50.60685491],[3.04321196,50.60713038],[3.04439627,50.60672701],[3.04528313,50.60649155],[3.04681722,50.60614905],[3.04899859,50.60579999],[3.0499621,50.60468406],[3.05085776,50.60343711],[3.05155863,50.60206459],[3.05170164,50.60125322]]]]},"bbox":[3.04306928,50.60089974,3.05174512,50.60713038]},{"type":"Feature","id":"fr-quartier-59350-55ac8e7a874c","properties":{"id":"fr-quartier-59350-55ac8e7a874c","kind":"quartier","name":"Entrée Lille Fives","cityCode":"59350","cityName":"Lille","sourceType":"iris","sourceIds":["593501002"],"colorIndex":23,"center":[3.0867227324636133,50.63184319517608]},"geometry":{"type":"MultiPolygon","coordinates":[[[[3.08833159,50.62931112],[3.08834126,50.62919355],[3.0855305,50.62908603],[3.08534841,50.6290377],[3.0846041,50.62943039],[3.08429977,50.62968995],[3.0841717,50.6298794],[3.08373826,50.63140712],[3.08372191,50.63175713],[3.08383864,50.63237358],[3.08506344,50.63239249],[3.08542741,50.63234558],[3.0853672,50.63262113],[3.08543309,50.63319813],[3.08537506,50.63392419],[3.08617579,50.63430504],[3.08760262,50.63444135],[3.08813903,50.63455135],[3.08868116,50.63471161],[3.08914994,50.63408487],[3.09018462,50.63428604],[3.09056736,50.63368897],[3.08958345,50.63346712],[3.08974107,50.63323099],[3.08998792,50.63318504],[3.08967133,50.6328963],[3.08920891,50.63232587],[3.08895055,50.63224797],[3.08785703,50.63225593],[3.08783271,50.63206569],[3.08816306,50.63055688],[3.08833159,50.62931112]]]]},"bbox":[3.08372191,50.6290377,3.09056736,50.63471161]},{"type":"Feature","id":"fr-quartier-59350-36392a92ae6c","properties":{"id":"fr-quartier-59350-36392a92ae6c","kind":"quartier","name":"Fac de Droit","cityCode":"59350","cityName":"Lille","sourceType":"iris","sourceIds":["593500504"],"colorIndex":24,"center":[3.071344765582643,50.61616184276541]},"geometry":{"type":"MultiPolygon","coordinates":[[[[3.08251772,50.61592888],[3.08188388,50.61562506],[3.08184165,50.61567894],[3.07918025,50.61408679],[3.07856723,50.61353525],[3.0788688,50.61336005],[3.07750898,50.61237371],[3.0766997,50.61166253],[3.07360942,50.61262288],[3.07211635,50.61304915],[3.06690358,50.6143803],[3.06266201,50.61539215],[3.06266087,50.61560844],[3.06230762,50.61625388],[3.0628464,50.61621053],[3.06351528,50.61753752],[3.06393821,50.61844821],[3.0647493,50.61952293],[3.0670727,50.6195576],[3.06762445,50.61969191],[3.0678911,50.619716],[3.06785026,50.61977166],[3.06861374,50.61999561],[3.06870386,50.6198753],[3.07260737,50.62097693],[3.07353033,50.618337],[3.0736037,50.61834503],[3.07431426,50.61617099],[3.07493773,50.61616882],[3.08021629,50.61630732],[3.0813996,50.61620873],[3.08206938,50.61606649],[3.08251772,50.61592888]]]]},"bbox":[3.06230762,50.61166253,3.08251772,50.62097693]},{"type":"Feature","id":"fr-quartier-59350-8c8d7776b5de","properties":{"id":"fr-quartier-59350-8c8d7776b5de","kind":"quartier","name":"Faubourg de Douai","cityCode":"59350","cityName":"Lille","sourceType":"iris","sourceIds":["593500710"],"colorIndex":25,"center":[3.0690676388679394,50.61143486688982]},"geometry":{"type":"MultiPolygon","coordinates":[[[[3.0766997,50.61166253],[3.07527897,50.61044286],[3.07535855,50.60990433],[3.07495373,50.60988035],[3.07367749,50.60902493],[3.07291748,50.60817459],[3.07129508,50.60682755],[3.07102174,50.6070072],[3.06962265,50.60797994],[3.06803212,50.60926688],[3.067319,50.60965767],[3.06477598,50.61067674],[3.06198852,50.6125682],[3.06258515,50.61370947],[3.06266201,50.61539215],[3.06690358,50.6143803],[3.07211635,50.61304915],[3.07360942,50.61262288],[3.0766997,50.61166253]]]]},"bbox":[3.06198852,50.60682755,3.0766997,50.61539215]},{"type":"Feature","id":"fr-quartier-59350-6fd2cfcb34a1","properties":{"id":"fr-quartier-59350-6fd2cfcb34a1","kind":"quartier","name":"Faubourg des Postes A","cityCode":"59350","cityName":"Lille","sourceType":"iris","sourceIds":["593500702"],"colorIndex":26,"center":[3.044650827565512,50.61246337548795]},"geometry":{"type":"MultiPolygon","coordinates":[[[[3.04638814,50.61188039],[3.0460931,50.61160318],[3.04430642,50.60879299],[3.04371136,50.60892603],[3.04363816,50.6090858],[3.0438198,50.61035385],[3.04387769,50.6104337],[3.04376678,50.61102337],[3.04250454,50.61111625],[3.04216894,50.61122047],[3.04194341,50.6113776],[3.04175321,50.61162805],[3.04173505,50.61185063],[3.04179301,50.61200946],[3.04204852,50.61225976],[3.04157901,50.61246813],[3.04136055,50.61267282],[3.04127752,50.6129026],[3.04131864,50.61315477],[3.04159251,50.61344635],[3.04194384,50.61358175],[3.04260825,50.61366229],[3.04338969,50.61369612],[3.04583742,50.61426333],[3.04533461,50.61508917],[3.04826406,50.61484755],[3.04755071,50.61375204],[3.04638814,50.61188039]]]]},"bbox":[3.04127752,50.60879299,3.04826406,50.61508917]},{"type":"Feature","id":"fr-quartier-59350-a078da4edb84","properties":{"id":"fr-quartier-59350-a078da4edb84","kind":"quartier","name":"Faubourg des Postes B","cityCode":"59350","cityName":"Lille","sourceType":"iris","sourceIds":["593500703"],"colorIndex":27,"center":[3.0418056785416665,50.61223608666667]},"geometry":{"type":"MultiPolygon","coordinates":[[[[3.04430642,50.60879299],[3.04321196,50.60713038],[3.04161313,50.60768825],[3.04105067,50.60800525],[3.03920705,50.60941575],[3.03895062,50.60974789],[3.03867029,50.61019312],[3.03907369,50.6102253],[3.03916337,50.61127799],[3.0389385,50.61230744],[3.03859241,50.61345809],[3.03869037,50.6142873],[3.03690997,50.61383553],[3.036302,50.6137693],[3.03568063,50.61470014],[3.04004656,50.61514484],[3.04171117,50.61536327],[3.04589564,50.61623142],[3.04685215,50.61638722],[3.04826006,50.6165563],[3.04846334,50.6152594],[3.04826406,50.61484755],[3.04533461,50.61508917],[3.04583742,50.61426333],[3.04338969,50.61369612],[3.04260825,50.61366229],[3.04194384,50.61358175],[3.04159251,50.61344635],[3.04131864,50.61315477],[3.04127752,50.6129026],[3.04136055,50.61267282],[3.04157901,50.61246813],[3.04204852,50.61225976],[3.04179301,50.61200946],[3.04173505,50.61185063],[3.04175321,50.61162805],[3.04194341,50.6113776],[3.04216894,50.61122047],[3.04250454,50.61111625],[3.04376678,50.61102337],[3.04387769,50.6104337],[3.0438198,50.61035385],[3.04363816,50.6090858],[3.04371136,50.60892603],[3.04430642,50.60879299]]]]},"bbox":[3.03568063,50.60713038,3.04846334,50.6165563]},{"type":"Feature","id":"fr-quartier-59350-361d03aeffb5","properties":{"id":"fr-quartier-59350-361d03aeffb5","kind":"quartier","name":"Flandre","cityCode":"59350","cityName":"Lille","sourceType":"iris","sourceIds":["593500404"],"colorIndex":28,"center":[3.0547812569173347,50.62782189460848]},"geometry":{"type":"MultiPolygon","coordinates":[[[[3.05663318,50.63026027],[3.05896829,50.62903598],[3.05822545,50.62843774],[3.05624038,50.62598776],[3.05590274,50.62558317],[3.05565346,50.62597905],[3.0516861,50.62591346],[3.05113403,50.62687036],[3.05053388,50.62774381],[3.05282198,50.6287408],[3.05663318,50.63026027]]]]},"bbox":[3.05053388,50.62558317,3.05896829,50.63026027]},{"type":"Feature","id":"fr-quartier-59350-bc86b4718d63","properties":{"id":"fr-quartier-59350-bc86b4718d63","kind":"quartier","name":"Franklin","cityCode":"59350","cityName":"Lille","sourceType":"iris","sourceIds":["593500406"],"colorIndex":29,"center":[3.0518425123335158,50.630300936153766]},"geometry":{"type":"MultiPolygon","coordinates":[[[[3.05216147,50.63261708],[3.0547788,50.63120789],[3.05663318,50.63026027],[3.05282198,50.6287408],[3.05053388,50.62774381],[3.05013816,50.62848884],[3.04996902,50.62865583],[3.04879177,50.62955104],[3.04755966,50.63065895],[3.05216147,50.63261708]]]]},"bbox":[3.04755966,50.62774381,3.05663318,50.63261708]},{"type":"Feature","id":"fr-quartier-59350-2ef9c359bd3d","properties":{"id":"fr-quartier-59350-2ef9c359bd3d","kind":"quartier","name":"Giraudoux","cityCode":"59350","cityName":"Lille","sourceType":"iris","sourceIds":["593500706"],"colorIndex":30,"center":[3.0460823078127968,50.6082436489158]},"geometry":{"type":"MultiPolygon","coordinates":[[[[3.04430642,50.60879299],[3.0460931,50.61160318],[3.04638814,50.61188039],[3.04656846,50.61164877],[3.04734468,50.60915714],[3.0480411,50.60737272],[3.04852257,50.60648315],[3.04899859,50.60579999],[3.04681722,50.60614905],[3.04528313,50.60649155],[3.04439627,50.60672701],[3.04321196,50.60713038],[3.04430642,50.60879299]]]]},"bbox":[3.04321196,50.60579999,3.04899859,50.61188039]},{"type":"Feature","id":"fr-quartier-59350-2cb82cbf6820","properties":{"id":"fr-quartier-59350-2cb82cbf6820","kind":"quartier","name":"Grande Brasserie","cityCode":"59350","cityName":"Lille","sourceType":"iris","sourceIds":["593500308"],"colorIndex":31,"center":[3.0360358512587657,50.62675210854809]},"geometry":{"type":"MultiPolygon","coordinates":[[[[3.03495526,50.62431468],[3.03206624,50.62698713],[3.03183496,50.62714245],[3.03310985,50.62846942],[3.03421106,50.62949489],[3.0339727,50.62962687],[3.03458417,50.63040029],[3.0348411,50.63059227],[3.03524338,50.63080305],[3.03546622,50.63067466],[3.0351161,50.63038219],[3.03976787,50.62659272],[3.0406807,50.62659422],[3.04053244,50.62645068],[3.04051261,50.62635915],[3.04051947,50.62611235],[3.04062656,50.62594629],[3.04068147,50.62580448],[3.03989423,50.62581999],[3.03733877,50.62333667],[3.03495526,50.62431468]]]]},"bbox":[3.03183496,50.62333667,3.04068147,50.63080305]},{"type":"Feature","id":"fr-quartier-59350-050d859cf653","properties":{"id":"fr-quartier-59350-050d859cf653","kind":"quartier","name":"Justice","cityCode":"59350","cityName":"Lille","sourceType":"iris","sourceIds":["593500408"],"colorIndex":32,"center":[3.0555259600291227,50.621349355766064]},"geometry":{"type":"MultiPolygon","coordinates":[[[[3.06126619,50.62283627],[3.06122019,50.62213898],[3.06126386,50.62208691],[3.05117649,50.61869734],[3.05055413,50.61843105],[3.05047806,50.61853429],[3.0502835,50.61863847],[3.0518951,50.62064091],[3.05376532,50.62294115],[3.05399105,50.62294375],[3.05411111,50.62307831],[3.06126619,50.62283627]]]]},"bbox":[3.0502835,50.61843105,3.06126619,50.62307831]},{"type":"Feature","id":"fr-quartier-59350-3d250d548547","properties":{"id":"fr-quartier-59350-3d250d548547","kind":"quartier","name":"La MEL","cityCode":"59350","cityName":"Lille","sourceType":"iris","sourceIds":["593500904"],"colorIndex":33,"center":[3.076214832061397,50.64248808941233]},"geometry":{"type":"MultiPolygon","coordinates":[[[[3.07487571,50.64175199],[3.07526542,50.64188547],[3.0756045,50.64306537],[3.07544083,50.64403557],[3.07580006,50.64453432],[3.07752504,50.64380904],[3.07649298,50.64078539],[3.07642367,50.64068582],[3.07626692,50.64061591],[3.07668131,50.64027733],[3.07693489,50.63998462],[3.0766596,50.63992287],[3.07605492,50.64041413],[3.07502063,50.64146025],[3.07487571,50.64175199]]]]},"bbox":[3.07487571,50.63992287,3.07752504,50.64453432]},{"type":"Feature","id":"fr-quartier-59350-5503cdcba71b","properties":{"id":"fr-quartier-59350-5503cdcba71b","kind":"quartier","name":"Lannoy","cityCode":"59350","cityName":"Lille","sourceType":"iris","sourceIds":["593501005"],"colorIndex":34,"center":[3.0975477583652085,50.63424025199262]},"geometry":{"type":"MultiPolygon","coordinates":[[[[3.09736814,50.63706084],[3.09794825,50.63712589],[3.09769487,50.63817518],[3.0985321,50.63837733],[3.09919867,50.6357662],[3.10097613,50.63549464],[3.10108972,50.63443828],[3.1023921,50.63441747],[3.10274748,50.63431307],[3.10291812,50.63426537],[3.10320718,50.63416103],[3.10277091,50.63403754],[3.09638544,50.63236986],[3.09631628,50.63235914],[3.09560005,50.63266034],[3.09530524,50.63196685],[3.09443813,50.63156367],[3.092835,50.63220026],[3.09295118,50.63245953],[3.09309066,50.63386749],[3.09677276,50.63419493],[3.09666377,50.63475321],[3.09662137,50.63545593],[3.09753733,50.63553149],[3.09736814,50.63706084]]]]},"bbox":[3.092835,50.63156367,3.10320718,50.63837733]},{"type":"Feature","id":"fr-quartier-59350-10b12d459457","properties":{"id":"fr-quartier-59350-10b12d459457","kind":"quartier","name":"Lestiboudois","cityCode":"59350","cityName":"Lille","sourceType":"iris","sourceIds":["593500309"],"colorIndex":35,"center":[3.039687283042217,50.62968673639091]},"geometry":{"type":"MultiPolygon","coordinates":[[[[3.03524338,50.63080305],[3.03599996,50.63121745],[3.03700523,50.63209394],[3.03748083,50.63222123],[3.03865237,50.63273331],[3.04038396,50.63128789],[3.04179833,50.63026346],[3.04395377,50.63129207],[3.04469248,50.63056847],[3.04323795,50.62914117],[3.04354678,50.6289526],[3.04237618,50.62782942],[3.04216165,50.62774424],[3.04188796,50.62777215],[3.0406807,50.62659422],[3.03976787,50.62659272],[3.0351161,50.63038219],[3.03546622,50.63067466],[3.03524338,50.63080305]]]]},"bbox":[3.0351161,50.62659272,3.04469248,50.63273331]},{"type":"Feature","id":"fr-quartier-59350-6a3d00dc54ea","properties":{"id":"fr-quartier-59350-6a3d00dc54ea","kind":"quartier","name":"Lille-Acier","cityCode":"59350","cityName":"Lille","sourceType":"iris","sourceIds":["593500307"],"colorIndex":36,"center":[3.032249474344817,50.62385722275883]},"geometry":{"type":"MultiPolygon","coordinates":[[[[3.03183496,50.62714245],[3.03206624,50.62698713],[3.03495526,50.62431468],[3.03485713,50.62115033],[3.03468924,50.62112614],[3.0344987,50.62099607],[3.03419544,50.62105718],[3.03169898,50.62182605],[3.03050724,50.62235315],[3.02997134,50.62265302],[3.02959348,50.62303273],[3.02924672,50.62351564],[3.02903402,50.62408108],[3.02903703,50.62440595],[3.02918959,50.62474694],[3.0292955,50.62492281],[3.02947618,50.62507982],[3.03021565,50.62541439],[3.03045567,50.62571946],[3.03183496,50.62714245]]]]},"bbox":[3.02903402,50.62099607,3.03495526,50.62714245]},{"type":"Feature","id":"fr-quartier-59350-29f3d1224352","properties":{"id":"fr-quartier-59350-29f3d1224352","kind":"quartier","name":"Lille-Centre","cityCode":"59350","cityName":"Lille","sourceType":"iris","sourceIds":["iris-group:593500101+593500104+593500105+593500106+593500107+593500108+593500109+593500110+593500111+593500112+593500113+593500114+593500115+593500116+593500117+593500118+593500119"],"colorIndex":37,"center":[3.067831529678957,50.631905817701444]},"geometry":{"type":"Polygon","coordinates":[[[3.04871892,50.63445103],[3.05216147,50.63261708],[3.0547788,50.63120789],[3.05663318,50.63026027],[3.05896829,50.62903598],[3.05822545,50.62843774],[3.05624038,50.62598776],[3.06129411,50.62606704],[3.06126619,50.62283627],[3.06122019,50.62213898],[3.06126386,50.62208691],[3.06421357,50.62308337],[3.06776606,50.62427508],[3.06787054,50.62433964],[3.06836164,50.62444616],[3.0697695,50.62436192],[3.07115904,50.62428933],[3.07759593,50.6239247],[3.07800222,50.62391637],[3.07814903,50.62397013],[3.07834793,50.62395833],[3.07843393,50.62392238],[3.08056561,50.62391025],[3.0805618,50.62417769],[3.0803668,50.62486077],[3.07969741,50.6262253],[3.08202893,50.62671019],[3.08200924,50.6267488],[3.0823988,50.62684636],[3.08255414,50.6269369],[3.08270114,50.62710193],[3.08295876,50.62760791],[3.08298747,50.62790853],[3.08309494,50.62805384],[3.08297715,50.62849456],[3.08292281,50.62975998],[3.08277107,50.63015047],[3.08221765,50.63081583],[3.08146399,50.63156299],[3.08016486,50.63269998],[3.07899636,50.63348957],[3.07836049,50.63381753],[3.07750725,50.63411512],[3.07634222,50.63444789],[3.07658725,50.63597156],[3.07677874,50.63662118],[3.07714523,50.63727787],[3.07734302,50.63742133],[3.07770025,50.63755572],[3.07639007,50.63900677],[3.07739547,50.63940639],[3.07693489,50.63998462],[3.0766596,50.63992287],[3.07605492,50.64041413],[3.07502063,50.64146025],[3.07487571,50.64175199],[3.07471332,50.64169555],[3.07393273,50.64255036],[3.07253236,50.64328527],[3.07213891,50.6434955],[3.07205269,50.6434076],[3.07204824,50.64325594],[3.07184196,50.6431017],[3.07116892,50.64221993],[3.07070819,50.64176072],[3.07038188,50.64154552],[3.06992714,50.64132143],[3.0693511,50.64114496],[3.06850413,50.64099287],[3.06940297,50.63987329],[3.06799268,50.63952677],[3.06598665,50.63901094],[3.06582989,50.63892217],[3.06549644,50.63860825],[3.06480795,50.63764837],[3.06465687,50.63758563],[3.06451434,50.63757943],[3.06468352,50.63745639],[3.06363588,50.63701809],[3.06339061,50.6372345],[3.06326789,50.63727494],[3.06312394,50.63726784],[3.0628811,50.63717104],[3.06262174,50.63740719],[3.06217902,50.63771344],[3.06062887,50.63831727],[3.05952996,50.63866241],[3.0585859,50.63747378],[3.05662438,50.63622458],[3.05535813,50.63708398],[3.05456764,50.63685549],[3.05195921,50.63761403],[3.0516908,50.63733415],[3.05038847,50.63609355],[3.04871892,50.63445103]]]},"bbox":[3.04871892,50.62208691,3.08309494,50.6434955]},{"type":"Feature","id":"fr-quartier-59350-8410f4c5eb86","properties":{"id":"fr-quartier-59350-8410f4c5eb86","kind":"quartier","name":"Lopofa-Tudor","cityCode":"59350","cityName":"Lille","sourceType":"iris","sourceIds":["593500709"],"colorIndex":38,"center":[3.0568053788459495,50.60985835540065]},"geometry":{"type":"MultiPolygon","coordinates":[[[[3.06072046,50.61019237],[3.05901296,50.607009],[3.05873877,50.60650924],[3.0538093,50.60736856],[3.05433917,50.60959582],[3.05442444,50.61018811],[3.05422279,50.61022768],[3.05411708,50.61028786],[3.05230034,50.61151277],[3.05235967,50.6115998],[3.052903,50.61189483],[3.05314166,50.61217115],[3.05327856,50.61225545],[3.05462361,50.61176754],[3.05548058,50.61252103],[3.0563492,50.61357694],[3.05791565,50.613053],[3.05769885,50.61218437],[3.06001549,50.61156582],[3.06004787,50.61151375],[3.05993334,50.61127957],[3.05986932,50.6108192],[3.05970239,50.61039299],[3.06072046,50.61019237]]]]},"bbox":[3.05230034,50.60650924,3.06072046,50.61357694]},{"type":"Feature","id":"fr-quartier-59350-6266c1a4c133","properties":{"id":"fr-quartier-59350-6266c1a4c133","kind":"quartier","name":"Magenta-Fombello","cityCode":"59350","cityName":"Lille","sourceType":"iris","sourceIds":["593500403"],"colorIndex":39,"center":[3.0481385501307634,50.6204111593493]},"geometry":{"type":"MultiPolygon","coordinates":[[[[3.05055413,50.61843105],[3.05056527,50.61827848],[3.05045507,50.61810801],[3.05030545,50.61802281],[3.05000918,50.61798075],[3.04971583,50.61803651],[3.04947763,50.61822956],[3.04948345,50.61841533],[3.04344521,50.61917593],[3.04336906,50.61920827],[3.04338748,50.61930518],[3.04289572,50.6199587],[3.0467944,50.62102345],[3.04577805,50.62185935],[3.04728941,50.62236763],[3.05000424,50.62293196],[3.05032963,50.62244182],[3.05085879,50.62257174],[3.05170903,50.62077829],[3.0518951,50.62064091],[3.0502835,50.61863847],[3.05047806,50.61853429],[3.05055413,50.61843105]]]]},"bbox":[3.04289572,50.61798075,3.0518951,50.62293196]},{"type":"Feature","id":"fr-quartier-59350-9be786b2bb18","properties":{"id":"fr-quartier-59350-9be786b2bb18","kind":"quartier","name":"Mairie","cityCode":"59350","cityName":"Lille","sourceType":"iris","sourceIds":["593500409"],"colorIndex":40,"center":[3.0581826943338464,50.62439451266156]},"geometry":{"type":"MultiPolygon","coordinates":[[[[3.05624038,50.62598776],[3.06129411,50.62606704],[3.06126619,50.62283627],[3.05411111,50.62307831],[3.05398145,50.62320581],[3.05590274,50.62558317],[3.05624038,50.62598776]]]]},"bbox":[3.05398145,50.62283627,3.06129411,50.62606704]},{"type":"Feature","id":"fr-quartier-59350-e3dde4261a53","properties":{"id":"fr-quartier-59350-e3dde4261a53","kind":"quartier","name":"Marbrerie","cityCode":"59350","cityName":"Lille","sourceType":"iris","sourceIds":["593501004"],"colorIndex":41,"center":[3.0998169585042894,50.63168469510352]},"geometry":{"type":"MultiPolygon","coordinates":[[[[3.09443813,50.63156367],[3.09530524,50.63196685],[3.09560005,50.63266034],[3.09631628,50.63235914],[3.09638544,50.63236986],[3.10277091,50.63403754],[3.10396664,50.63157939],[3.10381406,50.63148618],[3.1006736,50.62958711],[3.10045895,50.62949126],[3.09957155,50.62953505],[3.09889617,50.62976982],[3.09681235,50.63058095],[3.09443813,50.63156367]]]]},"bbox":[3.09443813,50.62949126,3.10396664,50.63403754]},{"type":"Feature","id":"fr-quartier-59350-3dd7fa84e743","properties":{"id":"fr-quartier-59350-3dd7fa84e743","kind":"quartier","name":"Marx Dormoy","cityCode":"59350","cityName":"Lille","sourceType":"iris","sourceIds":["593500801"],"colorIndex":42,"center":[3.031019425833333,50.629910036875]},"geometry":{"type":"MultiPolygon","coordinates":[[[[3.02122009,50.62175649],[3.02118767,50.62183098],[3.02070017,50.62328941],[3.01970904,50.62491752],[3.01865253,50.62542654],[3.01842252,50.62531349],[3.01803596,50.6253315],[3.01835344,50.6254535],[3.01874425,50.62547229],[3.01913931,50.62555928],[3.01959368,50.62575395],[3.02057837,50.62558777],[3.02086054,50.62558593],[3.02298117,50.62593286],[3.02445285,50.62628348],[3.0256424,50.62668978],[3.02683342,50.62714991],[3.02705916,50.62716601],[3.0272596,50.62734456],[3.02887986,50.6283224],[3.02959268,50.6288562],[3.03207727,50.63099506],[3.03261643,50.63124351],[3.03294113,50.63151355],[3.03247991,50.6317847],[3.0321796,50.63214913],[3.03027765,50.63465612],[3.02991671,50.63515249],[3.02946678,50.63551964],[3.02937373,50.63565697],[3.02931305,50.6356498],[3.0319738,50.63690734],[3.03358903,50.63821804],[3.0339433,50.63830859],[3.03539842,50.63857471],[3.03682682,50.63895032],[3.03676818,50.63980199],[3.03702499,50.63975973],[3.03708979,50.63960446],[3.03729293,50.63950389],[3.03798443,50.63950188],[3.03815235,50.63948478],[3.03832164,50.63940845],[3.03850217,50.63927198],[3.03918882,50.63848024],[3.03958941,50.63824679],[3.04029333,50.637919],[3.03825986,50.63611224],[3.03860831,50.635982],[3.04014703,50.63496294],[3.03954838,50.63452339],[3.03810384,50.63320911],[3.03745431,50.63260355],[3.03700523,50.63209394],[3.03599996,50.63121745],[3.03524338,50.63080305],[3.0348411,50.63059227],[3.03458417,50.63040029],[3.0339727,50.62962687],[3.03421106,50.62949489],[3.03310985,50.62846942],[3.03183496,50.62714245],[3.03045567,50.62571946],[3.03021565,50.62541439],[3.02947618,50.62507982],[3.0292955,50.62492281],[3.02918959,50.62474694],[3.02903703,50.62440595],[3.02903402,50.62408108],[3.02924672,50.62351564],[3.02959348,50.62303273],[3.02899093,50.62275467],[3.02891892,50.62265148],[3.02874951,50.62244241],[3.0284161,50.6215971],[3.02816197,50.62124087],[3.02758904,50.62091703],[3.02708819,50.62080944],[3.0266015,50.62081224],[3.0260006,50.62093262],[3.02406124,50.62165994],[3.02345048,50.62182699],[3.02297226,50.62188002],[3.02251096,50.62187742],[3.0215728,50.62181566],[3.02122009,50.62175649]]]]},"bbox":[3.01803596,50.62080944,3.04029333,50.63980199]},{"type":"Feature","id":"fr-quartier-59350-78f080a1ebde","properties":{"id":"fr-quartier-59350-78f080a1ebde","kind":"quartier","name":"Mont de Terre","cityCode":"59350","cityName":"Lille","sourceType":"iris","sourceIds":["593501007"],"colorIndex":43,"center":[3.0931972252438658,50.627063630109106]},"geometry":{"type":"MultiPolygon","coordinates":[[[[3.08834126,50.62919355],[3.08833159,50.62931112],[3.09212627,50.62967542],[3.09296677,50.63020966],[3.09371991,50.6307996],[3.09443813,50.63156367],[3.09681235,50.63058095],[3.09889617,50.62976982],[3.0981156,50.62888378],[3.09715844,50.62787133],[3.09637759,50.62828117],[3.09524349,50.62767717],[3.09530821,50.62758199],[3.09605083,50.62710039],[3.09639596,50.62682102],[3.09721251,50.62591577],[3.0982625,50.62464327],[3.09556399,50.62408897],[3.09399861,50.62365221],[3.09372046,50.62353127],[3.09069966,50.62256697],[3.0907494,50.62276706],[3.09072006,50.62292772],[3.08929566,50.62477479],[3.08853822,50.62566559],[3.08853723,50.62750534],[3.08834126,50.62919355]]]]},"bbox":[3.08833159,50.62256697,3.09889617,50.63156367]},{"type":"Feature","id":"fr-quartier-59350-c5ed41ffd397","properties":{"id":"fr-quartier-59350-c5ed41ffd397","kind":"quartier","name":"Montebello","cityCode":"59350","cityName":"Lille","sourceType":"iris","sourceIds":["593500401"],"colorIndex":44,"center":[3.0414489419445907,50.62130513787801]},"geometry":{"type":"MultiPolygon","coordinates":[[[[3.04577805,50.62185935],[3.0467944,50.62102345],[3.04289572,50.6199587],[3.04338748,50.61930518],[3.04336906,50.61920827],[3.04344521,50.61917593],[3.04347761,50.61913105],[3.04343665,50.61906555],[3.04327159,50.61904856],[3.04319829,50.61911858],[3.04325761,50.61919574],[3.04117288,50.61946389],[3.04107277,50.61951059],[3.04096836,50.61949447],[3.03815871,50.61999435],[3.03714602,50.62022978],[3.03519119,50.62076523],[3.03525476,50.62088278],[3.03522098,50.62099676],[3.03530847,50.62103353],[3.03842967,50.621983],[3.04075097,50.62278098],[3.04256441,50.62351717],[3.04325885,50.6239145],[3.04577805,50.62185935]]]]},"bbox":[3.03519119,50.61904856,3.0467944,50.6239145]},{"type":"Feature","id":"fr-quartier-59350-71880138df47","properties":{"id":"fr-quartier-59350-71880138df47","kind":"quartier","name":"Notre-Dame de Pellevoisin","cityCode":"59350","cityName":"Lille","sourceType":"iris","sourceIds":["593500902"],"colorIndex":45,"center":[3.086773791542535,50.649505629159215]},"geometry":{"type":"MultiPolygon","coordinates":[[[[3.08298838,50.64724529],[3.08044372,50.64910908],[3.08128627,50.64991261],[3.08176727,50.64970948],[3.08349257,50.65081932],[3.08336001,50.65089659],[3.08354036,50.65155067],[3.08380948,50.65209881],[3.08501553,50.65160262],[3.08583096,50.65133732],[3.08569786,50.65109332],[3.08572456,50.651026],[3.08777538,50.65012626],[3.08818944,50.65040058],[3.08867825,50.65063894],[3.08966488,50.65141359],[3.09369129,50.65024668],[3.09474983,50.65019203],[3.09444902,50.6501097],[3.09304459,50.6493695],[3.09084982,50.64864602],[3.08914931,50.64803522],[3.08885845,50.6479789],[3.08756548,50.64793943],[3.08601585,50.64802487],[3.08548488,50.64787447],[3.084498,50.64771451],[3.08369736,50.64750326],[3.08298838,50.64724529]]]]},"bbox":[3.08044372,50.64724529,3.09474983,50.65209881]},{"type":"Feature","id":"fr-quartier-59350-eca971ff7f7a","properties":{"id":"fr-quartier-59350-eca971ff7f7a","kind":"quartier","name":"Pellevoisin-Rouges Barres","cityCode":"59350","cityName":"Lille","sourceType":"iris","sourceIds":["593500903"],"colorIndex":46,"center":[3.0959617450438026,50.64894967768665]},"geometry":{"type":"MultiPolygon","coordinates":[[[[3.09474983,50.65019203],[3.09600802,50.65046837],[3.09870998,50.65133045],[3.10045993,50.65185133],[3.10338281,50.65230033],[3.10075734,50.65022769],[3.1005099,50.6500161],[3.10063548,50.64999267],[3.10028341,50.64969412],[3.10006189,50.64973468],[3.09986537,50.6495751],[3.09796363,50.64790384],[3.09802991,50.64787328],[3.09740769,50.64726443],[3.09727922,50.64724838],[3.09626523,50.64768351],[3.09613121,50.64772131],[3.09605073,50.64770611],[3.09532801,50.6469331],[3.09454995,50.64599321],[3.09399892,50.64568313],[3.09192964,50.64635504],[3.09192839,50.64644748],[3.09227215,50.64687439],[3.08914931,50.64803522],[3.09084982,50.64864602],[3.09304459,50.6493695],[3.09444902,50.6501097],[3.09474983,50.65019203]]]]},"bbox":[3.08914931,50.64568313,3.10338281,50.65230033]},{"type":"Feature","id":"fr-quartier-59350-ee3337eff400","properties":{"id":"fr-quartier-59350-ee3337eff400","kind":"quartier","name":"Petit Maroc","cityCode":"59350","cityName":"Lille","sourceType":"iris","sourceIds":["593501008"],"colorIndex":47,"center":[3.0861491628011644,50.622083982420925]},"geometry":{"type":"MultiPolygon","coordinates":[[[[3.09590646,50.61799416],[3.09577376,50.61793772],[3.09278807,50.61672664],[3.09200871,50.61710864],[3.09073674,50.616537],[3.0910325,50.6162846],[3.08907998,50.61532664],[3.0862097,50.61788999],[3.08413162,50.61690602],[3.08420187,50.61673545],[3.08328708,50.61629632],[3.08251772,50.61592888],[3.08206938,50.61606649],[3.0813996,50.61620873],[3.08021629,50.61630732],[3.07493773,50.61616882],[3.07604817,50.61638533],[3.07683558,50.61659126],[3.07733242,50.61679287],[3.07796071,50.61716582],[3.07843398,50.61762681],[3.07962969,50.61910235],[3.08043377,50.61999389],[3.08060089,50.62040302],[3.08105859,50.6207967],[3.08111567,50.6212041],[3.08088781,50.62249477],[3.08101664,50.62278008],[3.08109913,50.62318926],[3.08041921,50.62323098],[3.08051701,50.6235163],[3.08056561,50.62391025],[3.0805618,50.62417769],[3.0803668,50.62486077],[3.07969741,50.6262253],[3.08202893,50.62671019],[3.08200924,50.6267488],[3.0823988,50.62684636],[3.08255414,50.6269369],[3.08270114,50.62710193],[3.08295876,50.62760791],[3.08298747,50.62790853],[3.08309494,50.62805384],[3.08297715,50.62849456],[3.08292281,50.62975998],[3.08277107,50.63015047],[3.08221765,50.63081583],[3.08146399,50.63156299],[3.08016486,50.63269998],[3.08020738,50.63281931],[3.08091627,50.63316077],[3.08108994,50.63322976],[3.08145824,50.63323849],[3.08178264,50.63315033],[3.08305983,50.63241718],[3.08335607,50.63237211],[3.08383864,50.63237358],[3.08372191,50.63175713],[3.08373826,50.63140712],[3.0841717,50.6298794],[3.08429977,50.62968995],[3.0846041,50.62943039],[3.08534841,50.6290377],[3.0855305,50.62908603],[3.08834126,50.62919355],[3.08853723,50.62750534],[3.08853822,50.62566559],[3.08929566,50.62477479],[3.09072006,50.62292772],[3.0907494,50.62276706],[3.09069966,50.62256697],[3.09372046,50.62353127],[3.09399861,50.62365221],[3.09455292,50.62283961],[3.09437355,50.62272666],[3.09322189,50.62170535],[3.0933812,50.62165138],[3.09365139,50.6212922],[3.09424283,50.62072636],[3.09413132,50.62069414],[3.09513223,50.61958593],[3.0943456,50.61911178],[3.09565254,50.61798897],[3.09590646,50.61799416]]]]},"bbox":[3.07493773,50.61532664,3.09590646,50.63323849]},{"type":"Feature","id":"fr-quartier-59350-c524c3f4176e","properties":{"id":"fr-quartier-59350-c524c3f4176e","kind":"quartier","name":"Saint-Maurice-Briqueterie","cityCode":"59350","cityName":"Lille","sourceType":"iris","sourceIds":["593500907"],"colorIndex":48,"center":[3.0905556161993344,50.64513559315842]},"geometry":{"type":"MultiPolygon","coordinates":[[[[3.09727922,50.64724838],[3.09732001,50.64717476],[3.09630175,50.6461184],[3.09618823,50.64580529],[3.09387361,50.64357968],[3.09370165,50.64294175],[3.09386281,50.64233139],[3.09388243,50.64225689],[3.09318515,50.64220626],[3.09043194,50.64233393],[3.08745959,50.64224632],[3.08705105,50.64511474],[3.0857821,50.64504653],[3.08584062,50.64708181],[3.08577934,50.64755928],[3.08601585,50.64802487],[3.08756548,50.64793943],[3.08885845,50.6479789],[3.08914931,50.64803522],[3.09227215,50.64687439],[3.09192839,50.64644748],[3.09192964,50.64635504],[3.09399892,50.64568313],[3.09454995,50.64599321],[3.09532801,50.6469331],[3.09605073,50.64770611],[3.09613121,50.64772131],[3.09626523,50.64768351],[3.09727922,50.64724838]]]]},"bbox":[3.08577934,50.64220626,3.09732001,50.64803522]},{"type":"Feature","id":"fr-quartier-59350-7442be0e4867","properties":{"id":"fr-quartier-59350-7442be0e4867","kind":"quartier","name":"Saint-Maurice-Cimetière de l'Est","cityCode":"59350","cityName":"Lille","sourceType":"iris","sourceIds":["593500905"],"colorIndex":49,"center":[3.0819357603169677,50.643593435046206]},"geometry":{"type":"MultiPolygon","coordinates":[[[[3.07752504,50.64380904],[3.0778709,50.64477085],[3.07847444,50.64533943],[3.08298838,50.64724529],[3.08369736,50.64750326],[3.084498,50.64771451],[3.08548488,50.64787447],[3.08601585,50.64802487],[3.08577934,50.64755928],[3.08584062,50.64708181],[3.0857821,50.64504653],[3.08705105,50.64511474],[3.08745959,50.64224632],[3.08656611,50.64217246],[3.08569934,50.64203755],[3.08372686,50.64149776],[3.08238393,50.64100687],[3.08107751,50.64038672],[3.07913757,50.63982618],[3.07881151,50.63978152],[3.07846719,50.6397952],[3.07693489,50.63998462],[3.07668131,50.64027733],[3.07626692,50.64061591],[3.07642367,50.64068582],[3.07649298,50.64078539],[3.07752504,50.64380904]]]]},"bbox":[3.07626692,50.63978152,3.08745959,50.64802487]},{"type":"Feature","id":"fr-quartier-59350-8cc04af06519","properties":{"id":"fr-quartier-59350-8cc04af06519","kind":"quartier","name":"Saint-Maurice des Champs","cityCode":"59350","cityName":"Lille","sourceType":"iris","sourceIds":["593500906"],"colorIndex":50,"center":[3.082355134125556,50.6395594172164]},"geometry":{"type":"MultiPolygon","coordinates":[[[[3.07739547,50.63940639],[3.07693489,50.63998462],[3.07846719,50.6397952],[3.07881151,50.63978152],[3.07913757,50.63982618],[3.08107751,50.64038672],[3.08238393,50.64100687],[3.08372686,50.64149776],[3.08569934,50.64203755],[3.08656611,50.64217246],[3.08652208,50.64119521],[3.08656143,50.64027622],[3.08445576,50.64022024],[3.08440584,50.6373907],[3.08331225,50.63743003],[3.0820114,50.63757897],[3.0810874,50.63777073],[3.07985315,50.63810268],[3.07956392,50.63814325],[3.07936773,50.63812094],[3.07900483,50.63797489],[3.078851,50.6379696],[3.07882718,50.63808],[3.07868488,50.63822458],[3.07739547,50.63940639]]]]},"bbox":[3.07693489,50.6373907,3.08656611,50.64217246]},{"type":"Feature","id":"fr-quartier-59350-18d101f8c98b","properties":{"id":"fr-quartier-59350-18d101f8c98b","kind":"quartier","name":"Saint-Maurice-Saint-Gabriel","cityCode":"59350","cityName":"Lille","sourceType":"iris","sourceIds":["593500908"],"colorIndex":51,"center":[3.08827336311789,50.63985788795437]},"geometry":{"type":"MultiPolygon","coordinates":[[[[3.09318515,50.64220626],[3.09318793,50.64218113],[3.09231661,50.64111745],[3.09090255,50.63957493],[3.08907786,50.63720167],[3.08740846,50.63720196],[3.08656202,50.63734525],[3.08440584,50.6373907],[3.08445576,50.64022024],[3.08656143,50.64027622],[3.08652208,50.64119521],[3.08656611,50.64217246],[3.08745959,50.64224632],[3.09043194,50.64233393],[3.09318515,50.64220626]]]]},"bbox":[3.08440584,50.63720167,3.09318793,50.64233393]},{"type":"Feature","id":"fr-quartier-59350-7914e68a6309","properties":{"id":"fr-quartier-59350-7914e68a6309","kind":"quartier","name":"Sarrazins","cityCode":"59350","cityName":"Lille","sourceType":"iris","sourceIds":["593500402"],"colorIndex":52,"center":[3.0474426423950054,50.62369204789966]},"geometry":{"type":"MultiPolygon","coordinates":[[[[3.05085879,50.62257174],[3.05032963,50.62244182],[3.05000424,50.62293196],[3.04728941,50.62236763],[3.04577805,50.62185935],[3.04325885,50.6239145],[3.04482845,50.62482394],[3.04536704,50.62444503],[3.04552782,50.62438933],[3.04563786,50.62439377],[3.04597664,50.62459198],[3.0461234,50.62463411],[3.04780116,50.62496283],[3.04995891,50.62558032],[3.05113867,50.62311368],[3.05061805,50.62306363],[3.05085879,50.62257174]]]]},"bbox":[3.04325885,50.62185935,3.05113867,50.62558032]},{"type":"Feature","id":"fr-quartier-59350-880ead5f819c","properties":{"id":"fr-quartier-59350-880ead5f819c","kind":"quartier","name":"Seclin","cityCode":"59350","cityName":"Lille","sourceType":"iris","sourceIds":["593500502"],"colorIndex":53,"center":[3.062682982467951,50.62009494413385]},"geometry":{"type":"MultiPolygon","coordinates":[[[[3.0647493,50.61952293],[3.06393821,50.61844821],[3.06351528,50.61753752],[3.06315421,50.6175745],[3.06290024,50.61752078],[3.06179571,50.6174989],[3.06160253,50.61755913],[3.06147722,50.61775214],[3.06120225,50.61783394],[3.06126386,50.62208691],[3.06421357,50.62308337],[3.06375619,50.61951896],[3.0647493,50.61952293]]]]},"bbox":[3.06120225,50.6174989,3.0647493,50.62308337]},{"type":"Feature","id":"fr-quartier-59350-44b6ab7c8d83","properties":{"id":"fr-quartier-59350-44b6ab7c8d83","kind":"quartier","name":"Stations","cityCode":"59350","cityName":"Lille","sourceType":"iris","sourceIds":["593500407"],"colorIndex":54,"center":[3.0474971266551636,50.62743526149087]},"geometry":{"type":"MultiPolygon","coordinates":[[[[3.04354678,50.6289526],[3.04755966,50.63065895],[3.04879177,50.62955104],[3.04996902,50.62865583],[3.05013816,50.62848884],[3.05053388,50.62774381],[3.05113403,50.62687036],[3.0516861,50.62591346],[3.04995891,50.62558032],[3.04780116,50.62496283],[3.0461234,50.62463411],[3.04597664,50.62459198],[3.04563786,50.62439377],[3.04552782,50.62438933],[3.04536704,50.62444503],[3.04482845,50.62482394],[3.04502053,50.62505452],[3.0450943,50.62550949],[3.04527077,50.62563866],[3.04580002,50.62585115],[3.04486131,50.6268665],[3.04410974,50.62734779],[3.04507673,50.62793616],[3.04368078,50.6289041],[3.04354678,50.6289526]]]]},"bbox":[3.04354678,50.62438933,3.0516861,50.63065895]},{"type":"Feature","id":"fr-quartier-59350-6fc84c0ea335","properties":{"id":"fr-quartier-59350-6fc84c0ea335","kind":"quartier","name":"Strasbourg","cityCode":"59350","cityName":"Lille","sourceType":"iris","sourceIds":["593500501"],"colorIndex":55,"center":[3.056372579363643,50.617359283988826]},"geometry":{"type":"MultiPolygon","coordinates":[[[[3.06351528,50.61753752],[3.0628464,50.61621053],[3.06230762,50.61625388],[3.05626693,50.61694332],[3.05426548,50.61710216],[3.05231325,50.61713441],[3.04824776,50.61697182],[3.04834384,50.61713781],[3.04852315,50.61729928],[3.04971583,50.61803651],[3.05000918,50.61798075],[3.05030545,50.61802281],[3.05045507,50.61810801],[3.05056527,50.61827848],[3.05308872,50.61813114],[3.05429196,50.61811178],[3.06068867,50.61773637],[3.06084525,50.61774258],[3.06120225,50.61783394],[3.06147722,50.61775214],[3.06160253,50.61755913],[3.06179571,50.6174989],[3.06290024,50.61752078],[3.06315421,50.6175745],[3.06351528,50.61753752]]]]},"bbox":[3.04824776,50.61621053,3.06351528,50.61827848]},{"type":"Feature","id":"fr-quartier-59350-10bb6fde5552","properties":{"id":"fr-quartier-59350-10bb6fde5552","kind":"quartier","name":"Trévise","cityCode":"59350","cityName":"Lille","sourceType":"iris","sourceIds":["593500508"],"colorIndex":56,"center":[3.075375495864883,50.621647306274]},"geometry":{"type":"MultiPolygon","coordinates":[[[[3.0736037,50.61834503],[3.07353033,50.618337],[3.07260737,50.62097693],[3.07190674,50.62230645],[3.07190402,50.62237466],[3.0720465,50.62237099],[3.07217962,50.62273168],[3.07215384,50.62343888],[3.07115904,50.62428933],[3.07759593,50.6239247],[3.07800222,50.62391637],[3.07814903,50.62397013],[3.07834793,50.62395833],[3.07894844,50.62275449],[3.07914212,50.62211359],[3.07836773,50.62037304],[3.07812454,50.62001691],[3.07774592,50.61965996],[3.07733496,50.61935778],[3.07656988,50.61902889],[3.07440234,50.61849533],[3.0736037,50.61834503]]]]},"bbox":[3.07115904,50.618337,3.07914212,50.62428933]},{"type":"Feature","id":"fr-quartier-59350-f82d1b3e0c0c","properties":{"id":"fr-quartier-59350-f82d1b3e0c0c","kind":"quartier","name":"Vauban-Esquermes","cityCode":"59350","cityName":"Lille","sourceType":"iris","sourceIds":["593500302"],"colorIndex":57,"center":[3.0485280611938896,50.63541463848338]},"geometry":{"type":"MultiPolygon","coordinates":[[[[3.05038847,50.63609355],[3.04871892,50.63445103],[3.04676836,50.63548472],[3.04643691,50.63565535],[3.04842259,50.63590408],[3.05016551,50.63609633],[3.05038847,50.63609355]]]]},"bbox":[3.04643691,50.63445103,3.05038847,50.63609633]},{"type":"Feature","id":"fr-quartier-59350-4e9f32ba00d9","properties":{"id":"fr-quartier-59350-4e9f32ba00d9","kind":"quartier","name":"Verhaeren","cityCode":"59350","cityName":"Lille","sourceType":"iris","sourceIds":["593500603"],"colorIndex":58,"center":[3.0313552866515323,50.62032038480139]},"geometry":{"type":"MultiPolygon","coordinates":[[[[3.0344987,50.62099607],[3.03485414,50.6209161],[3.03503323,50.62081015],[3.03358752,50.61907937],[3.033236,50.61867113],[3.03286063,50.61845943],[3.03250085,50.61835363],[3.03076422,50.61810727],[3.03010147,50.61850949],[3.02935705,50.61919083],[3.02890331,50.62003992],[3.02868652,50.62083331],[3.02867699,50.62143371],[3.02891892,50.62265148],[3.02963274,50.62261452],[3.03036758,50.62236664],[3.03050724,50.62235315],[3.03169898,50.62182605],[3.03419544,50.62105718],[3.0344987,50.62099607]]]]},"bbox":[3.02867699,50.61810727,3.03503323,50.62265148]},{"type":"Feature","id":"fr-quartier-59350-a4ab3ad7adaf","properties":{"id":"fr-quartier-59350-a4ab3ad7adaf","kind":"quartier","name":"Vieux Bois-Blancs","cityCode":"59350","cityName":"Lille","sourceType":"iris","sourceIds":["593500803"],"colorIndex":59,"center":[3.026917972740939,50.63175969715815]},"geometry":{"type":"MultiPolygon","coordinates":[[[[3.03027765,50.63465612],[3.0321796,50.63214913],[3.03059624,50.63181928],[3.02950528,50.63138429],[3.02950807,50.63133762],[3.02854414,50.63095016],[3.0284185,50.6308398],[3.02809827,50.63095205],[3.02794314,50.63108311],[3.02468709,50.62923868],[3.02386631,50.63005102],[3.02223343,50.62912517],[3.02174265,50.629635],[3.02122934,50.63029111],[3.0215201,50.6305235],[3.02423829,50.63190235],[3.02508517,50.63245589],[3.02528421,50.63261918],[3.025472,50.63286055],[3.02602489,50.63241083],[3.02689865,50.63303705],[3.02847106,50.63394041],[3.03027765,50.63465612]]]]},"bbox":[3.02122934,50.62912517,3.0321796,50.63465612]},{"type":"Feature","id":"fr-quartier-59350-ed7bb0a83e35","properties":{"id":"fr-quartier-59350-ed7bb0a83e35","kind":"quartier","name":"Vieux-Lille","cityCode":"59350","cityName":"Lille","sourceType":"iris","sourceIds":["iris-group:593500201+593500202+593500203+593500204+593500205+593500206+593500207"],"colorIndex":60,"center":[3.0599194671508205,50.64411059474071]},"geometry":{"type":"Polygon","coordinates":[[[3.04723018,50.64789401],[3.04728927,50.64769656],[3.04727893,50.64720299],[3.04746344,50.64678922],[3.04762131,50.64657288],[3.04987347,50.64468384],[3.05131471,50.64353187],[3.05214944,50.64278039],[3.05242999,50.639782],[3.05217313,50.63976775],[3.05210929,50.6394474],[3.05198631,50.63925271],[3.05141569,50.63877552],[3.05094551,50.63852892],[3.05105689,50.63842298],[3.05101306,50.63833954],[3.05076038,50.63826157],[3.05119586,50.63770409],[3.0516908,50.63733415],[3.05195921,50.63761403],[3.05456764,50.63685549],[3.05535813,50.63708398],[3.05662438,50.63622458],[3.0585859,50.63747378],[3.05952996,50.63866241],[3.06062887,50.63831727],[3.06217902,50.63771344],[3.06262174,50.63740719],[3.0628811,50.63717104],[3.06312394,50.63726784],[3.06326789,50.63727494],[3.06339061,50.6372345],[3.06363588,50.63701809],[3.06468352,50.63745639],[3.06451434,50.63757943],[3.06465687,50.63758563],[3.06480795,50.63764837],[3.06549644,50.63860825],[3.06582989,50.63892217],[3.06598665,50.63901094],[3.06799268,50.63952677],[3.06940297,50.63987329],[3.06850413,50.64099287],[3.0693511,50.64114496],[3.06992714,50.64132143],[3.07038188,50.64154552],[3.07070819,50.64176072],[3.07116892,50.64221993],[3.07184196,50.6431017],[3.07204824,50.64325594],[3.07205269,50.6434076],[3.07213891,50.6434955],[3.0715552,50.64390685],[3.07133264,50.64420851],[3.07092559,50.64580075],[3.0704893,50.64668674],[3.0698962,50.64748039],[3.06898121,50.64824011],[3.06775853,50.64902601],[3.06611097,50.64982559],[3.06355281,50.65054485],[3.06126375,50.65091214],[3.05957288,50.65104399],[3.05968518,50.65052254],[3.05931911,50.65010991],[3.05941209,50.64996],[3.05790241,50.64929394],[3.05745247,50.64958042],[3.05699495,50.64940923],[3.0562769,50.64977031],[3.05607627,50.64959272],[3.05577859,50.64973015],[3.05534233,50.64963253],[3.05458133,50.65075104],[3.05381719,50.65028651],[3.05368599,50.65035208],[3.05356451,50.65026598],[3.0524159,50.65062723],[3.05196059,50.64985565],[3.05165715,50.6498836],[3.05168518,50.64969693],[3.05052334,50.6495251],[3.05134258,50.64869825],[3.05009345,50.64872748],[3.0498151,50.64844491],[3.04828218,50.64837911],[3.04841586,50.6479492],[3.04768321,50.64784897],[3.04723018,50.64789401]]]},"bbox":[3.04723018,50.63622458,3.07213891,50.65104399]}]}