{"type":"FeatureCollection","metadata":{"sourceType":"iris","source":"IGN / INSEE — Contours IRIS 2026","sourceUrl":"https://data.geopf.fr/wfs/ows?service=WFS&version=2.0.0&request=GetFeature&typeNames=STATISTICALUNITS.IRIS%3Acontours_iris&outputFormat=application%2Fjson&srsName=CRS%3A84&count=1000&CQL_FILTER=code_insee%3D%2759507%27&sortBy=code_iris","retrievedDate":"2026-09-10","sourceYear":"2026","license":"Licence Ouverte 2.0"},"features":[{"type":"Feature","id":"fr-quartier-59507-bacc854c8fb4","properties":{"id":"fr-quartier-59507-bacc854c8fb4","kind":"quartier","name":"Champ du Cerf","cityCode":"59507","cityName":"Ronchin","sourceType":"iris","sourceIds":["595070301","595070303"],"colorIndex":0,"center":[3.0886628370497036,50.59657136]},"geometry":{"type":"MultiPolygon","coordinates":[[[[3.08013435,50.60031462],[3.08194497,50.59686893],[3.08349523,50.59385686],[3.08649096,50.58871223],[3.08722298,50.58972229],[3.08797,50.59122235],[3.08912641,50.59299764],[3.08933168,50.59346598],[3.08990442,50.59442408],[3.0918424,50.59634864],[3.09250334,50.59615879],[3.09264864,50.59619637],[3.09273173,50.59614067],[3.09272319,50.5960958],[3.09358004,50.5958645],[3.09410737,50.59586141],[3.09470967,50.59598301],[3.09491284,50.59605376],[3.09509509,50.59624388],[3.09512766,50.59631476],[3.09504604,50.59640098],[3.09516884,50.5964673],[3.09528626,50.59667542],[3.09545293,50.59682786],[3.09588207,50.59708331],[3.0965002,50.59736195],[3.09687294,50.59761564],[3.09614327,50.59800123],[3.09455365,50.59849516],[3.09441291,50.59863617],[3.09422039,50.59898813],[3.09299361,50.59898457],[3.09055302,50.59913266],[3.08913326,50.59924498],[3.085126,50.6002027],[3.08381752,50.60027359],[3.08317732,50.60026774],[3.08291954,50.60043305],[3.08278952,50.60026082],[3.08086202,50.60034017],[3.08013435,50.60031462]]]]},"bbox":[3.08013435,50.58871223,3.09687294,50.60043305]},{"type":"Feature","id":"fr-quartier-59507-a7af93a0a23f","properties":{"id":"fr-quartier-59507-a7af93a0a23f","kind":"quartier","name":"Champ du Cerf 2 Étendu","cityCode":"59507","cityName":"Ronchin","sourceType":"iris","sourceIds":["595070306"],"colorIndex":1,"center":[3.0993037872422633,50.59643414]},"geometry":{"type":"MultiPolygon","coordinates":[[[[3.10354532,50.59900762],[3.10263734,50.59837386],[3.1040593,50.59730827],[3.10410981,50.59718438],[3.10399814,50.59704985],[3.10105655,50.59341301],[3.10115467,50.59312663],[3.10101236,50.59317162],[3.10058869,50.59282284],[3.10036154,50.59275033],[3.1001615,50.59283396],[3.09984783,50.59249317],[3.09949129,50.59257961],[3.09846823,50.59141191],[3.09470723,50.59244156],[3.09346142,50.59122103],[3.09125842,50.59233555],[3.0904173,50.59266733],[3.08912641,50.59299764],[3.08933168,50.59346598],[3.08990442,50.59442408],[3.0918424,50.59634864],[3.09250334,50.59615879],[3.09264864,50.59619637],[3.09273173,50.59614067],[3.09272319,50.5960958],[3.09358004,50.5958645],[3.09410737,50.59586141],[3.09470967,50.59598301],[3.09491284,50.59605376],[3.09509509,50.59624388],[3.09512766,50.59631476],[3.09504604,50.59640098],[3.09516884,50.5964673],[3.09528626,50.59667542],[3.09545293,50.59682786],[3.09588207,50.59708331],[3.0965002,50.59736195],[3.09687294,50.59761564],[3.09614327,50.59800123],[3.09455365,50.59849516],[3.09441291,50.59863617],[3.09422039,50.59898813],[3.09446172,50.59909744],[3.09609393,50.60022072],[3.09759553,50.60085316],[3.09745904,50.60100584],[3.09756347,50.60104794],[3.09837571,50.60176437],[3.09946269,50.60235135],[3.10039013,50.60282536],[3.10068653,50.60295705],[3.10093484,50.60301159],[3.10169591,50.60349471],[3.10248634,50.60246287],[3.10311559,50.6012364],[3.10345018,50.60005236],[3.10354532,50.59900762]]]]},"bbox":[3.08912641,50.59122103,3.10410981,50.60349471]},{"type":"Feature","id":"fr-quartier-59507-c6c636c6f0b6","properties":{"id":"fr-quartier-59507-c6c636c6f0b6","kind":"quartier","name":"Cité Jardin","cityCode":"59507","cityName":"Ronchin","sourceType":"iris","sourceIds":["595070201","595070202","595070203"],"colorIndex":2,"center":[3.088988795285365,50.60345619]},"geometry":{"type":"MultiPolygon","coordinates":[[[[3.07903294,50.60293235],[3.08070959,50.60201495],[3.08291954,50.60043305],[3.08317732,50.60026774],[3.08381752,50.60027359],[3.085126,50.6002027],[3.08913326,50.59924498],[3.09055302,50.59913266],[3.09299361,50.59898457],[3.09422039,50.59898813],[3.09446172,50.59909744],[3.09609393,50.60022072],[3.09759553,50.60085316],[3.09745904,50.60100584],[3.09756347,50.60104794],[3.09837571,50.60176437],[3.09946269,50.60235135],[3.09897867,50.60290099],[3.09853789,50.60320827],[3.09798605,50.60370411],[3.09693208,50.6048887],[3.09660829,50.60518152],[3.09554165,50.60640829],[3.0938948,50.60811741],[3.09367357,50.60821989],[3.09278128,50.60847006],[3.09217121,50.60880616],[3.09197206,50.60864477],[3.091248,50.60912275],[3.0910069,50.60916241],[3.09032222,50.60880034],[3.09019921,50.60862901],[3.09027511,50.60847998],[3.09075526,50.60804885],[3.09039242,50.6078409],[3.0898657,50.60825502],[3.08646855,50.60683136],[3.08487763,50.60593589],[3.08373772,50.60654246],[3.07903294,50.60293235]]]]},"bbox":[3.07903294,50.59898457,3.09946269,50.60916241]},{"type":"Feature","id":"fr-quartier-59507-ac93451b5e4b","properties":{"id":"fr-quartier-59507-ac93451b5e4b","kind":"quartier","name":"Petit Ronchin","cityCode":"59507","cityName":"Ronchin","sourceType":"iris","sourceIds":["595070101","595070102","595070103","595070104"],"colorIndex":3,"center":[3.081733314925396,50.60847502]},"geometry":{"type":"MultiPolygon","coordinates":[[[[3.07129508,50.60682755],[3.0725831,50.60613755],[3.07430339,50.60500572],[3.07643658,50.6037381],[3.07675901,50.60340225],[3.0768983,50.60227136],[3.076551,50.60108512],[3.07644377,50.6001222],[3.08010202,50.60037657],[3.08013435,50.60031462],[3.08086202,50.60034017],[3.08278952,50.60026082],[3.08291954,50.60043305],[3.08070959,50.60201495],[3.07903294,50.60293235],[3.08373772,50.60654246],[3.08487763,50.60593589],[3.08646855,50.60683136],[3.0898657,50.60825502],[3.09039242,50.6078409],[3.09075526,50.60804885],[3.09027511,50.60847998],[3.09019921,50.60862901],[3.09032222,50.60880034],[3.0910069,50.60916241],[3.091248,50.60912275],[3.09197206,50.60864477],[3.09217121,50.60880616],[3.09278128,50.60847006],[3.09367357,50.60821989],[3.0938948,50.60811741],[3.09554165,50.60640829],[3.09660829,50.60518152],[3.09693208,50.6048887],[3.09798605,50.60370411],[3.09853789,50.60320827],[3.09897867,50.60290099],[3.09946269,50.60235135],[3.10039013,50.60282536],[3.10068653,50.60295705],[3.10093484,50.60301159],[3.10169591,50.60349471],[3.10248634,50.60246287],[3.10311559,50.6012364],[3.10345018,50.60005236],[3.10354532,50.59900762],[3.10859816,50.60250254],[3.10911913,50.60278479],[3.10905011,50.60282164],[3.11046604,50.60414864],[3.11220146,50.603894],[3.11276874,50.60468415],[3.11357684,50.60532152],[3.11375943,50.60561572],[3.1138058,50.60616492],[3.11338743,50.60762996],[3.11362977,50.60815117],[3.11483454,50.60953215],[3.11167809,50.61079416],[3.11016205,50.61150631],[3.10930261,50.61063743],[3.10675643,50.61178031],[3.10728179,50.61275988],[3.10634564,50.61294736],[3.10504486,50.61212101],[3.10468955,50.61150386],[3.10426972,50.61105549],[3.10377261,50.61074359],[3.10337034,50.61059854],[3.10298569,50.61079002],[3.10250447,50.61134774],[3.10221938,50.61126181],[3.10145811,50.61213656],[3.10063209,50.61238852],[3.09924508,50.61426442],[3.09906018,50.61420354],[3.09775165,50.61587205],[3.09789427,50.61595091],[3.09679352,50.61714628],[3.09590646,50.61799416],[3.09577376,50.61793772],[3.09278807,50.61672664],[3.09200871,50.61710864],[3.09073674,50.616537],[3.0910325,50.6162846],[3.08907998,50.61532664],[3.0862097,50.61788999],[3.08413162,50.61690602],[3.08420187,50.61673545],[3.08328708,50.61629632],[3.08251772,50.61592888],[3.08188388,50.61562506],[3.08184165,50.61567894],[3.07918025,50.61408679],[3.07856723,50.61353525],[3.0788688,50.61336005],[3.07750898,50.61237371],[3.0766997,50.61166253],[3.07527897,50.61044286],[3.07535855,50.60990433],[3.07495373,50.60988035],[3.07367749,50.60902493],[3.07291748,50.60817459],[3.07129508,50.60682755]]]]},"bbox":[3.07129508,50.59900762,3.11483454,50.61799416]}]}