{"type":"FeatureCollection","metadata":{"sourceType":"iris","source":"IGN / INSEE — Contours IRIS 2026","sourceUrl":"https://data.geopf.fr/wfs/ows?service=WFS&version=2.0.0&request=GetFeature&typeNames=STATISTICALUNITS.IRIS%3Acontours_iris&outputFormat=application%2Fjson&srsName=CRS%3A84&count=1000&CQL_FILTER=code_insee%3D%2759524%27&sortBy=code_iris","retrievedDate":"2026-09-10","sourceYear":"2026","license":"Licence Ouverte 2.0"},"features":[{"type":"Feature","id":"fr-quartier-59524-c1e58600b23f","properties":{"id":"fr-quartier-59524-c1e58600b23f","kind":"quartier","name":"Nord","cityCode":"59524","cityName":"Sainghin-en-Weppes","sourceType":"iris","sourceIds":["595240102"],"colorIndex":0,"center":[2.8986994313756944,50.56367098]},"geometry":{"type":"MultiPolygon","coordinates":[[[[2.87987148,50.55442089],[2.87879039,50.55521864],[2.87720033,50.55614871],[2.88009352,50.5581988],[2.88164113,50.55914628],[2.88288561,50.56020206],[2.8837149,50.56046312],[2.88341458,50.56115932],[2.88145679,50.56323073],[2.88377552,50.56410981],[2.88217387,50.5656987],[2.88175326,50.56598819],[2.88030451,50.5666375],[2.87844014,50.56722985],[2.8770151,50.56794914],[2.87948508,50.56869112],[2.88090516,50.57006299],[2.8797458,50.57045319],[2.88346165,50.57368418],[2.8823776,50.5743886],[2.88477428,50.57592558],[2.8866912,50.57713628],[2.88738877,50.57656252],[2.89090713,50.57769562],[2.89357604,50.57867442],[2.89477603,50.5784385],[2.89605878,50.57838932],[2.90123547,50.57932875],[2.90433578,50.57967672],[2.9049434,50.57961795],[2.90421952,50.57854937],[2.90366652,50.5780598],[2.9047642,50.57599909],[2.90705108,50.57329215],[2.90655668,50.5731392],[2.90804852,50.57119452],[2.90821077,50.57109681],[2.90895869,50.56977084],[2.90937256,50.56924072],[2.90999201,50.56880049],[2.9107493,50.56850037],[2.91198393,50.56761271],[2.91391913,50.56493319],[2.91522425,50.56394144],[2.91499339,50.56379947],[2.91456828,50.56354249],[2.91433308,50.56347411],[2.91203574,50.5629672],[2.91147635,50.56296232],[2.91064343,50.56305327],[2.91058997,50.56300476],[2.90680628,50.56165839],[2.90414091,50.56063766],[2.90429201,50.56046276],[2.90437707,50.56018908],[2.90427217,50.55977973],[2.90350593,50.55891931],[2.9029694,50.55950228],[2.90260817,50.55977395],[2.90148817,50.56114269],[2.90048896,50.56196312],[2.89742048,50.560372],[2.89729952,50.56026779],[2.89641748,50.56026885],[2.89576115,50.56014265],[2.89481639,50.55981695],[2.89252518,50.55859165],[2.89159191,50.55819054],[2.88907725,50.55741824],[2.88905207,50.55733475],[2.88878727,50.55729771],[2.87987148,50.55442089]]]]},"bbox":[2.8770151,50.55442089,2.91522425,50.57967672]},{"type":"Feature","id":"fr-quartier-59524-c02d1bfa451b","properties":{"id":"fr-quartier-59524-c02d1bfa451b","kind":"quartier","name":"Sud","cityCode":"59524","cityName":"Sainghin-en-Weppes","sourceType":"iris","sourceIds":["595240101"],"colorIndex":1,"center":[2.884087355401754,50.552968160000006]},"geometry":{"type":"MultiPolygon","coordinates":[[[[2.8977579,50.53370364],[2.8921668,50.53385418],[2.89105821,50.53398605],[2.88804692,50.53417544],[2.88695509,50.53310904],[2.88685214,50.53380366],[2.88697779,50.53429025],[2.88689108,50.53778256],[2.8887005,50.53857225],[2.88890278,50.53880759],[2.89384036,50.541606],[2.89469739,50.54195587],[2.89478643,50.5424846],[2.89540632,50.54376682],[2.89564089,50.5447606],[2.89421389,50.54749959],[2.89403051,50.5476215],[2.89169695,50.55128682],[2.89086074,50.55296538],[2.89084385,50.553608],[2.89018557,50.55441789],[2.8902486,50.5552329],[2.88888533,50.55500371],[2.88766173,50.55469207],[2.88742016,50.55435796],[2.88510076,50.55332367],[2.8855821,50.55291484],[2.88557115,50.55277213],[2.8835356,50.55209887],[2.88223088,50.5533874],[2.88129078,50.55297094],[2.87991064,50.55394972],[2.88003108,50.5542523],[2.87987148,50.55442089],[2.88878727,50.55729771],[2.88905207,50.55733475],[2.88907725,50.55741824],[2.89159191,50.55819054],[2.89252518,50.55859165],[2.89481639,50.55981695],[2.89576115,50.56014265],[2.89641748,50.56026885],[2.89729952,50.56026779],[2.89742048,50.560372],[2.90048896,50.56196312],[2.90148817,50.56114269],[2.90260817,50.55977395],[2.9029694,50.55950228],[2.90350593,50.55891931],[2.90427217,50.55977973],[2.90437707,50.56018908],[2.90429201,50.56046276],[2.90414091,50.56063766],[2.90680628,50.56165839],[2.91058997,50.56300476],[2.91064343,50.56305327],[2.91147635,50.56296232],[2.91203574,50.5629672],[2.91433308,50.56347411],[2.91456828,50.56354249],[2.91499339,50.56379947],[2.91552564,50.56319401],[2.91178705,50.56175806],[2.91001804,50.56134124],[2.91030817,50.56062164],[2.91064849,50.56020005],[2.91152748,50.55792814],[2.91201872,50.55739446],[2.91264485,50.55706821],[2.91275876,50.5563736],[2.91373989,50.55441588],[2.91511532,50.55250239],[2.91604641,50.55172755],[2.91708007,50.55110177],[2.91746949,50.55072686],[2.91255126,50.55011944],[2.91233322,50.54993888],[2.9121691,50.54953847],[2.91121248,50.549606],[2.91092449,50.54915702],[2.91031621,50.5490031],[2.9090301,50.54821233],[2.90868051,50.54757033],[2.90849847,50.54697513],[2.90767922,50.54589568],[2.90752375,50.54541358],[2.90674679,50.54510245],[2.90638966,50.54475752],[2.9054152,50.54461587],[2.90529403,50.54388428],[2.90535137,50.54335297],[2.90431657,50.54310625],[2.90370299,50.54282754],[2.90311187,50.54332162],[2.90258647,50.54333378],[2.90123982,50.54266853],[2.90047305,50.53582049],[2.8977579,50.53370364]]]]},"bbox":[2.87987148,50.53310904,2.91746949,50.56379947]}]}