{"type":"FeatureCollection","metadata":{"sourceType":"iris","source":"IGN / INSEE — Contours IRIS 2026","sourceUrl":"https://data.geopf.fr/wfs/ows?service=WFS&version=2.0.0&request=GetFeature&typeNames=STATISTICALUNITS.IRIS%3Acontours_iris&outputFormat=application%2Fjson&srsName=CRS%3A84&count=1000&CQL_FILTER=code_insee%3D%2759599%27&sortBy=code_iris","retrievedDate":"2026-09-10","sourceYear":"2026","license":"Licence Ouverte 2.0"},"features":[{"type":"Feature","id":"fr-quartier-59599-4392e2b9dd74","properties":{"id":"fr-quartier-59599-4392e2b9dd74","kind":"quartier","name":"Belencontre","cityCode":"59599","cityName":"Tourcoing","sourceType":"iris","sourceIds":["595991001"],"colorIndex":0,"center":[3.1448485317903874,50.730326355]},"geometry":{"type":"MultiPolygon","coordinates":[[[[3.14479405,50.73389978],[3.14773483,50.7329075],[3.15064243,50.73173573],[3.15120429,50.73145779],[3.15071537,50.73107254],[3.14990241,50.73059078],[3.14964291,50.73033356],[3.14968811,50.73031915],[3.14832261,50.72895869],[3.14761487,50.72818247],[3.14725492,50.72837043],[3.14598677,50.72884121],[3.14233798,50.72986029],[3.14115231,50.73003212],[3.14016898,50.73026833],[3.13993034,50.73036909],[3.13989249,50.73048399],[3.14479405,50.73389978]]]]},"bbox":[3.13989249,50.72818247,3.15120429,50.73389978]},{"type":"Feature","id":"fr-quartier-59599-356a9a8c3363","properties":{"id":"fr-quartier-59599-356a9a8c3363","kind":"quartier","name":"Blanche Porte","cityCode":"59599","cityName":"Tourcoing","sourceType":"iris","sourceIds":["595990402"],"colorIndex":1,"center":[3.148093059465374,50.716865805]},"geometry":{"type":"MultiPolygon","coordinates":[[[[3.14331133,50.7147736],[3.1419818,50.71691882],[3.14178396,50.71743231],[3.14125424,50.71804309],[3.14140098,50.71795139],[3.14175163,50.71799317],[3.14440516,50.71768323],[3.14609723,50.71872304],[3.14686473,50.71823759],[3.14711055,50.71819781],[3.14739163,50.71957217],[3.14942191,50.72022389],[3.14969879,50.72016702],[3.15073789,50.71975928],[3.15355632,50.71789301],[3.15453349,50.71805242],[3.15477246,50.71808532],[3.15499572,50.7180653],[3.15661521,50.71751591],[3.15576226,50.71639175],[3.15558991,50.71642068],[3.15418236,50.71693929],[3.1541636,50.71681279],[3.15407849,50.71671329],[3.15353666,50.71655155],[3.15348755,50.7152837],[3.15196321,50.71597202],[3.15005088,50.71501869],[3.14787119,50.71443535],[3.14577997,50.71363831],[3.14662728,50.71292394],[3.14743531,50.71231729],[3.14859887,50.71150922],[3.14909842,50.71126275],[3.14875873,50.71108818],[3.14625525,50.71280863],[3.14462262,50.71417985],[3.14440861,50.71446275],[3.14331133,50.7147736]]],[[[3.14002095,50.71726112],[3.13895287,50.71691596],[3.14043761,50.71765816],[3.14076475,50.71788661],[3.14088393,50.71804799],[3.14101974,50.71808822],[3.14122323,50.71807453],[3.14125424,50.71804309],[3.14092525,50.7176621],[3.14002095,50.71726112]]]]},"bbox":[3.13895287,50.71108818,3.15661521,50.72022389]},{"type":"Feature","id":"fr-quartier-59599-f19dfae67b6c","properties":{"id":"fr-quartier-59599-f19dfae67b6c","kind":"quartier","name":"Blanc Seau","cityCode":"59599","cityName":"Tourcoing","sourceType":"iris","sourceIds":["595990602"],"colorIndex":2,"center":[3.150312530865076,50.699182395]},"geometry":{"type":"MultiPolygon","coordinates":[[[[3.14459741,50.69318942],[3.14356349,50.69325882],[3.1427917,50.69360249],[3.14262782,50.69360178],[3.14167608,50.69426153],[3.14358966,50.69549408],[3.14404744,50.69599606],[3.14543419,50.6967527],[3.14622567,50.69733864],[3.14765742,50.69799919],[3.14844778,50.69866587],[3.15061805,50.70010259],[3.15119194,50.70065017],[3.15228389,50.70196164],[3.15321446,50.70269452],[3.15242125,50.70438608],[3.15417527,50.70498423],[3.15487127,50.70431754],[3.15503916,50.70423388],[3.15619464,50.70592122],[3.15627023,50.70569141],[3.1561721,50.70322296],[3.15612315,50.70247823],[3.15599399,50.70229265],[3.15443729,50.70150852],[3.15232259,50.69981696],[3.15198313,50.69969892],[3.14750812,50.69575511],[3.1472081,50.69558317],[3.14676633,50.69524719],[3.14665551,50.69503734],[3.14460637,50.69335721],[3.14459741,50.69318942]]]]},"bbox":[3.14167608,50.69318942,3.15627023,50.70592122]},{"type":"Feature","id":"fr-quartier-59599-de86327129bf","properties":{"id":"fr-quartier-59599-de86327129bf","kind":"quartier","name":"Bois d'Achelles","cityCode":"59599","cityName":"Tourcoing","sourceType":"iris","sourceIds":["595990201"],"colorIndex":3,"center":[3.1273529621851663,50.730370885]},"geometry":{"type":"MultiPolygon","coordinates":[[[[3.12433897,50.72516695],[3.11955439,50.72659476],[3.11890077,50.72638003],[3.11865528,50.72658844],[3.119163,50.72786392],[3.11877548,50.72899041],[3.11942563,50.72951111],[3.11961767,50.72941492],[3.11977348,50.7295368],[3.12236954,50.73027993],[3.12241606,50.73022784],[3.12292673,50.73034847],[3.12546671,50.73124324],[3.12497581,50.7316861],[3.12660635,50.73240588],[3.12678565,50.73230609],[3.12734139,50.73290312],[3.12812715,50.73332135],[3.12901203,50.73379421],[3.13058885,50.73446733],[3.13078156,50.73462685],[3.13071557,50.73480458],[3.1319245,50.73535693],[3.13214613,50.7352239],[3.13281867,50.73557223],[3.13352403,50.73444089],[3.13470821,50.73314212],[3.1343445,50.7330133],[3.13367064,50.73268831],[3.13475742,50.73198635],[3.13318389,50.73094539],[3.1334845,50.73074676],[3.13254696,50.73014029],[3.13230415,50.73027604],[3.13196369,50.73037331],[3.13146744,50.73036846],[3.13117024,50.73025122],[3.13089101,50.72997874],[3.13074589,50.72962894],[3.13077487,50.72935613],[3.13090829,50.72901771],[3.12791301,50.72697498],[3.12433897,50.72516695]]]]},"bbox":[3.11865528,50.72516695,3.13475742,50.73557223]},{"type":"Feature","id":"fr-quartier-59599-818dd2f6f36e","properties":{"id":"fr-quartier-59599-818dd2f6f36e","kind":"quartier","name":"Boulevard","cityCode":"59599","cityName":"Tourcoing","sourceType":"iris","sourceIds":["595991201"],"colorIndex":4,"center":[3.1686832261625835,50.729169505]},"geometry":{"type":"MultiPolygon","coordinates":[[[[3.16973957,50.72483422],[3.16775621,50.72524429],[3.1674771,50.72505802],[3.1666266,50.72478549],[3.16637163,50.7246279],[3.16385684,50.72550522],[3.16586724,50.72684672],[3.16606288,50.72701425],[3.16653308,50.72727025],[3.16696883,50.72864254],[3.16693943,50.72872872],[3.16701452,50.72877797],[3.16765015,50.73072605],[3.16761649,50.73080596],[3.16768171,50.7308624],[3.16776531,50.73134055],[3.16799888,50.73269156],[3.1679497,50.73278315],[3.16801771,50.73282792],[3.16854423,50.73593723],[3.16875511,50.73683693],[3.16979233,50.73665157],[3.17333356,50.73602846],[3.17330611,50.7358607],[3.17412869,50.73535887],[3.1738963,50.73521203],[3.17225991,50.73260318],[3.17160537,50.73179831],[3.1709569,50.73110649],[3.1706751,50.73055953],[3.17052608,50.72956104],[3.16966698,50.72844687],[3.16934658,50.72776266],[3.16927458,50.72695339],[3.16912677,50.72630215],[3.16914776,50.72623662],[3.16928898,50.72619425],[3.16923075,50.72611447],[3.16973957,50.72483422]]]]},"bbox":[3.16385684,50.7246279,3.17412869,50.73683693]},{"type":"Feature","id":"fr-quartier-59599-b47730f8f6e9","properties":{"id":"fr-quartier-59599-b47730f8f6e9","kind":"quartier","name":"Brun Pain","cityCode":"59599","cityName":"Tourcoing","sourceType":"iris","sourceIds":["595990302"],"colorIndex":5,"center":[3.139670990345596,50.72481359]},"geometry":{"type":"MultiPolygon","coordinates":[[[[3.13396543,50.72607669],[3.13486343,50.72672447],[3.13678308,50.72823074],[3.13697358,50.72810132],[3.13827103,50.72746728],[3.14010671,50.72670342],[3.14131011,50.72633147],[3.14270775,50.72566677],[3.14461927,50.72526885],[3.14544631,50.72480218],[3.14598646,50.72436725],[3.14594394,50.72432872],[3.1447164,50.72316814],[3.14449087,50.72289921],[3.1428642,50.72302402],[3.14023102,50.72363808],[3.13755405,50.72377477],[3.13422939,50.7243473],[3.13402465,50.72443545],[3.13391261,50.724825],[3.13365529,50.72534213],[3.13396543,50.72607669]]]]},"bbox":[3.13365529,50.72289921,3.14598646,50.72823074]},{"type":"Feature","id":"fr-quartier-59599-429d4a38985c","properties":{"id":"fr-quartier-59599-429d4a38985c","kind":"quartier","name":"Chêne-Houplines","cityCode":"59599","cityName":"Tourcoing","sourceType":"iris","sourceIds":["595991203"],"colorIndex":6,"center":[3.175916619470743,50.731840645000005]},"geometry":{"type":"MultiPolygon","coordinates":[[[[3.17495711,50.72924352],[3.17270633,50.73044905],[3.173058,50.73075274],[3.1709569,50.73110649],[3.17160537,50.73179831],[3.17225991,50.73260318],[3.1738963,50.73521203],[3.17412869,50.73535887],[3.17330611,50.7358607],[3.17333356,50.73602846],[3.17532736,50.73566406],[3.17978497,50.73433778],[3.18026617,50.73407597],[3.18186952,50.73290805],[3.18078829,50.73222588],[3.18047305,50.7322398],[3.18035554,50.73219421],[3.18027161,50.73205076],[3.18026111,50.73188298],[3.17924228,50.73124558],[3.17888062,50.73092397],[3.178342,50.73053801],[3.17805824,50.73025666],[3.17781652,50.72986848],[3.17720945,50.72930853],[3.17659829,50.72959025],[3.17509585,50.72929806],[3.17495711,50.72924352]]]]},"bbox":[3.1709569,50.72924352,3.18186952,50.73602846]},{"type":"Feature","id":"fr-quartier-59599-131ced6cd9ce","properties":{"id":"fr-quartier-59599-131ced6cd9ce","kind":"quartier","name":"Clinquet","cityCode":"59599","cityName":"Tourcoing","sourceType":"iris","sourceIds":["595990202"],"colorIndex":7,"center":[3.1346423475504137,50.729492535]},"geometry":{"type":"MultiPolygon","coordinates":[[[[3.13148806,50.72313886],[3.12433897,50.72516695],[3.12791301,50.72697498],[3.13090829,50.72901771],[3.13077487,50.72935613],[3.13074589,50.72962894],[3.13089101,50.72997874],[3.13117024,50.73025122],[3.13146744,50.73036846],[3.13196369,50.73037331],[3.13230415,50.73027604],[3.13254696,50.73014029],[3.1334845,50.73074676],[3.13318389,50.73094539],[3.13475742,50.73198635],[3.13367064,50.73268831],[3.1343445,50.7330133],[3.13470821,50.73314212],[3.13525709,50.73272787],[3.13578105,50.73251644],[3.13989249,50.73048399],[3.13678308,50.72823074],[3.13486343,50.72672447],[3.13396543,50.72607669],[3.13349905,50.72559354],[3.13282805,50.72524521],[3.13225151,50.72479448],[3.13253987,50.7242504],[3.13289613,50.72373048],[3.13265003,50.72367691],[3.13238514,50.72346991],[3.13216451,50.72343066],[3.13148806,50.72313886]]]]},"bbox":[3.12433897,50.72313886,3.13989249,50.73314212]},{"type":"Feature","id":"fr-quartier-59599-47d337519167","properties":{"id":"fr-quartier-59599-47d337519167","kind":"quartier","name":"Colbert","cityCode":"59599","cityName":"Tourcoing","sourceType":"iris","sourceIds":["595991402"],"colorIndex":8,"center":[3.1779347595494,50.73699878]},"geometry":{"type":"MultiPolygon","coordinates":[[[[3.17532736,50.73566406],[3.17541526,50.73573302],[3.17561751,50.73615357],[3.17584934,50.7361353],[3.17612247,50.7362049],[3.1777064,50.73708827],[3.178026,50.73709948],[3.17891008,50.73680031],[3.17917287,50.7367443],[3.17947267,50.73675374],[3.18015748,50.73688106],[3.18011279,50.73703456],[3.18028378,50.73740041],[3.18041981,50.73747918],[3.18154818,50.73787324],[3.18222829,50.73786596],[3.18268144,50.73766341],[3.18279705,50.73756992],[3.18287987,50.7374047],[3.18330989,50.73745072],[3.18362304,50.73763062],[3.18301797,50.73805144],[3.18304807,50.73854849],[3.18370945,50.73921779],[3.18384255,50.73926605],[3.18492329,50.73937841],[3.18537617,50.73910137],[3.18477984,50.73844095],[3.18527266,50.73826076],[3.1860094,50.73789088],[3.18615448,50.73773991],[3.18632288,50.73777555],[3.18700175,50.73743805],[3.18656352,50.73708697],[3.18606252,50.736963],[3.18561557,50.73654463],[3.18546971,50.73648473],[3.18544527,50.73637709],[3.18556256,50.73635897],[3.18577142,50.73624829],[3.18452007,50.73547938],[3.18388698,50.73596037],[3.18284595,50.73663397],[3.18134962,50.73575413],[3.18060503,50.73512352],[3.18047911,50.73509947],[3.18014311,50.73485051],[3.18027112,50.73466638],[3.17978497,50.73433778],[3.17532736,50.73566406]]]]},"bbox":[3.17532736,50.73433778,3.18700175,50.73937841]},{"type":"Feature","id":"fr-quartier-59599-18a6ad33eeb0","properties":{"id":"fr-quartier-59599-18a6ad33eeb0","kind":"quartier","name":"Courbet","cityCode":"59599","cityName":"Tourcoing","sourceType":"iris","sourceIds":["595991103"],"colorIndex":9,"center":[3.1628362396916483,50.728109825000004]},"geometry":{"type":"MultiPolygon","coordinates":[[[[3.15838494,50.72739575],[3.15863885,50.72766731],[3.15882219,50.72797485],[3.15892342,50.7282448],[3.15892575,50.72853463],[3.15888329,50.72896539],[3.15863572,50.72980468],[3.15883695,50.73040023],[3.15911942,50.7307561],[3.16693943,50.72872872],[3.16696883,50.72864254],[3.16653308,50.72727025],[3.16606288,50.72701425],[3.16586724,50.72684672],[3.16385684,50.72550522],[3.15838494,50.72739575]]]]},"bbox":[3.15838494,50.72550522,3.16696883,50.7307561]},{"type":"Feature","id":"fr-quartier-59599-6a26bc16896b","properties":{"id":"fr-quartier-59599-6a26bc16896b","kind":"quartier","name":"Croix Rouge","cityCode":"59599","cityName":"Tourcoing","sourceType":"iris","sourceIds":["595991204"],"colorIndex":10,"center":[3.1805841619171122,50.729729365]},"geometry":{"type":"MultiPolygon","coordinates":[[[[3.17430866,50.72490328],[3.17491113,50.72578987],[3.1760807,50.72793726],[3.174268,50.72866035],[3.17495711,50.72924352],[3.17509585,50.72929806],[3.17659829,50.72959025],[3.17720945,50.72930853],[3.17781652,50.72986848],[3.17805824,50.73025666],[3.178342,50.73053801],[3.17888062,50.73092397],[3.17924228,50.73124558],[3.18026111,50.73188298],[3.18027161,50.73205076],[3.18035554,50.73219421],[3.18047305,50.7322398],[3.18078829,50.73222588],[3.18186952,50.73290805],[3.18286074,50.73216363],[3.18371348,50.7310596],[3.18378063,50.73086658],[3.18372403,50.73046647],[3.18199957,50.72472536],[3.18134845,50.72488155],[3.17994562,50.72473822],[3.17924164,50.72474103],[3.17787827,50.72496014],[3.17651942,50.72486068],[3.17552652,50.72470774],[3.17430866,50.72490328]]]]},"bbox":[3.174268,50.72470774,3.18378063,50.73290805]},{"type":"Feature","id":"fr-quartier-59599-437c87822b6e","properties":{"id":"fr-quartier-59599-437c87822b6e","kind":"quartier","name":"Descat","cityCode":"59599","cityName":"Tourcoing","sourceType":"iris","sourceIds":["595990603"],"colorIndex":11,"center":[3.156849731854148,50.70467605]},"geometry":{"type":"MultiPolygon","coordinates":[[[[3.14842891,50.6942007],[3.14820044,50.69433468],[3.14729495,50.69388529],[3.14682337,50.69349999],[3.14660203,50.69317182],[3.14459741,50.69318942],[3.14460637,50.69335721],[3.14665551,50.69503734],[3.14676633,50.69524719],[3.1472081,50.69558317],[3.14750812,50.69575511],[3.15198313,50.69969892],[3.15232259,50.69981696],[3.15443729,50.70150852],[3.15599399,50.70229265],[3.15612315,50.70247823],[3.1561721,50.70322296],[3.15627023,50.70569141],[3.15619464,50.70592122],[3.1563647,50.70607804],[3.15646786,50.7060788],[3.15651038,50.70612182],[3.15674062,50.70609102],[3.15682526,50.70604246],[3.15699237,50.70570754],[3.15710466,50.70501466],[3.15730173,50.70477482],[3.15781373,50.70447357],[3.1580144,50.7044796],[3.16022876,50.70495504],[3.15979962,50.70775258],[3.15968184,50.70892913],[3.16008251,50.70871774],[3.16025338,50.70868073],[3.16152003,50.70881907],[3.16192211,50.70904737],[3.16248762,50.70999241],[3.16256462,50.71020498],[3.16254353,50.71067431],[3.16221569,50.7119947],[3.16245704,50.71189478],[3.16342478,50.71135602],[3.16389846,50.71099916],[3.16404116,50.71098551],[3.16419956,50.71102209],[3.16551921,50.70793264],[3.16638551,50.70751691],[3.16507011,50.70672991],[3.16390104,50.70616794],[3.16285018,50.70544607],[3.16308187,50.7049953],[3.16146493,50.70487358],[3.16159963,50.70457728],[3.15995059,50.70369195],[3.15999394,50.70354922],[3.15923691,50.70321369],[3.15976857,50.70288548],[3.15977896,50.70259922],[3.15961337,50.70251418],[3.15930994,50.70218525],[3.1549239,50.69894242],[3.15190261,50.69597236],[3.15177107,50.69592316],[3.15070832,50.69487725],[3.14920248,50.69494099],[3.14842891,50.6942007]]]]},"bbox":[3.14459741,50.69317182,3.16638551,50.7119947]},{"type":"Feature","id":"fr-quartier-59599-63014c7cc14d","properties":{"id":"fr-quartier-59599-63014c7cc14d","kind":"quartier","name":"Égalité","cityCode":"59599","cityName":"Tourcoing","sourceType":"iris","sourceIds":["595991101"],"colorIndex":12,"center":[3.1650209901581663,50.732805535]},"geometry":{"type":"MultiPolygon","coordinates":[[[[3.16751297,50.73705845],[3.16875511,50.73683693],[3.16854423,50.73593723],[3.16801771,50.73282792],[3.1679497,50.73278315],[3.16799888,50.73269156],[3.16776531,50.73134055],[3.1659535,50.73197826],[3.16559273,50.73147626],[3.16412717,50.73208029],[3.16275435,50.73251818],[3.16110376,50.73319958],[3.16217336,50.73691747],[3.16230965,50.73796084],[3.16751297,50.73705845]]]]},"bbox":[3.16110376,50.73134055,3.16875511,50.73796084]},{"type":"Feature","id":"fr-quartier-59599-9ba55ee4f95d","properties":{"id":"fr-quartier-59599-9ba55ee4f95d","kind":"quartier","name":"Épidème","cityCode":"59599","cityName":"Tourcoing","sourceType":"iris","sourceIds":["595990701"],"colorIndex":13,"center":[3.168191595492602,50.713948]},"geometry":{"type":"MultiPolygon","coordinates":[[[[3.17737911,50.71732831],[3.17735634,50.71728527],[3.17718447,50.71704414],[3.17635799,50.71634451],[3.1762718,50.71635181],[3.17586446,50.71586873],[3.17472679,50.71508608],[3.17314077,50.71419726],[3.17371181,50.71380612],[3.17127241,50.71214587],[3.17277736,50.71045323],[3.172991,50.71052382],[3.17413521,50.70915739],[3.17401544,50.70885246],[3.17468968,50.7080843],[3.17559585,50.70777973],[3.17295467,50.70695699],[3.17214595,50.7064233],[3.16966184,50.70771708],[3.16871766,50.70849724],[3.16638551,50.70751691],[3.16551921,50.70793264],[3.16419956,50.71102209],[3.16404116,50.71098551],[3.16389846,50.71099916],[3.16342478,50.71135602],[3.16245704,50.71189478],[3.1623976,50.71230673],[3.16244342,50.71292762],[3.16269012,50.71360298],[3.16295599,50.71408988],[3.16328817,50.7145408],[3.16401799,50.71513476],[3.16405034,50.71508895],[3.16629282,50.71578588],[3.17240031,50.71710919],[3.17391507,50.71739691],[3.1740788,50.71733208],[3.17444954,50.7170489],[3.17511843,50.71755226],[3.17534765,50.71762282],[3.17576473,50.71765812],[3.17652073,50.71760591],[3.17688792,50.71752104],[3.17737911,50.71732831]]]]},"bbox":[3.1623976,50.7064233,3.17737911,50.71765812]},{"type":"Feature","id":"fr-quartier-59599-6366e29d0277","properties":{"id":"fr-quartier-59599-6366e29d0277","kind":"quartier","name":"Flocon","cityCode":"59599","cityName":"Tourcoing","sourceType":"iris","sourceIds":["595990403"],"colorIndex":14,"center":[3.145862619661339,50.712644925]},"geometry":{"type":"MultiPolygon","coordinates":[[[[3.15007392,50.70807696],[3.14960225,50.7086599],[3.15046172,50.7087459],[3.15071232,50.70890353],[3.15009489,50.70989044],[3.14691054,50.70878963],[3.14627256,50.71002241],[3.14462262,50.71417985],[3.14625525,50.71280863],[3.14875873,50.71108818],[3.14909842,50.71126275],[3.14859887,50.71150922],[3.14743531,50.71231729],[3.14662728,50.71292394],[3.14577997,50.71363831],[3.14787119,50.71443535],[3.15005088,50.71501869],[3.15196321,50.71597202],[3.15348755,50.7152837],[3.15353666,50.71655155],[3.15407849,50.71671329],[3.1541636,50.71681279],[3.15418236,50.71693929],[3.15558991,50.71642068],[3.15576226,50.71639175],[3.15574734,50.71614052],[3.15614332,50.71349382],[3.15593849,50.71307144],[3.15606419,50.71304257],[3.15576283,50.71248122],[3.15529997,50.71179445],[3.15505442,50.71145288],[3.15449199,50.71100851],[3.15277173,50.70996614],[3.15290688,50.70979638],[3.15007392,50.70807696]]]]},"bbox":[3.14462262,50.70807696,3.15614332,50.71693929]},{"type":"Feature","id":"fr-quartier-59599-7cfc429312fc","properties":{"id":"fr-quartier-59599-7cfc429312fc","kind":"quartier","name":"Gambetta","cityCode":"59599","cityName":"Tourcoing","sourceType":"iris","sourceIds":["595990501"],"colorIndex":15,"center":[3.1554364195265263,50.7069372]},"geometry":{"type":"MultiPolygon","coordinates":[[[[3.15242125,50.70438608],[3.1517303,50.70533092],[3.15209381,50.70544354],[3.15007392,50.70807696],[3.15290688,50.70979638],[3.15277173,50.70996614],[3.15449199,50.71100851],[3.15505442,50.71145288],[3.15529997,50.71179445],[3.15576283,50.71248122],[3.15606419,50.71304257],[3.15593849,50.71307144],[3.15614332,50.71349382],[3.15574734,50.71614052],[3.15576226,50.71639175],[3.15661521,50.71751591],[3.15866002,50.71693814],[3.15842135,50.7165526],[3.15852005,50.71558516],[3.15910092,50.71201308],[3.15968184,50.70892913],[3.15979962,50.70775258],[3.16022876,50.70495504],[3.1580144,50.7044796],[3.15781373,50.70447357],[3.15730173,50.70477482],[3.15710466,50.70501466],[3.15699237,50.70570754],[3.15682526,50.70604246],[3.15674062,50.70609102],[3.15651038,50.70612182],[3.15646786,50.7060788],[3.1563647,50.70607804],[3.15619464,50.70592122],[3.15503916,50.70423388],[3.15487127,50.70431754],[3.15417527,50.70498423],[3.15242125,50.70438608]]]]},"bbox":[3.15007392,50.70423388,3.16022876,50.71751591]},{"type":"Feature","id":"fr-quartier-59599-6de535fecbba","properties":{"id":"fr-quartier-59599-6de535fecbba","kind":"quartier","name":"Gare","cityCode":"59599","cityName":"Tourcoing","sourceType":"iris","sourceIds":["595990503"],"colorIndex":16,"center":[3.1650426623419716,50.719568269999996]},"geometry":{"type":"MultiPolygon","coordinates":[[[[3.17148286,50.71789471],[3.17240031,50.71710919],[3.16629282,50.71578588],[3.16405034,50.71508895],[3.16401799,50.71513476],[3.16289975,50.71678909],[3.16128131,50.71719948],[3.16106227,50.71721322],[3.1608859,50.71730677],[3.16011885,50.71876949],[3.15997797,50.71891683],[3.16030879,50.71937942],[3.16040513,50.71945198],[3.16062163,50.71952348],[3.1606294,50.71974331],[3.16073599,50.71992533],[3.15898647,50.72049019],[3.15896729,50.72068135],[3.15905956,50.72080596],[3.15942113,50.72115903],[3.15963925,50.72129514],[3.16059166,50.72031675],[3.16082931,50.71993508],[3.1612446,50.7198493],[3.16202253,50.72088199],[3.16233583,50.72116334],[3.16409248,50.72062085],[3.16561859,50.72004814],[3.16721901,50.71973014],[3.16831572,50.7196838],[3.16886957,50.71961306],[3.16916025,50.71988724],[3.16921923,50.71977141],[3.16982531,50.7192645],[3.16999886,50.71917542],[3.17001986,50.71911348],[3.1710912,50.71826674],[3.17148286,50.71789471]]]]},"bbox":[3.15896729,50.71508895,3.17240031,50.72129514]},{"type":"Feature","id":"fr-quartier-59599-818b64977a6d","properties":{"id":"fr-quartier-59599-818b64977a6d","kind":"quartier","name":"Hippodrome","cityCode":"59599","cityName":"Tourcoing","sourceType":"iris","sourceIds":["595990303"],"colorIndex":17,"center":[3.1437398226944446,50.727085349999996]},"geometry":{"type":"MultiPolygon","coordinates":[[[[3.14881477,50.72758971],[3.1476891,50.72650622],[3.14836389,50.72618777],[3.14760689,50.72547352],[3.14724956,50.72558251],[3.14692053,50.72521949],[3.1468271,50.72517653],[3.14598646,50.72436725],[3.14544631,50.72480218],[3.14461927,50.72526885],[3.14270775,50.72566677],[3.14131011,50.72633147],[3.14010671,50.72670342],[3.13827103,50.72746728],[3.13697358,50.72810132],[3.13678308,50.72823074],[3.13989249,50.73048399],[3.13993034,50.73036909],[3.14016898,50.73026833],[3.14115231,50.73003212],[3.14233798,50.72986029],[3.14598677,50.72884121],[3.14725492,50.72837043],[3.14761487,50.72818247],[3.14881477,50.72758971]]]]},"bbox":[3.13678308,50.72436725,3.14881477,50.73048399]},{"type":"Feature","id":"fr-quartier-59599-9cc2bce14ac6","properties":{"id":"fr-quartier-59599-9cc2bce14ac6","kind":"quartier","name":"Hôpital Dron","cityCode":"59599","cityName":"Tourcoing","sourceType":"iris","sourceIds":["595991401"],"colorIndex":18,"center":[3.182656457962918,50.742327939999996]},"geometry":{"type":"MultiPolygon","coordinates":[[[[3.17495783,50.74605155],[3.17606274,50.7469724],[3.17775255,50.74810595],[3.17816336,50.74829199],[3.18063675,50.74863029],[3.1809458,50.74844141],[3.18113507,50.74837115],[3.18196362,50.74831162],[3.18294811,50.74835055],[3.18271201,50.74876095],[3.18423049,50.74901444],[3.18430816,50.74859799],[3.18541353,50.7480517],[3.18583375,50.74771818],[3.18597552,50.74743084],[3.18627012,50.7471666],[3.18628657,50.74664436],[3.18600413,50.74599426],[3.18573143,50.74567972],[3.18588626,50.74471761],[3.18579385,50.74458674],[3.18553892,50.74448573],[3.18610966,50.74356427],[3.18644212,50.74284056],[3.18640034,50.74263335],[3.18655404,50.74251468],[3.18657168,50.74231545],[3.18678577,50.74208632],[3.18743423,50.74078608],[3.18802596,50.74020554],[3.18975247,50.73944292],[3.18813398,50.73847002],[3.18677992,50.73937922],[3.18527266,50.73826076],[3.18477984,50.73844095],[3.18537617,50.73910137],[3.18492329,50.73937841],[3.18492156,50.74006035],[3.1844,50.74012124],[3.18337133,50.74071766],[3.18339457,50.74127035],[3.18421094,50.74216015],[3.18415164,50.74218626],[3.18385213,50.74226387],[3.1835355,50.74229754],[3.18315778,50.74225682],[3.18307879,50.74231346],[3.18290903,50.74229487],[3.18287483,50.74222403],[3.18291277,50.74215848],[3.18310082,50.74215012],[3.18192459,50.74145825],[3.18184783,50.7413471],[3.18181349,50.74084736],[3.18172213,50.74061151],[3.18151935,50.74045478],[3.18112705,50.74028666],[3.18007842,50.741242],[3.17977373,50.7414515],[3.17977681,50.74152149],[3.17967505,50.74153779],[3.17956812,50.74168779],[3.17872623,50.74234043],[3.17868271,50.74243201],[3.17874101,50.74252166],[3.17972438,50.74306848],[3.17926286,50.74332218],[3.17764898,50.74442366],[3.17769027,50.74450077],[3.17764519,50.74455108],[3.17756042,50.74457364],[3.17746134,50.74454865],[3.17627615,50.74532379],[3.17495783,50.74605155]]]]},"bbox":[3.17495783,50.73826076,3.18975247,50.74901444]},{"type":"Feature","id":"fr-quartier-59599-6707bc0f6f74","properties":{"id":"fr-quartier-59599-6707bc0f6f74","kind":"quartier","name":"Hôtel de Ville","cityCode":"59599","cityName":"Tourcoing","sourceType":"iris","sourceIds":["595990902"],"colorIndex":19,"center":[3.157955946459989,50.721161185]},"geometry":{"type":"MultiPolygon","coordinates":[[[[3.15866002,50.71693814],[3.15661521,50.71751591],[3.15499572,50.7180653],[3.15477246,50.71808532],[3.15453349,50.71805242],[3.15497024,50.71896624],[3.15521718,50.71928807],[3.15520895,50.71937063],[3.15533219,50.71945752],[3.15568605,50.72007084],[3.15655764,50.72125689],[3.15714206,50.72191119],[3.15715837,50.72215165],[3.15751478,50.72221401],[3.15774848,50.72236266],[3.15839105,50.72306624],[3.15809897,50.7232362],[3.15919841,50.72402263],[3.15788577,50.72466319],[3.15746492,50.72434249],[3.15741721,50.72445471],[3.15713398,50.7247431],[3.15647815,50.72522489],[3.15711833,50.72606306],[3.15838494,50.72739575],[3.16385684,50.72550522],[3.16637163,50.7246279],[3.16624211,50.72436158],[3.1659698,50.72409275],[3.16518239,50.72365411],[3.16422763,50.72304431],[3.16267245,50.7225322],[3.16521727,50.72222645],[3.16469105,50.72168338],[3.16409248,50.72062085],[3.16233583,50.72116334],[3.16202253,50.72088199],[3.1612446,50.7198493],[3.16082931,50.71993508],[3.16059166,50.72031675],[3.15963925,50.72129514],[3.15942113,50.72115903],[3.15905956,50.72080596],[3.15896729,50.72068135],[3.15898647,50.72049019],[3.16073599,50.71992533],[3.1606294,50.71974331],[3.16062163,50.71952348],[3.16040513,50.71945198],[3.16030879,50.71937942],[3.15997797,50.71891683],[3.15866002,50.71693814]]]]},"bbox":[3.15453349,50.71693814,3.16637163,50.72739575]},{"type":"Feature","id":"fr-quartier-59599-f4c2717dccb3","properties":{"id":"fr-quartier-59599-f4c2717dccb3","kind":"quartier","name":"La Baille","cityCode":"59599","cityName":"Tourcoing","sourceType":"iris","sourceIds":["595991003"],"colorIndex":20,"center":[3.156190728528426,50.73173056]},"geometry":{"type":"MultiPolygon","coordinates":[[[[3.16023573,50.73189872],[3.15911942,50.7307561],[3.15883695,50.73040023],[3.15863572,50.72980468],[3.15888329,50.72896539],[3.15892575,50.72853463],[3.15533801,50.72999997],[3.1553777,50.73003491],[3.15406081,50.73073824],[3.1540554,50.730819],[3.15422697,50.7309803],[3.15235587,50.73169865],[3.15226416,50.73176247],[3.1518128,50.73257777],[3.15276587,50.73308716],[3.15324108,50.73313862],[3.15339113,50.73319586],[3.15517236,50.73449025],[3.15782539,50.73287088],[3.15733726,50.7323089],[3.15792052,50.73210268],[3.15837867,50.73257138],[3.16023573,50.73189872]]]]},"bbox":[3.1518128,50.72853463,3.16023573,50.73449025]},{"type":"Feature","id":"fr-quartier-59599-e98e60267729","properties":{"id":"fr-quartier-59599-e98e60267729","kind":"quartier","name":"Les Francs","cityCode":"59599","cityName":"Tourcoing","sourceType":"iris","sourceIds":["595990301"],"colorIndex":21,"center":[3.1373059609157723,50.71987208]},"geometry":{"type":"MultiPolygon","coordinates":[[[[3.13895287,50.71691596],[3.13791694,50.71643525],[3.13675614,50.71576803],[3.13586957,50.71614588],[3.13470958,50.71576847],[3.13342269,50.71549797],[3.1333221,50.71540655],[3.1332077,50.71543808],[3.13304926,50.71591562],[3.13328186,50.71621867],[3.13330435,50.7167023],[3.13361006,50.7168581],[3.1336759,50.71716671],[3.13298717,50.7180836],[3.13285202,50.71881865],[3.13178966,50.71957083],[3.1320605,50.71989806],[3.13292878,50.72058179],[3.13303965,50.72081407],[3.13293634,50.72130142],[3.13458137,50.72223555],[3.13148806,50.72313886],[3.13216451,50.72343066],[3.13238514,50.72346991],[3.13265003,50.72367691],[3.13289613,50.72373048],[3.13253987,50.7242504],[3.13225151,50.72479448],[3.13282805,50.72524521],[3.13349905,50.72559354],[3.13396543,50.72607669],[3.13365529,50.72534213],[3.13391261,50.724825],[3.13402465,50.72443545],[3.13422939,50.7243473],[3.13755405,50.72377477],[3.14023102,50.72363808],[3.1428642,50.72302402],[3.14449087,50.72289921],[3.14427641,50.72205599],[3.14255266,50.7198461],[3.14132234,50.71813364],[3.14122323,50.71807453],[3.14101974,50.71808822],[3.14088393,50.71804799],[3.14076475,50.71788661],[3.14043761,50.71765816],[3.13895287,50.71691596]]]]},"bbox":[3.13148806,50.71540655,3.14449087,50.72607669]},{"type":"Feature","id":"fr-quartier-59599-56f9c470f335","properties":{"id":"fr-quartier-59599-56f9c470f335","kind":"quartier","name":"Malcense","cityCode":"59599","cityName":"Tourcoing","sourceType":"iris","sourceIds":["595991102"],"colorIndex":22,"center":[3.163590176192809,50.731101475]},"geometry":{"type":"MultiPolygon","coordinates":[[[[3.16023573,50.73189872],[3.16110376,50.73319958],[3.16275435,50.73251818],[3.16412717,50.73208029],[3.16559273,50.73147626],[3.1659535,50.73197826],[3.16776531,50.73134055],[3.16768171,50.7308624],[3.16761649,50.73080596],[3.16765015,50.73072605],[3.16701452,50.72877797],[3.16693943,50.72872872],[3.15911942,50.7307561],[3.16023573,50.73189872]]]]},"bbox":[3.15911942,50.72872872,3.16776531,50.73319958]},{"type":"Feature","id":"fr-quartier-59599-22b0bbe975fa","properties":{"id":"fr-quartier-59599-22b0bbe975fa","kind":"quartier","name":"Maraîchers","cityCode":"59599","cityName":"Tourcoing","sourceType":"iris","sourceIds":["595991005"],"colorIndex":23,"center":[3.1573250511506297,50.73542085]},"geometry":{"type":"MultiPolygon","coordinates":[[[[3.16110376,50.73319958],[3.16023573,50.73189872],[3.15837867,50.73257138],[3.15792052,50.73210268],[3.15733726,50.7323089],[3.15782539,50.73287088],[3.15517236,50.73449025],[3.15484195,50.73463243],[3.15415598,50.73502002],[3.15286904,50.73539308],[3.15294557,50.73544862],[3.15255047,50.73664071],[3.1541616,50.7368451],[3.154224,50.73690694],[3.15415623,50.73694022],[3.15577026,50.73716074],[3.15603036,50.73713977],[3.15648292,50.73716612],[3.16230965,50.73796084],[3.16217336,50.73691747],[3.16110376,50.73319958]]]]},"bbox":[3.15255047,50.73189872,3.16230965,50.73796084]},{"type":"Feature","id":"fr-quartier-59599-7b2b7c710bf6","properties":{"id":"fr-quartier-59599-7b2b7c710bf6","kind":"quartier","name":"Marlière","cityCode":"59599","cityName":"Tourcoing","sourceType":"iris","sourceIds":["595991301"],"colorIndex":24,"center":[3.191088252426881,50.73529624]},"geometry":{"type":"MultiPolygon","coordinates":[[[[3.18975247,50.73944292],[3.18994091,50.73954133],[3.19036623,50.73945993],[3.1905987,50.73960942],[3.19090478,50.73940706],[3.19154661,50.73936928],[3.19171276,50.73955656],[3.19183297,50.73955907],[3.19264452,50.73916301],[3.19266411,50.73874125],[3.19303674,50.7385675],[3.19342857,50.73823848],[3.19405141,50.73804818],[3.19469587,50.73796463],[3.19571413,50.73765077],[3.19675727,50.7371933],[3.19467036,50.735402],[3.19334156,50.73364627],[3.19322754,50.73341136],[3.19321873,50.73259214],[3.19300715,50.7316189],[3.1925074,50.73034013],[3.19222604,50.72996818],[3.19172693,50.72958491],[3.19020826,50.72876531],[3.18928149,50.7278111],[3.1885174,50.72725324],[3.18660235,50.72624935],[3.18510876,50.7252789],[3.18463337,50.72440294],[3.18450633,50.72445158],[3.18199957,50.72472536],[3.18372403,50.73046647],[3.18378063,50.73086658],[3.18371348,50.7310596],[3.18518444,50.73160656],[3.18566465,50.7318553],[3.18689102,50.73352961],[3.18750379,50.73519048],[3.18807636,50.73592539],[3.18859269,50.73636608],[3.18968221,50.73694407],[3.18966124,50.73738198],[3.18960786,50.73747359],[3.18813398,50.73847002],[3.18975247,50.73944292]]]]},"bbox":[3.18199957,50.72440294,3.19675727,50.73960942]},{"type":"Feature","id":"fr-quartier-59599-63f82587834c","properties":{"id":"fr-quartier-59599-63f82587834c","kind":"quartier","name":"Menin","cityCode":"59599","cityName":"Tourcoing","sourceType":"iris","sourceIds":["595991002"],"colorIndex":25,"center":[3.1533214414672415,50.728104880000004]},"geometry":{"type":"MultiPolygon","coordinates":[[[[3.15892575,50.72853463],[3.15892342,50.7282448],[3.15882219,50.72797485],[3.15863885,50.72766731],[3.15838494,50.72739575],[3.15637804,50.72802729],[3.15615603,50.72800963],[3.15485288,50.72719022],[3.15387305,50.72622415],[3.15206606,50.7247171],[3.15069386,50.72486054],[3.15090584,50.72577733],[3.15088526,50.72598374],[3.15100022,50.72613435],[3.15109229,50.72666544],[3.14987773,50.72706621],[3.14881477,50.72758971],[3.14761487,50.72818247],[3.14832261,50.72895869],[3.14968811,50.73031915],[3.14964291,50.73033356],[3.14990241,50.73059078],[3.15071537,50.73107254],[3.15120429,50.73145779],[3.15206806,50.7309695],[3.15235587,50.73169865],[3.15422697,50.7309803],[3.1540554,50.730819],[3.15406081,50.73073824],[3.1553777,50.73003491],[3.15533801,50.72999997],[3.15892575,50.72853463]]]]},"bbox":[3.14761487,50.7247171,3.15892575,50.73169865]},{"type":"Feature","id":"fr-quartier-59599-5b210edcf111","properties":{"id":"fr-quartier-59599-5b210edcf111","kind":"quartier","name":"Nationale","cityCode":"59599","cityName":"Tourcoing","sourceType":"iris","sourceIds":["595990901"],"colorIndex":26,"center":[3.152254298718759,50.724335605]},"geometry":{"type":"MultiPolygon","coordinates":[[[[3.14594394,50.72432872],[3.14598646,50.72436725],[3.1468271,50.72517653],[3.14692053,50.72521949],[3.14724956,50.72558251],[3.14760689,50.72547352],[3.14836389,50.72618777],[3.1476891,50.72650622],[3.14881477,50.72758971],[3.14987773,50.72706621],[3.15109229,50.72666544],[3.15100022,50.72613435],[3.15088526,50.72598374],[3.15090584,50.72577733],[3.15069386,50.72486054],[3.15206606,50.7247171],[3.15387305,50.72622415],[3.15485288,50.72719022],[3.15615603,50.72800963],[3.15637804,50.72802729],[3.15838494,50.72739575],[3.15711833,50.72606306],[3.15647815,50.72522489],[3.15713398,50.7247431],[3.15741721,50.72445471],[3.15746492,50.72434249],[3.15788577,50.72466319],[3.15919841,50.72402263],[3.15809897,50.7232362],[3.15839105,50.72306624],[3.15774848,50.72236266],[3.15751478,50.72221401],[3.15715837,50.72215165],[3.15714206,50.72191119],[3.15655764,50.72125689],[3.15568605,50.72007084],[3.15533219,50.71945752],[3.15520895,50.71937063],[3.15521718,50.71928807],[3.15497024,50.71896624],[3.15453349,50.71805242],[3.15355632,50.71789301],[3.15073789,50.71975928],[3.14969879,50.72016702],[3.14942191,50.72022389],[3.15028326,50.72181558],[3.15065744,50.72214982],[3.15069613,50.72232385],[3.15061374,50.72266044],[3.15028587,50.72268507],[3.1483523,50.72322487],[3.14745431,50.72358217],[3.14594394,50.72432872]]]]},"bbox":[3.14594394,50.71789301,3.15919841,50.72802729]},{"type":"Feature","id":"fr-quartier-59599-d701c3113145","properties":{"id":"fr-quartier-59599-d701c3113145","kind":"quartier","name":"Orions","cityCode":"59599","cityName":"Tourcoing","sourceType":"iris","sourceIds":["595990101"],"colorIndex":27,"center":[3.1373947536698545,50.73651248]},"geometry":{"type":"MultiPolygon","coordinates":[[[[3.13281867,50.73557223],[3.13401508,50.73618649],[3.13465445,50.73628629],[3.13507798,50.73656669],[3.13543056,50.73727606],[3.13639116,50.7385034],[3.13637749,50.73867839],[3.13676499,50.73921813],[3.13700542,50.73923401],[3.13715803,50.73919436],[3.1373005,50.73906679],[3.13865082,50.73853051],[3.13845645,50.73829564],[3.13846884,50.73817359],[3.13888713,50.73757105],[3.13966007,50.73688106],[3.13981302,50.73645827],[3.14057449,50.73572432],[3.14217561,50.73492033],[3.14383077,50.73424456],[3.14479405,50.73389978],[3.13989249,50.73048399],[3.13578105,50.73251644],[3.13525709,50.73272787],[3.13470821,50.73314212],[3.13352403,50.73444089],[3.13281867,50.73557223]]]]},"bbox":[3.13281867,50.73048399,3.14479405,50.73923401]},{"type":"Feature","id":"fr-quartier-59599-a18e8d6644a0","properties":{"id":"fr-quartier-59599-a18e8d6644a0","kind":"quartier","name":"Petit Village","cityCode":"59599","cityName":"Tourcoing","sourceType":"iris","sourceIds":["595990401"],"colorIndex":28,"center":[3.1457667266622527,50.720034995]},"geometry":{"type":"MultiPolygon","coordinates":[[[[3.14449087,50.72289921],[3.1447164,50.72316814],[3.14594394,50.72432872],[3.14745431,50.72358217],[3.1483523,50.72322487],[3.15028587,50.72268507],[3.15061374,50.72266044],[3.15069613,50.72232385],[3.15065744,50.72214982],[3.15028326,50.72181558],[3.14942191,50.72022389],[3.14739163,50.71957217],[3.14711055,50.71819781],[3.14686473,50.71823759],[3.14609723,50.71872304],[3.14440516,50.71768323],[3.14175163,50.71799317],[3.14140098,50.71795139],[3.14125424,50.71804309],[3.14122323,50.71807453],[3.14132234,50.71813364],[3.14255266,50.7198461],[3.14427641,50.72205599],[3.14449087,50.72289921]]]]},"bbox":[3.14122323,50.71768323,3.15069613,50.72432872]},{"type":"Feature","id":"fr-quartier-59599-9369e50c7dba","properties":{"id":"fr-quartier-59599-9369e50c7dba","kind":"quartier","name":"Phalempins","cityCode":"59599","cityName":"Tourcoing","sourceType":"iris","sourceIds":["595991004"],"colorIndex":29,"center":[3.1501405770471074,50.73316724]},"geometry":{"type":"MultiPolygon","coordinates":[[[[3.15255047,50.73664071],[3.15294557,50.73544862],[3.15286904,50.73539308],[3.15415598,50.73502002],[3.15484195,50.73463243],[3.15517236,50.73449025],[3.15339113,50.73319586],[3.15324108,50.73313862],[3.15276587,50.73308716],[3.1518128,50.73257777],[3.15226416,50.73176247],[3.15235587,50.73169865],[3.15206806,50.7309695],[3.15120429,50.73145779],[3.15064243,50.73173573],[3.14773483,50.7329075],[3.14479405,50.73389978],[3.14693051,50.73537511],[3.14971854,50.73624575],[3.15255047,50.73664071]]]]},"bbox":[3.14479405,50.7309695,3.15517236,50.73664071]},{"type":"Feature","id":"fr-quartier-59599-09868f53c185","properties":{"id":"fr-quartier-59599-09868f53c185","kind":"quartier","name":"Piats","cityCode":"59599","cityName":"Tourcoing","sourceType":"iris","sourceIds":["595991202"],"colorIndex":30,"center":[3.1722840824540377,50.72662777]},"geometry":{"type":"MultiPolygon","coordinates":[[[[3.1709569,50.73110649],[3.173058,50.73075274],[3.17270633,50.73044905],[3.17495711,50.72924352],[3.174268,50.72866035],[3.1760807,50.72793726],[3.17491113,50.72578987],[3.17430866,50.72490328],[3.17382793,50.72487613],[3.1731797,50.72464912],[3.17293464,50.7245032],[3.1727274,50.72425583],[3.16973957,50.72483422],[3.16923075,50.72611447],[3.16928898,50.72619425],[3.16914776,50.72623662],[3.16912677,50.72630215],[3.16927458,50.72695339],[3.16934658,50.72776266],[3.16966698,50.72844687],[3.17052608,50.72956104],[3.1706751,50.73055953],[3.1709569,50.73110649]]]]},"bbox":[3.16912677,50.72425583,3.1760807,50.73110649]},{"type":"Feature","id":"fr-quartier-59599-459e52366161","properties":{"id":"fr-quartier-59599-459e52366161","kind":"quartier","name":"Point Central","cityCode":"59599","cityName":"Tourcoing","sourceType":"iris","sourceIds":["595990502"],"colorIndex":31,"center":[3.1607320307865168,50.7132653]},"geometry":{"type":"MultiPolygon","coordinates":[[[[3.15968184,50.70892913],[3.15910092,50.71201308],[3.15852005,50.71558516],[3.15842135,50.7165526],[3.15866002,50.71693814],[3.15997797,50.71891683],[3.16011885,50.71876949],[3.1608859,50.71730677],[3.16106227,50.71721322],[3.16128131,50.71719948],[3.16289975,50.71678909],[3.16401799,50.71513476],[3.16328817,50.7145408],[3.16295599,50.71408988],[3.16269012,50.71360298],[3.16244342,50.71292762],[3.1623976,50.71230673],[3.16245704,50.71189478],[3.16221569,50.7119947],[3.16254353,50.71067431],[3.16256462,50.71020498],[3.16248762,50.70999241],[3.16192211,50.70904737],[3.16152003,50.70881907],[3.16025338,50.70868073],[3.16008251,50.70871774],[3.15968184,50.70892913]]]]},"bbox":[3.15842135,50.70868073,3.16401799,50.71891683]},{"type":"Feature","id":"fr-quartier-59599-2dbf1d53ef71","properties":{"id":"fr-quartier-59599-2dbf1d53ef71","kind":"quartier","name":"Pont de Neuville","cityCode":"59599","cityName":"Tourcoing","sourceType":"iris","sourceIds":["595991501"],"colorIndex":32,"center":[3.160057890579579,50.739078430000006]},"geometry":{"type":"MultiPolygon","coordinates":[[[[3.15401182,50.74009795],[3.15563405,50.74019733],[3.15626595,50.74059224],[3.1564056,50.7404817],[3.15800621,50.74134286],[3.15861965,50.7408082],[3.1590926,50.74101128],[3.15945586,50.74096326],[3.15982548,50.74113237],[3.16064397,50.7406091],[3.16181207,50.74107058],[3.1621665,50.74135097],[3.16274286,50.74160595],[3.16443172,50.74216543],[3.1663691,50.74090127],[3.16471718,50.74038842],[3.16421448,50.74017105],[3.16382202,50.73993648],[3.16538391,50.73888817],[3.16561134,50.73881699],[3.16661892,50.73863349],[3.16688847,50.73847521],[3.16798642,50.73825479],[3.16809474,50.73808775],[3.16804563,50.73778094],[3.16786072,50.73745548],[3.16766206,50.73724309],[3.16751188,50.73715625],[3.16751297,50.73705845],[3.16230965,50.73796084],[3.15648292,50.73716612],[3.15603036,50.73713977],[3.15577026,50.73716074],[3.15556125,50.73724355],[3.1554204,50.73742049],[3.15543277,50.73821996],[3.15527035,50.738737],[3.15487324,50.73926869],[3.15401182,50.74009795]]]]},"bbox":[3.15401182,50.73705845,3.16809474,50.74216543]},{"type":"Feature","id":"fr-quartier-59599-cbc3e3693bfe","properties":{"id":"fr-quartier-59599-cbc3e3693bfe","kind":"quartier","name":"Pont Rompu","cityCode":"59599","cityName":"Tourcoing","sourceType":"iris","sourceIds":["595990102"],"colorIndex":33,"center":[3.1402858116286447,50.73854033]},"geometry":{"type":"MultiPolygon","coordinates":[[[[3.13676499,50.73921813],[3.13729877,50.73998382],[3.13861829,50.74108064],[3.1404392,50.74042358],[3.14022612,50.74007746],[3.14029012,50.73970412],[3.14042099,50.73947606],[3.14082611,50.73922347],[3.14192715,50.73855015],[3.14218128,50.73841437],[3.14226754,50.73841606],[3.14339816,50.7391981],[3.14486958,50.73948442],[3.1451286,50.73957205],[3.14619845,50.74034067],[3.14746272,50.73941408],[3.14770152,50.73839627],[3.14865752,50.73748798],[3.14971854,50.73624575],[3.14693051,50.73537511],[3.14479405,50.73389978],[3.14383077,50.73424456],[3.14217561,50.73492033],[3.14057449,50.73572432],[3.13981302,50.73645827],[3.13966007,50.73688106],[3.13888713,50.73757105],[3.13846884,50.73817359],[3.13845645,50.73829564],[3.13865082,50.73853051],[3.1373005,50.73906679],[3.13715803,50.73919436],[3.13700542,50.73923401],[3.13676499,50.73921813]]]]},"bbox":[3.13676499,50.73389978,3.14971854,50.74108064]},{"type":"Feature","id":"fr-quartier-59599-95f29777f904","properties":{"id":"fr-quartier-59599-95f29777f904","kind":"quartier","name":"Rue des Villas","cityCode":"59599","cityName":"Tourcoing","sourceType":"iris","sourceIds":["595990601"],"colorIndex":34,"center":[3.1537153990606157,50.69576685]},"geometry":{"type":"MultiPolygon","coordinates":[[[[3.15414964,50.6934283],[3.15211162,50.69361477],[3.15162821,50.69306349],[3.15026292,50.69333884],[3.14982825,50.69349012],[3.14916507,50.69376371],[3.14910986,50.69372429],[3.14842891,50.6942007],[3.14920248,50.69494099],[3.15070832,50.69487725],[3.15177107,50.69592316],[3.15190261,50.69597236],[3.1549239,50.69894242],[3.15930994,50.70218525],[3.15961337,50.70251418],[3.15977896,50.70259922],[3.15983459,50.70187769],[3.15913991,50.70069948],[3.15667043,50.69945621],[3.15459022,50.69795038],[3.15643115,50.6970292],[3.15637691,50.69640023],[3.15568076,50.69561054],[3.15527411,50.69431797],[3.15414964,50.6934283]]]]},"bbox":[3.14842891,50.69306349,3.15983459,50.70259922]},{"type":"Feature","id":"fr-quartier-59599-dd9dc8e4c9cc","properties":{"id":"fr-quartier-59599-dd9dc8e4c9cc","kind":"quartier","name":"Schweitzer","cityCode":"59599","cityName":"Tourcoing","sourceType":"iris","sourceIds":["595991403"],"colorIndex":35,"center":[3.1793672819318495,50.73924192]},"geometry":{"type":"MultiPolygon","coordinates":[[[[3.16979233,50.73665157],[3.17083871,50.73708264],[3.17461123,50.73912142],[3.17475141,50.73917596],[3.1749197,50.73918111],[3.17503486,50.7393613],[3.17529965,50.73946412],[3.17626727,50.73998497],[3.17962663,50.74144364],[3.17961412,50.74150378],[3.17967505,50.74153779],[3.17977681,50.74152149],[3.17977373,50.7414515],[3.18007842,50.741242],[3.18112705,50.74028666],[3.18151935,50.74045478],[3.18172213,50.74061151],[3.18181349,50.74084736],[3.18184783,50.7413471],[3.18192459,50.74145825],[3.18310082,50.74215012],[3.18291277,50.74215848],[3.18287483,50.74222403],[3.18290903,50.74229487],[3.18307879,50.74231346],[3.18315778,50.74225682],[3.1835355,50.74229754],[3.18385213,50.74226387],[3.18415164,50.74218626],[3.18421094,50.74216015],[3.18339457,50.74127035],[3.18337133,50.74071766],[3.1844,50.74012124],[3.18492156,50.74006035],[3.18492329,50.73937841],[3.18384255,50.73926605],[3.18370945,50.73921779],[3.18304807,50.73854849],[3.18301797,50.73805144],[3.18362304,50.73763062],[3.18330989,50.73745072],[3.18287987,50.7374047],[3.18279705,50.73756992],[3.18268144,50.73766341],[3.18222829,50.73786596],[3.18154818,50.73787324],[3.18041981,50.73747918],[3.18028378,50.73740041],[3.18011279,50.73703456],[3.18015748,50.73688106],[3.17947267,50.73675374],[3.17917287,50.7367443],[3.17891008,50.73680031],[3.178026,50.73709948],[3.1777064,50.73708827],[3.17612247,50.7362049],[3.17584934,50.7361353],[3.17561751,50.73615357],[3.17541526,50.73573302],[3.17532736,50.73566406],[3.17333356,50.73602846],[3.16979233,50.73665157]]]]},"bbox":[3.16979233,50.73566406,3.18492329,50.74231346]},{"type":"Feature","id":"fr-quartier-59599-4b6a855fac27","properties":{"id":"fr-quartier-59599-4b6a855fac27","kind":"quartier","name":"Testelin","cityCode":"59599","cityName":"Tourcoing","sourceType":"iris","sourceIds":["595991302"],"colorIndex":36,"center":[3.1828203136133064,50.736303629999995]},"geometry":{"type":"MultiPolygon","coordinates":[[[[3.18186952,50.73290805],[3.18026617,50.73407597],[3.17978497,50.73433778],[3.18027112,50.73466638],[3.18014311,50.73485051],[3.18047911,50.73509947],[3.18060503,50.73512352],[3.18134962,50.73575413],[3.18284595,50.73663397],[3.18388698,50.73596037],[3.18452007,50.73547938],[3.18577142,50.73624829],[3.18556256,50.73635897],[3.18544527,50.73637709],[3.18546971,50.73648473],[3.18561557,50.73654463],[3.18606252,50.736963],[3.18656352,50.73708697],[3.18700175,50.73743805],[3.18632288,50.73777555],[3.18615448,50.73773991],[3.1860094,50.73789088],[3.18527266,50.73826076],[3.18677992,50.73937922],[3.18813398,50.73847002],[3.18960786,50.73747359],[3.18966124,50.73738198],[3.18968221,50.73694407],[3.18859269,50.73636608],[3.18807636,50.73592539],[3.18750379,50.73519048],[3.18689102,50.73352961],[3.18566465,50.7318553],[3.18518444,50.73160656],[3.18371348,50.7310596],[3.18286074,50.73216363],[3.18186952,50.73290805]]]]},"bbox":[3.17978497,50.7310596,3.18968221,50.73937922]},{"type":"Feature","id":"fr-quartier-59599-fae05fd55d7a","properties":{"id":"fr-quartier-59599-fae05fd55d7a","kind":"quartier","name":"Tilleul-Guisnes","cityCode":"59599","cityName":"Tourcoing","sourceType":"iris","sourceIds":["595990801"],"colorIndex":37,"center":[3.1679093423416482,50.719829325]},"geometry":{"type":"MultiPolygon","coordinates":[[[[3.16637163,50.7246279],[3.1666266,50.72478549],[3.1674771,50.72505802],[3.16775621,50.72524429],[3.16973957,50.72483422],[3.1727274,50.72425583],[3.17004717,50.72091435],[3.17685798,50.719051],[3.17698351,50.71897366],[3.1762996,50.71863096],[3.17574797,50.71811668],[3.17537577,50.71798619],[3.17446383,50.71790672],[3.17204705,50.71795944],[3.17148286,50.71789471],[3.1710912,50.71826674],[3.17001986,50.71911348],[3.16999886,50.71917542],[3.16982531,50.7192645],[3.16921923,50.71977141],[3.16916025,50.71988724],[3.16886957,50.71961306],[3.16831572,50.7196838],[3.16721901,50.71973014],[3.16561859,50.72004814],[3.16409248,50.72062085],[3.16469105,50.72168338],[3.16521727,50.72222645],[3.16267245,50.7225322],[3.16422763,50.72304431],[3.16518239,50.72365411],[3.1659698,50.72409275],[3.16624211,50.72436158],[3.16637163,50.7246279]]]]},"bbox":[3.16267245,50.71789471,3.17698351,50.72524429]},{"type":"Feature","id":"fr-quartier-59599-4bedb570615f","properties":{"id":"fr-quartier-59599-4bedb570615f","kind":"quartier","name":"Virolois","cityCode":"59599","cityName":"Tourcoing","sourceType":"iris","sourceIds":["595990802"],"colorIndex":38,"center":[3.178170670194334,50.71901233]},"geometry":{"type":"MultiPolygon","coordinates":[[[[3.18463337,50.72440294],[3.18396937,50.72335497],[3.1824643,50.72152308],[3.17737911,50.71732831],[3.17688792,50.71752104],[3.17652073,50.71760591],[3.17576473,50.71765812],[3.17534765,50.71762282],[3.17511843,50.71755226],[3.17444954,50.7170489],[3.1740788,50.71733208],[3.17391507,50.71739691],[3.17240031,50.71710919],[3.17148286,50.71789471],[3.17204705,50.71795944],[3.17446383,50.71790672],[3.17537577,50.71798619],[3.17574797,50.71811668],[3.1762996,50.71863096],[3.17698351,50.71897366],[3.17685798,50.719051],[3.17004717,50.72091435],[3.1727274,50.72425583],[3.17293464,50.7245032],[3.1731797,50.72464912],[3.17382793,50.72487613],[3.17430866,50.72490328],[3.17552652,50.72470774],[3.17651942,50.72486068],[3.17787827,50.72496014],[3.17924164,50.72474103],[3.17994562,50.72473822],[3.18134845,50.72488155],[3.18199957,50.72472536],[3.18450633,50.72445158],[3.18463337,50.72440294]]]]},"bbox":[3.17004717,50.7170489,3.18463337,50.72496014]},{"type":"Feature","id":"fr-quartier-59599-a22c1205dc32","properties":{"id":"fr-quartier-59599-a22c1205dc32","kind":"quartier","name":"Yser","cityCode":"59599","cityName":"Tourcoing","sourceType":"iris","sourceIds":["595991502"],"colorIndex":39,"center":[3.1724777900922687,50.741172455]},"geometry":{"type":"MultiPolygon","coordinates":[[[[3.16443172,50.74216543],[3.16599777,50.74278157],[3.16656928,50.74326624],[3.16728725,50.74356497],[3.17017876,50.744269],[3.17167302,50.74452806],[3.17268658,50.74482007],[3.17275289,50.74477421],[3.17440316,50.74556331],[3.17495783,50.74605155],[3.17627615,50.74532379],[3.17746134,50.74454865],[3.17756042,50.74457364],[3.17764519,50.74455108],[3.17769027,50.74450077],[3.17764898,50.74442366],[3.17926286,50.74332218],[3.17972438,50.74306848],[3.17874101,50.74252166],[3.17868271,50.74243201],[3.17872623,50.74234043],[3.17956812,50.74168779],[3.17967505,50.74153779],[3.17961412,50.74150378],[3.17962663,50.74144364],[3.17626727,50.73998497],[3.17529965,50.73946412],[3.17503486,50.7393613],[3.1749197,50.73918111],[3.17475141,50.73917596],[3.17461123,50.73912142],[3.17083871,50.73708264],[3.16979233,50.73665157],[3.16875511,50.73683693],[3.16751297,50.73705845],[3.16751188,50.73715625],[3.16766206,50.73724309],[3.16786072,50.73745548],[3.16804563,50.73778094],[3.16809474,50.73808775],[3.16798642,50.73825479],[3.16688847,50.73847521],[3.16661892,50.73863349],[3.16561134,50.73881699],[3.16538391,50.73888817],[3.16382202,50.73993648],[3.16421448,50.74017105],[3.16471718,50.74038842],[3.1663691,50.74090127],[3.16443172,50.74216543]]]]},"bbox":[3.16382202,50.73665157,3.17972438,50.74605155]},{"type":"Feature","id":"fr-quartier-59599-1586f9ce3b78","properties":{"id":"fr-quartier-59599-1586f9ce3b78","kind":"quartier","name":"Z.A. du Ferrain","cityCode":"59599","cityName":"Tourcoing","sourceType":"iris","sourceIds":["595990103"],"colorIndex":40,"center":[3.1422873323650222,50.73924608]},"geometry":{"type":"MultiPolygon","coordinates":[[[[3.14082611,50.73922347],[3.14336729,50.73977688],[3.14647409,50.74175716],[3.14674896,50.74242262],[3.14809524,50.74195534],[3.14870765,50.74103758],[3.14930819,50.74136258],[3.14962038,50.74125453],[3.14994487,50.7410038],[3.15047456,50.74080575],[3.15221451,50.73961832],[3.15315392,50.74024078],[3.15355488,50.74003391],[3.15401182,50.74009795],[3.15487324,50.73926869],[3.15527035,50.738737],[3.15543277,50.73821996],[3.1554204,50.73742049],[3.15556125,50.73724355],[3.15577026,50.73716074],[3.15415623,50.73694022],[3.154224,50.73690694],[3.1541616,50.7368451],[3.15255047,50.73664071],[3.14971854,50.73624575],[3.14865752,50.73748798],[3.14770152,50.73839627],[3.14746272,50.73941408],[3.14619845,50.74034067],[3.1451286,50.73957205],[3.14486958,50.73948442],[3.14339816,50.7391981],[3.14226754,50.73841606],[3.14218128,50.73841437],[3.14192715,50.73855015],[3.14082611,50.73922347]]]]},"bbox":[3.14082611,50.73624575,3.15577026,50.74242262]}]}