{"type":"FeatureCollection","metadata":{"sourceType":"iris","referenceFile":"vieux-conde-quartiers.geojson","source":"IGN / INSEE - Contours IRIS WFS Géoplateforme","sourceUrl":"https://geoservices.ign.fr/contoursiris","license":"Licence Ouverte / Open Licence 2.0","sourceYear":"2026"},"features":[{"type":"Feature","id":"fr-quartier-59616-d09a7dc5414b","properties":{"id":"fr-quartier-59616-d09a7dc5414b","kind":"quartier","name":"Coron Vert","cityCode":"59616","cityName":"Vieux-Condé","sourceType":"iris","sourceIds":["596160102"],"colorIndex":0,"center":[3.5754213126268604,50.474878540537205]},"geometry":{"type":"MultiPolygon","coordinates":[[[[3.57945354,50.48156138],[3.57961116,50.48144395],[3.58030434,50.4800664],[3.5803293,50.47747027],[3.58021379,50.47696812],[3.57931886,50.4755989],[3.57925416,50.47523296],[3.57980204,50.47321425],[3.58116968,50.47117733],[3.5814596,50.47058261],[3.57916287,50.46985999],[3.57723241,50.46955034],[3.57457637,50.46851334],[3.57400743,50.46820269],[3.57372792,50.46811243],[3.57363267,50.4680231],[3.5731871,50.46804761],[3.57303502,50.46815514],[3.57206159,50.46987598],[3.57209066,50.47020618],[3.57227324,50.47043065],[3.57330257,50.47312874],[3.57015158,50.47298621],[3.57000644,50.47358472],[3.56965844,50.47452976],[3.56968252,50.47529087],[3.56946107,50.47623353],[3.56938694,50.47639544],[3.568999,50.47654714],[3.56916819,50.47720434],[3.56979441,50.47759822],[3.57100425,50.47859622],[3.57153712,50.4791907],[3.57202012,50.4794811],[3.57210302,50.47959562],[3.57202995,50.47985089],[3.57211315,50.47999233],[3.57274371,50.48026769],[3.57344873,50.48090445],[3.57721473,50.47930438],[3.57859239,50.48044425],[3.57945354,50.48156138]]]]},"bbox":[3.568999,50.4680231,3.5814596,50.48156138]},{"type":"Feature","id":"fr-quartier-59616-ba45c1fbe349","properties":{"id":"fr-quartier-59616-ba45c1fbe349","kind":"quartier","name":"Écarlate-Grand Quesnoy-Rieu de Condé","cityCode":"59616","cityName":"Vieux-Condé","sourceType":"iris","sourceIds":["596160103"],"colorIndex":1,"center":[3.558296407588063,50.47403136478362]},"geometry":{"type":"MultiPolygon","coordinates":[[[[3.54868791,50.46622512],[3.55156763,50.46745558],[3.55203012,50.46782066],[3.55255328,50.46897183],[3.55261777,50.47010708],[3.55221472,50.47054873],[3.55203491,50.47121111],[3.55256551,50.47201125],[3.55258628,50.47326339],[3.55268517,50.47343081],[3.55182034,50.47396609],[3.55014648,50.47448251],[3.54969228,50.47475383],[3.54918217,50.47518697],[3.5481284,50.47659198],[3.54790855,50.47720156],[3.54789842,50.47795204],[3.54858583,50.4806213],[3.54995682,50.48094824],[3.55185043,50.48172256],[3.55410318,50.48214336],[3.55485278,50.48237609],[3.55696922,50.48318792],[3.55830264,50.48404904],[3.5594068,50.48339236],[3.56082997,50.48295954],[3.56158018,50.48261234],[3.56324757,50.48175469],[3.56406256,50.48129049],[3.56790268,50.47849918],[3.56879256,50.47769888],[3.56906774,50.47740229],[3.56916819,50.47720434],[3.568999,50.47654714],[3.56938694,50.47639544],[3.56946107,50.47623353],[3.56968252,50.47529087],[3.56965844,50.47452976],[3.57000644,50.47358472],[3.57015158,50.47298621],[3.56914069,50.4729011],[3.56746169,50.4725686],[3.56462265,50.47189129],[3.5628831,50.47129419],[3.56078057,50.47068525],[3.55989793,50.47049176],[3.55861852,50.4702848],[3.55854387,50.46938747],[3.55867273,50.46895871],[3.55937078,50.46836399],[3.55983528,50.46789062],[3.56050094,50.46678886],[3.5617417,50.46580657],[3.5626097,50.46494715],[3.56313236,50.46427242],[3.5636847,50.46336056],[3.56410985,50.46277154],[3.56468938,50.46215579],[3.56535289,50.46163121],[3.56537738,50.46155749],[3.56512112,50.46090246],[3.5631207,50.46159292],[3.56172147,50.46197271],[3.56090209,50.46226907],[3.55915598,50.46269439],[3.55796157,50.46303462],[3.55673243,50.46328702],[3.55491014,50.46408156],[3.55391163,50.46446485],[3.55309611,50.46486438],[3.55204892,50.46529993],[3.55048048,50.46565612],[3.54935073,50.46613331],[3.54868791,50.46622512]]]]},"bbox":[3.54789842,50.46090246,3.57015158,50.48404904]},{"type":"Feature","id":"fr-quartier-59616-a15253bbe2fe","properties":{"id":"fr-quartier-59616-a15253bbe2fe","kind":"quartier","name":"Rue Denfert Rochereau","cityCode":"59616","cityName":"Vieux-Condé","sourceType":"iris","sourceIds":["596160105"],"colorIndex":2,"center":[3.561960334070885,50.45707252839194]},"geometry":{"type":"MultiPolygon","coordinates":[[[[3.58302745,50.45583544],[3.58182615,50.45421001],[3.58119808,50.453151],[3.58160082,50.45308268],[3.58135436,50.45268168],[3.58024436,50.45177035],[3.57952185,50.45117408],[3.58265538,50.44980026],[3.58146166,50.44906259],[3.58244794,50.44815218],[3.58304154,50.448179],[3.58257562,50.4475214],[3.58368569,50.4472289],[3.5827821,50.44543777],[3.58085909,50.44569548],[3.58046422,50.44583289],[3.5801437,50.44607767],[3.58000272,50.44641048],[3.57997746,50.44690343],[3.58106234,50.4479621],[3.58113944,50.44818616],[3.58099752,50.4483152],[3.5807367,50.44837388],[3.57855849,50.44808875],[3.57777795,50.44782039],[3.57689096,50.44807768],[3.5763373,50.44846986],[3.57600037,50.44888168],[3.5747178,50.44995949],[3.57143853,50.45251155],[3.56938869,50.45401834],[3.56875171,50.45438932],[3.56593738,50.45469577],[3.56473256,50.45471295],[3.56364747,50.45462364],[3.56239066,50.45414013],[3.55931852,50.45174288],[3.55817253,50.45198774],[3.55759993,50.45220936],[3.55726662,50.45245682],[3.55531829,50.45313257],[3.55444889,50.45372894],[3.55397318,50.45419876],[3.55360964,50.45502446],[3.55119442,50.45532161],[3.55000526,50.45677576],[3.5496317,50.45707724],[3.54918553,50.45729736],[3.54873941,50.4573918],[3.54823853,50.4573653],[3.54793522,50.45727508],[3.54730113,50.45689458],[3.54668236,50.45675817],[3.54641564,50.45679975],[3.54511234,50.45746709],[3.544546,50.45762937],[3.54399514,50.45766231],[3.54330554,50.45747773],[3.54270258,50.4568511],[3.54221262,50.45679311],[3.54178295,50.45684975],[3.53974228,50.4577348],[3.53945908,50.45820822],[3.54016826,50.458908],[3.54010933,50.45905099],[3.53966277,50.45910859],[3.53824443,50.45889395],[3.53751657,50.45907754],[3.53736043,50.4592039],[3.53749069,50.45955163],[3.5389059,50.46131299],[3.5395025,50.46082026],[3.54263783,50.45932628],[3.54548154,50.45857947],[3.54702458,50.45849187],[3.54885883,50.45931948],[3.55019432,50.46018429],[3.55049577,50.46048906],[3.54389252,50.46300841],[3.54675201,50.46525434],[3.54588266,50.46575369],[3.547525,50.46637121],[3.54868791,50.46622512],[3.54935073,50.46613331],[3.55048048,50.46565612],[3.55204892,50.46529993],[3.55309611,50.46486438],[3.55391163,50.46446485],[3.55491014,50.46408156],[3.55673243,50.46328702],[3.55796157,50.46303462],[3.55915598,50.46269439],[3.56090209,50.46226907],[3.56172147,50.46197271],[3.5631207,50.46159292],[3.56512112,50.46090246],[3.56876415,50.45935523],[3.56903987,50.45911518],[3.57238561,50.45716704],[3.57248743,50.45709386],[3.57252008,50.45699675],[3.58302745,50.45583544]]]]},"bbox":[3.53736043,50.44543777,3.58368569,50.46637121]},{"type":"Feature","id":"fr-quartier-59616-683c68e74d89","properties":{"id":"fr-quartier-59616-683c68e74d89","kind":"quartier","name":"Rue Ghesquieres","cityCode":"59616","cityName":"Vieux-Condé","sourceType":"iris","sourceIds":["596160101"],"colorIndex":3,"center":[3.5681354514303045,50.48940735799688]},"geometry":{"type":"MultiPolygon","coordinates":[[[[3.55830264,50.48404904],[3.55690036,50.48535784],[3.55632816,50.48603364],[3.5555031,50.48751217],[3.55475539,50.48860795],[3.5542535,50.48915776],[3.55329746,50.48999415],[3.55175843,50.49079273],[3.55063883,50.49418],[3.55024411,50.49488819],[3.55735383,50.49582582],[3.55946654,50.49586656],[3.55925893,50.49744732],[3.55956457,50.49797733],[3.5597887,50.49801043],[3.56045031,50.49790062],[3.56033059,50.49776472],[3.56037901,50.49769],[3.56078283,50.49781025],[3.56096527,50.49776454],[3.56134329,50.49784272],[3.56142677,50.49813496],[3.56205836,50.49810966],[3.56244143,50.49788351],[3.56297931,50.49816113],[3.56344472,50.4981249],[3.56330151,50.49840651],[3.563368,50.49843762],[3.56364773,50.49840852],[3.56393808,50.49857416],[3.56405903,50.49856732],[3.56406827,50.49838686],[3.56434601,50.49855704],[3.56466617,50.49849454],[3.56477866,50.49861162],[3.56468586,50.49874399],[3.56512224,50.49875457],[3.5650639,50.49907349],[3.56523844,50.49907628],[3.56534416,50.49921673],[3.56560492,50.49912757],[3.56577689,50.49915282],[3.56593603,50.49928763],[3.56622219,50.49920464],[3.56627519,50.49928698],[3.56611432,50.49949865],[3.56618434,50.49959348],[3.56654057,50.49960891],[3.56644363,50.49974848],[3.56734957,50.49996425],[3.56757459,50.49995065],[3.567824,50.50035254],[3.5681702,50.50035096],[3.56855606,50.50049729],[3.56823627,50.50071868],[3.56829315,50.50089525],[3.56878095,50.50084633],[3.56918874,50.50093961],[3.5706399,50.50045629],[3.57091773,50.50050797],[3.57251853,50.49982017],[3.57381893,50.49871007],[3.57177214,50.49766932],[3.57278167,50.49660007],[3.57422375,50.49656915],[3.57574349,50.49619137],[3.57676891,50.49565969],[3.57773544,50.49527099],[3.57844641,50.49480898],[3.57912333,50.49456884],[3.57927223,50.49430155],[3.57880207,50.49330827],[3.57882493,50.4927256],[3.57973918,50.49183625],[3.58060104,50.49140853],[3.58097918,50.49125416],[3.58203638,50.49117289],[3.5854059,50.49052506],[3.58417569,50.48988188],[3.58271624,50.48839509],[3.58297813,50.48707343],[3.58283663,50.48639548],[3.58294251,50.48545425],[3.58108581,50.48378707],[3.57945354,50.48156138],[3.57859239,50.48044425],[3.57721473,50.47930438],[3.57344873,50.48090445],[3.57274371,50.48026769],[3.57211315,50.47999233],[3.57202995,50.47985089],[3.57210302,50.47959562],[3.57202012,50.4794811],[3.57153712,50.4791907],[3.57100425,50.47859622],[3.56979441,50.47759822],[3.56916819,50.47720434],[3.56906774,50.47740229],[3.56879256,50.47769888],[3.56790268,50.47849918],[3.56406256,50.48129049],[3.56324757,50.48175469],[3.56158018,50.48261234],[3.56082997,50.48295954],[3.5594068,50.48339236],[3.55830264,50.48404904]]]]},"bbox":[3.55024411,50.47720434,3.5854059,50.50093961]},{"type":"Feature","id":"fr-quartier-59616-488e585b95b7","properties":{"id":"fr-quartier-59616-488e585b95b7","kind":"quartier","name":"Rue Henri Durre","cityCode":"59616","cityName":"Vieux-Condé","sourceType":"iris","sourceIds":["596160104"],"colorIndex":4,"center":[3.5723970367986646,50.464789040575496]},"geometry":{"type":"MultiPolygon","coordinates":[[[[3.5814596,50.47058261],[3.58338383,50.46779707],[3.58366303,50.46567367],[3.58382749,50.46518007],[3.58253228,50.46518618],[3.5822067,50.46524606],[3.58200214,50.46397323],[3.58272546,50.46376964],[3.58036949,50.46178519],[3.5816085,50.46118242],[3.58058643,50.46035238],[3.58129291,50.46003398],[3.58143201,50.46014553],[3.58267891,50.45950052],[3.5811715,50.45865123],[3.58233403,50.45800841],[3.5839626,50.4568131],[3.58302745,50.45583544],[3.57252008,50.45699675],[3.57248743,50.45709386],[3.57238561,50.45716704],[3.56903987,50.45911518],[3.56876415,50.45935523],[3.56512112,50.46090246],[3.56537738,50.46155749],[3.56535289,50.46163121],[3.56468938,50.46215579],[3.56410985,50.46277154],[3.5636847,50.46336056],[3.56313236,50.46427242],[3.5626097,50.46494715],[3.5617417,50.46580657],[3.56050094,50.46678886],[3.55983528,50.46789062],[3.55937078,50.46836399],[3.55867273,50.46895871],[3.55854387,50.46938747],[3.55861852,50.4702848],[3.55989793,50.47049176],[3.56078057,50.47068525],[3.5628831,50.47129419],[3.56462265,50.47189129],[3.56746169,50.4725686],[3.56914069,50.4729011],[3.57015158,50.47298621],[3.57330257,50.47312874],[3.57227324,50.47043065],[3.57209066,50.47020618],[3.57206159,50.46987598],[3.57303502,50.46815514],[3.5731871,50.46804761],[3.57363267,50.4680231],[3.57372792,50.46811243],[3.57400743,50.46820269],[3.57457637,50.46851334],[3.57723241,50.46955034],[3.57916287,50.46985999],[3.5814596,50.47058261]]]]},"bbox":[3.55854387,50.45583544,3.5839626,50.47312874]}]}