{"type":"FeatureCollection","metadata":{"sourceType":"iris","source":"IGN / INSEE — Contours IRIS 2026","sourceUrl":"https://data.geopf.fr/wfs/ows?service=WFS&version=2.0.0&request=GetFeature&typeNames=STATISTICALUNITS.IRIS%3Acontours_iris&outputFormat=application%2Fjson&srsName=CRS%3A84&count=1000&CQL_FILTER=code_insee%3D%2759653%27&sortBy=code_iris","retrievedDate":"2026-09-10","sourceYear":"2026","license":"Licence Ouverte 2.0"},"features":[{"type":"Feature","id":"fr-quartier-59653-2bd5fb5dde0b","properties":{"id":"fr-quartier-59653-2bd5fb5dde0b","kind":"quartier","name":"Centre","cityCode":"59653","cityName":"Wavrin","sourceType":"iris","sourceIds":["596530102"],"colorIndex":0,"center":[2.932459186707713,50.5712796]},"geometry":{"type":"MultiPolygon","coordinates":[[[[2.94042608,50.56865371],[2.93620429,50.57177584],[2.93462688,50.57098162],[2.93326794,50.57019917],[2.93160117,50.56886545],[2.93152533,50.56868142],[2.93162996,50.56842569],[2.93155542,50.56830987],[2.92981053,50.56749664],[2.92951625,50.56732415],[2.92931055,50.56729083],[2.92883453,50.56709041],[2.92794507,50.56825307],[2.92828435,50.56850009],[2.92804049,50.56854303],[2.92737329,50.56897793],[2.92863103,50.5704775],[2.92911243,50.57088615],[2.92992624,50.5714314],[2.9306853,50.57183391],[2.93935473,50.57594454],[2.93995618,50.57626075],[2.93999285,50.57623744],[2.93967032,50.57604342],[2.93964366,50.57595007],[2.93981233,50.57515496],[2.9398382,50.57473763],[2.93959789,50.57415863],[2.9394825,50.5740042],[2.9393529,50.57395657],[2.93948005,50.57370264],[2.93986073,50.57357538],[2.94004534,50.57358623],[2.94133285,50.57415048],[2.94150615,50.57419724],[2.94160202,50.57417574],[2.94202697,50.5735432],[2.94238107,50.5732409],[2.94276462,50.57306158],[2.94391083,50.57270131],[2.94528422,50.57206828],[2.94707924,50.57250974],[2.9485644,50.57278859],[2.94940679,50.57318832],[2.95033673,50.57343372],[2.95070602,50.57339707],[2.95109091,50.5732608],[2.95146578,50.57327351],[2.95188853,50.5733392],[2.9524396,50.57333223],[2.95272862,50.57321836],[2.95342924,50.57303912],[2.95364926,50.57287047],[2.95381596,50.57243883],[2.95388979,50.57183932],[2.95399007,50.5716096],[2.95441752,50.5711278],[2.95492519,50.57076987],[2.95499017,50.57060924],[2.95496062,50.57055807],[2.95445206,50.57034338],[2.95091165,50.5691986],[2.95009296,50.56912019],[2.94975333,50.56912006],[2.9492685,50.56916563],[2.94884987,50.56925252],[2.94830007,50.56944256],[2.94794617,50.56961204],[2.94738622,50.57006415],[2.94681187,50.57079538],[2.94631178,50.57059951],[2.94573115,50.57060105],[2.94505211,50.57038984],[2.9439762,50.56968391],[2.94391006,50.56959772],[2.94257847,50.5694562],[2.9421545,50.56926932],[2.94042608,50.56865371]]]]},"bbox":[2.92737329,50.56709041,2.95499017,50.57626075]},{"type":"Feature","id":"fr-quartier-59653-665de1f2775c","properties":{"id":"fr-quartier-59653-665de1f2775c","kind":"quartier","name":"Est","cityCode":"59653","cityName":"Wavrin","sourceType":"iris","sourceIds":["596530103"],"colorIndex":1,"center":[2.9460095098684107,50.572954795]},"geometry":{"type":"MultiPolygon","coordinates":[[[[2.9491955,50.58284444],[2.94978365,50.58250543],[2.95537582,50.58545404],[2.95651018,50.58435322],[2.95569295,50.58391316],[2.95565638,50.58382519],[2.95706827,50.58285998],[2.95750033,50.58202457],[2.95732167,50.58159101],[2.95762522,50.58101941],[2.95835869,50.58042193],[2.95969946,50.58008761],[2.95915731,50.57943674],[2.9591833,50.57867208],[2.95896824,50.57794145],[2.95867515,50.57783365],[2.95719817,50.57764018],[2.95749812,50.57629673],[2.95804535,50.57585714],[2.95922136,50.5751862],[2.9623909,50.5755094],[2.96228695,50.57504446],[2.96242375,50.57492334],[2.96269864,50.57485252],[2.96309116,50.57388872],[2.96311697,50.57329189],[2.96339043,50.57322824],[2.9632444,50.57249135],[2.96343646,50.57194841],[2.96639782,50.57140716],[2.96610096,50.57065945],[2.9667744,50.5709603],[2.96758235,50.57030084],[2.96704005,50.56989143],[2.96332568,50.5673244],[2.95799039,50.5640369],[2.95523367,50.56145108],[2.95463277,50.56060988],[2.95306309,50.55915531],[2.95193381,50.55840634],[2.95042543,50.55779453],[2.95011223,50.55821445],[2.9491798,50.55793404],[2.94691034,50.55761626],[2.94632967,50.55780001],[2.94706173,50.55968961],[2.94736639,50.56072907],[2.94486384,50.56471836],[2.94442616,50.56549631],[2.9442131,50.56574034],[2.94408903,50.56580221],[2.94412278,50.56586685],[2.94042608,50.56865371],[2.9421545,50.56926932],[2.94257847,50.5694562],[2.94391006,50.56959772],[2.9439762,50.56968391],[2.94505211,50.57038984],[2.94573115,50.57060105],[2.94631178,50.57059951],[2.94681187,50.57079538],[2.94738622,50.57006415],[2.94794617,50.56961204],[2.94830007,50.56944256],[2.94884987,50.56925252],[2.9492685,50.56916563],[2.94975333,50.56912006],[2.95009296,50.56912019],[2.95091165,50.5691986],[2.95445206,50.57034338],[2.95496062,50.57055807],[2.95499017,50.57060924],[2.95492519,50.57076987],[2.95441752,50.5711278],[2.95399007,50.5716096],[2.95388979,50.57183932],[2.95381596,50.57243883],[2.95364926,50.57287047],[2.95342924,50.57303912],[2.95272862,50.57321836],[2.9524396,50.57333223],[2.95188853,50.5733392],[2.95146578,50.57327351],[2.95109091,50.5732608],[2.95070602,50.57339707],[2.95033673,50.57343372],[2.94940679,50.57318832],[2.9485644,50.57278859],[2.94707924,50.57250974],[2.94528422,50.57206828],[2.94391083,50.57270131],[2.94276462,50.57306158],[2.94238107,50.5732409],[2.94202697,50.5735432],[2.94160202,50.57417574],[2.94150615,50.57419724],[2.94133285,50.57415048],[2.94004534,50.57358623],[2.93986073,50.57357538],[2.93948005,50.57370264],[2.9393529,50.57395657],[2.9394825,50.5740042],[2.93959789,50.57415863],[2.9398382,50.57473763],[2.93981233,50.57515496],[2.93964366,50.57595007],[2.93967032,50.57604342],[2.93999285,50.57623744],[2.93995618,50.57626075],[2.94110265,50.57696046],[2.942504,50.57789272],[2.9491955,50.58284444]]]]},"bbox":[2.9393529,50.55761626,2.96758235,50.58545404]},{"type":"Feature","id":"fr-quartier-59653-a1a1e41d9d41","properties":{"id":"fr-quartier-59653-a1a1e41d9d41","kind":"quartier","name":"Nord-Ouest","cityCode":"59653","cityName":"Wavrin","sourceType":"iris","sourceIds":["596530101"],"colorIndex":2,"center":[2.918490820310338,50.56950578]},"geometry":{"type":"MultiPolygon","coordinates":[[[[2.92042242,50.5897714],[2.92215988,50.59032446],[2.92157078,50.59108605],[2.92269395,50.59140716],[2.92607665,50.59304084],[2.92878857,50.59457443],[2.92939128,50.59510608],[2.92982614,50.59569956],[2.93106181,50.59634913],[2.93159881,50.59650379],[2.9322949,50.59579606],[2.93354663,50.59499439],[2.93414967,50.59424622],[2.93499632,50.59371625],[2.93564521,50.5934644],[2.93774778,50.5931702],[2.93920317,50.59288553],[2.93863057,50.5918684],[2.93989823,50.59172632],[2.94131841,50.59135275],[2.94184801,50.59179546],[2.94313672,50.59172605],[2.94345554,50.59156375],[2.94342053,50.59134924],[2.94428994,50.59051587],[2.9449014,50.58960161],[2.94757107,50.59011702],[2.94773215,50.58977066],[2.94764242,50.58928688],[2.94671732,50.58820322],[2.94591029,50.58749026],[2.94411833,50.58635953],[2.94441337,50.58599259],[2.94533042,50.5853127],[2.94709228,50.58422929],[2.94759889,50.58370896],[2.94738058,50.58353386],[2.9491955,50.58284444],[2.942504,50.57789272],[2.94110265,50.57696046],[2.93995618,50.57626075],[2.93935473,50.57594454],[2.9306853,50.57183391],[2.92992624,50.5714314],[2.92911243,50.57088615],[2.92863103,50.5704775],[2.92737329,50.56897793],[2.92804049,50.56854303],[2.92828435,50.56850009],[2.92794507,50.56825307],[2.92883453,50.56709041],[2.92931055,50.56729083],[2.92951625,50.56732415],[2.92981053,50.56749664],[2.93155542,50.56830987],[2.93162996,50.56842569],[2.93152533,50.56868142],[2.93160117,50.56886545],[2.93326794,50.57019917],[2.93462688,50.57098162],[2.93620429,50.57177584],[2.94042608,50.56865371],[2.94412278,50.56586685],[2.94408903,50.56580221],[2.9442131,50.56574034],[2.94442616,50.56549631],[2.94486384,50.56471836],[2.94736639,50.56072907],[2.94706173,50.55968961],[2.94632967,50.55780001],[2.94389713,50.55845053],[2.94316308,50.55843853],[2.94312321,50.55756342],[2.9423614,50.55719868],[2.9418493,50.55777465],[2.93824813,50.55658727],[2.94073982,50.55355125],[2.93877542,50.55281431],[2.93427489,50.55131672],[2.93340452,50.55113405],[2.93264247,50.55108069],[2.93169005,50.55115556],[2.93088087,50.5505385],[2.93015824,50.55050848],[2.93002033,50.55040339],[2.92924909,50.5518803],[2.92900216,50.55216378],[2.92840565,50.55258079],[2.92827422,50.5528769],[2.92772634,50.55277785],[2.92708365,50.55296775],[2.92261214,50.55388321],[2.92183963,50.55418879],[2.92000686,50.55234409],[2.91836764,50.55111339],[2.91768497,50.55076111],[2.91746949,50.55072686],[2.91708007,50.55110177],[2.91604641,50.55172755],[2.91511532,50.55250239],[2.91373989,50.55441588],[2.91275876,50.5563736],[2.91264485,50.55706821],[2.91201872,50.55739446],[2.91152748,50.55792814],[2.91064849,50.56020005],[2.91030817,50.56062164],[2.91001804,50.56134124],[2.91178705,50.56175806],[2.91552564,50.56319401],[2.91499339,50.56379947],[2.91522425,50.56394144],[2.91391913,50.56493319],[2.91198393,50.56761271],[2.9107493,50.56850037],[2.90999201,50.56880049],[2.90937256,50.56924072],[2.90895869,50.56977084],[2.90821077,50.57109681],[2.90804852,50.57119452],[2.90655668,50.5731392],[2.90705108,50.57329215],[2.9047642,50.57599909],[2.90366652,50.5780598],[2.90421952,50.57854937],[2.9049434,50.57961795],[2.90574442,50.58015885],[2.90469929,50.58273118],[2.9041763,50.58347839],[2.90363549,50.58395723],[2.90630784,50.58415673],[2.90799902,50.58438416],[2.91240391,50.58539433],[2.91515406,50.58633682],[2.92306998,50.58798528],[2.92149906,50.58916539],[2.92042242,50.5897714]]]]},"bbox":[2.90363549,50.55040339,2.9491955,50.59650379]}]}