{"type":"FeatureCollection","metadata":{"sourceType":"iris","referenceFile":"chambly-quartiers.geojson","source":"IGN / INSEE - Contours IRIS WFS Géoplateforme","sourceUrl":"https://geoservices.ign.fr/contoursiris","license":"Licence Ouverte / Open Licence 2.0","sourceYear":"2026"},"features":[{"type":"Feature","id":"fr-quartier-60139-4c5a37c846ba","properties":{"id":"fr-quartier-60139-4c5a37c846ba","kind":"quartier","name":"le Potel","cityCode":"60139","cityName":"Chambly","sourceType":"iris","sourceIds":["601390101"],"colorIndex":0,"center":[2.248793764055632,49.17914271519777]},"geometry":{"type":"MultiPolygon","coordinates":[[[[2.22553958,49.17688529],[2.22553327,49.1769401],[2.22588993,49.17684169],[2.2261875,49.17721043],[2.22711071,49.17765152],[2.22471983,49.17970136],[2.22368131,49.18118626],[2.22344775,49.18231041],[2.22503852,49.183057],[2.22473232,49.18353784],[2.22493625,49.18374954],[2.2247439,49.18422931],[2.22487812,49.18433447],[2.22496632,49.18494731],[2.22687134,49.18642506],[2.22808992,49.18693905],[2.22780322,49.18721593],[2.23178216,49.18917259],[2.23218405,49.18945117],[2.23450546,49.19062486],[2.23438683,49.19094777],[2.24719296,49.19551215],[2.25108591,49.19667823],[2.2526913,49.19723034],[2.253218,49.19581217],[2.25382046,49.1946561],[2.2540012,49.19391909],[2.25469826,49.19371661],[2.25426336,49.1929569],[2.25326332,49.19039015],[2.25291141,49.1897766],[2.25231597,49.18760073],[2.25592003,49.18583388],[2.25673418,49.18520686],[2.25849098,49.18225342],[2.26418144,49.18524269],[2.26425262,49.18515591],[2.27557089,49.17242517],[2.27490566,49.17185024],[2.27476607,49.17153652],[2.27460877,49.17082349],[2.27461727,49.16972755],[2.27445958,49.16914039],[2.27363475,49.16714213],[2.27316302,49.16626806],[2.27007635,49.16609744],[2.26929069,49.16609897],[2.26570128,49.16647903],[2.26119313,49.16676524],[2.26053811,49.16683495],[2.25814163,49.16720232],[2.2560993,49.16744417],[2.25464683,49.16757095],[2.25250512,49.16757116],[2.2500185,49.16724461],[2.24897102,49.16705197],[2.24882914,49.16700253],[2.24854539,49.16680835],[2.24838593,49.16683703],[2.24809021,49.16690082],[2.24784027,49.16711684],[2.24615959,49.16794339],[2.24584828,49.16813564],[2.24431198,49.16930472],[2.243245,49.17016295],[2.24253223,49.17080222],[2.24222769,49.17062318],[2.2407863,49.1694246],[2.23990574,49.16916191],[2.23885726,49.1690366],[2.23848147,49.16904322],[2.23531473,49.16955452],[2.23500702,49.16959302],[2.23465889,49.16958272],[2.23417049,49.16997072],[2.23302699,49.17126174],[2.23198486,49.17255518],[2.23080132,49.17357979],[2.22981569,49.17429456],[2.22758045,49.17539782],[2.22718666,49.17568749],[2.22620018,49.17663689],[2.2260162,49.1767436],[2.22553958,49.17688529]]]]},"bbox":[2.22344775,49.16609744,2.27557089,49.19723034]},{"type":"Feature","id":"fr-quartier-60139-07954aa96e75","properties":{"id":"fr-quartier-60139-07954aa96e75","kind":"quartier","name":"Place Charles de Gaulle","cityCode":"60139","cityName":"Chambly","sourceType":"iris","sourceIds":["601390301"],"colorIndex":1,"center":[2.2334295994621827,49.161367015134054]},"geometry":{"type":"MultiPolygon","coordinates":[[[[2.24131503,49.15158883],[2.23880631,49.15198389],[2.238595,49.15181262],[2.23695046,49.15188403],[2.23355461,49.15155226],[2.23356287,49.15266181],[2.23314381,49.15254316],[2.23179255,49.15243115],[2.23212805,49.15162139],[2.2321103,49.15143156],[2.22930433,49.15153321],[2.22328801,49.15209965],[2.2223042,49.15225693],[2.21684315,49.15389298],[2.21684911,49.15413308],[2.22307125,49.15969572],[2.2242484,49.16238174],[2.2263177,49.16290125],[2.22798638,49.16353414],[2.2286693,49.16370845],[2.22921503,49.16379646],[2.23044938,49.16376839],[2.23001021,49.16425919],[2.23144076,49.16468372],[2.23299896,49.16537877],[2.2329099,49.16546721],[2.23433302,49.16602741],[2.23381701,49.16652313],[2.23538545,49.16699434],[2.23474672,49.16725821],[2.2339934,49.16803833],[2.23246286,49.16935655],[2.2320898,49.16991791],[2.23150548,49.17048511],[2.22928569,49.17157681],[2.22600483,49.17264277],[2.22487562,49.17351033],[2.22377272,49.17399323],[2.22250625,49.17596126],[2.22154618,49.17715445],[2.21982267,49.17958972],[2.22036968,49.17923902],[2.22339125,49.17775796],[2.22502069,49.17701052],[2.22535867,49.17687783],[2.22554574,49.17684038],[2.22553958,49.17688529],[2.2260162,49.1767436],[2.22620018,49.17663689],[2.22718666,49.17568749],[2.22758045,49.17539782],[2.22981569,49.17429456],[2.23080132,49.17357979],[2.23198486,49.17255518],[2.23302699,49.17126174],[2.23417049,49.16997072],[2.23465889,49.16958272],[2.23500702,49.16959302],[2.23531473,49.16955452],[2.23848147,49.16904322],[2.23885726,49.1690366],[2.23990574,49.16916191],[2.2407863,49.1694246],[2.24222769,49.17062318],[2.24253223,49.17080222],[2.243245,49.17016295],[2.24431198,49.16930472],[2.24584828,49.16813564],[2.24615959,49.16794339],[2.24784027,49.16711684],[2.24809021,49.16690082],[2.24838593,49.16683703],[2.24914582,49.16615486],[2.25025235,49.16501451],[2.25183049,49.16387258],[2.25326129,49.16277017],[2.25331765,49.16266533],[2.25339352,49.16263253],[2.25336276,49.16257929],[2.25415593,49.16214725],[2.25194939,49.16105194],[2.25173115,49.16097506],[2.25089873,49.16089706],[2.24881483,49.16127878],[2.24836154,49.16143329],[2.24684811,49.16208467],[2.24398037,49.16384422],[2.24220757,49.16487783],[2.24172645,49.16524433],[2.23849082,49.16346617],[2.23780309,49.16287201],[2.23756585,49.16259628],[2.23738434,49.16216716],[2.23715382,49.16124951],[2.23688458,49.16109946],[2.23665734,49.16107644],[2.23650412,49.16096128],[2.23640092,49.16061537],[2.23644624,49.16033064],[2.23778653,49.15952634],[2.23784105,49.15945476],[2.23783836,49.15935764],[2.23775894,49.15925824],[2.23688432,49.15879145],[2.23895378,49.15696678],[2.24180035,49.15495366],[2.24201983,49.15466283],[2.2420648,49.15439968],[2.24186538,49.1534148],[2.24167031,49.15241376],[2.24131503,49.15158883]]]]},"bbox":[2.21684315,49.15143156,2.25415593,49.17958972]},{"type":"Feature","id":"fr-quartier-60139-cc93870076e2","properties":{"id":"fr-quartier-60139-cc93870076e2","kind":"quartier","name":"Rue François Truffaut","cityCode":"60139","cityName":"Chambly","sourceType":"iris","sourceIds":["601390201"],"colorIndex":2,"center":[2.2528555216842703,49.16050153071142]},"geometry":{"type":"MultiPolygon","coordinates":[[[[2.27316302,49.16626806],[2.27068582,49.16429485],[2.26666654,49.16154078],[2.26651584,49.16163067],[2.26463075,49.16056902],[2.2647719,49.16037928],[2.26386475,49.15977223],[2.26393794,49.15973492],[2.26194604,49.15848107],[2.26215036,49.15838072],[2.26195242,49.15822576],[2.26078533,49.15729792],[2.25945993,49.15661185],[2.25989561,49.15605349],[2.25985506,49.15543735],[2.26008144,49.15532815],[2.25971265,49.15513887],[2.25875902,49.15577856],[2.25378029,49.15263329],[2.25036018,49.15349407],[2.24552841,49.15338926],[2.24186538,49.1534148],[2.2420648,49.15439968],[2.24201983,49.15466283],[2.24180035,49.15495366],[2.23895378,49.15696678],[2.23688432,49.15879145],[2.23775894,49.15925824],[2.23783836,49.15935764],[2.23784105,49.15945476],[2.23778653,49.15952634],[2.23644624,49.16033064],[2.23640092,49.16061537],[2.23650412,49.16096128],[2.23665734,49.16107644],[2.23688458,49.16109946],[2.23715382,49.16124951],[2.23738434,49.16216716],[2.23756585,49.16259628],[2.23780309,49.16287201],[2.23849082,49.16346617],[2.24172645,49.16524433],[2.24220757,49.16487783],[2.24398037,49.16384422],[2.24684811,49.16208467],[2.24836154,49.16143329],[2.24881483,49.16127878],[2.25089873,49.16089706],[2.25173115,49.16097506],[2.25194939,49.16105194],[2.25415593,49.16214725],[2.25336276,49.16257929],[2.25339352,49.16263253],[2.25331765,49.16266533],[2.25326129,49.16277017],[2.25183049,49.16387258],[2.25025235,49.16501451],[2.24914582,49.16615486],[2.24838593,49.16683703],[2.24854539,49.16680835],[2.24882914,49.16700253],[2.24897102,49.16705197],[2.2500185,49.16724461],[2.25250512,49.16757116],[2.25464683,49.16757095],[2.2560993,49.16744417],[2.25814163,49.16720232],[2.26053811,49.16683495],[2.26119313,49.16676524],[2.26570128,49.16647903],[2.26929069,49.16609897],[2.27007635,49.16609744],[2.27316302,49.16626806]]]]},"bbox":[2.23640092,49.15263329,2.27316302,49.16757116]}]}