{"type":"FeatureCollection","metadata":{"sourceType":"iris","referenceFile":"douvrin-quartiers.geojson","source":"IGN / INSEE - Contours IRIS WFS Géoplateforme","sourceUrl":"https://geoservices.ign.fr/contoursiris","license":"Licence Ouverte / Open Licence 2.0","sourceYear":"2026"},"features":[{"type":"Feature","id":"fr-quartier-62276-7b1a4010533a","properties":{"id":"fr-quartier-62276-7b1a4010533a","kind":"quartier","name":"CHE DES CAVALIERS","cityCode":"62276","cityName":"Douvrin","sourceType":"iris","sourceIds":["622760102"],"colorIndex":0,"center":[2.819511646579834,50.50852781126223]},"geometry":{"type":"MultiPolygon","coordinates":[[[[2.8409396,50.50365381],[2.8377147,50.50250159],[2.83481831,50.50078245],[2.83456302,50.50052449],[2.8347274,50.50018183],[2.83625581,50.49886349],[2.83736743,50.49890624],[2.83815034,50.49876275],[2.83870343,50.49831467],[2.83823488,50.49785269],[2.8367934,50.49712284],[2.83571667,50.4967525],[2.83421501,50.49594265],[2.8327284,50.49697469],[2.82844881,50.49455517],[2.82380407,50.49808612],[2.82147221,50.49571309],[2.82045058,50.49492441],[2.81919728,50.49361208],[2.81887417,50.49307393],[2.81828083,50.49138465],[2.81362922,50.49475904],[2.81286009,50.49573448],[2.81100887,50.49518592],[2.8109209,50.49575398],[2.81150275,50.49594964],[2.81132097,50.49639099],[2.80957092,50.49625187],[2.80993904,50.49901348],[2.80988585,50.49968391],[2.80664901,50.51398926],[2.80420088,50.52415588],[2.80394166,50.52564185],[2.80386026,50.52593343],[2.80361585,50.52614398],[2.80372331,50.52675001],[2.80353677,50.52728556],[2.80510074,50.52702684],[2.80668311,50.52710471],[2.80721741,50.5273048],[2.80966722,50.52662734],[2.81308469,50.52583819],[2.81370353,50.52564704],[2.81417606,50.52541887],[2.81472099,50.52503104],[2.81659363,50.52310315],[2.81772359,50.5221112],[2.81807791,50.52185502],[2.81845408,50.52178556],[2.81863743,50.52169607],[2.81869708,50.52155254],[2.81855985,50.5213468],[2.81857213,50.52106498],[2.81898578,50.5203556],[2.8196515,50.51963043],[2.82102447,50.51835606],[2.8213647,50.51808908],[2.82167655,50.51788667],[2.82320537,50.51710438],[2.82359006,50.51700081],[2.82405626,50.51693595],[2.82501943,50.5168682],[2.82555184,50.51678996],[2.82578867,50.51669605],[2.82699652,50.51588453],[2.82764065,50.51565834],[2.82884159,50.51561872],[2.82910643,50.51556703],[2.82954219,50.51533964],[2.82983893,50.51501063],[2.8299944,50.51482684],[2.82769452,50.51266766],[2.82706088,50.51231403],[2.82620051,50.51198879],[2.82526268,50.51127569],[2.82438758,50.51074397],[2.82427262,50.51061097],[2.82373508,50.50975839],[2.82364459,50.50947103],[2.82374339,50.50899096],[2.82418417,50.50812541],[2.82577977,50.50828564],[2.82834138,50.50832333],[2.82990467,50.50888648],[2.82959246,50.50963913],[2.82911491,50.51057915],[2.83003298,50.51090354],[2.83025556,50.51043441],[2.83038242,50.51038342],[2.83102241,50.51052342],[2.83110642,50.51065638],[2.83083726,50.51116495],[2.8328889,50.51221971],[2.83352451,50.51198988],[2.83426327,50.51164081],[2.83464972,50.51140885],[2.83486729,50.51116949],[2.83555548,50.50991647],[2.83633417,50.50809539],[2.83761659,50.50586656],[2.83893561,50.50491952],[2.8409396,50.50365381]]]]},"bbox":[2.80353677,50.49138465,2.8409396,50.5273048]},{"type":"Feature","id":"fr-quartier-62276-2ea7297cee24","properties":{"id":"fr-quartier-62276-2ea7297cee24","kind":"quartier","name":"Cité du Maroc","cityCode":"62276","cityName":"Douvrin","sourceType":"iris","sourceIds":["622760101"],"colorIndex":1,"center":[2.8355527927032256,50.517517383713404]},"geometry":{"type":"MultiPolygon","coordinates":[[[[2.81234367,50.5289651],[2.81664594,50.52768443],[2.82020321,50.52677233],[2.82599916,50.52544682],[2.85251971,50.52868375],[2.85177778,50.52719829],[2.85241705,50.52527557],[2.85182617,50.5246331],[2.85217447,50.52349539],[2.84852921,50.52303502],[2.84838474,50.52331938],[2.84633975,50.52306105],[2.84660505,50.52240076],[2.84528839,50.52064706],[2.84507204,50.52049599],[2.84460704,50.51925586],[2.84443389,50.51742817],[2.84465168,50.51528053],[2.84477852,50.51523401],[2.84648741,50.51527205],[2.84517864,50.51421396],[2.84470616,50.51359403],[2.84454282,50.51315311],[2.84491085,50.51203429],[2.84534543,50.51124585],[2.84605662,50.51113543],[2.84654988,50.50863087],[2.84424813,50.50830307],[2.84252534,50.50783773],[2.84362345,50.50640387],[2.84424831,50.50642441],[2.84508006,50.50599371],[2.84606012,50.50584413],[2.84837193,50.50607139],[2.85049128,50.50665112],[2.852339,50.50676553],[2.85513137,50.50729392],[2.85750825,50.50793936],[2.85919558,50.50855255],[2.86040285,50.50768325],[2.86072496,50.50725187],[2.85998832,50.5069288],[2.85851167,50.5064891],[2.85570806,50.5054662],[2.85244169,50.50390143],[2.84932488,50.5022802],[2.84804687,50.50231544],[2.84622314,50.50131775],[2.84525696,50.50064244],[2.84458643,50.50130493],[2.8409396,50.50365381],[2.83893561,50.50491952],[2.83761659,50.50586656],[2.83633417,50.50809539],[2.83555548,50.50991647],[2.83486729,50.51116949],[2.83464972,50.51140885],[2.83426327,50.51164081],[2.83352451,50.51198988],[2.8328889,50.51221971],[2.83083726,50.51116495],[2.83110642,50.51065638],[2.83102241,50.51052342],[2.83038242,50.51038342],[2.83025556,50.51043441],[2.83003298,50.51090354],[2.82911491,50.51057915],[2.82959246,50.50963913],[2.82990467,50.50888648],[2.82834138,50.50832333],[2.82577977,50.50828564],[2.82418417,50.50812541],[2.82374339,50.50899096],[2.82364459,50.50947103],[2.82373508,50.50975839],[2.82427262,50.51061097],[2.82438758,50.51074397],[2.82526268,50.51127569],[2.82620051,50.51198879],[2.82706088,50.51231403],[2.82769452,50.51266766],[2.8299944,50.51482684],[2.82983893,50.51501063],[2.82954219,50.51533964],[2.82910643,50.51556703],[2.82884159,50.51561872],[2.82764065,50.51565834],[2.82699652,50.51588453],[2.82578867,50.51669605],[2.82555184,50.51678996],[2.82501943,50.5168682],[2.82405626,50.51693595],[2.82359006,50.51700081],[2.82320537,50.51710438],[2.82167655,50.51788667],[2.8213647,50.51808908],[2.82102447,50.51835606],[2.8196515,50.51963043],[2.81898578,50.5203556],[2.81857213,50.52106498],[2.81855985,50.5213468],[2.81869708,50.52155254],[2.81863743,50.52169607],[2.81845408,50.52178556],[2.81807791,50.52185502],[2.81772359,50.5221112],[2.81659363,50.52310315],[2.81472099,50.52503104],[2.81417606,50.52541887],[2.81370353,50.52564704],[2.81308469,50.52583819],[2.80966722,50.52662734],[2.80721741,50.5273048],[2.80953316,50.52893747],[2.8110768,50.52922347],[2.81180822,50.52868694],[2.81234367,50.5289651]]]]},"bbox":[2.80721741,50.50064244,2.86072496,50.52922347]}]}