{"type":"FeatureCollection","metadata":{"sourceType":"iris","referenceFile":"anglet-quartiers.geojson","source":"IGN / INSEE - Contours IRIS WFS Géoplateforme","sourceUrl":"https://geoservices.ign.fr/contoursiris","license":"Licence Ouverte / Open Licence 2.0","sourceYear":"2026"},"features":[{"type":"Feature","id":"fr-quartier-64024-72c69715779f","properties":{"id":"fr-quartier-64024-72c69715779f","kind":"quartier","name":"Aritxague","cityCode":"64024","cityName":"Anglet","sourceType":"iris","sourceIds":["640240114"],"colorIndex":0,"center":[-1.5007425818758309,43.473871705564974]},"geometry":{"type":"MultiPolygon","coordinates":[[[[-1.5048808,43.47888314],[-1.50457952,43.47794496],[-1.50411962,43.47795056],[-1.50156858,43.47767453],[-1.49913914,43.47737085],[-1.49819179,43.4771723],[-1.49683677,43.47712493],[-1.49726797,43.47599411],[-1.49694494,43.47569302],[-1.49656487,43.47551686],[-1.49570018,43.47552031],[-1.49477538,43.4757993],[-1.49400278,43.47639457],[-1.49375733,43.47711666],[-1.492888,43.47714011],[-1.49245688,43.47721296],[-1.49236092,43.47731516],[-1.49140094,43.47644842],[-1.49109304,43.47634044],[-1.49068284,43.47573115],[-1.49077407,43.47526779],[-1.49069749,43.47492132],[-1.49074939,43.47420817],[-1.49059038,43.47375698],[-1.49035823,43.47373146],[-1.48992349,43.47299793],[-1.4899969,43.47227488],[-1.49057013,43.47177261],[-1.49089472,43.47184115],[-1.49125508,43.47176583],[-1.49154778,43.47185372],[-1.49165553,43.4717285],[-1.49219959,43.47153382],[-1.49217825,43.4714509],[-1.49269099,43.47118812],[-1.49292255,43.46998811],[-1.49373375,43.46964987],[-1.49421702,43.46918466],[-1.49420939,43.46910297],[-1.49453366,43.46897777],[-1.49469408,43.46901977],[-1.49484628,43.46881431],[-1.49607093,43.46852647],[-1.49665734,43.46784609],[-1.49651055,43.46728267],[-1.49676313,43.46605204],[-1.49720426,43.46585529],[-1.49721124,43.46502776],[-1.49703431,43.46474314],[-1.49704658,43.46450473],[-1.49736533,43.464341],[-1.49794919,43.46449788],[-1.49843716,43.46412526],[-1.49908521,43.46434345],[-1.49958415,43.46485349],[-1.49981975,43.4648446],[-1.49992777,43.46495997],[-1.49991747,43.46504961],[-1.49984301,43.46512569],[-1.4996933,43.46515715],[-1.49956744,43.46512994],[-1.49909022,43.46576614],[-1.49852828,43.46707451],[-1.49836057,43.46769786],[-1.49812477,43.46795727],[-1.4980701,43.46809652],[-1.49786766,43.46818152],[-1.49773776,43.46832389],[-1.49760544,43.46856188],[-1.49754068,43.46893584],[-1.49752907,43.46908771],[-1.49759214,43.46927704],[-1.49879268,43.47143047],[-1.49899521,43.47226282],[-1.4991891,43.47268462],[-1.49928643,43.47266345],[-1.49938862,43.47270426],[-1.50248873,43.47124263],[-1.50365851,43.4707281],[-1.50407058,43.47058661],[-1.50462575,43.47048692],[-1.50478135,43.47054623],[-1.50523955,43.47121385],[-1.5053713,43.47136336],[-1.50550608,43.47142534],[-1.50575955,43.47142291],[-1.50654894,43.47126481],[-1.50692274,43.47123483],[-1.50749606,43.47128757],[-1.50805863,43.47147142],[-1.50842951,43.47176688],[-1.50862766,43.47203709],[-1.50886612,43.47219027],[-1.50914133,43.47232299],[-1.50966388,43.47240667],[-1.50982834,43.47249985],[-1.51044699,43.47317699],[-1.51051994,43.47331813],[-1.51020444,43.47393324],[-1.51003212,43.47449643],[-1.51021707,43.47554398],[-1.51027632,43.47565235],[-1.51002445,43.47622697],[-1.50998464,43.47647644],[-1.51033837,43.47751426],[-1.51036975,43.47785089],[-1.5100077,43.47889779],[-1.51004788,43.47912591],[-1.51026715,43.47947544],[-1.51026151,43.47962436],[-1.51020217,43.47971965],[-1.50937825,43.48033791],[-1.50922798,43.48037841],[-1.50891304,43.48018155],[-1.50875515,43.48012504],[-1.50754544,43.47995911],[-1.50566042,43.47941934],[-1.50527254,43.47923903],[-1.5048808,43.47888314]]]]},"bbox":[-1.51051994,43.46412526,-1.48992349,43.48037841]},{"type":"Feature","id":"fr-quartier-64024-cf01125e5057","properties":{"id":"fr-quartier-64024-cf01125e5057","kind":"quartier","name":"Brise-Lame-Lazaret-Montbrun-Pignada","cityCode":"64024","cityName":"Anglet","sourceType":"iris","sourceIds":["640240102"],"colorIndex":1,"center":[-1.5005414744439853,43.513880511498286]},"geometry":{"type":"MultiPolygon","coordinates":[[[[-1.51310849,43.52801691],[-1.51078463,43.52777658],[-1.5017597,43.52711898],[-1.49685688,43.5248181],[-1.49513243,43.52372079],[-1.49138478,43.52114018],[-1.49089204,43.51658355],[-1.49205127,43.51194947],[-1.49261874,43.51060935],[-1.49276393,43.50858832],[-1.49248917,43.50658021],[-1.49153707,43.50460197],[-1.4904089,43.50301493],[-1.49091931,43.50238639],[-1.49098368,43.50230713],[-1.4919332,43.50113591],[-1.49225538,43.50096575],[-1.49292731,43.4998547],[-1.49356702,43.49910725],[-1.49390104,43.49812375],[-1.49392098,43.49815716],[-1.49480725,43.49793476],[-1.49675302,43.49729982],[-1.49688089,43.49730442],[-1.49775479,43.49708251],[-1.49901512,43.49689501],[-1.49972124,43.49690173],[-1.50429313,43.49755346],[-1.50615029,43.4976835],[-1.50687567,43.49765153],[-1.50764872,43.49753286],[-1.50786369,43.49746444],[-1.50843345,43.49715326],[-1.50863478,43.49708451],[-1.50912438,43.49707675],[-1.50882586,43.49721624],[-1.50871919,43.49740271],[-1.50778924,43.49812449],[-1.50739137,43.49854386],[-1.50713729,43.49872926],[-1.5069062,43.49879745],[-1.50566972,43.49889483],[-1.50539512,43.49897654],[-1.50510179,43.49921403],[-1.50480898,43.49978943],[-1.50452911,43.50000924],[-1.50452583,43.50007786],[-1.5043994,43.50010745],[-1.50427928,43.5002332],[-1.5040666,43.50055204],[-1.50397376,43.5008677],[-1.50407845,43.50187086],[-1.50405813,43.50208528],[-1.50386755,43.502323],[-1.50354872,43.50250386],[-1.50344427,43.50271908],[-1.50363751,43.5032887],[-1.50362025,43.50365258],[-1.50393263,43.50368917],[-1.5037638,43.50458293],[-1.50336732,43.50517886],[-1.50278521,43.50648632],[-1.50234962,43.50688381],[-1.50227172,43.5070114],[-1.50220888,43.50703114],[-1.50225323,43.50712302],[-1.50207553,43.50746203],[-1.5007302,43.50900034],[-1.49945689,43.5098156],[-1.49950346,43.50995154],[-1.49942016,43.51002619],[-1.50023556,43.51104581],[-1.5002884,43.51146716],[-1.50018774,43.5122049],[-1.50019388,43.51302561],[-1.50166734,43.51643574],[-1.50183392,43.51953878],[-1.50196717,43.51983244],[-1.50296616,43.52109044],[-1.5032023,43.52089589],[-1.50332314,43.52073136],[-1.50342116,43.5205128],[-1.50343609,43.52027698],[-1.50603301,43.52068723],[-1.50673915,43.52062723],[-1.50713584,43.52047466],[-1.50770943,43.52017775],[-1.50774964,43.52009046],[-1.50799093,43.51997769],[-1.50866292,43.51982989],[-1.50938737,43.5195303],[-1.51009104,43.51936043],[-1.51155222,43.51923294],[-1.5159409,43.51849144],[-1.51637061,43.52022274],[-1.51637928,43.52058465],[-1.51626882,43.52106959],[-1.51524397,43.52414659],[-1.51425035,43.52590564],[-1.51422469,43.5260518],[-1.51401446,43.52619753],[-1.51304449,43.52647854],[-1.51304555,43.5275473],[-1.51310849,43.52801691]]]]},"bbox":[-1.51637928,43.49689501,-1.4904089,43.52801691]},{"type":"Feature","id":"fr-quartier-64024-3468d11492cc","properties":{"id":"fr-quartier-64024-3468d11492cc","kind":"quartier","name":"Butte aux Cailles-Refuge-Montbrun","cityCode":"64024","cityName":"Anglet","sourceType":"iris","sourceIds":["640240104"],"colorIndex":2,"center":[-1.5176655751278998,43.49850769271068]},"geometry":{"type":"MultiPolygon","coordinates":[[[[-1.52793119,43.49402237],[-1.52850213,43.49393182],[-1.52926073,43.49372528],[-1.52895277,43.49390127],[-1.52888223,43.49397991],[-1.52890785,43.49443033],[-1.5288473,43.49455723],[-1.52892744,43.49458452],[-1.52909069,43.49478677],[-1.52925307,43.49488361],[-1.52915571,43.49554825],[-1.52898319,43.4960448],[-1.5289193,43.49609794],[-1.5289642,43.49614923],[-1.52796292,43.49734459],[-1.52785778,43.49759681],[-1.5278446,43.49840301],[-1.52766882,43.49907813],[-1.52782386,43.50063611],[-1.5277154,43.50109754],[-1.52750081,43.50153186],[-1.52737066,43.50146701],[-1.52733355,43.50140458],[-1.52722443,43.50141815],[-1.52708724,43.50146804],[-1.52674389,43.50182393],[-1.52651846,43.50193248],[-1.52599191,43.50203738],[-1.52510048,43.50211516],[-1.52458671,43.50206813],[-1.52231109,43.5016891],[-1.51954355,43.50187036],[-1.51860779,43.50176249],[-1.51832187,43.50177892],[-1.51805936,43.50166821],[-1.51754472,43.50162568],[-1.51611021,43.50181885],[-1.51552218,43.50185057],[-1.51543178,43.50186605],[-1.51523468,43.50198871],[-1.51310624,43.50184308],[-1.50964874,43.50205101],[-1.50591151,43.50259128],[-1.50572408,43.50275858],[-1.50540094,43.50332624],[-1.5049898,43.50346679],[-1.50454692,43.50367625],[-1.50393263,43.50368917],[-1.50362025,43.50365258],[-1.50363751,43.5032887],[-1.50344427,43.50271908],[-1.50354872,43.50250386],[-1.50386755,43.502323],[-1.50405813,43.50208528],[-1.50407845,43.50187086],[-1.50397376,43.5008677],[-1.5040666,43.50055204],[-1.50427928,43.5002332],[-1.5043994,43.50010745],[-1.50452583,43.50007786],[-1.50452911,43.50000924],[-1.50480898,43.49978943],[-1.50510179,43.49921403],[-1.50539512,43.49897654],[-1.50566972,43.49889483],[-1.5069062,43.49879745],[-1.50713729,43.49872926],[-1.50739137,43.49854386],[-1.50778924,43.49812449],[-1.50871919,43.49740271],[-1.50882586,43.49721624],[-1.50912438,43.49707675],[-1.50972072,43.49682033],[-1.51750049,43.49459657],[-1.51821213,43.49431186],[-1.51826321,43.49411147],[-1.51839637,43.4940104],[-1.51858778,43.49395736],[-1.51880884,43.49398238],[-1.51895036,43.49408191],[-1.52086786,43.49373697],[-1.52176908,43.49367503],[-1.52296277,43.49374326],[-1.52668025,43.49409176],[-1.52721568,43.49408471],[-1.52793119,43.49402237]]]]},"bbox":[-1.52926073,43.49367503,-1.50344427,43.50368917]},{"type":"Feature","id":"fr-quartier-64024-5d04c040af6a","properties":{"id":"fr-quartier-64024-5d04c040af6a","kind":"quartier","name":"Cantau-Bernain-Saint-Jean","cityCode":"64024","cityName":"Anglet","sourceType":"iris","sourceIds":["640240112"],"colorIndex":3,"center":[-1.5116426630446533,43.477410694134925]},"geometry":{"type":"MultiPolygon","coordinates":[[[[-1.5023749,43.48314615],[-1.50485022,43.48128599],[-1.50477894,43.48006158],[-1.50456961,43.47979093],[-1.5048808,43.47888314],[-1.50527254,43.47923903],[-1.50566042,43.47941934],[-1.50754544,43.47995911],[-1.50875515,43.48012504],[-1.50891304,43.48018155],[-1.50922798,43.48037841],[-1.50937825,43.48033791],[-1.51020217,43.47971965],[-1.51026151,43.47962436],[-1.51026715,43.47947544],[-1.51004788,43.47912591],[-1.5100077,43.47889779],[-1.51036975,43.47785089],[-1.51033837,43.47751426],[-1.50998464,43.47647644],[-1.51002445,43.47622697],[-1.51027632,43.47565235],[-1.51021707,43.47554398],[-1.51003212,43.47449643],[-1.51020444,43.47393324],[-1.51051994,43.47331813],[-1.51061734,43.47326632],[-1.51089143,43.47221858],[-1.51112958,43.47186351],[-1.51105704,43.47157006],[-1.51107611,43.47111959],[-1.51087587,43.47031869],[-1.51181733,43.47026956],[-1.51282839,43.47033468],[-1.51342462,43.4705216],[-1.51352349,43.47075629],[-1.51403285,43.4711604],[-1.51446467,43.47213638],[-1.51452157,43.47265577],[-1.5144797,43.47393355],[-1.51461631,43.47496329],[-1.51506702,43.47594298],[-1.5155614,43.47615577],[-1.51572823,43.47616864],[-1.5170017,43.47791696],[-1.51707807,43.47813276],[-1.51731136,43.4798875],[-1.51621753,43.48014128],[-1.51597039,43.48025612],[-1.51572027,43.48023861],[-1.5152629,43.48037123],[-1.51157633,43.48120701],[-1.51010594,43.48150435],[-1.50986311,43.48150094],[-1.50966588,43.48144787],[-1.50957436,43.4814643],[-1.50945721,43.48154848],[-1.50942578,43.48165252],[-1.50931913,43.48168129],[-1.50642958,43.48234584],[-1.50409046,43.48281801],[-1.50299838,43.48307969],[-1.5025969,43.48321533],[-1.5023749,43.48314615]]]]},"bbox":[-1.51731136,43.47026956,-1.5023749,43.48321533]},{"type":"Feature","id":"fr-quartier-64024-5f0ceb431502","properties":{"id":"fr-quartier-64024-5f0ceb431502","kind":"quartier","name":"Chiberta","cityCode":"64024","cityName":"Anglet","sourceType":"iris","sourceIds":["640240101"],"colorIndex":4,"center":[-1.5277067945112373,43.51214650907009]},"geometry":{"type":"MultiPolygon","coordinates":[[[[-1.54734244,43.49263622],[-1.54781153,43.4929013],[-1.54839353,43.49285705],[-1.54865218,43.49307509],[-1.54752375,43.49365957],[-1.54669699,43.49441162],[-1.54583053,43.49550687],[-1.54489767,43.49715553],[-1.54439996,43.49763962],[-1.54433583,43.4982371],[-1.54310056,43.49999215],[-1.54450051,43.50047416],[-1.54451924,43.50055448],[-1.54441317,43.50062202],[-1.54423544,43.50056639],[-1.54308086,43.50005606],[-1.54152914,43.50236598],[-1.54134816,43.50277009],[-1.5413629,43.50306596],[-1.54222829,43.50336313],[-1.54246391,43.50352448],[-1.54231796,43.50355764],[-1.54132065,43.50315785],[-1.54095661,43.50309471],[-1.54058881,43.50315608],[-1.54026687,43.50339036],[-1.53935025,43.50476253],[-1.53880907,43.5059198],[-1.53894917,43.50620411],[-1.5396397,43.50648159],[-1.53954524,43.50653962],[-1.53912096,43.50634111],[-1.53902166,43.50638492],[-1.53771172,43.50838996],[-1.53691125,43.50943191],[-1.53358082,43.51319859],[-1.53045057,43.51652602],[-1.52811261,43.51968147],[-1.5265603,43.52212366],[-1.52597771,43.52348356],[-1.52593562,43.52409633],[-1.52606767,43.52451438],[-1.52929417,43.52537994],[-1.52940143,43.5254836],[-1.52934296,43.52568431],[-1.52911195,43.52573902],[-1.52883541,43.52568749],[-1.52847204,43.52547737],[-1.52716158,43.52503645],[-1.52566526,43.52459426],[-1.52548173,43.52462265],[-1.52495125,43.52505755],[-1.52438148,43.5259681],[-1.52412248,43.52676746],[-1.52411992,43.52742634],[-1.5241876,43.52753076],[-1.52635588,43.5278548],[-1.52640779,43.52804188],[-1.52627554,43.52809246],[-1.52440746,43.52779014],[-1.52396158,43.52813588],[-1.52370823,43.52867726],[-1.52449418,43.52890581],[-1.52445117,43.52898871],[-1.52234521,43.52835563],[-1.52184993,43.52788604],[-1.52142932,43.52779814],[-1.52149843,43.52798361],[-1.52116524,43.52881669],[-1.51905206,43.52853171],[-1.51310849,43.52801691],[-1.51304555,43.5275473],[-1.51304449,43.52647854],[-1.51401446,43.52619753],[-1.51422469,43.5260518],[-1.51425035,43.52590564],[-1.51524397,43.52414659],[-1.51626882,43.52106959],[-1.51637928,43.52058465],[-1.51637061,43.52022274],[-1.5159409,43.51849144],[-1.51569157,43.51732127],[-1.5156847,43.5166673],[-1.5157392,43.51627392],[-1.51594143,43.51568062],[-1.51604287,43.51563224],[-1.51596902,43.51554339],[-1.51684018,43.5129234],[-1.51706102,43.51240953],[-1.5173059,43.51209112],[-1.51846119,43.51110032],[-1.51856641,43.51111576],[-1.51861982,43.51105496],[-1.5186031,43.51099978],[-1.51869377,43.51092481],[-1.52022606,43.50975335],[-1.52171734,43.50869083],[-1.52222801,43.50825768],[-1.52389438,43.50657411],[-1.52468136,43.50540576],[-1.52488339,43.50517293],[-1.52621436,43.50421526],[-1.52750081,43.50153186],[-1.52768527,43.50151605],[-1.5277961,43.50139877],[-1.52835367,43.50109069],[-1.5285576,43.50102359],[-1.53002633,43.50104511],[-1.5311123,43.50093842],[-1.53237684,43.50074134],[-1.53415851,43.50072809],[-1.53455003,43.50059094],[-1.53520587,43.50025799],[-1.53607622,43.50013324],[-1.53620822,43.50006463],[-1.53660128,43.49971203],[-1.53725111,43.49960101],[-1.5373476,43.4995375],[-1.53767919,43.49909645],[-1.53782182,43.49900576],[-1.5382056,43.49888064],[-1.53868296,43.49852991],[-1.5385833,43.49755089],[-1.53848947,43.49713126],[-1.53827017,43.49670608],[-1.53814896,43.49667601],[-1.53813251,43.49657757],[-1.53798646,43.4965152],[-1.53816913,43.49643004],[-1.53828483,43.49642159],[-1.53840111,43.49645187],[-1.53853685,43.49655613],[-1.54388793,43.49442312],[-1.54688355,43.49284383],[-1.54734244,43.49263622]]]]},"bbox":[-1.54865218,43.49263622,-1.51304449,43.52898871]},{"type":"Feature","id":"fr-quartier-64024-d45e044b9fc0","properties":{"id":"fr-quartier-64024-d45e044b9fc0","kind":"quartier","name":"Choisy","cityCode":"64024","cityName":"Anglet","sourceType":"iris","sourceIds":["640240108"],"colorIndex":5,"center":[-1.5054399756372017,43.492943288717875]},"geometry":{"type":"MultiPolygon","coordinates":[[[[-1.49775479,43.49708251],[-1.49761571,43.49521207],[-1.49740011,43.49397652],[-1.49836576,43.49389948],[-1.49927832,43.4938715],[-1.50000445,43.4939603],[-1.50032334,43.49395426],[-1.50084099,43.49379939],[-1.50168671,43.49337675],[-1.50226558,43.4931977],[-1.50469809,43.49272711],[-1.50605229,43.49253833],[-1.50614916,43.49257395],[-1.50623983,43.49224666],[-1.50620533,43.49172812],[-1.50624922,43.49123066],[-1.50613118,43.4904047],[-1.50609009,43.49035414],[-1.50592519,43.49036641],[-1.50582889,43.49030643],[-1.50564729,43.4903266],[-1.50426437,43.48997498],[-1.50361758,43.48614671],[-1.50361295,43.48577202],[-1.50381055,43.48567189],[-1.50382927,43.48554765],[-1.50413542,43.48553763],[-1.50536064,43.48582101],[-1.50702177,43.48647013],[-1.50720904,43.48675882],[-1.50809762,43.48719946],[-1.50856987,43.48750783],[-1.50873068,43.48766425],[-1.50923897,43.48836853],[-1.50836469,43.48893029],[-1.50819585,43.48914459],[-1.50813893,43.48931818],[-1.50856636,43.48940222],[-1.50956176,43.48970504],[-1.51053839,43.49019426],[-1.51172501,43.4905675],[-1.51174253,43.49101104],[-1.51121185,43.4920866],[-1.51099983,43.49275959],[-1.51078196,43.49299576],[-1.51013506,43.49345885],[-1.50999498,43.4936296],[-1.50996862,43.49453907],[-1.5099,43.49487896],[-1.50975689,43.49535803],[-1.50942774,43.4961161],[-1.50912438,43.49707675],[-1.50863478,43.49708451],[-1.50843345,43.49715326],[-1.50786369,43.49746444],[-1.50764872,43.49753286],[-1.50687567,43.49765153],[-1.50615029,43.4976835],[-1.50429313,43.49755346],[-1.49972124,43.49690173],[-1.49901512,43.49689501],[-1.49775479,43.49708251]]]]},"bbox":[-1.51174253,43.48553763,-1.49740011,43.4976835]},{"type":"Feature","id":"fr-quartier-64024-f7a72526ff16","properties":{"id":"fr-quartier-64024-f7a72526ff16","kind":"quartier","name":"Cinq Cantons-Golf","cityCode":"64024","cityName":"Anglet","sourceType":"iris","sourceIds":["640240105"],"colorIndex":6,"center":[-1.5361471021710678,43.49445634397602]},"geometry":{"type":"MultiPolygon","coordinates":[[[[-1.53800028,43.48716664],[-1.54447981,43.49095306],[-1.54734244,43.49263622],[-1.54688355,43.49284383],[-1.54388793,43.49442312],[-1.53853685,43.49655613],[-1.53840111,43.49645187],[-1.53828483,43.49642159],[-1.53816913,43.49643004],[-1.53798646,43.4965152],[-1.53813251,43.49657757],[-1.53814896,43.49667601],[-1.53827017,43.49670608],[-1.53848947,43.49713126],[-1.5385833,43.49755089],[-1.53868296,43.49852991],[-1.5382056,43.49888064],[-1.53782182,43.49900576],[-1.53767919,43.49909645],[-1.5373476,43.4995375],[-1.53725111,43.49960101],[-1.53660128,43.49971203],[-1.53620822,43.50006463],[-1.53607622,43.50013324],[-1.53520587,43.50025799],[-1.53455003,43.50059094],[-1.53415851,43.50072809],[-1.53237684,43.50074134],[-1.5311123,43.50093842],[-1.53002633,43.50104511],[-1.5285576,43.50102359],[-1.52835367,43.50109069],[-1.5277961,43.50139877],[-1.52768527,43.50151605],[-1.52750081,43.50153186],[-1.5277154,43.50109754],[-1.52782386,43.50063611],[-1.52766882,43.49907813],[-1.5278446,43.49840301],[-1.52785778,43.49759681],[-1.52796292,43.49734459],[-1.5289642,43.49614923],[-1.5289193,43.49609794],[-1.52898319,43.4960448],[-1.52915571,43.49554825],[-1.52925307,43.49488361],[-1.52909069,43.49478677],[-1.52892744,43.49458452],[-1.5288473,43.49455723],[-1.52890785,43.49443033],[-1.52888223,43.49397991],[-1.52895277,43.49390127],[-1.52926073,43.49372528],[-1.53081336,43.49318093],[-1.53151508,43.49280283],[-1.53187228,43.49256079],[-1.53322974,43.49122252],[-1.536479,43.48735292],[-1.53726939,43.48728377],[-1.53800028,43.48716664]]]]},"bbox":[-1.54734244,43.48716664,-1.52750081,43.50153186]},{"type":"Feature","id":"fr-quartier-64024-c0acfab9de5c","properties":{"id":"fr-quartier-64024-c0acfab9de5c","kind":"quartier","name":"Glacière-Parme-Brindos-Sutar-Aritxague","cityCode":"64024","cityName":"Anglet","sourceType":"iris","sourceIds":["640240113"],"colorIndex":7,"center":[-1.5145487461465639,43.46383076279474]},"geometry":{"type":"MultiPolygon","coordinates":[[[[-1.49843716,43.46412526],[-1.49852233,43.46405955],[-1.49726656,43.46360076],[-1.49683588,43.46333028],[-1.49636375,43.46284615],[-1.49613239,43.46243493],[-1.49599058,43.46191906],[-1.4960986,43.46135497],[-1.49603449,43.46059887],[-1.49612451,43.45980484],[-1.49486804,43.4570743],[-1.49384862,43.45723106],[-1.4942712,43.45562753],[-1.49455087,43.45518608],[-1.49530447,43.45259649],[-1.49534942,43.45124203],[-1.4952132,43.45090796],[-1.49482141,43.45050069],[-1.49568636,43.45082163],[-1.49587372,43.45082917],[-1.49805798,43.44954805],[-1.4982068,43.44953736],[-1.50260995,43.45070422],[-1.50392976,43.45124137],[-1.50466265,43.45143887],[-1.5046845,43.45114959],[-1.5063682,43.45101104],[-1.50651135,43.45122766],[-1.507522,43.45116577],[-1.5079019,43.45107335],[-1.50841837,43.45106626],[-1.50928726,43.45086878],[-1.5095895,43.45087421],[-1.51011878,43.45071519],[-1.51102222,43.45059555],[-1.51139144,43.45044589],[-1.51179578,43.4504759],[-1.51325799,43.4503681],[-1.51391348,43.45065076],[-1.51424153,43.45089031],[-1.51486342,43.451123],[-1.51582083,43.4512651],[-1.51636489,43.45219131],[-1.51680383,43.4525668],[-1.51708263,43.45251011],[-1.5177241,43.45423427],[-1.51827386,43.45609743],[-1.52052605,43.45738128],[-1.52105704,43.45760512],[-1.52345604,43.45822224],[-1.52506333,43.45825782],[-1.52761246,43.45883253],[-1.53241226,43.46014837],[-1.53557978,43.46092231],[-1.53475324,43.46515274],[-1.53460783,43.46752709],[-1.53439128,43.4688122],[-1.53471992,43.47292849],[-1.53464469,43.47301004],[-1.53409788,43.47327806],[-1.53067364,43.47471723],[-1.52441526,43.47742641],[-1.52417517,43.47758333],[-1.5238903,43.47764299],[-1.5235397,43.47784237],[-1.52292064,43.47805837],[-1.5205934,43.4790711],[-1.51974712,43.47934072],[-1.51731136,43.4798875],[-1.51707807,43.47813276],[-1.5170017,43.47791696],[-1.51572823,43.47616864],[-1.5155614,43.47615577],[-1.51506702,43.47594298],[-1.51461631,43.47496329],[-1.5144797,43.47393355],[-1.51452157,43.47265577],[-1.51446467,43.47213638],[-1.51403285,43.4711604],[-1.51352349,43.47075629],[-1.51342462,43.4705216],[-1.51282839,43.47033468],[-1.51181733,43.47026956],[-1.51087587,43.47031869],[-1.51107611,43.47111959],[-1.51105704,43.47157006],[-1.51112958,43.47186351],[-1.51089143,43.47221858],[-1.51061734,43.47326632],[-1.51051994,43.47331813],[-1.51044699,43.47317699],[-1.50982834,43.47249985],[-1.50966388,43.47240667],[-1.50914133,43.47232299],[-1.50886612,43.47219027],[-1.50862766,43.47203709],[-1.50842951,43.47176688],[-1.50805863,43.47147142],[-1.50749606,43.47128757],[-1.50692274,43.47123483],[-1.50654894,43.47126481],[-1.50575955,43.47142291],[-1.50550608,43.47142534],[-1.5053713,43.47136336],[-1.50523955,43.47121385],[-1.50478135,43.47054623],[-1.50462575,43.47048692],[-1.50407058,43.47058661],[-1.50365851,43.4707281],[-1.50248873,43.47124263],[-1.49938862,43.47270426],[-1.49928643,43.47266345],[-1.4991891,43.47268462],[-1.49899521,43.47226282],[-1.49879268,43.47143047],[-1.49759214,43.46927704],[-1.49752907,43.46908771],[-1.49754068,43.46893584],[-1.49760544,43.46856188],[-1.49773776,43.46832389],[-1.49786766,43.46818152],[-1.4980701,43.46809652],[-1.49812477,43.46795727],[-1.49836057,43.46769786],[-1.49852828,43.46707451],[-1.49909022,43.46576614],[-1.49956744,43.46512994],[-1.4996933,43.46515715],[-1.49984301,43.46512569],[-1.49991747,43.46504961],[-1.49992777,43.46495997],[-1.49981975,43.4648446],[-1.49958415,43.46485349],[-1.49908521,43.46434345],[-1.49843716,43.46412526]]]]},"bbox":[-1.53557978,43.44953736,-1.49384862,43.4798875]},{"type":"Feature","id":"fr-quartier-64024-e368b4c1fdc6","properties":{"id":"fr-quartier-64024-e368b4c1fdc6","kind":"quartier","name":"Louillot","cityCode":"64024","cityName":"Anglet","sourceType":"iris","sourceIds":["640240111"],"colorIndex":8,"center":[-1.5258282268377081,43.485512989555055]},"geometry":{"type":"MultiPolygon","coordinates":[[[[-1.5284122,43.4932624],[-1.52829176,43.49328906],[-1.52832883,43.49314693],[-1.52828315,43.49308575],[-1.52802979,43.49302785],[-1.52790491,43.49287266],[-1.52690531,43.49237733],[-1.52601865,43.49161864],[-1.52377748,43.49000632],[-1.52238483,43.48865233],[-1.52216632,43.48837668],[-1.52164571,43.48751797],[-1.52051626,43.48626742],[-1.51812097,43.4846263],[-1.5180593,43.48466041],[-1.51793516,43.48465568],[-1.51785518,43.48459863],[-1.51785534,43.48452203],[-1.51795631,43.48446825],[-1.51794707,43.48441367],[-1.51772922,43.48408301],[-1.51671053,43.48326308],[-1.51689541,43.48319049],[-1.51711834,43.48320823],[-1.51848615,43.48352606],[-1.51986736,43.48413981],[-1.51999625,43.48412632],[-1.52061471,43.48265955],[-1.5211315,43.48016879],[-1.52321545,43.48015208],[-1.52550902,43.48023561],[-1.52770524,43.48038714],[-1.52766292,43.48069801],[-1.52774416,43.48081808],[-1.52974705,43.48192298],[-1.531124,43.48292067],[-1.53134935,43.48300046],[-1.53152273,43.48301754],[-1.53353085,43.48313627],[-1.5317306,43.48549518],[-1.53142301,43.48619294],[-1.53143989,43.48643825],[-1.53139442,43.48650504],[-1.53143941,43.48654191],[-1.53129879,43.48700288],[-1.52992834,43.4890545],[-1.52948357,43.48956694],[-1.52922132,43.48994559],[-1.52903766,43.49066159],[-1.52890338,43.49192524],[-1.52870073,43.49258887],[-1.52867875,43.49311067],[-1.52857952,43.49320223],[-1.5284122,43.4932624]]]]},"bbox":[-1.53353085,43.48015208,-1.51671053,43.49328906]},{"type":"Feature","id":"fr-quartier-64024-1fd020b21960","properties":{"id":"fr-quartier-64024-1fd020b21960","kind":"quartier","name":"Mondeville-Chassin","cityCode":"64024","cityName":"Anglet","sourceType":"iris","sourceIds":["640240106"],"colorIndex":9,"center":[-1.5307161447288513,43.48203739647838]},"geometry":{"type":"MultiPolygon","coordinates":[[[[-1.53464469,43.47301004],[-1.53493106,43.47554025],[-1.53520353,43.4810287],[-1.53543542,43.48567356],[-1.53800028,43.48716664],[-1.53726939,43.48728377],[-1.536479,43.48735292],[-1.53322974,43.49122252],[-1.53187228,43.49256079],[-1.53151508,43.49280283],[-1.53081336,43.49318093],[-1.52926073,43.49372528],[-1.52850213,43.49393182],[-1.52793119,43.49402237],[-1.52840515,43.49383224],[-1.52863255,43.49362357],[-1.52863043,43.49340828],[-1.52856296,43.49332188],[-1.5284122,43.4932624],[-1.52857952,43.49320223],[-1.52867875,43.49311067],[-1.52870073,43.49258887],[-1.52890338,43.49192524],[-1.52903766,43.49066159],[-1.52922132,43.48994559],[-1.52948357,43.48956694],[-1.52992834,43.4890545],[-1.53129879,43.48700288],[-1.53143941,43.48654191],[-1.53139442,43.48650504],[-1.53143989,43.48643825],[-1.53142301,43.48619294],[-1.5317306,43.48549518],[-1.53353085,43.48313627],[-1.53152273,43.48301754],[-1.53134935,43.48300046],[-1.531124,43.48292067],[-1.52974705,43.48192298],[-1.52774416,43.48081808],[-1.52766292,43.48069801],[-1.52770524,43.48038714],[-1.52550902,43.48023561],[-1.52321545,43.48015208],[-1.5211315,43.48016879],[-1.51681392,43.48037595],[-1.51621559,43.48036846],[-1.51552522,43.48041796],[-1.5152629,43.48037123],[-1.51572027,43.48023861],[-1.51597039,43.48025612],[-1.51621753,43.48014128],[-1.51731136,43.4798875],[-1.51974712,43.47934072],[-1.5205934,43.4790711],[-1.52292064,43.47805837],[-1.5235397,43.47784237],[-1.5238903,43.47764299],[-1.52417517,43.47758333],[-1.52441526,43.47742641],[-1.53067364,43.47471723],[-1.53409788,43.47327806],[-1.53464469,43.47301004]]]]},"bbox":[-1.53800028,43.47301004,-1.5152629,43.49402237]},{"type":"Feature","id":"fr-quartier-64024-fb8b69307f93","properties":{"id":"fr-quartier-64024-fb8b69307f93","kind":"quartier","name":"Pignada","cityCode":"64024","cityName":"Anglet","sourceType":"iris","sourceIds":["640240103"],"colorIndex":10,"center":[-1.5112884156447282,43.510019022561664]},"geometry":{"type":"MultiPolygon","coordinates":[[[[-1.52750081,43.50153186],[-1.52621436,43.50421526],[-1.52488339,43.50517293],[-1.52468136,43.50540576],[-1.52389438,43.50657411],[-1.52222801,43.50825768],[-1.52171734,43.50869083],[-1.52022606,43.50975335],[-1.51869377,43.51092481],[-1.5186031,43.51099978],[-1.51861982,43.51105496],[-1.51856641,43.51111576],[-1.51846119,43.51110032],[-1.5173059,43.51209112],[-1.51706102,43.51240953],[-1.51684018,43.5129234],[-1.51596902,43.51554339],[-1.51604287,43.51563224],[-1.51594143,43.51568062],[-1.5157392,43.51627392],[-1.5156847,43.5166673],[-1.51569157,43.51732127],[-1.5159409,43.51849144],[-1.51155222,43.51923294],[-1.51009104,43.51936043],[-1.50938737,43.5195303],[-1.50866292,43.51982989],[-1.50799093,43.51997769],[-1.50774964,43.52009046],[-1.50770943,43.52017775],[-1.50713584,43.52047466],[-1.50673915,43.52062723],[-1.50603301,43.52068723],[-1.50343609,43.52027698],[-1.50342116,43.5205128],[-1.50332314,43.52073136],[-1.5032023,43.52089589],[-1.50296616,43.52109044],[-1.50196717,43.51983244],[-1.50183392,43.51953878],[-1.50166734,43.51643574],[-1.50019388,43.51302561],[-1.50018774,43.5122049],[-1.5002884,43.51146716],[-1.50023556,43.51104581],[-1.49942016,43.51002619],[-1.49950346,43.50995154],[-1.49945689,43.5098156],[-1.5007302,43.50900034],[-1.50207553,43.50746203],[-1.50225323,43.50712302],[-1.50220888,43.50703114],[-1.50227172,43.5070114],[-1.50234962,43.50688381],[-1.50278521,43.50648632],[-1.50336732,43.50517886],[-1.5037638,43.50458293],[-1.50393263,43.50368917],[-1.50454692,43.50367625],[-1.5049898,43.50346679],[-1.50540094,43.50332624],[-1.50572408,43.50275858],[-1.50591151,43.50259128],[-1.50964874,43.50205101],[-1.51310624,43.50184308],[-1.51523468,43.50198871],[-1.51543178,43.50186605],[-1.51552218,43.50185057],[-1.51611021,43.50181885],[-1.51754472,43.50162568],[-1.51805936,43.50166821],[-1.51832187,43.50177892],[-1.51860779,43.50176249],[-1.51954355,43.50187036],[-1.52231109,43.5016891],[-1.52458671,43.50206813],[-1.52510048,43.50211516],[-1.52599191,43.50203738],[-1.52651846,43.50193248],[-1.52674389,43.50182393],[-1.52708724,43.50146804],[-1.52722443,43.50141815],[-1.52733355,43.50140458],[-1.52737066,43.50146701],[-1.52750081,43.50153186]]]]},"bbox":[-1.52750081,43.50140458,-1.49942016,43.52109044]},{"type":"Feature","id":"fr-quartier-64024-e048128105af","properties":{"id":"fr-quartier-64024-e048128105af","kind":"quartier","name":"Pontots","cityCode":"64024","cityName":"Anglet","sourceType":"iris","sourceIds":["640240115"],"colorIndex":11,"center":[-1.4968680904445595,43.49356229919332]},"geometry":{"type":"MultiPolygon","coordinates":[[[[-1.49390104,43.49812375],[-1.49504313,43.49380038],[-1.49600474,43.49185363],[-1.49601246,43.4918416],[-1.49668165,43.49068197],[-1.49775693,43.48838625],[-1.4978574,43.48830999],[-1.49984951,43.48885537],[-1.49850712,43.49064764],[-1.49842198,43.49071426],[-1.49822292,43.4907802],[-1.49824592,43.4909],[-1.4983653,43.49098606],[-1.49836415,43.49106631],[-1.49796451,43.49225351],[-1.49915084,43.49246558],[-1.49976441,43.49242929],[-1.49965553,43.49288799],[-1.49927832,43.4938715],[-1.49836576,43.49389948],[-1.49740011,43.49397652],[-1.49761571,43.49521207],[-1.49775479,43.49708251],[-1.49688089,43.49730442],[-1.49675302,43.49729982],[-1.49480725,43.49793476],[-1.49392098,43.49815716],[-1.49390104,43.49812375]]]]},"bbox":[-1.49984951,43.48830999,-1.49390104,43.49815716]},{"type":"Feature","id":"fr-quartier-64024-a7ca97fd5b1f","properties":{"id":"fr-quartier-64024-a7ca97fd5b1f","kind":"quartier","name":"Quatre Cantons","cityCode":"64024","cityName":"Anglet","sourceType":"iris","sourceIds":["640240107"],"colorIndex":12,"center":[-1.5176546776080801,43.49101603757093]},"geometry":{"type":"MultiPolygon","coordinates":[[[[-1.52793119,43.49402237],[-1.52721568,43.49408471],[-1.52668025,43.49409176],[-1.52296277,43.49374326],[-1.52176908,43.49367503],[-1.52086786,43.49373697],[-1.51895036,43.49408191],[-1.51880884,43.49398238],[-1.51858778,43.49395736],[-1.51839637,43.4940104],[-1.51826321,43.49411147],[-1.51821213,43.49431186],[-1.51750049,43.49459657],[-1.50972072,43.49682033],[-1.50912438,43.49707675],[-1.50942774,43.4961161],[-1.50975689,43.49535803],[-1.5099,43.49487896],[-1.50996862,43.49453907],[-1.50999498,43.4936296],[-1.51013506,43.49345885],[-1.51078196,43.49299576],[-1.51099983,43.49275959],[-1.51121185,43.4920866],[-1.51174253,43.49101104],[-1.51172501,43.4905675],[-1.51274848,43.48839181],[-1.51367435,43.48691228],[-1.51406389,43.48596334],[-1.51437164,43.48605235],[-1.51522694,43.48613205],[-1.51552455,43.48601331],[-1.51585189,43.48580051],[-1.51592884,43.48564591],[-1.51603827,43.48507001],[-1.51612783,43.4848554],[-1.51630994,43.48482618],[-1.51696154,43.48488102],[-1.51785518,43.48459863],[-1.51793516,43.48465568],[-1.5180593,43.48466041],[-1.51812097,43.4846263],[-1.52051626,43.48626742],[-1.52164571,43.48751797],[-1.52216632,43.48837668],[-1.52238483,43.48865233],[-1.52377748,43.49000632],[-1.52601865,43.49161864],[-1.52690531,43.49237733],[-1.52790491,43.49287266],[-1.52802979,43.49302785],[-1.52828315,43.49308575],[-1.52832883,43.49314693],[-1.52829176,43.49328906],[-1.5284122,43.4932624],[-1.52856296,43.49332188],[-1.52863043,43.49340828],[-1.52863255,43.49362357],[-1.52840515,43.49383224],[-1.52793119,43.49402237]]]]},"bbox":[-1.52863255,43.48459863,-1.50912438,43.49707675]},{"type":"Feature","id":"fr-quartier-64024-5bb376666450","properties":{"id":"fr-quartier-64024-5bb376666450","kind":"quartier","name":"Saint-Jean-Bernain","cityCode":"64024","cityName":"Anglet","sourceType":"iris","sourceIds":["640240110"],"colorIndex":13,"center":[-1.5120387117673224,43.48425399142687]},"geometry":{"type":"MultiPolygon","coordinates":[[[[-1.51172501,43.4905675],[-1.51053839,43.49019426],[-1.50956176,43.48970504],[-1.50856636,43.48940222],[-1.50813893,43.48931818],[-1.50819585,43.48914459],[-1.50836469,43.48893029],[-1.50923897,43.48836853],[-1.50873068,43.48766425],[-1.50856987,43.48750783],[-1.50809762,43.48719946],[-1.50720904,43.48675882],[-1.50702177,43.48647013],[-1.50536064,43.48582101],[-1.50413542,43.48553763],[-1.50382927,43.48554765],[-1.50372911,43.48543827],[-1.50362069,43.48541304],[-1.50395574,43.48493501],[-1.50419646,43.48442216],[-1.50428856,43.48434984],[-1.50333679,43.48381267],[-1.50347235,43.48361599],[-1.50283774,43.483509],[-1.5027374,43.48344469],[-1.50269572,43.48330764],[-1.5025969,43.48321533],[-1.50299838,43.48307969],[-1.50409046,43.48281801],[-1.50642958,43.48234584],[-1.50931913,43.48168129],[-1.50942578,43.48165252],[-1.50945721,43.48154848],[-1.50957436,43.4814643],[-1.50966588,43.48144787],[-1.50986311,43.48150094],[-1.51010594,43.48150435],[-1.51157633,43.48120701],[-1.5152629,43.48037123],[-1.51552522,43.48041796],[-1.51621559,43.48036846],[-1.51681392,43.48037595],[-1.5211315,43.48016879],[-1.52061471,43.48265955],[-1.51999625,43.48412632],[-1.51986736,43.48413981],[-1.51848615,43.48352606],[-1.51711834,43.48320823],[-1.51689541,43.48319049],[-1.51671053,43.48326308],[-1.51772922,43.48408301],[-1.51794707,43.48441367],[-1.51795631,43.48446825],[-1.51785534,43.48452203],[-1.51785518,43.48459863],[-1.51696154,43.48488102],[-1.51630994,43.48482618],[-1.51612783,43.4848554],[-1.51603827,43.48507001],[-1.51592884,43.48564591],[-1.51585189,43.48580051],[-1.51552455,43.48601331],[-1.51522694,43.48613205],[-1.51437164,43.48605235],[-1.51406389,43.48596334],[-1.51367435,43.48691228],[-1.51274848,43.48839181],[-1.51172501,43.4905675]]]]},"bbox":[-1.5211315,43.48016879,-1.5025969,43.4905675]},{"type":"Feature","id":"fr-quartier-64024-485d0c945fdb","properties":{"id":"fr-quartier-64024-485d0c945fdb","kind":"quartier","name":"Tivoli-Union","cityCode":"64024","cityName":"Anglet","sourceType":"iris","sourceIds":["640240109"],"colorIndex":14,"center":[-1.5017346774985236,43.48906125353879]},"geometry":{"type":"MultiPolygon","coordinates":[[[[-1.49775693,43.48838625],[-1.49971577,43.48435245],[-1.50003496,43.48425628],[-1.50119273,43.48439021],[-1.50218301,43.48368221],[-1.5021639,43.48335948],[-1.5023749,43.48314615],[-1.5025969,43.48321533],[-1.50269572,43.48330764],[-1.5027374,43.48344469],[-1.50283774,43.483509],[-1.50347235,43.48361599],[-1.50333679,43.48381267],[-1.50428856,43.48434984],[-1.50419646,43.48442216],[-1.50395574,43.48493501],[-1.50362069,43.48541304],[-1.50372911,43.48543827],[-1.50382927,43.48554765],[-1.50381055,43.48567189],[-1.50361295,43.48577202],[-1.50361758,43.48614671],[-1.50426437,43.48997498],[-1.50564729,43.4903266],[-1.50582889,43.49030643],[-1.50592519,43.49036641],[-1.50609009,43.49035414],[-1.50613118,43.4904047],[-1.50624922,43.49123066],[-1.50620533,43.49172812],[-1.50623983,43.49224666],[-1.50614916,43.49257395],[-1.50605229,43.49253833],[-1.50469809,43.49272711],[-1.50226558,43.4931977],[-1.50168671,43.49337675],[-1.50084099,43.49379939],[-1.50032334,43.49395426],[-1.50000445,43.4939603],[-1.49927832,43.4938715],[-1.49965553,43.49288799],[-1.49976441,43.49242929],[-1.49915084,43.49246558],[-1.49796451,43.49225351],[-1.49836415,43.49106631],[-1.4983653,43.49098606],[-1.49824592,43.4909],[-1.49822292,43.4907802],[-1.49842198,43.49071426],[-1.49850712,43.49064764],[-1.49984951,43.48885537],[-1.4978574,43.48830999],[-1.49775693,43.48838625]]]]},"bbox":[-1.50624922,43.48314615,-1.49775693,43.4939603]}]}