{"type":"FeatureCollection","metadata":{"sourceType":"iris","referenceFile":"rixheim-quartiers.geojson","source":"IGN / INSEE - Contours IRIS WFS Géoplateforme","sourceUrl":"https://geoservices.ign.fr/contoursiris","license":"Licence Ouverte / Open Licence 2.0","sourceYear":"2026"},"features":[{"type":"Feature","id":"fr-quartier-68278-be3aaf3c5024","properties":{"id":"fr-quartier-68278-be3aaf3c5024","kind":"quartier","name":"les Romains","cityCode":"68278","cityName":"Rixheim","sourceType":"iris","sourceIds":["682780102"],"colorIndex":0,"center":[7.429963769679157,47.75473098667412]},"geometry":{"type":"MultiPolygon","coordinates":[[[[7.4459622,47.76352996],[7.44374808,47.7625215],[7.45452023,47.74569685],[7.436377,47.74376503],[7.41700719,47.74141523],[7.41711838,47.74120911],[7.41596323,47.74076865],[7.41566878,47.74086],[7.4155375,47.74100108],[7.41442939,47.74230315],[7.41439275,47.74242533],[7.41443018,47.74252217],[7.41422579,47.74258758],[7.41373602,47.74309556],[7.41353544,47.74323925],[7.41198026,47.74500168],[7.4116346,47.74544291],[7.4116591,47.7455772],[7.4104614,47.74691325],[7.40788998,47.74985066],[7.40856009,47.75017877],[7.40795768,47.75024835],[7.40802691,47.75089028],[7.40830748,47.75164684],[7.40884131,47.75179799],[7.40940359,47.75211484],[7.40976788,47.75238146],[7.40997105,47.75271995],[7.41024114,47.7530433],[7.41041111,47.75317482],[7.41106051,47.75342978],[7.41127009,47.75355529],[7.41164377,47.75388645],[7.41125737,47.75453023],[7.41124502,47.75468755],[7.41214079,47.75501164],[7.41253409,47.75519242],[7.41388065,47.75608363],[7.41563428,47.75715958],[7.41663507,47.75787812],[7.41767063,47.75874137],[7.41785067,47.7588166],[7.41802828,47.75879817],[7.4181759,47.75866008],[7.41801665,47.75889957],[7.41801546,47.75899788],[7.41838322,47.75933736],[7.41884916,47.75944235],[7.41848127,47.76045325],[7.41792268,47.76175982],[7.4172425,47.76321249],[7.41644792,47.76460818],[7.41491459,47.76699449],[7.41322898,47.76933602],[7.41209246,47.77078694],[7.4462524,47.76600968],[7.44527447,47.76385988],[7.44527019,47.76374466],[7.4459622,47.76352996]]]]},"bbox":[7.40788998,47.74076865,7.45452023,47.77078694]},{"type":"Feature","id":"fr-quartier-68278-af2854f2dfa1","properties":{"id":"fr-quartier-68278-af2854f2dfa1","kind":"quartier","name":"Parc d'Entremont","cityCode":"68278","cityName":"Rixheim","sourceType":"iris","sourceIds":["682780104"],"colorIndex":1,"center":[7.384262570002972,47.7560904253247]},"geometry":{"type":"MultiPolygon","coordinates":[[[[7.38067088,47.75184502],[7.38047639,47.75198301],[7.38019343,47.75250742],[7.38007599,47.75307792],[7.37976382,47.7541569],[7.37921435,47.75522764],[7.37932358,47.75613218],[7.37881968,47.75733462],[7.38028167,47.75849771],[7.38183486,47.75946898],[7.38274779,47.75990532],[7.38266079,47.76003388],[7.38508059,47.7608293],[7.38422181,47.7618774],[7.38604748,47.76242194],[7.38637896,47.76211294],[7.387239,47.76153443],[7.38772966,47.76125912],[7.39072725,47.75852529],[7.38591894,47.75703711],[7.38614478,47.7563715],[7.38661384,47.75586714],[7.38684976,47.755486],[7.38858251,47.75511722],[7.38842693,47.75480305],[7.38814718,47.75442593],[7.3880912,47.75429822],[7.38810288,47.7541157],[7.38867351,47.75335241],[7.38918855,47.75275797],[7.38726745,47.75215487],[7.38710384,47.75216461],[7.38713454,47.75187229],[7.38669914,47.75155239],[7.38633268,47.75138765],[7.38553611,47.75119396],[7.38424636,47.7509845],[7.38407076,47.75089734],[7.38392944,47.75091796],[7.38385482,47.75083963],[7.38231168,47.75047468],[7.38186366,47.75042296],[7.38133791,47.75036873],[7.38117157,47.7503939],[7.38098397,47.75111846],[7.38067088,47.75184502]]]]},"bbox":[7.37881968,47.75036873,7.39072725,47.76242194]},{"type":"Feature","id":"fr-quartier-68278-468c37be2269","properties":{"id":"fr-quartier-68278-468c37be2269","kind":"quartier","name":"Rue de Battenheim","cityCode":"68278","cityName":"Rixheim","sourceType":"iris","sourceIds":["682780106"],"colorIndex":2,"center":[7.394225966238324,47.7588422218328]},"geometry":{"type":"MultiPolygon","coordinates":[[[[7.38422181,47.7618774],[7.38318328,47.76309718],[7.38378225,47.76338934],[7.38345912,47.7637512],[7.38392466,47.76406278],[7.38385994,47.76413731],[7.38571059,47.76504871],[7.39104785,47.76716969],[7.39080255,47.76779367],[7.39173937,47.76814432],[7.39757657,47.7615898],[7.40744968,47.75036035],[7.39080987,47.75434404],[7.39044231,47.75444167],[7.38858251,47.75511722],[7.38684976,47.755486],[7.38661384,47.75586714],[7.38614478,47.7563715],[7.38591894,47.75703711],[7.39072725,47.75852529],[7.38772966,47.76125912],[7.387239,47.76153443],[7.38637896,47.76211294],[7.38604748,47.76242194],[7.38422181,47.7618774]]]]},"bbox":[7.38318328,47.75036035,7.40744968,47.76814432]},{"type":"Feature","id":"fr-quartier-68278-46fed753da85","properties":{"id":"fr-quartier-68278-46fed753da85","kind":"quartier","name":"Rue de la Navigation","cityCode":"68278","cityName":"Rixheim","sourceType":"iris","sourceIds":["682780105"],"colorIndex":3,"center":[7.4056555427191295,47.76353979545808]},"geometry":{"type":"MultiPolygon","coordinates":[[[[7.39173937,47.76814432],[7.391597,47.76831463],[7.39211425,47.76868463],[7.39350177,47.76853428],[7.39356222,47.76934691],[7.39275657,47.76932217],[7.39307925,47.77050895],[7.39300156,47.77123572],[7.39258479,47.7713379],[7.39292965,47.77195145],[7.39289461,47.77230432],[7.39249959,47.77232996],[7.39256249,47.7728324],[7.39289507,47.77347525],[7.41209246,47.77078694],[7.41322898,47.76933602],[7.41491459,47.76699449],[7.41644792,47.76460818],[7.4172425,47.76321249],[7.41792268,47.76175982],[7.41848127,47.76045325],[7.41884916,47.75944235],[7.41838322,47.75933736],[7.41801546,47.75899788],[7.41801665,47.75889957],[7.4181759,47.75866008],[7.41802828,47.75879817],[7.41785067,47.7588166],[7.41767063,47.75874137],[7.41663507,47.75787812],[7.41563428,47.75715958],[7.41388065,47.75608363],[7.41253409,47.75519242],[7.41214079,47.75501164],[7.41124502,47.75468755],[7.41125737,47.75453023],[7.41164377,47.75388645],[7.41127009,47.75355529],[7.41106051,47.75342978],[7.41041111,47.75317482],[7.41024114,47.7530433],[7.40997105,47.75271995],[7.40976788,47.75238146],[7.40940359,47.75211484],[7.40884131,47.75179799],[7.40830748,47.75164684],[7.40802691,47.75089028],[7.40795768,47.75024835],[7.40856009,47.75017877],[7.40788998,47.74985066],[7.40744968,47.75036035],[7.39757657,47.7615898],[7.39173937,47.76814432]]]]},"bbox":[7.391597,47.74985066,7.41884916,47.77347525]},{"type":"Feature","id":"fr-quartier-68278-53bf9df345d7","properties":{"id":"fr-quartier-68278-53bf9df345d7","kind":"quartier","name":"Rue de Zimmersheim","cityCode":"68278","cityName":"Rixheim","sourceType":"iris","sourceIds":["682780101"],"colorIndex":4,"center":[7.388064165559333,47.73535778890689]},"geometry":{"type":"MultiPolygon","coordinates":[[[[7.41596323,47.74076865],[7.41603726,47.74067841],[7.41562438,47.74051822],[7.41532277,47.74086135],[7.41483286,47.74073922],[7.41527872,47.73978306],[7.41395416,47.73950674],[7.41389785,47.73877959],[7.41367342,47.73836167],[7.41267744,47.73756721],[7.41232123,47.73717139],[7.41132887,47.73671033],[7.41064837,47.73619062],[7.41047102,47.73598547],[7.41029489,47.73544042],[7.41002309,47.73551467],[7.40973255,47.73495951],[7.40956783,47.73498736],[7.40934168,47.73472545],[7.40916432,47.73481057],[7.40865408,47.73411946],[7.4084583,47.73420797],[7.40691832,47.73374859],[7.40672843,47.73358537],[7.40573663,47.73345237],[7.40554693,47.73322694],[7.40461732,47.73313486],[7.40225979,47.73240242],[7.40227636,47.73219897],[7.40084226,47.73179052],[7.40086101,47.73143554],[7.39992856,47.73113079],[7.39824694,47.73036202],[7.3987111,47.73020663],[7.39739683,47.72985673],[7.39487853,47.7291969],[7.39293935,47.72899664],[7.39302698,47.72869858],[7.38946308,47.72759024],[7.38749221,47.72718285],[7.3874299,47.72705899],[7.38590424,47.72693053],[7.38587809,47.72645104],[7.38471663,47.72581312],[7.38393428,47.72547918],[7.38309534,47.72535017],[7.38317214,47.72495246],[7.38234201,47.72478436],[7.382484,47.72435086],[7.38195925,47.72409468],[7.38049459,47.72389447],[7.37866788,47.72405124],[7.37863148,47.72396607],[7.37830303,47.7240009],[7.37609311,47.72346166],[7.37615121,47.72332336],[7.37407663,47.72259331],[7.37302659,47.72199168],[7.37279453,47.72176869],[7.37276726,47.72161556],[7.371103,47.72074031],[7.37110408,47.72054195],[7.37081496,47.72043738],[7.37056621,47.72012486],[7.37014145,47.71983245],[7.36954293,47.71909942],[7.36862164,47.71833969],[7.36807795,47.71803008],[7.36743278,47.71788381],[7.36588143,47.71716112],[7.3641481,47.71586378],[7.3611913,47.71554415],[7.36034124,47.71796737],[7.35804731,47.72041016],[7.36028754,47.72222053],[7.36099147,47.72352389],[7.36159394,47.72440374],[7.36262249,47.72484222],[7.36486255,47.72529406],[7.36604521,47.72593318],[7.36837668,47.72683046],[7.36952834,47.72749775],[7.37127382,47.72833484],[7.37155737,47.72871276],[7.37226737,47.73039443],[7.37367193,47.73062585],[7.3732737,47.73213712],[7.37334889,47.73258052],[7.37769747,47.73444061],[7.38037343,47.73529502],[7.3797245,47.73590166],[7.38107329,47.73642715],[7.38012088,47.73789251],[7.37991736,47.73780638],[7.37977628,47.73799195],[7.38163158,47.73863098],[7.38041086,47.73988914],[7.38226209,47.74070499],[7.38192006,47.74117664],[7.38266592,47.74124334],[7.38258362,47.74150965],[7.38242611,47.74154439],[7.38157315,47.74134559],[7.38078227,47.74214414],[7.37997976,47.74263934],[7.38099112,47.74302513],[7.38051087,47.74379852],[7.38142589,47.74403648],[7.3801718,47.74537792],[7.381338,47.74566326],[7.38095847,47.74632921],[7.38078361,47.74693251],[7.38057156,47.74846387],[7.37988389,47.75111819],[7.37990156,47.75164126],[7.38067088,47.75184502],[7.38098397,47.75111846],[7.38117157,47.7503939],[7.38133791,47.75036873],[7.38186366,47.75042296],[7.38231168,47.75047468],[7.38385482,47.75083963],[7.38392944,47.75091796],[7.38407076,47.75089734],[7.38424636,47.7509845],[7.38553611,47.75119396],[7.38633268,47.75138765],[7.38669914,47.75155239],[7.38713454,47.75187229],[7.38710384,47.75216461],[7.38726745,47.75215487],[7.38918855,47.75275797],[7.3894434,47.75246085],[7.3904258,47.75152074],[7.39156251,47.75055589],[7.39371209,47.74890846],[7.39445522,47.74814767],[7.39502598,47.74732304],[7.39534396,47.74541266],[7.39569573,47.74549679],[7.39622653,47.74574186],[7.39635874,47.74575672],[7.39724305,47.74565407],[7.39764987,47.74564418],[7.39942679,47.74597579],[7.3996566,47.74497285],[7.39989317,47.74452044],[7.40042936,47.74470129],[7.40159384,47.74488373],[7.40264578,47.74498205],[7.40420553,47.74495037],[7.40497375,47.74485022],[7.406819,47.7443444],[7.40689765,47.74427744],[7.40699314,47.74426843],[7.40708642,47.74431359],[7.40710444,47.74438593],[7.40726147,47.74445844],[7.40829466,47.74479811],[7.40849283,47.74497994],[7.40932686,47.74607712],[7.4104614,47.74691325],[7.4116591,47.7455772],[7.4116346,47.74544291],[7.41198026,47.74500168],[7.41353544,47.74323925],[7.41373602,47.74309556],[7.41422579,47.74258758],[7.41443018,47.74252217],[7.41439275,47.74242533],[7.41442939,47.74230315],[7.4155375,47.74100108],[7.41566878,47.74086],[7.41596323,47.74076865]]]]},"bbox":[7.35804731,47.71554415,7.41603726,47.75275797]},{"type":"Feature","id":"fr-quartier-68278-2140d9736af6","properties":{"id":"fr-quartier-68278-2140d9736af6","kind":"quartier","name":"Rue Saint-Jean","cityCode":"68278","cityName":"Rixheim","sourceType":"iris","sourceIds":["682780103"],"colorIndex":5,"center":[7.3997733489707755,47.7491440935649]},"geometry":{"type":"MultiPolygon","coordinates":[[[[7.40744968,47.75036035],[7.40788998,47.74985066],[7.4104614,47.74691325],[7.40932686,47.74607712],[7.40849283,47.74497994],[7.40829466,47.74479811],[7.40726147,47.74445844],[7.40710444,47.74438593],[7.40708642,47.74431359],[7.40699314,47.74426843],[7.40689765,47.74427744],[7.406819,47.7443444],[7.40497375,47.74485022],[7.40420553,47.74495037],[7.40264578,47.74498205],[7.40159384,47.74488373],[7.40042936,47.74470129],[7.39989317,47.74452044],[7.3996566,47.74497285],[7.39942679,47.74597579],[7.39764987,47.74564418],[7.39724305,47.74565407],[7.39635874,47.74575672],[7.39622653,47.74574186],[7.39569573,47.74549679],[7.39534396,47.74541266],[7.39502598,47.74732304],[7.39445522,47.74814767],[7.39371209,47.74890846],[7.39156251,47.75055589],[7.3904258,47.75152074],[7.3894434,47.75246085],[7.38918855,47.75275797],[7.38867351,47.75335241],[7.38810288,47.7541157],[7.3880912,47.75429822],[7.38814718,47.75442593],[7.38842693,47.75480305],[7.38858251,47.75511722],[7.39044231,47.75444167],[7.39080987,47.75434404],[7.40744968,47.75036035]]]]},"bbox":[7.3880912,47.74426843,7.4104614,47.75511722]}]}