{"type":"FeatureCollection","metadata":{"sourceType":"iris","source":"IGN / INSEE — Contours IRIS 2026","sourceUrl":"https://data.geopf.fr/wfs/ows?service=WFS&version=2.0.0&request=GetFeature&typeNames=STATISTICALUNITS.IRIS%3Acontours_iris&outputFormat=application%2Fjson&srsName=CRS%3A84&count=1000&CQL_FILTER=code_insee%3D%2769142%27&sortBy=code_iris","retrievedDate":"2026-09-10","sourceYear":"2026","license":"Licence Ouverte 2.0"},"features":[{"type":"Feature","id":"fr-quartier-69142-0a6a5757ffa3","properties":{"id":"fr-quartier-69142-0a6a5757ffa3","kind":"quartier","name":"Le Confluent","cityCode":"69142","cityName":"La Mulatière","sourceType":"iris","sourceIds":["691420102"],"colorIndex":0,"center":[4.812207172498695,45.73445279]},"geometry":{"type":"MultiPolygon","coordinates":[[[[4.81345519,45.74809751],[4.81433561,45.748894],[4.81464278,45.74966819],[4.81696364,45.74958488],[4.81821443,45.74896574],[4.81715746,45.74824058],[4.81662716,45.74776363],[4.81514746,45.74619137],[4.81415324,45.7447491],[4.81364986,45.7435223],[4.81335935,45.7423137],[4.81303442,45.7399374],[4.81304078,45.73871952],[4.8133342,45.73691966],[4.814282,45.73295473],[4.81493576,45.73179038],[4.81521239,45.73151931],[4.81623668,45.73110379],[4.81674456,45.73078576],[4.81695991,45.73045082],[4.8178516,45.72647235],[4.81871901,45.72656915],[4.82039751,45.71997306],[4.82079148,45.71916775],[4.81839922,45.71868305],[4.81293287,45.71789561],[4.81292703,45.71799208],[4.81297046,45.72014051],[4.81176575,45.72042109],[4.81154632,45.72086687],[4.81118728,45.72109422],[4.8118699,45.72293244],[4.81266151,45.72401409],[4.81363174,45.7248947],[4.81476591,45.72700756],[4.81187215,45.72810346],[4.81207101,45.72844163],[4.81244189,45.72873111],[4.81256477,45.72890928],[4.81260341,45.72906809],[4.81256925,45.72990901],[4.81244979,45.73010999],[4.81238245,45.73037048],[4.81142094,45.73148572],[4.81109297,45.7319963],[4.81098681,45.73279965],[4.81072074,45.73331553],[4.81070801,45.7341444],[4.81055154,45.73439371],[4.81042936,45.73451187],[4.81031761,45.734556],[4.80988477,45.73563571],[4.8096528,45.73668337],[4.80934887,45.73702602],[4.80881554,45.73735524],[4.80873964,45.73751228],[4.80865663,45.73839542],[4.80887466,45.73947639],[4.80865647,45.74071028],[4.80888319,45.74170284],[4.80882768,45.74216851],[4.80925404,45.74277506],[4.80972995,45.74300882],[4.81090024,45.74437174],[4.81116984,45.7452186],[4.81152716,45.7455227],[4.8119669,45.74575073],[4.81230694,45.74611636],[4.81224289,45.7467524],[4.81243568,45.74737441],[4.81316648,45.74768962],[4.81345519,45.74809751]]]]},"bbox":[4.80865647,45.71789561,4.82079148,45.74966819]},{"type":"Feature","id":"fr-quartier-69142-2c3ce4b33526","properties":{"id":"fr-quartier-69142-2c3ce4b33526","kind":"quartier","name":"Le Roule","cityCode":"69142","cityName":"La Mulatière","sourceType":"iris","sourceIds":["691420101"],"colorIndex":1,"center":[4.8100134323743315,45.7300095]},"geometry":{"type":"MultiPolygon","coordinates":[[[[4.80634219,45.72842549],[4.80723933,45.72943163],[4.80782717,45.73065349],[4.8083316,45.73132995],[4.80947417,45.73224747],[4.80963395,45.73257097],[4.8097064,45.73336965],[4.81028918,45.73415923],[4.81031761,45.734556],[4.81042936,45.73451187],[4.81055154,45.73439371],[4.81070801,45.7341444],[4.81072074,45.73331553],[4.81098681,45.73279965],[4.81109297,45.7319963],[4.81142094,45.73148572],[4.81238245,45.73037048],[4.81244979,45.73010999],[4.81256925,45.72990901],[4.81260341,45.72906809],[4.81256477,45.72890928],[4.81244189,45.72873111],[4.81207101,45.72844163],[4.81187215,45.72810346],[4.81179636,45.72779212],[4.81192771,45.72705142],[4.81155606,45.72622782],[4.81003345,45.72658375],[4.8095827,45.72672159],[4.80945701,45.7272037],[4.80923746,45.72760804],[4.80758117,45.72804624],[4.80634219,45.72842549]]]]},"bbox":[4.80634219,45.72622782,4.81260341,45.734556]},{"type":"Feature","id":"fr-quartier-69142-95b50be3728d","properties":{"id":"fr-quartier-69142-95b50be3728d","kind":"quartier","name":"Les Chassagnes","cityCode":"69142","cityName":"La Mulatière","sourceType":"iris","sourceIds":["691420103"],"colorIndex":2,"center":[4.805210880512565,45.72446532]},"geometry":{"type":"MultiPolygon","coordinates":[[[[4.81118728,45.72109422],[4.81060884,45.7213368],[4.81011386,45.72244003],[4.80851998,45.72438866],[4.80835091,45.72370142],[4.80818092,45.72357624],[4.80735746,45.72368133],[4.80704738,45.72454198],[4.80628216,45.72414712],[4.80669227,45.72363164],[4.80508508,45.72371954],[4.80495587,45.72397651],[4.8048024,45.72404202],[4.8041233,45.72265948],[4.80281014,45.72289036],[4.80295612,45.72330505],[4.80413018,45.72570831],[4.8054103,45.72706322],[4.80572951,45.7273076],[4.80603642,45.72741167],[4.8060763,45.72808117],[4.80634219,45.72842549],[4.80758117,45.72804624],[4.80923746,45.72760804],[4.80945701,45.7272037],[4.8095827,45.72672159],[4.81003345,45.72658375],[4.81155606,45.72622782],[4.81192771,45.72705142],[4.81179636,45.72779212],[4.81187215,45.72810346],[4.81476591,45.72700756],[4.81363174,45.7248947],[4.81266151,45.72401409],[4.8118699,45.72293244],[4.81118728,45.72109422]]]]},"bbox":[4.80281014,45.72109422,4.81476591,45.72842549]}]}