{"type":"FeatureCollection","metadata":{"sourceType":"iris","source":"IGN / INSEE — Contours IRIS 2026","sourceUrl":"https://data.geopf.fr/wfs/ows?service=WFS&version=2.0.0&request=GetFeature&typeNames=STATISTICALUNITS.IRIS%3Acontours_iris&outputFormat=application%2Fjson&srsName=CRS%3A84&count=1000&CQL_FILTER=code_insee%3D%2769204%27&sortBy=code_iris","retrievedDate":"2026-09-10","sourceYear":"2026","license":"Licence Ouverte 2.0"},"features":[{"type":"Feature","id":"fr-quartier-69204-b8ac0cb481f0","properties":{"id":"fr-quartier-69204-b8ac0cb481f0","kind":"quartier","name":"Basses Barolles","cityCode":"69204","cityName":"Saint-Genis-Laval","sourceType":"iris","sourceIds":["692040103"],"colorIndex":0,"center":[4.787684550594799,45.676675375]},"geometry":{"type":"MultiPolygon","coordinates":[[[[4.7953392,45.67890144],[4.7953729,45.67716792],[4.79549595,45.6768417],[4.7953024,45.67646018],[4.79526,45.67515302],[4.7948098,45.67505841],[4.79498092,45.67455038],[4.79523591,45.67452921],[4.79455068,45.67289182],[4.79311861,45.67251021],[4.79131621,45.67259474],[4.79110979,45.67252866],[4.79061131,45.67165569],[4.79059808,45.67132624],[4.79106173,45.66893918],[4.79170047,45.66668444],[4.79190394,45.6663029],[4.79078361,45.66570373],[4.78945732,45.66548793],[4.7890195,45.66529673],[4.78660143,45.66476677],[4.78502535,45.66580687],[4.78434455,45.66616714],[4.78413492,45.6667181],[4.7836986,45.66701143],[4.78493824,45.66808526],[4.78479457,45.66880901],[4.78555827,45.66886715],[4.78609209,45.66904694],[4.78612933,45.66900672],[4.78769254,45.66955476],[4.78594441,45.67203514],[4.78565436,45.67327913],[4.78285189,45.67279121],[4.78116548,45.67272782],[4.78137281,45.67334153],[4.78148831,45.67465474],[4.77983132,45.67482866],[4.77987325,45.67589264],[4.77990437,45.67666045],[4.78001069,45.6766903],[4.77922947,45.67808884],[4.77944662,45.6783286],[4.7793943,45.67837987],[4.7799288,45.67889834],[4.7797321,45.67977424],[4.77917236,45.67994971],[4.7791125,45.68004613],[4.77918392,45.68038908],[4.77961516,45.68113256],[4.77984168,45.6817829],[4.78127448,45.68242227],[4.78127363,45.682316],[4.7815626,45.68199168],[4.78260035,45.68105743],[4.7827581,45.6810081],[4.78342555,45.68094529],[4.78518606,45.68050937],[4.78558774,45.68045347],[4.78598725,45.68044984],[4.78654857,45.6805229],[4.78828279,45.6809052],[4.79008596,45.68135214],[4.79306805,45.68201447],[4.79370772,45.68208535],[4.7938408,45.68214718],[4.79389021,45.68208604],[4.79399267,45.6820754],[4.79415777,45.6819755],[4.79421892,45.68187995],[4.79448922,45.68118029],[4.79450693,45.68002258],[4.79443215,45.6794203],[4.79432815,45.67918506],[4.79465847,45.67914828],[4.7953392,45.67890144]]]]},"bbox":[4.7791125,45.66476677,4.79549595,45.68242227]},{"type":"Feature","id":"fr-quartier-69204-6ac1eaabf6f6","properties":{"id":"fr-quartier-69204-6ac1eaabf6f6","kind":"quartier","name":"Centre-Bourg","cityCode":"69204","cityName":"Saint-Genis-Laval","sourceType":"iris","sourceIds":["692040301"],"colorIndex":1,"center":[4.7905493925524105,45.69366583]},"geometry":{"type":"MultiPolygon","coordinates":[[[[4.78999619,45.69836088],[4.79052116,45.69821833],[4.79108526,45.69797428],[4.79118758,45.69779971],[4.79206371,45.69679229],[4.79224053,45.69665617],[4.79340955,45.69619982],[4.79384807,45.69612709],[4.79459848,45.69802196],[4.79542738,45.69785833],[4.79502041,45.69727935],[4.79513147,45.69685964],[4.79512784,45.69619317],[4.79519809,45.69617944],[4.79520209,45.69610462],[4.79533961,45.69598533],[4.79565415,45.69585512],[4.79564147,45.69550404],[4.79575323,45.69546263],[4.79607482,45.69487654],[4.79552673,45.69446374],[4.79498586,45.69423367],[4.79553737,45.69388081],[4.7958396,45.69345085],[4.79614681,45.69313521],[4.7963779,45.69316665],[4.79630625,45.69293901],[4.79549651,45.69175036],[4.79507,45.69143921],[4.79484222,45.69135096],[4.79475291,45.6913713],[4.79413941,45.69096134],[4.79401922,45.69098037],[4.79394871,45.69090673],[4.79375256,45.6908423],[4.79306717,45.69015696],[4.79277708,45.68977156],[4.7924882,45.68918529],[4.79196905,45.68835408],[4.78970265,45.68865132],[4.78790049,45.68911769],[4.78699944,45.68791962],[4.78674764,45.68780292],[4.78665356,45.6879143],[4.7864379,45.68804112],[4.78500879,45.68867806],[4.78444011,45.6889771],[4.78426981,45.68907617],[4.7841258,45.68923338],[4.78399547,45.68957591],[4.78401637,45.68974582],[4.78380668,45.68985902],[4.7846772,45.69210423],[4.78507926,45.69289409],[4.78577002,45.69450443],[4.78594636,45.69451244],[4.78761378,45.69420587],[4.78785707,45.69421733],[4.78859102,45.69608727],[4.78875514,45.69627382],[4.78922747,45.69629244],[4.78933513,45.69648168],[4.78980188,45.69795684],[4.78999619,45.69836088]]]]},"bbox":[4.78380668,45.68780292,4.7963779,45.69836088]},{"type":"Feature","id":"fr-quartier-69204-63f56995e9ac","properties":{"id":"fr-quartier-69204-63f56995e9ac","kind":"quartier","name":"Centre-Entrée Nord","cityCode":"69204","cityName":"Saint-Genis-Laval","sourceType":"iris","sourceIds":["692040302"],"colorIndex":2,"center":[4.792851099045036,45.697790940000004]},"geometry":{"type":"MultiPolygon","coordinates":[[[[4.79778899,45.70617574],[4.7987863,45.7060085],[4.80201135,45.70567865],[4.80250617,45.70555634],[4.80263274,45.70525888],[4.80263958,45.70511376],[4.80242306,45.70458399],[4.80153886,45.70348665],[4.80146712,45.70329684],[4.80138883,45.70262976],[4.8008044,45.7020122],[4.80063981,45.70161581],[4.80021124,45.70108673],[4.80005055,45.70077044],[4.79968375,45.70024308],[4.7991317,45.69923678],[4.79952887,45.69832702],[4.79998052,45.69869721],[4.80023488,45.69885077],[4.80083155,45.69901597],[4.80140245,45.69906089],[4.80160889,45.69778217],[4.80198941,45.69699426],[4.80209005,45.69653238],[4.80216166,45.69644207],[4.80229096,45.69638685],[4.8023182,45.69556586],[4.80264173,45.69362144],[4.80261973,45.69330113],[4.80248226,45.69298718],[4.8013208,45.69323724],[4.80009232,45.69336316],[4.79941427,45.69365772],[4.79917446,45.69371379],[4.79841156,45.69365212],[4.79761315,45.69332799],[4.7963779,45.69316665],[4.79614681,45.69313521],[4.7958396,45.69345085],[4.79553737,45.69388081],[4.79498586,45.69423367],[4.79552673,45.69446374],[4.79607482,45.69487654],[4.79575323,45.69546263],[4.79564147,45.69550404],[4.79565415,45.69585512],[4.79533961,45.69598533],[4.79520209,45.69610462],[4.79519809,45.69617944],[4.79512784,45.69619317],[4.79513147,45.69685964],[4.79502041,45.69727935],[4.79542738,45.69785833],[4.79459848,45.69802196],[4.79384807,45.69612709],[4.79340955,45.69619982],[4.79224053,45.69665617],[4.79206371,45.69679229],[4.79118758,45.69779971],[4.79108526,45.69797428],[4.79117854,45.69855286],[4.79112329,45.69978411],[4.79118369,45.70093517],[4.79208455,45.70128474],[4.79312471,45.70156903],[4.79370728,45.70157687],[4.79553737,45.70140541],[4.79571274,45.70142243],[4.79589685,45.70151046],[4.79609671,45.70184595],[4.79778899,45.70617574]]]]},"bbox":[4.79108526,45.69298718,4.80264173,45.70617574]},{"type":"Feature","id":"fr-quartier-69204-2574131aad2f","properties":{"id":"fr-quartier-69204-2574131aad2f","kind":"quartier","name":"Champlong","cityCode":"69204","cityName":"Saint-Genis-Laval","sourceType":"iris","sourceIds":["692040203"],"colorIndex":3,"center":[4.805389639139454,45.693621085000004]},"geometry":{"type":"MultiPolygon","coordinates":[[[[4.80814346,45.69261994],[4.80626474,45.69251227],[4.80497843,45.692559],[4.80389022,45.69265029],[4.80248226,45.69298718],[4.80261973,45.69330113],[4.80264173,45.69362144],[4.8023182,45.69556586],[4.80229096,45.69638685],[4.8034312,45.69635149],[4.80629158,45.69605077],[4.80716177,45.69605122],[4.80780129,45.69512853],[4.80804053,45.69454373],[4.80813761,45.69362073],[4.80814346,45.69261994]]]]},"bbox":[4.80229096,45.69251227,4.80814346,45.69638685]},{"type":"Feature","id":"fr-quartier-69204-c8d060b95915","properties":{"id":"fr-quartier-69204-c8d060b95915","kind":"quartier","name":"Clos Chaurand","cityCode":"69204","cityName":"Saint-Genis-Laval","sourceType":"iris","sourceIds":["692040205"],"colorIndex":4,"center":[4.7999994096151966,45.685538405]},"geometry":{"type":"MultiPolygon","coordinates":[[[[4.81780411,45.69083776],[4.81802897,45.68833282],[4.81701008,45.68806644],[4.81633282,45.68767564],[4.8145051,45.68755107],[4.81315996,45.68713228],[4.81166261,45.68618539],[4.81132512,45.68588637],[4.81124812,45.68553633],[4.81108998,45.68541638],[4.8106524,45.68582873],[4.81025873,45.68605124],[4.8099949,45.68607889],[4.80982082,45.68531428],[4.80977794,45.68439623],[4.80996681,45.68419864],[4.81054561,45.68311478],[4.81053477,45.68297984],[4.80903274,45.68294633],[4.80716377,45.68316639],[4.80694775,45.68300502],[4.80591471,45.68273336],[4.80478388,45.68261547],[4.80550275,45.68117451],[4.80569684,45.68038868],[4.8056008,45.68031996],[4.80434275,45.68012125],[4.80436447,45.67901391],[4.80097379,45.67906278],[4.80067795,45.67889547],[4.79961102,45.67880354],[4.7988551,45.67863367],[4.7988836,45.67844316],[4.79855482,45.67840878],[4.7985215,45.67860927],[4.79744463,45.67848775],[4.7965956,45.67877422],[4.7953392,45.67890144],[4.79465847,45.67914828],[4.79432815,45.67918506],[4.79443215,45.6794203],[4.79450693,45.68002258],[4.79448922,45.68118029],[4.79421892,45.68187995],[4.79415777,45.6819755],[4.79399267,45.6820754],[4.79408853,45.6820991],[4.7941263,45.68219397],[4.79400992,45.6822904],[4.79403432,45.6825278],[4.79361333,45.68369283],[4.79356113,45.68422328],[4.79381684,45.68473802],[4.79470128,45.68585703],[4.79491474,45.68641568],[4.79499838,45.68693406],[4.79462386,45.68905671],[4.7945382,45.68938774],[4.79408275,45.69056142],[4.79406065,45.69083109],[4.79415851,45.69087637],[4.79413941,45.69096134],[4.79475291,45.6913713],[4.79484222,45.69135096],[4.79507,45.69143921],[4.79549651,45.69175036],[4.79630625,45.69293901],[4.7963779,45.69316665],[4.79761315,45.69332799],[4.79800611,45.69308033],[4.79840154,45.69275066],[4.80089927,45.69031665],[4.80144509,45.68987017],[4.80188539,45.68941997],[4.80203812,45.68933466],[4.80203837,45.6892635],[4.8021336,45.68922775],[4.80317122,45.68829602],[4.80453685,45.6872167],[4.80466851,45.68719478],[4.80470601,45.68712302],[4.80466209,45.68707689],[4.80554754,45.68554048],[4.80607301,45.68494569],[4.80723887,45.68550525],[4.80909805,45.68647701],[4.81343266,45.68878702],[4.81510056,45.68960143],[4.81780411,45.69083776]]]]},"bbox":[4.79356113,45.67840878,4.81802897,45.69332799]},{"type":"Feature","id":"fr-quartier-69204-c269b4f9f337","properties":{"id":"fr-quartier-69204-c269b4f9f337","kind":"quartier","name":"Guilloux","cityCode":"69204","cityName":"Saint-Genis-Laval","sourceType":"iris","sourceIds":["692040204"],"colorIndex":5,"center":[4.805155270596401,45.68977882]},"geometry":{"type":"MultiPolygon","coordinates":[[[[4.80248226,45.69298718],[4.80389022,45.69265029],[4.80497843,45.692559],[4.80626474,45.69251227],[4.80814346,45.69261994],[4.80835987,45.69027549],[4.80853411,45.68994393],[4.80873969,45.68982444],[4.80881253,45.6897332],[4.80888263,45.6894006],[4.80874715,45.68800846],[4.80893221,45.68690751],[4.80909805,45.68647701],[4.80723887,45.68550525],[4.80607301,45.68494569],[4.80554754,45.68554048],[4.80466209,45.68707689],[4.80470601,45.68712302],[4.80466851,45.68719478],[4.80453685,45.6872167],[4.80317122,45.68829602],[4.8021336,45.68922775],[4.80203837,45.6892635],[4.80203812,45.68933466],[4.80188539,45.68941997],[4.80144509,45.68987017],[4.80089927,45.69031665],[4.79840154,45.69275066],[4.79800611,45.69308033],[4.79761315,45.69332799],[4.79841156,45.69365212],[4.79917446,45.69371379],[4.79941427,45.69365772],[4.80009232,45.69336316],[4.8013208,45.69323724],[4.80248226,45.69298718]]]]},"bbox":[4.79761315,45.68494569,4.80909805,45.69371379]},{"type":"Feature","id":"fr-quartier-69204-92201a45c8f1","properties":{"id":"fr-quartier-69204-92201a45c8f1","kind":"quartier","name":"Hôpital","cityCode":"69204","cityName":"Saint-Genis-Laval","sourceType":"iris","sourceIds":["692040201"],"colorIndex":6,"center":[4.803399589753475,45.70135127]},"geometry":{"type":"MultiPolygon","coordinates":[[[[4.80250617,45.70555634],[4.8028008,45.70678652],[4.80440808,45.70510076],[4.80514553,45.70351089],[4.80627908,45.70184891],[4.80680672,45.69907253],[4.80373585,45.6990722],[4.80225848,45.69913817],[4.80140245,45.69906089],[4.80083155,45.69901597],[4.80023488,45.69885077],[4.79998052,45.69869721],[4.79952887,45.69832702],[4.7991317,45.69923678],[4.79968375,45.70024308],[4.80005055,45.70077044],[4.80021124,45.70108673],[4.80063981,45.70161581],[4.8008044,45.7020122],[4.80138883,45.70262976],[4.80146712,45.70329684],[4.80153886,45.70348665],[4.80242306,45.70458399],[4.80263958,45.70511376],[4.80263274,45.70525888],[4.80250617,45.70555634]]]]},"bbox":[4.7991317,45.69832702,4.80680672,45.70678652]},{"type":"Feature","id":"fr-quartier-69204-2131237fc177","properties":{"id":"fr-quartier-69204-2131237fc177","kind":"quartier","name":"Moly","cityCode":"69204","cityName":"Saint-Genis-Laval","sourceType":"iris","sourceIds":["692040101"],"colorIndex":7,"center":[4.791090820608902,45.70891431]},"geometry":{"type":"MultiPolygon","coordinates":[[[[4.78469115,45.71704122],[4.78817097,45.71498467],[4.78892066,45.71462959],[4.79128795,45.71463523],[4.79161112,45.71417253],[4.79214535,45.71395416],[4.79288536,45.71377756],[4.79271011,45.71340835],[4.79324681,45.71330614],[4.79353758,45.71343122],[4.79352222,45.7132351],[4.79383988,45.7122861],[4.79467302,45.71101813],[4.79486089,45.71042877],[4.79576608,45.70979736],[4.79615546,45.70971279],[4.79674092,45.70972778],[4.79715411,45.70922849],[4.79852826,45.70815453],[4.79778899,45.70617574],[4.79609671,45.70184595],[4.79589685,45.70151046],[4.79571274,45.70142243],[4.79553737,45.70140541],[4.79370728,45.70157687],[4.79312471,45.70156903],[4.79208455,45.70128474],[4.79118369,45.70093517],[4.79112329,45.69978411],[4.79117854,45.69855286],[4.79108526,45.69797428],[4.79052116,45.69821833],[4.78999619,45.69836088],[4.78969371,45.6985071],[4.78919502,45.69890593],[4.78846731,45.69993439],[4.7881351,45.70031436],[4.7871663,45.70088457],[4.78645755,45.70142724],[4.78561489,45.70272051],[4.78495302,45.70400011],[4.78508312,45.70536263],[4.78477412,45.70574673],[4.78467103,45.70597804],[4.7844604,45.70753871],[4.78446798,45.70781331],[4.78466435,45.70860013],[4.7844574,45.71027514],[4.78442208,45.71232843],[4.78434384,45.71281245],[4.78392224,45.71393241],[4.78387596,45.71417183],[4.78402299,45.71589978],[4.78393199,45.71630744],[4.78392585,45.7166354],[4.78407496,45.71679337],[4.7845779,45.71691871],[4.78464447,45.71694918],[4.78469115,45.71704122]]]]},"bbox":[4.78387596,45.69797428,4.79852826,45.71704122]},{"type":"Feature","id":"fr-quartier-69204-c4fb59d7015b","properties":{"id":"fr-quartier-69204-c4fb59d7015b","kind":"quartier","name":"Ouest Saint-Genois","cityCode":"69204","cityName":"Saint-Genis-Laval","sourceType":"iris","sourceIds":["692040102"],"colorIndex":8,"center":[4.774188378633873,45.689779285]},"geometry":{"type":"MultiPolygon","coordinates":[[[[4.77984168,45.6817829],[4.77905001,45.68321853],[4.77804657,45.68306414],[4.77629164,45.68335754],[4.77625893,45.68377959],[4.77527041,45.6834493],[4.7751254,45.68357588],[4.7748041,45.68357464],[4.77479688,45.68403052],[4.77416297,45.68401888],[4.77389554,45.68525707],[4.77474791,45.6853085],[4.77465688,45.68583595],[4.77419022,45.68631167],[4.77494642,45.68745086],[4.77535808,45.68758399],[4.7747343,45.68804958],[4.77427614,45.68814957],[4.77413967,45.6883823],[4.77389969,45.68839328],[4.77334739,45.68916488],[4.77226416,45.68909006],[4.7722844,45.68863848],[4.77084422,45.68853323],[4.77048715,45.68882077],[4.77033477,45.68919966],[4.76825115,45.68890723],[4.7663602,45.68844961],[4.76537317,45.68808588],[4.7652192,45.6880937],[4.76472411,45.68941379],[4.764416,45.68978701],[4.76586556,45.6916756],[4.76633693,45.69210866],[4.76677327,45.69341685],[4.766769,45.69424918],[4.7661315,45.69654427],[4.76611527,45.69716332],[4.76647887,45.69868792],[4.76761643,45.70234858],[4.76784342,45.70390055],[4.76787878,45.70556992],[4.76814166,45.70643408],[4.76895843,45.70777413],[4.77256978,45.71231011],[4.77249013,45.71239243],[4.77314079,45.71367832],[4.77352284,45.71420553],[4.77419495,45.71459577],[4.7752034,45.7147285],[4.77561154,45.71514631],[4.77630226,45.71615504],[4.77720829,45.71690095],[4.77766554,45.71740535],[4.77826105,45.71849032],[4.77842031,45.71968396],[4.77869441,45.71949048],[4.78009408,45.71879105],[4.78016948,45.71885651],[4.78215757,45.71810272],[4.78469115,45.71704122],[4.78464447,45.71694918],[4.7845779,45.71691871],[4.78407496,45.71679337],[4.78392585,45.7166354],[4.78393199,45.71630744],[4.78402299,45.71589978],[4.78387596,45.71417183],[4.78392224,45.71393241],[4.78434384,45.71281245],[4.78442208,45.71232843],[4.7844574,45.71027514],[4.78466435,45.70860013],[4.78446798,45.70781331],[4.7844604,45.70753871],[4.78467103,45.70597804],[4.78477412,45.70574673],[4.78508312,45.70536263],[4.78495302,45.70400011],[4.78561489,45.70272051],[4.78645755,45.70142724],[4.7871663,45.70088457],[4.7881351,45.70031436],[4.78846731,45.69993439],[4.78919502,45.69890593],[4.78969371,45.6985071],[4.78999619,45.69836088],[4.78980188,45.69795684],[4.78933513,45.69648168],[4.78922747,45.69629244],[4.78875514,45.69627382],[4.78859102,45.69608727],[4.78785707,45.69421733],[4.78761378,45.69420587],[4.78594636,45.69451244],[4.78577002,45.69450443],[4.78507926,45.69289409],[4.7846772,45.69210423],[4.78380668,45.68985902],[4.78401637,45.68974582],[4.78399547,45.68957591],[4.7841258,45.68923338],[4.78426981,45.68907617],[4.78444011,45.6889771],[4.78500879,45.68867806],[4.7864379,45.68804112],[4.78665356,45.6879143],[4.78674764,45.68780292],[4.78699944,45.68791962],[4.78790049,45.68911769],[4.78970265,45.68865132],[4.79196905,45.68835408],[4.7924882,45.68918529],[4.79277708,45.68977156],[4.79306717,45.69015696],[4.79375256,45.6908423],[4.79394871,45.69090673],[4.79401922,45.69098037],[4.79413941,45.69096134],[4.79415851,45.69087637],[4.79406065,45.69083109],[4.79408275,45.69056142],[4.7945382,45.68938774],[4.79462386,45.68905671],[4.79499838,45.68693406],[4.79491474,45.68641568],[4.79470128,45.68585703],[4.79381684,45.68473802],[4.79356113,45.68422328],[4.79361333,45.68369283],[4.79403432,45.6825278],[4.79400992,45.6822904],[4.7941263,45.68219397],[4.79408853,45.6820991],[4.79399267,45.6820754],[4.79389021,45.68208604],[4.7938408,45.68214718],[4.79370772,45.68208535],[4.79306805,45.68201447],[4.79008596,45.68135214],[4.78828279,45.6809052],[4.78654857,45.6805229],[4.78598725,45.68044984],[4.78558774,45.68045347],[4.78518606,45.68050937],[4.78342555,45.68094529],[4.7827581,45.6810081],[4.78260035,45.68105743],[4.7815626,45.68199168],[4.78127363,45.682316],[4.78127448,45.68242227],[4.77984168,45.6817829]]]]},"bbox":[4.764416,45.68044984,4.79499838,45.71968396]},{"type":"Feature","id":"fr-quartier-69204-2fde7d060783","properties":{"id":"fr-quartier-69204-2fde7d060783","kind":"quartier","name":"Zone d'Activités","cityCode":"69204","cityName":"Saint-Genis-Laval","sourceType":"iris","sourceIds":["692040202"],"colorIndex":9,"center":[4.811530868617892,45.69641446]},"geometry":{"type":"MultiPolygon","coordinates":[[[[4.80680672,45.69907253],[4.80778559,45.69913249],[4.80778067,45.69906051],[4.80819452,45.69831168],[4.80918545,45.69732569],[4.80965659,45.69667861],[4.80970613,45.69646434],[4.81062423,45.69651445],[4.81163648,45.69669183],[4.81259693,45.69705378],[4.81371837,45.69765993],[4.81441235,45.69781269],[4.81556163,45.69785633],[4.81741031,45.69763016],[4.81895536,45.69770881],[4.82030626,45.69751225],[4.82130727,45.69765911],[4.82100702,45.69673802],[4.82040268,45.69559846],[4.82020489,45.69552509],[4.82022341,45.69534555],[4.81986779,45.69465504],[4.8174899,45.69281451],[4.81768189,45.6920467],[4.81780411,45.69083776],[4.81510056,45.68960143],[4.81343266,45.68878702],[4.80909805,45.68647701],[4.80893221,45.68690751],[4.80874715,45.68800846],[4.80888263,45.6894006],[4.80881253,45.6897332],[4.80873969,45.68982444],[4.80853411,45.68994393],[4.80835987,45.69027549],[4.80814346,45.69261994],[4.80813761,45.69362073],[4.80804053,45.69454373],[4.80780129,45.69512853],[4.80716177,45.69605122],[4.80629158,45.69605077],[4.8034312,45.69635149],[4.80229096,45.69638685],[4.80216166,45.69644207],[4.80209005,45.69653238],[4.80198941,45.69699426],[4.80160889,45.69778217],[4.80140245,45.69906089],[4.80225848,45.69913817],[4.80373585,45.6990722],[4.80680672,45.69907253]]]]},"bbox":[4.80140245,45.68647701,4.82130727,45.69913817]}]}