{"type":"FeatureCollection","metadata":{"sourceType":"iris","referenceFile":"villefranche-sur-saone-quartiers.geojson","source":"IGN / INSEE - Contours IRIS WFS Géoplateforme","sourceUrl":"https://geoservices.ign.fr/contoursiris","license":"Licence Ouverte / Open Licence 2.0","sourceYear":"2026"},"features":[{"type":"Feature","id":"fr-quartier-69264-42312b75a505","properties":{"id":"fr-quartier-69264-42312b75a505","kind":"quartier","name":"Béligny Est","cityCode":"69264","cityName":"Villefranche-sur-Saône","sourceType":"iris","sourceIds":["692640201"],"colorIndex":0,"center":[4.739114550910782,45.98172601586111]},"geometry":{"type":"MultiPolygon","coordinates":[[[[4.73844919,45.97809145],[4.7379084,45.97810786],[4.73718071,45.97842436],[4.73728628,45.9784948],[4.73627196,45.97885803],[4.73663006,45.97980729],[4.73697483,45.98127557],[4.73705553,45.98227682],[4.7370547,45.98446106],[4.73770305,45.98437095],[4.73868274,45.98401274],[4.7393631,45.98395456],[4.73937224,45.98399855],[4.74291056,45.98402071],[4.74311807,45.98404544],[4.74339137,45.98414842],[4.74355206,45.98412253],[4.74364454,45.98402382],[4.74361668,45.98387834],[4.74348486,45.9837957],[4.74337377,45.98379651],[4.74274388,45.98308203],[4.74233879,45.98269285],[4.74000013,45.98060493],[4.73961669,45.98004157],[4.73903675,45.97869671],[4.73870417,45.97831091],[4.73844919,45.97809145]]]]},"bbox":[4.73627196,45.97809145,4.74364454,45.98446106]},{"type":"Feature","id":"fr-quartier-69264-e15f2af5104d","properties":{"id":"fr-quartier-69264-e15f2af5104d","kind":"quartier","name":"Béligny Ouest","cityCode":"69264","cityName":"Villefranche-sur-Saône","sourceType":"iris","sourceIds":["692640202"],"colorIndex":1,"center":[4.734094239031918,45.982179731875455]},"geometry":{"type":"MultiPolygon","coordinates":[[[[4.73627196,45.97885803],[4.73501598,45.97897366],[4.7350011,45.97903423],[4.73482595,45.97909276],[4.73475817,45.97923791],[4.73111935,45.98065187],[4.73140624,45.98225615],[4.73143017,45.98309885],[4.73115382,45.98347326],[4.73101457,45.98344116],[4.7308958,45.98348531],[4.73092618,45.98362986],[4.7302002,45.98482629],[4.73016197,45.98496648],[4.7316389,45.98501056],[4.7339224,45.98444961],[4.7344452,45.98435243],[4.73486767,45.98435137],[4.73532749,45.98446952],[4.73545871,45.98441077],[4.73617347,45.98450069],[4.7370547,45.98446106],[4.73705553,45.98227682],[4.73697483,45.98127557],[4.73663006,45.97980729],[4.73627196,45.97885803]]]]},"bbox":[4.73016197,45.97885803,4.73705553,45.98501056]},{"type":"Feature","id":"fr-quartier-69264-c24c1870fc1a","properties":{"id":"fr-quartier-69264-c24c1870fc1a","kind":"quartier","name":"Belleroche","cityCode":"69264","cityName":"Villefranche-sur-Saône","sourceType":"iris","sourceIds":["692640601"],"colorIndex":2,"center":[4.703850415585312,45.983183307023964]},"geometry":{"type":"MultiPolygon","coordinates":[[[[4.70941606,45.9825767],[4.70941794,45.98263702],[4.70770778,45.98236018],[4.70635613,45.98226977],[4.70551486,45.98193027],[4.70428784,45.98177491],[4.70350197,45.98155525],[4.70084009,45.98058017],[4.69849411,45.98021006],[4.69812178,45.98024357],[4.69728235,45.98071551],[4.69842546,45.98217192],[4.7010799,45.98244552],[4.70056792,45.9842321],[4.70145349,45.98458358],[4.70264585,45.98528712],[4.70562586,45.98630421],[4.70631984,45.98484993],[4.70722053,45.98510387],[4.70844479,45.98516737],[4.70880414,45.98525562],[4.70950848,45.98530264],[4.7092341,45.98470511],[4.70936818,45.98269902],[4.70944351,45.98266996],[4.70941606,45.9825767]]]]},"bbox":[4.69728235,45.98021006,4.70950848,45.98630421]},{"type":"Feature","id":"fr-quartier-69264-6ff721c9c5c8","properties":{"id":"fr-quartier-69264-6ff721c9c5c8","kind":"quartier","name":"Centre Ville Nord","cityCode":"69264","cityName":"Villefranche-sur-Saône","sourceType":"iris","sourceIds":["692640401"],"colorIndex":3,"center":[4.7190031612612335,45.99464200703839]},"geometry":{"type":"MultiPolygon","coordinates":[[[[4.71757,46.0006728],[4.71865482,45.99998442],[4.719318,45.99965911],[4.71932078,45.9997068],[4.72230822,45.99960468],[4.722453,45.99956465],[4.72249905,45.9995081],[4.7225092,45.99863517],[4.72266207,45.99856439],[4.7228568,45.99363906],[4.72274857,45.99212212],[4.7221678,45.98933786],[4.72004,45.9897638],[4.71950341,45.9897116],[4.71866034,45.9898586],[4.71511053,45.98968633],[4.71512524,45.99277013],[4.71504721,45.99387377],[4.71503391,45.99564476],[4.71497842,45.99602029],[4.71502334,45.99609347],[4.71514999,45.99613478],[4.71515975,45.99632378],[4.71523605,45.9964082],[4.71658268,45.99943308],[4.71678645,45.99979208],[4.71757,46.0006728]]]]},"bbox":[4.71497842,45.98933786,4.7228568,46.0006728]},{"type":"Feature","id":"fr-quartier-69264-4131e84aa026","properties":{"id":"fr-quartier-69264-4131e84aa026","kind":"quartier","name":"Centre Ville Sud","cityCode":"69264","cityName":"Villefranche-sur-Saône","sourceType":"iris","sourceIds":["692640402"],"colorIndex":4,"center":[4.718175135828381,45.98491721437074]},"geometry":{"type":"MultiPolygon","coordinates":[[[[4.71961591,45.97879694],[4.71750589,45.97882806],[4.71721245,45.97890547],[4.71692197,45.97903597],[4.71659914,45.97941376],[4.71554215,45.98077543],[4.71499541,45.98167991],[4.71496031,45.9818804],[4.71500219,45.98206351],[4.71595219,45.98360914],[4.71592035,45.98378976],[4.71538634,45.98431576],[4.71487036,45.98654021],[4.71494379,45.98703088],[4.71511053,45.98968633],[4.71866034,45.9898586],[4.71950341,45.9897116],[4.72004,45.9897638],[4.7221678,45.98933786],[4.72122673,45.9854422],[4.72036398,45.98202272],[4.71988532,45.97981155],[4.71961591,45.97879694]]]]},"bbox":[4.71487036,45.97879694,4.7221678,45.9898586]},{"type":"Feature","id":"fr-quartier-69264-d6fc0f5b4b21","properties":{"id":"fr-quartier-69264-d6fc0f5b4b21","kind":"quartier","name":"Garet","cityCode":"69264","cityName":"Villefranche-sur-Saône","sourceType":"iris","sourceIds":["692640301"],"colorIndex":5,"center":[4.729432540178061,45.996496696039586]},"geometry":{"type":"MultiPolygon","coordinates":[[[[4.72230822,45.99960468],[4.73357305,45.99928334],[4.73536932,45.99964674],[4.73593951,45.99813832],[4.73632733,45.99687229],[4.7366128,45.99572131],[4.73687664,45.99429504],[4.7346381,45.99371146],[4.73448816,45.99362818],[4.73439276,45.99367648],[4.73424886,45.99362104],[4.73281454,45.99354211],[4.73139012,45.99349004],[4.73053772,45.99350576],[4.7228568,45.99363906],[4.72266207,45.99856439],[4.7225092,45.99863517],[4.72249905,45.9995081],[4.722453,45.99956465],[4.72230822,45.99960468]]]]},"bbox":[4.72230822,45.99349004,4.73687664,45.99964674]},{"type":"Feature","id":"fr-quartier-69264-36d4dd4affd2","properties":{"id":"fr-quartier-69264-36d4dd4affd2","kind":"quartier","name":"Lamartine","cityCode":"69264","cityName":"Villefranche-sur-Saône","sourceType":"iris","sourceIds":["692640203"],"colorIndex":6,"center":[4.725896320483456,45.98189485548861]},"geometry":{"type":"MultiPolygon","coordinates":[[[[4.73501598,45.97897366],[4.73215812,45.97896967],[4.72988066,45.97914049],[4.72874926,45.97911003],[4.72675526,45.97884502],[4.72496036,45.97841932],[4.7217317,45.97874407],[4.71961591,45.97879694],[4.71988532,45.97981155],[4.72036398,45.98202272],[4.72122673,45.9854422],[4.72194671,45.9853691],[4.72292895,45.98583154],[4.72309059,45.98587682],[4.72336356,45.98588798],[4.72437783,45.98580499],[4.72895992,45.98511724],[4.7291322,45.98517226],[4.72982472,45.98500676],[4.73016197,45.98496648],[4.7302002,45.98482629],[4.73092618,45.98362986],[4.7308958,45.98348531],[4.73101457,45.98344116],[4.73115382,45.98347326],[4.73143017,45.98309885],[4.73140624,45.98225615],[4.73111935,45.98065187],[4.73475817,45.97923791],[4.73482595,45.97909276],[4.7350011,45.97903423],[4.73501598,45.97897366]]]]},"bbox":[4.71961591,45.97841932,4.73501598,45.98588798]},{"type":"Feature","id":"fr-quartier-69264-a1a1e41d9d41","properties":{"id":"fr-quartier-69264-a1a1e41d9d41","kind":"quartier","name":"Nord-Ouest","cityCode":"69264","cityName":"Villefranche-sur-Saône","sourceType":"iris","sourceIds":["692640501"],"colorIndex":7,"center":[4.711058654089205,45.99455082227447]},"geometry":{"type":"MultiPolygon","coordinates":[[[[4.71035971,45.98828823],[4.70916446,45.98870348],[4.70539573,45.99080308],[4.7046564,45.99108893],[4.70479476,45.99238476],[4.7051349,45.9932281],[4.70573172,45.9940973],[4.70593793,45.99432927],[4.70728143,45.9946477],[4.70782356,45.99529343],[4.70785596,45.99675389],[4.70716918,45.9974857],[4.70683843,45.99798877],[4.70658984,45.99805737],[4.70596433,46.00068333],[4.70625945,46.00086443],[4.70703649,46.00099864],[4.70764204,46.00089584],[4.70795252,46.00069751],[4.70841676,46.00091388],[4.70876583,46.00091763],[4.71003229,46.00053914],[4.71104575,46.00042115],[4.71131321,46.00046035],[4.71174629,46.00025655],[4.71228743,46.00011957],[4.71340347,46.00014143],[4.71402676,46.00023558],[4.71445475,46.0007398],[4.71585963,46.00111304],[4.71658519,46.00175056],[4.71757,46.0006728],[4.71678645,45.99979208],[4.71658268,45.99943308],[4.71523605,45.9964082],[4.71515975,45.99632378],[4.71514999,45.99613478],[4.71502334,45.99609347],[4.71497842,45.99602029],[4.71503391,45.99564476],[4.71504721,45.99387377],[4.71512524,45.99277013],[4.71511053,45.98968633],[4.71494379,45.98703088],[4.71459399,45.98695962],[4.71035971,45.98828823]]]]},"bbox":[4.7046564,45.98695962,4.71757,46.00175056]},{"type":"Feature","id":"fr-quartier-69264-3fa2d25d8f86","properties":{"id":"fr-quartier-69264-3fa2d25d8f86","kind":"quartier","name":"Quarantaine","cityCode":"69264","cityName":"Villefranche-sur-Saône","sourceType":"iris","sourceIds":["692640303"],"colorIndex":8,"center":[4.726414093078196,45.98935207808172]},"geometry":{"type":"MultiPolygon","coordinates":[[[[4.7221678,45.98933786],[4.72274857,45.99212212],[4.7228568,45.99363906],[4.73053772,45.99350576],[4.73104266,45.99086618],[4.73111053,45.99076426],[4.73028571,45.99054628],[4.729062,45.99029926],[4.72888641,45.99022178],[4.72782089,45.98929229],[4.7280698,45.98919482],[4.72849074,45.98910283],[4.73174927,45.98855947],[4.73016197,45.98496648],[4.72982472,45.98500676],[4.7291322,45.98517226],[4.72895992,45.98511724],[4.72437783,45.98580499],[4.72336356,45.98588798],[4.72309059,45.98587682],[4.72292895,45.98583154],[4.72194671,45.9853691],[4.72122673,45.9854422],[4.7221678,45.98933786]]]]},"bbox":[4.72122673,45.98496648,4.73174927,45.99363906]},{"type":"Feature","id":"fr-quartier-69264-7f4b198f78c8","properties":{"id":"fr-quartier-69264-7f4b198f78c8","kind":"quartier","name":"Sud-Ouest","cityCode":"69264","cityName":"Villefranche-sur-Saône","sourceType":"iris","sourceIds":["692640502"],"colorIndex":9,"center":[4.71248851987725,45.98298322859888]},"geometry":{"type":"MultiPolygon","coordinates":[[[[4.71721245,45.97890547],[4.71667507,45.97882445],[4.71557867,45.97879693],[4.7136664,45.97849892],[4.71148607,45.97851208],[4.71186025,45.97878745],[4.7106481,45.97885981],[4.71070108,45.97931746],[4.70945886,45.97933712],[4.70941606,45.9825767],[4.70944351,45.98266996],[4.70936818,45.98269902],[4.7092341,45.98470511],[4.70950848,45.98530264],[4.70976474,45.98681375],[4.70971753,45.98741523],[4.70989901,45.98743411],[4.70992868,45.98772369],[4.71035971,45.98828823],[4.71459399,45.98695962],[4.71494379,45.98703088],[4.71487036,45.98654021],[4.71538634,45.98431576],[4.71592035,45.98378976],[4.71595219,45.98360914],[4.71500219,45.98206351],[4.71496031,45.9818804],[4.71499541,45.98167991],[4.71554215,45.98077543],[4.71659914,45.97941376],[4.71692197,45.97903597],[4.71721245,45.97890547]]]]},"bbox":[4.7092341,45.97849892,4.71721245,45.98828823]},{"type":"Feature","id":"fr-quartier-69264-332f112530e5","properties":{"id":"fr-quartier-69264-332f112530e5","kind":"quartier","name":"Troussier-Fongraine","cityCode":"69264","cityName":"Villefranche-sur-Saône","sourceType":"iris","sourceIds":["692640302"],"colorIndex":10,"center":[4.733781578589158,45.98919589383021]},"geometry":{"type":"MultiPolygon","coordinates":[[[[4.7370547,45.98446106],[4.73617347,45.98450069],[4.73545871,45.98441077],[4.73532749,45.98446952],[4.73486767,45.98435137],[4.7344452,45.98435243],[4.7339224,45.98444961],[4.7316389,45.98501056],[4.73016197,45.98496648],[4.73174927,45.98855947],[4.72849074,45.98910283],[4.7280698,45.98919482],[4.72782089,45.98929229],[4.72888641,45.99022178],[4.729062,45.99029926],[4.73028571,45.99054628],[4.73111053,45.99076426],[4.73104266,45.99086618],[4.73053772,45.99350576],[4.73139012,45.99349004],[4.73281454,45.99354211],[4.73424886,45.99362104],[4.73439276,45.99367648],[4.73448816,45.99362818],[4.7346381,45.99371146],[4.73687664,45.99429504],[4.73699844,45.9934456],[4.73708231,45.99209055],[4.73711371,45.99017876],[4.7370547,45.98446106]]]]},"bbox":[4.72782089,45.98435137,4.73711371,45.99429504]},{"type":"Feature","id":"fr-quartier-69264-81f8fb9e77ba","properties":{"id":"fr-quartier-69264-81f8fb9e77ba","kind":"quartier","name":"Zone d'Activités Est","cityCode":"69264","cityName":"Villefranche-sur-Saône","sourceType":"iris","sourceIds":["iris-group:692640101+692640102"],"colorIndex":11,"center":[4.745288372759005,45.98438666608153]},"geometry":{"type":"Polygon","coordinates":[[[4.73536932,45.99964674],[4.73593951,45.99813832],[4.73632733,45.99687229],[4.7366128,45.99572131],[4.73687664,45.99429504],[4.73699844,45.9934456],[4.73708231,45.99209055],[4.73711371,45.99017876],[4.7370547,45.98446106],[4.73770305,45.98437095],[4.73868274,45.98401274],[4.7393631,45.98395456],[4.73937224,45.98399855],[4.74291056,45.98402071],[4.74311807,45.98404544],[4.74339137,45.98414842],[4.74355206,45.98412253],[4.74364454,45.98402382],[4.74361668,45.98387834],[4.74348486,45.9837957],[4.74337377,45.98379651],[4.74274388,45.98308203],[4.74233879,45.98269285],[4.74000013,45.98060493],[4.73961669,45.98004157],[4.73903675,45.97869671],[4.73870417,45.97831091],[4.73844919,45.97809145],[4.73812515,45.97785323],[4.7401843,45.97715418],[4.74516567,45.97523466],[4.74441235,45.97416902],[4.74336046,45.97317912],[4.74291547,45.97262933],[4.74243063,45.97147307],[4.74215394,45.97048565],[4.74122175,45.96829414],[4.74230129,45.96808028],[4.74401756,45.96737562],[4.74419611,45.96742601],[4.7502555,45.96462946],[4.75230392,45.96718462],[4.75320327,45.96857491],[4.75366456,45.96971528],[4.75410808,45.97102706],[4.75460241,45.9730406],[4.75463538,45.97366969],[4.75424998,45.97527713],[4.75373694,45.97742067],[4.75149953,45.9812419],[4.75048701,45.98263565],[4.74957267,45.98439627],[4.74944143,45.98575477],[4.74970229,45.9872135],[4.74990815,45.98974582],[4.74971298,45.99181688],[4.74977716,45.99338853],[4.7496987,45.99457869],[4.74942393,45.99609793],[4.74845601,46.00199633],[4.74867858,46.00277742],[4.74660469,46.00259144],[4.73826117,46.00020138],[4.73536932,45.99964674]]]},"bbox":[4.73536932,45.96462946,4.75463538,46.00277742]}]}