{"type":"FeatureCollection","metadata":{"sourceType":"iris","referenceFile":"gray-quartiers.geojson","source":"IGN / INSEE - Contours IRIS WFS Géoplateforme","sourceUrl":"https://geoservices.ign.fr/contoursiris","license":"Licence Ouverte / Open Licence 2.0","sourceYear":"2026"},"features":[{"type":"Feature","id":"fr-quartier-70279-b380cdbb9204","properties":{"id":"fr-quartier-70279-b380cdbb9204","kind":"quartier","name":"Extérieur Haut","cityCode":"70279","cityName":"Gray","sourceType":"iris","sourceIds":["702790101"],"colorIndex":0,"center":[5.591451030853402,47.43668661888262]},"geometry":{"type":"MultiPolygon","coordinates":[[[[5.59222451,47.42982204],[5.59053337,47.42968138],[5.58937861,47.42973592],[5.58927212,47.43134959],[5.58931703,47.43960955],[5.58864937,47.43980364],[5.58791714,47.44014507],[5.58612386,47.44124953],[5.58829314,47.44185428],[5.58855557,47.44187276],[5.5893135,47.4418703],[5.58927617,47.44247098],[5.58935268,47.44298266],[5.58986923,47.44367098],[5.59032185,47.44350419],[5.59099867,47.44316938],[5.59137264,47.44313313],[5.59133398,47.44173075],[5.59142924,47.44166918],[5.59142265,47.44156035],[5.5922515,47.44159683],[5.59351727,47.4420748],[5.59391122,47.4413824],[5.59415609,47.44109323],[5.59617233,47.43911452],[5.59571173,47.4387321],[5.59387561,47.43765982],[5.59387856,47.43761112],[5.59372845,47.43749918],[5.5932062,47.43726855],[5.59289813,47.43718444],[5.59321247,47.43652085],[5.59342004,47.4358182],[5.59339918,47.43563403],[5.59348886,47.43556718],[5.59346605,47.43550734],[5.5933828,47.43548758],[5.59339982,47.43529086],[5.59365241,47.43422964],[5.59388032,47.43260424],[5.59423985,47.43062735],[5.59388925,47.43043162],[5.59321544,47.43013951],[5.59282049,47.42998709],[5.59249538,47.429934],[5.59222451,47.42982204]]]]},"bbox":[5.58612386,47.42968138,5.59617233,47.44367098]},{"type":"Feature","id":"fr-quartier-70279-301f0364f703","properties":{"id":"fr-quartier-70279-301f0364f703","kind":"quartier","name":"Ville Basse et Centre Ville","cityCode":"70279","cityName":"Gray","sourceType":"iris","sourceIds":["702790102"],"colorIndex":1,"center":[5.617716825330703,47.45596527611112]},"geometry":{"type":"MultiPolygon","coordinates":[[[[5.58855557,47.44187276],[5.58863853,47.44216093],[5.58852222,47.44239138],[5.58748721,47.44264948],[5.58718919,47.44285605],[5.58704074,47.44308092],[5.58697472,47.44352822],[5.58763054,47.44448906],[5.58304867,47.44690827],[5.58155607,47.44615962],[5.58122242,47.44612379],[5.58103702,47.44635397],[5.58079565,47.44638724],[5.58041416,47.44626781],[5.57951832,47.44732253],[5.57623967,47.4462081],[5.57512097,47.4471029],[5.57382463,47.44781068],[5.57336635,47.44822071],[5.572567,47.44954614],[5.57519077,47.44990691],[5.57920691,47.45097351],[5.58052094,47.45121098],[5.58110473,47.45166998],[5.58375397,47.45241728],[5.58380473,47.4520658],[5.58428691,47.45201456],[5.58426536,47.45178807],[5.58636178,47.45203061],[5.586584,47.45127091],[5.58848764,47.45112411],[5.58881394,47.45150143],[5.58908838,47.45149263],[5.58940535,47.45159456],[5.59083663,47.45167438],[5.5912896,47.45178769],[5.59141063,47.45146255],[5.59505651,47.45189379],[5.59578406,47.4504401],[5.59652796,47.45066578],[5.59721259,47.45106571],[5.59871192,47.45252014],[5.59958418,47.4530915],[5.60031012,47.45349319],[5.60187577,47.45417783],[5.60280426,47.45472989],[5.60324164,47.45506776],[5.60349802,47.45545202],[5.60385533,47.45640954],[5.60437865,47.45717601],[5.60482016,47.45754351],[5.60547317,47.45789096],[5.60583875,47.45792601],[5.60692665,47.45782238],[5.61028178,47.4570996],[5.61215233,47.45703331],[5.61306454,47.45713983],[5.61542034,47.45779124],[5.61667224,47.45840798],[5.61699444,47.45866914],[5.61736893,47.45915789],[5.61752677,47.45958846],[5.61747977,47.46009389],[5.61734645,47.46059947],[5.61697658,47.46131931],[5.61555693,47.46248967],[5.61424742,47.46379534],[5.6138788,47.46470519],[5.6138176,47.46538296],[5.61397068,47.46585237],[5.61446443,47.46633485],[5.61534281,47.466697],[5.61603416,47.46676523],[5.61713978,47.46680342],[5.61844303,47.46672728],[5.62023084,47.46651052],[5.62171636,47.46646806],[5.62242882,47.46653308],[5.62396245,47.4668759],[5.62440995,47.46706305],[5.62482389,47.46672858],[5.62885902,47.46729591],[5.62918704,47.46729481],[5.62941251,47.46715281],[5.62941875,47.46687436],[5.62988908,47.46728255],[5.63080915,47.46708523],[5.63203044,47.46701709],[5.63301414,47.46668231],[5.63327603,47.46644401],[5.63318579,47.46593267],[5.63344665,47.46448569],[5.6334693,47.46370429],[5.63396172,47.46202419],[5.63401656,47.46133033],[5.63391739,47.46071831],[5.63472468,47.45952736],[5.63520985,47.45950917],[5.63640281,47.45962446],[5.63706528,47.4598085],[5.63753169,47.46005643],[5.63911139,47.46120051],[5.64001427,47.46162677],[5.64124915,47.46210584],[5.64155835,47.46215466],[5.6431671,47.46224333],[5.64396557,47.46206037],[5.64476595,47.46162067],[5.64600866,47.46118262],[5.64712364,47.46119689],[5.64802092,47.46105219],[5.64840016,47.46106698],[5.6492519,47.46134392],[5.65040036,47.46195365],[5.65051364,47.46214922],[5.65053825,47.46283408],[5.65080797,47.46310445],[5.65115637,47.46327395],[5.65155606,47.46329907],[5.65228127,47.46319248],[5.65326762,47.46334383],[5.6554582,47.46445036],[5.65639112,47.46480916],[5.65686161,47.46478851],[5.65833553,47.46451348],[5.65080954,47.4586037],[5.65049049,47.45830203],[5.65039692,47.45732422],[5.65026148,47.4573246],[5.64830232,47.45616318],[5.64698938,47.45609127],[5.6466973,47.45598533],[5.64178342,47.45406684],[5.63553256,47.45144348],[5.63495117,47.4515287],[5.63526522,47.45213585],[5.6356889,47.45359437],[5.63558134,47.45472716],[5.63539696,47.45529786],[5.63514148,47.45531445],[5.62988252,47.45460569],[5.62924348,47.45457239],[5.63000359,47.45406975],[5.63049641,47.4535056],[5.6266844,47.45232264],[5.62690144,47.45182057],[5.62418043,47.45159915],[5.61616491,47.45085283],[5.61580654,47.45080144],[5.61465388,47.45052742],[5.61357409,47.45054898],[5.61266623,47.45033879],[5.61187248,47.45026294],[5.61184504,47.44899271],[5.61080753,47.44881874],[5.60846469,47.44858757],[5.6071829,47.44939538],[5.60653235,47.44964232],[5.60552031,47.44993699],[5.60346899,47.45018556],[5.60335031,47.45014768],[5.60272314,47.44961951],[5.60094037,47.44992957],[5.59880924,47.45009337],[5.59776273,47.45077332],[5.5972189,47.45031982],[5.5969089,47.44995116],[5.59679762,47.44973748],[5.59676859,47.4491662],[5.59667181,47.44903236],[5.59608091,47.44859341],[5.59546343,47.44826313],[5.59534643,47.44815045],[5.59507435,47.44804304],[5.59657819,47.44715656],[5.59726432,47.44665758],[5.59756956,47.44627159],[5.597737,47.44594631],[5.597829,47.44565334],[5.59777429,47.44526457],[5.59685418,47.44592098],[5.59637457,47.44618838],[5.59346654,47.44708545],[5.59255124,47.44726706],[5.59000469,47.44751471],[5.58989919,47.44736485],[5.59001855,47.44719737],[5.59079921,47.4470593],[5.59095987,47.44686749],[5.59099951,47.44653426],[5.59107391,47.44648036],[5.59102485,47.44628961],[5.5912059,47.44627207],[5.59148082,47.44616417],[5.59187144,47.44611494],[5.59188066,47.44559235],[5.59156219,47.44504733],[5.59133194,47.44484351],[5.59146034,47.44456144],[5.59137264,47.44313313],[5.59099867,47.44316938],[5.59032185,47.44350419],[5.58986923,47.44367098],[5.58935268,47.44298266],[5.58927617,47.44247098],[5.5893135,47.4418703],[5.58855557,47.44187276]]]]},"bbox":[5.572567,47.4418703,5.65833553,47.46729591]},{"type":"Feature","id":"fr-quartier-70279-72c8a0c72f58","properties":{"id":"fr-quartier-70279-72c8a0c72f58","kind":"quartier","name":"Ville Haute et Extérieur Bas","cityCode":"70279","cityName":"Gray","sourceType":"iris","sourceIds":["702790103"],"colorIndex":2,"center":[5.608898368954746,47.42307571621222]},"geometry":{"type":"MultiPolygon","coordinates":[[[[5.62440757,47.39874884],[5.6217842,47.39713273],[5.61997197,47.39726366],[5.61968992,47.39721958],[5.61969103,47.397025],[5.61944211,47.3967631],[5.61887126,47.39648234],[5.61784927,47.39562808],[5.61641455,47.39487767],[5.61620866,47.39465443],[5.61610479,47.39494499],[5.6152526,47.39558475],[5.61460471,47.39633429],[5.61326081,47.39692924],[5.61241025,47.39711409],[5.61182872,47.39778376],[5.61105611,47.39831632],[5.61034144,47.39927629],[5.60973563,47.39966638],[5.60913553,47.39979244],[5.60827722,47.4007187],[5.60804229,47.40139769],[5.60795982,47.40242903],[5.60697182,47.40360857],[5.60557362,47.40459285],[5.60498196,47.4048664],[5.60360358,47.40522243],[5.60299326,47.40549459],[5.60271819,47.4055674],[5.60196965,47.40556163],[5.60111533,47.40600047],[5.60089362,47.40654404],[5.59985204,47.40610438],[5.59943292,47.4057787],[5.5988039,47.40602153],[5.59768208,47.40671761],[5.59660233,47.40685882],[5.59537056,47.40728533],[5.5936948,47.40851703],[5.59214852,47.40869652],[5.58978855,47.40969212],[5.58746984,47.41047239],[5.5849522,47.4114759],[5.58345483,47.4114065],[5.58218147,47.4117176],[5.58048003,47.41231469],[5.58047473,47.41239767],[5.58145335,47.4128533],[5.58051691,47.4138243],[5.58049378,47.41436342],[5.57750776,47.41636699],[5.5767456,47.41605334],[5.57677949,47.41579229],[5.57479041,47.41515724],[5.57433686,47.41563203],[5.57489229,47.41600702],[5.57347275,47.41659326],[5.57368398,47.41681916],[5.57230718,47.41743956],[5.57273566,47.41782367],[5.57372173,47.41857193],[5.57359961,47.41942757],[5.57473875,47.42021206],[5.57593873,47.41961176],[5.57711443,47.42071426],[5.5776613,47.42035808],[5.57874943,47.42118419],[5.57950385,47.42114224],[5.57940465,47.41999158],[5.58037915,47.42016631],[5.58135877,47.42050214],[5.58111206,47.42113809],[5.58260799,47.42128231],[5.58254939,47.42196632],[5.58344984,47.42233812],[5.58421606,47.42234812],[5.58450418,47.42279115],[5.58546545,47.42214022],[5.58840896,47.4208219],[5.5888915,47.42070128],[5.58874254,47.41992551],[5.58919446,47.41961102],[5.58998733,47.41956905],[5.59024562,47.42005327],[5.59064541,47.42030736],[5.5912017,47.42212334],[5.59295841,47.4214303],[5.59342964,47.42173413],[5.59188789,47.42237195],[5.59214055,47.42257438],[5.59087181,47.4232052],[5.59175825,47.42476704],[5.59429669,47.42355217],[5.59615183,47.42365759],[5.59703256,47.42277147],[5.59745923,47.42245662],[5.59920592,47.42311742],[5.59872831,47.42424223],[5.59832437,47.42467008],[5.5960755,47.42597133],[5.59446028,47.42761508],[5.59371784,47.4285089],[5.59222451,47.42982204],[5.59249538,47.429934],[5.59282049,47.42998709],[5.59321544,47.43013951],[5.59388925,47.43043162],[5.59423985,47.43062735],[5.59388032,47.43260424],[5.59365241,47.43422964],[5.59339982,47.43529086],[5.5933828,47.43548758],[5.59346605,47.43550734],[5.59348886,47.43556718],[5.59339918,47.43563403],[5.59342004,47.4358182],[5.59321247,47.43652085],[5.59289813,47.43718444],[5.5932062,47.43726855],[5.59372845,47.43749918],[5.59387856,47.43761112],[5.59387561,47.43765982],[5.59571173,47.4387321],[5.59617233,47.43911452],[5.59415609,47.44109323],[5.59391122,47.4413824],[5.59351727,47.4420748],[5.5922515,47.44159683],[5.59142265,47.44156035],[5.59142924,47.44166918],[5.59133398,47.44173075],[5.59137264,47.44313313],[5.59146034,47.44456144],[5.59133194,47.44484351],[5.59156219,47.44504733],[5.59188066,47.44559235],[5.59187144,47.44611494],[5.59148082,47.44616417],[5.5912059,47.44627207],[5.59102485,47.44628961],[5.59107391,47.44648036],[5.59099951,47.44653426],[5.59095987,47.44686749],[5.59079921,47.4470593],[5.59001855,47.44719737],[5.58989919,47.44736485],[5.59000469,47.44751471],[5.59255124,47.44726706],[5.59346654,47.44708545],[5.59637457,47.44618838],[5.59685418,47.44592098],[5.59777429,47.44526457],[5.597829,47.44565334],[5.597737,47.44594631],[5.59756956,47.44627159],[5.59726432,47.44665758],[5.59657819,47.44715656],[5.59507435,47.44804304],[5.59534643,47.44815045],[5.59546343,47.44826313],[5.59608091,47.44859341],[5.59667181,47.44903236],[5.59676859,47.4491662],[5.59679762,47.44973748],[5.5969089,47.44995116],[5.5972189,47.45031982],[5.59776273,47.45077332],[5.59880924,47.45009337],[5.60094037,47.44992957],[5.60272314,47.44961951],[5.60335031,47.45014768],[5.60346899,47.45018556],[5.60552031,47.44993699],[5.60653235,47.44964232],[5.6071829,47.44939538],[5.60846469,47.44858757],[5.61080753,47.44881874],[5.61184504,47.44899271],[5.61187248,47.45026294],[5.61266623,47.45033879],[5.61357409,47.45054898],[5.61465388,47.45052742],[5.61580654,47.45080144],[5.61616491,47.45085283],[5.62418043,47.45159915],[5.62532772,47.44810656],[5.62482862,47.44789265],[5.62444144,47.44782212],[5.61733174,47.44728784],[5.61776506,47.44452742],[5.61421166,47.44342833],[5.61582912,47.44093582],[5.61712373,47.44039693],[5.61756567,47.44006814],[5.61847318,47.43886243],[5.61909027,47.43834235],[5.62055771,47.43683399],[5.62075023,47.43648199],[5.62069637,47.43614095],[5.62165942,47.43580131],[5.62223439,47.43542537],[5.62345615,47.43351179],[5.62344878,47.4331715],[5.62381965,47.4327218],[5.62281434,47.43135652],[5.62340168,47.43118025],[5.62335848,47.43102991],[5.62445922,47.43065831],[5.6242635,47.43013132],[5.62456737,47.42993983],[5.62418861,47.42930708],[5.62408703,47.42877797],[5.62521234,47.42801492],[5.62427679,47.4274767],[5.62491005,47.42691119],[5.62621827,47.42500733],[5.62716897,47.42420406],[5.62545716,47.42393828],[5.62502606,47.4238075],[5.6229532,47.42264554],[5.62319599,47.42221044],[5.62463652,47.42089536],[5.62514851,47.42015874],[5.62679502,47.42101685],[5.62726103,47.42093968],[5.62841478,47.42149095],[5.62908112,47.42165603],[5.6309254,47.42175573],[5.63081427,47.42070894],[5.6310197,47.4204602],[5.63160239,47.42011106],[5.63189742,47.41974141],[5.63204689,47.41921832],[5.63207919,47.41898431],[5.63161599,47.41849671],[5.63091543,47.41798566],[5.63048021,47.41750012],[5.62959724,47.41716522],[5.62827569,47.4161674],[5.62761623,47.41581662],[5.62733514,47.41517177],[5.62867213,47.41561982],[5.62981893,47.41635588],[5.63054619,47.41670872],[5.63099006,47.41683018],[5.63297154,47.41697088],[5.63381394,47.41580522],[5.63427562,47.41588393],[5.63423926,47.41749249],[5.63241787,47.41861187],[5.63378628,47.42026338],[5.6346456,47.42186967],[5.63554765,47.4216727],[5.63680299,47.42126595],[5.63719242,47.42098151],[5.63771428,47.42025993],[5.6379102,47.41957636],[5.63855104,47.41836119],[5.63921445,47.41843981],[5.64044557,47.4173013],[5.64218432,47.4145372],[5.64221767,47.4138411],[5.639964,47.41191795],[5.63836174,47.41074468],[5.63466478,47.40925318],[5.63271019,47.40938392],[5.63023484,47.41001549],[5.62681305,47.40947586],[5.62017788,47.40635965],[5.62134369,47.40263602],[5.62440757,47.39874884]]]]},"bbox":[5.57230718,47.39465443,5.64221767,47.45159915]}]}