{"type":"FeatureCollection","metadata":{"sourceType":"iris","referenceFile":"change-72058-quartiers.geojson","source":"IGN / INSEE - Contours IRIS WFS Géoplateforme","sourceUrl":"https://geoservices.ign.fr/contoursiris","license":"Licence Ouverte / Open Licence 2.0","sourceYear":"2026"},"features":[{"type":"Feature","id":"fr-quartier-72058-21daf4edd642","properties":{"id":"fr-quartier-72058-21daf4edd642","kind":"quartier","name":"Campagne","cityCode":"72058","cityName":"Changé","sourceType":"iris","sourceIds":["720580102"],"colorIndex":0,"center":[0.32820339830190615,47.9797259]},"geometry":{"type":"MultiPolygon","coordinates":[[[[0.35754552,47.97748426],[0.35817376,47.97704096],[0.35815017,47.97689546],[0.35799538,47.97685327],[0.35650601,47.9770584],[0.35522421,47.9768927],[0.35284701,47.97599819],[0.35132816,47.97529046],[0.35086394,47.97451733],[0.34960283,47.97391263],[0.34898424,47.97378703],[0.34699619,47.97401681],[0.34636082,47.97111927],[0.34322084,47.9697211],[0.34297396,47.96934994],[0.34282617,47.96930248],[0.34253779,47.96871607],[0.34289787,47.96629393],[0.34162215,47.96497025],[0.34006879,47.96479914],[0.33792839,47.96483802],[0.33530115,47.96463981],[0.33283142,47.96477558],[0.33245407,47.96470759],[0.33113344,47.96476135],[0.33098587,47.96468326],[0.32843773,47.96440566],[0.32649097,47.96435328],[0.31455042,47.96324363],[0.31230302,47.9624845],[0.31105738,47.96121878],[0.3104231,47.9608783],[0.3084741,47.95931461],[0.2999106,47.95214948],[0.29892832,47.95159203],[0.2968169,47.95083481],[0.29627361,47.9508169],[0.29594829,47.950967],[0.2943363,47.95124595],[0.29350293,47.95163287],[0.29295523,47.95206868],[0.29263537,47.95268894],[0.29140278,47.95283432],[0.28968925,47.95271196],[0.28720571,47.95299413],[0.28535305,47.95511787],[0.28490485,47.95517955],[0.28417629,47.95435499],[0.28301094,47.95389312],[0.28192726,47.95364294],[0.28119135,47.9539825],[0.28040118,47.95417763],[0.27986678,47.95422109],[0.27853157,47.95333472],[0.27827303,47.95325309],[0.27772345,47.95346188],[0.27506365,47.9535461],[0.27366926,47.95370826],[0.27361394,47.95376731],[0.27387921,47.95457848],[0.27380205,47.95472347],[0.27269469,47.95503815],[0.27244221,47.95525561],[0.27216901,47.95535462],[0.27155102,47.95545914],[0.27069471,47.95540143],[0.26881463,47.95590884],[0.26669016,47.95585133],[0.26534958,47.95559232],[0.26322979,47.95552226],[0.26240083,47.95529854],[0.26032605,47.95518805],[0.25835213,47.95561566],[0.25461555,47.95559956],[0.25230155,47.9563541],[0.25088001,47.95608042],[0.24910739,47.9585945],[0.24860099,47.95913014],[0.24611387,47.96112227],[0.24289046,47.96339875],[0.24239234,47.96374725],[0.24115659,47.96507887],[0.23994281,47.96614176],[0.23782315,47.96775965],[0.23650813,47.96849865],[0.23574715,47.96879502],[0.2354042,47.96873743],[0.23500639,47.96890906],[0.23539671,47.9692154],[0.23740788,47.97071066],[0.23739179,47.97086517],[0.23816878,47.97134267],[0.23957591,47.97210601],[0.2437983,47.97412311],[0.24392394,47.97418278],[0.2440992,47.97426794],[0.24419612,47.97459618],[0.24690835,47.9757448],[0.25087174,47.97775016],[0.25150104,47.97815748],[0.25190301,47.97857839],[0.25510809,47.98060188],[0.25133998,47.98180601],[0.25059784,47.98287462],[0.24980761,47.98311187],[0.24740034,47.98416581],[0.24469936,47.98418538],[0.24279957,47.98435065],[0.24268491,47.98436327],[0.2425931,47.98576675],[0.24281961,47.98693006],[0.2432302,47.98736561],[0.24458434,47.98809972],[0.25283596,47.98743556],[0.2557976,47.9874624],[0.25733084,47.98751258],[0.26461354,47.98846294],[0.26473713,47.98845951],[0.26483476,47.98841315],[0.26524347,47.98842086],[0.26822799,47.98818678],[0.27053485,47.9883223],[0.2726454,47.98815427],[0.27421115,47.98822479],[0.27517513,47.98820752],[0.27572817,47.98817351],[0.27624495,47.98808823],[0.27699171,47.98783449],[0.27716019,47.98797526],[0.27774307,47.98790862],[0.27824483,47.98790673],[0.27826548,47.98776583],[0.27817221,47.9876232],[0.27550102,47.98526068],[0.275658,47.98518147],[0.27041654,47.98046396],[0.27098315,47.98029522],[0.27133615,47.98023768],[0.27279769,47.98029591],[0.27311346,47.98025821],[0.27333708,47.98018686],[0.2737776,47.98020068],[0.27438047,47.97995262],[0.27597889,47.97943499],[0.27612051,47.97941936],[0.27699849,47.98028973],[0.27692171,47.98040051],[0.27696444,47.98048254],[0.27709091,47.98052689],[0.27720981,47.98050984],[0.27765657,47.98097672],[0.27803641,47.98151948],[0.27836248,47.98188181],[0.27876048,47.98220168],[0.27941011,47.98263633],[0.28002631,47.9832782],[0.28011283,47.98329101],[0.28009597,47.98335815],[0.28156807,47.98532998],[0.28179114,47.98584479],[0.28236682,47.98560417],[0.28212842,47.98525739],[0.28236983,47.98515311],[0.28159983,47.98426638],[0.28097768,47.98334793],[0.28074426,47.98342718],[0.28057028,47.98313231],[0.28017743,47.98273782],[0.27972597,47.98244013],[0.28166385,47.98124053],[0.28197669,47.98092],[0.28252284,47.98062647],[0.28292016,47.98090759],[0.28329301,47.98124757],[0.28335076,47.98135066],[0.28326494,47.98187364],[0.28474747,47.98162785],[0.28495361,47.98150474],[0.28548554,47.98135765],[0.28582443,47.98113045],[0.2861237,47.98138859],[0.28618152,47.98128097],[0.28664014,47.98086294],[0.28701768,47.98064024],[0.29015359,47.9794015],[0.29129823,47.97912623],[0.29082628,47.97867774],[0.29056996,47.97823511],[0.29051347,47.97800239],[0.290784,47.97724864],[0.29098751,47.97704533],[0.29129983,47.9769958],[0.29250066,47.97706308],[0.29301621,47.97705154],[0.29468588,47.9767352],[0.29500612,47.97676688],[0.29553711,47.97692587],[0.29602158,47.97694512],[0.29687162,47.97676477],[0.29789464,47.97647944],[0.29842387,47.97614673],[0.29883401,47.97599317],[0.2998809,47.97542292],[0.29995708,47.97534904],[0.3005008,47.97359934],[0.30040166,47.97288661],[0.30222304,47.97261597],[0.30378418,47.97253113],[0.30409531,47.97477138],[0.30380514,47.97480795],[0.30396037,47.97671235],[0.30341296,47.97674392],[0.30346527,47.97698104],[0.30497498,47.97732992],[0.3050638,47.97806222],[0.30609081,47.97819921],[0.30622451,47.97815455],[0.30626919,47.97827804],[0.30601885,47.97979946],[0.30568815,47.98073825],[0.30569139,47.98083287],[0.30595746,47.98103346],[0.30613866,47.98213886],[0.30615922,47.98249951],[0.30597559,47.98265558],[0.30593854,47.98309415],[0.30454755,47.98291279],[0.3045959,47.98446716],[0.30517497,47.9843949],[0.3053525,47.98594143],[0.30582886,47.98599016],[0.30592269,47.98918348],[0.30467835,47.98917477],[0.30461649,47.98944168],[0.30458491,47.9911698],[0.30423667,47.99139684],[0.30398047,47.9914756],[0.30344503,47.99319307],[0.30387246,47.99320287],[0.30348163,47.99592674],[0.30144318,47.99536043],[0.30127311,47.9959076],[0.30076372,47.998138],[0.30073125,47.99838037],[0.30079192,47.99924348],[0.30066861,47.99939913],[0.30017112,47.99981541],[0.30208813,48.00034564],[0.30116293,48.0019416],[0.29875854,48.00533777],[0.30027426,48.00637385],[0.30158506,48.0071666],[0.30239267,48.00759122],[0.30222412,48.00797634],[0.3026184,48.00811234],[0.30337811,48.0086349],[0.30440055,48.00768677],[0.30483621,48.00637672],[0.30607395,48.00573156],[0.307335,48.00634301],[0.30781942,48.0059462],[0.31230638,48.00602451],[0.31258231,48.00584892],[0.3137852,48.00591512],[0.31945818,48.00655238],[0.31992833,48.00651537],[0.32003544,48.00561829],[0.32341899,48.00628961],[0.32587378,48.00529285],[0.32725522,48.00432028],[0.32904311,48.00324167],[0.33012764,48.00214166],[0.33051693,48.00192449],[0.33076461,48.00004463],[0.33130078,48.00005409],[0.33228412,47.99885633],[0.33442973,47.99884825],[0.33488573,47.99917103],[0.33500796,47.99948805],[0.33565919,47.99979724],[0.33673799,47.99968752],[0.33843939,47.9996558],[0.33917368,47.99972734],[0.33917861,47.99922862],[0.33623565,47.99727111],[0.33733481,47.9960345],[0.33921612,47.99581056],[0.34082898,47.99574979],[0.34812999,47.99201313],[0.34889499,47.99200517],[0.35156602,47.99221393],[0.35298543,47.99234403],[0.35387013,47.99251792],[0.35413057,47.99184216],[0.35421538,47.99137945],[0.35443503,47.99122502],[0.3544599,47.99094195],[0.35508504,47.9900808],[0.35522738,47.98954015],[0.3551376,47.98908161],[0.35520435,47.98895345],[0.35491343,47.98878934],[0.35494514,47.98777797],[0.35472301,47.98642414],[0.35412224,47.9855084],[0.35378257,47.98444096],[0.35310767,47.98366761],[0.35100979,47.98157999],[0.34989302,47.98095514],[0.3487785,47.9805005],[0.34861752,47.98015291],[0.35328619,47.97901912],[0.35559142,47.97813365],[0.35754552,47.97748426]]]]},"bbox":[0.23500639,47.9508169,0.35817376,48.0086349]},{"type":"Feature","id":"fr-quartier-72058-ad9b35f9ac86","properties":{"id":"fr-quartier-72058-ad9b35f9ac86","kind":"quartier","name":"le Bordage","cityCode":"72058","cityName":"Changé","sourceType":"iris","sourceIds":["720580101"],"colorIndex":1,"center":[0.2878330542558827,47.98940005147461]},"geometry":{"type":"MultiPolygon","coordinates":[[[[0.24458434,47.98809972],[0.24619756,47.98906319],[0.24788861,47.98958813],[0.24999369,47.9898643],[0.25251581,47.99104884],[0.25343834,47.99118565],[0.25413665,47.99142977],[0.25470314,47.99002388],[0.2551205,47.98994267],[0.25578917,47.98946393],[0.25663834,47.9899808],[0.25815037,47.99072743],[0.2583547,47.99064125],[0.25870864,47.99015245],[0.25851559,47.98996875],[0.25872323,47.9897926],[0.25899124,47.98979795],[0.27483975,47.99574553],[0.27999042,47.99597103],[0.28011236,47.9962872],[0.28313004,47.99625071],[0.28337812,47.99674988],[0.28611268,47.99647896],[0.28614818,47.9953146],[0.28628032,47.99498719],[0.28677881,47.99552185],[0.28661181,47.99595381],[0.28659122,47.99784877],[0.28569648,47.9992085],[0.28533417,47.99960264],[0.2850051,47.99979314],[0.28520995,47.99990592],[0.28583378,48.00001126],[0.2860977,48.00014972],[0.28681049,48.00027332],[0.28711984,48.00041552],[0.28742533,48.00039735],[0.28878225,48.00059703],[0.29085165,48.00142539],[0.29089284,48.00227276],[0.29107937,48.00311176],[0.29217046,48.0037888],[0.29370862,48.00503889],[0.29392206,48.00529953],[0.29397275,48.00556813],[0.29420059,48.00575706],[0.29525399,48.00620179],[0.29579139,48.00668777],[0.29755478,48.00726136],[0.29857071,48.00710011],[0.30047188,48.00739317],[0.30148447,48.00763972],[0.30222412,48.00797634],[0.30239267,48.00759122],[0.30158506,48.0071666],[0.30027426,48.00637385],[0.29875854,48.00533777],[0.30116293,48.0019416],[0.30208813,48.00034564],[0.30017112,47.99981541],[0.30066861,47.99939913],[0.30079192,47.99924348],[0.30073125,47.99838037],[0.30076372,47.998138],[0.30127311,47.9959076],[0.30144318,47.99536043],[0.30348163,47.99592674],[0.30387246,47.99320287],[0.30344503,47.99319307],[0.30398047,47.9914756],[0.30423667,47.99139684],[0.30458491,47.9911698],[0.30461649,47.98944168],[0.30467835,47.98917477],[0.30592269,47.98918348],[0.30582886,47.98599016],[0.3053525,47.98594143],[0.30517497,47.9843949],[0.3045959,47.98446716],[0.30454755,47.98291279],[0.30593854,47.98309415],[0.30597559,47.98265558],[0.30615922,47.98249951],[0.30613866,47.98213886],[0.30595746,47.98103346],[0.30569139,47.98083287],[0.30568815,47.98073825],[0.30601885,47.97979946],[0.30626919,47.97827804],[0.30622451,47.97815455],[0.30609081,47.97819921],[0.3050638,47.97806222],[0.30497498,47.97732992],[0.30346527,47.97698104],[0.30341296,47.97674392],[0.30396037,47.97671235],[0.30380514,47.97480795],[0.30409531,47.97477138],[0.30378418,47.97253113],[0.30222304,47.97261597],[0.30040166,47.97288661],[0.3005008,47.97359934],[0.29995708,47.97534904],[0.2998809,47.97542292],[0.29883401,47.97599317],[0.29842387,47.97614673],[0.29789464,47.97647944],[0.29687162,47.97676477],[0.29602158,47.97694512],[0.29553711,47.97692587],[0.29500612,47.97676688],[0.29468588,47.9767352],[0.29301621,47.97705154],[0.29250066,47.97706308],[0.29129983,47.9769958],[0.29098751,47.97704533],[0.290784,47.97724864],[0.29051347,47.97800239],[0.29056996,47.97823511],[0.29082628,47.97867774],[0.29129823,47.97912623],[0.29015359,47.9794015],[0.28701768,47.98064024],[0.28664014,47.98086294],[0.28618152,47.98128097],[0.2861237,47.98138859],[0.28582443,47.98113045],[0.28548554,47.98135765],[0.28495361,47.98150474],[0.28474747,47.98162785],[0.28326494,47.98187364],[0.28335076,47.98135066],[0.28329301,47.98124757],[0.28292016,47.98090759],[0.28252284,47.98062647],[0.28197669,47.98092],[0.28166385,47.98124053],[0.27972597,47.98244013],[0.28017743,47.98273782],[0.28057028,47.98313231],[0.28074426,47.98342718],[0.28097768,47.98334793],[0.28159983,47.98426638],[0.28236983,47.98515311],[0.28212842,47.98525739],[0.28236682,47.98560417],[0.28179114,47.98584479],[0.28156807,47.98532998],[0.28009597,47.98335815],[0.28011283,47.98329101],[0.28002631,47.9832782],[0.27941011,47.98263633],[0.27876048,47.98220168],[0.27836248,47.98188181],[0.27803641,47.98151948],[0.27765657,47.98097672],[0.27720981,47.98050984],[0.27709091,47.98052689],[0.27696444,47.98048254],[0.27692171,47.98040051],[0.27699849,47.98028973],[0.27612051,47.97941936],[0.27597889,47.97943499],[0.27438047,47.97995262],[0.2737776,47.98020068],[0.27333708,47.98018686],[0.27311346,47.98025821],[0.27279769,47.98029591],[0.27133615,47.98023768],[0.27098315,47.98029522],[0.27041654,47.98046396],[0.275658,47.98518147],[0.27550102,47.98526068],[0.27817221,47.9876232],[0.27826548,47.98776583],[0.27824483,47.98790673],[0.27774307,47.98790862],[0.27716019,47.98797526],[0.27699171,47.98783449],[0.27624495,47.98808823],[0.27572817,47.98817351],[0.27517513,47.98820752],[0.27421115,47.98822479],[0.2726454,47.98815427],[0.27053485,47.9883223],[0.26822799,47.98818678],[0.26524347,47.98842086],[0.26483476,47.98841315],[0.26473713,47.98845951],[0.26461354,47.98846294],[0.25733084,47.98751258],[0.2557976,47.9874624],[0.25283596,47.98743556],[0.24458434,47.98809972]]]]},"bbox":[0.24458434,47.97253113,0.30626919,48.00797634]}]}