{"type":"FeatureCollection","metadata":{"sourceType":"iris","referenceFile":"passy-quartiers.geojson","source":"IGN / INSEE - Contours IRIS WFS Géoplateforme","sourceUrl":"https://geoservices.ign.fr/contoursiris","license":"Licence Ouverte / Open Licence 2.0","sourceYear":"2026"},"features":[{"type":"Feature","id":"fr-quartier-74208-741fff81f805","properties":{"id":"fr-quartier-74208-741fff81f805","kind":"quartier","name":"Chedde-Les Plagnes","cityCode":"74208","cityName":"Passy","sourceType":"iris","sourceIds":["742080104"],"colorIndex":0,"center":[6.729619968841626,45.91515660077412]},"geometry":{"type":"MultiPolygon","coordinates":[[[[6.7485803,45.90334265],[6.74768451,45.90298742],[6.74730793,45.90270962],[6.74669051,45.90263092],[6.74663844,45.90251095],[6.74626357,45.90231512],[6.74548517,45.90222373],[6.74486995,45.90194932],[6.74462173,45.90194493],[6.74382903,45.90169983],[6.7437924,45.90146485],[6.74279873,45.90075132],[6.74216634,45.90054689],[6.74085007,45.8998359],[6.73803107,45.89937476],[6.73735866,45.8989796],[6.73608904,45.89863123],[6.73488988,45.89869341],[6.73479042,45.89874988],[6.73424558,45.8986552],[6.73218059,45.89760105],[6.73154689,45.89787169],[6.73109608,45.89847886],[6.72947069,45.8991302],[6.72795458,45.90013762],[6.72751106,45.90031902],[6.72620915,45.90061888],[6.72187398,45.90133689],[6.72065791,45.90116869],[6.71868754,45.90118846],[6.7140477,45.90236873],[6.71219953,45.9031867],[6.70755916,45.90536106],[6.70309804,45.90757531],[6.7012915,45.90790312],[6.7003512,45.90832335],[6.69712786,45.91013083],[6.69552807,45.91005783],[6.6950281,45.90995879],[6.69493011,45.91023063],[6.69413821,45.91007261],[6.69416829,45.91027086],[6.69410272,45.91019818],[6.69251574,45.91023921],[6.69251157,45.90971469],[6.69167375,45.90973845],[6.68982683,45.90956167],[6.68848752,45.90928986],[6.68772448,45.90904161],[6.68765434,45.90861119],[6.68519542,45.90885996],[6.68587946,45.90974184],[6.68660216,45.91044846],[6.68877717,45.91207228],[6.68901555,45.91217989],[6.68941995,45.91225954],[6.68951793,45.91237264],[6.68958739,45.91261918],[6.68998282,45.91291187],[6.69240405,45.91186733],[6.6937336,45.91135692],[6.69500204,45.91097561],[6.6961505,45.91071179],[6.69718249,45.91055995],[6.69808499,45.91047994],[6.70308307,45.9103109],[6.70625919,45.91006888],[6.70792419,45.91251049],[6.7081644,45.9127406],[6.70842091,45.91313605],[6.7083918,45.91324068],[6.70849937,45.91338049],[6.70860728,45.9134103],[6.7088877,45.91396904],[6.71348481,45.92091194],[6.71382341,45.92135516],[6.71836757,45.92592692],[6.71614465,45.92573947],[6.71538809,45.92553535],[6.71470964,45.9255315],[6.71414785,45.92532278],[6.71335188,45.92491711],[6.7120441,45.92437319],[6.71194193,45.92442883],[6.71169467,45.92447841],[6.7111994,45.92437477],[6.71083525,45.92424249],[6.71038046,45.92395361],[6.71022627,45.92390819],[6.70946171,45.92385304],[6.70895342,45.92376695],[6.70870292,45.92380672],[6.70860473,45.92386403],[6.70854298,45.92394448],[6.70854462,45.92410309],[6.70868934,45.92423807],[6.70978004,45.92458993],[6.71064381,45.92454536],[6.71085369,45.92465026],[6.71092763,45.92480829],[6.71080709,45.92495559],[6.71058708,45.92500698],[6.71019637,45.92499817],[6.71027734,45.9250496],[6.71089799,45.92509684],[6.71148032,45.92524631],[6.71190579,45.92531077],[6.71233292,45.92574478],[6.71253058,45.92586],[6.71297522,45.92590219],[6.71357692,45.92618533],[6.71406099,45.9262758],[6.71451129,45.92653597],[6.71513248,45.92662914],[6.71537198,45.92671323],[6.71589683,45.92702502],[6.71615879,45.92726973],[6.71635107,45.92753476],[6.71643509,45.92780335],[6.71650471,45.92785876],[6.71757841,45.92820569],[6.7177618,45.92830063],[6.71820611,45.92866284],[6.71904333,45.92875972],[6.719247,45.92882964],[6.71965637,45.92905688],[6.72024117,45.92910795],[6.72040112,45.92920005],[6.72111742,45.92940005],[6.72221703,45.92982362],[6.72228422,45.92995754],[6.72254907,45.93016788],[6.72279088,45.93061067],[6.72334801,45.93086367],[6.72415136,45.93068847],[6.72519027,45.93107345],[6.72571838,45.93080182],[6.72616085,45.9306394],[6.72681288,45.93048088],[6.72772667,45.9303534],[6.72836641,45.9302043],[6.72978228,45.92999353],[6.73002866,45.92998811],[6.73027396,45.93032889],[6.72932771,45.93115974],[6.72904396,45.93124302],[6.72893779,45.93131593],[6.72861191,45.93167376],[6.7282846,45.93193426],[6.72820498,45.93205589],[6.72827807,45.93208593],[6.72847943,45.93204503],[6.72881574,45.93207],[6.7289982,45.9321316],[6.72900499,45.93230807],[6.72889602,45.93279757],[6.72893152,45.93335984],[6.72905485,45.93346395],[6.72956677,45.93365892],[6.73012936,45.93402981],[6.73027302,45.93424323],[6.73049663,45.93493091],[6.7305907,45.93500353],[6.73101312,45.93509778],[6.73119023,45.93506128],[6.73134782,45.93490824],[6.73144752,45.93491126],[6.73153131,45.93477507],[6.73157755,45.93459956],[6.73146843,45.93430476],[6.73156132,45.93413131],[6.73155062,45.93404963],[6.73176714,45.93375581],[6.73212227,45.9334484],[6.73295253,45.93309825],[6.73303421,45.93302614],[6.73306079,45.93273228],[6.73302019,45.93264797],[6.7331092,45.93251252],[6.732953,45.93232385],[6.73296307,45.93218649],[6.73315284,45.93195575],[6.7333261,45.93188152],[6.73356325,45.93166364],[6.73414631,45.93083123],[6.73422609,45.93057888],[6.734215,45.93009153],[6.73399232,45.9289035],[6.73388881,45.92852017],[6.73343185,45.92780144],[6.73407109,45.92711232],[6.73503939,45.92771319],[6.73521402,45.92815457],[6.73539412,45.92844792],[6.73524761,45.92904955],[6.73539347,45.9294477],[6.73520253,45.93002286],[6.73551653,45.93040464],[6.73554148,45.93063911],[6.73544537,45.93076488],[6.73509686,45.93103603],[6.73447748,45.93169475],[6.73444066,45.93181857],[6.73451203,45.93201364],[6.73474476,45.9320925],[6.73501327,45.93205118],[6.73617384,45.93127631],[6.73669378,45.93103736],[6.73821833,45.93069578],[6.73850035,45.93060623],[6.73920235,45.93029003],[6.73987785,45.93011623],[6.74172855,45.9292707],[6.7426553,45.92893532],[6.74338319,45.92850645],[6.74384578,45.92837484],[6.74472781,45.92835104],[6.74525391,45.92827952],[6.74769348,45.92758476],[6.74997662,45.9268131],[6.75026609,45.92675752],[6.75073336,45.92673301],[6.75147034,45.92655259],[6.75201071,45.92650131],[6.75318025,45.9264697],[6.75407427,45.92652747],[6.75608327,45.92688987],[6.75575449,45.92610385],[6.75650538,45.92563536],[6.75745395,45.9253379],[6.75735495,45.92502295],[6.75805174,45.92484113],[6.75832093,45.92450764],[6.75712443,45.9228183],[6.75638999,45.92214493],[6.75562609,45.92177815],[6.75553159,45.92156673],[6.75464571,45.92111565],[6.75410985,45.92039872],[6.75414098,45.92015427],[6.75387788,45.91926961],[6.75454003,45.91850478],[6.75462197,45.91707316],[6.74826809,45.91380329],[6.74656244,45.91348751],[6.7426698,45.91014296],[6.74330173,45.90796383],[6.7493621,45.9055137],[6.75016439,45.90529145],[6.74974847,45.9040188],[6.7485803,45.90334265]]]]},"bbox":[6.68519542,45.89760105,6.75832093,45.93509778]},{"type":"Feature","id":"fr-quartier-74208-5639dd335f58","properties":{"id":"fr-quartier-74208-5639dd335f58","kind":"quartier","name":"Marlioz","cityCode":"74208","cityName":"Passy","sourceType":"iris","sourceIds":["742080103"],"colorIndex":1,"center":[6.706572476763691,45.91978055199374]},"geometry":{"type":"MultiPolygon","coordinates":[[[[6.70849937,45.91338049],[6.70816894,45.9134986],[6.70711053,45.91414092],[6.7069386,45.91406182],[6.70677954,45.91386691],[6.7053912,45.91261969],[6.7052552,45.91251778],[6.70503626,45.91245013],[6.70276884,45.91268669],[6.6992103,45.91283295],[6.6992689,45.91307082],[6.69896542,45.91362886],[6.69892924,45.91384008],[6.69896982,45.91394423],[6.69930304,45.91421369],[6.7001002,45.91469874],[6.70034707,45.91481686],[6.70072879,45.91490443],[6.70172578,45.91490334],[6.70323119,45.91506859],[6.70357964,45.91517978],[6.70424102,45.9156999],[6.70326641,45.91626461],[6.70302362,45.9164763],[6.7028728,45.91671111],[6.70278366,45.91711429],[6.70294893,45.91816993],[6.70281034,45.9183178],[6.70282355,45.91841833],[6.70269715,45.91865145],[6.6998377,45.92051918],[6.69959427,45.92066418],[6.69923701,45.92080658],[6.69889754,45.92082941],[6.69804691,45.92068415],[6.69688963,45.92103121],[6.69580341,45.92109016],[6.69568395,45.921177],[6.69551942,45.9214393],[6.69500655,45.92159219],[6.69494329,45.92168891],[6.69505862,45.92179061],[6.69551346,45.92188933],[6.6956306,45.92201802],[6.69579466,45.92244176],[6.69568251,45.92252205],[6.69543033,45.92245998],[6.69535238,45.92247245],[6.69532106,45.92254469],[6.69535027,45.92259512],[6.69573774,45.92269063],[6.69581891,45.9227646],[6.6958119,45.92283334],[6.69659107,45.92291424],[6.69870387,45.92283072],[6.69926705,45.92286909],[6.69962706,45.92299794],[6.70011002,45.92339952],[6.70065918,45.92365199],[6.70108593,45.92375522],[6.70205471,45.92383168],[6.70220785,45.92388075],[6.70254114,45.9237851],[6.7027923,45.92377417],[6.70374406,45.92405852],[6.70496964,45.92413105],[6.70555596,45.92432098],[6.7067413,45.92431368],[6.70739641,45.92439316],[6.70773564,45.92444334],[6.7082451,45.92460422],[6.70905582,45.92465426],[6.70989517,45.92495666],[6.71019637,45.92499817],[6.71058708,45.92500698],[6.71080709,45.92495559],[6.71092763,45.92480829],[6.71085369,45.92465026],[6.71064381,45.92454536],[6.70978004,45.92458993],[6.70868934,45.92423807],[6.70854462,45.92410309],[6.70854298,45.92394448],[6.70860473,45.92386403],[6.70870292,45.92380672],[6.70895342,45.92376695],[6.70946171,45.92385304],[6.71022627,45.92390819],[6.71038046,45.92395361],[6.71083525,45.92424249],[6.7111994,45.92437477],[6.71169467,45.92447841],[6.71194193,45.92442883],[6.7120441,45.92437319],[6.71335188,45.92491711],[6.71414785,45.92532278],[6.71470964,45.9255315],[6.71538809,45.92553535],[6.71614465,45.92573947],[6.71836757,45.92592692],[6.71382341,45.92135516],[6.71348481,45.92091194],[6.7088877,45.91396904],[6.70860728,45.9134103],[6.70849937,45.91338049]]]]},"bbox":[6.69494329,45.91245013,6.71836757,45.92592692]},{"type":"Feature","id":"fr-quartier-74208-31a8e457da41","properties":{"id":"fr-quartier-74208-31a8e457da41","kind":"quartier","name":"Ouest et Nord","cityCode":"74208","cityName":"Passy","sourceType":"iris","sourceIds":["742080101"],"colorIndex":2,"center":[6.72089495619083,45.962254299009935]},"geometry":{"type":"MultiPolygon","coordinates":[[[[6.6624035,45.92903085],[6.66424056,45.9301189],[6.66406998,45.93037053],[6.66396053,45.9308807],[6.66366262,45.93121848],[6.66364152,45.93146436],[6.66278121,45.93255325],[6.6628638,45.93286248],[6.6627945,45.93339389],[6.66380648,45.93402098],[6.66314461,45.93417042],[6.66298077,45.93431005],[6.6628479,45.93472091],[6.66309639,45.93494093],[6.66362505,45.93515819],[6.66318886,45.93535982],[6.66243073,45.93553853],[6.66212838,45.93689781],[6.66173473,45.93779759],[6.65930329,45.93867499],[6.65922276,45.93818269],[6.65859234,45.93822292],[6.65874146,45.9391448],[6.66027752,45.94026879],[6.65954967,45.94306164],[6.65955764,45.94372575],[6.65869703,45.94421154],[6.65882887,45.94633111],[6.65868842,45.94645375],[6.65815377,45.94657561],[6.65732871,45.94625523],[6.65718635,45.94631031],[6.65736417,45.94711948],[6.65763333,45.94743621],[6.65789085,45.9481806],[6.65510026,45.94861967],[6.6543501,45.9488242],[6.65337855,45.94943161],[6.65282506,45.95024367],[6.65358443,45.95050852],[6.65405632,45.95123157],[6.65509299,45.95174075],[6.65625469,45.95356743],[6.65411224,45.95520789],[6.65534843,45.95632633],[6.65530386,45.9572121],[6.6554182,45.95755186],[6.65688771,45.95860145],[6.65759352,45.95891398],[6.66035461,45.95975318],[6.66169176,45.95997675],[6.66296439,45.96037637],[6.666873,45.96204277],[6.66835411,45.96198124],[6.66942706,45.96132353],[6.67102875,45.96076405],[6.67215836,45.96049121],[6.67359991,45.96032181],[6.67233057,45.96148354],[6.67212384,45.96212398],[6.67181447,45.96256312],[6.67158172,45.96322063],[6.67115782,45.96364816],[6.67192027,45.9641679],[6.67216174,45.96418351],[6.68459799,45.96209074],[6.6857345,45.964604],[6.68597471,45.9647936],[6.68698427,45.96517899],[6.6879831,45.96580902],[6.68818918,45.96624132],[6.68883662,45.96683593],[6.68915204,45.96731785],[6.68969428,45.96836752],[6.68983174,45.96937629],[6.68983051,45.97037968],[6.69053642,45.97109316],[6.69069224,45.97141171],[6.69161268,45.97150699],[6.69223268,45.97180679],[6.69271753,45.9721732],[6.6930017,45.97265072],[6.6948217,45.97260664],[6.69750204,45.97434099],[6.69827975,45.97525492],[6.70180716,45.97641158],[6.70348296,45.97706622],[6.70437042,45.97753389],[6.70498095,45.97792138],[6.70550692,45.97860822],[6.70556928,45.97978352],[6.70566077,45.97997073],[6.71582939,45.98362643],[6.71973454,45.98368116],[6.72251976,45.98440364],[6.72380875,45.97885942],[6.72599963,45.97730074],[6.72686663,45.97654739],[6.72717298,45.97534372],[6.72725964,45.9739129],[6.72746656,45.97263497],[6.72778556,45.97205742],[6.7284263,45.96997008],[6.72883947,45.96935156],[6.72919126,45.96847633],[6.729681,45.9678625],[6.7302917,45.96754577],[6.73016858,45.96723611],[6.73041384,45.96660148],[6.73057367,45.9655649],[6.73050959,45.96536327],[6.73482848,45.96526587],[6.74436942,45.96656513],[6.74593114,45.96656573],[6.74825477,45.96706664],[6.75141638,45.96751359],[6.75379986,45.96720375],[6.75464794,45.96690065],[6.75478007,45.9666772],[6.7565537,45.96603235],[6.75651323,45.96593182],[6.75689957,45.96583425],[6.75697333,45.965949],[6.75930813,45.96570377],[6.75976652,45.96567682],[6.75980607,45.96576385],[6.76203839,45.96540026],[6.7622685,45.96570273],[6.76284807,45.96567084],[6.7634715,45.96635599],[6.76544532,45.96614427],[6.7680768,45.96834382],[6.77276483,45.96974183],[6.77410006,45.97101894],[6.77446818,45.97120229],[6.77566607,45.97155088],[6.77668732,45.97249045],[6.77725644,45.97277617],[6.77760998,45.97316104],[6.77861189,45.97330969],[6.7796832,45.97386622],[6.77990158,45.97429706],[6.7805991,45.97438104],[6.78246657,45.97662475],[6.78353703,45.97775013],[6.78385744,45.97806577],[6.78444538,45.97832288],[6.78468468,45.97860607],[6.78493716,45.97893029],[6.78538912,45.98008626],[6.78440177,45.98171138],[6.78152428,45.9840785],[6.7793847,45.98728817],[6.77902551,45.98874261],[6.77743537,45.99253701],[6.77529109,45.99700526],[6.77556552,45.99783723],[6.77573628,46.00198215],[6.7743617,46.00753087],[6.77335536,46.00841995],[6.77311269,46.00993628],[6.7748788,46.01398836],[6.77486938,46.01413382],[6.77462018,46.01498956],[6.77355649,46.01589317],[6.77286725,46.01625781],[6.77277474,46.01696498],[6.77452101,46.01748377],[6.7750254,46.01753638],[6.77545665,46.01727769],[6.77702923,46.01733974],[6.7789913,46.01821097],[6.77933812,46.01732673],[6.77971726,46.01719507],[6.7800949,46.0165523],[6.77994465,46.01594789],[6.77989103,46.01443421],[6.78035441,46.01437998],[6.78052178,46.01385962],[6.78125927,46.01338874],[6.78155214,46.01300032],[6.78191175,46.01282965],[6.78223807,46.01232561],[6.78227988,46.01206818],[6.78203907,46.01174627],[6.78279224,46.01163547],[6.78374269,46.01194719],[6.78617002,46.01175968],[6.78637431,46.01156984],[6.78712265,46.0111824],[6.78742483,46.0107044],[6.78891438,46.0106717],[6.79021568,46.01017919],[6.79018128,46.01001806],[6.79229769,46.00920705],[6.79390528,46.00871054],[6.79471403,46.00899357],[6.7946913,46.0087392],[6.79814506,46.00930947],[6.79887294,46.00933915],[6.79934282,46.0090989],[6.7998959,46.00938867],[6.80057051,46.01021978],[6.80111895,46.0106855],[6.80143719,46.01053508],[6.80205333,46.01078215],[6.80244401,46.01074378],[6.80251423,46.01091723],[6.80272033,46.01075434],[6.80320594,46.01051715],[6.80377425,46.01001664],[6.80384561,46.00972035],[6.80371172,46.00956166],[6.80387954,46.00950013],[6.80404903,46.00916357],[6.80423719,46.00902202],[6.80430483,46.00861586],[6.80417891,46.00814227],[6.80418281,46.00795553],[6.80398683,46.0077223],[6.80369237,46.00754287],[6.80357154,46.00755414],[6.80299569,46.0072345],[6.80238971,46.00696546],[6.80166249,46.00673925],[6.80116844,46.00646104],[6.80079033,46.00634391],[6.80051825,46.0061511],[6.79988665,46.00586668],[6.79958801,46.00588842],[6.79876305,46.00610091],[6.79840817,46.00630124],[6.79827113,46.00634009],[6.79818005,46.00635126],[6.79767753,46.00623109],[6.79752966,46.00616933],[6.79709612,46.00571778],[6.79696366,46.00563567],[6.79697138,46.00542896],[6.79625861,46.00522387],[6.79604444,46.00519499],[6.79623407,46.00494342],[6.79604334,46.0047668],[6.79583454,46.00475938],[6.79561135,46.00491832],[6.79510641,46.00472519],[6.79455512,46.00470399],[6.7942815,46.0047321],[6.79383675,46.00466135],[6.79354968,46.00470072],[6.79304911,46.00470217],[6.79279336,46.00452051],[6.79185438,46.00452401],[6.79145208,46.00459969],[6.7919924,46.00438687],[6.79204111,46.00413641],[6.79211264,46.00402944],[6.79260199,46.00369661],[6.79256888,46.0036292],[6.79245798,46.00359686],[6.79241154,46.00354252],[6.79264348,46.00351041],[6.79269075,46.00333302],[6.79283755,46.00336056],[6.792768,46.00302752],[6.79266596,46.00291735],[6.79244325,46.00248306],[6.79239581,46.00211412],[6.79229311,46.00210674],[6.79216409,46.00199927],[6.79218201,46.001959],[6.79237622,46.00194258],[6.79233616,46.00186819],[6.79307549,46.00197144],[6.7938895,46.00218217],[6.79434909,46.00214964],[6.7951137,46.00218803],[6.79555033,46.00210397],[6.79578014,46.0021161],[6.79577711,46.0019972],[6.79606182,46.00203634],[6.79638733,46.0019542],[6.79671626,46.00210905],[6.79719911,46.00220736],[6.79742599,46.00215828],[6.79734571,46.0020636],[6.79730882,46.0018665],[6.79722397,46.00174313],[6.79727915,46.00147443],[6.79779777,46.00165988],[6.79804727,46.00169478],[6.79797041,46.00123758],[6.79808034,46.00119963],[6.79832652,46.00124276],[6.79835598,46.00110744],[6.79845135,46.00108351],[6.79851825,46.00096587],[6.798511,46.00063615],[6.79841312,46.00034283],[6.79848464,45.99989868],[6.79890769,45.99937511],[6.7993165,45.99911347],[6.79931061,45.99880354],[6.79922877,45.99866745],[6.79861371,45.99819044],[6.79849566,45.99812949],[6.7981233,45.99805724],[6.79799673,45.99785414],[6.79780626,45.99773702],[6.79759491,45.99748627],[6.79760501,45.9973516],[6.79748316,45.99712309],[6.79754108,45.99708148],[6.79801349,45.99699171],[6.79840321,45.99686594],[6.79838995,45.99656167],[6.79874469,45.99609809],[6.79881089,45.99570821],[6.79891857,45.9954693],[6.79890029,45.99535451],[6.79908,45.99432344],[6.79921802,45.99424308],[6.79981777,45.99404985],[6.80000162,45.99386518],[6.80022626,45.99374675],[6.80038512,45.99351873],[6.80046384,45.99329161],[6.80056131,45.99322343],[6.80063494,45.99299737],[6.80063618,45.99277195],[6.80059408,45.99268681],[6.80036507,45.99255476],[6.80043436,45.9925281],[6.80063084,45.99254494],[6.80069901,45.99250208],[6.80136587,45.99011766],[6.8011564,45.98974425],[6.80019934,45.98869634],[6.80023375,45.98846439],[6.8001832,45.98840659],[6.79986051,45.98821007],[6.79975513,45.98805133],[6.79905714,45.98801977],[6.79955834,45.98767388],[6.7996776,45.98750941],[6.79968092,45.9872767],[6.79975344,45.98712821],[6.79980498,45.98632051],[6.79974952,45.98619165],[6.79963166,45.98609554],[6.79951999,45.98607044],[6.7992605,45.98572124],[6.79839667,45.98547887],[6.7982402,45.98534799],[6.79817704,45.98477042],[6.79821421,45.98469074],[6.79817845,45.98460359],[6.7980384,45.98448568],[6.79795556,45.98429733],[6.79807229,45.9838715],[6.79788514,45.98346487],[6.79767088,45.98318988],[6.79752418,45.98245104],[6.79758664,45.98234437],[6.79691099,45.98139879],[6.79670714,45.98063752],[6.79655416,45.98046324],[6.79646869,45.98027408],[6.79648147,45.98010327],[6.79656178,45.98012401],[6.79672498,45.98007166],[6.79686113,45.98007701],[6.79715436,45.97997882],[6.79714536,45.97994216],[6.79685649,45.97985989],[6.79769963,45.97967293],[6.79681714,45.97887764],[6.7964502,45.97820749],[6.7968131,45.97829448],[6.79708747,45.9782979],[6.79718081,45.97824518],[6.79747592,45.97821184],[6.79757115,45.97805538],[6.79753395,45.97800344],[6.79707452,45.9778106],[6.79689359,45.97779323],[6.79676421,45.97762358],[6.79656316,45.97757713],[6.79651352,45.97740119],[6.79635567,45.97719373],[6.79676348,45.97695737],[6.79676166,45.97681859],[6.79661503,45.97666123],[6.79658335,45.97652076],[6.7964486,45.97631071],[6.79636903,45.97628183],[6.79624539,45.97597044],[6.79611391,45.97586396],[6.79580213,45.97541193],[6.79562502,45.9753187],[6.7955381,45.97497723],[6.79543784,45.97487331],[6.79540273,45.97473926],[6.79518151,45.97438156],[6.79514582,45.97420155],[6.79496638,45.974112],[6.79489316,45.97383769],[6.79473582,45.97363741],[6.79451972,45.97355992],[6.79413752,45.97349249],[6.79362917,45.97347077],[6.79323889,45.97352983],[6.79262625,45.97353324],[6.79222728,45.97297864],[6.79149422,45.97234148],[6.79107992,45.97208941],[6.79071825,45.97192573],[6.79060635,45.97155895],[6.79030932,45.97141384],[6.79015587,45.97119449],[6.78982393,45.97089909],[6.78984487,45.97058376],[6.7897854,45.97035856],[6.78965016,45.97017828],[6.78950383,45.97015613],[6.78893814,45.97023999],[6.78855448,45.96992558],[6.78783066,45.96985335],[6.78754448,45.96973401],[6.78734324,45.96972181],[6.78709479,45.96964358],[6.78682494,45.96963007],[6.78675907,45.96957458],[6.78672778,45.96942056],[6.78660746,45.96932542],[6.78608481,45.96913285],[6.78564139,45.96877626],[6.78542088,45.96867185],[6.78513683,45.96862095],[6.78476082,45.96830447],[6.7838865,45.96803621],[6.78352137,45.96784016],[6.78299669,45.96771166],[6.78263896,45.96769838],[6.78260551,45.96762557],[6.78296666,45.96757563],[6.7833032,45.96746882],[6.78336619,45.96740721],[6.78246511,45.96712541],[6.78246121,45.96704981],[6.78325713,45.96679872],[6.78337563,45.96671723],[6.78338986,45.96666085],[6.78328042,45.96657346],[6.7821873,45.96631881],[6.78228237,45.96615967],[6.78227258,45.96609238],[6.78209523,45.96605143],[6.78200936,45.96589293],[6.78188421,45.96582138],[6.78170823,45.96580022],[6.78154127,45.96589145],[6.78139613,45.96590531],[6.78083778,45.96581308],[6.78063364,45.96573967],[6.78054816,45.96564336],[6.7806972,45.96555453],[6.78053712,45.96536966],[6.78034851,45.96525877],[6.78011608,45.96522506],[6.7799095,45.96487135],[6.77955524,45.96473894],[6.7795008,45.96454874],[6.77935834,45.96446965],[6.7789318,45.96435769],[6.77876922,45.96451277],[6.77834936,45.96468636],[6.77812408,45.96471913],[6.77805453,45.96464752],[6.77795705,45.96430099],[6.77771146,45.96420732],[6.77769872,45.96415365],[6.77742252,45.96397175],[6.77722273,45.96366018],[6.77708295,45.9636955],[6.776883,45.96394649],[6.77641672,45.96414055],[6.7760938,45.96421985],[6.77554185,45.96429596],[6.77490578,45.96427662],[6.77459314,45.96420411],[6.77452193,45.96414608],[6.77453922,45.96404003],[6.77490291,45.96393323],[6.77500306,45.96384785],[6.77487645,45.96358523],[6.77462774,45.96331405],[6.7744722,45.96321376],[6.77417288,45.96310926],[6.77408858,45.96299217],[6.77378722,45.96285797],[6.77321156,45.9624751],[6.77269733,45.96230924],[6.77192178,45.96217823],[6.77185487,45.96208851],[6.77187688,45.96193812],[6.7713277,45.96171482],[6.7712643,45.96165743],[6.77121303,45.9614563],[6.77110553,45.96137784],[6.77071982,45.961333],[6.77059175,45.96125613],[6.76956474,45.96092614],[6.76944927,45.96088221],[6.7691825,45.96066752],[6.76915127,45.96055136],[6.76923006,45.9602296],[6.76921455,45.96009759],[6.76939958,45.95972271],[6.76681923,45.95958688],[6.75980198,45.95942273],[6.75775124,45.95948906],[6.75496088,45.95985487],[6.75399593,45.95984542],[6.75349968,45.95931647],[6.7517474,45.9582432],[6.75119426,45.95765663],[6.7510562,45.95720505],[6.7508401,45.95716353],[6.75056949,45.95734649],[6.75032522,45.95721395],[6.75008319,45.95675409],[6.75004625,45.95653445],[6.7498628,45.95623221],[6.7493874,45.95634984],[6.74926526,45.9563025],[6.74920688,45.95614758],[6.74911134,45.95609214],[6.74853334,45.95610769],[6.74832942,45.95596029],[6.74836404,45.95570943],[6.74828085,45.95558868],[6.74813641,45.95561239],[6.74792642,45.95575548],[6.74780547,45.95593438],[6.74774967,45.95619676],[6.74753643,45.95633004],[6.7473366,45.95633756],[6.74715576,45.95624438],[6.74726295,45.95607225],[6.74727206,45.95599712],[6.74721232,45.95591707],[6.74712279,45.95587405],[6.74671362,45.95586327],[6.74608377,45.95540182],[6.74590881,45.95541392],[6.7455162,45.95577941],[6.74526417,45.95581751],[6.74502714,45.95575323],[6.74507816,45.95549642],[6.74486811,45.95510671],[6.74489484,45.95500575],[6.74520929,45.95457434],[6.74545366,45.95387299],[6.74498648,45.95329437],[6.74376523,45.9532203],[6.7432885,45.95309003],[6.74315983,45.95292751],[6.74309463,45.95265291],[6.74316749,45.95250806],[6.74319224,45.95180767],[6.74326928,45.95162933],[6.74360614,45.9514514],[6.74359587,45.95124349],[6.74351283,45.95108667],[6.74323299,45.95115273],[6.74247551,45.95156905],[6.74238168,45.95157666],[6.74226602,45.95149124],[6.74228891,45.95131469],[6.74108036,45.95104635],[6.74123399,45.95083482],[6.74125337,45.95072059],[6.74036687,45.95093111],[6.74000135,45.95085846],[6.73976391,45.95101596],[6.73963393,45.950986],[6.73958484,45.95106244],[6.73910797,45.95108181],[6.7382858,45.95094581],[6.73664665,45.95052128],[6.73613799,45.9504912],[6.7355095,45.95054261],[6.7343521,45.95036086],[6.73418453,45.95036729],[6.73396829,45.95045647],[6.73389309,45.9505482],[6.73371054,45.95098153],[6.7334977,45.95127343],[6.73277048,45.95183202],[6.73255593,45.95196531],[6.7323155,45.95204086],[6.73232485,45.95198826],[6.73256878,45.9517927],[6.73256802,45.95170528],[6.73250553,45.95166046],[6.73270746,45.95145547],[6.73273981,45.95136065],[6.73265206,45.95121029],[6.73227922,45.95106753],[6.73225014,45.95073404],[6.73217293,45.95064373],[6.73102147,45.95014893],[6.7307531,45.9502317],[6.72984325,45.95028875],[6.72979206,45.95001007],[6.72964328,45.94975986],[6.72918301,45.94950909],[6.72901646,45.94930183],[6.72890236,45.94897203],[6.72881124,45.94886686],[6.72832105,45.94865133],[6.72824228,45.9485187],[6.72834795,45.94841876],[6.7284597,45.94840877],[6.72909423,45.94863756],[6.72950485,45.94870877],[6.73017186,45.94871111],[6.73112012,45.94864919],[6.73142661,45.9485949],[6.7318039,45.94838413],[6.73242464,45.94831406],[6.73252507,45.94823232],[6.73247594,45.94811765],[6.73173895,45.94807435],[6.73111315,45.94820317],[6.7307364,45.94819306],[6.72993842,45.94795524],[6.72914238,45.94778406],[6.72848395,45.94748844],[6.72776303,45.94705244],[6.72712291,45.94675981],[6.72650292,45.94670722],[6.72584552,45.94690376],[6.72557403,45.94686403],[6.72491842,45.94641864],[6.72455427,45.94630803],[6.72431064,45.94608798],[6.72418089,45.94581279],[6.72414649,45.94553355],[6.72400318,45.9451344],[6.72386636,45.94507941],[6.72352995,45.94509229],[6.72312065,45.9448299],[6.72299453,45.94483766],[6.72288029,45.94490633],[6.72262078,45.94536832],[6.72177467,45.94629045],[6.72152311,45.94648804],[6.7213154,45.94647414],[6.72123657,45.94637847],[6.72125374,45.94630759],[6.72174578,45.94576763],[6.72178316,45.94559422],[6.72161364,45.94539966],[6.72084857,45.94547532],[6.72062627,45.94543665],[6.71998978,45.94485269],[6.71984308,45.94461321],[6.71983436,45.94442688],[6.71984841,45.94434799],[6.72012683,45.94401249],[6.72004396,45.94389532],[6.71988771,45.94389686],[6.71981431,45.94393893],[6.71961672,45.9442276],[6.71891082,45.94487284],[6.71867029,45.94492763],[6.71843046,45.94493551],[6.71795199,45.94493051],[6.7178892,45.94490012],[6.71782125,45.94479327],[6.71787135,45.94471229],[6.71850115,45.94464291],[6.71860832,45.94460333],[6.71870939,45.94449273],[6.7187261,45.94343923],[6.71878926,45.9432839],[6.7189306,45.94317648],[6.7189456,45.94307322],[6.71890265,45.94303046],[6.71879714,45.94297984],[6.71863167,45.9429979],[6.71858025,45.94304016],[6.7183857,45.94354598],[6.71819364,45.94374431],[6.71787576,45.94385934],[6.71751132,45.94393532],[6.71725525,45.94391309],[6.71707338,45.94384154],[6.7163819,45.94347572],[6.71593978,45.94339649],[6.71585515,45.94334879],[6.71583516,45.94324397],[6.71595124,45.94318336],[6.71618209,45.94317668],[6.71671555,45.94344131],[6.71685932,45.94346544],[6.7171322,45.94343033],[6.71734349,45.94330619],[6.71736822,45.94315573],[6.71731385,45.94311605],[6.71724636,45.94280545],[6.71744297,45.94225358],[6.71742369,45.94158531],[6.71748803,45.94140921],[6.71755197,45.94138006],[6.71767107,45.94138336],[6.71803075,45.94150495],[6.71837643,45.94155309],[6.71922881,45.94183337],[6.71940138,45.94184392],[6.71945532,45.94180068],[6.71943514,45.94176979],[6.71878684,45.94146928],[6.71799711,45.94089214],[6.71751161,45.94064847],[6.71736096,45.94046501],[6.71722221,45.94038123],[6.71706806,45.94037548],[6.71679463,45.94051698],[6.71661774,45.94053812],[6.7164688,45.94045647],[6.71624931,45.9402293],[6.71577521,45.94017366],[6.71522839,45.94001673],[6.71455591,45.9400848],[6.71400475,45.94020837],[6.71268884,45.93993245],[6.71242184,45.93970953],[6.71233894,45.93951483],[6.71231751,45.93890973],[6.71195534,45.93827165],[6.71167848,45.93811306],[6.71085087,45.93775798],[6.7101336,45.93731455],[6.70989358,45.93701231],[6.70956446,45.93674905],[6.70926333,45.93592325],[6.70911221,45.93569382],[6.70891979,45.93552254],[6.70831912,45.93523664],[6.70739179,45.93464682],[6.70624466,45.9342463],[6.70502789,45.93371283],[6.70431869,45.9332727],[6.70311164,45.93288312],[6.70207596,45.93233287],[6.7012485,45.93215082],[6.70102008,45.93192391],[6.70086738,45.93184326],[6.70063637,45.93180845],[6.70024271,45.93181412],[6.69960824,45.9316005],[6.699493,45.9315006],[6.69952241,45.93138064],[6.69964509,45.93128377],[6.69996683,45.9312462],[6.69995437,45.93119523],[6.69925761,45.93078531],[6.69732618,45.93003444],[6.69594909,45.92965036],[6.69561114,45.92963887],[6.69546088,45.9295365],[6.6953791,45.92928045],[6.69482208,45.92894978],[6.69468206,45.92890387],[6.69421562,45.92886412],[6.6937744,45.92871897],[6.69331963,45.92862205],[6.69312212,45.9285086],[6.6929596,45.92833902],[6.69279267,45.92831563],[6.69254588,45.92841113],[6.69235892,45.92866694],[6.69217669,45.92881983],[6.69168812,45.92906657],[6.69152432,45.92930179],[6.69127536,45.92940367],[6.68958588,45.92913788],[6.68838545,45.92905625],[6.68810234,45.92897624],[6.68772388,45.92872625],[6.68741029,45.92867338],[6.68688535,45.92845431],[6.68632323,45.92841314],[6.68608985,45.9285163],[6.68591976,45.92852275],[6.68572707,45.92844249],[6.68545074,45.92825137],[6.68516278,45.92823371],[6.68501017,45.92805749],[6.68471439,45.92786519],[6.68396239,45.92766974],[6.6835978,45.92749141],[6.68272649,45.92670936],[6.68247731,45.92655702],[6.68203384,45.92639657],[6.68009631,45.92593499],[6.67939798,45.92553673],[6.67882915,45.92531725],[6.67873884,45.925203],[6.67876887,45.92511098],[6.67699751,45.92468],[6.67612814,45.92475695],[6.67557861,45.92486496],[6.67518243,45.92498692],[6.67490816,45.92501927],[6.67455231,45.92497134],[6.6740887,45.9247989],[6.6728894,45.92477115],[6.67266141,45.9248002],[6.67219827,45.92504151],[6.67139892,45.92582019],[6.67106541,45.92604917],[6.67103532,45.9261403],[6.67056703,45.92628531],[6.67025387,45.92660648],[6.66961099,45.92672922],[6.66918031,45.92687661],[6.66912387,45.92686312],[6.66913838,45.9267707],[6.66949405,45.92638955],[6.66941369,45.92636602],[6.6693225,45.92639332],[6.66857865,45.92682311],[6.66847376,45.92689683],[6.66836227,45.92706542],[6.66765417,45.927586],[6.66692762,45.9280044],[6.66650724,45.92807392],[6.6665791,45.92793096],[6.66683752,45.92769902],[6.66688412,45.92754516],[6.66673255,45.92755819],[6.66625959,45.92773038],[6.66597211,45.92771987],[6.6655477,45.92763176],[6.66522439,45.92768461],[6.66468275,45.92785362],[6.66454849,45.92808784],[6.66444623,45.92816237],[6.6638239,45.9283421],[6.66353636,45.92836944],[6.66341407,45.92845363],[6.66253977,45.92867126],[6.66246176,45.9287414],[6.6624035,45.92903085]]]]},"bbox":[6.65282506,45.92468,6.80430483,46.01821097]},{"type":"Feature","id":"fr-quartier-74208-23a4488eb7f0","properties":{"id":"fr-quartier-74208-23a4488eb7f0","kind":"quartier","name":"Plaine","cityCode":"74208","cityName":"Passy","sourceType":"iris","sourceIds":["742080102"],"colorIndex":3,"center":[6.764472697430374,45.958777564188836]},"geometry":{"type":"MultiPolygon","coordinates":[[[[6.68519542,45.90885996],[6.68151209,45.90924142],[6.67511295,45.9103394],[6.67217306,45.91063958],[6.67003252,45.91196665],[6.66687934,45.91245931],[6.66046221,45.91426738],[6.65734133,45.91645527],[6.65370371,45.91858675],[6.65189745,45.91945372],[6.64880875,45.92252645],[6.64594954,45.92737295],[6.6502957,45.92827842],[6.65589957,45.92958207],[6.65816975,45.92974393],[6.66056068,45.92931228],[6.66205984,45.92881662],[6.6624035,45.92903085],[6.66246176,45.9287414],[6.66253977,45.92867126],[6.66341407,45.92845363],[6.66353636,45.92836944],[6.6638239,45.9283421],[6.66444623,45.92816237],[6.66454849,45.92808784],[6.66468275,45.92785362],[6.66522439,45.92768461],[6.6655477,45.92763176],[6.66597211,45.92771987],[6.66625959,45.92773038],[6.66673255,45.92755819],[6.66688412,45.92754516],[6.66683752,45.92769902],[6.6665791,45.92793096],[6.66650724,45.92807392],[6.66692762,45.9280044],[6.66765417,45.927586],[6.66836227,45.92706542],[6.66847376,45.92689683],[6.66857865,45.92682311],[6.6693225,45.92639332],[6.66941369,45.92636602],[6.66949405,45.92638955],[6.66913838,45.9267707],[6.66912387,45.92686312],[6.66918031,45.92687661],[6.66961099,45.92672922],[6.67025387,45.92660648],[6.67056703,45.92628531],[6.67103532,45.9261403],[6.67106541,45.92604917],[6.67139892,45.92582019],[6.67219827,45.92504151],[6.67266141,45.9248002],[6.6728894,45.92477115],[6.6740887,45.9247989],[6.67455231,45.92497134],[6.67490816,45.92501927],[6.67518243,45.92498692],[6.67557861,45.92486496],[6.67612814,45.92475695],[6.67699751,45.92468],[6.67876887,45.92511098],[6.67873884,45.925203],[6.67882915,45.92531725],[6.67939798,45.92553673],[6.68009631,45.92593499],[6.68203384,45.92639657],[6.68247731,45.92655702],[6.68272649,45.92670936],[6.6835978,45.92749141],[6.68396239,45.92766974],[6.68471439,45.92786519],[6.68501017,45.92805749],[6.68516278,45.92823371],[6.68545074,45.92825137],[6.68572707,45.92844249],[6.68591976,45.92852275],[6.68608985,45.9285163],[6.68632323,45.92841314],[6.68688535,45.92845431],[6.68741029,45.92867338],[6.68772388,45.92872625],[6.68810234,45.92897624],[6.68838545,45.92905625],[6.68958588,45.92913788],[6.69127536,45.92940367],[6.69152432,45.92930179],[6.69168812,45.92906657],[6.69217669,45.92881983],[6.69235892,45.92866694],[6.69254588,45.92841113],[6.69279267,45.92831563],[6.6929596,45.92833902],[6.69312212,45.9285086],[6.69331963,45.92862205],[6.6937744,45.92871897],[6.69421562,45.92886412],[6.69468206,45.92890387],[6.69482208,45.92894978],[6.6953791,45.92928045],[6.69546088,45.9295365],[6.69561114,45.92963887],[6.69594909,45.92965036],[6.69732618,45.93003444],[6.69925761,45.93078531],[6.69995437,45.93119523],[6.69996683,45.9312462],[6.69964509,45.93128377],[6.69952241,45.93138064],[6.699493,45.9315006],[6.69960824,45.9316005],[6.70024271,45.93181412],[6.70063637,45.93180845],[6.70086738,45.93184326],[6.70102008,45.93192391],[6.7012485,45.93215082],[6.70207596,45.93233287],[6.70311164,45.93288312],[6.70431869,45.9332727],[6.70502789,45.93371283],[6.70624466,45.9342463],[6.70739179,45.93464682],[6.70831912,45.93523664],[6.70891979,45.93552254],[6.70911221,45.93569382],[6.70926333,45.93592325],[6.70956446,45.93674905],[6.70989358,45.93701231],[6.7101336,45.93731455],[6.71085087,45.93775798],[6.71167848,45.93811306],[6.71195534,45.93827165],[6.71231751,45.93890973],[6.71233894,45.93951483],[6.71242184,45.93970953],[6.71268884,45.93993245],[6.71400475,45.94020837],[6.71455591,45.9400848],[6.71522839,45.94001673],[6.71577521,45.94017366],[6.71624931,45.9402293],[6.7164688,45.94045647],[6.71661774,45.94053812],[6.71679463,45.94051698],[6.71706806,45.94037548],[6.71722221,45.94038123],[6.71736096,45.94046501],[6.71751161,45.94064847],[6.71799711,45.94089214],[6.71878684,45.94146928],[6.71943514,45.94176979],[6.71945532,45.94180068],[6.71940138,45.94184392],[6.71922881,45.94183337],[6.71837643,45.94155309],[6.71803075,45.94150495],[6.71767107,45.94138336],[6.71755197,45.94138006],[6.71748803,45.94140921],[6.71742369,45.94158531],[6.71744297,45.94225358],[6.71724636,45.94280545],[6.71731385,45.94311605],[6.71736822,45.94315573],[6.71734349,45.94330619],[6.7171322,45.94343033],[6.71685932,45.94346544],[6.71671555,45.94344131],[6.71618209,45.94317668],[6.71595124,45.94318336],[6.71583516,45.94324397],[6.71585515,45.94334879],[6.71593978,45.94339649],[6.7163819,45.94347572],[6.71707338,45.94384154],[6.71725525,45.94391309],[6.71751132,45.94393532],[6.71787576,45.94385934],[6.71819364,45.94374431],[6.7183857,45.94354598],[6.71858025,45.94304016],[6.71863167,45.9429979],[6.71879714,45.94297984],[6.71890265,45.94303046],[6.7189456,45.94307322],[6.7189306,45.94317648],[6.71878926,45.9432839],[6.7187261,45.94343923],[6.71870939,45.94449273],[6.71860832,45.94460333],[6.71850115,45.94464291],[6.71787135,45.94471229],[6.71782125,45.94479327],[6.7178892,45.94490012],[6.71795199,45.94493051],[6.71843046,45.94493551],[6.71867029,45.94492763],[6.71891082,45.94487284],[6.71961672,45.9442276],[6.71981431,45.94393893],[6.71988771,45.94389686],[6.72004396,45.94389532],[6.72012683,45.94401249],[6.71984841,45.94434799],[6.71983436,45.94442688],[6.71984308,45.94461321],[6.71998978,45.94485269],[6.72062627,45.94543665],[6.72084857,45.94547532],[6.72161364,45.94539966],[6.72178316,45.94559422],[6.72174578,45.94576763],[6.72125374,45.94630759],[6.72123657,45.94637847],[6.7213154,45.94647414],[6.72152311,45.94648804],[6.72177467,45.94629045],[6.72262078,45.94536832],[6.72288029,45.94490633],[6.72299453,45.94483766],[6.72312065,45.9448299],[6.72352995,45.94509229],[6.72386636,45.94507941],[6.72400318,45.9451344],[6.72414649,45.94553355],[6.72418089,45.94581279],[6.72431064,45.94608798],[6.72455427,45.94630803],[6.72491842,45.94641864],[6.72557403,45.94686403],[6.72584552,45.94690376],[6.72650292,45.94670722],[6.72712291,45.94675981],[6.72776303,45.94705244],[6.72848395,45.94748844],[6.72914238,45.94778406],[6.72993842,45.94795524],[6.7307364,45.94819306],[6.73111315,45.94820317],[6.73173895,45.94807435],[6.73247594,45.94811765],[6.73252507,45.94823232],[6.73242464,45.94831406],[6.7318039,45.94838413],[6.73142661,45.9485949],[6.73112012,45.94864919],[6.73017186,45.94871111],[6.72950485,45.94870877],[6.72909423,45.94863756],[6.7284597,45.94840877],[6.72834795,45.94841876],[6.72824228,45.9485187],[6.72832105,45.94865133],[6.72881124,45.94886686],[6.72890236,45.94897203],[6.72901646,45.94930183],[6.72918301,45.94950909],[6.72964328,45.94975986],[6.72979206,45.95001007],[6.72984325,45.95028875],[6.7307531,45.9502317],[6.73102147,45.95014893],[6.73217293,45.95064373],[6.73225014,45.95073404],[6.73227922,45.95106753],[6.73265206,45.95121029],[6.73273981,45.95136065],[6.73270746,45.95145547],[6.73250553,45.95166046],[6.73256802,45.95170528],[6.73256878,45.9517927],[6.73232485,45.95198826],[6.7323155,45.95204086],[6.73255593,45.95196531],[6.73277048,45.95183202],[6.7334977,45.95127343],[6.73371054,45.95098153],[6.73389309,45.9505482],[6.73396829,45.95045647],[6.73418453,45.95036729],[6.7343521,45.95036086],[6.7355095,45.95054261],[6.73613799,45.9504912],[6.73664665,45.95052128],[6.7382858,45.95094581],[6.73910797,45.95108181],[6.73958484,45.95106244],[6.73963393,45.950986],[6.73976391,45.95101596],[6.74000135,45.95085846],[6.74036687,45.95093111],[6.74125337,45.95072059],[6.74123399,45.95083482],[6.74108036,45.95104635],[6.74228891,45.95131469],[6.74226602,45.95149124],[6.74238168,45.95157666],[6.74247551,45.95156905],[6.74323299,45.95115273],[6.74351283,45.95108667],[6.74359587,45.95124349],[6.74360614,45.9514514],[6.74326928,45.95162933],[6.74319224,45.95180767],[6.74316749,45.95250806],[6.74309463,45.95265291],[6.74315983,45.95292751],[6.7432885,45.95309003],[6.74376523,45.9532203],[6.74498648,45.95329437],[6.74545366,45.95387299],[6.74520929,45.95457434],[6.74489484,45.95500575],[6.74486811,45.95510671],[6.74507816,45.95549642],[6.74502714,45.95575323],[6.74526417,45.95581751],[6.7455162,45.95577941],[6.74590881,45.95541392],[6.74608377,45.95540182],[6.74671362,45.95586327],[6.74712279,45.95587405],[6.74721232,45.95591707],[6.74727206,45.95599712],[6.74726295,45.95607225],[6.74715576,45.95624438],[6.7473366,45.95633756],[6.74753643,45.95633004],[6.74774967,45.95619676],[6.74780547,45.95593438],[6.74792642,45.95575548],[6.74813641,45.95561239],[6.74828085,45.95558868],[6.74836404,45.95570943],[6.74832942,45.95596029],[6.74853334,45.95610769],[6.74911134,45.95609214],[6.74920688,45.95614758],[6.74926526,45.9563025],[6.7493874,45.95634984],[6.7498628,45.95623221],[6.75004625,45.95653445],[6.75008319,45.95675409],[6.75032522,45.95721395],[6.75056949,45.95734649],[6.7508401,45.95716353],[6.7510562,45.95720505],[6.75119426,45.95765663],[6.7517474,45.9582432],[6.75349968,45.95931647],[6.75399593,45.95984542],[6.75496088,45.95985487],[6.75775124,45.95948906],[6.75980198,45.95942273],[6.76681923,45.95958688],[6.76939958,45.95972271],[6.76921455,45.96009759],[6.76923006,45.9602296],[6.76915127,45.96055136],[6.7691825,45.96066752],[6.76944927,45.96088221],[6.76956474,45.96092614],[6.77059175,45.96125613],[6.77071982,45.961333],[6.77110553,45.96137784],[6.77121303,45.9614563],[6.7712643,45.96165743],[6.7713277,45.96171482],[6.77187688,45.96193812],[6.77185487,45.96208851],[6.77192178,45.96217823],[6.77269733,45.96230924],[6.77321156,45.9624751],[6.77378722,45.96285797],[6.77408858,45.96299217],[6.77417288,45.96310926],[6.7744722,45.96321376],[6.77462774,45.96331405],[6.77487645,45.96358523],[6.77500306,45.96384785],[6.77490291,45.96393323],[6.77453922,45.96404003],[6.77452193,45.96414608],[6.77459314,45.96420411],[6.77490578,45.96427662],[6.77554185,45.96429596],[6.7760938,45.96421985],[6.77641672,45.96414055],[6.776883,45.96394649],[6.77708295,45.9636955],[6.77722273,45.96366018],[6.77742252,45.96397175],[6.77769872,45.96415365],[6.77771146,45.96420732],[6.77795705,45.96430099],[6.77805453,45.96464752],[6.77812408,45.96471913],[6.77834936,45.96468636],[6.77876922,45.96451277],[6.7789318,45.96435769],[6.77935834,45.96446965],[6.7795008,45.96454874],[6.77955524,45.96473894],[6.7799095,45.96487135],[6.78011608,45.96522506],[6.78034851,45.96525877],[6.78053712,45.96536966],[6.7806972,45.96555453],[6.78054816,45.96564336],[6.78063364,45.96573967],[6.78083778,45.96581308],[6.78139613,45.96590531],[6.78154127,45.96589145],[6.78170823,45.96580022],[6.78188421,45.96582138],[6.78200936,45.96589293],[6.78209523,45.96605143],[6.78227258,45.96609238],[6.78228237,45.96615967],[6.7821873,45.96631881],[6.78328042,45.96657346],[6.78338986,45.96666085],[6.78337563,45.96671723],[6.78325713,45.96679872],[6.78246121,45.96704981],[6.78246511,45.96712541],[6.78336619,45.96740721],[6.7833032,45.96746882],[6.78296666,45.96757563],[6.78260551,45.96762557],[6.78263896,45.96769838],[6.78299669,45.96771166],[6.78352137,45.96784016],[6.7838865,45.96803621],[6.78476082,45.96830447],[6.78513683,45.96862095],[6.78542088,45.96867185],[6.78564139,45.96877626],[6.78608481,45.96913285],[6.78660746,45.96932542],[6.78672778,45.96942056],[6.78675907,45.96957458],[6.78682494,45.96963007],[6.78709479,45.96964358],[6.78734324,45.96972181],[6.78754448,45.96973401],[6.78783066,45.96985335],[6.78855448,45.96992558],[6.78893814,45.97023999],[6.78950383,45.97015613],[6.78965016,45.97017828],[6.7897854,45.97035856],[6.78984487,45.97058376],[6.78982393,45.97089909],[6.79015587,45.97119449],[6.79030932,45.97141384],[6.79060635,45.97155895],[6.79071825,45.97192573],[6.79107992,45.97208941],[6.79149422,45.97234148],[6.79222728,45.97297864],[6.79262625,45.97353324],[6.79323889,45.97352983],[6.79362917,45.97347077],[6.79413752,45.97349249],[6.79451972,45.97355992],[6.79473582,45.97363741],[6.79489316,45.97383769],[6.79496638,45.974112],[6.79514582,45.97420155],[6.79518151,45.97438156],[6.79540273,45.97473926],[6.79543784,45.97487331],[6.7955381,45.97497723],[6.79562502,45.9753187],[6.79580213,45.97541193],[6.79611391,45.97586396],[6.79624539,45.97597044],[6.79636903,45.97628183],[6.7964486,45.97631071],[6.79658335,45.97652076],[6.79661503,45.97666123],[6.79676166,45.97681859],[6.79676348,45.97695737],[6.79635567,45.97719373],[6.79651352,45.97740119],[6.79656316,45.97757713],[6.79676421,45.97762358],[6.79689359,45.97779323],[6.79707452,45.9778106],[6.79753395,45.97800344],[6.79757115,45.97805538],[6.79747592,45.97821184],[6.79718081,45.97824518],[6.79708747,45.9782979],[6.7968131,45.97829448],[6.7964502,45.97820749],[6.79681714,45.97887764],[6.79769963,45.97967293],[6.79685649,45.97985989],[6.79714536,45.97994216],[6.79715436,45.97997882],[6.79686113,45.98007701],[6.79672498,45.98007166],[6.79656178,45.98012401],[6.79648147,45.98010327],[6.79646869,45.98027408],[6.79655416,45.98046324],[6.79670714,45.98063752],[6.79691099,45.98139879],[6.79758664,45.98234437],[6.79752418,45.98245104],[6.79767088,45.98318988],[6.79788514,45.98346487],[6.79807229,45.9838715],[6.79795556,45.98429733],[6.7980384,45.98448568],[6.79817845,45.98460359],[6.79821421,45.98469074],[6.79817704,45.98477042],[6.7982402,45.98534799],[6.79839667,45.98547887],[6.7992605,45.98572124],[6.79951999,45.98607044],[6.79963166,45.98609554],[6.79974952,45.98619165],[6.79980498,45.98632051],[6.79975344,45.98712821],[6.79968092,45.9872767],[6.7996776,45.98750941],[6.79955834,45.98767388],[6.79905714,45.98801977],[6.79975513,45.98805133],[6.79986051,45.98821007],[6.8001832,45.98840659],[6.80023375,45.98846439],[6.80019934,45.98869634],[6.8011564,45.98974425],[6.80136587,45.99011766],[6.80069901,45.99250208],[6.80063084,45.99254494],[6.80043436,45.9925281],[6.80036507,45.99255476],[6.80059408,45.99268681],[6.80063618,45.99277195],[6.80063494,45.99299737],[6.80056131,45.99322343],[6.80046384,45.99329161],[6.80038512,45.99351873],[6.80022626,45.99374675],[6.80000162,45.99386518],[6.79981777,45.99404985],[6.79921802,45.99424308],[6.79908,45.99432344],[6.79890029,45.99535451],[6.79891857,45.9954693],[6.79881089,45.99570821],[6.79874469,45.99609809],[6.79838995,45.99656167],[6.79840321,45.99686594],[6.79801349,45.99699171],[6.79754108,45.99708148],[6.79748316,45.99712309],[6.79760501,45.9973516],[6.79759491,45.99748627],[6.79780626,45.99773702],[6.79799673,45.99785414],[6.7981233,45.99805724],[6.79849566,45.99812949],[6.79861371,45.99819044],[6.79922877,45.99866745],[6.79931061,45.99880354],[6.7993165,45.99911347],[6.79890769,45.99937511],[6.79848464,45.99989868],[6.79841312,46.00034283],[6.798511,46.00063615],[6.79851825,46.00096587],[6.79845135,46.00108351],[6.79835598,46.00110744],[6.79832652,46.00124276],[6.79808034,46.00119963],[6.79797041,46.00123758],[6.79804727,46.00169478],[6.79779777,46.00165988],[6.79727915,46.00147443],[6.79722397,46.00174313],[6.79730882,46.0018665],[6.79734571,46.0020636],[6.79742599,46.00215828],[6.79719911,46.00220736],[6.79671626,46.00210905],[6.79638733,46.0019542],[6.79606182,46.00203634],[6.79577711,46.0019972],[6.79578014,46.0021161],[6.79555033,46.00210397],[6.7951137,46.00218803],[6.79434909,46.00214964],[6.7938895,46.00218217],[6.79307549,46.00197144],[6.79233616,46.00186819],[6.79237622,46.00194258],[6.79218201,46.001959],[6.79216409,46.00199927],[6.79229311,46.00210674],[6.79239581,46.00211412],[6.79244325,46.00248306],[6.79266596,46.00291735],[6.792768,46.00302752],[6.79283755,46.00336056],[6.79269075,46.00333302],[6.79264348,46.00351041],[6.79241154,46.00354252],[6.79245798,46.00359686],[6.79256888,46.0036292],[6.79260199,46.00369661],[6.79211264,46.00402944],[6.79204111,46.00413641],[6.7919924,46.00438687],[6.79145208,46.00459969],[6.79185438,46.00452401],[6.79279336,46.00452051],[6.79304911,46.00470217],[6.79354968,46.00470072],[6.79383675,46.00466135],[6.7942815,46.0047321],[6.79455512,46.00470399],[6.79510641,46.00472519],[6.79561135,46.00491832],[6.79583454,46.00475938],[6.79604334,46.0047668],[6.79623407,46.00494342],[6.79604444,46.00519499],[6.79625861,46.00522387],[6.79697138,46.00542896],[6.79696366,46.00563567],[6.79709612,46.00571778],[6.79752966,46.00616933],[6.79767753,46.00623109],[6.79818005,46.00635126],[6.79827113,46.00634009],[6.79840817,46.00630124],[6.79876305,46.00610091],[6.79958801,46.00588842],[6.79988665,46.00586668],[6.80051825,46.0061511],[6.80079033,46.00634391],[6.80116844,46.00646104],[6.80166249,46.00673925],[6.80238971,46.00696546],[6.80299569,46.0072345],[6.80357154,46.00755414],[6.80369237,46.00754287],[6.80398683,46.0077223],[6.80418281,46.00795553],[6.80417891,46.00814227],[6.80430483,46.00861586],[6.80423719,46.00902202],[6.80404903,46.00916357],[6.80387954,46.00950013],[6.80371172,46.00956166],[6.80384561,46.00972035],[6.80377425,46.01001664],[6.80320594,46.01051715],[6.80272033,46.01075434],[6.80251423,46.01091723],[6.80292285,46.0116058],[6.80386494,46.01149573],[6.80344694,46.01113923],[6.80401235,46.01113917],[6.80406103,46.0110573],[6.80405358,46.00995858],[6.80475486,46.00984666],[6.80579866,46.00883252],[6.80724697,46.00867204],[6.80738154,46.00882168],[6.80736765,46.00895737],[6.80801414,46.008914],[6.80937213,46.00866367],[6.80988426,46.00838049],[6.80932215,46.0072887],[6.81004412,46.00700927],[6.80965533,46.00660765],[6.80997991,46.00645608],[6.80992774,46.00583397],[6.81044067,46.00550658],[6.81055004,46.00572198],[6.81139458,46.00597934],[6.8118538,46.00629565],[6.81202169,46.00619804],[6.81107858,46.00515334],[6.8108341,46.00442591],[6.81371384,46.00479776],[6.81381146,46.0046385],[6.81365952,46.0045742],[6.81340584,46.00390118],[6.81389813,46.00368716],[6.81337878,46.00267148],[6.81410475,46.00271194],[6.81428224,46.00299536],[6.81518196,46.00302274],[6.81601622,46.00328132],[6.81569005,46.00236552],[6.81667408,46.00245226],[6.8179498,46.00351634],[6.81854157,46.00341254],[6.81824103,46.00269874],[6.81931709,46.00148412],[6.82000803,46.0018025],[6.82026093,46.0022213],[6.82129087,46.00224244],[6.821248,46.00173721],[6.82626094,46.00339175],[6.82728893,46.00331012],[6.82973214,46.00447165],[6.83106136,46.0054265],[6.83295999,46.00714371],[6.83553989,46.0089992],[6.83643708,46.00997134],[6.83673777,46.01072026],[6.83686591,46.01257493],[6.83716217,46.01414982],[6.83730313,46.01461205],[6.83750991,46.01484937],[6.84123975,46.01717245],[6.84296724,46.01776386],[6.84398068,46.01797019],[6.84459355,46.01799987],[6.84554718,46.01762851],[6.8464992,46.01688304],[6.84869215,46.0143076],[6.8496647,46.01354247],[6.84998337,46.01269769],[6.85176592,46.01115761],[6.8518534,46.01052263],[6.85199135,46.01031238],[6.85229902,46.01003145],[6.85402193,46.00902708],[6.85443425,46.00863348],[6.8554361,46.00720014],[6.85313186,46.00670248],[6.85174475,46.00627545],[6.84959799,46.00595628],[6.84879419,46.00561847],[6.84864907,46.00535654],[6.84789301,46.00499818],[6.84692707,46.00408075],[6.84527942,46.00351555],[6.84299947,46.00254715],[6.84252192,46.00243353],[6.84169106,46.00178105],[6.84138111,46.00165904],[6.84118909,46.00144738],[6.84060043,46.001095],[6.83989149,46.00105775],[6.83958735,46.00087062],[6.8391139,46.00081545],[6.83869085,46.00038894],[6.83840638,46.00027957],[6.83789337,45.99989848],[6.83786334,45.99957944],[6.8375243,45.99913295],[6.83750528,45.99886042],[6.8370542,45.99819864],[6.83666304,45.99795045],[6.8365461,45.99770197],[6.8363657,45.9976008],[6.83629357,45.99727147],[6.83556732,45.99665147],[6.83487536,45.99589236],[6.83467225,45.99527987],[6.83402071,45.99487731],[6.83407821,45.9945517],[6.83432001,45.99410536],[6.8336353,45.99387611],[6.83324474,45.99265241],[6.8331794,45.99255004],[6.83276108,45.99235684],[6.83274591,45.99223204],[6.83330613,45.99158469],[6.83301079,45.99104023],[6.83305919,45.99058421],[6.83285859,45.9904711],[6.83263561,45.99016671],[6.832651,45.98942241],[6.83332912,45.98870435],[6.83281516,45.98721255],[6.83311813,45.98653063],[6.83305978,45.98578612],[6.83320018,45.98538829],[6.8331062,45.98509756],[6.8333833,45.98460134],[6.83337695,45.9844546],[6.83250022,45.98354667],[6.83249614,45.98330249],[6.83269344,45.9829974],[6.83273762,45.98246218],[6.83236741,45.98180757],[6.83237085,45.98126291],[6.83218172,45.98066437],[6.83236552,45.98046251],[6.83224224,45.98002943],[6.83165539,45.97984735],[6.83129341,45.97944039],[6.83053962,45.97923781],[6.83040134,45.97910906],[6.83023776,45.97861694],[6.83066866,45.97791537],[6.83127924,45.97758457],[6.83103903,45.97721765],[6.83092859,45.97617018],[6.83039965,45.97579771],[6.82988222,45.97529323],[6.82966915,45.9748145],[6.82938602,45.97345913],[6.82945197,45.97329192],[6.83011399,45.97264203],[6.82940071,45.97205402],[6.82877735,45.97201471],[6.82861715,45.97192366],[6.82807943,45.97079237],[6.82725668,45.970117],[6.82698838,45.96964284],[6.82631796,45.96952126],[6.82596251,45.96909513],[6.82592096,45.96862773],[6.8254264,45.968209],[6.8248676,45.9675355],[6.82447716,45.9672566],[6.82436753,45.96670224],[6.82374254,45.96567126],[6.82373522,45.96515672],[6.82362895,45.96489255],[6.82276464,45.96374704],[6.82267823,45.96334066],[6.82247373,45.96315103],[6.82261479,45.96226004],[6.82247722,45.96184276],[6.82285431,45.96157669],[6.82351298,45.96034004],[6.82337513,45.95923038],[6.82347188,45.95833458],[6.82409659,45.95607041],[6.82449927,45.95522467],[6.82444044,45.95497332],[6.82457383,45.95453066],[6.81726058,45.95538802],[6.81748261,45.95475035],[6.81696609,45.95473893],[6.81703526,45.955438],[6.81649127,45.95558978],[6.80081093,45.95801995],[6.79118571,45.96313636],[6.79118464,45.9631959],[6.79065853,45.96329016],[6.78925753,45.96331365],[6.78882168,45.96338595],[6.78725485,45.96374222],[6.78613351,45.96418544],[6.78527136,45.96405562],[6.78421852,45.96406649],[6.78312497,45.96357928],[6.78253842,45.96236199],[6.78259638,45.96192642],[6.78160629,45.9615331],[6.78139693,45.96127054],[6.78099491,45.96100721],[6.78052847,45.96089748],[6.78046963,45.96073717],[6.78060084,45.96037037],[6.78035532,45.96025868],[6.78025871,45.96011315],[6.78012201,45.96013665],[6.779623,45.95902552],[6.77984359,45.95871794],[6.77949439,45.95809403],[6.77945166,45.95750947],[6.77891278,45.95737962],[6.77816776,45.95695825],[6.77814193,45.95654441],[6.77784776,45.95619452],[6.77777361,45.95594277],[6.77665219,45.95538521],[6.77309775,45.95325542],[6.76712251,45.95006305],[6.76416392,45.94968104],[6.76028844,45.94934656],[6.74995648,45.94766748],[6.751222,45.94497958],[6.75136306,45.94299158],[6.75035693,45.94091271],[6.74988869,45.93946419],[6.7486313,45.93803912],[6.74653245,45.93605774],[6.74568225,45.93539265],[6.74525527,45.9352319],[6.74514801,45.93502269],[6.74437894,45.93458118],[6.74420029,45.93438606],[6.74332234,45.93443316],[6.74283569,45.93436362],[6.74272215,45.93427092],[6.74310416,45.93350461],[6.74430149,45.93321436],[6.74508952,45.93275734],[6.74570995,45.93266647],[6.74617015,45.93268909],[6.74654304,45.93245407],[6.74778536,45.9322371],[6.74875744,45.93184608],[6.74916264,45.9313269],[6.74939395,45.93119482],[6.75006536,45.93115092],[6.75114701,45.93088967],[6.75226484,45.93087512],[6.75358042,45.93036898],[6.75392409,45.93040715],[6.75428522,45.9300571],[6.75417954,45.92977663],[6.75490128,45.92918291],[6.75548679,45.92897865],[6.75560164,45.92876839],[6.75605082,45.92853531],[6.75677879,45.92833623],[6.75624683,45.92737486],[6.75608327,45.92688987],[6.75407427,45.92652747],[6.75318025,45.9264697],[6.75201071,45.92650131],[6.75147034,45.92655259],[6.75073336,45.92673301],[6.75026609,45.92675752],[6.74997662,45.9268131],[6.74769348,45.92758476],[6.74525391,45.92827952],[6.74472781,45.92835104],[6.74384578,45.92837484],[6.74338319,45.92850645],[6.7426553,45.92893532],[6.74172855,45.9292707],[6.73987785,45.93011623],[6.73920235,45.93029003],[6.73850035,45.93060623],[6.73821833,45.93069578],[6.73669378,45.93103736],[6.73617384,45.93127631],[6.73501327,45.93205118],[6.73474476,45.9320925],[6.73451203,45.93201364],[6.73444066,45.93181857],[6.73447748,45.93169475],[6.73509686,45.93103603],[6.73544537,45.93076488],[6.73554148,45.93063911],[6.73551653,45.93040464],[6.73520253,45.93002286],[6.73539347,45.9294477],[6.73524761,45.92904955],[6.73539412,45.92844792],[6.73521402,45.92815457],[6.73503939,45.92771319],[6.73407109,45.92711232],[6.73343185,45.92780144],[6.73388881,45.92852017],[6.73399232,45.9289035],[6.734215,45.93009153],[6.73422609,45.93057888],[6.73414631,45.93083123],[6.73356325,45.93166364],[6.7333261,45.93188152],[6.73315284,45.93195575],[6.73296307,45.93218649],[6.732953,45.93232385],[6.7331092,45.93251252],[6.73302019,45.93264797],[6.73306079,45.93273228],[6.73303421,45.93302614],[6.73295253,45.93309825],[6.73212227,45.9334484],[6.73176714,45.93375581],[6.73155062,45.93404963],[6.73156132,45.93413131],[6.73146843,45.93430476],[6.73157755,45.93459956],[6.73153131,45.93477507],[6.73144752,45.93491126],[6.73134782,45.93490824],[6.73119023,45.93506128],[6.73101312,45.93509778],[6.7305907,45.93500353],[6.73049663,45.93493091],[6.73027302,45.93424323],[6.73012936,45.93402981],[6.72956677,45.93365892],[6.72905485,45.93346395],[6.72893152,45.93335984],[6.72889602,45.93279757],[6.72900499,45.93230807],[6.7289982,45.9321316],[6.72881574,45.93207],[6.72847943,45.93204503],[6.72827807,45.93208593],[6.72820498,45.93205589],[6.7282846,45.93193426],[6.72861191,45.93167376],[6.72893779,45.93131593],[6.72904396,45.93124302],[6.72932771,45.93115974],[6.73027396,45.93032889],[6.73002866,45.92998811],[6.72978228,45.92999353],[6.72836641,45.9302043],[6.72772667,45.9303534],[6.72681288,45.93048088],[6.72616085,45.9306394],[6.72571838,45.93080182],[6.72519027,45.93107345],[6.72415136,45.93068847],[6.72334801,45.93086367],[6.72279088,45.93061067],[6.72254907,45.93016788],[6.72228422,45.92995754],[6.72221703,45.92982362],[6.72111742,45.92940005],[6.72040112,45.92920005],[6.72024117,45.92910795],[6.71965637,45.92905688],[6.719247,45.92882964],[6.71904333,45.92875972],[6.71820611,45.92866284],[6.7177618,45.92830063],[6.71757841,45.92820569],[6.71650471,45.92785876],[6.71643509,45.92780335],[6.71635107,45.92753476],[6.71615879,45.92726973],[6.71589683,45.92702502],[6.71537198,45.92671323],[6.71513248,45.92662914],[6.71451129,45.92653597],[6.71406099,45.9262758],[6.71357692,45.92618533],[6.71297522,45.92590219],[6.71253058,45.92586],[6.71233292,45.92574478],[6.71190579,45.92531077],[6.71148032,45.92524631],[6.71089799,45.92509684],[6.71027734,45.9250496],[6.71019637,45.92499817],[6.70989517,45.92495666],[6.70905582,45.92465426],[6.7082451,45.92460422],[6.70773564,45.92444334],[6.70739641,45.92439316],[6.7067413,45.92431368],[6.70555596,45.92432098],[6.70496964,45.92413105],[6.70374406,45.92405852],[6.7027923,45.92377417],[6.70254114,45.9237851],[6.70220785,45.92388075],[6.70205471,45.92383168],[6.70108593,45.92375522],[6.70065918,45.92365199],[6.70011002,45.92339952],[6.69962706,45.92299794],[6.69926705,45.92286909],[6.69870387,45.92283072],[6.69659107,45.92291424],[6.6958119,45.92283334],[6.69581891,45.9227646],[6.69573774,45.92269063],[6.69535027,45.92259512],[6.69532106,45.92254469],[6.69535238,45.92247245],[6.69543033,45.92245998],[6.69568251,45.92252205],[6.69579466,45.92244176],[6.6956306,45.92201802],[6.69551346,45.92188933],[6.69505862,45.92179061],[6.69494329,45.92168891],[6.69500655,45.92159219],[6.69551942,45.9214393],[6.69568395,45.921177],[6.69580341,45.92109016],[6.69688963,45.92103121],[6.69804691,45.92068415],[6.69889754,45.92082941],[6.69923701,45.92080658],[6.69959427,45.92066418],[6.6998377,45.92051918],[6.70269715,45.91865145],[6.70282355,45.91841833],[6.70281034,45.9183178],[6.70294893,45.91816993],[6.70278366,45.91711429],[6.7028728,45.91671111],[6.70302362,45.9164763],[6.70326641,45.91626461],[6.70424102,45.9156999],[6.70357964,45.91517978],[6.70323119,45.91506859],[6.70172578,45.91490334],[6.70072879,45.91490443],[6.70034707,45.91481686],[6.7001002,45.91469874],[6.69930304,45.91421369],[6.69896982,45.91394423],[6.69892924,45.91384008],[6.69896542,45.91362886],[6.6992689,45.91307082],[6.6992103,45.91283295],[6.70276884,45.91268669],[6.70503626,45.91245013],[6.7052552,45.91251778],[6.7053912,45.91261969],[6.70677954,45.91386691],[6.7069386,45.91406182],[6.70711053,45.91414092],[6.70816894,45.9134986],[6.70849937,45.91338049],[6.7083918,45.91324068],[6.70842091,45.91313605],[6.7081644,45.9127406],[6.70792419,45.91251049],[6.70625919,45.91006888],[6.70308307,45.9103109],[6.69808499,45.91047994],[6.69718249,45.91055995],[6.6961505,45.91071179],[6.69500204,45.91097561],[6.6937336,45.91135692],[6.69240405,45.91186733],[6.68998282,45.91291187],[6.68958739,45.91261918],[6.68951793,45.91237264],[6.68941995,45.91225954],[6.68901555,45.91217989],[6.68877717,45.91207228],[6.68660216,45.91044846],[6.68587946,45.90974184],[6.68519542,45.90885996]]]]},"bbox":[6.64594954,45.90885996,6.8554361,46.01799987]}]}