{"type":"FeatureCollection","metadata":{"sourceType":"iris","referenceFile":"vetraz-monthoux-quartiers.geojson","source":"IGN / INSEE - Contours IRIS WFS Géoplateforme","sourceUrl":"https://geoservices.ign.fr/contoursiris","license":"Licence Ouverte / Open Licence 2.0","sourceYear":"2026"},"features":[{"type":"Feature","id":"fr-quartier-74298-d6bfc623f2e0","properties":{"id":"fr-quartier-74298-d6bfc623f2e0","kind":"quartier","name":"Route de taninges","cityCode":"74298","cityName":"Vétraz-Monthoux","sourceType":"iris","sourceIds":["742980101"],"colorIndex":0,"center":[6.264432900939382,46.18094367288774]},"geometry":{"type":"MultiPolygon","coordinates":[[[[6.25153855,46.18572212],[6.25137727,46.18645945],[6.25097569,46.18710542],[6.25074962,46.18793202],[6.25075342,46.18884938],[6.25062077,46.18961023],[6.25070291,46.18994494],[6.25122556,46.19068343],[6.25105897,46.19117848],[6.25098158,46.19131768],[6.254655,46.19131077],[6.25521762,46.19158485],[6.25760317,46.19215818],[6.26142782,46.19266313],[6.26281066,46.19293707],[6.26383563,46.19356465],[6.2667607,46.19356261],[6.26748098,46.19395468],[6.26972192,46.19425343],[6.27155458,46.19610414],[6.27238361,46.19738169],[6.27495181,46.19724642],[6.2748587,46.19694809],[6.27759701,46.19607694],[6.27846881,46.19689537],[6.28122831,46.19614068],[6.2817377,46.19567444],[6.28184652,46.19571456],[6.28056429,46.19437085],[6.2816265,46.19247367],[6.27981389,46.18942205],[6.28005572,46.18895273],[6.27935141,46.18741838],[6.27887114,46.18429224],[6.27828088,46.18320974],[6.27809386,46.18325028],[6.27584419,46.18088808],[6.27743438,46.18029335],[6.27695437,46.180099],[6.27685478,46.17997389],[6.27695425,46.17992326],[6.27669151,46.17980376],[6.27675795,46.17950443],[6.27685791,46.17944026],[6.2767563,46.17939001],[6.27685054,46.179317],[6.27695997,46.17938955],[6.27720634,46.17932206],[6.27736584,46.17919038],[6.27736986,46.17906228],[6.27758914,46.179019],[6.27758818,46.17891629],[6.27815003,46.17861348],[6.27818818,46.17864392],[6.27825214,46.17860692],[6.27849547,46.1785972],[6.27882013,46.17832015],[6.27874159,46.17811333],[6.27892349,46.17792242],[6.27870714,46.17758078],[6.27870733,46.17741043],[6.2789307,46.1774139],[6.27900199,46.17734785],[6.27882162,46.17719534],[6.27883119,46.17705176],[6.27933577,46.17700655],[6.27949628,46.17654498],[6.27989559,46.17634509],[6.27984764,46.17619416],[6.28004777,46.17600452],[6.28004996,46.17575932],[6.28022029,46.17559217],[6.2799042,46.17544808],[6.27967264,46.17513392],[6.27947125,46.17510729],[6.27933947,46.17481277],[6.27917473,46.17479139],[6.27908976,46.17465054],[6.27916075,46.17447095],[6.27872932,46.17413371],[6.27806821,46.17401219],[6.27805145,46.1738838],[6.27783115,46.17371441],[6.27751652,46.1736595],[6.27724152,46.17370348],[6.27600975,46.17317212],[6.27583978,46.17288952],[6.27557759,46.17286553],[6.27554928,46.17256533],[6.27524997,46.17228916],[6.27532862,46.17195523],[6.27500645,46.17186087],[6.27526183,46.17166244],[6.27512123,46.17137178],[6.27521227,46.17087617],[6.27483788,46.17053727],[6.27470892,46.17009397],[6.2740662,46.17017108],[6.27350486,46.17004666],[6.27307562,46.16985354],[6.27263771,46.16944978],[6.27242259,46.16904049],[6.27223868,46.16763262],[6.27228661,46.16665337],[6.27211595,46.16646722],[6.27155286,46.16618242],[6.27134834,46.16614595],[6.27043852,46.16628932],[6.26927849,46.16663094],[6.2687857,46.1666983],[6.26720973,46.16715642],[6.26658064,46.16750527],[6.26573605,46.167699],[6.2645789,46.16761059],[6.26318408,46.16729918],[6.26254439,46.16705619],[6.26145731,46.16648808],[6.26010078,46.16620888],[6.25946758,46.16629284],[6.25855989,46.16662531],[6.25692743,46.16768424],[6.25578038,46.16761258],[6.2532116,46.16806471],[6.25282633,46.16834882],[6.25262646,46.16895928],[6.25207055,46.16984401],[6.25119276,46.1704198],[6.24945378,46.1702109],[6.24822171,46.16982165],[6.24737326,46.16977651],[6.24703761,46.16989155],[6.24651615,46.17048326],[6.24599343,46.1707911],[6.24621915,46.17282868],[6.24589165,46.17347612],[6.24533937,46.1740741],[6.24414915,46.17465606],[6.24297827,46.1750608],[6.24078806,46.17558204],[6.23880392,46.1758369],[6.23827119,46.17584487],[6.23768456,46.17612656],[6.2391901,46.17714711],[6.23965851,46.17752129],[6.23980499,46.17749728],[6.24013641,46.17766087],[6.24036923,46.17764882],[6.24048746,46.17771755],[6.24113651,46.1784696],[6.24113538,46.17864807],[6.24125495,46.17873929],[6.2424543,46.17802463],[6.24336976,46.17777499],[6.24370566,46.17775098],[6.24611187,46.17789675],[6.24651631,46.17786897],[6.24784559,46.17757502],[6.24911051,46.17715853],[6.2500462,46.17701009],[6.25140622,46.17668818],[6.25219815,46.1764348],[6.25292151,46.17631585],[6.25325748,46.17616203],[6.25357115,46.17585113],[6.2537472,46.17573523],[6.25438225,46.17546199],[6.25457217,46.17577649],[6.25497764,46.17668415],[6.25537255,46.17732624],[6.25537697,46.17768481],[6.25551509,46.17773853],[6.25545922,46.17830522],[6.25555114,46.17882621],[6.25548678,46.17924984],[6.25540793,46.17951707],[6.25504426,46.18012231],[6.25430844,46.18068775],[6.25408293,46.18091051],[6.25216556,46.18391159],[6.25191523,46.18441624],[6.25153855,46.18572212]],[[6.25432,46.17349544],[6.25452387,46.17341119],[6.25463036,46.17328196],[6.2549134,46.17263036],[6.25512846,46.172407],[6.25546692,46.1721864],[6.25574368,46.17156021],[6.25589213,46.17135137],[6.25611096,46.17121352],[6.25634985,46.17091106],[6.25691875,46.17090106],[6.25663628,46.1707974],[6.2565352,46.17082103],[6.25628095,46.17053721],[6.25674735,46.17009034],[6.2573785,46.16999293],[6.25756955,46.1700208],[6.25777888,46.169876],[6.25824132,46.16973386],[6.25896393,46.16940761],[6.25898528,46.16943944],[6.26046345,46.16910141],[6.26176313,46.16894693],[6.26152588,46.16829493],[6.26372049,46.16805164],[6.26468301,46.1681826],[6.26555491,46.16851263],[6.26606416,46.16861245],[6.266696,46.16859248],[6.26777755,46.16845682],[6.26809798,46.16834846],[6.26838386,46.16816089],[6.26893196,46.16749801],[6.26926157,46.16719562],[6.26952859,46.16704012],[6.26987976,46.1669471],[6.27030752,46.16694199],[6.27064488,46.16700889],[6.2708367,46.16713675],[6.27126986,46.16761366],[6.2713281,46.16774176],[6.27141106,46.16832789],[6.27153237,46.1684695],[6.27126692,46.16876014],[6.2705716,46.16921638],[6.27036664,46.1694557],[6.27024937,46.16970783],[6.27023347,46.16996334],[6.27028332,46.17016829],[6.27065216,46.1708931],[6.27071041,46.17165209],[6.2706082,46.17217866],[6.27027689,46.17332288],[6.27008165,46.1736818],[6.26996162,46.17373572],[6.26974424,46.17363653],[6.26716587,46.17306001],[6.26518194,46.17344601],[6.2629182,46.17405722],[6.26282464,46.17416355],[6.26366995,46.17465569],[6.26454604,46.17525058],[6.26616426,46.17678216],[6.26655269,46.17694313],[6.26723353,46.1770254],[6.26749846,46.17711691],[6.26810291,46.1774411],[6.2680103,46.1776069],[6.26690447,46.17781715],[6.26578003,46.17823792],[6.26533949,46.17737636],[6.26475598,46.17746884],[6.26460156,46.17714162],[6.2638862,46.17739469],[6.26348123,46.1769557],[6.26339633,46.17698968],[6.26316499,46.1766124],[6.26293135,46.17608737],[6.26243946,46.176106],[6.26160203,46.17626974],[6.26116247,46.17653561],[6.26080334,46.17640893],[6.26069946,46.17501136],[6.25883952,46.17512782],[6.25856124,46.17430936],[6.25848269,46.17418814],[6.25833984,46.17409851],[6.2581796,46.17415267],[6.25785932,46.17417718],[6.25781264,46.17428667],[6.25754326,46.17449086],[6.25720911,46.17489339],[6.25600072,46.17516777],[6.25613911,46.17585956],[6.25584609,46.1760374],[6.25559325,46.17461977],[6.25526973,46.1747426],[6.25509212,46.1743295],[6.254579,46.17440549],[6.2543883,46.17388102],[6.25432,46.17349544]]]]},"bbox":[6.23768456,46.16614595,6.28184652,46.19738169]},{"type":"Feature","id":"fr-quartier-74298-177de9990605","properties":{"id":"fr-quartier-74298-177de9990605","kind":"quartier","name":"Route du mont blanc","cityCode":"74298","cityName":"Vétraz-Monthoux","sourceType":"iris","sourceIds":["742980102"],"colorIndex":1,"center":[6.263271364267026,46.17196792010181]},"geometry":{"type":"MultiPolygon","coordinates":[[[[6.2543883,46.17388102],[6.254579,46.17440549],[6.25509212,46.1743295],[6.25526973,46.1747426],[6.25559325,46.17461977],[6.25584609,46.1760374],[6.25613911,46.17585956],[6.25600072,46.17516777],[6.25720911,46.17489339],[6.25754326,46.17449086],[6.25781264,46.17428667],[6.25785932,46.17417718],[6.2581796,46.17415267],[6.25833984,46.17409851],[6.25848269,46.17418814],[6.25856124,46.17430936],[6.25883952,46.17512782],[6.26069946,46.17501136],[6.26080334,46.17640893],[6.26116247,46.17653561],[6.26160203,46.17626974],[6.26243946,46.176106],[6.26293135,46.17608737],[6.26316499,46.1766124],[6.26339633,46.17698968],[6.26348123,46.1769557],[6.2638862,46.17739469],[6.26460156,46.17714162],[6.26475598,46.17746884],[6.26533949,46.17737636],[6.26578003,46.17823792],[6.26690447,46.17781715],[6.2680103,46.1776069],[6.26810291,46.1774411],[6.26749846,46.17711691],[6.26723353,46.1770254],[6.26655269,46.17694313],[6.26616426,46.17678216],[6.26454604,46.17525058],[6.26366995,46.17465569],[6.26282464,46.17416355],[6.2629182,46.17405722],[6.26518194,46.17344601],[6.26716587,46.17306001],[6.26974424,46.17363653],[6.26996162,46.17373572],[6.27008165,46.1736818],[6.27027689,46.17332288],[6.2706082,46.17217866],[6.27071041,46.17165209],[6.27065216,46.1708931],[6.27028332,46.17016829],[6.27023347,46.16996334],[6.27024937,46.16970783],[6.27036664,46.1694557],[6.2705716,46.16921638],[6.27126692,46.16876014],[6.27153237,46.1684695],[6.27141106,46.16832789],[6.2713281,46.16774176],[6.27126986,46.16761366],[6.2708367,46.16713675],[6.27064488,46.16700889],[6.27030752,46.16694199],[6.26987976,46.1669471],[6.26952859,46.16704012],[6.26926157,46.16719562],[6.26893196,46.16749801],[6.26838386,46.16816089],[6.26809798,46.16834846],[6.26777755,46.16845682],[6.266696,46.16859248],[6.26606416,46.16861245],[6.26555491,46.16851263],[6.26468301,46.1681826],[6.26372049,46.16805164],[6.26152588,46.16829493],[6.26176313,46.16894693],[6.26046345,46.16910141],[6.25898528,46.16943944],[6.25896393,46.16940761],[6.25824132,46.16973386],[6.25777888,46.169876],[6.25756955,46.1700208],[6.2573785,46.16999293],[6.25674735,46.17009034],[6.25628095,46.17053721],[6.2565352,46.17082103],[6.25663628,46.1707974],[6.25691875,46.17090106],[6.25634985,46.17091106],[6.25611096,46.17121352],[6.25589213,46.17135137],[6.25574368,46.17156021],[6.25546692,46.1721864],[6.25512846,46.172407],[6.2549134,46.17263036],[6.25463036,46.17328196],[6.25452387,46.17341119],[6.25432,46.17349544],[6.2543883,46.17388102]]],[[[6.2415252,46.17894338],[6.24351176,46.18120558],[6.2435195,46.18256444],[6.24644205,46.18261796],[6.2479668,46.1838911],[6.24813596,46.18484068],[6.24955649,46.1854048],[6.24991551,46.18581362],[6.25007576,46.18580272],[6.25153855,46.18572212],[6.25191523,46.18441624],[6.25216556,46.18391159],[6.25408293,46.18091051],[6.25430844,46.18068775],[6.25504426,46.18012231],[6.25540793,46.17951707],[6.25548678,46.17924984],[6.25555114,46.17882621],[6.25545922,46.17830522],[6.25551509,46.17773853],[6.25537697,46.17768481],[6.25537255,46.17732624],[6.25497764,46.17668415],[6.25457217,46.17577649],[6.25438225,46.17546199],[6.2537472,46.17573523],[6.25357115,46.17585113],[6.25325748,46.17616203],[6.25292151,46.17631585],[6.25219815,46.1764348],[6.25140622,46.17668818],[6.2500462,46.17701009],[6.24911051,46.17715853],[6.24784559,46.17757502],[6.24651631,46.17786897],[6.24611187,46.17789675],[6.24370566,46.17775098],[6.24336976,46.17777499],[6.2424543,46.17802463],[6.24125495,46.17873929],[6.2415252,46.17894338]]]]},"bbox":[6.24125495,46.16694199,6.27153237,46.18581362]}]}