{"type":"FeatureCollection","metadata":{"sourceType":"iris","referenceFile":"ville-la-grand-quartiers.geojson","source":"IGN / INSEE - Contours IRIS WFS Géoplateforme","sourceUrl":"https://geoservices.ign.fr/contoursiris","license":"Licence Ouverte / Open Licence 2.0","sourceYear":"2026"},"features":[{"type":"Feature","id":"fr-quartier-74305-589f4e41a742","properties":{"id":"fr-quartier-74305-589f4e41a742","kind":"quartier","name":"l'Orée des Bois","cityCode":"74305","cityName":"Ville-la-Grand","sourceType":"iris","sourceIds":["743050102"],"colorIndex":0,"center":[6.268638355206794,46.2069261178056]},"geometry":{"type":"MultiPolygon","coordinates":[[[[6.2451506,46.20496607],[6.24476609,46.20691202],[6.24613651,46.20635828],[6.24627909,46.20609194],[6.24626094,46.20589509],[6.24736135,46.20534183],[6.2478355,46.20521653],[6.24882064,46.20514963],[6.24955106,46.20498995],[6.24962615,46.20531496],[6.24918789,46.20584841],[6.24990236,46.20633899],[6.25168151,46.20722721],[6.25410131,46.20924074],[6.25422521,46.20927234],[6.25453021,46.20914014],[6.2546727,46.20915679],[6.25590454,46.21002907],[6.25730646,46.21033318],[6.25929222,46.21095851],[6.26119381,46.21173943],[6.26234937,46.21211274],[6.26311715,46.21255755],[6.26386516,46.21264873],[6.26463458,46.21283753],[6.26552708,46.21313094],[6.26629613,46.2135748],[6.26668274,46.21367905],[6.26738467,46.21373728],[6.26834199,46.21346282],[6.268671,46.21351555],[6.27079396,46.21426021],[6.27313041,46.21475264],[6.2747792,46.21496923],[6.27635155,46.2153403],[6.27655526,46.21503431],[6.27666908,46.21459302],[6.27657796,46.2139161],[6.27582955,46.21253801],[6.27530673,46.21182757],[6.27555609,46.21185102],[6.27738855,46.20962708],[6.27859136,46.21009439],[6.27928114,46.21027547],[6.27945253,46.21027594],[6.27957501,46.21017507],[6.27990382,46.20970414],[6.28099855,46.21012227],[6.28105267,46.21007204],[6.2811714,46.21012539],[6.28131018,46.21003667],[6.28151522,46.21036061],[6.28184835,46.21022211],[6.28249372,46.21029],[6.28263888,46.21015603],[6.28260483,46.2099344],[6.28310985,46.20893834],[6.28530941,46.20736608],[6.28588448,46.20684655],[6.2840173,46.20486726],[6.28207169,46.20343998],[6.2821773,46.20336123],[6.28131455,46.20276156],[6.28171984,46.20244163],[6.27777141,46.20044662],[6.27684295,46.19931077],[6.27648172,46.1990436],[6.27436546,46.20009687],[6.27470884,46.20023929],[6.27495712,46.20028892],[6.27486499,46.20039792],[6.27493689,46.2006455],[6.27487639,46.20078423],[6.27431878,46.20153122],[6.27416282,46.20167991],[6.27388399,46.20179249],[6.27375119,46.20176387],[6.27361599,46.20178219],[6.27332704,46.20198608],[6.27299963,46.20206761],[6.27230845,46.2020785],[6.27049315,46.2018054],[6.26570997,46.20117146],[6.26462091,46.2011703],[6.2644706,46.20119625],[6.2643579,46.20126528],[6.26421082,46.20128032],[6.26407441,46.20123467],[6.26387277,46.20109626],[6.26368011,46.20104321],[6.26313703,46.20094705],[6.26274417,46.20093219],[6.26213558,46.20100013],[6.26149795,46.20116894],[6.26098712,46.20137466],[6.25978155,46.20198965],[6.25904532,46.20226852],[6.25872377,46.20233993],[6.25775599,46.20237038],[6.25426232,46.20261917],[6.25524402,46.20325978],[6.25583406,46.20392783],[6.25602362,46.2042126],[6.25609645,46.20449892],[6.2562261,46.20456189],[6.25626219,46.20462305],[6.25646513,46.20519854],[6.25678972,46.205593],[6.25685215,46.20576966],[6.25688577,46.20618237],[6.25797625,46.20670809],[6.25779546,46.20694219],[6.25750628,46.20720913],[6.2574044,46.20748243],[6.25738969,46.20780279],[6.25715332,46.20806282],[6.25574033,46.20748414],[6.25521685,46.20721614],[6.25496513,46.2070431],[6.25478655,46.20707435],[6.25256202,46.20520034],[6.25208802,46.20486873],[6.2512034,46.20448577],[6.25018507,46.20423371],[6.24962451,46.20403974],[6.24949473,46.20432464],[6.24900529,46.20432331],[6.24884649,46.20427197],[6.2485409,46.20426268],[6.24785951,46.20428576],[6.24605018,46.20417793],[6.24569017,46.20423598],[6.24516119,46.20420241],[6.2451506,46.20496607]]]]},"bbox":[6.24476609,46.1990436,6.28588448,46.2153403]},{"type":"Feature","id":"fr-quartier-74305-a4113e60c2ef","properties":{"id":"fr-quartier-74305-a4113e60c2ef","kind":"quartier","name":"Rue de coqueloup","cityCode":"74305","cityName":"Ville-la-Grand","sourceType":"iris","sourceIds":["743050103"],"colorIndex":1,"center":[6.258804170329857,46.20041989072949]},"geometry":{"type":"MultiPolygon","coordinates":[[[[6.27436546,46.20009687],[6.27373966,46.20041953],[6.2730702,46.19988093],[6.27295372,46.19825661],[6.26912365,46.19856152],[6.26487332,46.1991109],[6.26180544,46.19909535],[6.25844871,46.19922047],[6.25805942,46.19852325],[6.25756954,46.19864454],[6.25641121,46.19874353],[6.25565899,46.19897147],[6.2555232,46.19908891],[6.25449658,46.19928595],[6.2528468,46.19921782],[6.25180296,46.19929996],[6.25131993,46.19931829],[6.25074867,46.19905254],[6.25040468,46.19887672],[6.25022476,46.19853489],[6.24877825,46.19885203],[6.24861405,46.19807444],[6.247353,46.19836734],[6.24709571,46.19785827],[6.24596572,46.19817264],[6.24583648,46.19802853],[6.2440318,46.19856583],[6.24522032,46.19943675],[6.24573836,46.19994377],[6.2459733,46.20031649],[6.24631326,46.20130085],[6.24638345,46.20136824],[6.2463176,46.20148368],[6.24652976,46.20158126],[6.24668541,46.20157952],[6.24675577,46.20178119],[6.24733283,46.20210087],[6.24750624,46.20217973],[6.24786104,46.20220925],[6.24836577,46.20253459],[6.24882758,46.20270525],[6.24935562,46.20283255],[6.24992845,46.20283961],[6.24998868,46.20287033],[6.25426232,46.20261917],[6.25775599,46.20237038],[6.25872377,46.20233993],[6.25904532,46.20226852],[6.25978155,46.20198965],[6.26098712,46.20137466],[6.26149795,46.20116894],[6.26213558,46.20100013],[6.26274417,46.20093219],[6.26313703,46.20094705],[6.26368011,46.20104321],[6.26387277,46.20109626],[6.26407441,46.20123467],[6.26421082,46.20128032],[6.2643579,46.20126528],[6.2644706,46.20119625],[6.26462091,46.2011703],[6.26570997,46.20117146],[6.27049315,46.2018054],[6.27230845,46.2020785],[6.27299963,46.20206761],[6.27332704,46.20198608],[6.27361599,46.20178219],[6.27375119,46.20176387],[6.27388399,46.20179249],[6.27416282,46.20167991],[6.27431878,46.20153122],[6.27487639,46.20078423],[6.27493689,46.2006455],[6.27486499,46.20039792],[6.27495712,46.20028892],[6.27470884,46.20023929],[6.27436546,46.20009687]]]]},"bbox":[6.2440318,46.19785827,6.27495712,46.20287033]},{"type":"Feature","id":"fr-quartier-74305-3b97a0746e05","properties":{"id":"fr-quartier-74305-3b97a0746e05","kind":"quartier","name":"Rue de l'avenir","cityCode":"74305","cityName":"Ville-la-Grand","sourceType":"iris","sourceIds":["743050101"],"colorIndex":2,"center":[6.242033357439934,46.20289532782644]},"geometry":{"type":"MultiPolygon","coordinates":[[[[6.23008103,46.20350001],[6.23032502,46.20369766],[6.22997459,46.20418257],[6.23014695,46.20446426],[6.23041963,46.20455385],[6.23056131,46.20449124],[6.23058216,46.2043825],[6.23091109,46.20436954],[6.23132129,46.2048103],[6.23171996,46.20492334],[6.23179731,46.20515636],[6.23261707,46.20596039],[6.23284685,46.20602686],[6.23339018,46.20592939],[6.23366847,46.20624592],[6.23401515,46.20642351],[6.23497651,46.20630513],[6.23555166,46.2064609],[6.23666898,46.20643359],[6.23679979,46.20634065],[6.23676729,46.20609824],[6.23751959,46.20597858],[6.23894299,46.20515665],[6.24013127,46.20514441],[6.24030685,46.20508443],[6.24080124,46.20523526],[6.24099885,46.20510886],[6.2408841,46.20488051],[6.24126016,46.20474272],[6.24167124,46.20482382],[6.24187521,46.20465127],[6.24198704,46.20476434],[6.24259857,46.20494247],[6.24281109,46.20493641],[6.24286265,46.20479885],[6.24269198,46.20467844],[6.24302822,46.20450392],[6.24334336,46.20478423],[6.24469952,46.2048014],[6.2451506,46.20496607],[6.24516119,46.20420241],[6.24569017,46.20423598],[6.24605018,46.20417793],[6.24785951,46.20428576],[6.2485409,46.20426268],[6.24884649,46.20427197],[6.24900529,46.20432331],[6.24949473,46.20432464],[6.24962451,46.20403974],[6.25018507,46.20423371],[6.2512034,46.20448577],[6.25208802,46.20486873],[6.25256202,46.20520034],[6.25478655,46.20707435],[6.25496513,46.2070431],[6.25521685,46.20721614],[6.25574033,46.20748414],[6.25715332,46.20806282],[6.25738969,46.20780279],[6.2574044,46.20748243],[6.25750628,46.20720913],[6.25779546,46.20694219],[6.25797625,46.20670809],[6.25688577,46.20618237],[6.25685215,46.20576966],[6.25678972,46.205593],[6.25646513,46.20519854],[6.25626219,46.20462305],[6.2562261,46.20456189],[6.25609645,46.20449892],[6.25602362,46.2042126],[6.25583406,46.20392783],[6.25524402,46.20325978],[6.25426232,46.20261917],[6.24998868,46.20287033],[6.24992845,46.20283961],[6.24935562,46.20283255],[6.24882758,46.20270525],[6.24836577,46.20253459],[6.24786104,46.20220925],[6.24750624,46.20217973],[6.24733283,46.20210087],[6.24675577,46.20178119],[6.24668541,46.20157952],[6.24652976,46.20158126],[6.2463176,46.20148368],[6.24638345,46.20136824],[6.24631326,46.20130085],[6.2459733,46.20031649],[6.24573836,46.19994377],[6.24522032,46.19943675],[6.2440318,46.19856583],[6.243684,46.19825942],[6.24254573,46.19687695],[6.23948309,46.19839636],[6.24054074,46.19938191],[6.24095938,46.20060107],[6.24069025,46.20177856],[6.24046611,46.20193906],[6.23962369,46.2015431],[6.2391292,46.20143372],[6.23761129,46.20126968],[6.23647834,46.20138216],[6.23549433,46.20060988],[6.23579436,46.19980013],[6.23446745,46.19860501],[6.23376757,46.19811573],[6.23317142,46.19885638],[6.23381268,46.19912203],[6.23225886,46.20127423],[6.23008103,46.20350001]]]]},"bbox":[6.22997459,46.19687695,6.25797625,46.20806282]}]}