{"type":"FeatureCollection","metadata":{"sourceType":"iris","referenceFile":"saint-aubin-les-elbeuf-quartiers.geojson","source":"IGN / INSEE - Contours IRIS WFS Géoplateforme","sourceUrl":"https://geoservices.ign.fr/contoursiris","license":"Licence Ouverte / Open Licence 2.0","sourceYear":"2026"},"features":[{"type":"Feature","id":"fr-quartier-76561-de57e01c350f","properties":{"id":"fr-quartier-76561-de57e01c350f","kind":"quartier","name":"Le Quesnot","cityCode":"76561","cityName":"Saint-Aubin-lès-Elbeuf","sourceType":"iris","sourceIds":["765610101"],"colorIndex":0,"center":[1.0110175729267066,49.30762873759958]},"geometry":{"type":"MultiPolygon","coordinates":[[[[0.99784734,49.30873218],[0.99916867,49.31005255],[1.0001274,49.31072306],[1.00091865,49.31167044],[1.00154015,49.31309519],[1.00204493,49.31362778],[1.00468637,49.31567309],[1.00550823,49.31618842],[1.0063745,49.31651565],[1.01077296,49.31755753],[1.01332837,49.31845743],[1.01519711,49.3153967],[1.01711316,49.31188622],[1.01626227,49.31148108],[1.01773512,49.30972934],[1.02088528,49.30651689],[1.02182603,49.30504231],[1.02364967,49.30263082],[1.02584997,49.30320185],[1.02717711,49.30326941],[1.02656555,49.30466308],[1.02637342,49.30558792],[1.02791395,49.30464285],[1.02855242,49.30416411],[1.02906645,49.30373908],[1.02914639,49.30362619],[1.02914315,49.30349485],[1.02733501,49.30295187],[1.02875848,49.30024421],[1.02931591,49.29839284],[1.02658513,49.2981432],[1.0260719,49.29865636],[1.02314098,49.30122781],[1.02313424,49.30133201],[1.02299301,49.30135757],[1.0225465,49.30181425],[1.01954898,49.30442769],[1.01940769,49.30434714],[1.01658804,49.30354011],[1.01330064,49.30227662],[1.0133295,49.30224112],[1.01263558,49.30190688],[1.01222492,49.30157281],[1.01203741,49.30119295],[1.01182041,49.30015078],[1.01148665,49.30067672],[1.01106792,49.30119496],[1.01100775,49.30125782],[1.01089006,49.30120732],[1.00983617,49.30054521],[1.00787138,49.29911631],[1.00771699,49.29894831],[1.00769229,49.29883999],[1.00689639,49.29758773],[1.00650342,49.29779436],[1.00574413,49.29830066],[1.00328957,49.2995154],[1.00274814,49.29993358],[1.00242591,49.30026545],[1.00209658,49.30088766],[1.00188354,49.30141827],[1.00177561,49.30267899],[1.00148139,49.30424056],[1.00148223,49.30464522],[1.00155884,49.30501067],[1.00238336,49.30712219],[1.00243257,49.30762746],[1.00048408,49.30822556],[0.99784734,49.30873218]]]]},"bbox":[0.99784734,49.29758773,1.02931591,49.31845743]},{"type":"Feature","id":"fr-quartier-76561-ba77732076e0","properties":{"id":"fr-quartier-76561-ba77732076e0","kind":"quartier","name":"Les Bords de Seine","cityCode":"76561","cityName":"Saint-Aubin-lès-Elbeuf","sourceType":"iris","sourceIds":["765610104"],"colorIndex":1,"center":[0.9990695172334336,49.300971305000004]},"geometry":{"type":"MultiPolygon","coordinates":[[[[1.03508209,49.29489986],[1.02970335,49.29371694],[1.02587181,49.29328115],[1.02215559,49.29321043],[1.00733251,49.29362665],[1.00748795,49.29462196],[1.00539059,49.29520869],[1.00464356,49.29564775],[1.00335896,49.29619212],[0.99998578,49.29783761],[0.99886533,49.29843681],[0.99770214,49.2992511],[0.99695416,49.2999239],[0.9943949,49.30297653],[0.99452636,49.30373406],[0.99636976,49.30715203],[0.99784734,49.30873218],[1.00048408,49.30822556],[1.00243257,49.30762746],[1.00238336,49.30712219],[1.00155884,49.30501067],[1.00148223,49.30464522],[1.00148139,49.30424056],[1.00177561,49.30267899],[1.00188354,49.30141827],[1.00209658,49.30088766],[1.00242591,49.30026545],[1.00274814,49.29993358],[1.00328957,49.2995154],[1.00574413,49.29830066],[1.00650342,49.29779436],[1.00689639,49.29758773],[1.00773777,49.29741188],[1.00948314,49.29739751],[1.01402893,49.29724938],[1.01410646,49.29727134],[1.01416858,49.2972292],[1.01984923,49.29706624],[1.02122219,49.29718946],[1.02286599,49.29742142],[1.02658513,49.2981432],[1.02931591,49.29839284],[1.03089935,49.29855086],[1.03324385,49.2989074],[1.03715793,49.29967969],[1.04103902,49.30081729],[1.04149203,49.30003963],[1.04125877,49.29991805],[1.04288794,49.29684039],[1.03807297,49.29539273],[1.03508209,49.29489986]]]]},"bbox":[0.9943949,49.29321043,1.04288794,49.30873218]},{"type":"Feature","id":"fr-quartier-76561-b47358bcd204","properties":{"id":"fr-quartier-76561-b47358bcd204","kind":"quartier","name":"Les Novales-Les Feugrais","cityCode":"76561","cityName":"Saint-Aubin-lès-Elbeuf","sourceType":"iris","sourceIds":["765610103"],"colorIndex":2,"center":[1.0364240742955528,49.30313963351168]},"geometry":{"type":"MultiPolygon","coordinates":[[[[1.02637342,49.30558792],[1.02836571,49.30620856],[1.02895027,49.30541331],[1.03415748,49.30669056],[1.03427401,49.30659174],[1.03432086,49.30608356],[1.03494421,49.30582034],[1.03549058,49.30588139],[1.03914124,49.30715916],[1.0417782,49.30808317],[1.04213667,49.30740649],[1.0430051,49.30575615],[1.04422304,49.30602226],[1.04611724,49.30408098],[1.04628238,49.30415019],[1.04789388,49.3026629],[1.04267314,49.30130958],[1.04103902,49.30081729],[1.03715793,49.29967969],[1.03324385,49.2989074],[1.03089935,49.29855086],[1.02931591,49.29839284],[1.02875848,49.30024421],[1.02733501,49.30295187],[1.02914315,49.30349485],[1.02914639,49.30362619],[1.02906645,49.30373908],[1.02855242,49.30416411],[1.02791395,49.30464285],[1.02637342,49.30558792]]]]},"bbox":[1.02637342,49.29839284,1.04789388,49.30808317]},{"type":"Feature","id":"fr-quartier-76561-a15253bbe2fe","properties":{"id":"fr-quartier-76561-a15253bbe2fe","kind":"quartier","name":"Rue Denfert Rochereau","cityCode":"76561","cityName":"Saint-Aubin-lès-Elbeuf","sourceType":"iris","sourceIds":["765610102"],"colorIndex":3,"center":[1.0169905902407292,49.299887765301314]},"geometry":{"type":"MultiPolygon","coordinates":[[[[1.02658513,49.2981432],[1.02286599,49.29742142],[1.02122219,49.29718946],[1.01984923,49.29706624],[1.01416858,49.2972292],[1.01410646,49.29727134],[1.01402893,49.29724938],[1.00948314,49.29739751],[1.00773777,49.29741188],[1.00689639,49.29758773],[1.00769229,49.29883999],[1.00771699,49.29894831],[1.00787138,49.29911631],[1.00983617,49.30054521],[1.01089006,49.30120732],[1.01100775,49.30125782],[1.01106792,49.30119496],[1.01148665,49.30067672],[1.01182041,49.30015078],[1.01203741,49.30119295],[1.01222492,49.30157281],[1.01263558,49.30190688],[1.0133295,49.30224112],[1.01330064,49.30227662],[1.01658804,49.30354011],[1.01940769,49.30434714],[1.01954898,49.30442769],[1.0225465,49.30181425],[1.02299301,49.30135757],[1.02313424,49.30133201],[1.02314098,49.30122781],[1.0260719,49.29865636],[1.02658513,49.2981432]]]]},"bbox":[1.00689639,49.29706624,1.02658513,49.30442769]}]}