{"type":"FeatureCollection","metadata":{"sourceType":"iris","referenceFile":"saint-etienne-du-rouvray-quartiers.geojson","source":"IGN / INSEE - Contours IRIS WFS Géoplateforme","sourceUrl":"https://geoservices.ign.fr/contoursiris","license":"Licence Ouverte / Open Licence 2.0","sourceYear":"2026"},"features":[{"type":"Feature","id":"fr-quartier-76575-f900db70b7af","properties":{"id":"fr-quartier-76575-f900db70b7af","kind":"quartier","name":"Bic Auber","cityCode":"76575","cityName":"Saint-Étienne-du-Rouvray","sourceType":"iris","sourceIds":["765750401"],"colorIndex":0,"center":[1.10176876774892,49.38919090630788]},"geometry":{"type":"MultiPolygon","coordinates":[[[[1.09940778,49.39133445],[1.10005449,49.39161434],[1.1013685,49.39202699],[1.10122808,49.39228642],[1.10109069,49.39280035],[1.10085364,49.39504619],[1.10318989,49.39534629],[1.10339936,49.39279882],[1.10322493,49.39274753],[1.10320565,49.39259797],[1.10157956,49.39209324],[1.10162762,49.39179819],[1.10190572,49.39176479],[1.10225559,49.3916525],[1.10316671,49.39170995],[1.10405975,49.38840265],[1.10434259,49.38662954],[1.10436673,49.3859358],[1.10451646,49.38519728],[1.099677,49.38470594],[1.09955917,49.38539911],[1.09928036,49.39112925],[1.09942271,49.39119083],[1.09940778,49.39133445]]]]},"bbox":[1.09928036,49.38470594,1.10451646,49.39534629]},{"type":"Feature","id":"fr-quartier-76575-62b77a03e7a2","properties":{"id":"fr-quartier-76575-62b77a03e7a2","kind":"quartier","name":"Castors-Aviateurs","cityCode":"76575","cityName":"Saint-Étienne-du-Rouvray","sourceType":"iris","sourceIds":["765750203"],"colorIndex":1,"center":[1.0825362207759668,49.39528847806379]},"geometry":{"type":"MultiPolygon","coordinates":[[[[1.08088188,49.39757304],[1.08087801,49.39749206],[1.08218445,49.39718281],[1.08971244,49.39805088],[1.08958984,49.3974933],[1.08880665,49.39372446],[1.08888652,49.39357647],[1.08898027,49.39357436],[1.08901232,49.39352721],[1.09330445,49.39408856],[1.09331507,49.39365266],[1.09197753,49.39361538],[1.09058086,49.39342701],[1.08940669,49.39318189],[1.08933122,49.39309978],[1.08946605,49.39269551],[1.08948581,49.39219951],[1.08699702,49.39204419],[1.08694312,49.391975],[1.0868583,49.39195928],[1.08678077,49.39196974],[1.08671626,49.39203795],[1.08322869,49.39188652],[1.08274879,49.3919014],[1.08192866,49.39198999],[1.08104161,49.39221149],[1.07964256,49.39271706],[1.07996375,49.39296942],[1.08058774,49.39296943],[1.08072954,49.39300854],[1.08211723,49.39451049],[1.08046132,49.39466225],[1.0800398,49.39418173],[1.07352486,49.39475337],[1.07410346,49.39770087],[1.07418304,49.39818856],[1.07417102,49.39847338],[1.07814663,49.39810954],[1.08076404,49.39751902],[1.08088188,49.39757304]]]]},"bbox":[1.07352486,49.39188652,1.09331507,49.39847338]},{"type":"Feature","id":"fr-quartier-76575-9cd7de5e1507","properties":{"id":"fr-quartier-76575-9cd7de5e1507","kind":"quartier","name":"Champ de Courses","cityCode":"76575","cityName":"Saint-Étienne-du-Rouvray","sourceType":"iris","sourceIds":["765750201"],"colorIndex":2,"center":[1.0704481853752223,49.4030104687203]},"geometry":{"type":"MultiPolygon","coordinates":[[[[1.06280658,49.39866774],[1.06521566,49.40201682],[1.06907283,49.40710173],[1.07107868,49.40990655],[1.07521255,49.40728588],[1.07467459,49.40663806],[1.0757808,49.40620072],[1.07504463,49.40248741],[1.07489464,49.40141329],[1.07477616,49.40122888],[1.07430907,49.39872373],[1.07417102,49.39847338],[1.07312052,49.39853038],[1.07146254,49.39854891],[1.06710146,49.39857281],[1.0630652,49.39860445],[1.06280658,49.39866774]]]]},"bbox":[1.06280658,49.39847338,1.0757808,49.40990655]},{"type":"Feature","id":"fr-quartier-76575-4df9966be26a","properties":{"id":"fr-quartier-76575-4df9966be26a","kind":"quartier","name":"Cité des Familles","cityCode":"76575","cityName":"Saint-Étienne-du-Rouvray","sourceType":"iris","sourceIds":["765750301"],"colorIndex":3,"center":[1.0949281419363355,49.394184884552885]},"geometry":{"type":"MultiPolygon","coordinates":[[[[1.08958984,49.3974933],[1.09980251,49.3988212],[1.09988269,49.39858959],[1.10070968,49.39502775],[1.10085364,49.39504619],[1.10109069,49.39280035],[1.10122808,49.39228642],[1.1013685,49.39202699],[1.10005449,49.39161434],[1.09940778,49.39133445],[1.09933725,49.3913792],[1.0991733,49.39138022],[1.09904503,49.391273],[1.09883228,49.39125258],[1.09538664,49.39030285],[1.09531536,49.39021901],[1.0951987,49.39024505],[1.09128823,49.38909367],[1.09025414,49.38956826],[1.09046241,49.38978374],[1.08952234,49.39021126],[1.08955673,49.39047254],[1.08990514,49.39080892],[1.08975179,49.39089551],[1.08968636,49.39102575],[1.08955199,49.39219786],[1.08948581,49.39219951],[1.08946605,49.39269551],[1.08933122,49.39309978],[1.08940669,49.39318189],[1.09058086,49.39342701],[1.09197753,49.39361538],[1.09331507,49.39365266],[1.09330445,49.39408856],[1.08901232,49.39352721],[1.08898027,49.39357436],[1.08888652,49.39357647],[1.08880665,49.39372446],[1.08958984,49.3974933]]]]},"bbox":[1.08880665,49.38909367,1.1013685,49.3988212]},{"type":"Feature","id":"fr-quartier-76575-3cfa63dc0369","properties":{"id":"fr-quartier-76575-3cfa63dc0369","kind":"quartier","name":"Étang","cityCode":"76575","cityName":"Saint-Étienne-du-Rouvray","sourceType":"iris","sourceIds":["765750702"],"colorIndex":4,"center":[1.108694471349397,49.368779716515604]},"geometry":{"type":"MultiPolygon","coordinates":[[[[1.11066175,49.36475935],[1.11026363,49.3640527],[1.10510281,49.36437922],[1.09866499,49.36476276],[1.09536247,49.36527902],[1.0942326,49.36519288],[1.09375555,49.3652492],[1.09220272,49.36517165],[1.09132912,49.36508053],[1.09108244,49.3665746],[1.09187716,49.36675168],[1.09311427,49.36691686],[1.09883265,49.3674592],[1.10202484,49.36769907],[1.10551902,49.36781412],[1.10578199,49.36785151],[1.10615943,49.36803365],[1.10641995,49.36806291],[1.10663111,49.36801137],[1.10692031,49.36785945],[1.10723939,49.36779342],[1.10826813,49.36774838],[1.10935534,49.37219088],[1.10967712,49.37445541],[1.10966083,49.37572561],[1.11352896,49.37613578],[1.11506297,49.37410162],[1.11541692,49.3735344],[1.11567973,49.37289922],[1.11576057,49.37245812],[1.11923342,49.37075171],[1.11947932,49.37050288],[1.11964265,49.37013948],[1.11993769,49.36918471],[1.12105396,49.36715386],[1.11881785,49.36727373],[1.11564263,49.36758573],[1.1136466,49.3676526],[1.11321435,49.36787693],[1.11299737,49.36850113],[1.11283815,49.36871354],[1.11223963,49.36840209],[1.11102206,49.36796408],[1.11086936,49.36773511],[1.11076669,49.36771912],[1.11108727,49.36603377],[1.11102232,49.36558948],[1.11066175,49.36475935]]]]},"bbox":[1.09108244,49.3640527,1.12105396,49.37613578]},{"type":"Feature","id":"fr-quartier-76575-53623e35885b","properties":{"id":"fr-quartier-76575-53623e35885b","kind":"quartier","name":"Forêt","cityCode":"76575","cityName":"Saint-Étienne-du-Rouvray","sourceType":"iris","sourceIds":["765750902"],"colorIndex":5,"center":[1.0774917823160521,49.37406414387904]},"geometry":{"type":"MultiPolygon","coordinates":[[[[1.09375555,49.3652492],[1.09378966,49.36492245],[1.09401518,49.36485497],[1.0944488,49.36243504],[1.09387357,49.36049283],[1.0929222,49.35844936],[1.09268082,49.35827651],[1.09206604,49.35740633],[1.09122632,49.35677536],[1.08557486,49.35854271],[1.065058,49.36501802],[1.05794068,49.36712747],[1.06358971,49.37500731],[1.05964757,49.38853712],[1.06010358,49.38853455],[1.06127134,49.38817474],[1.06154463,49.38804965],[1.06170333,49.38807827],[1.0618099,49.38802783],[1.06182583,49.38797054],[1.06216406,49.38791302],[1.06802379,49.38617257],[1.06822914,49.38605896],[1.06829357,49.38595659],[1.06887055,49.38592265],[1.06942485,49.38575887],[1.07062082,49.38534098],[1.07060294,49.3852301],[1.07078044,49.38512414],[1.07096639,49.38516038],[1.07105535,49.38524901],[1.07103238,49.38534755],[1.07089624,49.38541551],[1.07097212,49.38636889],[1.07118649,49.38781719],[1.07161812,49.38772967],[1.07444645,49.38675333],[1.07635196,49.38599693],[1.08042394,49.38468328],[1.08130376,49.38554062],[1.08181757,49.38594528],[1.08243784,49.38630218],[1.0837963,49.38688296],[1.08375187,49.38700364],[1.08385999,49.38709616],[1.08402343,49.38710864],[1.08416033,49.38705686],[1.08419368,49.38693781],[1.084125,49.3868585],[1.08443334,49.38667816],[1.08662399,49.38576787],[1.08695674,49.38556005],[1.08731202,49.3852276],[1.08749618,49.38516398],[1.08773248,49.38514254],[1.09524775,49.38556414],[1.09513116,49.38391153],[1.09509224,49.38019487],[1.09600768,49.38016703],[1.09787129,49.38019456],[1.10029169,49.38039715],[1.10049615,49.38037968],[1.10048914,49.38027078],[1.09788017,49.37883433],[1.09775455,49.37873075],[1.09768298,49.378655],[1.09750008,49.378163],[1.09735812,49.37760691],[1.09563294,49.3775249],[1.09239942,49.37570716],[1.09038222,49.37518349],[1.08875223,49.37435661],[1.08829482,49.37417765],[1.08758736,49.37409543],[1.08643131,49.37430192],[1.08597465,49.3742884],[1.0857122,49.37423659],[1.08502985,49.37403427],[1.08444809,49.37375621],[1.08268539,49.37331737],[1.07944017,49.37231278],[1.07794249,49.37023357],[1.08890325,49.3666058],[1.08952307,49.36652389],[1.09108244,49.3665746],[1.09132912,49.36508053],[1.09220272,49.36517165],[1.09375555,49.3652492]]]]},"bbox":[1.05794068,49.35677536,1.10049615,49.38853712]},{"type":"Feature","id":"fr-quartier-76575-dc1535a83a81","properties":{"id":"fr-quartier-76575-dc1535a83a81","kind":"quartier","name":"Hartmann","cityCode":"76575","cityName":"Saint-Étienne-du-Rouvray","sourceType":"iris","sourceIds":["765750802"],"colorIndex":6,"center":[1.103172187175851,49.374510736371434]},"geometry":{"type":"MultiPolygon","coordinates":[[[[1.09994996,49.37775017],[1.10132699,49.37782575],[1.10149377,49.37793356],[1.10161133,49.37788236],[1.10175708,49.37788824],[1.10203215,49.37748616],[1.10245197,49.37655587],[1.10250167,49.37629051],[1.10646533,49.37657383],[1.1071225,49.37431474],[1.10820639,49.37438385],[1.10800698,49.37381428],[1.10487331,49.37332014],[1.10294855,49.37297796],[1.10335685,49.37224708],[1.10458645,49.37093566],[1.10392591,49.37070142],[1.10213507,49.37061398],[1.10197038,49.37187107],[1.10115778,49.37180256],[1.10104448,49.37233666],[1.10054538,49.37332595],[1.10019981,49.37433383],[1.10016388,49.37545807],[1.09994996,49.37775017]]]]},"bbox":[1.09994996,49.37061398,1.10820639,49.37793356]},{"type":"Feature","id":"fr-quartier-76575-73f4a595d6f8","properties":{"id":"fr-quartier-76575-73f4a595d6f8","kind":"quartier","name":"Houssière","cityCode":"76575","cityName":"Saint-Étienne-du-Rouvray","sourceType":"iris","sourceIds":["765750801"],"colorIndex":7,"center":[1.092883221903598,49.37151640915166]},"geometry":{"type":"MultiPolygon","coordinates":[[[[1.10615943,49.36803365],[1.10578199,49.36785151],[1.10551902,49.36781412],[1.10202484,49.36769907],[1.09883265,49.3674592],[1.09311427,49.36691686],[1.09187716,49.36675168],[1.09108244,49.3665746],[1.08952307,49.36652389],[1.08890325,49.3666058],[1.07794249,49.37023357],[1.07944017,49.37231278],[1.08268539,49.37331737],[1.08444809,49.37375621],[1.08502985,49.37403427],[1.0857122,49.37423659],[1.08597465,49.3742884],[1.08643131,49.37430192],[1.08758736,49.37409543],[1.08829482,49.37417765],[1.08875223,49.37435661],[1.09038222,49.37518349],[1.09239942,49.37570716],[1.09563294,49.3775249],[1.09735812,49.37760691],[1.09750008,49.378163],[1.09768298,49.378655],[1.09775455,49.37873075],[1.09788017,49.37883433],[1.10048914,49.38027078],[1.10060246,49.38018534],[1.1007648,49.38018969],[1.10104549,49.37952336],[1.10023917,49.37842186],[1.09994996,49.37775017],[1.10016388,49.37545807],[1.10019981,49.37433383],[1.10054538,49.37332595],[1.10104448,49.37233666],[1.10115778,49.37180256],[1.10197038,49.37187107],[1.10213507,49.37061398],[1.10392591,49.37070142],[1.10458645,49.37093566],[1.10551421,49.36996836],[1.10598622,49.36930051],[1.10624695,49.3685745],[1.10623533,49.3681787],[1.10615943,49.36803365]]]]},"bbox":[1.07794249,49.36652389,1.10624695,49.38027078]},{"type":"Feature","id":"fr-quartier-76575-25df8f46785f","properties":{"id":"fr-quartier-76575-25df8f46785f","kind":"quartier","name":"Joliot-Curie","cityCode":"76575","cityName":"Saint-Étienne-du-Rouvray","sourceType":"iris","sourceIds":["765750202"],"colorIndex":8,"center":[1.077698663320239,49.401388274639686]},"geometry":{"type":"MultiPolygon","coordinates":[[[[1.0757808,49.40620072],[1.07926013,49.40475092],[1.08099389,49.40089071],[1.08088188,49.39757304],[1.08076404,49.39751902],[1.07814663,49.39810954],[1.07417102,49.39847338],[1.07430907,49.39872373],[1.07477616,49.40122888],[1.07489464,49.40141329],[1.07504463,49.40248741],[1.0757808,49.40620072]]]]},"bbox":[1.07417102,49.39751902,1.08099389,49.40620072]},{"type":"Feature","id":"fr-quartier-76575-c1b33788392f","properties":{"id":"fr-quartier-76575-c1b33788392f","kind":"quartier","name":"Langevin-Barbusse","cityCode":"76575","cityName":"Saint-Étienne-du-Rouvray","sourceType":"iris","sourceIds":["765750601"],"colorIndex":9,"center":[1.0963263104747876,49.38485972694347]},"geometry":{"type":"MultiPolygon","coordinates":[[[[1.10175708,49.37788824],[1.10161133,49.37788236],[1.10149377,49.37793356],[1.10132699,49.37782575],[1.09994996,49.37775017],[1.10023917,49.37842186],[1.10104549,49.37952336],[1.1007648,49.38018969],[1.10060246,49.38018534],[1.10048914,49.38027078],[1.10049615,49.38037968],[1.10029169,49.38039715],[1.09787129,49.38019456],[1.09600768,49.38016703],[1.09509224,49.38019487],[1.09513116,49.38391153],[1.09524775,49.38556414],[1.08773248,49.38514254],[1.08749618,49.38516398],[1.08731202,49.3852276],[1.08695674,49.38556005],[1.08662399,49.38576787],[1.08443334,49.38667816],[1.084125,49.3868585],[1.08419368,49.38693781],[1.08416033,49.38705686],[1.08490159,49.38738329],[1.08620672,49.38784362],[1.08982079,49.38866231],[1.09128823,49.38909367],[1.0951987,49.39024505],[1.09531536,49.39021901],[1.09538664,49.39030285],[1.09883228,49.39125258],[1.09904503,49.391273],[1.0991733,49.39138022],[1.09933725,49.3913792],[1.09940778,49.39133445],[1.09942271,49.39119083],[1.09928036,49.39112925],[1.09955917,49.38539911],[1.099677,49.38470594],[1.0998531,49.38392648],[1.10025809,49.38142071],[1.10033604,49.38121155],[1.1051679,49.38171354],[1.10528146,49.38147166],[1.10569377,49.37950815],[1.10673071,49.37958374],[1.10683256,49.37819799],[1.1022162,49.37787297],[1.10201356,49.37787878],[1.10186709,49.37796729],[1.10175708,49.37788824]]]]},"bbox":[1.084125,49.37775017,1.10683256,49.39138022]},{"type":"Feature","id":"fr-quartier-76575-5edcf1603ad1","properties":{"id":"fr-quartier-76575-5edcf1603ad1","kind":"quartier","name":"Macé","cityCode":"76575","cityName":"Saint-Étienne-du-Rouvray","sourceType":"iris","sourceIds":["765750107"],"colorIndex":10,"center":[1.0646284535227974,49.396919296516565]},"geometry":{"type":"MultiPolygon","coordinates":[[[[1.06148857,49.39682683],[1.06280658,49.39866774],[1.0630652,49.39860445],[1.06710146,49.39857281],[1.06705013,49.39803163],[1.06687852,49.39786884],[1.06676234,49.39762423],[1.06667494,49.3973468],[1.06670837,49.39700657],[1.06656335,49.39690625],[1.06695943,49.39615283],[1.06703577,49.395807],[1.06701092,49.39562498],[1.0665932,49.39493588],[1.06628239,49.39499564],[1.06592701,49.39492163],[1.0654954,49.39489674],[1.06492798,49.39500365],[1.06470574,49.39508911],[1.06415053,49.39538413],[1.06391319,49.39528502],[1.06350336,49.39545019],[1.06309894,49.3957647],[1.0629855,49.39596069],[1.06264452,49.39605323],[1.06148857,49.39682683]]]]},"bbox":[1.06148857,49.39489674,1.06710146,49.39866774]},{"type":"Feature","id":"fr-quartier-76575-b8fb008980d2","properties":{"id":"fr-quartier-76575-b8fb008980d2","kind":"quartier","name":"Parc Fleury","cityCode":"76575","cityName":"Saint-Étienne-du-Rouvray","sourceType":"iris","sourceIds":["765750402"],"colorIndex":11,"center":[1.1052281950930205,49.38539675169756]},"geometry":{"type":"MultiPolygon","coordinates":[[[[1.10339936,49.39279882],[1.10358573,49.39271273],[1.10492616,49.39278319],[1.1054057,49.3928905],[1.10670077,49.39295843],[1.10898821,49.38103607],[1.10925095,49.38108154],[1.1092802,49.38039687],[1.10960745,49.37842033],[1.10913686,49.37841028],[1.10912639,49.37850812],[1.10871177,49.37892422],[1.10786636,49.37963388],[1.10768507,49.37965802],[1.10672651,49.37962323],[1.10673071,49.37958374],[1.10569377,49.37950815],[1.10528146,49.38147166],[1.1051679,49.38171354],[1.10033604,49.38121155],[1.10025809,49.38142071],[1.0998531,49.38392648],[1.099677,49.38470594],[1.10451646,49.38519728],[1.10436673,49.3859358],[1.10434259,49.38662954],[1.10405975,49.38840265],[1.10316671,49.39170995],[1.10225559,49.3916525],[1.10190572,49.39176479],[1.10162762,49.39179819],[1.10157956,49.39209324],[1.10320565,49.39259797],[1.10322493,49.39274753],[1.10339936,49.39279882]]]]},"bbox":[1.099677,49.37841028,1.10960745,49.39295843]},{"type":"Feature","id":"fr-quartier-76575-8a1cdea621d8","properties":{"id":"fr-quartier-76575-8a1cdea621d8","kind":"quartier","name":"R.M.M. Nord","cityCode":"76575","cityName":"Saint-Étienne-du-Rouvray","sourceType":"iris","sourceIds":["765750501"],"colorIndex":12,"center":[1.1135379006497224,49.38665164961666]},"geometry":{"type":"MultiPolygon","coordinates":[[[[1.1228489,49.37056694],[1.12286865,49.36779345],[1.12339816,49.36584158],[1.12381276,49.36496598],[1.12259875,49.36465671],[1.12110247,49.36465145],[1.12109657,49.36443556],[1.11356362,49.36465272],[1.11355259,49.36454015],[1.11066175,49.36475935],[1.11102232,49.36558948],[1.11108727,49.36603377],[1.11076669,49.36771912],[1.11086936,49.36773511],[1.11102206,49.36796408],[1.11223963,49.36840209],[1.11283815,49.36871354],[1.11299737,49.36850113],[1.11321435,49.36787693],[1.1136466,49.3676526],[1.11564263,49.36758573],[1.11881785,49.36727373],[1.12105396,49.36715386],[1.11993769,49.36918471],[1.11964265,49.37013948],[1.11947932,49.37050288],[1.11923342,49.37075171],[1.11944694,49.37274928],[1.11923298,49.37468895],[1.11885088,49.37617914],[1.1176008,49.37945314],[1.11741463,49.38021449],[1.11728698,49.38103249],[1.11730285,49.38199299],[1.11144608,49.38179647],[1.11114409,49.38165688],[1.10991243,49.38121955],[1.10925095,49.38108154],[1.10898821,49.38103607],[1.10670077,49.39295843],[1.1054057,49.3928905],[1.10492616,49.39278319],[1.10358573,49.39271273],[1.10339936,49.39279882],[1.10318989,49.39534629],[1.10085364,49.39504619],[1.10070968,49.39502775],[1.09988269,49.39858959],[1.1031282,49.3989678],[1.10313448,49.39932124],[1.11294224,49.39972369],[1.11334864,49.39994941],[1.11433209,49.400105],[1.11500545,49.40003817],[1.11559491,49.40008062],[1.11565865,49.3999953],[1.11614141,49.39994168],[1.11619593,49.40025901],[1.11782004,49.40030048],[1.11845248,49.3875467],[1.12232175,49.38764909],[1.12237177,49.38525555],[1.12145612,49.38226438],[1.11911942,49.37870713],[1.11946807,49.37741693],[1.12059121,49.37425871],[1.12127849,49.37300703],[1.1228489,49.37056694]]]]},"bbox":[1.09988269,49.36443556,1.12381276,49.40030048]},{"type":"Feature","id":"fr-quartier-76575-db680b13f6fe","properties":{"id":"fr-quartier-76575-db680b13f6fe","kind":"quartier","name":"R.M.M. Sud","cityCode":"76575","cityName":"Saint-Étienne-du-Rouvray","sourceType":"iris","sourceIds":["765750701"],"colorIndex":13,"center":[1.1155207957716284,49.377367530740834]},"geometry":{"type":"MultiPolygon","coordinates":[[[[1.10991243,49.38121955],[1.11114409,49.38165688],[1.11144608,49.38179647],[1.11730285,49.38199299],[1.11728698,49.38103249],[1.11741463,49.38021449],[1.1176008,49.37945314],[1.11885088,49.37617914],[1.11923298,49.37468895],[1.11944694,49.37274928],[1.11923342,49.37075171],[1.11576057,49.37245812],[1.11567973,49.37289922],[1.11541692,49.3735344],[1.11506297,49.37410162],[1.11352896,49.37613578],[1.11024568,49.38050637],[1.11001031,49.38091628],[1.10991243,49.38121955]]]]},"bbox":[1.10991243,49.37075171,1.11944694,49.38199299]},{"type":"Feature","id":"fr-quartier-76575-40a71579908d","properties":{"id":"fr-quartier-76575-40a71579908d","kind":"quartier","name":"Robespierre","cityCode":"76575","cityName":"Saint-Étienne-du-Rouvray","sourceType":"iris","sourceIds":["765750105"],"colorIndex":14,"center":[1.0689518199795438,49.39742686146868]},"geometry":{"type":"MultiPolygon","coordinates":[[[[1.07146254,49.39854891],[1.07135274,49.39794926],[1.07145227,49.39790319],[1.07125007,49.39712224],[1.07094908,49.39680904],[1.06989856,49.39624203],[1.06971769,49.39640008],[1.06964016,49.39641053],[1.06900811,49.39625659],[1.06838308,49.39620974],[1.06812617,49.39611753],[1.06714073,49.39609369],[1.06695943,49.39615283],[1.06656335,49.39690625],[1.06670837,49.39700657],[1.06667494,49.3973468],[1.06676234,49.39762423],[1.06687852,49.39786884],[1.06705013,49.39803163],[1.06710146,49.39857281],[1.07146254,49.39854891]]]]},"bbox":[1.06656335,49.39609369,1.07146254,49.39857281]},{"type":"Feature","id":"fr-quartier-76575-291c12e90284","properties":{"id":"fr-quartier-76575-291c12e90284","kind":"quartier","name":"Ruelle Danseuse","cityCode":"76575","cityName":"Saint-Étienne-du-Rouvray","sourceType":"iris","sourceIds":["765750602"],"colorIndex":15,"center":[1.107684753370293,49.374744550182754]},"geometry":{"type":"MultiPolygon","coordinates":[[[[1.10925095,49.38108154],[1.10991243,49.38121955],[1.11001031,49.38091628],[1.11024568,49.38050637],[1.11352896,49.37613578],[1.10966083,49.37572561],[1.10967712,49.37445541],[1.10935534,49.37219088],[1.10826813,49.36774838],[1.10723939,49.36779342],[1.10692031,49.36785945],[1.10663111,49.36801137],[1.10641995,49.36806291],[1.10615943,49.36803365],[1.10623533,49.3681787],[1.10624695,49.3685745],[1.10598622,49.36930051],[1.10551421,49.36996836],[1.10458645,49.37093566],[1.10335685,49.37224708],[1.10294855,49.37297796],[1.10487331,49.37332014],[1.10800698,49.37381428],[1.10820639,49.37438385],[1.1071225,49.37431474],[1.10646533,49.37657383],[1.10250167,49.37629051],[1.10245197,49.37655587],[1.10203215,49.37748616],[1.10175708,49.37788824],[1.10186709,49.37796729],[1.10201356,49.37787878],[1.1022162,49.37787297],[1.10683256,49.37819799],[1.10673071,49.37958374],[1.10672651,49.37962323],[1.10768507,49.37965802],[1.10786636,49.37963388],[1.10871177,49.37892422],[1.10912639,49.37850812],[1.10913686,49.37841028],[1.10960745,49.37842033],[1.1092802,49.38039687],[1.10925095,49.38108154]]]]},"bbox":[1.10175708,49.36774838,1.11352896,49.38121955]},{"type":"Feature","id":"fr-quartier-76575-5c1cb03605f2","properties":{"id":"fr-quartier-76575-5c1cb03605f2","kind":"quartier","name":"Saint-Just","cityCode":"76575","cityName":"Saint-Étienne-du-Rouvray","sourceType":"iris","sourceIds":["765750106"],"colorIndex":16,"center":[1.069363525939437,49.39357885906582]},"geometry":{"type":"MultiPolygon","coordinates":[[[[1.06695943,49.39615283],[1.06714073,49.39609369],[1.06812617,49.39611753],[1.06838308,49.39620974],[1.06900811,49.39625659],[1.06964016,49.39641053],[1.06971769,49.39640008],[1.06989856,49.39624203],[1.06973411,49.39610903],[1.06957453,49.39588261],[1.0692305,49.39465972],[1.06936202,49.39434803],[1.07026787,49.39370074],[1.07047323,49.39373458],[1.07101957,49.39367496],[1.07143573,49.39370767],[1.07201712,49.39385271],[1.07246701,49.39412512],[1.07266068,49.39436107],[1.07287885,49.39482579],[1.07352486,49.39475337],[1.07296094,49.3918942],[1.07286028,49.39160218],[1.07278175,49.391529],[1.07256579,49.39144733],[1.0721411,49.39134886],[1.07185373,49.39122469],[1.07146004,49.39136497],[1.06831132,49.39165639],[1.06828392,49.39172608],[1.06817362,49.39176568],[1.06825533,49.39212123],[1.068207,49.39227151],[1.06809111,49.39234968],[1.06743228,49.39258102],[1.06700219,49.39280972],[1.06666091,49.39305781],[1.06605594,49.39357862],[1.06588237,49.39379882],[1.06575337,49.39382283],[1.06576964,49.39390311],[1.06551335,49.39405186],[1.06446616,49.39493962],[1.06470574,49.39508911],[1.06492798,49.39500365],[1.0654954,49.39489674],[1.06592701,49.39492163],[1.06628239,49.39499564],[1.0665932,49.39493588],[1.06701092,49.39562498],[1.06703577,49.395807],[1.06695943,49.39615283]]]]},"bbox":[1.06446616,49.39122469,1.07352486,49.39641053]},{"type":"Feature","id":"fr-quartier-76575-e8c643b003d6","properties":{"id":"fr-quartier-76575-e8c643b003d6","kind":"quartier","name":"Technopole","cityCode":"76575","cityName":"Saint-Étienne-du-Rouvray","sourceType":"iris","sourceIds":["765750903"],"colorIndex":17,"center":[1.0735018403992067,49.39021248185782]},"geometry":{"type":"MultiPolygon","coordinates":[[[[1.05964757,49.38853712],[1.05844773,49.39245331],[1.06120076,49.39642121],[1.06148857,49.39682683],[1.06264452,49.39605323],[1.0629855,49.39596069],[1.06309894,49.3957647],[1.06350336,49.39545019],[1.06391319,49.39528502],[1.06415053,49.39538413],[1.06470574,49.39508911],[1.06446616,49.39493962],[1.06551335,49.39405186],[1.06576964,49.39390311],[1.06575337,49.39382283],[1.06588237,49.39379882],[1.06605594,49.39357862],[1.06666091,49.39305781],[1.06700219,49.39280972],[1.06743228,49.39258102],[1.06809111,49.39234968],[1.068207,49.39227151],[1.06825533,49.39212123],[1.06817362,49.39176568],[1.06828392,49.39172608],[1.06831132,49.39165639],[1.07146004,49.39136497],[1.07185373,49.39122469],[1.0721411,49.39134886],[1.07256579,49.39144733],[1.07278175,49.391529],[1.07286028,49.39160218],[1.07296094,49.3918942],[1.07352486,49.39475337],[1.0800398,49.39418173],[1.08046132,49.39466225],[1.08211723,49.39451049],[1.08072954,49.39300854],[1.08058774,49.39296943],[1.07996375,49.39296942],[1.07964256,49.39271706],[1.08104161,49.39221149],[1.08192866,49.39198999],[1.08274879,49.3919014],[1.08322869,49.39188652],[1.08671626,49.39203795],[1.08678077,49.39196974],[1.0868583,49.39195928],[1.08694312,49.391975],[1.08699702,49.39204419],[1.08948581,49.39219951],[1.08955199,49.39219786],[1.08968636,49.39102575],[1.08975179,49.39089551],[1.08990514,49.39080892],[1.08955673,49.39047254],[1.08952234,49.39021126],[1.09046241,49.38978374],[1.09025414,49.38956826],[1.09128823,49.38909367],[1.08982079,49.38866231],[1.08620672,49.38784362],[1.08490159,49.38738329],[1.08416033,49.38705686],[1.08402343,49.38710864],[1.08385999,49.38709616],[1.08375187,49.38700364],[1.0837963,49.38688296],[1.08243784,49.38630218],[1.08181757,49.38594528],[1.08130376,49.38554062],[1.08042394,49.38468328],[1.07635196,49.38599693],[1.07444645,49.38675333],[1.07161812,49.38772967],[1.07118649,49.38781719],[1.07097212,49.38636889],[1.07089624,49.38541551],[1.07103238,49.38534755],[1.07105535,49.38524901],[1.07096639,49.38516038],[1.07078044,49.38512414],[1.07060294,49.3852301],[1.07062082,49.38534098],[1.06942485,49.38575887],[1.06887055,49.38592265],[1.06829357,49.38595659],[1.06822914,49.38605896],[1.06802379,49.38617257],[1.06216406,49.38791302],[1.06182583,49.38797054],[1.0618099,49.38802783],[1.06170333,49.38807827],[1.06154463,49.38804965],[1.06127134,49.38817474],[1.06010358,49.38853455],[1.05964757,49.38853712]]]]},"bbox":[1.05844773,49.38468328,1.09128823,49.39682683]},{"type":"Feature","id":"fr-quartier-76575-5edc1cd1f212","properties":{"id":"fr-quartier-76575-5edc1cd1f212","kind":"quartier","name":"Wallon","cityCode":"76575","cityName":"Saint-Étienne-du-Rouvray","sourceType":"iris","sourceIds":["765750102"],"colorIndex":18,"center":[1.0718739174982086,49.39604355347253]},"geometry":{"type":"MultiPolygon","coordinates":[[[[1.06989856,49.39624203],[1.07094908,49.39680904],[1.07125007,49.39712224],[1.07145227,49.39790319],[1.07135274,49.39794926],[1.07146254,49.39854891],[1.07312052,49.39853038],[1.07417102,49.39847338],[1.07418304,49.39818856],[1.07410346,49.39770087],[1.07352486,49.39475337],[1.07287885,49.39482579],[1.07266068,49.39436107],[1.07246701,49.39412512],[1.07201712,49.39385271],[1.07143573,49.39370767],[1.07101957,49.39367496],[1.07047323,49.39373458],[1.07026787,49.39370074],[1.06936202,49.39434803],[1.0692305,49.39465972],[1.06957453,49.39588261],[1.06973411,49.39610903],[1.06989856,49.39624203]]]]},"bbox":[1.0692305,49.39367496,1.07418304,49.39854891]}]}