{"type":"FeatureCollection","metadata":{"sourceType":"iris","referenceFile":"moissy-cramayel-quartiers.geojson","source":"IGN / INSEE - Contours IRIS WFS Géoplateforme","sourceUrl":"https://geoservices.ign.fr/contoursiris","license":"Licence Ouverte / Open Licence 2.0","sourceYear":"2026"},"features":[{"type":"Feature","id":"fr-quartier-77296-19bd2b308676","properties":{"id":"fr-quartier-77296-19bd2b308676","kind":"quartier","name":"Centre-Les Grès","cityCode":"77296","cityName":"Moissy-Cramayel","sourceType":"iris","sourceIds":["772960102"],"colorIndex":0,"center":[2.6005531248409453,48.6269700012454]},"geometry":{"type":"MultiPolygon","coordinates":[[[[2.58612765,48.62738485],[2.59294767,48.62737687],[2.59306534,48.62742584],[2.59318512,48.62737948],[2.59436859,48.62752474],[2.59433382,48.62763436],[2.59456072,48.62812267],[2.59459296,48.62816415],[2.59481385,48.62820269],[2.59653492,48.62814466],[2.59658666,48.62812145],[2.5965906,48.62778595],[2.60016421,48.62821717],[2.60031168,48.63005176],[2.60030089,48.63057704],[2.60044183,48.6306018],[2.60246078,48.63064003],[2.60379393,48.63056622],[2.60506785,48.63042833],[2.60529354,48.63037151],[2.60633335,48.62996567],[2.60757845,48.62986813],[2.60771313,48.6298236],[2.60800234,48.62961947],[2.60818313,48.62957778],[2.60857535,48.62957098],[2.60906049,48.62947812],[2.60925653,48.62939331],[2.60931129,48.62932963],[2.61777687,48.63034655],[2.61803201,48.63034287],[2.61819294,48.63023275],[2.6161942,48.62965964],[2.61457946,48.62909673],[2.61277068,48.62835236],[2.61167825,48.6278154],[2.61040392,48.62710692],[2.6093437,48.62644141],[2.60683139,48.62454327],[2.60574472,48.62379938],[2.60553575,48.62398219],[2.60295709,48.62442607],[2.6013051,48.62540822],[2.60069565,48.62561307],[2.60012896,48.62466128],[2.59908748,48.62352079],[2.59891756,48.6235625],[2.59824509,48.62402528],[2.59775238,48.62422421],[2.59707245,48.62441891],[2.59533588,48.62474314],[2.59530965,48.62480152],[2.59523082,48.62481834],[2.5951404,48.62475597],[2.59226303,48.62433687],[2.5907641,48.62428676],[2.59045914,48.62424433],[2.58987881,48.62401926],[2.58938631,48.62366855],[2.58745282,48.62401268],[2.58717374,48.62412955],[2.58704933,48.62424875],[2.58696503,48.62444275],[2.58670511,48.62557074],[2.58657225,48.62555589],[2.58612765,48.62738485]]]]},"bbox":[2.58612765,48.62352079,2.61819294,48.63064003]},{"type":"Feature","id":"fr-quartier-77296-faccdb9f1b1b","properties":{"id":"fr-quartier-77296-faccdb9f1b1b","kind":"quartier","name":"Champs","cityCode":"77296","cityName":"Moissy-Cramayel","sourceType":"iris","sourceIds":["772960105"],"colorIndex":1,"center":[2.571757287568607,48.622364775]},"geometry":{"type":"MultiPolygon","coordinates":[[[[2.58627896,48.60240479],[2.58237755,48.60572662],[2.58119077,48.60673802],[2.58030059,48.60763261],[2.5796988,48.60808205],[2.57824075,48.61008733],[2.57789024,48.61032267],[2.57671738,48.61076287],[2.57615978,48.6111081],[2.56199089,48.62328041],[2.56946103,48.62401017],[2.56985475,48.62431203],[2.56988922,48.6244102],[2.56960433,48.62456838],[2.57044128,48.62542415],[2.57046756,48.62652075],[2.56954391,48.6289461],[2.56964413,48.62930086],[2.57048603,48.63071883],[2.57050755,48.63140434],[2.57063118,48.6315523],[2.57103405,48.63157354],[2.57131243,48.63304164],[2.57271961,48.63305659],[2.57292816,48.63543834],[2.57408481,48.6353939],[2.57399613,48.63611859],[2.57318661,48.63603204],[2.57208536,48.63643556],[2.57105263,48.63659196],[2.57161549,48.63796393],[2.57264018,48.63945989],[2.57272025,48.63962658],[2.57262204,48.6396865],[2.57295952,48.6402436],[2.57463784,48.64232476],[2.57518121,48.64210272],[2.57569321,48.64206676],[2.57583916,48.64197913],[2.57584893,48.64177768],[2.57590943,48.64168165],[2.5766121,48.64106259],[2.57697689,48.64059884],[2.57720846,48.64015891],[2.57734912,48.63971685],[2.57740828,48.63894529],[2.57697322,48.6368551],[2.57667871,48.63601661],[2.57644016,48.63564247],[2.57623563,48.63542496],[2.57597693,48.63519467],[2.57545864,48.63484291],[2.57419232,48.63419075],[2.57348367,48.63371957],[2.57320202,48.63331019],[2.57315162,48.63316698],[2.57317117,48.63293318],[2.57293498,48.63277312],[2.57280157,48.632492],[2.57275205,48.62924909],[2.5727341,48.62912039],[2.57262481,48.62904354],[2.57260113,48.62895261],[2.57265215,48.62885294],[2.57283771,48.62872948],[2.57301158,48.62820838],[2.57337037,48.62747387],[2.57333193,48.62736309],[2.5734779,48.62726737],[2.57358463,48.62715801],[2.57372279,48.62718819],[2.57412472,48.6264871],[2.57433653,48.62630346],[2.57455717,48.6262026],[2.57547998,48.6260215],[2.57639023,48.6257153],[2.57720056,48.62534579],[2.57795211,48.62486181],[2.57843305,48.62444884],[2.58189162,48.62088906],[2.58257009,48.62036792],[2.5832665,48.61997817],[2.58373896,48.61976843],[2.58437975,48.61954579],[2.58500784,48.61938427],[2.58592356,48.61922195],[2.58714663,48.61913804],[2.58941548,48.61908472],[2.59268398,48.61906356],[2.59375128,48.61912027],[2.5947445,48.61928287],[2.595699,48.61954068],[2.59840467,48.62037919],[2.60042225,48.6210795],[2.60132277,48.6214846],[2.60149244,48.62165338],[2.60157621,48.62187764],[2.60169764,48.6219671],[2.60199692,48.62204276],[2.60238805,48.62199279],[2.6027036,48.6220694],[2.60450497,48.62302798],[2.60574472,48.62379938],[2.60683139,48.62454327],[2.6093437,48.62644141],[2.61040392,48.62710692],[2.61167825,48.6278154],[2.61277068,48.62835236],[2.61457946,48.62909673],[2.6161942,48.62965964],[2.61819294,48.63023275],[2.62498275,48.63164945],[2.62580628,48.63186612],[2.62614816,48.63206959],[2.62642232,48.63206505],[2.62662408,48.63193615],[2.62687144,48.63188296],[2.62745935,48.63183982],[2.62940769,48.63189447],[2.62952181,48.6255488],[2.62932972,48.62508225],[2.62866328,48.62377499],[2.62836511,48.62391798],[2.62735474,48.62518493],[2.6266507,48.62382896],[2.62573404,48.62166276],[2.62240698,48.62206963],[2.6224778,48.62240987],[2.62032917,48.62252178],[2.62017465,48.6217513],[2.61893972,48.62178694],[2.61767201,48.62240804],[2.61764372,48.62182326],[2.61821797,48.62103443],[2.61830703,48.62054268],[2.61819032,48.61961581],[2.61792377,48.6187739],[2.61794291,48.61819558],[2.61581453,48.61797285],[2.61585353,48.61765005],[2.61337342,48.61784801],[2.60974662,48.61789825],[2.60965943,48.61740053],[2.60783325,48.61723261],[2.60751044,48.61722256],[2.60612168,48.61752021],[2.6044059,48.61746505],[2.60384737,48.61741012],[2.60383828,48.61735522],[2.60128214,48.61737727],[2.60124612,48.61729799],[2.59913091,48.61731788],[2.59728649,48.6172325],[2.5962225,48.61727927],[2.59640069,48.61510753],[2.59365126,48.61522682],[2.59397443,48.61221452],[2.59429607,48.61219673],[2.59430057,48.61196557],[2.59569616,48.6120027],[2.59584373,48.61045872],[2.59380499,48.61044998],[2.59383337,48.60748974],[2.58974314,48.60774378],[2.58997421,48.60577731],[2.58857369,48.60552601],[2.58853284,48.60381946],[2.58627896,48.60240479]]]]},"bbox":[2.56199089,48.60240479,2.62952181,48.64232476]},{"type":"Feature","id":"fr-quartier-77296-0057052aa73e","properties":{"id":"fr-quartier-77296-0057052aa73e","kind":"quartier","name":"Les Hauldres Est","cityCode":"77296","cityName":"Moissy-Cramayel","sourceType":"iris","sourceIds":["772960107"],"colorIndex":2,"center":[2.6006331359036556,48.63735043313647]},"geometry":{"type":"MultiPolygon","coordinates":[[[[2.57463784,48.64232476],[2.57475893,48.64245652],[2.57406302,48.64274097],[2.57353218,48.64308898],[2.57282412,48.64386181],[2.57425082,48.64668505],[2.59422155,48.64614217],[2.59181026,48.64255393],[2.60851885,48.64311282],[2.60759672,48.64607453],[2.6151499,48.6469285],[2.61938886,48.64100183],[2.62908525,48.63832852],[2.62935974,48.63751532],[2.62940769,48.63189447],[2.62745935,48.63183982],[2.62687144,48.63188296],[2.62662408,48.63193615],[2.62642232,48.63206505],[2.62614816,48.63206959],[2.62580628,48.63186612],[2.62498275,48.63164945],[2.61819294,48.63023275],[2.61803201,48.63034287],[2.61777687,48.63034655],[2.60931129,48.62932963],[2.60925653,48.62939331],[2.60906049,48.62947812],[2.60857535,48.62957098],[2.60818313,48.62957778],[2.60800234,48.62961947],[2.60771313,48.6298236],[2.60757845,48.62986813],[2.60633335,48.62996567],[2.60529354,48.63037151],[2.60506785,48.63042833],[2.60379393,48.63056622],[2.60246078,48.63064003],[2.60044183,48.6306018],[2.60030089,48.63057704],[2.60031168,48.63005176],[2.60016421,48.62821717],[2.5965906,48.62778595],[2.59658666,48.62812145],[2.59653492,48.62814466],[2.59481385,48.62820269],[2.59459296,48.62816415],[2.59456072,48.62812267],[2.59433382,48.62763436],[2.59436859,48.62752474],[2.59318512,48.62737948],[2.59306534,48.62742584],[2.59294767,48.62737687],[2.58612765,48.62738485],[2.58567881,48.63043263],[2.58564516,48.63108376],[2.58573829,48.63114705],[2.58589713,48.6311386],[2.5882782,48.63068721],[2.58795153,48.63098561],[2.58733826,48.63217624],[2.58720851,48.63210923],[2.58646783,48.63190337],[2.58500805,48.63219333],[2.58493927,48.63213912],[2.58432709,48.63215858],[2.58367523,48.63238837],[2.58069663,48.63372359],[2.57704269,48.63497628],[2.57652825,48.63532256],[2.57623563,48.63542496],[2.57644016,48.63564247],[2.57667871,48.63601661],[2.57697322,48.6368551],[2.57740828,48.63894529],[2.57734912,48.63971685],[2.57720846,48.64015891],[2.57697689,48.64059884],[2.5766121,48.64106259],[2.57590943,48.64168165],[2.57584893,48.64177768],[2.57583916,48.64197913],[2.57569321,48.64206676],[2.57518121,48.64210272],[2.57463784,48.64232476]]]]},"bbox":[2.57282412,48.62737687,2.62940769,48.6469285]},{"type":"Feature","id":"fr-quartier-77296-140254e5252e","properties":{"id":"fr-quartier-77296-140254e5252e","kind":"quartier","name":"Les Hauldres Ouest","cityCode":"77296","cityName":"Moissy-Cramayel","sourceType":"iris","sourceIds":["772960106"],"colorIndex":3,"center":[2.5790826013217476,48.630656681564176]},"geometry":{"type":"MultiPolygon","coordinates":[[[[2.5734779,48.62726737],[2.57333193,48.62736309],[2.57337037,48.62747387],[2.57301158,48.62820838],[2.57283771,48.62872948],[2.57265215,48.62885294],[2.57260113,48.62895261],[2.57262481,48.62904354],[2.5727341,48.62912039],[2.57275205,48.62924909],[2.57280157,48.632492],[2.57293498,48.63277312],[2.57317117,48.63293318],[2.57315162,48.63316698],[2.57320202,48.63331019],[2.57348367,48.63371957],[2.57419232,48.63419075],[2.57545864,48.63484291],[2.57597693,48.63519467],[2.57623563,48.63542496],[2.57652825,48.63532256],[2.57704269,48.63497628],[2.58069663,48.63372359],[2.58367523,48.63238837],[2.58432709,48.63215858],[2.58493927,48.63213912],[2.58500805,48.63219333],[2.58646783,48.63190337],[2.58720851,48.63210923],[2.58733826,48.63217624],[2.58795153,48.63098561],[2.5882782,48.63068721],[2.58589713,48.6311386],[2.58573829,48.63114705],[2.58564516,48.63108376],[2.58567881,48.63043263],[2.58612765,48.62738485],[2.5848304,48.62738843],[2.58470062,48.62732681],[2.58461056,48.62739036],[2.57891826,48.62738387],[2.57888335,48.62733787],[2.57878851,48.62731955],[2.57868759,48.62738305],[2.57479586,48.62738811],[2.57389764,48.62737861],[2.57372545,48.6273618],[2.57360139,48.62726601],[2.5734779,48.62726737]]]]},"bbox":[2.57260113,48.62726601,2.5882782,48.63542496]},{"type":"Feature","id":"fr-quartier-77296-6baa7803d38b","properties":{"id":"fr-quartier-77296-6baa7803d38b","kind":"quartier","name":"Lugny","cityCode":"77296","cityName":"Moissy-Cramayel","sourceType":"iris","sourceIds":["772960101"],"colorIndex":4,"center":[2.581131466997199,48.62511204659297]},"geometry":{"type":"MultiPolygon","coordinates":[[[[2.5734779,48.62726737],[2.57360139,48.62726601],[2.57372545,48.6273618],[2.57389764,48.62737861],[2.57479586,48.62738811],[2.57868759,48.62738305],[2.57878851,48.62731955],[2.57888335,48.62733787],[2.57891826,48.62738387],[2.58461056,48.62739036],[2.58470062,48.62732681],[2.5848304,48.62738843],[2.58612765,48.62738485],[2.58657225,48.62555589],[2.58467835,48.62534511],[2.58435979,48.62222988],[2.58457166,48.62169091],[2.58331208,48.62141036],[2.58189162,48.62088906],[2.57843305,48.62444884],[2.57795211,48.62486181],[2.57720056,48.62534579],[2.57639023,48.6257153],[2.57547998,48.6260215],[2.57455717,48.6262026],[2.57433653,48.62630346],[2.57412472,48.6264871],[2.57372279,48.62718819],[2.57358463,48.62715801],[2.5734779,48.62726737]]]]},"bbox":[2.5734779,48.62088906,2.58657225,48.62739036]},{"type":"Feature","id":"fr-quartier-77296-830c2fe43ba6","properties":{"id":"fr-quartier-77296-830c2fe43ba6","kind":"quartier","name":"Maillettes-Noyer Perrot","cityCode":"77296","cityName":"Moissy-Cramayel","sourceType":"iris","sourceIds":["772960103"],"colorIndex":5,"center":[2.592911713937754,48.622102472242226]},"geometry":{"type":"MultiPolygon","coordinates":[[[[2.58657225,48.62555589],[2.58670511,48.62557074],[2.58696503,48.62444275],[2.58704933,48.62424875],[2.58717374,48.62412955],[2.58745282,48.62401268],[2.58938631,48.62366855],[2.58987881,48.62401926],[2.59045914,48.62424433],[2.5907641,48.62428676],[2.59226303,48.62433687],[2.5951404,48.62475597],[2.59523082,48.62481834],[2.59530965,48.62480152],[2.59533588,48.62474314],[2.59707245,48.62441891],[2.59775238,48.62422421],[2.59824509,48.62402528],[2.59891756,48.6235625],[2.59908748,48.62352079],[2.60012896,48.62466128],[2.60069565,48.62561307],[2.6013051,48.62540822],[2.60295709,48.62442607],[2.60553575,48.62398219],[2.60574472,48.62379938],[2.60450497,48.62302798],[2.6027036,48.6220694],[2.60238805,48.62199279],[2.60199692,48.62204276],[2.60169764,48.6219671],[2.60157621,48.62187764],[2.60149244,48.62165338],[2.60132277,48.6214846],[2.60042225,48.6210795],[2.59840467,48.62037919],[2.595699,48.61954068],[2.5947445,48.61928287],[2.59375128,48.61912027],[2.59268398,48.61906356],[2.58941548,48.61908472],[2.58714663,48.61913804],[2.58592356,48.61922195],[2.58500784,48.61938427],[2.58437975,48.61954579],[2.58373896,48.61976843],[2.5832665,48.61997817],[2.58257009,48.62036792],[2.58189162,48.62088906],[2.58331208,48.62141036],[2.58457166,48.62169091],[2.58435979,48.62222988],[2.58467835,48.62534511],[2.58657225,48.62555589]]]]},"bbox":[2.58189162,48.61906356,2.60574472,48.62561307]}]}