{"type":"FeatureCollection","metadata":{"sourceType":"iris","referenceFile":"beynes-quartiers.geojson","source":"IGN / INSEE - Contours IRIS WFS Géoplateforme","sourceUrl":"https://geoservices.ign.fr/contoursiris","license":"Licence Ouverte / Open Licence 2.0","sourceYear":"2026"},"features":[{"type":"Feature","id":"fr-quartier-78062-b060bdc1b35b","properties":{"id":"fr-quartier-78062-b060bdc1b35b","kind":"quartier","name":"Le Bourg et Les Hameaux","cityCode":"78062","cityName":"Beynes","sourceType":"iris","sourceIds":["780620101"],"colorIndex":0,"center":[1.862439696553615,48.85365480501366]},"geometry":{"type":"MultiPolygon","coordinates":[[[[1.84151248,48.82890182],[1.83983291,48.82962938],[1.83916642,48.83007173],[1.84012443,48.83171171],[1.83995991,48.8323703],[1.84009366,48.83389074],[1.84059012,48.83564316],[1.84072867,48.83829604],[1.8413505,48.84238008],[1.84128595,48.84252516],[1.84177059,48.8445086],[1.84306007,48.84633432],[1.84612075,48.84529176],[1.84649283,48.8455355],[1.84782141,48.85028557],[1.83817207,48.85671485],[1.83687471,48.85676431],[1.83752821,48.85765389],[1.83743503,48.85792011],[1.83699349,48.85785466],[1.83647775,48.8594641],[1.83796472,48.85947225],[1.83736878,48.8612554],[1.8365772,48.86306812],[1.83740833,48.86320931],[1.83704979,48.86516385],[1.83732771,48.8655389],[1.83629348,48.86814074],[1.83849479,48.86852908],[1.83797063,48.87130766],[1.84077967,48.87147341],[1.84104337,48.87040657],[1.84551741,48.87104971],[1.84546712,48.87141168],[1.85057331,48.87214437],[1.85090661,48.87174554],[1.85263946,48.87162456],[1.85398942,48.8716168],[1.85686017,48.87120984],[1.85831966,48.87124266],[1.85878209,48.8713568],[1.85885155,48.87148428],[1.85900482,48.87145875],[1.85961743,48.87162559],[1.86192126,48.87295165],[1.86321942,48.87350722],[1.86445017,48.87384089],[1.86626392,48.87407663],[1.86731237,48.87439326],[1.86845793,48.87507324],[1.86969873,48.87614086],[1.8703178,48.87632838],[1.87178167,48.87654365],[1.87260495,48.87674658],[1.87342373,48.87507781],[1.87359514,48.87509561],[1.87403314,48.87489197],[1.87455437,48.87436983],[1.87491772,48.87415019],[1.87573331,48.87401305],[1.87575537,48.8742543],[1.87542609,48.87434924],[1.87540973,48.87441204],[1.87586509,48.87454044],[1.87591439,48.87465692],[1.87524804,48.87476489],[1.87537671,48.8750575],[1.87561229,48.87507141],[1.87562585,48.87513809],[1.87500445,48.87537419],[1.87496734,48.87551415],[1.87500676,48.87564583],[1.87567375,48.87576182],[1.87571563,48.87590612],[1.87502365,48.87600035],[1.87454899,48.87588076],[1.87436354,48.87594468],[1.87437523,48.87609768],[1.87480094,48.87621051],[1.87487281,48.87629213],[1.8746603,48.87647181],[1.87488234,48.87679768],[1.87455591,48.87707523],[1.87551099,48.87711119],[1.87552169,48.87737301],[1.87623051,48.87744712],[1.87741193,48.8771677],[1.87800681,48.87683421],[1.87942019,48.87661001],[1.88018596,48.8761279],[1.88241659,48.87511624],[1.88310133,48.87453173],[1.88423556,48.87415916],[1.88565419,48.87381172],[1.88708134,48.87312887],[1.88752951,48.87270132],[1.88808061,48.87185831],[1.88959397,48.87051697],[1.88898055,48.87038446],[1.88663801,48.86886519],[1.88503414,48.8698477],[1.88392355,48.87045793],[1.88190608,48.87120449],[1.88223331,48.86942494],[1.88649855,48.8549168],[1.88642338,48.85479918],[1.88580976,48.8547485],[1.88504916,48.85475131],[1.88343763,48.85490177],[1.88290435,48.85485452],[1.88253578,48.85475394],[1.88244207,48.85467482],[1.88240383,48.85455124],[1.88247534,48.85407702],[1.88241191,48.8536663],[1.88231872,48.85343607],[1.88203795,48.85311866],[1.88164627,48.85282538],[1.88125294,48.8526724],[1.88555071,48.85061058],[1.88481976,48.85037712],[1.88448727,48.85031106],[1.88385567,48.85027549],[1.88329336,48.85031341],[1.88253052,48.85055093],[1.87877407,48.85215272],[1.87840882,48.85227882],[1.87837291,48.85185755],[1.87806585,48.85143375],[1.87796794,48.85098042],[1.87762676,48.85043218],[1.87763558,48.85027576],[1.877738,48.85014001],[1.87827836,48.84985547],[1.87915097,48.84926733],[1.88209782,48.84823179],[1.88298496,48.84778857],[1.88380889,48.84724222],[1.88450617,48.84656336],[1.8847778,48.8460973],[1.88487792,48.84562154],[1.88498871,48.84305473],[1.88493963,48.84057186],[1.88473971,48.83998088],[1.88338485,48.8375218],[1.88282814,48.83596959],[1.88214439,48.83462575],[1.87590112,48.8350925],[1.87528137,48.8348951],[1.87503787,48.8344359],[1.87399381,48.83464463],[1.87401739,48.83487781],[1.87220123,48.83519259],[1.87128793,48.83194152],[1.87026039,48.83227001],[1.8697367,48.83147805],[1.86669888,48.83228038],[1.86600145,48.83121064],[1.8653243,48.83133823],[1.86306092,48.83148583],[1.85752637,48.83201053],[1.85838929,48.83509663],[1.8532032,48.83530695],[1.85292063,48.83396948],[1.84791315,48.83380802],[1.84748018,48.83170007],[1.84700374,48.82817148],[1.8430962,48.82837839],[1.84245246,48.8284729],[1.84151248,48.82890182]]]]},"bbox":[1.83629348,48.82817148,1.88959397,48.87744712]},{"type":"Feature","id":"fr-quartier-78062-7b28750c7a67","properties":{"id":"fr-quartier-78062-7b28750c7a67","kind":"quartier","name":"Les Chênes Le Renouveau et l'Estandart","cityCode":"78062","cityName":"Beynes","sourceType":"iris","sourceIds":["780620102"],"colorIndex":1,"center":[1.8843271790680616,48.848000280262426]},"geometry":{"type":"MultiPolygon","coordinates":[[[[1.88952535,48.84860317],[1.88493963,48.84057186],[1.88498871,48.84305473],[1.88487792,48.84562154],[1.8847778,48.8460973],[1.88450617,48.84656336],[1.88380889,48.84724222],[1.88298496,48.84778857],[1.88209782,48.84823179],[1.87915097,48.84926733],[1.87827836,48.84985547],[1.877738,48.85014001],[1.87763558,48.85027576],[1.87762676,48.85043218],[1.87796794,48.85098042],[1.87806585,48.85143375],[1.87837291,48.85185755],[1.87840882,48.85227882],[1.87877407,48.85215272],[1.88253052,48.85055093],[1.88329336,48.85031341],[1.88385567,48.85027549],[1.88448727,48.85031106],[1.88481976,48.85037712],[1.88555071,48.85061058],[1.88882968,48.84901674],[1.88952535,48.84860317]]]]},"bbox":[1.87762676,48.84057186,1.88952535,48.85227882]},{"type":"Feature","id":"fr-quartier-78062-ce8fe7b4eec4","properties":{"id":"fr-quartier-78062-ce8fe7b4eec4","kind":"quartier","name":"Le Val des Quatre Pignons et Quartier Général Laurier","cityCode":"78062","cityName":"Beynes","sourceType":"iris","sourceIds":["780620103"],"colorIndex":2,"center":[1.8958848975122429,48.85839667666915]},"geometry":{"type":"MultiPolygon","coordinates":[[[[1.88959397,48.87051697],[1.8917036,48.86934122],[1.89293082,48.86836953],[1.89583139,48.86736831],[1.89725473,48.86710802],[1.90103186,48.86610036],[1.90152971,48.86641162],[1.90460788,48.86583274],[1.90619675,48.86567099],[1.90713004,48.86543668],[1.90801353,48.86510657],[1.90876895,48.86470693],[1.90922518,48.86433784],[1.90964025,48.86378579],[1.9102004,48.86248856],[1.91043893,48.86222901],[1.91106405,48.86199546],[1.91142115,48.86199781],[1.91215941,48.86215562],[1.91271744,48.86213191],[1.91323979,48.8619235],[1.91314185,48.86080285],[1.91297594,48.86052253],[1.91234895,48.85993312],[1.91149362,48.85937761],[1.91106206,48.85850395],[1.90976484,48.85737688],[1.9085969,48.85808396],[1.90680208,48.85670407],[1.90653688,48.85615661],[1.90185563,48.84920536],[1.90362648,48.84879079],[1.9068768,48.84846526],[1.90622727,48.84746637],[1.90644302,48.84718593],[1.90640844,48.84708038],[1.90435281,48.84458008],[1.90293612,48.84500871],[1.90090066,48.8459569],[1.89949372,48.8465016],[1.89867138,48.84711014],[1.89750668,48.84831182],[1.89690398,48.84639681],[1.89357918,48.8468311],[1.8930005,48.84796261],[1.89333594,48.84917273],[1.89333307,48.84962871],[1.89305794,48.84994186],[1.89138333,48.85011882],[1.89042754,48.85013875],[1.88952535,48.84860317],[1.88882968,48.84901674],[1.88555071,48.85061058],[1.88125294,48.8526724],[1.88164627,48.85282538],[1.88203795,48.85311866],[1.88231872,48.85343607],[1.88241191,48.8536663],[1.88247534,48.85407702],[1.88240383,48.85455124],[1.88244207,48.85467482],[1.88253578,48.85475394],[1.88290435,48.85485452],[1.88343763,48.85490177],[1.88504916,48.85475131],[1.88580976,48.8547485],[1.88642338,48.85479918],[1.88649855,48.8549168],[1.88223331,48.86942494],[1.88190608,48.87120449],[1.88392355,48.87045793],[1.88503414,48.8698477],[1.88663801,48.86886519],[1.88898055,48.87038446],[1.88959397,48.87051697]]]]},"bbox":[1.88125294,48.84458008,1.91323979,48.87120449]}]}