{"type":"FeatureCollection","metadata":{"sourceType":"iris","referenceFile":"saint-cyr-l-ecole-quartiers.geojson","source":"IGN / INSEE - Contours IRIS WFS Géoplateforme","sourceUrl":"https://geoservices.ign.fr/contoursiris","license":"Licence Ouverte / Open Licence 2.0","sourceYear":"2026"},"features":[{"type":"Feature","id":"fr-quartier-78545-ea6ca31ee392","properties":{"id":"fr-quartier-78545-ea6ca31ee392","kind":"quartier","name":"Aérodrome","cityCode":"78545","cityName":"Saint-Cyr-l'École","sourceType":"iris","sourceIds":["785450101"],"colorIndex":0,"center":[2.0691248810465335,48.81305474162639]},"geometry":{"type":"MultiPolygon","coordinates":[[[[2.05457954,48.80993835],[2.0553185,48.81079145],[2.05803276,48.81319183],[2.05744161,48.81349927],[2.05702404,48.813621],[2.05797695,48.81447216],[2.05680543,48.81539203],[2.05729435,48.81584469],[2.05758618,48.81604936],[2.06064461,48.81690629],[2.06139046,48.81769014],[2.06323597,48.81882439],[2.06380689,48.81926597],[2.06437089,48.8192587],[2.06526133,48.81942846],[2.06877523,48.82027164],[2.06887175,48.82173124],[2.0703328,48.8220619],[2.07067544,48.82301254],[2.07170436,48.82252406],[2.07435381,48.82220642],[2.07461139,48.82212117],[2.07546795,48.8212104],[2.07765069,48.82016775],[2.07817515,48.8198552],[2.07832362,48.8196234],[2.07967577,48.81894756],[2.08080304,48.81874217],[2.08097639,48.81887482],[2.08195875,48.81869978],[2.08303772,48.81876113],[2.08230272,48.81765101],[2.0821927,48.81732458],[2.07985878,48.81590895],[2.07943242,48.81521941],[2.07464874,48.80182788],[2.0745533,48.80175878],[2.07428955,48.8013529],[2.07397536,48.80110492],[2.07405358,48.80160741],[2.07402762,48.80176551],[2.07291856,48.80311054],[2.07266819,48.80356101],[2.07240309,48.80384407],[2.07149243,48.80459522],[2.07083623,48.80504793],[2.0703032,48.80531271],[2.06948621,48.80561845],[2.06879668,48.80580106],[2.06790071,48.80595328],[2.0672517,48.80600128],[2.06659261,48.80600423],[2.06510489,48.80589637],[2.06504762,48.80582487],[2.06494251,48.80583933],[2.06475601,48.80568497],[2.06434234,48.80513848],[2.06419074,48.80501228],[2.06402782,48.80506137],[2.0639184,48.80501284],[2.06311197,48.80525926],[2.06281138,48.80539272],[2.06269306,48.80546015],[2.06297027,48.80632577],[2.06307068,48.80695166],[2.06301956,48.80706818],[2.0628629,48.8071479],[2.0607008,48.80758694],[2.06042783,48.80694171],[2.06036381,48.80701855],[2.05943954,48.80752935],[2.05941213,48.80761458],[2.0588371,48.80793835],[2.05866645,48.80796219],[2.05735455,48.80867229],[2.05704679,48.80867256],[2.05554522,48.80947648],[2.05551904,48.80956892],[2.05537055,48.80957224],[2.05457954,48.80993835]]]]},"bbox":[2.05457954,48.80110492,2.08303772,48.82301254]},{"type":"Feature","id":"fr-quartier-78545-2b2055ee5325","properties":{"id":"fr-quartier-78545-2b2055ee5325","kind":"quartier","name":"Ambroise-Croizat","cityCode":"78545","cityName":"Saint-Cyr-l'École","sourceType":"iris","sourceIds":["785450106"],"colorIndex":1,"center":[2.054623000010038,48.80016620691734]},"geometry":{"type":"MultiPolygon","coordinates":[[[[2.05011879,48.79832825],[2.05164362,48.80109981],[2.04837546,48.80321538],[2.04860742,48.80356171],[2.04926351,48.80402114],[2.04956414,48.80433563],[2.04954994,48.80474116],[2.05056292,48.80556769],[2.05076438,48.80542178],[2.05131126,48.80522465],[2.05269948,48.80443607],[2.05417767,48.80356454],[2.05602906,48.80230648],[2.05734434,48.80132659],[2.05760433,48.80117934],[2.05877316,48.80091782],[2.06071848,48.8003296],[2.06109023,48.80009957],[2.0614398,48.79973985],[2.06178711,48.79965713],[2.0617072,48.7991798],[2.06161663,48.79914401],[2.06146106,48.79878572],[2.06135877,48.7983415],[2.06143125,48.79809652],[2.06082316,48.79799461],[2.05982145,48.79775018],[2.05540783,48.79668733],[2.05520797,48.7965976],[2.05503577,48.79648381],[2.05479073,48.79618236],[2.05374041,48.79426815],[2.05321126,48.79439528],[2.05266293,48.79662782],[2.05304832,48.79797193],[2.05011879,48.79832825]]]]},"bbox":[2.04837546,48.79426815,2.06178711,48.80556769]},{"type":"Feature","id":"fr-quartier-78545-fcbaa3e5fcee","properties":{"id":"fr-quartier-78545-fcbaa3e5fcee","kind":"quartier","name":"Bel-Air","cityCode":"78545","cityName":"Saint-Cyr-l'École","sourceType":"iris","sourceIds":["785450107"],"colorIndex":2,"center":[2.0647571140740264,48.794719039787594]},"geometry":{"type":"MultiPolygon","coordinates":[[[[2.07339726,48.79877452],[2.07188731,48.7943412],[2.07014417,48.78986915],[2.06485139,48.79079654],[2.06378617,48.79182255],[2.06263973,48.79206271],[2.05896593,48.79294946],[2.05732771,48.79343214],[2.05374041,48.79426815],[2.05479073,48.79618236],[2.05503577,48.79648381],[2.05520797,48.7965976],[2.05540783,48.79668733],[2.05982145,48.79775018],[2.06093623,48.79753678],[2.06233471,48.79736968],[2.06348048,48.79732469],[2.06491143,48.79739616],[2.06493588,48.79724705],[2.06937066,48.79828183],[2.0708562,48.79857671],[2.07193065,48.79871547],[2.07339726,48.79877452]]]]},"bbox":[2.05374041,48.78986915,2.07339726,48.79877452]},{"type":"Feature","id":"fr-quartier-78545-836bb1960b9f","properties":{"id":"fr-quartier-78545-836bb1960b9f","kind":"quartier","name":"Collège-Militaire","cityCode":"78545","cityName":"Saint-Cyr-l'École","sourceType":"iris","sourceIds":["785450104"],"colorIndex":3,"center":[2.067810275919616,48.80265523264934]},"geometry":{"type":"MultiPolygon","coordinates":[[[[2.07464874,48.80182788],[2.07438618,48.80104874],[2.07408939,48.80104734],[2.07411898,48.80076065],[2.07401553,48.8006825],[2.0737929,48.8006457],[2.07362487,48.80052387],[2.07068558,48.79982379],[2.06997249,48.79942339],[2.06965165,48.79954951],[2.06907192,48.7995351],[2.06390296,48.8004868],[2.06359748,48.80059054],[2.06312322,48.80084316],[2.06135332,48.8020489],[2.06161518,48.80270574],[2.06240751,48.80346928],[2.06260802,48.80352482],[2.06306409,48.80352839],[2.06281138,48.80539272],[2.06311197,48.80525926],[2.0639184,48.80501284],[2.06402782,48.80506137],[2.06419074,48.80501228],[2.06434234,48.80513848],[2.06475601,48.80568497],[2.06494251,48.80583933],[2.06504762,48.80582487],[2.06510489,48.80589637],[2.06659261,48.80600423],[2.0672517,48.80600128],[2.06790071,48.80595328],[2.06879668,48.80580106],[2.06948621,48.80561845],[2.0703032,48.80531271],[2.07083623,48.80504793],[2.07149243,48.80459522],[2.07240309,48.80384407],[2.07266819,48.80356101],[2.07291856,48.80311054],[2.07402762,48.80176551],[2.07405358,48.80160741],[2.07397536,48.80110492],[2.07428955,48.8013529],[2.0745533,48.80175878],[2.07464874,48.80182788]]]]},"bbox":[2.06135332,48.79942339,2.07464874,48.80600423]},{"type":"Feature","id":"fr-quartier-78545-443e38b51ff2","properties":{"id":"fr-quartier-78545-443e38b51ff2","kind":"quartier","name":"Geldrop","cityCode":"78545","cityName":"Saint-Cyr-l'École","sourceType":"iris","sourceIds":["785450103"],"colorIndex":4,"center":[2.0599787971533736,48.805021888364244]},"geometry":{"type":"MultiPolygon","coordinates":[[[[2.06281138,48.80539272],[2.06306409,48.80352839],[2.06260802,48.80352482],[2.06240751,48.80346928],[2.06161518,48.80270574],[2.06135332,48.8020489],[2.05999538,48.80283063],[2.05987044,48.80281256],[2.05723487,48.80369212],[2.05709494,48.80382504],[2.05654181,48.80467063],[2.05663617,48.80479909],[2.05583561,48.80524608],[2.05594272,48.80534677],[2.05632635,48.80634456],[2.05640925,48.80642886],[2.05647709,48.80644199],[2.05793852,48.80619628],[2.05923004,48.8072165],[2.06011154,48.80673595],[2.06034906,48.80677919],[2.06042783,48.80694171],[2.0607008,48.80758694],[2.0628629,48.8071479],[2.06301956,48.80706818],[2.06307068,48.80695166],[2.06297027,48.80632577],[2.06269306,48.80546015],[2.06281138,48.80539272]]]]},"bbox":[2.05583561,48.8020489,2.06307068,48.80758694]},{"type":"Feature","id":"fr-quartier-78545-1a1aef427839","properties":{"id":"fr-quartier-78545-1a1aef427839","kind":"quartier","name":"Le-Corbusier","cityCode":"78545","cityName":"Saint-Cyr-l'École","sourceType":"iris","sourceIds":["785450102"],"colorIndex":5,"center":[2.0552068338093776,48.807121666582496]},"geometry":{"type":"MultiPolygon","coordinates":[[[[2.05056292,48.80556769],[2.05098172,48.80552514],[2.05223369,48.80654064],[2.05367587,48.80840757],[2.05457954,48.80993835],[2.05537055,48.80957224],[2.05551904,48.80956892],[2.05554522,48.80947648],[2.05704679,48.80867256],[2.05735455,48.80867229],[2.05866645,48.80796219],[2.0588371,48.80793835],[2.05941213,48.80761458],[2.05943954,48.80752935],[2.06036381,48.80701855],[2.06042783,48.80694171],[2.06034906,48.80677919],[2.06011154,48.80673595],[2.05923004,48.8072165],[2.05793852,48.80619628],[2.05647709,48.80644199],[2.05640925,48.80642886],[2.05632635,48.80634456],[2.05594272,48.80534677],[2.05583561,48.80524608],[2.05517145,48.80552865],[2.05409442,48.80590239],[2.05387279,48.80535918],[2.05269948,48.80443607],[2.05131126,48.80522465],[2.05076438,48.80542178],[2.05056292,48.80556769]]]]},"bbox":[2.05056292,48.80443607,2.06042783,48.80993835]},{"type":"Feature","id":"fr-quartier-78545-8e5db7e3d459","properties":{"id":"fr-quartier-78545-8e5db7e3d459","kind":"quartier","name":"République","cityCode":"78545","cityName":"Saint-Cyr-l'École","sourceType":"iris","sourceIds":["785450105"],"colorIndex":6,"center":[2.062627918904341,48.80061330572425]},"geometry":{"type":"MultiPolygon","coordinates":[[[[2.07411898,48.80076065],[2.07418477,48.80058308],[2.07339726,48.79877452],[2.07193065,48.79871547],[2.0708562,48.79857671],[2.06937066,48.79828183],[2.06493588,48.79724705],[2.06491143,48.79739616],[2.06348048,48.79732469],[2.06233471,48.79736968],[2.06093623,48.79753678],[2.05982145,48.79775018],[2.06082316,48.79799461],[2.06143125,48.79809652],[2.06135877,48.7983415],[2.06146106,48.79878572],[2.06161663,48.79914401],[2.0617072,48.7991798],[2.06178711,48.79965713],[2.0614398,48.79973985],[2.06109023,48.80009957],[2.06071848,48.8003296],[2.05877316,48.80091782],[2.05760433,48.80117934],[2.05734434,48.80132659],[2.05602906,48.80230648],[2.05417767,48.80356454],[2.05269948,48.80443607],[2.05387279,48.80535918],[2.05409442,48.80590239],[2.05517145,48.80552865],[2.05583561,48.80524608],[2.05663617,48.80479909],[2.05654181,48.80467063],[2.05709494,48.80382504],[2.05723487,48.80369212],[2.05987044,48.80281256],[2.05999538,48.80283063],[2.06135332,48.8020489],[2.06312322,48.80084316],[2.06359748,48.80059054],[2.06390296,48.8004868],[2.06907192,48.7995351],[2.06965165,48.79954951],[2.06997249,48.79942339],[2.07068558,48.79982379],[2.07362487,48.80052387],[2.0737929,48.8006457],[2.07401553,48.8006825],[2.07411898,48.80076065]]]]},"bbox":[2.05269948,48.79724705,2.07418477,48.80590239]}]}