{"type":"FeatureCollection","metadata":{"sourceType":"iris","referenceFile":"castelsarrasin-quartiers.geojson","source":"IGN / INSEE - Contours IRIS WFS Géoplateforme","sourceUrl":"https://geoservices.ign.fr/contoursiris","license":"Licence Ouverte / Open Licence 2.0","sourceYear":"2026"},"features":[{"type":"Feature","id":"fr-quartier-82033-dcd6455b9536","properties":{"id":"fr-quartier-82033-dcd6455b9536","kind":"quartier","name":"Barraouet","cityCode":"82033","cityName":"Castelsarrasin","sourceType":"iris","sourceIds":["820330105"],"colorIndex":0,"center":[1.1020452327299108,44.056880053470486]},"geometry":{"type":"MultiPolygon","coordinates":[[[[1.10514158,44.055398],[1.1047856,44.0552541],[1.10474595,44.0552075],[1.10154651,44.05460559],[1.10087298,44.05440125],[1.10058427,44.0542621],[1.10003403,44.05470269],[1.10005201,44.05476242],[1.09957078,44.05631425],[1.09960091,44.05645882],[1.09977882,44.05670138],[1.09976211,44.05690275],[1.09963982,44.05705098],[1.09930153,44.05716214],[1.09913853,44.05725834],[1.09887786,44.05826033],[1.09990869,44.05845828],[1.10004427,44.05854796],[1.10027666,44.05884188],[1.1005255,44.05890472],[1.10267785,44.05920312],[1.10380219,44.05944317],[1.10495175,44.0560006],[1.10514158,44.055398]]]]},"bbox":[1.09887786,44.0542621,1.10514158,44.05944317]},{"type":"Feature","id":"fr-quartier-82033-d9febdd81de8","properties":{"id":"fr-quartier-82033-d9febdd81de8","kind":"quartier","name":"Boulevard Marceau Faure","cityCode":"82033","cityName":"Castelsarrasin","sourceType":"iris","sourceIds":["820330101"],"colorIndex":1,"center":[1.1065806908398415,44.0389913838163]},"geometry":{"type":"MultiPolygon","coordinates":[[[[1.0981593,44.03869924],[1.09961149,44.03934926],[1.09996935,44.03965796],[1.10156642,44.04124225],[1.10142863,44.04129477],[1.10114225,44.04153648],[1.10038092,44.04198601],[1.10031617,44.04209382],[1.10027843,44.04240195],[1.10012135,44.04258378],[1.10014731,44.04266616],[1.10163138,44.04356157],[1.1024181,44.04373637],[1.10260985,44.04371268],[1.10402847,44.04470146],[1.10446774,44.0435036],[1.10469789,44.04360121],[1.10640123,44.04503692],[1.10718294,44.0445751],[1.10702408,44.0443977],[1.10707079,44.04430668],[1.10599217,44.04337604],[1.10597419,44.04331632],[1.10603602,44.04322106],[1.10696842,44.04265561],[1.10767489,44.04216548],[1.10940188,44.0407846],[1.11061212,44.04162295],[1.11103785,44.04128009],[1.11179078,44.04055396],[1.11267329,44.03990929],[1.11326875,44.03952794],[1.11454377,44.03848579],[1.11537423,44.03794103],[1.11509811,44.03764909],[1.11480219,44.03693729],[1.11450171,44.0365522],[1.11359676,44.03572906],[1.11326177,44.03585833],[1.1110812,44.03380231],[1.11069231,44.03333737],[1.11011987,44.03392886],[1.10931655,44.03433271],[1.10904733,44.03469896],[1.10882001,44.03485528],[1.10790828,44.03514111],[1.10681911,44.03565884],[1.10610016,44.03562569],[1.10532217,44.03582919],[1.10370363,44.03646555],[1.10240077,44.03706505],[1.10234719,44.03728739],[1.10186588,44.03735017],[1.10084936,44.03737034],[1.09936691,44.03721677],[1.09891995,44.03722251],[1.09657713,44.03745817],[1.09586563,44.03761234],[1.09606074,44.03774898],[1.09678836,44.03812084],[1.0981593,44.03869924]]]]},"bbox":[1.09586563,44.03333737,1.11537423,44.04503692]},{"type":"Feature","id":"fr-quartier-82033-8529ab7570a5","properties":{"id":"fr-quartier-82033-8529ab7570a5","kind":"quartier","name":"Cassenel","cityCode":"82033","cityName":"Castelsarrasin","sourceType":"iris","sourceIds":["820330102"],"colorIndex":2,"center":[1.101646150235971,44.046856055954265]},"geometry":{"type":"MultiPolygon","coordinates":[[[[1.10514158,44.055398],[1.10538896,44.05475408],[1.10598037,44.05284943],[1.10697555,44.04998756],[1.1085774,44.04509166],[1.10928006,44.04310069],[1.10972856,44.04241073],[1.11061212,44.04162295],[1.10940188,44.0407846],[1.10767489,44.04216548],[1.10696842,44.04265561],[1.10603602,44.04322106],[1.10597419,44.04331632],[1.10599217,44.04337604],[1.10707079,44.04430668],[1.10702408,44.0443977],[1.10718294,44.0445751],[1.10640123,44.04503692],[1.10469789,44.04360121],[1.10446774,44.0435036],[1.10402847,44.04470146],[1.10260985,44.04371268],[1.1024181,44.04373637],[1.10163138,44.04356157],[1.10014731,44.04266616],[1.10012135,44.04258378],[1.10027843,44.04240195],[1.10031617,44.04209382],[1.10038092,44.04198601],[1.10114225,44.04153648],[1.10142863,44.04129477],[1.10156642,44.04124225],[1.09996935,44.03965796],[1.09961149,44.03934926],[1.0981593,44.03869924],[1.0961294,44.03968936],[1.0955381,44.03927125],[1.0941443,44.04019677],[1.09453345,44.04061407],[1.09681599,44.04226078],[1.0956268,44.0432619],[1.09445726,44.04412201],[1.09349406,44.04493169],[1.09435532,44.04511685],[1.09469399,44.04525328],[1.09485248,44.04536587],[1.09505889,44.04572508],[1.0951637,44.04580072],[1.09771989,44.04718389],[1.09630928,44.04830902],[1.09520211,44.04950333],[1.09538827,44.0496101],[1.09626975,44.04990182],[1.09707452,44.05036055],[1.09784627,44.05094834],[1.09928986,44.05175306],[1.10059809,44.05235104],[1.10111561,44.05247886],[1.10116375,44.05260753],[1.10112425,44.05274369],[1.10057963,44.05410177],[1.10058427,44.0542621],[1.10087298,44.05440125],[1.10154651,44.05460559],[1.10474595,44.0552075],[1.1047856,44.0552541],[1.10514158,44.055398]]]]},"bbox":[1.09349406,44.03869924,1.11061212,44.055398]},{"type":"Feature","id":"fr-quartier-82033-5098a83e1958","properties":{"id":"fr-quartier-82033-5098a83e1958","kind":"quartier","name":"Courbieu-Bénis-Saint-Martin","cityCode":"82033","cityName":"Castelsarrasin","sourceType":"iris","sourceIds":["820330104"],"colorIndex":3,"center":[1.0707208142576077,44.037283815]},"geometry":{"type":"MultiPolygon","coordinates":[[[[1.0752144,44.03128945],[1.07508567,44.03088926],[1.07488802,44.03075615],[1.0727261,44.03048132],[1.07326262,44.03015046],[1.07496667,44.02938911],[1.07396286,44.02807776],[1.07351813,44.02783496],[1.06732568,44.02587929],[1.06701389,44.02550737],[1.06657721,44.02524938],[1.064575,44.02545886],[1.06406579,44.02557319],[1.06306439,44.02610823],[1.06281286,44.02631354],[1.06239188,44.02695159],[1.06211314,44.02813952],[1.06344116,44.02820174],[1.0642686,44.02841714],[1.06576006,44.02961928],[1.06625757,44.02985044],[1.07051851,44.03052344],[1.07029372,44.03111816],[1.0752144,44.03128945]]],[[[1.18454372,44.0358244],[1.18575845,44.03518107],[1.18773741,44.0350302],[1.18886781,44.03480045],[1.18958359,44.03454132],[1.18968773,44.0343666],[1.19001203,44.03437106],[1.19208956,44.03362939],[1.1978832,44.03260775],[1.19929301,44.03218084],[1.19976407,44.03192392],[1.20086029,44.03107411],[1.20160795,44.0303158],[1.20260421,44.0297056],[1.20116754,44.02924718],[1.19770948,44.02733218],[1.19541333,44.02698916],[1.19421868,44.02673268],[1.19281462,44.02607663],[1.19050709,44.02523008],[1.18938862,44.02516927],[1.18890748,44.0255079],[1.18871642,44.02555245],[1.18776939,44.02547555],[1.18667526,44.02515944],[1.18446338,44.02436926],[1.18348308,44.02361479],[1.18167125,44.02280239],[1.18041041,44.0223178],[1.17748905,44.02136534],[1.17606698,44.02108687],[1.17552781,44.01973022],[1.174721,44.02026411],[1.17299755,44.01888138],[1.17262344,44.01872119],[1.17244105,44.01834004],[1.17177604,44.01807056],[1.17035059,44.01797831],[1.16964692,44.01778649],[1.1664946,44.01739432],[1.16526662,44.01717568],[1.16388531,44.01625676],[1.16303102,44.01601736],[1.16280715,44.01568681],[1.16254176,44.01451654],[1.16055408,44.01325701],[1.15969524,44.01308322],[1.15889101,44.01338117],[1.15803572,44.01390782],[1.15595231,44.01244944],[1.15566774,44.01241583],[1.1553247,44.01272423],[1.15137606,44.00982091],[1.1483621,44.00714572],[1.14433517,44.00314522],[1.14167751,44.0008468],[1.13960377,44.00278667],[1.13864944,44.00271732],[1.13759331,44.00225192],[1.13711306,44.00214022],[1.13795377,44.00125879],[1.13916918,44.00032162],[1.13916482,44.0001496],[1.1404617,43.99961891],[1.1411929,43.99903358],[1.14165749,43.99882182],[1.14248678,43.99824895],[1.14049852,43.99566209],[1.14003625,43.99515369],[1.13955678,43.99494298],[1.13781309,43.99457211],[1.13537762,43.99434517],[1.13165711,43.99447972],[1.13029493,43.9946833],[1.12554155,43.99581275],[1.12431186,43.9962706],[1.12353549,43.99667049],[1.1222697,43.99765524],[1.12059846,43.99943692],[1.11948895,44.00044413],[1.11857368,44.0011954],[1.11784636,44.00165552],[1.11401976,44.00075867],[1.1139331,44.00107856],[1.11116334,44.00077149],[1.11022127,44.00225233],[1.10954542,44.00296266],[1.10911526,44.00356019],[1.10865226,44.00450825],[1.10849949,44.00512768],[1.10894739,44.00598796],[1.11035939,44.00771564],[1.11070517,44.00774502],[1.111232,44.00855895],[1.11153899,44.0087425],[1.11269591,44.00902444],[1.11290274,44.00940791],[1.11290406,44.01095007],[1.11259937,44.01114827],[1.11279791,44.01163153],[1.1128803,44.0121569],[1.11330862,44.0122183],[1.1131172,44.01268764],[1.11303962,44.01348572],[1.11268243,44.0139504],[1.11243759,44.01422435],[1.1113856,44.01480036],[1.11080227,44.01497394],[1.10996157,44.01508366],[1.10826062,44.01499034],[1.10761429,44.01567056],[1.10685301,44.01609311],[1.10731765,44.01825367],[1.10480786,44.01959572],[1.10373493,44.01993363],[1.10280648,44.02005347],[1.10219448,44.02003656],[1.10155557,44.01996605],[1.09995617,44.01951697],[1.09885126,44.01901793],[1.09788641,44.01847181],[1.09647134,44.01747401],[1.09559216,44.01821043],[1.09454362,44.01949665],[1.09436489,44.02025246],[1.09444022,44.02113333],[1.09465002,44.0218734],[1.09622762,44.02252745],[1.09686275,44.0228986],[1.09835883,44.02412737],[1.09982529,44.02691936],[1.09992415,44.02803291],[1.09972536,44.0288676],[1.09860864,44.03021211],[1.09773627,44.03088925],[1.09515589,44.02972893],[1.09485377,44.02965885],[1.09196216,44.0276981],[1.09157498,44.0271881],[1.09132709,44.02665441],[1.09128695,44.02617657],[1.09242308,44.02384579],[1.09239739,44.02349514],[1.09077014,44.0215681],[1.08974029,44.02039418],[1.08853499,44.02010035],[1.08771597,44.01959809],[1.08754872,44.0193773],[1.0875108,44.01875996],[1.0857611,44.01699635],[1.08342437,44.01525664],[1.08331229,44.01528798],[1.08144563,44.01452245],[1.07993301,44.0151351],[1.07877631,44.01643818],[1.07781242,44.01786708],[1.07812425,44.0180166],[1.07812667,44.01816698],[1.07778536,44.01900184],[1.07786581,44.02123952],[1.07795503,44.02155348],[1.07814161,44.0217179],[1.07847315,44.02287427],[1.07698899,44.02433634],[1.07698377,44.02511948],[1.07713439,44.0253517],[1.07872217,44.02688484],[1.07970162,44.02758894],[1.0805428,44.02832392],[1.0820219,44.02923572],[1.08371737,44.028836],[1.08428807,44.0288595],[1.08615007,44.0296303],[1.08645211,44.02925657],[1.08766101,44.02877986],[1.08853056,44.02960259],[1.08954959,44.03076823],[1.08815725,44.03157937],[1.08912503,44.03241372],[1.08830139,44.03293589],[1.08758839,44.03265245],[1.08719996,44.03240259],[1.08566165,44.03198497],[1.08104511,44.03096963],[1.07966095,44.03086792],[1.07972454,44.0317207],[1.08824838,44.03525857],[1.08895157,44.03602168],[1.0890956,44.03648963],[1.08963326,44.03668178],[1.0896335,44.03734438],[1.08929998,44.03832076],[1.08906043,44.038728],[1.08879823,44.03969842],[1.08792452,44.03955262],[1.086653,44.0398806],[1.08533658,44.03994761],[1.08405208,44.03973337],[1.08278714,44.03927188],[1.08215258,44.03973341],[1.08142814,44.04012133],[1.08015214,44.03932202],[1.07922747,44.03839381],[1.07711232,44.03679829],[1.07651191,44.03650685],[1.0741972,44.0359827],[1.07231276,44.03546787],[1.07136306,44.0350262],[1.07021041,44.03320893],[1.06965423,44.03257163],[1.06797815,44.03125285],[1.06691751,44.03077408],[1.06599439,44.03058221],[1.06510318,44.03058987],[1.06430286,44.03075037],[1.06360158,44.03115389],[1.06303398,44.03169931],[1.06270765,44.03237865],[1.06263993,44.0344796],[1.06407523,44.03832849],[1.06434943,44.03962434],[1.06501603,44.03961992],[1.06522972,44.03972183],[1.06594813,44.04072754],[1.06616626,44.04069899],[1.06771303,44.04307694],[1.06549635,44.04392366],[1.06524107,44.04423695],[1.06495003,44.04479448],[1.06401837,44.04763731],[1.0639416,44.04952836],[1.06373112,44.05024846],[1.06292346,44.05204735],[1.06129266,44.05165927],[1.06100093,44.05058546],[1.0609748,44.05003312],[1.0611454,44.04938523],[1.0611107,44.04904791],[1.06051096,44.0484422],[1.05976871,44.04714703],[1.05938742,44.04668833],[1.05910845,44.04590103],[1.05825134,44.04435264],[1.05515703,44.0427132],[1.05349445,44.04308157],[1.05229434,44.04364901],[1.0531958,44.04411429],[1.05320928,44.04507063],[1.05355005,44.04561777],[1.05404573,44.04594168],[1.05348498,44.04748471],[1.05273779,44.0486751],[1.05415093,44.04947448],[1.05478037,44.05001324],[1.05506933,44.05047032],[1.05521833,44.05129763],[1.05348768,44.05123986],[1.05168615,44.05204959],[1.0511566,44.05140095],[1.0511838,44.0509711],[1.05147512,44.05033708],[1.05218396,44.05001388],[1.05233506,44.04986622],[1.05221602,44.04973356],[1.0510589,44.04969676],[1.04922322,44.04844327],[1.04889292,44.04795573],[1.04403866,44.04842637],[1.04330094,44.0493711],[1.04309245,44.0497716],[1.0426681,44.05122249],[1.04237337,44.0517709],[1.04168717,44.05190537],[1.04116242,44.05210035],[1.04024861,44.05268179],[1.03998865,44.05305346],[1.03968167,44.0537754],[1.03963951,44.05409335],[1.03982668,44.05489346],[1.03979353,44.056219],[1.03989429,44.05651971],[1.03996627,44.05664074],[1.04472053,44.05590469],[1.0461944,44.05580946],[1.04677343,44.0570532],[1.04646053,44.05714935],[1.04680102,44.05734088],[1.04859827,44.05753679],[1.04861803,44.05819886],[1.05008297,44.06011558],[1.04864429,44.06242262],[1.04839696,44.06268109],[1.04690255,44.06358806],[1.04638602,44.06426847],[1.04818214,44.06621544],[1.05063826,44.06727023],[1.0513595,44.06877937],[1.05045997,44.0694863],[1.05085654,44.07030363],[1.04981246,44.0710737],[1.05280222,44.07245125],[1.05279838,44.07303818],[1.0561199,44.07717556],[1.05823051,44.07622267],[1.05941178,44.07527398],[1.06060826,44.0744642],[1.06096264,44.07410586],[1.06107656,44.07365773],[1.060917,44.07324616],[1.05970402,44.07172028],[1.05958703,44.07071977],[1.059773,44.07017299],[1.06021206,44.06956406],[1.06107271,44.06867541],[1.06177822,44.06753822],[1.06251845,44.06776469],[1.06480725,44.06813107],[1.06633231,44.0681175],[1.06786145,44.06791042],[1.06906614,44.06788126],[1.07026718,44.06803297],[1.07038209,44.06788465],[1.07084184,44.06787744],[1.07175578,44.06810061],[1.07192189,44.06835742],[1.0730163,44.06893036],[1.07369217,44.07006402],[1.07375039,44.0705206],[1.07353575,44.07162328],[1.07333138,44.0719798],[1.07291379,44.0721057],[1.07034136,44.07394832],[1.06827972,44.07512287],[1.06734324,44.07515587],[1.06695629,44.07507701],[1.06640828,44.07477654],[1.06602947,44.07467892],[1.06560416,44.07506754],[1.06563101,44.07541643],[1.06621656,44.07589853],[1.06624746,44.07609174],[1.06554518,44.07632512],[1.06546728,44.07652271],[1.06582913,44.07693603],[1.06540695,44.07726889],[1.06509817,44.07790265],[1.0651926,44.07865157],[1.06593614,44.07996113],[1.06636875,44.07943219],[1.06665947,44.07925636],[1.06675881,44.07901594],[1.06749983,44.07859867],[1.06805938,44.07841318],[1.06855307,44.07807077],[1.06933694,44.07786222],[1.06963088,44.07762792],[1.07085333,44.07722812],[1.07166168,44.0770704],[1.07246005,44.07702324],[1.07314355,44.07686421],[1.07479467,44.07697067],[1.07573309,44.07717623],[1.07760196,44.07775013],[1.0813203,44.07832851],[1.08128867,44.07808127],[1.08287717,44.07786061],[1.08550876,44.07725934],[1.08675307,44.07717125],[1.08762429,44.07722248],[1.08821614,44.07733724],[1.08839353,44.07677766],[1.08898727,44.07646391],[1.08918657,44.07621891],[1.0892326,44.07577767],[1.0888598,44.074942],[1.08956001,44.07469223],[1.09081206,44.07504177],[1.09396447,44.07663168],[1.09608868,44.07730514],[1.09733449,44.07750775],[1.10049263,44.07867353],[1.10171902,44.07934751],[1.10205429,44.07966752],[1.1021875,44.0802046],[1.10238673,44.08022246],[1.10231829,44.07916613],[1.10233678,44.07812482],[1.10239286,44.07745417],[1.10258508,44.07625832],[1.10728809,44.05646955],[1.1062231,44.05628548],[1.10495175,44.0560006],[1.10380219,44.05944317],[1.10267785,44.05920312],[1.1005255,44.05890472],[1.10027666,44.05884188],[1.10004427,44.05854796],[1.09990869,44.05845828],[1.09887786,44.05826033],[1.09913853,44.05725834],[1.09930153,44.05716214],[1.09963982,44.05705098],[1.09976211,44.05690275],[1.09977882,44.05670138],[1.09960091,44.05645882],[1.09957078,44.05631425],[1.10005201,44.05476242],[1.10003403,44.05470269],[1.10058427,44.0542621],[1.10057963,44.05410177],[1.10112425,44.05274369],[1.10116375,44.05260753],[1.10111561,44.05247886],[1.10059809,44.05235104],[1.09928986,44.05175306],[1.09784627,44.05094834],[1.09707452,44.05036055],[1.09626975,44.04990182],[1.09538827,44.0496101],[1.09520211,44.04950333],[1.09630928,44.04830902],[1.09771989,44.04718389],[1.0951637,44.04580072],[1.09505889,44.04572508],[1.09485248,44.04536587],[1.09469399,44.04525328],[1.09435532,44.04511685],[1.09349406,44.04493169],[1.09445726,44.04412201],[1.0956268,44.0432619],[1.09681599,44.04226078],[1.09453345,44.04061407],[1.0941443,44.04019677],[1.0955381,44.03927125],[1.0961294,44.03968936],[1.0981593,44.03869924],[1.09678836,44.03812084],[1.09606074,44.03774898],[1.09586563,44.03761234],[1.09657713,44.03745817],[1.09891995,44.03722251],[1.09936691,44.03721677],[1.10084936,44.03737034],[1.10186588,44.03735017],[1.10234719,44.03728739],[1.10240077,44.03706505],[1.10089088,44.03552641],[1.10073199,44.03531389],[1.10040725,44.03506068],[1.10036266,44.03501309],[1.10037627,44.03490439],[1.10080493,44.03436177],[1.10121942,44.0345058],[1.1013634,44.03426703],[1.10151233,44.03414178],[1.10214412,44.03375662],[1.10240074,44.03365754],[1.10263874,44.0331062],[1.102503,44.03302282],[1.10292834,44.03284114],[1.10275607,44.03269321],[1.10484694,44.03180937],[1.10463982,44.03150869],[1.10625182,44.03091452],[1.10649044,44.0307557],[1.10599039,44.03010786],[1.10696868,44.0298448],[1.10774837,44.03041375],[1.10994185,44.03165982],[1.11026466,44.03193457],[1.11055795,44.03242218],[1.11061835,44.03259517],[1.11064933,44.0332412],[1.11069231,44.03333737],[1.11183612,44.03244874],[1.11364056,44.03188209],[1.11518104,44.03144769],[1.11596068,44.03096508],[1.11655089,44.03047469],[1.11810187,44.02975866],[1.11866831,44.02968467],[1.11969915,44.02964208],[1.12211371,44.02971505],[1.12203571,44.02988566],[1.12226766,44.03038208],[1.12231388,44.03087262],[1.12276263,44.03156812],[1.12285848,44.03157516],[1.12335175,44.03216969],[1.12357903,44.03227802],[1.12381152,44.032607],[1.12333372,44.03275456],[1.12302673,44.03294465],[1.1226497,44.03294988],[1.12108637,44.03339659],[1.12146336,44.03426281],[1.12042778,44.03456012],[1.12071193,44.03494942],[1.12082831,44.03497752],[1.12160534,44.03601176],[1.12236982,44.03579981],[1.12298644,44.03556822],[1.12324508,44.03552044],[1.12321033,44.03589346],[1.1247805,44.03573312],[1.12634944,44.03572398],[1.14784408,44.03662823],[1.15483029,44.03696591],[1.1626657,44.03728679],[1.16481648,44.03730757],[1.1663597,44.03724522],[1.17860072,44.03654218],[1.18375238,44.03637753],[1.18389696,44.03642224],[1.18454372,44.0358244]],[[1.061946,44.05835639],[1.0617923,44.05979053],[1.06215861,44.06039931],[1.06528417,44.06144672],[1.06447038,44.06221109],[1.06396908,44.06252363],[1.06316557,44.06280111],[1.06232322,44.06297257],[1.06148878,44.06309464],[1.06084772,44.06307428],[1.05849704,44.06269861],[1.05830096,44.06255379],[1.05880759,44.06157335],[1.05877124,44.06128461],[1.05636072,44.05882456],[1.05171899,44.05743752],[1.04953338,44.05757236],[1.04936257,44.05618106],[1.05033818,44.05601748],[1.05071331,44.05632756],[1.0517108,44.05585286],[1.05265615,44.05577065],[1.05587353,44.05528676],[1.05641476,44.05548633],[1.05683095,44.05547211],[1.05778252,44.05509737],[1.05829964,44.05479594],[1.05906355,44.05476178],[1.05911908,44.05423159],[1.06037315,44.05428353],[1.06051168,44.05509084],[1.06127948,44.05600563],[1.06217927,44.05630786],[1.06174967,44.05744902],[1.061946,44.05835639]]]]},"bbox":[1.03963951,43.99434517,1.20260421,44.08022246]},{"type":"Feature","id":"fr-quartier-82033-0988b374a6e6","properties":{"id":"fr-quartier-82033-0988b374a6e6","kind":"quartier","name":"Gandalou-Les Cloutiers","cityCode":"82033","cityName":"Castelsarrasin","sourceType":"iris","sourceIds":["820330106"],"colorIndex":4,"center":[1.1435511353397885,44.068595090595494]},"geometry":{"type":"MultiPolygon","coordinates":[[[[1.15581546,44.11287293],[1.15923791,44.11179791],[1.15957913,44.11175682],[1.1602049,44.1119969],[1.16044085,44.11196485],[1.16131651,44.11015736],[1.16156786,44.1093009],[1.16208766,44.10856598],[1.16224257,44.10787086],[1.1626916,44.10719867],[1.16187512,44.10717778],[1.1618819,44.10538271],[1.1609949,44.10537953],[1.16065937,44.10528477],[1.15663439,44.10580322],[1.15574435,44.10308017],[1.15567621,44.10298539],[1.15527888,44.10306333],[1.15515394,44.10294779],[1.15490296,44.10198026],[1.15503009,44.10179694],[1.157347,44.10031265],[1.15745697,44.09977162],[1.15759326,44.09965238],[1.15818458,44.09944715],[1.15852982,44.09873903],[1.15848233,44.0983151],[1.15818137,44.0981957],[1.1573985,44.0974497],[1.15726771,44.09720623],[1.15720819,44.0955343],[1.15678614,44.094256],[1.1570041,44.09385184],[1.15746397,44.09346075],[1.15711366,44.0932847],[1.15638399,44.0932121],[1.15485523,44.09339793],[1.15445113,44.09199208],[1.15422518,44.08963854],[1.15395004,44.08945655],[1.15340455,44.08956079],[1.14995857,44.08951434],[1.14994812,44.0892981],[1.14956071,44.08845879],[1.14956477,44.0882572],[1.15115179,44.08577491],[1.15179378,44.08565971],[1.15213936,44.08551789],[1.15305931,44.08557392],[1.15331033,44.08545932],[1.15357196,44.08513333],[1.15448798,44.08500202],[1.15566325,44.08457888],[1.15614626,44.08458971],[1.15720862,44.08437442],[1.15742688,44.08453834],[1.15804044,44.08445143],[1.1587173,44.08418373],[1.16019826,44.08396194],[1.16057569,44.08368379],[1.16285437,44.08335652],[1.16510803,44.08194486],[1.1663011,44.08096463],[1.16709227,44.08079062],[1.16975386,44.07950273],[1.17000445,44.07947721],[1.17116571,44.07971627],[1.17232649,44.08004804],[1.1733045,44.07739776],[1.17372289,44.07720217],[1.17407027,44.07521027],[1.17431374,44.07505588],[1.1742981,44.07410313],[1.17450475,44.07314959],[1.17494751,44.06962252],[1.17590931,44.06766337],[1.1766274,44.06664542],[1.17699542,44.06599256],[1.17712992,44.06483346],[1.17733022,44.06407607],[1.1766473,44.0637244],[1.17570703,44.06400132],[1.1755235,44.06419632],[1.17512252,44.06400778],[1.17285459,44.06394925],[1.17224058,44.06351318],[1.17263127,44.06219361],[1.17172751,44.06195616],[1.17187335,44.06106914],[1.17214629,44.06085043],[1.1729116,44.0598387],[1.17331962,44.0591064],[1.17512248,44.05773836],[1.17659277,44.05634495],[1.17681351,44.05603983],[1.17666404,44.05548369],[1.17606982,44.04952218],[1.17734583,44.04377911],[1.17729405,44.04352528],[1.17666599,44.04232558],[1.17650233,44.04159005],[1.17833107,44.04122709],[1.1803339,44.04057082],[1.18223461,44.03892884],[1.18278671,44.03809177],[1.18284768,44.03711962],[1.18299111,44.03684832],[1.18350918,44.03649052],[1.18389696,44.03642224],[1.18375238,44.03637753],[1.17860072,44.03654218],[1.1663597,44.03724522],[1.16481648,44.03730757],[1.1626657,44.03728679],[1.15483029,44.03696591],[1.1470416,44.04368798],[1.144882,44.04538621],[1.1430494,44.04669832],[1.14014573,44.04854678],[1.13746454,44.05003705],[1.13493989,44.05127874],[1.13274464,44.05225502],[1.13149342,44.05276303],[1.12919096,44.05361767],[1.12588042,44.05468008],[1.12427995,44.05513792],[1.12117868,44.05590579],[1.11800251,44.05652013],[1.11554624,44.05680558],[1.11415014,44.05689317],[1.11244652,44.05691783],[1.11146617,44.05689102],[1.1095096,44.05675101],[1.1082681,44.05661883],[1.10728809,44.05646955],[1.10258508,44.07625832],[1.10239286,44.07745417],[1.10233678,44.07812482],[1.10231829,44.07916613],[1.10238673,44.08022246],[1.10259571,44.08032241],[1.10283148,44.08066771],[1.10411925,44.08073862],[1.10571226,44.08128205],[1.106736,44.08241972],[1.10759105,44.08288464],[1.10887836,44.08376035],[1.10935238,44.08434202],[1.1097737,44.08470581],[1.11088371,44.08531825],[1.11218829,44.0858269],[1.11262953,44.0861181],[1.11341094,44.08643406],[1.11434119,44.08719642],[1.11676552,44.08885955],[1.11700828,44.08914822],[1.11675872,44.08963099],[1.11579207,44.09045614],[1.11516254,44.09143563],[1.12368111,44.0925902],[1.12972135,44.09356228],[1.13473071,44.09473974],[1.13898952,44.09553421],[1.1426432,44.09634706],[1.14606877,44.09749263],[1.1500194,44.09932308],[1.15148922,44.10018786],[1.15274175,44.10108947],[1.15320658,44.10151053],[1.15402757,44.10250658],[1.15441738,44.10396982],[1.15447922,44.10768636],[1.15459198,44.10914043],[1.15486726,44.11090063],[1.1551553,44.11172835],[1.15581546,44.11287293]]]]},"bbox":[1.10231829,44.03637753,1.18389696,44.11287293]},{"type":"Feature","id":"fr-quartier-82033-58d962907ebb","properties":{"id":"fr-quartier-82033-58d962907ebb","kind":"quartier","name":"La Valette-Ducau","cityCode":"82033","cityName":"Castelsarrasin","sourceType":"iris","sourceIds":["820330103"],"colorIndex":5,"center":[1.1256801197470718,44.04428476735341]},"geometry":{"type":"MultiPolygon","coordinates":[[[[1.11064933,44.0332412],[1.11061835,44.03259517],[1.11055795,44.03242218],[1.11026466,44.03193457],[1.10994185,44.03165982],[1.10774837,44.03041375],[1.10696868,44.0298448],[1.10599039,44.03010786],[1.10649044,44.0307557],[1.10625182,44.03091452],[1.10463982,44.03150869],[1.10484694,44.03180937],[1.10275607,44.03269321],[1.10292834,44.03284114],[1.102503,44.03302282],[1.10263874,44.0331062],[1.10240074,44.03365754],[1.10214412,44.03375662],[1.10151233,44.03414178],[1.1013634,44.03426703],[1.10121942,44.0345058],[1.10080493,44.03436177],[1.10037627,44.03490439],[1.10036266,44.03501309],[1.10040725,44.03506068],[1.10073199,44.03531389],[1.10089088,44.03552641],[1.10240077,44.03706505],[1.10370363,44.03646555],[1.10532217,44.03582919],[1.10610016,44.03562569],[1.10681911,44.03565884],[1.10790828,44.03514111],[1.10882001,44.03485528],[1.10904733,44.03469896],[1.10931655,44.03433271],[1.11011987,44.03392886],[1.11069231,44.03333737],[1.11064933,44.0332412]]],[[[1.10972856,44.04241073],[1.10928006,44.04310069],[1.1085774,44.04509166],[1.10697555,44.04998756],[1.10598037,44.05284943],[1.10538896,44.05475408],[1.10514158,44.055398],[1.10495175,44.0560006],[1.1062231,44.05628548],[1.10728809,44.05646955],[1.1082681,44.05661883],[1.1095096,44.05675101],[1.11146617,44.05689102],[1.11244652,44.05691783],[1.11415014,44.05689317],[1.11554624,44.05680558],[1.11800251,44.05652013],[1.12117868,44.05590579],[1.12427995,44.05513792],[1.12588042,44.05468008],[1.12919096,44.05361767],[1.13149342,44.05276303],[1.13274464,44.05225502],[1.13493989,44.05127874],[1.13746454,44.05003705],[1.14014573,44.04854678],[1.1430494,44.04669832],[1.144882,44.04538621],[1.1470416,44.04368798],[1.15483029,44.03696591],[1.14784408,44.03662823],[1.12634944,44.03572398],[1.1247805,44.03573312],[1.12321033,44.03589346],[1.12324508,44.03552044],[1.12298644,44.03556822],[1.12236982,44.03579981],[1.12160534,44.03601176],[1.12082831,44.03497752],[1.12071193,44.03494942],[1.12042778,44.03456012],[1.12146336,44.03426281],[1.12108637,44.03339659],[1.1226497,44.03294988],[1.12302673,44.03294465],[1.12333372,44.03275456],[1.12381152,44.032607],[1.12357903,44.03227802],[1.12335175,44.03216969],[1.12285848,44.03157516],[1.12276263,44.03156812],[1.12231388,44.03087262],[1.12226766,44.03038208],[1.12203571,44.02988566],[1.12211371,44.02971505],[1.11969915,44.02964208],[1.11866831,44.02968467],[1.11810187,44.02975866],[1.11655089,44.03047469],[1.11596068,44.03096508],[1.11518104,44.03144769],[1.11364056,44.03188209],[1.11183612,44.03244874],[1.11069231,44.03333737],[1.1110812,44.03380231],[1.11326177,44.03585833],[1.11359676,44.03572906],[1.11450171,44.0365522],[1.11480219,44.03693729],[1.11509811,44.03764909],[1.11537423,44.03794103],[1.11454377,44.03848579],[1.11326875,44.03952794],[1.11267329,44.03990929],[1.11179078,44.04055396],[1.11103785,44.04128009],[1.11061212,44.04162295],[1.10972856,44.04241073]]]]},"bbox":[1.10036266,44.02964208,1.15483029,44.05691783]}]}