{"type":"FeatureCollection","metadata":{"sourceType":"iris","referenceFile":"cavaillon-quartiers.geojson","source":"IGN / INSEE - Contours IRIS WFS Géoplateforme","sourceUrl":"https://geoservices.ign.fr/contoursiris","license":"Licence Ouverte / Open Licence 2.0","sourceYear":"2026"},"features":[{"type":"Feature","id":"fr-quartier-84035-d0618379c1b7","properties":{"id":"fr-quartier-84035-d0618379c1b7","kind":"quartier","name":"Basses Ferrailles-Jas","cityCode":"84035","cityName":"Cavaillon","sourceType":"iris","sourceIds":["840350301"],"colorIndex":0,"center":[5.05113031049418,43.84496735656669]},"geometry":{"type":"MultiPolygon","coordinates":[[[[5.0441292,43.84483392],[5.04441965,43.84513005],[5.04449712,43.84527893],[5.04658368,43.84960313],[5.0466438,43.84978834],[5.04658653,43.84989114],[5.04643082,43.84995438],[5.0467116,43.85011835],[5.04603588,43.85024985],[5.04522659,43.85054229],[5.04449285,43.85075589],[5.04383761,43.85107785],[5.04305559,43.85136796],[5.0412741,43.85153814],[5.04088082,43.85163732],[5.04051624,43.85180888],[5.03955503,43.85251642],[5.03929875,43.85286419],[5.03874484,43.85323823],[5.03839297,43.85369671],[5.03811191,43.85418718],[5.03887794,43.85470219],[5.03916372,43.85479677],[5.0392886,43.85477553],[5.03935432,43.85469958],[5.03934794,43.85459078],[5.03912904,43.85420868],[5.0390893,43.85400147],[5.03915491,43.85378329],[5.03932224,43.85359202],[5.04093511,43.85308745],[5.0413662,43.85307128],[5.04388714,43.85329684],[5.04691048,43.85375958],[5.04849342,43.85394862],[5.05279881,43.8547058],[5.05150797,43.85288283],[5.04956993,43.85063182],[5.04909535,43.85005919],[5.04878791,43.84960316],[5.04923162,43.8494886],[5.05125128,43.84857473],[5.05324734,43.8482176],[5.05354437,43.84821021],[5.05402111,43.84828856],[5.05427289,43.84837204],[5.05473119,43.84859476],[5.05511939,43.84890882],[5.05562998,43.84920168],[5.05585497,43.84923164],[5.05809204,43.84921107],[5.05869118,43.84926818],[5.05987724,43.84911256],[5.06034823,43.84910006],[5.06045192,43.84814657],[5.06035966,43.84786475],[5.06006567,43.84757683],[5.05964997,43.84739743],[5.05881104,43.84714051],[5.05824251,43.84689647],[5.05687001,43.84619139],[5.05490778,43.84527325],[5.05347994,43.84451425],[5.05423602,43.84298766],[5.05476281,43.84214144],[5.05510282,43.84170473],[5.05578725,43.84053957],[5.05577292,43.84045251],[5.05559153,43.84028489],[5.05571895,43.83960914],[5.06058915,43.84015638],[5.06204849,43.84037546],[5.06274344,43.83850698],[5.06317378,43.83774987],[5.06292622,43.83767893],[5.06209227,43.83762539],[5.06028988,43.83723725],[5.0593412,43.83710573],[5.05704928,43.83700585],[5.05670086,43.83703493],[5.05610192,43.83697961],[5.05485103,43.83698608],[5.05401769,43.83694866],[5.05254216,43.8367946],[5.05060935,43.83665092],[5.05012114,43.83656197],[5.04975224,43.83726837],[5.04892616,43.83826601],[5.04856029,43.83902276],[5.04774416,43.84016064],[5.04644948,43.84137682],[5.04571245,43.84236377],[5.04446297,43.8436988],[5.04465033,43.84386003],[5.04465393,43.84392568],[5.04407176,43.84444521],[5.04419389,43.84473008],[5.0441292,43.84483392]]]]},"bbox":[5.03811191,43.83656197,5.06317378,43.85479677]},{"type":"Feature","id":"fr-quartier-84035-adc2efa4e0a9","properties":{"id":"fr-quartier-84035-adc2efa4e0a9","kind":"quartier","name":"Centre Ville","cityCode":"84035","cityName":"Cavaillon","sourceType":"iris","sourceIds":["840350103"],"colorIndex":1,"center":[5.037029597779701,43.83661946501763]},"geometry":{"type":"MultiPolygon","coordinates":[[[[5.03445591,43.83414121],[5.03429484,43.83422793],[5.03433268,43.83431275],[5.03425992,43.83443473],[5.03432447,43.83457126],[5.03430014,43.83462122],[5.03445153,43.83478673],[5.0340583,43.83495431],[5.03364531,43.8349512],[5.03357763,43.83497137],[5.03354642,43.83503767],[5.03364076,43.83513763],[5.03390028,43.8351616],[5.0339631,43.83521444],[5.03388187,43.83523846],[5.0338839,43.83533024],[5.03410228,43.83646942],[5.03451357,43.83705319],[5.0344607,43.83724501],[5.0346598,43.83808659],[5.03574946,43.83934905],[5.03618579,43.83930849],[5.03617277,43.83922232],[5.03625269,43.83919652],[5.03765415,43.83908663],[5.03787474,43.83909961],[5.04078952,43.83664967],[5.04065182,43.83641549],[5.04074335,43.83525251],[5.04068401,43.83533194],[5.0405127,43.83534055],[5.03663233,43.8345993],[5.0356578,43.83454188],[5.03559214,43.83399038],[5.03510052,43.83401396],[5.03445591,43.83414121]]]]},"bbox":[5.03354642,43.83399038,5.04078952,43.83934905]},{"type":"Feature","id":"fr-quartier-84035-f215445c6d49","properties":{"id":"fr-quartier-84035-f215445c6d49","kind":"quartier","name":"Condamines","cityCode":"84035","cityName":"Cavaillon","sourceType":"iris","sourceIds":["840350102"],"colorIndex":2,"center":[5.040081781588943,43.84042839006324]},"geometry":{"type":"MultiPolygon","coordinates":[[[[5.04082956,43.83439301],[5.04074335,43.83525251],[5.04065182,43.83641549],[5.04078952,43.83664967],[5.03787474,43.83909961],[5.03765415,43.83908663],[5.03625269,43.83919652],[5.03617277,43.83922232],[5.03618579,43.83930849],[5.03624765,43.83961341],[5.03621161,43.83961408],[5.03686538,43.84099809],[5.03728232,43.84149442],[5.0373344,43.84166449],[5.03733354,43.84195437],[5.03721667,43.84195565],[5.0372583,43.84211151],[5.03732583,43.84212195],[5.03735349,43.84279299],[5.03768074,43.84345933],[5.0374398,43.84392294],[5.03775087,43.84490285],[5.03817396,43.84487334],[5.03834628,43.84548496],[5.03843669,43.84554359],[5.03859583,43.84557662],[5.03875122,43.84574836],[5.03887097,43.84575782],[5.03912583,43.84655604],[5.03928822,43.84727228],[5.03971212,43.84688176],[5.03974051,43.8467363],[5.03992628,43.84643485],[5.04005853,43.84602819],[5.03995869,43.84385875],[5.04010338,43.84383534],[5.04228948,43.84263856],[5.04261352,43.84248306],[5.04291624,43.84242698],[5.04302712,43.84236279],[5.04267458,43.84179056],[5.04211161,43.84110704],[5.04279668,43.84082235],[5.04267818,43.84001258],[5.04270246,43.83919564],[5.04291011,43.83822043],[5.04294683,43.83813422],[5.04325828,43.83787093],[5.04306862,43.83771425],[5.04238047,43.83732024],[5.04226366,43.8371838],[5.04242701,43.83705651],[5.04256105,43.83677044],[5.04275023,43.83614845],[5.0428153,43.83563772],[5.04307987,43.83493331],[5.04315337,43.83469337],[5.04314393,43.83456842],[5.04321458,43.8345617],[5.04321294,43.83451582],[5.04082956,43.83439301]]]]},"bbox":[5.03617277,43.83439301,5.04325828,43.84727228]},{"type":"Feature","id":"fr-quartier-84035-45ee1058059b","properties":{"id":"fr-quartier-84035-45ee1058059b","kind":"quartier","name":"Docteur Ayme","cityCode":"84035","cityName":"Cavaillon","sourceType":"iris","sourceIds":["840350201"],"colorIndex":3,"center":[5.041729359602405,43.84503687328485]},"geometry":{"type":"MultiPolygon","coordinates":[[[[5.04393384,43.84486639],[5.04377172,43.84471549],[5.04389212,43.84443057],[5.04401007,43.84432033],[5.04367052,43.84376406],[5.04302712,43.84236279],[5.04291624,43.84242698],[5.04261352,43.84248306],[5.04228948,43.84263856],[5.04010338,43.84383534],[5.03995869,43.84385875],[5.04005853,43.84602819],[5.03992628,43.84643485],[5.03974051,43.8467363],[5.03971212,43.84688176],[5.03928822,43.84727228],[5.0393722,43.84735983],[5.03949824,43.84740608],[5.03974971,43.84737707],[5.04021998,43.8474493],[5.04125762,43.84738668],[5.04157183,43.84730338],[5.04243602,43.84673807],[5.04278117,43.84644174],[5.0431996,43.84589918],[5.04365376,43.84510389],[5.04383523,43.84489164],[5.04393384,43.84486639]]]]},"bbox":[5.03928822,43.84236279,5.04401007,43.8474493]},{"type":"Feature","id":"fr-quartier-84035-7a580c4a0631","properties":{"id":"fr-quartier-84035-7a580c4a0631","kind":"quartier","name":"Hautes Ferrailles","cityCode":"84035","cityName":"Cavaillon","sourceType":"iris","sourceIds":["840350302"],"colorIndex":4,"center":[5.046641173307104,43.83758180629631]},"geometry":{"type":"MultiPolygon","coordinates":[[[[5.04302712,43.84236279],[5.04367052,43.84376406],[5.04401007,43.84432033],[5.04389212,43.84443057],[5.04377172,43.84471549],[5.04393384,43.84486639],[5.0441292,43.84483392],[5.04419389,43.84473008],[5.04407176,43.84444521],[5.04465393,43.84392568],[5.04465033,43.84386003],[5.04446297,43.8436988],[5.04571245,43.84236377],[5.04644948,43.84137682],[5.04774416,43.84016064],[5.04856029,43.83902276],[5.04892616,43.83826601],[5.04975224,43.83726837],[5.05012114,43.83656197],[5.05081358,43.83485657],[5.05126059,43.83390204],[5.05170284,43.83260733],[5.05192159,43.83267343],[5.05205832,43.83267176],[5.05241683,43.83254348],[5.05252249,43.83240376],[5.05232343,43.83240121],[5.05235336,43.83223051],[5.05227378,43.83212668],[5.05213332,43.83205911],[5.05192393,43.83204594],[5.0517785,43.8321171],[5.05138114,43.83202915],[5.05094366,43.83200137],[5.05045634,43.83210956],[5.04928603,43.83248714],[5.04839552,43.83289996],[5.04439562,43.83528133],[5.04419027,43.83555524],[5.04361224,43.83740519],[5.04347261,43.83763916],[5.04325828,43.83787093],[5.04294683,43.83813422],[5.04291011,43.83822043],[5.04270246,43.83919564],[5.04267818,43.84001258],[5.04279668,43.84082235],[5.04211161,43.84110704],[5.04267458,43.84179056],[5.04302712,43.84236279]]]]},"bbox":[5.04211161,43.83200137,5.05252249,43.84486639]},{"type":"Feature","id":"fr-quartier-84035-d865931a4129","properties":{"id":"fr-quartier-84035-d865931a4129","kind":"quartier","name":"Le Cagnard","cityCode":"84035","cityName":"Cavaillon","sourceType":"iris","sourceIds":["840350104"],"colorIndex":5,"center":[5.034981337338039,43.83156782348239]},"geometry":{"type":"MultiPolygon","coordinates":[[[[5.04074335,43.83525251],[5.04082956,43.83439301],[5.04080373,43.83401811],[5.04067981,43.8334731],[5.04039127,43.83281055],[5.0401008,43.83237219],[5.03953049,43.83179322],[5.03912446,43.83149655],[5.03654117,43.83001718],[5.03537349,43.82928282],[5.03447847,43.82880171],[5.03420319,43.82854399],[5.03401435,43.82819913],[5.03375229,43.82806809],[5.03381731,43.82779862],[5.03358313,43.82764725],[5.03345281,43.82761908],[5.03272827,43.82766499],[5.03249615,43.82764141],[5.02850952,43.83022899],[5.0280178,43.83066933],[5.02752058,43.83095494],[5.02789414,43.83082916],[5.02826013,43.83080525],[5.02844635,43.83086661],[5.02929263,43.83137658],[5.03002594,43.83154117],[5.03014891,43.83160729],[5.03046131,43.83165009],[5.03077504,43.83159023],[5.03331845,43.83163646],[5.03238002,43.83283772],[5.0327601,43.83299987],[5.03305112,43.83317539],[5.03421067,43.83340042],[5.03445591,43.83414121],[5.03510052,43.83401396],[5.03559214,43.83399038],[5.0356578,43.83454188],[5.03663233,43.8345993],[5.0405127,43.83534055],[5.04068401,43.83533194],[5.04074335,43.83525251]]]]},"bbox":[5.02752058,43.82761908,5.04082956,43.83534055]},{"type":"Feature","id":"fr-quartier-84035-82e1ccd9a784","properties":{"id":"fr-quartier-84035-82e1ccd9a784","kind":"quartier","name":"Les Banquets-Vautes","cityCode":"84035","cityName":"Cavaillon","sourceType":"iris","sourceIds":["840350303"],"colorIndex":6,"center":[5.0618241049999995,43.840701495000005]},"geometry":{"type":"MultiPolygon","coordinates":[[[[5.0484588,43.87490913],[5.05500088,43.87476723],[5.05611513,43.87467603],[5.06231899,43.87385319],[5.068957,43.87351149],[5.07076823,43.87153623],[5.07340844,43.86898795],[5.07488164,43.86645011],[5.07680266,43.8642206],[5.07824798,43.86277072],[5.07982239,43.86080163],[5.08086521,43.85967986],[5.08172915,43.8585669],[5.08274394,43.85698564],[5.08461559,43.85481815],[5.08563039,43.85324137],[5.08639459,43.84746081],[5.08654008,43.84701692],[5.08258495,43.84655057],[5.07755721,43.84583175],[5.07904249,43.84354479],[5.07855121,43.84057084],[5.07765794,43.83943468],[5.0708485,43.83239669],[5.06955132,43.83074422],[5.07075261,43.83026501],[5.07449264,43.8283341],[5.07664198,43.82739298],[5.07760777,43.82717743],[5.07983112,43.82642749],[5.08174558,43.8257329],[5.081986,43.82557437],[5.08218376,43.825576],[5.09163204,43.82206439],[5.0922955,43.82143951],[5.09286811,43.82071106],[5.09301101,43.82006376],[5.09302735,43.81979699],[5.09273163,43.8190888],[5.09225554,43.81841198],[5.09116802,43.81910079],[5.09050154,43.81940434],[5.08863765,43.81956879],[5.08801758,43.81974811],[5.08644344,43.81940376],[5.08567775,43.8193743],[5.08432363,43.81953972],[5.08210885,43.82000424],[5.08184828,43.81926744],[5.08183746,43.81883375],[5.08279164,43.81513099],[5.08282491,43.81461093],[5.08254899,43.81396446],[5.08181822,43.81263891],[5.08137588,43.81223507],[5.07904136,43.81063044],[5.07626132,43.80917919],[5.0764918,43.808235],[5.07619878,43.80803893],[5.07601975,43.80892814],[5.07518449,43.81023133],[5.07307846,43.81114999],[5.07180338,43.81136507],[5.07150379,43.8115364],[5.07132034,43.81168842],[5.07104212,43.81224373],[5.07086442,43.81241724],[5.0699852,43.81309469],[5.06826365,43.81413108],[5.06782091,43.81484794],[5.06758814,43.81580206],[5.06587424,43.81691569],[5.06494392,43.81800636],[5.06481833,43.81821218],[5.06479736,43.81828549],[5.06472331,43.81826619],[5.06410376,43.81808258],[5.0644848,43.81741102],[5.06361738,43.81693863],[5.06343855,43.81663415],[5.06350813,43.81539325],[5.06311969,43.81337966],[5.06226873,43.81298257],[5.06217814,43.81264221],[5.06041623,43.81180323],[5.06069752,43.81160618],[5.0606414,43.81156673],[5.05872566,43.8105623],[5.05681758,43.80973413],[5.05516129,43.80888948],[5.05048566,43.80734908],[5.04291256,43.80649386],[5.04124835,43.81119792],[5.03667516,43.81835445],[5.03547146,43.81998827],[5.03062086,43.82658621],[5.03249615,43.82764141],[5.03272827,43.82766499],[5.03345281,43.82761908],[5.03358313,43.82764725],[5.03381731,43.82779862],[5.03375229,43.82806809],[5.03401435,43.82819913],[5.03427256,43.82818711],[5.03445944,43.8280576],[5.03443058,43.82773587],[5.03475906,43.8271131],[5.03584437,43.82557151],[5.03600341,43.82521927],[5.03633221,43.8241527],[5.03642676,43.82411943],[5.03677247,43.82408596],[5.03701757,43.82422992],[5.03733358,43.82434014],[5.03826006,43.82451907],[5.04043475,43.82465933],[5.04069036,43.82474907],[5.04090618,43.82494307],[5.04091034,43.82478096],[5.04100561,43.82469816],[5.04113485,43.82466153],[5.04129324,43.82467477],[5.04141002,43.8247419],[5.0414357,43.82493856],[5.04157161,43.82491441],[5.04191161,43.82475592],[5.04277938,43.82482248],[5.04296332,43.82495946],[5.0431855,43.82529648],[5.04310693,43.82556801],[5.04286988,43.82575429],[5.04323161,43.82589064],[5.04513079,43.82635645],[5.04524969,43.82641273],[5.0460807,43.82607667],[5.04632852,43.82608733],[5.04670362,43.82618021],[5.04612368,43.82748558],[5.0465788,43.82734741],[5.04700125,43.82716484],[5.04923791,43.82722636],[5.04935426,43.82728088],[5.04947953,43.82741086],[5.04961568,43.82798263],[5.04971012,43.82811948],[5.04988952,43.82816382],[5.05090755,43.828223],[5.05185164,43.82843929],[5.05248582,43.82868211],[5.05485972,43.82982657],[5.05559491,43.83007648],[5.05495178,43.83072684],[5.05357801,43.83229297],[5.05327735,43.83243907],[5.05304098,43.83250563],[5.05241683,43.83254348],[5.05205832,43.83267176],[5.05192159,43.83267343],[5.05170284,43.83260733],[5.05126059,43.83390204],[5.05081358,43.83485657],[5.05012114,43.83656197],[5.05060935,43.83665092],[5.05254216,43.8367946],[5.05401769,43.83694866],[5.05485103,43.83698608],[5.05610192,43.83697961],[5.05670086,43.83703493],[5.05704928,43.83700585],[5.0593412,43.83710573],[5.06028988,43.83723725],[5.06209227,43.83762539],[5.06292622,43.83767893],[5.06317378,43.83774987],[5.06274344,43.83850698],[5.06204849,43.84037546],[5.06058915,43.84015638],[5.05571895,43.83960914],[5.05559153,43.84028489],[5.05577292,43.84045251],[5.05578725,43.84053957],[5.05510282,43.84170473],[5.05476281,43.84214144],[5.05423602,43.84298766],[5.05347994,43.84451425],[5.05490778,43.84527325],[5.05687001,43.84619139],[5.05824251,43.84689647],[5.05881104,43.84714051],[5.05964997,43.84739743],[5.06006567,43.84757683],[5.06035966,43.84786475],[5.06045192,43.84814657],[5.06034823,43.84910006],[5.05987724,43.84911256],[5.05869118,43.84926818],[5.05809204,43.84921107],[5.05585497,43.84923164],[5.05562998,43.84920168],[5.05511939,43.84890882],[5.05473119,43.84859476],[5.05427289,43.84837204],[5.05402111,43.84828856],[5.05354437,43.84821021],[5.05324734,43.8482176],[5.05125128,43.84857473],[5.04923162,43.8494886],[5.04878791,43.84960316],[5.04909535,43.85005919],[5.04956993,43.85063182],[5.05150797,43.85288283],[5.05279881,43.8547058],[5.04849342,43.85394862],[5.04691048,43.85375958],[5.04388714,43.85329684],[5.0413662,43.85307128],[5.04093511,43.85308745],[5.03932224,43.85359202],[5.03915491,43.85378329],[5.0390893,43.85400147],[5.03912904,43.85420868],[5.03934794,43.85459078],[5.03935432,43.85469958],[5.0392886,43.85477553],[5.03916372,43.85479677],[5.03887794,43.85470219],[5.03913819,43.85495298],[5.03938601,43.85534355],[5.04307147,43.86356919],[5.04331314,43.86444688],[5.04335454,43.86497813],[5.04331252,43.86554246],[5.04358479,43.8657102],[5.04459409,43.86787073],[5.04545558,43.86958482],[5.04666618,43.87155971],[5.04826228,43.87463465],[5.0484588,43.87490913]]]]},"bbox":[5.03062086,43.80649386,5.09302735,43.87490913]},{"type":"Feature","id":"fr-quartier-84035-f55b961272c7","properties":{"id":"fr-quartier-84035-f55b961272c7","kind":"quartier","name":"Les Jardins","cityCode":"84035","cityName":"Cavaillon","sourceType":"iris","sourceIds":["840350101"],"colorIndex":7,"center":[5.039851902056118,43.82851081426276]},"geometry":{"type":"MultiPolygon","coordinates":[[[[5.04082956,43.83439301],[5.04321294,43.83451582],[5.04328976,43.83429923],[5.04328458,43.83398066],[5.04357488,43.83312633],[5.04358426,43.83297131],[5.04342433,43.83260253],[5.04326629,43.83252987],[5.04335107,43.83201427],[5.0435013,43.83152084],[5.04339645,43.8314751],[5.04214425,43.83158047],[5.04266442,43.83082536],[5.04345421,43.82849975],[5.04367095,43.82833635],[5.04450564,43.82723327],[5.04527396,43.82656981],[5.04530245,43.82649726],[5.04524969,43.82641273],[5.04513079,43.82635645],[5.04323161,43.82589064],[5.04286988,43.82575429],[5.04310693,43.82556801],[5.0431855,43.82529648],[5.04296332,43.82495946],[5.04277938,43.82482248],[5.04191161,43.82475592],[5.04157161,43.82491441],[5.0414357,43.82493856],[5.04141002,43.8247419],[5.04129324,43.82467477],[5.04113485,43.82466153],[5.04100561,43.82469816],[5.04091034,43.82478096],[5.04090618,43.82494307],[5.04069036,43.82474907],[5.04043475,43.82465933],[5.03826006,43.82451907],[5.03733358,43.82434014],[5.03701757,43.82422992],[5.03677247,43.82408596],[5.03642676,43.82411943],[5.03633221,43.8241527],[5.03600341,43.82521927],[5.03584437,43.82557151],[5.03475906,43.8271131],[5.03443058,43.82773587],[5.03445944,43.8280576],[5.03427256,43.82818711],[5.03401435,43.82819913],[5.03420319,43.82854399],[5.03447847,43.82880171],[5.03537349,43.82928282],[5.03654117,43.83001718],[5.03912446,43.83149655],[5.03953049,43.83179322],[5.0401008,43.83237219],[5.04039127,43.83281055],[5.04067981,43.8334731],[5.04080373,43.83401811],[5.04082956,43.83439301]]]]},"bbox":[5.03401435,43.82408596,5.04530245,43.83451582]},{"type":"Feature","id":"fr-quartier-84035-eb7f27cbc775","properties":{"id":"fr-quartier-84035-eb7f27cbc775","kind":"quartier","name":"Ratacans","cityCode":"84035","cityName":"Cavaillon","sourceType":"iris","sourceIds":["840350202"],"colorIndex":8,"center":[5.041184102994349,43.84963406150692]},"geometry":{"type":"MultiPolygon","coordinates":[[[[5.03928822,43.84727228],[5.03922972,43.84744531],[5.03857428,43.84845859],[5.03828231,43.84881693],[5.03740601,43.84942834],[5.03550834,43.85049091],[5.03567735,43.85055617],[5.03593806,43.85148392],[5.03623342,43.8523021],[5.03641421,43.85266241],[5.03664855,43.85292],[5.03679525,43.85295237],[5.03687728,43.85302015],[5.03688456,43.85318926],[5.03710284,43.85344984],[5.03811191,43.85418718],[5.03839297,43.85369671],[5.03874484,43.85323823],[5.03929875,43.85286419],[5.03955503,43.85251642],[5.04051624,43.85180888],[5.04088082,43.85163732],[5.0412741,43.85153814],[5.04305559,43.85136796],[5.04383761,43.85107785],[5.04449285,43.85075589],[5.04522659,43.85054229],[5.04603588,43.85024985],[5.0467116,43.85011835],[5.04643082,43.84995438],[5.04658653,43.84989114],[5.0466438,43.84978834],[5.04658368,43.84960313],[5.04449712,43.84527893],[5.04441965,43.84513005],[5.0441292,43.84483392],[5.04393384,43.84486639],[5.04383523,43.84489164],[5.04365376,43.84510389],[5.0431996,43.84589918],[5.04278117,43.84644174],[5.04243602,43.84673807],[5.04157183,43.84730338],[5.04125762,43.84738668],[5.04021998,43.8474493],[5.03974971,43.84737707],[5.03949824,43.84740608],[5.0393722,43.84735983],[5.03928822,43.84727228]]]]},"bbox":[5.03550834,43.84483392,5.0467116,43.85418718]},{"type":"Feature","id":"fr-quartier-84035-59bf6b92d04c","properties":{"id":"fr-quartier-84035-59bf6b92d04c","kind":"quartier","name":"Route de Pertuis","cityCode":"84035","cityName":"Cavaillon","sourceType":"iris","sourceIds":["840350304"],"colorIndex":9,"center":[5.04761061234226,43.83082907686373]},"geometry":{"type":"MultiPolygon","coordinates":[[[[5.04524969,43.82641273],[5.04530245,43.82649726],[5.04527396,43.82656981],[5.04450564,43.82723327],[5.04367095,43.82833635],[5.04345421,43.82849975],[5.04266442,43.83082536],[5.04214425,43.83158047],[5.04339645,43.8314751],[5.0435013,43.83152084],[5.04335107,43.83201427],[5.04326629,43.83252987],[5.04342433,43.83260253],[5.04358426,43.83297131],[5.04357488,43.83312633],[5.04328458,43.83398066],[5.04328976,43.83429923],[5.04321294,43.83451582],[5.04321458,43.8345617],[5.04314393,43.83456842],[5.04315337,43.83469337],[5.04307987,43.83493331],[5.0428153,43.83563772],[5.04275023,43.83614845],[5.04256105,43.83677044],[5.04242701,43.83705651],[5.04226366,43.8371838],[5.04238047,43.83732024],[5.04306862,43.83771425],[5.04325828,43.83787093],[5.04347261,43.83763916],[5.04361224,43.83740519],[5.04419027,43.83555524],[5.04439562,43.83528133],[5.04839552,43.83289996],[5.04928603,43.83248714],[5.05045634,43.83210956],[5.05094366,43.83200137],[5.05138114,43.83202915],[5.0517785,43.8321171],[5.05192393,43.83204594],[5.05213332,43.83205911],[5.05227378,43.83212668],[5.05235336,43.83223051],[5.05232343,43.83240121],[5.05252249,43.83240376],[5.05241683,43.83254348],[5.05304098,43.83250563],[5.05327735,43.83243907],[5.05357801,43.83229297],[5.05495178,43.83072684],[5.05559491,43.83007648],[5.05485972,43.82982657],[5.05248582,43.82868211],[5.05185164,43.82843929],[5.05090755,43.828223],[5.04988952,43.82816382],[5.04971012,43.82811948],[5.04961568,43.82798263],[5.04947953,43.82741086],[5.04935426,43.82728088],[5.04923791,43.82722636],[5.04700125,43.82716484],[5.0465788,43.82734741],[5.04612368,43.82748558],[5.04670362,43.82618021],[5.04632852,43.82608733],[5.0460807,43.82607667],[5.04524969,43.82641273]]]]},"bbox":[5.04214425,43.82607667,5.05559491,43.83787093]},{"type":"Feature","id":"fr-quartier-84035-0f16ba7fde04","properties":{"id":"fr-quartier-84035-0f16ba7fde04","kind":"quartier","name":"Vignères-Saint-Jacques","cityCode":"84035","cityName":"Cavaillon","sourceType":"iris","sourceIds":["840350203"],"colorIndex":10,"center":[5.01227870538779,43.86166281800967]},"geometry":{"type":"MultiPolygon","coordinates":[[[[4.99734168,43.84500032],[4.99683176,43.84528602],[4.99220762,43.84996877],[4.9872799,43.85932079],[4.98328624,43.86616298],[4.97395222,43.88255573],[4.97364695,43.88243792],[4.97356032,43.8824881],[4.97382371,43.88330252],[4.97461215,43.88295969],[4.97447916,43.88411706],[4.98285852,43.88455841],[4.98306887,43.88480934],[4.98365219,43.88605094],[4.98433456,43.88799291],[4.98436091,43.88853616],[4.98417104,43.88916166],[4.99017033,43.88986264],[4.99558618,43.89060548],[4.99601114,43.88919517],[4.99612075,43.8881291],[4.99633228,43.8875572],[4.99808717,43.88580927],[4.99878767,43.88473509],[4.99892189,43.88433833],[4.99870031,43.88309289],[5.00052115,43.88277146],[5.00130561,43.88271027],[5.00167182,43.88257662],[5.00800194,43.88179689],[5.01139681,43.88121946],[5.0117708,43.88123687],[5.01768034,43.87993859],[5.02213624,43.87906933],[5.02642312,43.87831556],[5.03058429,43.87742441],[5.03427048,43.87696777],[5.04021439,43.8759953],[5.04354942,43.87567634],[5.04604381,43.875202],[5.0484588,43.87490913],[5.04826228,43.87463465],[5.04666618,43.87155971],[5.04545558,43.86958482],[5.04459409,43.86787073],[5.04358479,43.8657102],[5.04331252,43.86554246],[5.04335454,43.86497813],[5.04331314,43.86444688],[5.04307147,43.86356919],[5.03938601,43.85534355],[5.03913819,43.85495298],[5.03887794,43.85470219],[5.03811191,43.85418718],[5.03710284,43.85344984],[5.03688456,43.85318926],[5.03687728,43.85302015],[5.03679525,43.85295237],[5.03664855,43.85292],[5.03641421,43.85266241],[5.03623342,43.8523021],[5.03593806,43.85148392],[5.03567735,43.85055617],[5.03550834,43.85049091],[5.03740601,43.84942834],[5.03828231,43.84881693],[5.03857428,43.84845859],[5.03922972,43.84744531],[5.03928822,43.84727228],[5.03912583,43.84655604],[5.03887097,43.84575782],[5.03875122,43.84574836],[5.03859583,43.84557662],[5.03843669,43.84554359],[5.03834628,43.84548496],[5.03817396,43.84487334],[5.03775087,43.84490285],[5.0374398,43.84392294],[5.03768074,43.84345933],[5.03735349,43.84279299],[5.03732583,43.84212195],[5.0372583,43.84211151],[5.03721667,43.84195565],[5.03733354,43.84195437],[5.0373344,43.84166449],[5.03728232,43.84149442],[5.03686538,43.84099809],[5.03621161,43.83961408],[5.03624765,43.83961341],[5.03618579,43.83930849],[5.03574946,43.83934905],[5.0346598,43.83808659],[5.0344607,43.83724501],[5.03451357,43.83705319],[5.03410228,43.83646942],[5.0338839,43.83533024],[5.03388187,43.83523846],[5.0339631,43.83521444],[5.03390028,43.8351616],[5.03364076,43.83513763],[5.03354642,43.83503767],[5.03357763,43.83497137],[5.03364531,43.8349512],[5.0340583,43.83495431],[5.03445153,43.83478673],[5.03430014,43.83462122],[5.03432447,43.83457126],[5.03425992,43.83443473],[5.03433268,43.83431275],[5.03429484,43.83422793],[5.03445591,43.83414121],[5.03421067,43.83340042],[5.03305112,43.83317539],[5.0327601,43.83299987],[5.03238002,43.83283772],[5.03331845,43.83163646],[5.03077504,43.83159023],[5.03046131,43.83165009],[5.03014891,43.83160729],[5.03002594,43.83154117],[5.02929263,43.83137658],[5.02844635,43.83086661],[5.02826013,43.83080525],[5.02789414,43.83082916],[5.02752058,43.83095494],[5.0280178,43.83066933],[5.02850952,43.83022899],[5.03249615,43.82764141],[5.03062086,43.82658621],[5.03001758,43.82735001],[5.02985652,43.82743672],[5.0234233,43.8308519],[5.00677961,43.83922607],[5.00580301,43.83989038],[5.00485121,43.84026975],[5.00366229,43.84101626],[5.00286336,43.84167727],[5.00083293,43.84307923],[4.99734168,43.84500032]]]]},"bbox":[4.97356032,43.82658621,5.0484588,43.89060548]}]}