{"type":"FeatureCollection","metadata":{"sourceType":"iris","referenceFile":"le-pontet-quartiers.geojson","source":"IGN / INSEE - Contours IRIS WFS Géoplateforme","sourceUrl":"https://geoservices.ign.fr/contoursiris","license":"Licence Ouverte / Open Licence 2.0","sourceYear":"2026"},"features":[{"type":"Feature","id":"fr-quartier-84092-1b0fd4a9a0f9","properties":{"id":"fr-quartier-84092-1b0fd4a9a0f9","kind":"quartier","name":"Arbalestière","cityCode":"84092","cityName":"Le Pontet","sourceType":"iris","sourceIds":["840920101"],"colorIndex":0,"center":[4.878219881485388,43.96313960691295]},"geometry":{"type":"MultiPolygon","coordinates":[[[[4.88243892,43.96842099],[4.88330364,43.96048679],[4.87981261,43.95998875],[4.87959214,43.95987911],[4.87841233,43.95981567],[4.87777766,43.95984368],[4.877493,43.95982787],[4.8773502,43.9597682],[4.87738712,43.95850456],[4.87777297,43.95841421],[4.8772947,43.9567192],[4.87624389,43.95682457],[4.87591193,43.95692389],[4.8755552,43.95710375],[4.87560866,43.95766818],[4.87578774,43.95811161],[4.87629143,43.96016358],[4.87585402,43.96031602],[4.87589208,43.96056383],[4.87434455,43.96118093],[4.87479685,43.96178442],[4.8747434,43.96186456],[4.87477261,43.96191897],[4.87318654,43.9624647],[4.87297342,43.96250256],[4.87296626,43.9625882],[4.8729081,43.96263871],[4.87277019,43.96265188],[4.87269543,43.96261445],[4.87106248,43.96321406],[4.87049236,43.96327333],[4.8709714,43.96340106],[4.87147807,43.96368676],[4.87176998,43.96396083],[4.87256041,43.96506897],[4.87309587,43.96535777],[4.87350435,43.9654615],[4.87478869,43.96563033],[4.87480286,43.9656823],[4.87492455,43.96574413],[4.87500668,43.96574002],[4.87509824,43.96568173],[4.87624078,43.9659349],[4.87673164,43.96607951],[4.8796311,43.96707305],[4.88070227,43.96754165],[4.88160586,43.96803023],[4.88243892,43.96842099]]]]},"bbox":[4.87049236,43.9567192,4.88330364,43.96842099]},{"type":"Feature","id":"fr-quartier-84092-adc2efa4e0a9","properties":{"id":"fr-quartier-84092-adc2efa4e0a9","kind":"quartier","name":"Centre Ville","cityCode":"84092","cityName":"Le Pontet","sourceType":"iris","sourceIds":["840920106"],"colorIndex":1,"center":[4.856958560805843,43.963705429099605]},"geometry":{"type":"MultiPolygon","coordinates":[[[[4.85071529,43.96441568],[4.85122614,43.96491025],[4.85284276,43.96702269],[4.8529975,43.9671434],[4.85446355,43.96703661],[4.85488739,43.96703842],[4.85494533,43.96659723],[4.85503919,43.96634088],[4.85512122,43.96629537],[4.85591919,43.96626562],[4.85662799,43.9659088],[4.85686653,43.96615321],[4.85710585,43.96630668],[4.85748227,43.96665137],[4.85822455,43.96739855],[4.85829013,43.96707785],[4.85825737,43.96695238],[4.85829512,43.96547177],[4.85846465,43.96547249],[4.8588486,43.96558929],[4.86070498,43.966331],[4.86106467,43.96631497],[4.86249132,43.96511768],[4.86273107,43.96497856],[4.86201188,43.96436696],[4.86236572,43.96413408],[4.86287276,43.96454674],[4.86301671,43.96456589],[4.8637166,43.96412906],[4.86392214,43.96378257],[4.86332208,43.96353623],[4.86360667,43.96259605],[4.86270687,43.96248266],[4.86188387,43.96231664],[4.85875581,43.96128961],[4.85759406,43.9610537],[4.85729291,43.96087607],[4.85641728,43.96054707],[4.85381045,43.95944624],[4.85350414,43.95987633],[4.85335921,43.96051705],[4.8527607,43.96154354],[4.85295461,43.96191114],[4.85274718,43.96216312],[4.85294473,43.96279623],[4.85302376,43.96281199],[4.85317749,43.96317037],[4.85317435,43.96322714],[4.85300947,43.96336947],[4.85312974,43.96361859],[4.85226369,43.96381511],[4.8509298,43.96430492],[4.85071529,43.96441568]]]]},"bbox":[4.85071529,43.95944624,4.86392214,43.96739855]},{"type":"Feature","id":"fr-quartier-84092-a4d82298f27c","properties":{"id":"fr-quartier-84092-a4d82298f27c","kind":"quartier","name":"Fargues-Pigeonnier","cityCode":"84092","cityName":"Le Pontet","sourceType":"iris","sourceIds":["840920103"],"colorIndex":2,"center":[4.854431722111994,43.95885649908898]},"geometry":{"type":"MultiPolygon","coordinates":[[[[4.83817758,43.95484463],[4.83817925,43.95524429],[4.83857129,43.95549966],[4.83875775,43.95575578],[4.83872334,43.95689153],[4.83861296,43.95721746],[4.83900732,43.95874209],[4.83909429,43.95954542],[4.84343295,43.9597919],[4.84487007,43.96010613],[4.84564576,43.96039191],[4.847022,43.96121126],[4.85008427,43.96378991],[4.85071529,43.96441568],[4.8509298,43.96430492],[4.85226369,43.96381511],[4.85312974,43.96361859],[4.85300947,43.96336947],[4.85317435,43.96322714],[4.85317749,43.96317037],[4.85302376,43.96281199],[4.85294473,43.96279623],[4.85274718,43.96216312],[4.85295461,43.96191114],[4.8527607,43.96154354],[4.85335921,43.96051705],[4.85350414,43.95987633],[4.85381045,43.95944624],[4.85641728,43.96054707],[4.85729291,43.96087607],[4.85759406,43.9610537],[4.85875581,43.96128961],[4.86188387,43.96231664],[4.86270687,43.96248266],[4.86360667,43.96259605],[4.86434077,43.96267265],[4.8643467,43.96155808],[4.86523356,43.96146643],[4.86709997,43.96114559],[4.86838964,43.96075806],[4.8688996,43.96049908],[4.86939505,43.96032947],[4.86945446,43.96008899],[4.86938676,43.95992451],[4.86939715,43.95967137],[4.86971182,43.95870185],[4.86967498,43.95845222],[4.86955997,43.95828944],[4.86932161,43.95808917],[4.86909177,43.95799678],[4.86788337,43.95778158],[4.86749722,43.95767295],[4.86715476,43.95745194],[4.86683847,43.95700274],[4.86645072,43.9571876],[4.86629506,43.95719116],[4.86613886,43.95713982],[4.86604016,43.95705598],[4.86583687,43.95670836],[4.86487793,43.95615579],[4.86467626,43.95612413],[4.86392993,43.95620437],[4.86362264,43.95561007],[4.86374876,43.95508399],[4.86323394,43.95500275],[4.86280118,43.95487779],[4.86259515,43.95467425],[4.86251262,43.95439839],[4.85855157,43.95479351],[4.85848346,43.95484508],[4.85834595,43.95486992],[4.85839067,43.95589811],[4.85854227,43.95714683],[4.85835325,43.95708253],[4.85818377,43.95708271],[4.85786535,43.95713944],[4.8544154,43.95743119],[4.85431615,43.95748328],[4.85421137,43.95744185],[4.85405824,43.95748496],[4.85277434,43.95759045],[4.85207148,43.95755195],[4.85126799,43.95740803],[4.84819933,43.95662277],[4.84772278,43.95653],[4.84689173,43.95649634],[4.84681605,43.95650662],[4.84672347,43.95661081],[4.842433,43.95557326],[4.84040484,43.95512762],[4.83971684,43.95500777],[4.83817758,43.95484463]]]]},"bbox":[4.83817758,43.95439839,4.86971182,43.96441568]},{"type":"Feature","id":"fr-quartier-84092-b8d70cb888be","properties":{"id":"fr-quartier-84092-b8d70cb888be","kind":"quartier","name":"Les Orchidées","cityCode":"84092","cityName":"Le Pontet","sourceType":"iris","sourceIds":["840920105"],"colorIndex":3,"center":[4.850391727305971,43.95537789306964]},"geometry":{"type":"MultiPolygon","coordinates":[[[[4.83809064,43.95423485],[4.83817758,43.95484463],[4.83971684,43.95500777],[4.84040484,43.95512762],[4.842433,43.95557326],[4.84672347,43.95661081],[4.84681605,43.95650662],[4.84689173,43.95649634],[4.84772278,43.95653],[4.84819933,43.95662277],[4.85126799,43.95740803],[4.85207148,43.95755195],[4.85277434,43.95759045],[4.85405824,43.95748496],[4.85421137,43.95744185],[4.85431615,43.95748328],[4.8544154,43.95743119],[4.85786535,43.95713944],[4.85818377,43.95708271],[4.85835325,43.95708253],[4.85854227,43.95714683],[4.85839067,43.95589811],[4.85834595,43.95486992],[4.85833333,43.95413826],[4.85795854,43.95407082],[4.85708307,43.95404969],[4.85501977,43.95379036],[4.85311076,43.95375343],[4.85103122,43.95364554],[4.84754903,43.9538593],[4.84728433,43.95388178],[4.84688535,43.95399025],[4.846799,43.9539404],[4.8468002,43.95386206],[4.84656143,43.9539156],[4.8438865,43.954085],[4.84313777,43.95416784],[4.84038058,43.95414409],[4.83809064,43.95423485]]]]},"bbox":[4.83809064,43.95364554,4.85854227,43.95759045]},{"type":"Feature","id":"fr-quartier-84092-603cc43963a5","properties":{"id":"fr-quartier-84092-603cc43963a5","kind":"quartier","name":"Périgord","cityCode":"84092","cityName":"Le Pontet","sourceType":"iris","sourceIds":["840920107"],"colorIndex":4,"center":[4.867596277554776,43.9767482369405]},"geometry":{"type":"MultiPolygon","coordinates":[[[[4.85284276,43.96702269],[4.85373335,43.96872971],[4.85384798,43.96960999],[4.85387177,43.97045669],[4.8535647,43.97312747],[4.85360937,43.97580488],[4.85456353,43.97969118],[4.85466757,43.98043661],[4.8546781,43.98213966],[4.85441722,43.98370149],[4.85359968,43.98601274],[4.85297893,43.98709184],[4.85159732,43.98904624],[4.85886116,43.99071177],[4.86265813,43.99002689],[4.86611085,43.98953231],[4.86696072,43.98947819],[4.86931867,43.9882631],[4.87474278,43.98637336],[4.88457708,43.98159779],[4.88472814,43.98152856],[4.88487162,43.97629032],[4.88464104,43.97572624],[4.88316863,43.97383412],[4.88216619,43.97190238],[4.88219598,43.97019953],[4.88243892,43.96842099],[4.88160586,43.96803023],[4.88070227,43.96754165],[4.8796311,43.96707305],[4.87673164,43.96607951],[4.87624078,43.9659349],[4.87509824,43.96568173],[4.87500668,43.96574002],[4.87492455,43.96574413],[4.87480286,43.9656823],[4.87478869,43.96563033],[4.87350435,43.9654615],[4.87309587,43.96535777],[4.87256041,43.96506897],[4.87176998,43.96396083],[4.87147807,43.96368676],[4.8709714,43.96340106],[4.87049236,43.96327333],[4.86783267,43.9628543],[4.86434077,43.96267265],[4.86360667,43.96259605],[4.86332208,43.96353623],[4.86392214,43.96378257],[4.8637166,43.96412906],[4.86301671,43.96456589],[4.86287276,43.96454674],[4.86236572,43.96413408],[4.86201188,43.96436696],[4.86273107,43.96497856],[4.86249132,43.96511768],[4.86106467,43.96631497],[4.86070498,43.966331],[4.8588486,43.96558929],[4.85846465,43.96547249],[4.85829512,43.96547177],[4.85825737,43.96695238],[4.85829013,43.96707785],[4.85822455,43.96739855],[4.85748227,43.96665137],[4.85710585,43.96630668],[4.85686653,43.96615321],[4.85662799,43.9659088],[4.85591919,43.96626562],[4.85512122,43.96629537],[4.85503919,43.96634088],[4.85494533,43.96659723],[4.85488739,43.96703842],[4.85446355,43.96703661],[4.8529975,43.9671434],[4.85284276,43.96702269]]]]},"bbox":[4.85159732,43.96259605,4.88487162,43.99071177]},{"type":"Feature","id":"fr-quartier-84092-56a7e4b09611","properties":{"id":"fr-quartier-84092-56a7e4b09611","kind":"quartier","name":"Réalpanier","cityCode":"84092","cityName":"Le Pontet","sourceType":"iris","sourceIds":["840920104"],"colorIndex":5,"center":[4.849350837849113,43.952694465307864]},"geometry":{"type":"MultiPolygon","coordinates":[[[[4.85784551,43.95079235],[4.85579353,43.95068589],[4.85280486,43.95104987],[4.85081346,43.95112053],[4.84722156,43.95148198],[4.846756,43.95157356],[4.84463749,43.9522611],[4.84247558,43.95249381],[4.84067938,43.95255289],[4.83809807,43.95245501],[4.83791946,43.9532538],[4.83809064,43.95423485],[4.84038058,43.95414409],[4.84313777,43.95416784],[4.8438865,43.954085],[4.84656143,43.9539156],[4.8468002,43.95386206],[4.846799,43.9539404],[4.84688535,43.95399025],[4.84728433,43.95388178],[4.84754903,43.9538593],[4.85103122,43.95364554],[4.85311076,43.95375343],[4.85501977,43.95379036],[4.85708307,43.95404969],[4.85795854,43.95407082],[4.85833333,43.95413826],[4.85826346,43.95360022],[4.85817276,43.95341722],[4.85805205,43.9526955],[4.85786902,43.95243215],[4.85795095,43.9521931],[4.85772666,43.95096902],[4.85784551,43.95079235]]]]},"bbox":[4.83791946,43.95068589,4.85833333,43.95423485]},{"type":"Feature","id":"fr-quartier-84092-03d5ac035fa4","properties":{"id":"fr-quartier-84092-03d5ac035fa4","kind":"quartier","name":"Saint-Louis","cityCode":"84092","cityName":"Le Pontet","sourceType":"iris","sourceIds":["840920102"],"colorIndex":6,"center":[4.8723351357521745,43.956573041107944]},"geometry":{"type":"MultiPolygon","coordinates":[[[[4.88330364,43.96048679],[4.88413095,43.95293585],[4.88128884,43.9529443],[4.8733011,43.95331828],[4.87125024,43.95321208],[4.86823226,43.95291083],[4.86345459,43.95218311],[4.86241085,43.95193083],[4.86036716,43.95120136],[4.85974636,43.95081133],[4.85864543,43.95075264],[4.85840503,43.95071712],[4.85784551,43.95079235],[4.85772666,43.95096902],[4.85795095,43.9521931],[4.85786902,43.95243215],[4.85805205,43.9526955],[4.85817276,43.95341722],[4.85826346,43.95360022],[4.85833333,43.95413826],[4.85834595,43.95486992],[4.85848346,43.95484508],[4.85855157,43.95479351],[4.86251262,43.95439839],[4.86259515,43.95467425],[4.86280118,43.95487779],[4.86323394,43.95500275],[4.86374876,43.95508399],[4.86362264,43.95561007],[4.86392993,43.95620437],[4.86467626,43.95612413],[4.86487793,43.95615579],[4.86583687,43.95670836],[4.86604016,43.95705598],[4.86613886,43.95713982],[4.86629506,43.95719116],[4.86645072,43.9571876],[4.86683847,43.95700274],[4.86715476,43.95745194],[4.86749722,43.95767295],[4.86788337,43.95778158],[4.86909177,43.95799678],[4.86932161,43.95808917],[4.86955997,43.95828944],[4.86967498,43.95845222],[4.86971182,43.95870185],[4.86939715,43.95967137],[4.86938676,43.95992451],[4.86945446,43.96008899],[4.86939505,43.96032947],[4.8688996,43.96049908],[4.86838964,43.96075806],[4.86709997,43.96114559],[4.86523356,43.96146643],[4.8643467,43.96155808],[4.86434077,43.96267265],[4.86783267,43.9628543],[4.87049236,43.96327333],[4.87106248,43.96321406],[4.87269543,43.96261445],[4.87277019,43.96265188],[4.8729081,43.96263871],[4.87296626,43.9625882],[4.87297342,43.96250256],[4.87318654,43.9624647],[4.87477261,43.96191897],[4.8747434,43.96186456],[4.87479685,43.96178442],[4.87434455,43.96118093],[4.87589208,43.96056383],[4.87585402,43.96031602],[4.87629143,43.96016358],[4.87578774,43.95811161],[4.87560866,43.95766818],[4.8755552,43.95710375],[4.87591193,43.95692389],[4.87624389,43.95682457],[4.8772947,43.9567192],[4.87777297,43.95841421],[4.87738712,43.95850456],[4.8773502,43.9597682],[4.877493,43.95982787],[4.87777766,43.95984368],[4.87841233,43.95981567],[4.87959214,43.95987911],[4.87981261,43.95998875],[4.88330364,43.96048679]]]]},"bbox":[4.85772666,43.95071712,4.88413095,43.96327333]}]}