{"type":"FeatureCollection","metadata":{"sourceType":"iris","referenceFile":"valreas-quartiers.geojson","source":"IGN / INSEE - Contours IRIS WFS Géoplateforme","sourceUrl":"https://geoservices.ign.fr/contoursiris","license":"Licence Ouverte / Open Licence 2.0","sourceYear":"2026"},"features":[{"type":"Feature","id":"fr-quartier-84138-1b77d9ac22af","properties":{"id":"fr-quartier-84138-1b77d9ac22af","kind":"quartier","name":"Cours du Berteuil","cityCode":"84138","cityName":"Valréas","sourceType":"iris","sourceIds":["841380101"],"colorIndex":0,"center":[4.992183122816253,44.38493341270489]},"geometry":{"type":"MultiPolygon","coordinates":[[[[4.9925887,44.38137032],[4.9910393,44.38204848],[4.99092899,44.38201806],[4.99087621,44.38205233],[4.98984538,44.38183865],[4.98949597,44.38189989],[4.98806616,44.38265959],[4.98790892,44.38275878],[4.98779565,44.3828941],[4.9877271,44.38290884],[4.98767279,44.38297105],[4.9876189,44.38426148],[4.98761954,44.38460184],[4.98767298,44.38476475],[4.98881758,44.38571387],[4.98951345,44.38618484],[4.99001997,44.38644853],[4.99033764,44.38651932],[4.99062452,44.38653575],[4.99070395,44.38661625],[4.99072067,44.38673481],[4.99057074,44.38725618],[4.99058315,44.38732349],[4.99069119,44.38739628],[4.99089536,44.38745292],[4.99135005,44.3874564],[4.99305469,44.38758133],[4.9940767,44.38757723],[4.99548848,44.3874445],[4.99903352,44.3870218],[4.99916771,44.38676814],[4.99912705,44.38668333],[4.9989532,44.38659644],[4.99762963,44.38602526],[4.99642166,44.385705],[4.99560682,44.38535149],[4.99497253,44.38531076],[4.99462543,44.3852243],[4.99400004,44.38483043],[4.99347599,44.38424742],[4.99347194,44.38413223],[4.99354938,44.3840849],[4.99355494,44.38402898],[4.99351385,44.38396759],[4.99348175,44.38277056],[4.99341881,44.38265915],[4.99324588,44.38252631],[4.99315786,44.38188047],[4.99279588,44.38151334],[4.9925887,44.38137032]]]]},"bbox":[4.9876189,44.38137032,4.99916771,44.38758133]},{"type":"Feature","id":"fr-quartier-84138-dfd575c3cc54","properties":{"id":"fr-quartier-84138-dfd575c3cc54","kind":"quartier","name":"Enclave du Département de Vaucluse","cityCode":"84138","cityName":"Valréas","sourceType":"iris","sourceIds":["841380102"],"colorIndex":1,"center":[4.972439919324326,44.39188811204755]},"geometry":{"type":"MultiPolygon","coordinates":[[[[4.95933086,44.41975302],[4.9603446,44.41992858],[4.96130338,44.42062108],[4.96244887,44.4212256],[4.96408514,44.42272002],[4.96441653,44.42339847],[4.9643147,44.42469965],[4.96446263,44.42508782],[4.96467125,44.42523357],[4.966609,44.42585274],[4.96932083,44.42784295],[4.96947283,44.42805815],[4.96941756,44.4291415],[4.9696969,44.4295129],[4.96997687,44.43022737],[4.97050867,44.4308833],[4.97094671,44.43126447],[4.97162337,44.43153331],[4.97253742,44.43154577],[4.97353857,44.43124509],[4.97410585,44.43079189],[4.97475688,44.42971407],[4.97535426,44.42936749],[4.97604296,44.42911741],[4.97687825,44.42853153],[4.97733206,44.42767334],[4.97779802,44.42374884],[4.97887416,44.42344136],[4.98045003,44.42348328],[4.98509693,44.42295481],[4.98637618,44.42292275],[4.98885646,44.42324268],[4.99018366,44.42110891],[4.99063124,44.42065239],[4.99551495,44.41708641],[4.99660503,44.41611215],[5.0006615,44.41301207],[5.00127676,44.4126479],[5.00245579,44.41252382],[5.00497807,44.41205381],[5.00914365,44.41112786],[5.01032182,44.41076868],[5.01054284,44.4108727],[5.01181784,44.4155697],[5.01855229,44.41575716],[5.01916442,44.41280768],[5.0192705,44.41271749],[5.02005644,44.40981796],[5.01897142,44.40915889],[5.01702662,44.40816709],[5.01762747,44.40726191],[5.0163385,44.40651742],[5.01483035,44.40621365],[5.01430958,44.40584047],[5.01372632,44.40582863],[5.01331949,44.4055155],[5.01378104,44.40337745],[5.01477635,44.39749899],[5.01346824,44.39684486],[5.01259474,44.39654477],[5.01114326,44.39584821],[5.01066027,44.39572196],[5.00959014,44.3955425],[5.00887286,44.39550246],[5.00837979,44.39555198],[5.00697372,44.39592159],[5.00647606,44.39601891],[5.00422392,44.39615267],[5.00393532,44.39612461],[5.00304198,44.40026589],[5.00299344,44.40045587],[5.00292453,44.40053186],[5.00288977,44.40079183],[5.00273259,44.40110625],[5.00190927,44.400698],[5.0012806,44.40025289],[5.00087665,44.40008915],[5.00031127,44.39972843],[4.99953198,44.39932116],[4.99923483,44.3990159],[4.99833581,44.39788503],[4.99807138,44.39772324],[4.99757456,44.39720458],[4.99685751,44.39656655],[4.99587373,44.39580729],[4.99493884,44.39483103],[4.99437584,44.39442881],[4.99363243,44.39407399],[4.99348195,44.39390202],[4.99327643,44.39380759],[4.9923522,44.39295358],[4.99199211,44.39253508],[4.99165575,44.39229083],[4.99149502,44.39211275],[4.99088594,44.39207694],[4.99047825,44.39198256],[4.99020224,44.39199025],[4.98997946,44.39183309],[4.98978359,44.3917628],[4.98907439,44.39134339],[4.98900675,44.39124106],[4.98927818,44.3909246],[4.98938392,44.39071738],[4.99037617,44.38768652],[4.99054554,44.38753938],[4.99064862,44.3875069],[4.99070087,44.38745733],[4.99069119,44.38739628],[4.99058315,44.38732349],[4.99057074,44.38725618],[4.99072067,44.38673481],[4.99070395,44.38661625],[4.99062452,44.38653575],[4.99033764,44.38651932],[4.99001997,44.38644853],[4.98951345,44.38618484],[4.98881758,44.38571387],[4.98767298,44.38476475],[4.98761954,44.38460184],[4.9876189,44.38426148],[4.98767279,44.38297105],[4.9877271,44.38290884],[4.9875041,44.38281562],[4.9850038,44.38126513],[4.98346085,44.38037358],[4.98316791,44.38011142],[4.98292651,44.37963583],[4.98200771,44.37745528],[4.98056365,44.37389478],[4.980661,44.3736274],[4.98064364,44.37348994],[4.98035995,44.37327534],[4.98015575,44.37289272],[4.97802577,44.36758597],[4.97756212,44.36674608],[4.97691041,44.36602033],[4.97517409,44.36457117],[4.97469084,44.36406749],[4.97312357,44.36195526],[4.97230845,44.36100279],[4.97031911,44.35909168],[4.9682415,44.35676701],[4.96741932,44.35607667],[4.96648575,44.35546666],[4.96444334,44.35682678],[4.96347045,44.35718181],[4.96354154,44.35734982],[4.9623779,44.35705363],[4.96097681,44.35714884],[4.9596412,44.35634333],[4.95784754,44.35557388],[4.95340971,44.35553299],[4.95222824,44.3556269],[4.9512817,44.35620195],[4.95079917,44.35611146],[4.94999527,44.35820571],[4.94948306,44.36305102],[4.94912721,44.36481947],[4.94450275,44.36309231],[4.94206153,44.36239886],[4.93952952,44.36187445],[4.9375489,44.3612133],[4.93678608,44.3628367],[4.93570388,44.36407763],[4.93524717,44.36492756],[4.93514552,44.36489153],[4.93428257,44.36597552],[4.93286772,44.36556457],[4.93154367,44.36487107],[4.93034485,44.36457335],[4.92907235,44.36439667],[4.92857865,44.36423694],[4.92697433,44.36338263],[4.9256936,44.36285218],[4.92497015,44.36265324],[4.92370922,44.36414569],[4.9234939,44.3646798],[4.92243058,44.36556189],[4.92800786,44.36999799],[4.9306621,44.37093384],[4.93288403,44.37174305],[4.94148603,44.37779476],[4.95607484,44.39098824],[4.9564674,44.3980588],[4.95640232,44.39999143],[4.95648301,44.40192597],[4.95639379,44.40246963],[4.95657967,44.40265092],[4.95653122,44.40335683],[4.95661008,44.40389391],[4.96000798,44.40578657],[4.96054551,44.4057842],[4.96037787,44.40681911],[4.96031854,44.40836985],[4.960243,44.40847385],[4.96284289,44.41023746],[4.96402011,44.41194266],[4.96294933,44.41337817],[4.96229846,44.41406331],[4.96187286,44.41472373],[4.96105558,44.41553789],[4.96004586,44.41689034],[4.95933086,44.41975302]]]]},"bbox":[4.92243058,44.35546666,5.02005644,44.43154577]},{"type":"Feature","id":"fr-quartier-84138-44ac801429ad","properties":{"id":"fr-quartier-84138-44ac801429ad","kind":"quartier","name":"les Françons","cityCode":"84138","cityName":"Valréas","sourceType":"iris","sourceIds":["841380103"],"colorIndex":2,"center":[4.995561082735291,44.35341802234942]},"geometry":{"type":"MultiPolygon","coordinates":[[[[5.02466224,44.36113253],[5.02350451,44.36027588],[5.02323133,44.35997205],[5.0221973,44.35836034],[5.02171174,44.3570636],[5.0217638,44.35651787],[5.02224611,44.35596603],[5.02231166,44.35569289],[5.02229884,44.35550943],[5.02182481,44.35481669],[5.02159121,44.3542492],[5.02175887,44.35363741],[5.02172388,44.3529384],[5.02200327,44.35215168],[5.02197801,44.35084649],[5.02177448,44.34960941],[5.02217635,44.34902033],[5.02230747,44.34854519],[5.02312058,44.34791163],[5.02325805,44.34757953],[5.02313951,44.34710628],[5.02320974,44.34636752],[5.02294954,44.34565194],[5.02209497,44.34484194],[5.02167299,44.34416356],[5.02109626,44.34375455],[5.02083418,44.34340729],[5.02016462,44.34240028],[5.01990169,44.34150106],[5.01840167,44.3413422],[5.01808043,44.34123554],[5.01740101,44.34047812],[5.01565169,44.3395179],[5.01446875,44.33850045],[5.01434522,44.33820197],[5.01432329,44.33733794],[5.01409362,44.33694776],[5.01381572,44.3368592],[5.0135775,44.33700493],[5.01341354,44.33701603],[5.01311112,44.33683788],[5.012579,44.33686833],[5.01160578,44.33652505],[5.0106192,44.33552199],[5.00991413,44.33506214],[5.00970656,44.33479851],[5.00961398,44.33441661],[5.00902184,44.33388626],[5.00852694,44.33355043],[5.00815492,44.33307099],[5.0080318,44.33239341],[5.00706575,44.32973494],[5.00655216,44.32950749],[5.00596363,44.32950202],[5.0057148,44.32941832],[5.00521066,44.32949324],[5.0046619,44.32947713],[5.00445657,44.32934671],[5.00434493,44.32909842],[5.0032473,44.32817566],[5.0022598,44.3278839],[5.00144065,44.32752783],[5.00072901,44.32694829],[5.00007857,44.32717803],[4.99955969,44.3272613],[4.99936046,44.32755216],[4.99901381,44.32782409],[4.99867961,44.32798684],[4.99843078,44.32800937],[4.99709843,44.32754193],[4.99565929,44.32671265],[4.99515363,44.32656604],[4.9944402,44.32650335],[4.99377001,44.32635072],[4.99321397,44.32637611],[4.99215842,44.32664375],[4.99113669,44.32705304],[4.99042682,44.32780605],[4.99003117,44.32843451],[4.98957048,44.328568],[4.98922863,44.32876418],[4.98912306,44.32893717],[4.98906572,44.32944785],[4.98847347,44.33005104],[4.98797332,44.33038334],[4.98752327,44.33121447],[4.9871296,44.33154303],[4.98673268,44.33170778],[4.98631921,44.33211594],[4.9856809,44.33244442],[4.9846664,44.33277788],[4.98268224,44.33297034],[4.9809328,44.3334899],[4.98029644,44.33355268],[4.97970129,44.33382542],[4.97883431,44.33454065],[4.97853683,44.33464415],[4.97769971,44.33531742],[4.97689262,44.33580916],[4.97646962,44.33623456],[4.97606456,44.33645524],[4.97562321,44.33700253],[4.97548723,44.33774422],[4.9755582,44.33798066],[4.97546156,44.33869914],[4.97528794,44.33911736],[4.97472228,44.33973441],[4.97425183,44.33995175],[4.9739008,44.3398518],[4.97322421,44.33984233],[4.97211816,44.34018272],[4.97141107,44.34005402],[4.97116419,44.33991798],[4.97076869,44.33990976],[4.97032576,44.33980064],[4.9697412,44.33987594],[4.96927637,44.34021922],[4.96896344,44.34081821],[4.96820867,44.34141159],[4.96885954,44.3417277],[4.96921767,44.34242903],[4.96982784,44.34283681],[4.97030038,44.34347215],[4.97050508,44.34358554],[4.97092556,44.34366175],[4.9719627,44.34364677],[4.97344391,44.34377238],[4.97451179,44.34449517],[4.97501232,44.3447077],[4.97461519,44.34504979],[4.97445465,44.34533991],[4.97325672,44.34942146],[4.97220615,44.35139695],[4.96997599,44.35290731],[4.96648575,44.35546666],[4.96741932,44.35607667],[4.9682415,44.35676701],[4.97031911,44.35909168],[4.97230845,44.36100279],[4.97312357,44.36195526],[4.97469084,44.36406749],[4.97517409,44.36457117],[4.97691041,44.36602033],[4.97756212,44.36674608],[4.97802577,44.36758597],[4.98015575,44.37289272],[4.98035995,44.37327534],[4.98064364,44.37348994],[4.980661,44.3736274],[4.98056365,44.37389478],[4.98200771,44.37745528],[4.98292651,44.37963583],[4.98316791,44.38011142],[4.98346085,44.38037358],[4.9850038,44.38126513],[4.9875041,44.38281562],[4.9877271,44.38290884],[4.98779565,44.3828941],[4.98790892,44.38275878],[4.98806616,44.38265959],[4.98949597,44.38189989],[4.98984538,44.38183865],[4.99087621,44.38205233],[4.99092899,44.38201806],[4.9910393,44.38204848],[4.9925887,44.38137032],[4.99844359,44.37881224],[4.99867138,44.37872076],[4.99876715,44.37873072],[4.99879871,44.37866442],[4.99951477,44.37835606],[5.00020271,44.37728733],[5.00092479,44.37675915],[5.00142819,44.37654469],[5.00164506,44.37635795],[5.00216036,44.37630266],[5.00334211,44.37563823],[5.00347881,44.37552769],[5.00392009,44.37543861],[5.00518455,44.374842],[5.00565875,44.37451279],[5.00594043,44.3743843],[5.00624429,44.37413744],[5.00652436,44.37414044],[5.00673692,44.37408073],[5.00719795,44.37373466],[5.00781285,44.3734443],[5.0092682,44.37228587],[5.01070444,44.37154558],[5.01100866,44.3693303],[5.00958181,44.36520437],[5.00961121,44.36518402],[5.00981532,44.36520551],[5.01025668,44.36533342],[5.01061034,44.36532425],[5.01339396,44.36407486],[5.01487399,44.36400815],[5.01571433,44.36384869],[5.01593254,44.36377265],[5.01607086,44.36363865],[5.01618275,44.36297387],[5.01635851,44.36262217],[5.02401163,44.36270049],[5.02452649,44.36267211],[5.02455534,44.36158293],[5.02466224,44.36113253]]]]},"bbox":[4.96648575,44.32635072,5.02466224,44.38290884]},{"type":"Feature","id":"fr-quartier-84138-59e43396a063","properties":{"id":"fr-quartier-84138-59e43396a063","kind":"quartier","name":"Route de Saint-pierre","cityCode":"84138","cityName":"Valréas","sourceType":"iris","sourceIds":["841380104"],"colorIndex":3,"center":[5.02764273899404,44.378881361266004]},"geometry":{"type":"MultiPolygon","coordinates":[[[[5.01477635,44.39749899],[5.01514598,44.39479352],[5.01580343,44.39273022],[5.01820729,44.39326339],[5.01867827,44.39273608],[5.01901391,44.39204107],[5.01964116,44.39156493],[5.02014262,44.39139994],[5.02115795,44.39127686],[5.02220204,44.39122076],[5.02277615,44.39129666],[5.02434859,44.39179274],[5.02549776,44.39204084],[5.02595211,44.39231433],[5.02643221,44.39242976],[5.02678596,44.39231339],[5.0271554,44.39207427],[5.02701248,44.39176534],[5.02708802,44.39156044],[5.02750146,44.39153302],[5.02815784,44.39176675],[5.02942351,44.39193613],[5.02952443,44.3915984],[5.02988851,44.39131524],[5.03048803,44.39090888],[5.03107344,44.39070448],[5.0314379,44.39071216],[5.03210782,44.39111312],[5.0324925,44.39119426],[5.03314528,44.39111738],[5.03395601,44.39078814],[5.03451832,44.39071021],[5.03542445,44.39072948],[5.035547,44.39061016],[5.0356107,44.39021637],[5.03524631,44.38954686],[5.03528653,44.38937322],[5.03563133,44.38928851],[5.03656326,44.38936222],[5.03682845,44.38926366],[5.03713875,44.38888333],[5.03699657,44.38807283],[5.03662715,44.38754299],[5.03654899,44.38708069],[5.0367742,44.38695316],[5.0371203,44.38697467],[5.03761323,44.38716815],[5.03775079,44.38732679],[5.0385937,44.38743995],[5.04119618,44.38710808],[5.04201001,44.38735503],[5.04238583,44.38733005],[5.04299069,44.38714503],[5.04339896,44.38648822],[5.04393931,44.38597752],[5.04435623,44.38528272],[5.04439837,44.38443279],[5.04420832,44.3840032],[5.04420597,44.38345125],[5.04477109,44.38247995],[5.04489999,44.38232898],[5.04515651,44.38223507],[5.0453079,44.38201164],[5.04568293,44.3818615],[5.04610028,44.38184023],[5.04734741,44.38129297],[5.0478978,44.38113145],[5.04967249,44.38107681],[5.05048396,44.38153715],[5.05185453,44.38134863],[5.0523144,44.3814265],[5.05314039,44.38173256],[5.05372473,44.38167664],[5.05447764,44.38211373],[5.05537484,44.38285878],[5.05599049,44.3832498],[5.05917279,44.38371169],[5.05970777,44.38398983],[5.05984189,44.3839486],[5.06035546,44.38419023],[5.0628842,44.38408164],[5.06437261,44.38347383],[5.06426596,44.38271853],[5.06443425,44.38251276],[5.06562457,44.38172053],[5.0662193,44.38167425],[5.06762183,44.38198379],[5.06839263,44.38256362],[5.06841503,44.38290178],[5.06894898,44.38345995],[5.06925476,44.38347762],[5.0710044,44.38318267],[5.07087917,44.38161279],[5.0720264,44.38112116],[5.07219647,44.38089644],[5.07222056,44.3807312],[5.07205147,44.38033097],[5.07218509,44.37931631],[5.07206176,44.378691],[5.07147618,44.37747647],[5.07110092,44.37706842],[5.07031611,44.37644745],[5.06887874,44.37566224],[5.06742065,44.37393011],[5.06536534,44.37347884],[5.06528219,44.37340206],[5.06423191,44.37314082],[5.05897848,44.37111861],[5.05869586,44.37107977],[5.05820869,44.37076652],[5.05799717,44.37085332],[5.0579276,44.37049353],[5.05762165,44.37015797],[5.05743782,44.36972828],[5.05736333,44.36912906],[5.05682839,44.36760376],[5.05469557,44.36479993],[5.05196451,44.36480946],[5.05136344,44.36543839],[5.0496361,44.3643603],[5.04955823,44.36397725],[5.04735487,44.36372202],[5.04676121,44.36344581],[5.04514288,44.36291401],[5.04233886,44.36249875],[5.04179677,44.36399997],[5.03924779,44.36425434],[5.03748882,44.36431303],[5.03493044,44.36381739],[5.03237753,44.36102453],[5.02735688,44.36295137],[5.02642388,44.36251923],[5.02494443,44.3614425],[5.02466224,44.36113253],[5.02455534,44.36158293],[5.02452649,44.36267211],[5.02401163,44.36270049],[5.01635851,44.36262217],[5.01618275,44.36297387],[5.01607086,44.36363865],[5.01593254,44.36377265],[5.01571433,44.36384869],[5.01487399,44.36400815],[5.01339396,44.36407486],[5.01061034,44.36532425],[5.01025668,44.36533342],[5.00981532,44.36520551],[5.00961121,44.36518402],[5.00958181,44.36520437],[5.01100866,44.3693303],[5.01070444,44.37154558],[5.0092682,44.37228587],[5.00781285,44.3734443],[5.00719795,44.37373466],[5.00673692,44.37408073],[5.00652436,44.37414044],[5.00624429,44.37413744],[5.00594043,44.3743843],[5.00565875,44.37451279],[5.00518455,44.374842],[5.00392009,44.37543861],[5.00347881,44.37552769],[5.00334211,44.37563823],[5.00216036,44.37630266],[5.00164506,44.37635795],[5.00142819,44.37654469],[5.00092479,44.37675915],[5.00020271,44.37728733],[4.99951477,44.37835606],[4.99879871,44.37866442],[4.99876715,44.37873072],[4.99867138,44.37872076],[4.99844359,44.37881224],[4.9925887,44.38137032],[4.99279588,44.38151334],[4.99315786,44.38188047],[4.99324588,44.38252631],[4.99341881,44.38265915],[4.99348175,44.38277056],[4.99351385,44.38396759],[4.99355494,44.38402898],[4.99354938,44.3840849],[4.99347194,44.38413223],[4.99347599,44.38424742],[4.99400004,44.38483043],[4.99462543,44.3852243],[4.99497253,44.38531076],[4.99560682,44.38535149],[4.99642166,44.385705],[4.99762963,44.38602526],[4.9989532,44.38659644],[4.99912705,44.38668333],[4.99916771,44.38676814],[4.99903352,44.3870218],[4.99548848,44.3874445],[4.9940767,44.38757723],[4.99305469,44.38758133],[4.99135005,44.3874564],[4.99089536,44.38745292],[4.99069119,44.38739628],[4.99070087,44.38745733],[4.99064862,44.3875069],[4.99054554,44.38753938],[4.99037617,44.38768652],[4.98938392,44.39071738],[4.98927818,44.3909246],[4.98900675,44.39124106],[4.98907439,44.39134339],[4.98978359,44.3917628],[4.98997946,44.39183309],[4.99020224,44.39199025],[4.99047825,44.39198256],[4.99088594,44.39207694],[4.99149502,44.39211275],[4.99165575,44.39229083],[4.99199211,44.39253508],[4.9923522,44.39295358],[4.99327643,44.39380759],[4.99348195,44.39390202],[4.99363243,44.39407399],[4.99437584,44.39442881],[4.99493884,44.39483103],[4.99587373,44.39580729],[4.99685751,44.39656655],[4.99757456,44.39720458],[4.99807138,44.39772324],[4.99833581,44.39788503],[4.99923483,44.3990159],[4.99953198,44.39932116],[5.00031127,44.39972843],[5.00087665,44.40008915],[5.0012806,44.40025289],[5.00190927,44.400698],[5.00273259,44.40110625],[5.00288977,44.40079183],[5.00292453,44.40053186],[5.00299344,44.40045587],[5.00304198,44.40026589],[5.00393532,44.39612461],[5.00422392,44.39615267],[5.00647606,44.39601891],[5.00697372,44.39592159],[5.00837979,44.39555198],[5.00887286,44.39550246],[5.00959014,44.3955425],[5.01066027,44.39572196],[5.01114326,44.39584821],[5.01259474,44.39654477],[5.01346824,44.39684486],[5.01477635,44.39749899]]]]},"bbox":[4.98900675,44.36102453,5.07222056,44.40110625]}]}