{"type":"FeatureCollection","metadata":{"sourceType":"iris","referenceFile":"vaison-la-romaine-quartiers.geojson","source":"IGN / INSEE - Contours IRIS WFS Géoplateforme","sourceUrl":"https://geoservices.ign.fr/contoursiris","license":"Licence Ouverte / Open Licence 2.0","sourceYear":"2026"},"features":[{"type":"Feature","id":"fr-quartier-84137-aa9ee73a106e","properties":{"id":"fr-quartier-84137-aa9ee73a106e","kind":"quartier","name":"Est Nord","cityCode":"84137","cityName":"Vaison-la-Romaine","sourceType":"iris","sourceIds":["841370102"],"colorIndex":0,"center":[5.071320866939127,44.25937132074894]},"geometry":{"type":"MultiPolygon","coordinates":[[[[5.04469817,44.27668495],[5.0443811,44.27755436],[5.04429925,44.27896955],[5.04450181,44.27933856],[5.04458951,44.27930271],[5.04514245,44.27941307],[5.0460629,44.27894032],[5.04684098,44.2790726],[5.04678971,44.27879803],[5.04689086,44.27868359],[5.047619,44.27833507],[5.0482876,44.27779586],[5.04877591,44.27778225],[5.04896756,44.27753646],[5.04918993,44.27741256],[5.04986998,44.27746831],[5.05022511,44.27713392],[5.05086939,44.27678964],[5.05096811,44.27650417],[5.05130078,44.27610357],[5.05185312,44.27626704],[5.05222439,44.27620608],[5.0523767,44.27605106],[5.05232534,44.27532448],[5.05244928,44.27521681],[5.05266541,44.27523259],[5.05322562,44.27547514],[5.05433791,44.27518152],[5.05453933,44.27531012],[5.05462292,44.27571465],[5.05504784,44.27606237],[5.0554938,44.2759874],[5.05583662,44.27583331],[5.05808431,44.27584886],[5.05858171,44.27567206],[5.05919958,44.27587929],[5.05982653,44.27571537],[5.05997889,44.27573502],[5.06049136,44.27614591],[5.06124531,44.27620021],[5.0621427,44.27658046],[5.06330544,44.27660635],[5.06493053,44.27711068],[5.06634165,44.2773831],[5.06701016,44.27739664],[5.06785805,44.27727714],[5.0687342,44.27690137],[5.07009352,44.27712789],[5.07077515,44.27715737],[5.07231219,44.27686186],[5.07419815,44.27712883],[5.07523508,44.27690125],[5.07597467,44.2761174],[5.07856125,44.27436758],[5.07981438,44.27415928],[5.0803373,44.27392878],[5.08049622,44.2739906],[5.08108081,44.27380124],[5.08158016,44.27323621],[5.08248107,44.27285627],[5.08276136,44.27281044],[5.08330968,44.27296482],[5.08363118,44.27274442],[5.08359511,44.27203556],[5.08367463,44.2717099],[5.08418635,44.27069801],[5.0846992,44.27039924],[5.08339584,44.26927141],[5.08342717,44.26920328],[5.08300795,44.26877542],[5.0829821,44.26732081],[5.08334493,44.2668277],[5.08361976,44.2662246],[5.08368224,44.26567415],[5.08381834,44.26542215],[5.08526963,44.26423575],[5.08544802,44.26414593],[5.08627927,44.26405721],[5.08669733,44.2639088],[5.08739089,44.26310865],[5.0874075,44.26257257],[5.08762536,44.26195524],[5.0874985,44.2610275],[5.0877016,44.25939657],[5.08805824,44.2581589],[5.08843098,44.257291],[5.08835983,44.25688986],[5.08843442,44.25602313],[5.08831721,44.25539146],[5.08842697,44.25513995],[5.08834175,44.25483273],[5.09069686,44.25098542],[5.09260107,44.24650284],[5.09318694,44.24700222],[5.09401908,44.2479291],[5.09527634,44.24873172],[5.09517959,44.24821492],[5.09458716,44.24757251],[5.09433427,44.24693172],[5.09386849,44.2462923],[5.0934289,44.24537774],[5.09314696,44.24418645],[5.09129135,44.24090914],[5.09089855,44.24058257],[5.08935312,44.2400087],[5.08983701,44.23896581],[5.08922761,44.23877661],[5.08908616,44.23867665],[5.0889447,44.23840651],[5.08878776,44.23822581],[5.08868666,44.23816741],[5.0884727,44.23813906],[5.0881636,44.2378397],[5.08805804,44.23779578],[5.08789084,44.23757476],[5.08750623,44.23746952],[5.08708616,44.2370471],[5.08668105,44.23686121],[5.08643417,44.2368569],[5.08614197,44.23691467],[5.08563609,44.23678112],[5.08504623,44.23688416],[5.08472507,44.23690377],[5.08444243,44.23698297],[5.08371129,44.23702476],[5.08353182,44.23694622],[5.08333922,44.23674908],[5.08299908,44.23621709],[5.08276011,44.23595059],[5.08248499,44.23582525],[5.08219476,44.23576593],[5.08175172,44.23577433],[5.08131667,44.23613734],[5.08103934,44.23489281],[5.0798699,44.23558398],[5.07943138,44.23592094],[5.07901444,44.23633402],[5.07882839,44.2364519],[5.07778282,44.23669679],[5.07722196,44.2367029],[5.07665102,44.23681005],[5.07572091,44.23716439],[5.07514163,44.2379686],[5.07495403,44.2385241],[5.07468546,44.2387831],[5.07457709,44.23883377],[5.07475059,44.23902318],[5.07479004,44.2391773],[5.07469534,44.23932766],[5.07461955,44.2399954],[5.07445629,44.24049732],[5.07338349,44.24205639],[5.07179359,44.24420598],[5.07162517,44.24453331],[5.07151854,44.24456324],[5.07145351,44.2446347],[5.07144641,44.24471497],[5.07152711,44.24479808],[5.07147883,44.2450196],[5.07103317,44.24626248],[5.06888913,44.24582837],[5.06826771,44.24737169],[5.06775164,44.24895353],[5.06765939,44.24903451],[5.06634151,44.2498931],[5.06592464,44.25021069],[5.06530309,44.25089319],[5.06519881,44.25091946],[5.06520602,44.25097965],[5.06516299,44.25100207],[5.0632383,44.25143623],[5.06272149,44.25159],[5.06205373,44.25189878],[5.06177875,44.25198498],[5.06055393,44.25213312],[5.06024266,44.25228933],[5.05891775,44.25320109],[5.05754671,44.25432709],[5.05526432,44.25651192],[5.05437956,44.25764679],[5.05359484,44.25829266],[5.05258622,44.25898412],[5.05219431,44.25933721],[5.05176286,44.25994855],[5.05155337,44.2624016],[5.05127793,44.26341252],[5.05097788,44.26488671],[5.05077773,44.26538117],[5.05044666,44.26585918],[5.04952646,44.26653996],[5.04816212,44.26786561],[5.04775789,44.26840079],[5.04727639,44.26922555],[5.04647029,44.27175185],[5.04558323,44.27401582],[5.04526962,44.2751544],[5.04469817,44.27668495]]]]},"bbox":[5.04429925,44.23489281,5.09527634,44.27941307]},{"type":"Feature","id":"fr-quartier-84137-1f6bc6fc3e8c","properties":{"id":"fr-quartier-84137-1f6bc6fc3e8c","kind":"quartier","name":"Ouest Sud","cityCode":"84137","cityName":"Vaison-la-Romaine","sourceType":"iris","sourceIds":["841370101"],"colorIndex":1,"center":[5.053342513951988,44.24079711085051]},"geometry":{"type":"MultiPolygon","coordinates":[[[[5.02571233,44.26974141],[5.02546817,44.26995751],[5.02497658,44.27184304],[5.02516557,44.27285433],[5.02528664,44.27294574],[5.02652783,44.2728202],[5.02822958,44.27281762],[5.02828955,44.27267244],[5.03062207,44.27261135],[5.03266777,44.27224037],[5.03408728,44.2717765],[5.03663844,44.27162839],[5.03678764,44.27152568],[5.0385836,44.27180932],[5.03921709,44.27200106],[5.04009136,44.27258091],[5.04058343,44.27277797],[5.04164958,44.27360456],[5.04208142,44.27407736],[5.0424208,44.27462751],[5.04336734,44.27568052],[5.04469817,44.27668495],[5.04526962,44.2751544],[5.04558323,44.27401582],[5.04647029,44.27175185],[5.04727639,44.26922555],[5.04775789,44.26840079],[5.04816212,44.26786561],[5.04952646,44.26653996],[5.05044666,44.26585918],[5.05077773,44.26538117],[5.05097788,44.26488671],[5.05127793,44.26341252],[5.05155337,44.2624016],[5.05176286,44.25994855],[5.05219431,44.25933721],[5.05258622,44.25898412],[5.05359484,44.25829266],[5.05437956,44.25764679],[5.05526432,44.25651192],[5.05754671,44.25432709],[5.05891775,44.25320109],[5.06024266,44.25228933],[5.06055393,44.25213312],[5.06177875,44.25198498],[5.06205373,44.25189878],[5.06272149,44.25159],[5.0632383,44.25143623],[5.06516299,44.25100207],[5.06520602,44.25097965],[5.06519881,44.25091946],[5.06530309,44.25089319],[5.06592464,44.25021069],[5.06634151,44.2498931],[5.06765939,44.24903451],[5.06775164,44.24895353],[5.06826771,44.24737169],[5.06888913,44.24582837],[5.07103317,44.24626248],[5.07147883,44.2450196],[5.07152711,44.24479808],[5.07144641,44.24471497],[5.07145351,44.2446347],[5.07151854,44.24456324],[5.07162517,44.24453331],[5.07179359,44.24420598],[5.07338349,44.24205639],[5.07445629,44.24049732],[5.07461955,44.2399954],[5.07469534,44.23932766],[5.07479004,44.2391773],[5.07475059,44.23902318],[5.07457709,44.23883377],[5.07468546,44.2387831],[5.07495403,44.2385241],[5.07514163,44.2379686],[5.07572091,44.23716439],[5.07665102,44.23681005],[5.07722196,44.2367029],[5.07778282,44.23669679],[5.07882839,44.2364519],[5.07901444,44.23633402],[5.07943138,44.23592094],[5.0798699,44.23558398],[5.08103934,44.23489281],[5.08131667,44.23613734],[5.08175172,44.23577433],[5.08219476,44.23576593],[5.08248499,44.23582525],[5.08276011,44.23595059],[5.08299908,44.23621709],[5.08333922,44.23674908],[5.08353182,44.23694622],[5.08371129,44.23702476],[5.08444243,44.23698297],[5.08472507,44.23690377],[5.08504623,44.23688416],[5.08563609,44.23678112],[5.08614197,44.23691467],[5.08643417,44.2368569],[5.08668105,44.23686121],[5.08708616,44.2370471],[5.08750623,44.23746952],[5.08789084,44.23757476],[5.08805804,44.23779578],[5.0881636,44.2378397],[5.0884727,44.23813906],[5.08868666,44.23816741],[5.08878776,44.23822581],[5.0889447,44.23840651],[5.08908616,44.23867665],[5.08922761,44.23877661],[5.08983701,44.23896581],[5.09026488,44.23891894],[5.09037596,44.23884029],[5.0905977,44.23816166],[5.09233165,44.23607027],[5.09272784,44.23574217],[5.09292137,44.23538641],[5.0928698,44.23527844],[5.09304453,44.23509233],[5.09221957,44.23530614],[5.09222595,44.23537716],[5.09200179,44.23537782],[5.09180855,44.2338724],[5.09013869,44.23130919],[5.08860902,44.22921692],[5.08822705,44.22938626],[5.08774126,44.22979708],[5.08706276,44.23068879],[5.08683861,44.23041662],[5.08661393,44.23033445],[5.08617898,44.22998255],[5.08575681,44.229842],[5.08492365,44.22938781],[5.08446914,44.22898045],[5.08376118,44.22890025],[5.08332716,44.22867527],[5.0825763,44.22862019],[5.08227783,44.22802797],[5.08208682,44.22790734],[5.08201117,44.22693723],[5.08181612,44.226877],[5.0813036,44.22693534],[5.08091361,44.22685179],[5.07803282,44.22529281],[5.07648159,44.22416874],[5.07611703,44.22341028],[5.07539284,44.22250736],[5.07489433,44.22236551],[5.07441129,44.22233862],[5.07387837,44.22166618],[5.07367334,44.22068051],[5.07330159,44.21986095],[5.07242197,44.21881328],[5.07155907,44.21791385],[5.07067087,44.21807108],[5.07064336,44.21711086],[5.07009499,44.21597769],[5.06990232,44.21501969],[5.0696911,44.21468602],[5.06982073,44.21408661],[5.06983136,44.21293569],[5.06960172,44.21247451],[5.0686074,44.21119397],[5.0680852,44.21026109],[5.06807905,44.20998929],[5.06829585,44.20948008],[5.06812844,44.20897361],[5.06821406,44.20795634],[5.06844934,44.20709562],[5.06599483,44.20455501],[5.061745,44.20130616],[5.06043889,44.19956322],[5.06024381,44.20022327],[5.06020827,44.2008308],[5.05990236,44.20116159],[5.05976968,44.20147201],[5.0594716,44.20167389],[5.05910902,44.20216781],[5.05792293,44.20314808],[5.05653623,44.20398173],[5.05601798,44.20442993],[5.0553004,44.20525013],[5.0539408,44.20624711],[5.05369316,44.20663351],[5.05385196,44.20687095],[5.05423448,44.20699524],[5.05416065,44.20723793],[5.05431057,44.2078528],[5.05465522,44.20845231],[5.05466118,44.20861698],[5.05483261,44.20871911],[5.05466743,44.20968923],[5.05485626,44.21051406],[5.0547028,44.21097794],[5.05500478,44.21147021],[5.05563959,44.21192293],[5.05584838,44.2123305],[5.0558097,44.21257613],[5.05546342,44.21286624],[5.0554938,44.21322133],[5.05505885,44.21369048],[5.05519713,44.21401744],[5.0550139,44.21538858],[5.05490364,44.21562835],[5.05522287,44.21670015],[5.05518909,44.2176345],[5.05535364,44.21875602],[5.05575171,44.22010277],[5.05614676,44.22070855],[5.05670134,44.22205417],[5.05679023,44.22298712],[5.05700907,44.22391224],[5.05688967,44.22455647],[5.05651616,44.22544496],[5.05647474,44.22578789],[5.05715283,44.22677374],[5.05765942,44.22772588],[5.05742854,44.22847304],[5.05710256,44.22911844],[5.05685666,44.23048806],[5.05695789,44.23058611],[5.05742267,44.23055669],[5.05774559,44.23069021],[5.05784632,44.23080897],[5.05783502,44.23101538],[5.05858705,44.23124079],[5.05863288,44.23136509],[5.0585277,44.23153814],[5.05890728,44.23154182],[5.05884884,44.23179503],[5.05909283,44.23192732],[5.05855863,44.23242536],[5.05864363,44.23280104],[5.05737839,44.23303185],[5.05750143,44.23348965],[5.05682415,44.23456753],[5.05686647,44.23511328],[5.05718497,44.2355044],[5.05563498,44.23579364],[5.05466217,44.2361477],[5.05416389,44.23622185],[5.05297418,44.23618918],[5.05150537,44.23661191],[5.05114241,44.23679157],[5.04986627,44.23797243],[5.04886615,44.23909859],[5.04815446,44.23856982],[5.04771293,44.23803061],[5.04657094,44.23709927],[5.04626157,44.23727251],[5.04607971,44.23726509],[5.04564787,44.2374109],[5.04528646,44.23735641],[5.04497598,44.23711638],[5.04474351,44.23758172],[5.04457187,44.23764974],[5.0443473,44.23756928],[5.04401413,44.23770785],[5.04299682,44.23773308],[5.04220481,44.23761545],[5.04153334,44.23761083],[5.04116203,44.23738543],[5.04057442,44.23678678],[5.04027932,44.23638167],[5.04021179,44.23603627],[5.03971165,44.23543149],[5.03924175,44.23399507],[5.03878356,44.23333727],[5.03862419,44.23294496],[5.03852156,44.23137746],[5.03465354,44.23281782],[5.03431353,44.23287004],[5.03347448,44.23339431],[5.03306495,44.2334289],[5.03218122,44.23379012],[5.03125647,44.23395039],[5.03071806,44.23423317],[5.03044427,44.23452636],[5.02969736,44.23451226],[5.02923097,44.23495307],[5.0290639,44.23532443],[5.0283666,44.23578751],[5.02776102,44.23601389],[5.02730005,44.23629162],[5.0268803,44.23712774],[5.02658888,44.23727898],[5.02606097,44.23729593],[5.02513516,44.23791988],[5.02492499,44.23827761],[5.02432986,44.23862263],[5.02391243,44.23913906],[5.0232966,44.23925485],[5.0231329,44.24024921],[5.02194561,44.24394202],[5.02461923,44.24547027],[5.02720713,44.24648862],[5.02824556,44.24722488],[5.02927202,44.24846649],[5.02890621,44.25284474],[5.02910532,44.25385852],[5.02917859,44.25517177],[5.02953435,44.25622138],[5.02994653,44.25699172],[5.02918746,44.25892272],[5.02921712,44.25922651],[5.02956035,44.25933002],[5.02960483,44.25980282],[5.02953702,44.26109436],[5.02964587,44.26560793],[5.0306239,44.26776167],[5.0307647,44.26777437],[5.03009307,44.26840537],[5.02839028,44.26855027],[5.02782288,44.26869761],[5.02571233,44.26974141]]]]},"bbox":[5.02194561,44.19956322,5.09304453,44.27668495]}]}