{"type":"FeatureCollection","metadata":{"sourceType":"iris","referenceFile":"la-roche-sur-yon-quartiers.geojson","source":"IGN / INSEE - Contours IRIS WFS Géoplateforme","sourceUrl":"https://geoservices.ign.fr/contoursiris","license":"Licence Ouverte / Open Licence 2.0","sourceYear":"2026"},"features":[{"type":"Feature","id":"fr-quartier-85191-2dd1d304b74e","properties":{"id":"fr-quartier-85191-2dd1d304b74e","kind":"quartier","name":"Garenne","cityCode":"85191","cityName":"La Roche-sur-Yon","sourceType":"iris","sourceIds":["851910303"],"colorIndex":0,"center":[-1.4246446946117903,46.678609675753094]},"geometry":{"type":"MultiPolygon","coordinates":[[[[-1.42183389,46.68096177],[-1.42151396,46.68081449],[-1.42077691,46.68058139],[-1.41996704,46.6804034],[-1.41809232,46.68016636],[-1.41810314,46.68007396],[-1.41799212,46.67998174],[-1.41847178,46.67938698],[-1.41865966,46.67907131],[-1.41906058,46.6778474],[-1.41925564,46.67774879],[-1.41946405,46.67752432],[-1.42141366,46.67778099],[-1.42128782,46.67665405],[-1.4213995,46.67625564],[-1.42304948,46.67663026],[-1.4257948,46.67674703],[-1.42744872,46.67702494],[-1.4286791,46.6768809],[-1.42974423,46.67663863],[-1.43010553,46.67729292],[-1.43019099,46.67768192],[-1.43023828,46.67781176],[-1.43016391,46.67807256],[-1.43013675,46.67854256],[-1.43010023,46.67984533],[-1.43013632,46.68044816],[-1.42465575,46.68040736],[-1.42452231,46.68032955],[-1.42448908,46.67968061],[-1.42437481,46.6796291],[-1.42192992,46.67959901],[-1.42173529,46.67959029],[-1.42162959,46.67954747],[-1.42183389,46.68096177]]]]},"bbox":[-1.43023828,46.67625564,-1.41799212,46.68096177]},{"type":"Feature","id":"fr-quartier-85191-583d3c84ec54","properties":{"id":"fr-quartier-85191-583d3c84ec54","kind":"quartier","name":"Gare SNCF","cityCode":"85191","cityName":"La Roche-sur-Yon","sourceType":"iris","sourceIds":["851910802"],"colorIndex":1,"center":[-1.440904847757548,46.670032150373]},"geometry":{"type":"MultiPolygon","coordinates":[[[[-1.4354831,46.66709522],[-1.43567082,46.66645846],[-1.43599218,46.66567765],[-1.43662084,46.66489035],[-1.43721409,46.66424691],[-1.43763241,46.66389973],[-1.43835524,46.66343163],[-1.43965186,46.66285201],[-1.44072049,46.66252832],[-1.44270406,46.6620041],[-1.44329183,46.66284799],[-1.44321918,46.66288868],[-1.44322698,46.66298398],[-1.44333812,46.6630455],[-1.44346625,46.66305857],[-1.44430249,46.66444113],[-1.44475483,46.66532634],[-1.4448438,46.66540496],[-1.44505296,46.66578373],[-1.44592029,46.667561],[-1.44601958,46.66778171],[-1.44614383,46.6683712],[-1.44614258,46.66872387],[-1.44607148,46.66910361],[-1.44643001,46.66913028],[-1.44657258,46.66919148],[-1.44750998,46.66983961],[-1.44781933,46.67017752],[-1.44793397,46.67047338],[-1.44793115,46.67066288],[-1.44781799,46.67068892],[-1.44772043,46.67077748],[-1.44776941,46.67089552],[-1.44704751,46.67179112],[-1.44598728,46.67340328],[-1.44554828,46.67521048],[-1.44522525,46.67585791],[-1.44496107,46.67607198],[-1.4438458,46.67669331],[-1.44372873,46.67679976],[-1.44327793,46.67671894],[-1.44223675,46.67677283],[-1.44166112,46.67667159],[-1.43971728,46.67616612],[-1.43703244,46.67536285],[-1.43648942,46.67700719],[-1.43649728,46.67732794],[-1.43572187,46.67736337],[-1.43544059,46.67682323],[-1.43547128,46.67674989],[-1.43540308,46.67668489],[-1.43543828,46.6766186],[-1.43533687,46.67643584],[-1.43530875,46.67617179],[-1.4350554,46.67323077],[-1.43513586,46.67314108],[-1.43502375,46.67306786],[-1.43502202,46.67299849],[-1.43591042,46.67296771],[-1.43548873,46.66825477],[-1.4354831,46.66709522]]]]},"bbox":[-1.44793397,46.6620041,-1.43502202,46.67736337]},{"type":"Feature","id":"fr-quartier-85191-beff7b8d9936","properties":{"id":"fr-quartier-85191-beff7b8d9936","kind":"quartier","name":"Gare SNCF-Sacré-Cœur","cityCode":"85191","cityName":"La Roche-sur-Yon","sourceType":"iris","sourceIds":["851910201"],"colorIndex":2,"center":[-1.4333673094239703,46.673579800698136]},"geometry":{"type":"MultiPolygon","coordinates":[[[[-1.43622706,46.67968138],[-1.43070518,46.67773689],[-1.43019099,46.67768192],[-1.43010553,46.67729292],[-1.42974423,46.67663863],[-1.42879867,46.67473262],[-1.42886111,46.67469503],[-1.42887033,46.67461531],[-1.42901339,46.6745701],[-1.43359682,46.67349915],[-1.43357235,46.6734081],[-1.43368159,46.673366],[-1.43363015,46.67321738],[-1.43195922,46.66996956],[-1.4317171,46.66941077],[-1.43076144,46.66758903],[-1.43223357,46.66737608],[-1.43247362,46.66726759],[-1.43255752,46.66730042],[-1.43267463,46.66722645],[-1.43314267,46.66707036],[-1.43369997,46.66694869],[-1.43434139,46.66692657],[-1.4354831,46.66709522],[-1.43548873,46.66825477],[-1.43591042,46.67296771],[-1.43502202,46.67299849],[-1.43502375,46.67306786],[-1.43513586,46.67314108],[-1.4350554,46.67323077],[-1.43530875,46.67617179],[-1.43533687,46.67643584],[-1.43543828,46.6766186],[-1.43540308,46.67668489],[-1.43547128,46.67674989],[-1.43544059,46.67682323],[-1.43572187,46.67736337],[-1.43649728,46.67732794],[-1.43669523,46.67984634],[-1.43622706,46.67968138]]]]},"bbox":[-1.43669523,46.66692657,-1.42879867,46.67984634]},{"type":"Feature","id":"fr-quartier-85191-7604b557ade5","properties":{"id":"fr-quartier-85191-7604b557ade5","kind":"quartier","name":"La Courtaisière","cityCode":"85191","cityName":"La Roche-sur-Yon","sourceType":"iris","sourceIds":["851911004"],"colorIndex":3,"center":[-1.4053187114555974,46.693667965642334]},"geometry":{"type":"MultiPolygon","coordinates":[[[[-1.40408056,46.72060558],[-1.40322749,46.72035426],[-1.40306069,46.72020556],[-1.40301605,46.71989795],[-1.40325229,46.71931894],[-1.40269306,46.71863248],[-1.4022462,46.71839352],[-1.40132417,46.71829363],[-1.40147139,46.71813648],[-1.40169236,46.71811267],[-1.40183803,46.71767782],[-1.40071656,46.71662245],[-1.4002863,46.71665248],[-1.40004729,46.71614672],[-1.39929546,46.71515381],[-1.39945793,46.71502313],[-1.39948283,46.71478049],[-1.3996104,46.71470435],[-1.40019077,46.71455313],[-1.40052966,46.71430205],[-1.40099918,46.7142714],[-1.4012925,46.7141375],[-1.40160357,46.7140931],[-1.40197299,46.71415377],[-1.40282609,46.71398665],[-1.40300045,46.71403497],[-1.40303815,46.71424094],[-1.40346911,46.71421988],[-1.40371957,46.71404253],[-1.40399434,46.71403558],[-1.40438428,46.71420368],[-1.40478546,46.71413867],[-1.40520728,46.71395653],[-1.4053584,46.7136378],[-1.40546587,46.71278146],[-1.40516281,46.71252075],[-1.40518328,46.71198158],[-1.40463526,46.71088348],[-1.40472528,46.71084575],[-1.40494048,46.71028287],[-1.40433861,46.71028164],[-1.40426733,46.70996874],[-1.40416036,46.70992686],[-1.40268111,46.71001883],[-1.40139849,46.70993279],[-1.4012119,46.71038004],[-1.39981612,46.71019192],[-1.39953576,46.71085739],[-1.398745,46.71054774],[-1.3992776,46.70937119],[-1.39771199,46.70931941],[-1.39730624,46.70955411],[-1.39438252,46.71042641],[-1.39244778,46.710285],[-1.39191102,46.71013242],[-1.39100397,46.71008599],[-1.39107153,46.70899312],[-1.39121116,46.70856392],[-1.39153379,46.7078689],[-1.39177036,46.7066938],[-1.39170266,46.70527425],[-1.39157324,46.7046308],[-1.39195795,46.70290534],[-1.39235671,46.70192062],[-1.39304868,46.70133589],[-1.39319093,46.70113385],[-1.3936346,46.70020241],[-1.39379545,46.69974444],[-1.39410905,46.69931128],[-1.39421153,46.69852097],[-1.39457156,46.69835386],[-1.39438659,46.69802819],[-1.39345337,46.69721896],[-1.39385308,46.69695925],[-1.39405779,46.69660601],[-1.39407963,46.69553202],[-1.39403025,46.69514883],[-1.3937427,46.6936367],[-1.39339867,46.69278685],[-1.39299069,46.69033693],[-1.39282209,46.69006744],[-1.39157654,46.68907267],[-1.39153196,46.68899141],[-1.39190512,46.68829084],[-1.3900089,46.68848612],[-1.38956962,46.68945525],[-1.38867445,46.68938943],[-1.38850382,46.68945097],[-1.38797763,46.68976691],[-1.38779937,46.68981521],[-1.38390908,46.69055384],[-1.38284994,46.6908757],[-1.38258087,46.69078949],[-1.38220256,46.69043782],[-1.38205282,46.69035247],[-1.38166718,46.69020218],[-1.3810365,46.69029572],[-1.3807498,46.69023453],[-1.37887954,46.68904707],[-1.37752836,46.68810399],[-1.39511841,46.67988993],[-1.39606515,46.67955873],[-1.39797542,46.67915267],[-1.39848501,46.67895726],[-1.39877146,46.67878935],[-1.39896145,46.67856292],[-1.39894794,46.6782992],[-1.39877546,46.67811103],[-1.39872767,46.67795775],[-1.3987932,46.67771535],[-1.39900968,46.67752488],[-1.39922459,46.67742825],[-1.39974987,46.67734586],[-1.40028163,46.67710089],[-1.40149991,46.67679078],[-1.40216713,46.67653609],[-1.40303933,46.67607872],[-1.40387997,46.67545844],[-1.40439133,46.67493016],[-1.40574707,46.67336028],[-1.40622758,46.67288819],[-1.40843253,46.6710322],[-1.40961361,46.66997581],[-1.40973323,46.66993243],[-1.41021469,46.66987602],[-1.4104454,46.6697003],[-1.4108836,46.66962752],[-1.4112739,46.66967473],[-1.41245622,46.67008553],[-1.41332413,46.67031905],[-1.41555465,46.67063443],[-1.41527238,46.6716743],[-1.41511098,46.67186449],[-1.41496623,46.67259784],[-1.41500927,46.67298216],[-1.41554008,46.67467609],[-1.41555405,46.67497676],[-1.41516061,46.67510104],[-1.41504761,46.67519377],[-1.41498337,46.67540277],[-1.41490728,46.67544989],[-1.41472324,46.67541008],[-1.41460617,46.67524325],[-1.41449779,46.67518339],[-1.41435544,46.67520511],[-1.41425622,46.67529009],[-1.41397844,46.67527374],[-1.41397927,46.67533233],[-1.4141447,46.67580392],[-1.41439347,46.67609194],[-1.41444939,46.67628007],[-1.41443034,46.67659374],[-1.41461712,46.67694097],[-1.41474627,46.67704692],[-1.41493941,46.67711793],[-1.41518114,46.67712576],[-1.41554655,46.67707561],[-1.41567813,46.67709849],[-1.41577666,46.6774401],[-1.41592256,46.67762296],[-1.41588601,46.67789852],[-1.41623111,46.67830728],[-1.41616806,46.67845039],[-1.41585355,46.67856261],[-1.41585811,46.67865082],[-1.41604492,46.67891778],[-1.41599372,46.67898107],[-1.41577967,46.67902359],[-1.41567609,46.67910333],[-1.41559076,46.67947186],[-1.41569249,46.6796916],[-1.41602179,46.67988994],[-1.41618847,46.68045708],[-1.41612404,46.68058311],[-1.41575889,46.6805079],[-1.41548198,46.68055103],[-1.41523479,46.68063721],[-1.41509086,46.680962],[-1.41496246,46.6810427],[-1.41509954,46.68127821],[-1.41508919,46.68168263],[-1.41447971,46.68190631],[-1.41437718,46.68204733],[-1.41438647,46.68229047],[-1.41420272,46.68267361],[-1.4141555,46.68272142],[-1.41394295,46.68275035],[-1.41380532,46.68281427],[-1.41386308,46.68292838],[-1.41381966,46.68302294],[-1.41395433,46.68309982],[-1.4140129,46.68322382],[-1.41399617,46.6832921],[-1.41384125,46.68333684],[-1.41402461,46.68351285],[-1.41406051,46.68385777],[-1.41399081,46.68391907],[-1.41389269,46.68393728],[-1.4134833,46.68381777],[-1.41293979,46.68395053],[-1.41257713,46.68408353],[-1.4126671,46.68417476],[-1.41299815,46.68436222],[-1.41300612,46.68446021],[-1.41282043,46.68464231],[-1.41279371,46.68474885],[-1.41289465,46.68486221],[-1.41314289,46.68491758],[-1.41317691,46.68499743],[-1.41313984,46.68504125],[-1.41278522,46.68514418],[-1.41263601,46.68529151],[-1.41248244,46.68556256],[-1.41236064,46.68566014],[-1.4124148,46.68595565],[-1.42413484,46.68596202],[-1.424258,46.68953122],[-1.42495003,46.69242554],[-1.42499184,46.69279368],[-1.42492003,46.69342413],[-1.42436885,46.69565037],[-1.42425582,46.69638612],[-1.42440313,46.69669788],[-1.42439451,46.69681725],[-1.4242349,46.69693344],[-1.42375668,46.69696812],[-1.42278058,46.69742333],[-1.42120132,46.69834278],[-1.42090246,46.69856804],[-1.42081636,46.69866966],[-1.42020133,46.70000192],[-1.4193808,46.70101654],[-1.41894872,46.70147329],[-1.41715509,46.70293392],[-1.41680398,46.7033713],[-1.41653935,46.70395325],[-1.41574943,46.7065214],[-1.41550205,46.70805681],[-1.41538686,46.70834893],[-1.41462896,46.70929796],[-1.41447259,46.70958355],[-1.4140572,46.71097211],[-1.41386979,46.71134366],[-1.41367091,46.71160653],[-1.41269065,46.71251451],[-1.41247171,46.71277274],[-1.41166465,46.71431163],[-1.41127751,46.71495238],[-1.41082499,46.71541799],[-1.4089673,46.71676008],[-1.40619159,46.71811757],[-1.40580063,46.7183409],[-1.4055822,46.71855761],[-1.40408056,46.72060558]]]]},"bbox":[-1.42499184,46.66962752,-1.37752836,46.72060558]},{"type":"Feature","id":"fr-quartier-85191-5a0dde71b9a5","properties":{"id":"fr-quartier-85191-5a0dde71b9a5","kind":"quartier","name":"La Généraudière-L'Angelmière","cityCode":"85191","cityName":"La Roche-sur-Yon","sourceType":"iris","sourceIds":["851910701"],"colorIndex":4,"center":[-1.4495797010771467,46.65137256645866]},"geometry":{"type":"MultiPolygon","coordinates":[[[[-1.43788189,46.63898104],[-1.43822163,46.63905265],[-1.43901123,46.63945403],[-1.43940322,46.64032535],[-1.44020735,46.64085603],[-1.44025171,46.64111044],[-1.44015495,46.64143254],[-1.440519,46.64170522],[-1.44090149,46.64226757],[-1.44082835,46.64236601],[-1.44054951,46.64243093],[-1.4405931,46.64264388],[-1.44076931,46.64289317],[-1.44138589,46.64337159],[-1.44120281,46.64374304],[-1.44140817,46.64418871],[-1.44124754,46.64459446],[-1.44128575,46.64472555],[-1.44229787,46.64510836],[-1.44273033,46.64543249],[-1.44284177,46.64567437],[-1.44300864,46.64579326],[-1.44353418,46.64581435],[-1.44394789,46.64610133],[-1.44430235,46.64600009],[-1.44500277,46.64610999],[-1.44542902,46.64600597],[-1.44583673,46.64610739],[-1.44653858,46.6460107],[-1.44665596,46.6460368],[-1.44667187,46.64618319],[-1.4472391,46.64624955],[-1.44760294,46.64659887],[-1.44834146,46.64694987],[-1.44810856,46.64765605],[-1.44818241,46.64803015],[-1.4487307,46.64813692],[-1.44893403,46.64828505],[-1.44918557,46.64911761],[-1.44945908,46.64941903],[-1.44962948,46.64943676],[-1.45030419,46.64907235],[-1.45061259,46.64901618],[-1.45109741,46.64927511],[-1.45187711,46.64905722],[-1.45196686,46.64908169],[-1.45203486,46.64951194],[-1.45226408,46.64959231],[-1.4527055,46.64948136],[-1.45302018,46.64907051],[-1.45342837,46.64901766],[-1.45381803,46.64915402],[-1.45353188,46.64946547],[-1.45354577,46.64955511],[-1.45385315,46.64966221],[-1.45401753,46.64984611],[-1.45439629,46.64980162],[-1.45433202,46.64957685],[-1.45450795,46.64939054],[-1.45464728,46.64939684],[-1.45468453,46.64953157],[-1.45488932,46.6496174],[-1.45561944,46.64943388],[-1.45585092,46.64946186],[-1.45601046,46.64960265],[-1.45592733,46.64975469],[-1.45599365,46.64982877],[-1.45660165,46.64965721],[-1.45691882,46.6496602],[-1.45713477,46.64978618],[-1.45703977,46.65016054],[-1.45714325,46.65025662],[-1.45731412,46.65029596],[-1.45752874,46.6500387],[-1.4582959,46.65009903],[-1.45841753,46.6501448],[-1.45845704,46.65029116],[-1.45915041,46.65058524],[-1.45921113,46.65079842],[-1.45893787,46.65097951],[-1.45891946,46.65109025],[-1.45929686,46.65125232],[-1.45940695,46.65139685],[-1.45989908,46.65150485],[-1.46016095,46.65177513],[-1.46021681,46.65213641],[-1.46100108,46.65246841],[-1.46192304,46.65256328],[-1.46311696,46.65233369],[-1.46375174,46.65231256],[-1.46425311,46.6519909],[-1.46475293,46.65188935],[-1.46490439,46.65194747],[-1.46507529,46.65228983],[-1.46505347,46.65243859],[-1.46597738,46.65233403],[-1.4660483,46.65241604],[-1.46586669,46.65261251],[-1.4658927,46.65273776],[-1.46562359,46.65287361],[-1.4658063,46.65315238],[-1.46626961,46.65298912],[-1.46638578,46.65301615],[-1.466359,46.65356643],[-1.46601858,46.65431653],[-1.46620825,46.6546798],[-1.46661047,46.65482465],[-1.46701933,46.65481141],[-1.46787807,46.65461468],[-1.46823282,46.65464414],[-1.46853949,46.65435981],[-1.46897623,46.65427153],[-1.4702776,46.65418558],[-1.4711631,46.65421866],[-1.47145399,46.65441113],[-1.45070061,46.65988823],[-1.45027305,46.65908235],[-1.44999012,46.65813918],[-1.4499271,46.65804152],[-1.44982588,46.6580211],[-1.44984761,46.65793458],[-1.44975499,46.65782725],[-1.44864638,46.65695763],[-1.44786272,46.65621697],[-1.4461979,46.65480797],[-1.44609114,46.65475169],[-1.44583425,46.6547815],[-1.44555932,46.65420687],[-1.44527664,46.65388957],[-1.44486365,46.65353223],[-1.44422611,46.6531836],[-1.44355399,46.65297248],[-1.44353527,46.65290377],[-1.44346473,46.65287404],[-1.44339633,46.65287038],[-1.44333002,46.65292435],[-1.44192408,46.65264429],[-1.44156925,46.65264543],[-1.44148141,46.65258029],[-1.44132616,46.65261968],[-1.44118198,46.65257026],[-1.43817312,46.65056032],[-1.43811392,46.65033264],[-1.43802959,46.65021416],[-1.43789403,46.65014185],[-1.43756495,46.65013746],[-1.43738129,46.65005349],[-1.43571881,46.64892384],[-1.43547875,46.64871038],[-1.43517456,46.64825681],[-1.43482639,46.64829103],[-1.43472528,46.64820747],[-1.43483918,46.64787027],[-1.43501056,46.64778788],[-1.43500485,46.64728487],[-1.43525017,46.64658456],[-1.43537662,46.64646513],[-1.4355731,46.64640161],[-1.43567588,46.64626505],[-1.43565819,46.64612866],[-1.43554015,46.64601419],[-1.43549667,46.64589863],[-1.43552092,46.64577865],[-1.43599804,46.64466172],[-1.4372821,46.64047069],[-1.43788189,46.63898104]]]]},"bbox":[-1.47145399,46.63898104,-1.43472528,46.65988823]},{"type":"Feature","id":"fr-quartier-85191-f4768b8e7a7f","properties":{"id":"fr-quartier-85191-f4768b8e7a7f","kind":"quartier","name":"La Vigne aux Roses","cityCode":"85191","cityName":"La Roche-sur-Yon","sourceType":"iris","sourceIds":["851910502"],"colorIndex":5,"center":[-1.4264229870838196,46.66067014514034]},"geometry":{"type":"MultiPolygon","coordinates":[[[[-1.42117416,46.65998894],[-1.42126986,46.6599095],[-1.42037213,46.65813325],[-1.42114273,46.65792946],[-1.42136878,46.65793878],[-1.42175634,46.65780838],[-1.42207611,46.6578267],[-1.42239787,46.65778903],[-1.42333278,46.65799463],[-1.42334424,46.65789408],[-1.42349547,46.65786931],[-1.42419642,46.65795226],[-1.42459787,46.65787994],[-1.42445972,46.6575507],[-1.42448482,46.65745684],[-1.42456737,46.65745726],[-1.42579782,46.6574963],[-1.43082435,46.65784401],[-1.43139291,46.6579095],[-1.43166131,46.6579884],[-1.43180979,46.65813868],[-1.43182223,46.65825904],[-1.43183522,46.65873922],[-1.43126829,46.65968915],[-1.43119298,46.65992203],[-1.43115457,46.66068737],[-1.43084391,46.66187268],[-1.43093506,46.66255636],[-1.43086026,46.66337362],[-1.43070348,46.66360334],[-1.43047757,46.6637726],[-1.42928839,46.66440207],[-1.42916924,46.6643706],[-1.42905599,46.66428299],[-1.42871233,46.66361899],[-1.42861418,46.66353982],[-1.42847756,46.66351895],[-1.42551568,46.66420876],[-1.42489873,46.66440213],[-1.42480128,46.66437974],[-1.42378491,46.66462281],[-1.42373772,46.66459036],[-1.42363326,46.66459439],[-1.42255195,46.66239958],[-1.42196642,46.66128948],[-1.42190088,46.66125684],[-1.42193023,46.66121512],[-1.421449,46.66024348],[-1.42134454,46.66005452],[-1.42121294,46.66004697],[-1.42117416,46.65998894]]]]},"bbox":[-1.43183522,46.65745684,-1.42037213,46.66462281]},{"type":"Feature","id":"fr-quartier-85191-cb4c467593e4","properties":{"id":"fr-quartier-85191-cb4c467593e4","kind":"quartier","name":"Le Bourg sous La Roche-Coteau","cityCode":"85191","cityName":"La Roche-sur-Yon","sourceType":"iris","sourceIds":["851910404"],"colorIndex":6,"center":[-1.4085806210453524,46.65685204214526]},"geometry":{"type":"MultiPolygon","coordinates":[[[[-1.39951662,46.66444257],[-1.39808907,46.66418715],[-1.3981718,46.6638016],[-1.398173,46.6634282],[-1.39736689,46.66332477],[-1.39744098,46.66310729],[-1.39657865,46.66300511],[-1.3966372,46.66272511],[-1.39631725,46.66265622],[-1.39617336,46.66256164],[-1.39697108,46.66146147],[-1.39499933,46.66158582],[-1.39498986,46.66143648],[-1.39503656,46.66136615],[-1.39515045,46.66131669],[-1.39567493,46.66122623],[-1.3959227,46.66108326],[-1.39618969,46.66059505],[-1.39624542,46.66008609],[-1.39633751,46.65994548],[-1.39667668,46.65978276],[-1.39738133,46.65966914],[-1.39745588,46.65957069],[-1.39740195,46.65921203],[-1.39743246,46.65908731],[-1.39786101,46.65900953],[-1.39815478,46.65890086],[-1.39837957,46.65837729],[-1.39828594,46.6581915],[-1.39828417,46.65807253],[-1.39854886,46.65781527],[-1.39867688,46.65750373],[-1.3987908,46.65737401],[-1.39922088,46.65713745],[-1.39939967,46.65683839],[-1.39939849,46.65677531],[-1.39917082,46.65664878],[-1.39917696,46.65654664],[-1.39941601,46.65642563],[-1.39951621,46.65627208],[-1.39952008,46.65614207],[-1.39935601,46.6557173],[-1.39939168,46.65565641],[-1.39957649,46.65560963],[-1.39966938,46.65551137],[-1.39974128,46.65508927],[-1.39984466,46.65492657],[-1.39996801,46.65480009],[-1.40006222,46.65476671],[-1.40059025,46.65467248],[-1.40070358,46.65453556],[-1.40086045,46.65445107],[-1.40237642,46.6541845],[-1.40290021,46.65402188],[-1.40327193,46.6537605],[-1.40335566,46.65364635],[-1.40342875,46.65338472],[-1.40368051,46.65319468],[-1.403701,46.65310822],[-1.40363154,46.65297832],[-1.4036883,46.65288686],[-1.40388555,46.65278368],[-1.40495736,46.65256391],[-1.40523091,46.65246501],[-1.40578207,46.6520912],[-1.40589723,46.65186402],[-1.40621672,46.65165333],[-1.40631442,46.65148544],[-1.40666872,46.65130046],[-1.4067337,46.65127812],[-1.4078484,46.6518133],[-1.4104679,46.64926761],[-1.41156607,46.64835776],[-1.41234782,46.64790559],[-1.41427492,46.64714144],[-1.41468271,46.64685788],[-1.41578071,46.64913687],[-1.41670578,46.6509148],[-1.42037213,46.65813325],[-1.42126986,46.6599095],[-1.42117416,46.65998894],[-1.40543261,46.66094253],[-1.40486691,46.66218806],[-1.40471588,46.66239317],[-1.40598957,46.66302868],[-1.40732063,46.6635799],[-1.40609144,46.66504304],[-1.40413971,46.66417207],[-1.40295405,46.66533319],[-1.40178012,46.66476506],[-1.40127564,46.66524797],[-1.40102027,46.66507111],[-1.40082589,46.6645961],[-1.40069816,46.66444228],[-1.40028441,46.66423452],[-1.39974647,46.66404596],[-1.39951662,46.66444257]]]]},"bbox":[-1.42126986,46.64685788,-1.39498986,46.66533319]},{"type":"Feature","id":"fr-quartier-85191-4cdaa1366fbc","properties":{"id":"fr-quartier-85191-4cdaa1366fbc","kind":"quartier","name":"Les Halles","cityCode":"85191","cityName":"La Roche-sur-Yon","sourceType":"iris","sourceIds":["851910102"],"colorIndex":7,"center":[-1.4217287355332717,46.67018463607894]},"geometry":{"type":"MultiPolygon","coordinates":[[[[-1.41903386,46.66869755],[-1.41919281,46.6681395],[-1.41961662,46.66658643],[-1.41988742,46.66664633],[-1.4209122,46.66722996],[-1.4226791,46.66841623],[-1.42288155,46.6686501],[-1.42300923,46.66891482],[-1.42354074,46.66868508],[-1.42549761,46.66821452],[-1.42641062,46.67007762],[-1.42525811,46.67033947],[-1.4257967,46.67141801],[-1.42087233,46.6725974],[-1.42059138,46.6735236],[-1.4183174,46.67245064],[-1.41812559,46.67229932],[-1.41806565,46.67217447],[-1.41814452,46.67172683],[-1.41903386,46.66869755]]]]},"bbox":[-1.42641062,46.66658643,-1.41806565,46.6735236]},{"type":"Feature","id":"fr-quartier-85191-b64634dd194f","properties":{"id":"fr-quartier-85191-b64634dd194f","kind":"quartier","name":"Les Jaulnières","cityCode":"85191","cityName":"La Roche-sur-Yon","sourceType":"iris","sourceIds":["851910601"],"colorIndex":8,"center":[-1.4278030257631666,46.65428343057265]},"geometry":{"type":"MultiPolygon","coordinates":[[[[-1.43438417,46.65001264],[-1.43742199,46.65693211],[-1.43784737,46.65814665],[-1.43808783,46.65940623],[-1.43673695,46.65933681],[-1.43602368,46.65923185],[-1.4346563,46.65897636],[-1.43225902,46.65828273],[-1.43193115,46.65829361],[-1.43182223,46.65825904],[-1.43180979,46.65813868],[-1.43166131,46.6579884],[-1.43139291,46.6579095],[-1.43082435,46.65784401],[-1.42579782,46.6574963],[-1.42456737,46.65745726],[-1.42448482,46.65745684],[-1.42445972,46.6575507],[-1.42459787,46.65787994],[-1.42419642,46.65795226],[-1.42349547,46.65786931],[-1.42334424,46.65789408],[-1.42333278,46.65799463],[-1.42239787,46.65778903],[-1.42207611,46.6578267],[-1.42175634,46.65780838],[-1.42136878,46.65793878],[-1.42114273,46.65792946],[-1.42037213,46.65813325],[-1.41670578,46.6509148],[-1.4172238,46.65081095],[-1.41777913,46.65108534],[-1.41786325,46.65105684],[-1.41799666,46.6511031],[-1.41835687,46.65111987],[-1.41862141,46.65136128],[-1.41893287,46.65137451],[-1.41912983,46.65142914],[-1.41953094,46.65133701],[-1.41968464,46.65124631],[-1.41995037,46.65121261],[-1.42001241,46.65113807],[-1.42023864,46.65115008],[-1.42043474,46.65111365],[-1.42127343,46.65071785],[-1.42196924,46.65064229],[-1.42198548,46.65053615],[-1.42189419,46.65047654],[-1.42181216,46.65027319],[-1.42206092,46.65025637],[-1.42223023,46.65018039],[-1.42245444,46.65021592],[-1.42257568,46.65027347],[-1.42275786,46.65024299],[-1.4228902,46.65030822],[-1.42296997,46.65019422],[-1.42354184,46.6500603],[-1.42373259,46.65005474],[-1.42377447,46.65008649],[-1.42414962,46.65002962],[-1.42442596,46.64993327],[-1.4249042,46.65000047],[-1.42673191,46.64959256],[-1.42689402,46.64950874],[-1.42703014,46.64949175],[-1.42716694,46.64949909],[-1.42803834,46.64979458],[-1.42817642,46.6498659],[-1.42824137,46.64998784],[-1.42834774,46.65003965],[-1.42846312,46.65002526],[-1.42854778,46.64995526],[-1.42868406,46.6499563],[-1.42903833,46.64999671],[-1.42924995,46.65013463],[-1.42950747,46.65009671],[-1.42975361,46.65014401],[-1.42995988,46.65047332],[-1.43012034,46.65057804],[-1.4303821,46.6506563],[-1.43119971,46.65062918],[-1.4317957,46.65055021],[-1.43240964,46.65075552],[-1.43304407,46.65052175],[-1.43360001,46.65043349],[-1.4337137,46.65054272],[-1.43386537,46.65055579],[-1.43399738,46.65048845],[-1.43400125,46.65035934],[-1.43411925,46.65028082],[-1.43423493,46.65004547],[-1.43438417,46.65001264]]]]},"bbox":[-1.43808783,46.64949175,-1.41670578,46.65940623]},{"type":"Feature","id":"fr-quartier-85191-c6a51177f0f2","properties":{"id":"fr-quartier-85191-c6a51177f0f2","kind":"quartier","name":"Les Robretières","cityCode":"85191","cityName":"La Roche-sur-Yon","sourceType":"iris","sourceIds":["851910301"],"colorIndex":9,"center":[-1.4206029083923764,46.68367273380391]},"geometry":{"type":"MultiPolygon","coordinates":[[[[-1.41809232,46.68016636],[-1.41996704,46.6804034],[-1.42077691,46.68058139],[-1.42151396,46.68081449],[-1.42183389,46.68096177],[-1.42202958,46.68101555],[-1.42380489,46.68176861],[-1.42642713,46.68273514],[-1.42850934,46.68384332],[-1.42919846,46.68403404],[-1.42968547,46.68406031],[-1.43006494,46.68403752],[-1.43001036,46.68568098],[-1.42880661,46.68588081],[-1.42796796,46.68594567],[-1.42413484,46.68596202],[-1.4124148,46.68595565],[-1.41236064,46.68566014],[-1.41248244,46.68556256],[-1.41263601,46.68529151],[-1.41278522,46.68514418],[-1.41313984,46.68504125],[-1.41317691,46.68499743],[-1.41314289,46.68491758],[-1.41289465,46.68486221],[-1.41279371,46.68474885],[-1.41282043,46.68464231],[-1.41300612,46.68446021],[-1.41299815,46.68436222],[-1.4126671,46.68417476],[-1.41257713,46.68408353],[-1.41293979,46.68395053],[-1.4134833,46.68381777],[-1.41389269,46.68393728],[-1.41399081,46.68391907],[-1.41406051,46.68385777],[-1.41402461,46.68351285],[-1.41384125,46.68333684],[-1.41399617,46.6832921],[-1.4140129,46.68322382],[-1.41395433,46.68309982],[-1.41381966,46.68302294],[-1.41386308,46.68292838],[-1.41380532,46.68281427],[-1.41394295,46.68275035],[-1.4141555,46.68272142],[-1.41420272,46.68267361],[-1.41438647,46.68229047],[-1.41437718,46.68204733],[-1.41447971,46.68190631],[-1.41508919,46.68168263],[-1.41509954,46.68127821],[-1.41496246,46.6810427],[-1.41509086,46.680962],[-1.41523479,46.68063721],[-1.41548198,46.68055103],[-1.41575889,46.6805079],[-1.41612404,46.68058311],[-1.41618847,46.68045708],[-1.41703361,46.68053724],[-1.41743331,46.68039287],[-1.41766041,46.68022089],[-1.41781836,46.68027793],[-1.41791227,46.6802725],[-1.41805121,46.68022476],[-1.41809232,46.68016636]]]]},"bbox":[-1.43006494,46.68016636,-1.41236064,46.68596202]},{"type":"Feature","id":"fr-quartier-85191-713fe51260ea","properties":{"id":"fr-quartier-85191-713fe51260ea","kind":"quartier","name":"Liberté","cityCode":"85191","cityName":"La Roche-sur-Yon","sourceType":"iris","sourceIds":["851910501"],"colorIndex":10,"center":[-1.4337892430073005,46.66294241918762]},"geometry":{"type":"MultiPolygon","coordinates":[[[[-1.43599218,46.66567765],[-1.43567082,46.66645846],[-1.4354831,46.66709522],[-1.43434139,46.66692657],[-1.43369997,46.66694869],[-1.43314267,46.66707036],[-1.43267463,46.66722645],[-1.43255752,46.66730042],[-1.43247362,46.66726759],[-1.43223357,46.66737608],[-1.43076144,46.66758903],[-1.42920947,46.6645909],[-1.42920323,46.66449825],[-1.4292922,46.66444882],[-1.42928839,46.66440207],[-1.43047757,46.6637726],[-1.43070348,46.66360334],[-1.43086026,46.66337362],[-1.43093506,46.66255636],[-1.43084391,46.66187268],[-1.43115457,46.66068737],[-1.43119298,46.65992203],[-1.43126829,46.65968915],[-1.43183522,46.65873922],[-1.43182223,46.65825904],[-1.43193115,46.65829361],[-1.43225902,46.65828273],[-1.4346563,46.65897636],[-1.43602368,46.65923185],[-1.43673695,46.65933681],[-1.43808783,46.65940623],[-1.43809219,46.66082196],[-1.43793839,46.6617451],[-1.4377483,46.66243245],[-1.43720107,46.66371893],[-1.43599218,46.66567765]]]]},"bbox":[-1.43809219,46.65825904,-1.42920323,46.66758903]},{"type":"Feature","id":"fr-quartier-85191-40f5e5a122f8","properties":{"id":"fr-quartier-85191-40f5e5a122f8","kind":"quartier","name":"Mon Repos-Terres Noires-Forges-Branly","cityCode":"85191","cityName":"La Roche-sur-Yon","sourceType":"iris","sourceIds":["851910901"],"colorIndex":11,"center":[-1.4534139785194637,46.6898069911692]},"geometry":{"type":"MultiPolygon","coordinates":[[[[-1.48490619,46.68484478],[-1.48328164,46.68512028],[-1.4831533,46.68534355],[-1.48274579,46.68813724],[-1.48251145,46.68893374],[-1.48062764,46.69237316],[-1.48573981,46.69502765],[-1.48184381,46.69541902],[-1.48016587,46.69565506],[-1.47963982,46.6956657],[-1.47875569,46.69551446],[-1.47815958,46.69551791],[-1.47440849,46.69614146],[-1.4731586,46.69648244],[-1.47153985,46.69651492],[-1.46843676,46.69601544],[-1.46936131,46.69466809],[-1.46973938,46.69454784],[-1.47080883,46.69449892],[-1.47095034,46.69438698],[-1.47075029,46.69407462],[-1.46943993,46.69277383],[-1.46961747,46.69259014],[-1.47030453,46.69256155],[-1.47081647,46.69179124],[-1.47021921,46.6914619],[-1.46934573,46.69029288],[-1.46924013,46.68971079],[-1.46918273,46.68890225],[-1.47042452,46.68813054],[-1.4694554,46.68807544],[-1.46666529,46.68562382],[-1.46512317,46.68500661],[-1.46468568,46.68453124],[-1.46436988,46.68446778],[-1.46362439,46.68408737],[-1.46272341,46.68382394],[-1.46238886,46.68364397],[-1.46144202,46.68352391],[-1.46173937,46.68382528],[-1.4617905,46.68489379],[-1.46221047,46.68531574],[-1.46221265,46.68556547],[-1.46193607,46.68572414],[-1.46134093,46.68572206],[-1.46082076,46.68586676],[-1.46027081,46.68686126],[-1.45979774,46.6887438],[-1.46034314,46.69032518],[-1.46022706,46.69092221],[-1.45992576,46.69132263],[-1.46003044,46.69189485],[-1.46035853,46.69260176],[-1.46021588,46.69289139],[-1.45938856,46.69347822],[-1.45825491,46.69411754],[-1.4581978,46.6942361],[-1.45917901,46.69630376],[-1.45930147,46.69686897],[-1.45931186,46.69702729],[-1.45877905,46.69719501],[-1.45900347,46.6975335],[-1.45915713,46.6985421],[-1.45903589,46.69869382],[-1.4582838,46.69858599],[-1.45777873,46.69861284],[-1.45711346,46.69876407],[-1.456224,46.69880315],[-1.45573178,46.69857157],[-1.45471889,46.69771359],[-1.45417852,46.69745411],[-1.45355699,46.6973556],[-1.45208375,46.69761213],[-1.45107105,46.69765055],[-1.45015491,46.69741196],[-1.44797341,46.69873485],[-1.4475031,46.69894609],[-1.44773847,46.70137013],[-1.44454932,46.70209263],[-1.44561245,46.70450893],[-1.44647291,46.70681855],[-1.44543611,46.707077],[-1.44446974,46.70721907],[-1.44268315,46.70719091],[-1.44204432,46.70675391],[-1.44202688,46.70634876],[-1.4418367,46.70605942],[-1.4418388,46.70571664],[-1.44164815,46.70559777],[-1.44136695,46.70552569],[-1.44107738,46.70530333],[-1.4399726,46.70519551],[-1.43929604,46.70501789],[-1.43829873,46.70463715],[-1.43787353,46.70439117],[-1.43697792,46.7041156],[-1.43612879,46.7040718],[-1.43574965,46.70413246],[-1.43537398,46.7042516],[-1.4338344,46.70504705],[-1.43250416,46.7053564],[-1.43654009,46.68429751],[-1.4366566,46.68323785],[-1.4366365,46.68164508],[-1.43642202,46.68161821],[-1.43624446,46.68164221],[-1.43624031,46.68199229],[-1.43609707,46.68208351],[-1.43581184,46.68199264],[-1.4355697,46.68180361],[-1.43576679,46.68148935],[-1.43578741,46.68127662],[-1.43615597,46.68059139],[-1.43624603,46.68021815],[-1.43622706,46.67968138],[-1.43669523,46.67984634],[-1.43649728,46.67732794],[-1.43648942,46.67700719],[-1.43703244,46.67536285],[-1.43971728,46.67616612],[-1.44166112,46.67667159],[-1.44223675,46.67677283],[-1.44327793,46.67671894],[-1.44372873,46.67679976],[-1.44411842,46.67680629],[-1.4441978,46.67692767],[-1.4449675,46.67711066],[-1.44653798,46.67735997],[-1.44722899,46.67750992],[-1.44766786,46.67755692],[-1.44865727,46.67776652],[-1.44910057,46.67799552],[-1.44978385,46.67845058],[-1.4504706,46.67859617],[-1.45115352,46.678695],[-1.45152146,46.67870777],[-1.45165789,46.67950872],[-1.45081368,46.68030357],[-1.45018336,46.68073478],[-1.45097941,46.6812062],[-1.45265007,46.68002301],[-1.45309712,46.67986586],[-1.45420358,46.67931331],[-1.45444514,46.67923899],[-1.45700124,46.67950577],[-1.45786045,46.67975643],[-1.4598002,46.68019232],[-1.46012418,46.68030777],[-1.46060937,46.68059913],[-1.46204142,46.680262],[-1.46235875,46.68024875],[-1.46289153,46.6803218],[-1.46432459,46.68076201],[-1.46554402,46.6812015],[-1.46593758,46.68130251],[-1.46729129,46.68131919],[-1.46873188,46.68138839],[-1.46950252,46.68134211],[-1.47050803,46.6808222],[-1.47103746,46.68123624],[-1.47130236,46.68133413],[-1.47133861,46.68148784],[-1.47163521,46.68166836],[-1.47245041,46.68197205],[-1.47332484,46.68240599],[-1.47484433,46.68297076],[-1.47500819,46.68305095],[-1.47505417,46.68311589],[-1.4763038,46.68352253],[-1.47665837,46.68354746],[-1.4773266,46.68348258],[-1.47808187,46.68367854],[-1.4798575,46.68380486],[-1.48156212,46.68399164],[-1.48271267,46.68419737],[-1.48325317,46.68433135],[-1.48439023,46.68472247],[-1.48482474,46.68479476],[-1.48490619,46.68484478]]]]},"bbox":[-1.48573981,46.67536285,-1.43250416,46.70721907]},{"type":"Feature","id":"fr-quartier-85191-cc9d191d4514","properties":{"id":"fr-quartier-85191-cc9d191d4514","kind":"quartier","name":"Moulin Rouge-Oudairies","cityCode":"85191","cityName":"La Roche-sur-Yon","sourceType":"iris","sourceIds":["851910402"],"colorIndex":12,"center":[-1.4113842664270928,46.66454643049625]},"geometry":{"type":"MultiPolygon","coordinates":[[[[-1.42363326,46.66459439],[-1.42355932,46.66468382],[-1.41994227,46.66559809],[-1.41983018,46.66579811],[-1.41961662,46.66658643],[-1.41919281,46.6681395],[-1.41900556,46.66806014],[-1.41874495,46.66806118],[-1.41740546,46.66829499],[-1.41686792,46.66843476],[-1.4165465,46.66830015],[-1.40976657,46.66626161],[-1.40936823,46.66621201],[-1.40830668,46.6668679],[-1.4072028,46.66656677],[-1.40584117,46.66696363],[-1.40561221,46.66699949],[-1.40540099,46.66694719],[-1.4049265,46.66747677],[-1.40460229,46.66754965],[-1.40443631,46.66778059],[-1.40438996,46.66800061],[-1.40398587,46.66881696],[-1.40344882,46.66956086],[-1.40336718,46.66971731],[-1.40333788,46.66992134],[-1.39801314,46.66955769],[-1.39803785,46.66821303],[-1.39811164,46.66820208],[-1.39816581,46.66811072],[-1.39804317,46.66803607],[-1.39809667,46.66737028],[-1.39843353,46.66662868],[-1.39860755,46.66581757],[-1.39871376,46.66578644],[-1.39875734,46.66572615],[-1.398681,46.6656407],[-1.39951662,46.66444257],[-1.39974647,46.66404596],[-1.40028441,46.66423452],[-1.40069816,46.66444228],[-1.40082589,46.6645961],[-1.40102027,46.66507111],[-1.40127564,46.66524797],[-1.40178012,46.66476506],[-1.40295405,46.66533319],[-1.40413971,46.66417207],[-1.40609144,46.66504304],[-1.40732063,46.6635799],[-1.40598957,46.66302868],[-1.40471588,46.66239317],[-1.40486691,46.66218806],[-1.40543261,46.66094253],[-1.42117416,46.65998894],[-1.42121294,46.66004697],[-1.42134454,46.66005452],[-1.421449,46.66024348],[-1.42193023,46.66121512],[-1.42190088,46.66125684],[-1.42196642,46.66128948],[-1.42255195,46.66239958],[-1.42363326,46.66459439]]]]},"bbox":[-1.42363326,46.65998894,-1.39801314,46.66992134]},{"type":"Feature","id":"fr-quartier-85191-e12bfc67f60a","properties":{"id":"fr-quartier-85191-e12bfc67f60a","kind":"quartier","name":"Pentagone Nord","cityCode":"85191","cityName":"La Roche-sur-Yon","sourceType":"iris","sourceIds":["851910101"],"colorIndex":13,"center":[-1.4274956425234206,46.672891455700544]},"geometry":{"type":"MultiPolygon","coordinates":[[[[-1.43195922,46.66996956],[-1.43363015,46.67321738],[-1.43368159,46.673366],[-1.43357235,46.6734081],[-1.43359682,46.67349915],[-1.42901339,46.6745701],[-1.42887033,46.67461531],[-1.42886111,46.67469503],[-1.42879867,46.67473262],[-1.4287153,46.67473854],[-1.42863319,46.67469572],[-1.42505773,46.67553276],[-1.42496975,46.67557855],[-1.42483703,46.67557375],[-1.42473839,46.67545671],[-1.42366882,46.67500109],[-1.42059138,46.6735236],[-1.42087233,46.6725974],[-1.4257967,46.67141801],[-1.43065991,46.67024617],[-1.43195922,46.66996956]]]]},"bbox":[-1.43368159,46.66996956,-1.42059138,46.67557855]},{"type":"Feature","id":"fr-quartier-85191-87bafe677b16","properties":{"id":"fr-quartier-85191-87bafe677b16","kind":"quartier","name":"Pentagone Sud-Ouest","cityCode":"85191","cityName":"La Roche-sur-Yon","sourceType":"iris","sourceIds":["851910103"],"colorIndex":14,"center":[-1.426387078783639,46.667239015040344]},"geometry":{"type":"MultiPolygon","coordinates":[[[[-1.41961662,46.66658643],[-1.41983018,46.66579811],[-1.41994227,46.66559809],[-1.42355932,46.66468382],[-1.42363326,46.66459439],[-1.42373772,46.66459036],[-1.42378491,46.66462281],[-1.42480128,46.66437974],[-1.42489873,46.66440213],[-1.42551568,46.66420876],[-1.42847756,46.66351895],[-1.42861418,46.66353982],[-1.42871233,46.66361899],[-1.42905599,46.66428299],[-1.42916924,46.6643706],[-1.42928839,46.66440207],[-1.4292922,46.66444882],[-1.42920323,46.66449825],[-1.42920947,46.6645909],[-1.43076144,46.66758903],[-1.4317171,46.66941077],[-1.43195922,46.66996956],[-1.43065991,46.67024617],[-1.4257967,46.67141801],[-1.42525811,46.67033947],[-1.42641062,46.67007762],[-1.42549761,46.66821452],[-1.42354074,46.66868508],[-1.42300923,46.66891482],[-1.42288155,46.6686501],[-1.4226791,46.66841623],[-1.4209122,46.66722996],[-1.41988742,46.66664633],[-1.41961662,46.66658643]]]]},"bbox":[-1.43195922,46.66351895,-1.41961662,46.67141801]},{"type":"Feature","id":"fr-quartier-85191-cc1396a0814f","properties":{"id":"fr-quartier-85191-cc1396a0814f","kind":"quartier","name":"Pyramides-Jean Yole","cityCode":"85191","cityName":"La Roche-sur-Yon","sourceType":"iris","sourceIds":["851910304"],"colorIndex":15,"center":[-1.4297775907883776,46.68106454893042]},"geometry":{"type":"MultiPolygon","coordinates":[[[[-1.43622706,46.67968138],[-1.43624603,46.68021815],[-1.43615597,46.68059139],[-1.43578741,46.68127662],[-1.43576679,46.68148935],[-1.4355697,46.68180361],[-1.43542749,46.68168285],[-1.43516416,46.68157129],[-1.43083865,46.68369107],[-1.43041586,46.68396985],[-1.43006494,46.68403752],[-1.42968547,46.68406031],[-1.42919846,46.68403404],[-1.42850934,46.68384332],[-1.42642713,46.68273514],[-1.42380489,46.68176861],[-1.42202958,46.68101555],[-1.42183389,46.68096177],[-1.42162959,46.67954747],[-1.42173529,46.67959029],[-1.42192992,46.67959901],[-1.42437481,46.6796291],[-1.42448908,46.67968061],[-1.42452231,46.68032955],[-1.42465575,46.68040736],[-1.43013632,46.68044816],[-1.43010023,46.67984533],[-1.43013675,46.67854256],[-1.43016391,46.67807256],[-1.43023828,46.67781176],[-1.43019099,46.67768192],[-1.43070518,46.67773689],[-1.43622706,46.67968138]]]]},"bbox":[-1.43624603,46.67768192,-1.42162959,46.68406031]},{"type":"Feature","id":"fr-quartier-85191-e90dee833d4c","properties":{"id":"fr-quartier-85191-e90dee833d4c","kind":"quartier","name":"Richelieu-Rivoli","cityCode":"85191","cityName":"La Roche-sur-Yon","sourceType":"iris","sourceIds":["851910302"],"colorIndex":16,"center":[-1.419483894263783,46.67518023573321]},"geometry":{"type":"MultiPolygon","coordinates":[[[[-1.42879867,46.67473262],[-1.42974423,46.67663863],[-1.4286791,46.6768809],[-1.42744872,46.67702494],[-1.4257948,46.67674703],[-1.42304948,46.67663026],[-1.4213995,46.67625564],[-1.42128782,46.67665405],[-1.42141366,46.67778099],[-1.41946405,46.67752432],[-1.41925564,46.67774879],[-1.41906058,46.6778474],[-1.41865966,46.67907131],[-1.41847178,46.67938698],[-1.41799212,46.67998174],[-1.41810314,46.68007396],[-1.41809232,46.68016636],[-1.41805121,46.68022476],[-1.41791227,46.6802725],[-1.41781836,46.68027793],[-1.41766041,46.68022089],[-1.41743331,46.68039287],[-1.41703361,46.68053724],[-1.41618847,46.68045708],[-1.41602179,46.67988994],[-1.41569249,46.6796916],[-1.41559076,46.67947186],[-1.41567609,46.67910333],[-1.41577967,46.67902359],[-1.41599372,46.67898107],[-1.41604492,46.67891778],[-1.41585811,46.67865082],[-1.41585355,46.67856261],[-1.41616806,46.67845039],[-1.41623111,46.67830728],[-1.41588601,46.67789852],[-1.41592256,46.67762296],[-1.41577666,46.6774401],[-1.41567813,46.67709849],[-1.41554655,46.67707561],[-1.41518114,46.67712576],[-1.41493941,46.67711793],[-1.41474627,46.67704692],[-1.41461712,46.67694097],[-1.41443034,46.67659374],[-1.41444939,46.67628007],[-1.41439347,46.67609194],[-1.4141447,46.67580392],[-1.41397927,46.67533233],[-1.41397844,46.67527374],[-1.41425622,46.67529009],[-1.41435544,46.67520511],[-1.41449779,46.67518339],[-1.41460617,46.67524325],[-1.41472324,46.67541008],[-1.41490728,46.67544989],[-1.41498337,46.67540277],[-1.41504761,46.67519377],[-1.41516061,46.67510104],[-1.41555405,46.67497676],[-1.41554008,46.67467609],[-1.41500927,46.67298216],[-1.41496623,46.67259784],[-1.41511098,46.67186449],[-1.41527238,46.6716743],[-1.41555465,46.67063443],[-1.41561756,46.67039302],[-1.4159956,46.67006372],[-1.41793818,46.66920695],[-1.4184767,46.66878938],[-1.41873899,46.6686963],[-1.41903386,46.66869755],[-1.41814452,46.67172683],[-1.41806565,46.67217447],[-1.41812559,46.67229932],[-1.4183174,46.67245064],[-1.42059138,46.6735236],[-1.42366882,46.67500109],[-1.42473839,46.67545671],[-1.42483703,46.67557375],[-1.42496975,46.67557855],[-1.42505773,46.67553276],[-1.42863319,46.67469572],[-1.4287153,46.67473854],[-1.42879867,46.67473262]]]]},"bbox":[-1.42974423,46.6686963,-1.41397844,46.68053724]},{"type":"Feature","id":"fr-quartier-85191-a1721fd96225","properties":{"id":"fr-quartier-85191-a1721fd96225","kind":"quartier","name":"Saint-André d'Ornay-Le Val d'Amboise","cityCode":"85191","cityName":"La Roche-sur-Yon","sourceType":"iris","sourceIds":["851910801"],"colorIndex":17,"center":[-1.4731807212841526,46.67036167316804]},"geometry":{"type":"MultiPolygon","coordinates":[[[[-1.47145399,46.65441113],[-1.4717681,46.65469468],[-1.47235331,46.65464387],[-1.47274997,46.65470504],[-1.47304462,46.65492712],[-1.47322226,46.65514385],[-1.47351091,46.65645382],[-1.47382328,46.65693855],[-1.47411984,46.65673848],[-1.47440857,46.65666587],[-1.47504116,46.65682424],[-1.47698533,46.65655889],[-1.47855127,46.65720294],[-1.4787974,46.65748733],[-1.47889923,46.65776924],[-1.47930556,46.65839188],[-1.47971261,46.65861045],[-1.48105594,46.65873017],[-1.48173062,46.6589536],[-1.4822574,46.65901957],[-1.48320515,46.65967873],[-1.48406088,46.65984185],[-1.4843378,46.66000688],[-1.48495225,46.65997651],[-1.48516759,46.66022061],[-1.48545288,46.66016976],[-1.48587269,46.66020923],[-1.48596479,46.66061057],[-1.48609965,46.66068916],[-1.48635952,46.66050493],[-1.48654391,46.66061224],[-1.48660295,46.66075604],[-1.48707906,46.66090604],[-1.48707144,46.66101998],[-1.48659887,46.66138841],[-1.4868198,46.66155743],[-1.48682882,46.66168244],[-1.48661585,46.66252952],[-1.48685799,46.66278068],[-1.48700853,46.66285866],[-1.48770588,46.66272132],[-1.48799712,46.66307517],[-1.48841639,46.66279089],[-1.48864195,46.66279378],[-1.48870816,46.6630401],[-1.48846274,46.66319311],[-1.48895971,46.66316733],[-1.48933915,46.66332021],[-1.49013523,46.66322047],[-1.4904045,46.66338759],[-1.49036601,46.66442716],[-1.49020789,46.66470122],[-1.49054287,46.66496587],[-1.49065123,46.66527818],[-1.49092306,46.66552366],[-1.49145968,46.66547016],[-1.49161839,46.66559922],[-1.49205462,46.66566238],[-1.4925054,46.66588551],[-1.49459747,46.66643838],[-1.49520537,46.66667608],[-1.49679855,46.66761105],[-1.49747409,46.66760528],[-1.49906034,46.66717503],[-1.49986527,46.6670866],[-1.50021802,46.66715392],[-1.50093871,46.66706068],[-1.50137925,46.66709658],[-1.50217774,46.66724649],[-1.50274953,46.66744318],[-1.503032,46.66742125],[-1.50324924,46.66765532],[-1.50384665,46.66765529],[-1.50421955,46.66777591],[-1.50517291,46.66832376],[-1.50589545,46.66885271],[-1.50620177,46.66913378],[-1.50655368,46.66968001],[-1.5062191,46.67024242],[-1.50624067,46.67206519],[-1.50605484,46.67225738],[-1.50613947,46.67239295],[-1.50661644,46.67259876],[-1.50675528,46.67274031],[-1.50649166,46.67311594],[-1.50675773,46.67428514],[-1.50606221,46.6750773],[-1.50605612,46.67546174],[-1.50623377,46.67566038],[-1.50641199,46.67572372],[-1.50637571,46.67598129],[-1.50654106,46.6760316],[-1.50732443,46.67588716],[-1.50755198,46.67591338],[-1.50795238,46.67625388],[-1.50841823,46.67646733],[-1.50859743,46.67673175],[-1.50892593,46.67679008],[-1.5090977,46.67694927],[-1.50932991,46.67766254],[-1.50947821,46.67783889],[-1.50900201,46.67792707],[-1.50834191,46.67772576],[-1.50674528,46.67655027],[-1.50615682,46.67621717],[-1.50571022,46.67610937],[-1.50539147,46.67618413],[-1.50496609,46.67650569],[-1.50473182,46.67652482],[-1.50353139,46.67614361],[-1.50232395,46.676357],[-1.50166245,46.6763911],[-1.49817087,46.67617467],[-1.49806413,46.67607244],[-1.49723061,46.67588058],[-1.49484938,46.67674601],[-1.4947771,46.67786718],[-1.49513783,46.67810916],[-1.49460995,46.67872872],[-1.49462081,46.67935059],[-1.49502553,46.6798073],[-1.49450618,46.67996024],[-1.49180429,46.68023121],[-1.49252308,46.68093627],[-1.49334728,46.68147394],[-1.49293002,46.68202151],[-1.49277696,46.68245229],[-1.492186,46.6852875],[-1.4922113,46.68556158],[-1.49014452,46.68563986],[-1.48609787,46.68494515],[-1.48490619,46.68484478],[-1.48482474,46.68479476],[-1.48439023,46.68472247],[-1.48325317,46.68433135],[-1.48271267,46.68419737],[-1.48156212,46.68399164],[-1.4798575,46.68380486],[-1.47808187,46.68367854],[-1.4773266,46.68348258],[-1.47665837,46.68354746],[-1.4763038,46.68352253],[-1.47505417,46.68311589],[-1.47500819,46.68305095],[-1.47484433,46.68297076],[-1.47332484,46.68240599],[-1.47245041,46.68197205],[-1.47163521,46.68166836],[-1.47133861,46.68148784],[-1.47130236,46.68133413],[-1.47103746,46.68123624],[-1.47050803,46.6808222],[-1.46950252,46.68134211],[-1.46873188,46.68138839],[-1.46729129,46.68131919],[-1.46593758,46.68130251],[-1.46554402,46.6812015],[-1.46432459,46.68076201],[-1.46289153,46.6803218],[-1.46235875,46.68024875],[-1.46204142,46.680262],[-1.46060937,46.68059913],[-1.46012418,46.68030777],[-1.4598002,46.68019232],[-1.45786045,46.67975643],[-1.45700124,46.67950577],[-1.45444514,46.67923899],[-1.45420358,46.67931331],[-1.45309712,46.67986586],[-1.45265007,46.68002301],[-1.45097941,46.6812062],[-1.45018336,46.68073478],[-1.45081368,46.68030357],[-1.45165789,46.67950872],[-1.45152146,46.67870777],[-1.45115352,46.678695],[-1.4504706,46.67859617],[-1.44978385,46.67845058],[-1.44910057,46.67799552],[-1.44865727,46.67776652],[-1.44766786,46.67755692],[-1.44722899,46.67750992],[-1.44653798,46.67735997],[-1.4449675,46.67711066],[-1.4441978,46.67692767],[-1.44411842,46.67680629],[-1.44372873,46.67679976],[-1.4438458,46.67669331],[-1.44496107,46.67607198],[-1.44522525,46.67585791],[-1.44554828,46.67521048],[-1.44598728,46.67340328],[-1.44704751,46.67179112],[-1.44776941,46.67089552],[-1.44772043,46.67077748],[-1.44781799,46.67068892],[-1.44793115,46.67066288],[-1.44793397,46.67047338],[-1.44781933,46.67017752],[-1.44750998,46.66983961],[-1.44657258,46.66919148],[-1.44643001,46.66913028],[-1.44607148,46.66910361],[-1.44614258,46.66872387],[-1.44614383,46.6683712],[-1.44601958,46.66778171],[-1.44592029,46.667561],[-1.44505296,46.66578373],[-1.4448438,46.66540496],[-1.44475483,46.66532634],[-1.44430249,46.66444113],[-1.44346625,46.66305857],[-1.44333812,46.6630455],[-1.44322698,46.66298398],[-1.44321918,46.66288868],[-1.44329183,46.66284799],[-1.44270406,46.6620041],[-1.45070061,46.65988823],[-1.47145399,46.65441113]]]]},"bbox":[-1.50947821,46.65441113,-1.44270406,46.68563986]},{"type":"Feature","id":"fr-quartier-85191-2451f330293f","properties":{"id":"fr-quartier-85191-2451f330293f","kind":"quartier","name":"Z.A. Belle Place","cityCode":"85191","cityName":"La Roche-sur-Yon","sourceType":"iris","sourceIds":["851910602"],"colorIndex":18,"center":[-1.419852994542945,46.638488230370434]},"geometry":{"type":"MultiPolygon","coordinates":[[[[-1.43517095,46.63648784],[-1.43475621,46.63658777],[-1.43473266,46.63668428],[-1.43516886,46.63724817],[-1.43554639,46.63734989],[-1.43508846,46.63756243],[-1.43511489,46.63767774],[-1.43540601,46.63779543],[-1.43532099,46.63813331],[-1.43545729,46.63818304],[-1.43576174,46.63814329],[-1.43596217,46.63836911],[-1.43651768,46.63848557],[-1.43719113,46.63842701],[-1.43739914,46.63888972],[-1.43788189,46.63898104],[-1.4372821,46.64047069],[-1.43599804,46.64466172],[-1.43552092,46.64577865],[-1.43549667,46.64589863],[-1.43554015,46.64601419],[-1.43565819,46.64612866],[-1.43567588,46.64626505],[-1.4355731,46.64640161],[-1.43537662,46.64646513],[-1.43525017,46.64658456],[-1.43500485,46.64728487],[-1.43501056,46.64778788],[-1.43483918,46.64787027],[-1.43472528,46.64820747],[-1.4340183,46.6486109],[-1.43416059,46.64935934],[-1.43438417,46.65001264],[-1.43423493,46.65004547],[-1.43411925,46.65028082],[-1.43400125,46.65035934],[-1.43399738,46.65048845],[-1.43386537,46.65055579],[-1.4337137,46.65054272],[-1.43360001,46.65043349],[-1.43304407,46.65052175],[-1.43240964,46.65075552],[-1.4317957,46.65055021],[-1.43119971,46.65062918],[-1.4303821,46.6506563],[-1.43012034,46.65057804],[-1.42995988,46.65047332],[-1.42975361,46.65014401],[-1.42950747,46.65009671],[-1.42924995,46.65013463],[-1.42903833,46.64999671],[-1.42868406,46.6499563],[-1.42854778,46.64995526],[-1.42846312,46.65002526],[-1.42834774,46.65003965],[-1.42824137,46.64998784],[-1.42817642,46.6498659],[-1.42803834,46.64979458],[-1.42716694,46.64949909],[-1.42703014,46.64949175],[-1.42689402,46.64950874],[-1.42673191,46.64959256],[-1.4249042,46.65000047],[-1.42442596,46.64993327],[-1.42414962,46.65002962],[-1.42377447,46.65008649],[-1.42373259,46.65005474],[-1.42354184,46.6500603],[-1.42296997,46.65019422],[-1.4228902,46.65030822],[-1.42275786,46.65024299],[-1.42257568,46.65027347],[-1.42245444,46.65021592],[-1.42223023,46.65018039],[-1.42206092,46.65025637],[-1.42181216,46.65027319],[-1.42189419,46.65047654],[-1.42198548,46.65053615],[-1.42196924,46.65064229],[-1.42127343,46.65071785],[-1.42043474,46.65111365],[-1.42023864,46.65115008],[-1.42001241,46.65113807],[-1.41995037,46.65121261],[-1.41968464,46.65124631],[-1.41953094,46.65133701],[-1.41912983,46.65142914],[-1.41893287,46.65137451],[-1.41862141,46.65136128],[-1.41835687,46.65111987],[-1.41799666,46.6511031],[-1.41786325,46.65105684],[-1.41777913,46.65108534],[-1.4172238,46.65081095],[-1.41670578,46.6509148],[-1.41578071,46.64913687],[-1.41468271,46.64685788],[-1.41417271,46.64610917],[-1.41378815,46.64580835],[-1.41352314,46.64565714],[-1.41038278,46.64399338],[-1.40105313,46.63919471],[-1.39988398,46.63833871],[-1.39968077,46.63825453],[-1.39940782,46.63824698],[-1.39924435,46.63818472],[-1.39915389,46.63807006],[-1.39915189,46.63791593],[-1.39900049,46.63772785],[-1.39870771,46.63757226],[-1.39788819,46.63716905],[-1.39757529,46.63712065],[-1.39736675,46.63716473],[-1.39716457,46.63710936],[-1.39704075,46.63697073],[-1.39704812,46.63686764],[-1.39683874,46.63672327],[-1.39598547,46.63637185],[-1.3961417,46.63621525],[-1.39615986,46.63606755],[-1.3957317,46.6355492],[-1.3957212,46.63533858],[-1.39582573,46.63493145],[-1.39597578,46.6347309],[-1.39652577,46.63421468],[-1.39673233,46.6341301],[-1.39705071,46.63385815],[-1.39725241,46.63376202],[-1.39727516,46.63370343],[-1.39719595,46.63359826],[-1.39736748,46.63350149],[-1.39841748,46.63329162],[-1.39868028,46.63317421],[-1.39931187,46.63308411],[-1.39963439,46.63312222],[-1.4008305,46.63342346],[-1.40095181,46.6334179],[-1.40149634,46.63320668],[-1.40153848,46.63304815],[-1.40227261,46.63264026],[-1.40316276,46.63200902],[-1.40361404,46.63184286],[-1.40430513,46.63176037],[-1.40436467,46.63178423],[-1.40606987,46.63164739],[-1.40648236,46.63166488],[-1.40680808,46.63154864],[-1.40737338,46.6311905],[-1.40777468,46.63008564],[-1.40795915,46.62980979],[-1.40858775,46.62936083],[-1.40880544,46.62930104],[-1.40883108,46.62922971],[-1.40895994,46.62913998],[-1.40941775,46.62890951],[-1.40945796,46.62885656],[-1.40968457,46.62879372],[-1.41037591,46.62816648],[-1.41055029,46.62805695],[-1.41100826,46.62802217],[-1.41132684,46.62789897],[-1.41149012,46.62792695],[-1.41173806,46.62790117],[-1.41215535,46.62799421],[-1.41271906,46.62802028],[-1.41311661,46.62807981],[-1.41331191,46.62805064],[-1.41375647,46.62789913],[-1.41406572,46.62795124],[-1.4143098,46.62791027],[-1.41447919,46.62794883],[-1.41525059,46.62842051],[-1.41548104,46.62848557],[-1.41552639,46.62902763],[-1.41599852,46.62902205],[-1.41606755,46.63032254],[-1.41643181,46.63090641],[-1.41610069,46.63137461],[-1.41653522,46.63138941],[-1.41693756,46.63163633],[-1.4172021,46.63204007],[-1.41734145,46.63235304],[-1.41743623,46.63293919],[-1.41749123,46.6330038],[-1.41757069,46.63299893],[-1.41751273,46.6327207],[-1.41760184,46.63249631],[-1.417596,46.63210243],[-1.41735882,46.6316327],[-1.41766516,46.63119792],[-1.41757283,46.63070638],[-1.41759185,46.63052167],[-1.4176975,46.63042019],[-1.41792713,46.63033017],[-1.41825999,46.62999627],[-1.41839134,46.62995332],[-1.41863908,46.62994106],[-1.41907737,46.63006664],[-1.41946225,46.63011491],[-1.41962479,46.63010142],[-1.41975889,46.63004394],[-1.41992312,46.62985813],[-1.42039603,46.62908955],[-1.42045301,46.62887271],[-1.42046598,46.62824362],[-1.42057386,46.62804105],[-1.42080431,46.62778415],[-1.42078421,46.62755315],[-1.42065605,46.62728124],[-1.42031788,46.62713106],[-1.41987051,46.62705454],[-1.41977961,46.62696696],[-1.41977365,46.62684544],[-1.41990877,46.62660755],[-1.41993336,46.62642714],[-1.41981281,46.62611975],[-1.4201954,46.62604366],[-1.42024908,46.62599559],[-1.42024671,46.62591813],[-1.41989872,46.62550228],[-1.41947509,46.62513806],[-1.42063695,46.62527628],[-1.42074381,46.62538308],[-1.42081341,46.62578802],[-1.42095765,46.625952],[-1.42119402,46.62599338],[-1.42181723,46.6259143],[-1.42207277,46.625596],[-1.42270937,46.62531168],[-1.42307968,46.62500427],[-1.4236831,46.62505221],[-1.42388671,46.62528603],[-1.42445078,46.62534901],[-1.42467103,46.62562638],[-1.4244787,46.6258205],[-1.42445682,46.62593768],[-1.42456909,46.62599828],[-1.42433094,46.62619236],[-1.42450927,46.62626032],[-1.42503875,46.62610729],[-1.42541881,46.6261449],[-1.42549776,46.62632673],[-1.42509285,46.6264984],[-1.42512802,46.62668913],[-1.42627498,46.62797772],[-1.4264721,46.62797101],[-1.42672563,46.62769245],[-1.42723787,46.62790623],[-1.42725983,46.62841672],[-1.42736984,46.62854594],[-1.42778683,46.62840987],[-1.42789749,46.62861121],[-1.42831131,46.62842025],[-1.42861025,46.62860259],[-1.4289553,46.62845126],[-1.42919528,46.6284564],[-1.42939048,46.6285706],[-1.42959846,46.62845614],[-1.42974595,46.62856316],[-1.4297303,46.62891729],[-1.43002487,46.62923868],[-1.43019358,46.62923666],[-1.43042838,46.62911394],[-1.43050182,46.62927614],[-1.43068507,46.62930783],[-1.43106162,46.62920578],[-1.43105397,46.62899955],[-1.43130786,46.62898251],[-1.43150913,46.62915509],[-1.43148947,46.62945977],[-1.43173251,46.62963074],[-1.43206945,46.6295726],[-1.43251928,46.62967874],[-1.4328236,46.6295416],[-1.43321915,46.62967239],[-1.4338652,46.62964828],[-1.43413955,46.62972152],[-1.4345546,46.62999494],[-1.43494985,46.6301059],[-1.4353368,46.63099727],[-1.43484361,46.63129053],[-1.43448573,46.63136482],[-1.43372469,46.63187317],[-1.43377626,46.63197578],[-1.43349708,46.63224452],[-1.43351322,46.63260283],[-1.43297634,46.63279407],[-1.43294421,46.63325075],[-1.43265859,46.63339257],[-1.43291531,46.63358645],[-1.43297036,46.63384405],[-1.43250426,46.63445371],[-1.43237119,46.63506941],[-1.43241168,46.63518057],[-1.43280012,46.63533598],[-1.43312306,46.63569955],[-1.43368699,46.63579135],[-1.43400491,46.63628588],[-1.43454274,46.63629843],[-1.43517095,46.63648784]]]]},"bbox":[-1.43788189,46.62500427,-1.3957212,46.65142914]},{"type":"Feature","id":"fr-quartier-85191-72f254578ed1","properties":{"id":"fr-quartier-85191-72f254578ed1","kind":"quartier","name":"Z.A. Oudairies-Malboire","cityCode":"85191","cityName":"La Roche-sur-Yon","sourceType":"iris","sourceIds":["851910403"],"colorIndex":19,"center":[-1.4063694007615535,46.67052396990911]},"geometry":{"type":"MultiPolygon","coordinates":[[[[-1.41919281,46.6681395],[-1.41903386,46.66869755],[-1.41873899,46.6686963],[-1.4184767,46.66878938],[-1.41793818,46.66920695],[-1.4159956,46.67006372],[-1.41561756,46.67039302],[-1.41555465,46.67063443],[-1.41332413,46.67031905],[-1.41245622,46.67008553],[-1.4112739,46.66967473],[-1.4108836,46.66962752],[-1.4104454,46.6697003],[-1.41021469,46.66987602],[-1.40973323,46.66993243],[-1.40961361,46.66997581],[-1.40843253,46.6710322],[-1.40622758,46.67288819],[-1.40574707,46.67336028],[-1.40439133,46.67493016],[-1.40387997,46.67545844],[-1.40303933,46.67607872],[-1.40216713,46.67653609],[-1.40203733,46.67638957],[-1.40164784,46.67611053],[-1.39940718,46.67379593],[-1.39820801,46.67249735],[-1.39806776,46.6722863],[-1.39788651,46.67177922],[-1.39782756,46.67088958],[-1.39790697,46.67075397],[-1.39781871,46.67065094],[-1.39780327,46.67046035],[-1.39801314,46.66955769],[-1.40333788,46.66992134],[-1.40336718,46.66971731],[-1.40344882,46.66956086],[-1.40398587,46.66881696],[-1.40438996,46.66800061],[-1.40443631,46.66778059],[-1.40460229,46.66754965],[-1.4049265,46.66747677],[-1.40540099,46.66694719],[-1.40561221,46.66699949],[-1.40584117,46.66696363],[-1.4072028,46.66656677],[-1.40830668,46.6668679],[-1.40936823,46.66621201],[-1.40976657,46.66626161],[-1.4165465,46.66830015],[-1.41686792,46.66843476],[-1.41740546,46.66829499],[-1.41874495,46.66806118],[-1.41900556,46.66806014],[-1.41919281,46.6681395]]]]},"bbox":[-1.41919281,46.66621201,-1.39780327,46.67653609]},{"type":"Feature","id":"fr-quartier-85191-c5c7f168f3a1","properties":{"id":"fr-quartier-85191-c5c7f168f3a1","kind":"quartier","name":"Z.I. Ajoncs","cityCode":"85191","cityName":"La Roche-sur-Yon","sourceType":"iris","sourceIds":["851911002"],"colorIndex":20,"center":[-1.3824225953693017,46.6980801383505]},"geometry":{"type":"MultiPolygon","coordinates":[[[[-1.39100397,46.71008599],[-1.39093927,46.71102003],[-1.39021371,46.71083498],[-1.38770067,46.70971914],[-1.38528898,46.70909356],[-1.38341501,46.70874587],[-1.38283952,46.70856766],[-1.38210429,46.7082134],[-1.3815238,46.70755111],[-1.38024385,46.70655483],[-1.37747913,46.70471883],[-1.37649106,46.70417038],[-1.37363825,46.70216542],[-1.37174746,46.70070989],[-1.3704381,46.69932775],[-1.36980346,46.69906427],[-1.3679987,46.69862623],[-1.36948217,46.69681572],[-1.36806739,46.69386124],[-1.36775757,46.69365932],[-1.36674139,46.69244815],[-1.36694661,46.6923763],[-1.36724124,46.69237319],[-1.36739259,46.69233226],[-1.36776844,46.69208437],[-1.36845613,46.69178673],[-1.37461064,46.68946257],[-1.37752836,46.68810399],[-1.37887954,46.68904707],[-1.3807498,46.69023453],[-1.3810365,46.69029572],[-1.38166718,46.69020218],[-1.38205282,46.69035247],[-1.38220256,46.69043782],[-1.38258087,46.69078949],[-1.38284994,46.6908757],[-1.38390908,46.69055384],[-1.38779937,46.68981521],[-1.38797763,46.68976691],[-1.38850382,46.68945097],[-1.38867445,46.68938943],[-1.38956962,46.68945525],[-1.3900089,46.68848612],[-1.39190512,46.68829084],[-1.39153196,46.68899141],[-1.39157654,46.68907267],[-1.39282209,46.69006744],[-1.39299069,46.69033693],[-1.39339867,46.69278685],[-1.3937427,46.6936367],[-1.39403025,46.69514883],[-1.39407963,46.69553202],[-1.39405779,46.69660601],[-1.39385308,46.69695925],[-1.39345337,46.69721896],[-1.39438659,46.69802819],[-1.39457156,46.69835386],[-1.39421153,46.69852097],[-1.39410905,46.69931128],[-1.39379545,46.69974444],[-1.3936346,46.70020241],[-1.39319093,46.70113385],[-1.39304868,46.70133589],[-1.39235671,46.70192062],[-1.39195795,46.70290534],[-1.39157324,46.7046308],[-1.39170266,46.70527425],[-1.39177036,46.7066938],[-1.39153379,46.7078689],[-1.39121116,46.70856392],[-1.39107153,46.70899312],[-1.39100397,46.71008599]]]]},"bbox":[-1.39457156,46.68810399,-1.36674139,46.71102003]},{"type":"Feature","id":"fr-quartier-85191-a1f81f9721d0","properties":{"id":"fr-quartier-85191-a1f81f9721d0","kind":"quartier","name":"Z.I. Nord","cityCode":"85191","cityName":"La Roche-sur-Yon","sourceType":"iris","sourceIds":["851910305"],"colorIndex":21,"center":[-1.4242675241042266,46.70222364763251]},"geometry":{"type":"MultiPolygon","coordinates":[[[[-1.43250416,46.7053564],[-1.4302667,46.70606694],[-1.4299533,46.70569667],[-1.42987939,46.70536946],[-1.42919754,46.70642749],[-1.42848749,46.70731707],[-1.42766063,46.70703245],[-1.42720509,46.70965994],[-1.42704533,46.70963003],[-1.42685841,46.70987804],[-1.4275055,46.71003162],[-1.42739207,46.71089093],[-1.42609409,46.7108265],[-1.42589351,46.71169459],[-1.42592398,46.71283963],[-1.42599225,46.71285684],[-1.42465996,46.71484808],[-1.42172781,46.71569615],[-1.42177526,46.71494311],[-1.42061308,46.71480845],[-1.42061997,46.71489295],[-1.41935145,46.71491749],[-1.41931162,46.71508857],[-1.41878055,46.71515232],[-1.41850017,46.71602436],[-1.41710625,46.71576513],[-1.41680294,46.71671019],[-1.41648755,46.71728147],[-1.417522,46.71736067],[-1.41778807,46.71834152],[-1.41801453,46.71849783],[-1.41752895,46.71957166],[-1.41725429,46.71990239],[-1.41618792,46.71960888],[-1.41518737,46.71955992],[-1.41240126,46.7195481],[-1.4118308,46.71967646],[-1.41090905,46.71962894],[-1.40993085,46.71969361],[-1.40905252,46.7200836],[-1.40776334,46.7203072],[-1.40722683,46.72054696],[-1.40599503,46.72083146],[-1.40440072,46.72086654],[-1.40408056,46.72060558],[-1.4055822,46.71855761],[-1.40580063,46.7183409],[-1.40619159,46.71811757],[-1.4089673,46.71676008],[-1.41082499,46.71541799],[-1.41127751,46.71495238],[-1.41166465,46.71431163],[-1.41247171,46.71277274],[-1.41269065,46.71251451],[-1.41367091,46.71160653],[-1.41386979,46.71134366],[-1.4140572,46.71097211],[-1.41447259,46.70958355],[-1.41462896,46.70929796],[-1.41538686,46.70834893],[-1.41550205,46.70805681],[-1.41574943,46.7065214],[-1.41653935,46.70395325],[-1.41680398,46.7033713],[-1.41715509,46.70293392],[-1.41894872,46.70147329],[-1.4193808,46.70101654],[-1.42020133,46.70000192],[-1.42081636,46.69866966],[-1.42090246,46.69856804],[-1.42120132,46.69834278],[-1.42278058,46.69742333],[-1.42375668,46.69696812],[-1.4242349,46.69693344],[-1.42439451,46.69681725],[-1.42440313,46.69669788],[-1.42425582,46.69638612],[-1.42436885,46.69565037],[-1.42492003,46.69342413],[-1.42499184,46.69279368],[-1.42495003,46.69242554],[-1.424258,46.68953122],[-1.42413484,46.68596202],[-1.42796796,46.68594567],[-1.42880661,46.68588081],[-1.43001036,46.68568098],[-1.43006494,46.68403752],[-1.43041586,46.68396985],[-1.43083865,46.68369107],[-1.43516416,46.68157129],[-1.43542749,46.68168285],[-1.4355697,46.68180361],[-1.43581184,46.68199264],[-1.43609707,46.68208351],[-1.43624031,46.68199229],[-1.43624446,46.68164221],[-1.43642202,46.68161821],[-1.4366365,46.68164508],[-1.4366566,46.68323785],[-1.43654009,46.68429751],[-1.43250416,46.7053564]]]]},"bbox":[-1.4366566,46.68157129,-1.40408056,46.72086654]},{"type":"Feature","id":"fr-quartier-85191-37ff0b3cc54d","properties":{"id":"fr-quartier-85191-37ff0b3cc54d","kind":"quartier","name":"Z.I. Sud","cityCode":"85191","cityName":"La Roche-sur-Yon","sourceType":"iris","sourceIds":["851910702"],"colorIndex":22,"center":[-1.4416894796464288,46.65674992003455]},"geometry":{"type":"MultiPolygon","coordinates":[[[[-1.43599218,46.66567765],[-1.43720107,46.66371893],[-1.4377483,46.66243245],[-1.43793839,46.6617451],[-1.43809219,46.66082196],[-1.43808783,46.65940623],[-1.43784737,46.65814665],[-1.43742199,46.65693211],[-1.43438417,46.65001264],[-1.43416059,46.64935934],[-1.4340183,46.6486109],[-1.43472528,46.64820747],[-1.43482639,46.64829103],[-1.43517456,46.64825681],[-1.43547875,46.64871038],[-1.43571881,46.64892384],[-1.43738129,46.65005349],[-1.43756495,46.65013746],[-1.43789403,46.65014185],[-1.43802959,46.65021416],[-1.43811392,46.65033264],[-1.43817312,46.65056032],[-1.44118198,46.65257026],[-1.44132616,46.65261968],[-1.44148141,46.65258029],[-1.44156925,46.65264543],[-1.44192408,46.65264429],[-1.44333002,46.65292435],[-1.44339633,46.65287038],[-1.44346473,46.65287404],[-1.44353527,46.65290377],[-1.44355399,46.65297248],[-1.44422611,46.6531836],[-1.44486365,46.65353223],[-1.44527664,46.65388957],[-1.44555932,46.65420687],[-1.44583425,46.6547815],[-1.44609114,46.65475169],[-1.4461979,46.65480797],[-1.44786272,46.65621697],[-1.44864638,46.65695763],[-1.44975499,46.65782725],[-1.44984761,46.65793458],[-1.44982588,46.6580211],[-1.4499271,46.65804152],[-1.44999012,46.65813918],[-1.45027305,46.65908235],[-1.45070061,46.65988823],[-1.44270406,46.6620041],[-1.44072049,46.66252832],[-1.43965186,46.66285201],[-1.43835524,46.66343163],[-1.43763241,46.66389973],[-1.43721409,46.66424691],[-1.43662084,46.66489035],[-1.43599218,46.66567765]]]]},"bbox":[-1.45070061,46.64820747,-1.4340183,46.66567765]},{"type":"Feature","id":"fr-quartier-85191-d5c3dbc80416","properties":{"id":"fr-quartier-85191-d5c3dbc80416","kind":"quartier","name":"Zone Rurale-L'Annexe","cityCode":"85191","cityName":"La Roche-sur-Yon","sourceType":"iris","sourceIds":["851911003"],"colorIndex":23,"center":[-1.3722453179283578,46.655679287941446]},"geometry":{"type":"MultiPolygon","coordinates":[[[[-1.36674139,46.69244815],[-1.3652386,46.69092183],[-1.36455986,46.69159156],[-1.36435018,46.69196657],[-1.363841,46.69215368],[-1.3631292,46.69221685],[-1.36242261,46.69250797],[-1.36147017,46.6925938],[-1.36097412,46.69274884],[-1.36018245,46.69266623],[-1.35973297,46.69271579],[-1.35927986,46.69293232],[-1.3587571,46.69306492],[-1.35854648,46.69334707],[-1.35817074,46.69354803],[-1.35791138,46.69403944],[-1.35745473,46.69434266],[-1.35642209,46.6938706],[-1.35624607,46.69370234],[-1.35551837,46.69355143],[-1.35459187,46.69366689],[-1.35313936,46.69411974],[-1.35074172,46.69442358],[-1.34957831,46.69397084],[-1.34798777,46.69381384],[-1.34762242,46.69371948],[-1.34739515,46.69361448],[-1.34732158,46.69310506],[-1.34691655,46.69264608],[-1.34640463,46.69237421],[-1.34500344,46.69202784],[-1.34373413,46.69079091],[-1.33996987,46.68962139],[-1.33964711,46.68960024],[-1.33790979,46.6903757],[-1.33734116,46.69047567],[-1.33607799,46.69037917],[-1.3357599,46.69049851],[-1.33548677,46.69032758],[-1.33515368,46.69024279],[-1.3350138,46.68975481],[-1.33552424,46.68971386],[-1.33514841,46.68929071],[-1.33512409,46.6879525],[-1.33421673,46.68684606],[-1.33335511,46.68655851],[-1.3331809,46.68618184],[-1.33331807,46.68586464],[-1.33452201,46.68492546],[-1.33476318,46.68269437],[-1.33494917,46.68246369],[-1.3348484,46.68225198],[-1.3362045,46.6825136],[-1.33707133,46.6829326],[-1.33784673,46.68317469],[-1.3388961,46.68241806],[-1.3399894,46.68188339],[-1.33926278,46.68154658],[-1.33934814,46.68125388],[-1.33921865,46.68055179],[-1.33921969,46.67923695],[-1.3390175,46.67878921],[-1.33803012,46.6786318],[-1.33471831,46.6786534],[-1.33512843,46.67811215],[-1.33581389,46.67778683],[-1.33646994,46.67730662],[-1.33740277,46.67625682],[-1.33771419,46.67575987],[-1.33786842,46.67582077],[-1.33821323,46.67449562],[-1.33869085,46.67330794],[-1.33916955,46.67310134],[-1.33910616,46.67270154],[-1.34015204,46.67242838],[-1.34030921,46.67232954],[-1.34036385,46.67212818],[-1.33995337,46.67205715],[-1.34040649,46.67084243],[-1.34000072,46.67069908],[-1.33992781,46.67059002],[-1.34009322,46.66967656],[-1.33977693,46.66952171],[-1.34158596,46.66691557],[-1.3421797,46.6668543],[-1.33559587,46.66101207],[-1.33513319,46.66049933],[-1.33388845,46.65996838],[-1.33282794,46.65908688],[-1.3322544,46.658875],[-1.33136526,46.65871294],[-1.33081659,46.65914128],[-1.33056336,46.65859355],[-1.32968801,46.65903154],[-1.32922645,46.65871262],[-1.32923956,46.65858136],[-1.32763169,46.65806136],[-1.32705046,46.6576703],[-1.32645046,46.65691203],[-1.3250754,46.65567982],[-1.32465185,46.65534412],[-1.32396202,46.65506896],[-1.3237047,46.6534158],[-1.32292561,46.65215025],[-1.32295124,46.65166594],[-1.32313431,46.65159681],[-1.32329231,46.65164044],[-1.32335825,46.65149818],[-1.32359386,46.65141444],[-1.32585191,46.65113982],[-1.32661316,46.6511778],[-1.32724584,46.65098256],[-1.32773825,46.65155823],[-1.32782523,46.65191025],[-1.32888544,46.65160777],[-1.33134733,46.65114678],[-1.33229827,46.65116583],[-1.33221741,46.65075948],[-1.33399186,46.64857678],[-1.33505106,46.64781978],[-1.33795501,46.64510819],[-1.33879148,46.64458053],[-1.33931329,46.64393312],[-1.33946961,46.64397229],[-1.3411045,46.64403117],[-1.3415386,46.64395791],[-1.34280054,46.64328242],[-1.34400265,46.64213755],[-1.34479444,46.64178919],[-1.34589839,46.64148037],[-1.34785262,46.64000031],[-1.34910792,46.63945666],[-1.35001155,46.63883798],[-1.35111168,46.63781233],[-1.35246511,46.63708906],[-1.35297102,46.63644218],[-1.35372709,46.63494712],[-1.35408854,46.6352427],[-1.35671805,46.63401003],[-1.35877617,46.63360345],[-1.35937358,46.63339675],[-1.35984652,46.6331073],[-1.36219685,46.62955757],[-1.3687026,46.62834912],[-1.36929466,46.62797933],[-1.37193507,46.62682523],[-1.37295134,46.62648972],[-1.37519712,46.62599631],[-1.37562302,46.6262136],[-1.3762438,46.62581112],[-1.37675012,46.62584046],[-1.37860329,46.62492641],[-1.38076842,46.62426192],[-1.3813634,46.62396229],[-1.38265591,46.62260609],[-1.38353959,46.62202395],[-1.3841169,46.62152208],[-1.38620506,46.62081443],[-1.38638038,46.62037574],[-1.386947,46.62000142],[-1.38742618,46.61941942],[-1.38830473,46.61861288],[-1.38985551,46.61733056],[-1.39017247,46.61668532],[-1.39077207,46.61616903],[-1.39100048,46.61580495],[-1.39139713,46.61544974],[-1.39142712,46.61538366],[-1.3912841,46.61528183],[-1.39057141,46.6150783],[-1.39075224,46.61500012],[-1.39169241,46.61494151],[-1.39192967,46.61467088],[-1.39277207,46.61430939],[-1.39331182,46.61381432],[-1.39348972,46.61358654],[-1.39346677,46.61339984],[-1.39370766,46.6128504],[-1.39341616,46.61259555],[-1.39388614,46.61233853],[-1.39426159,46.61233674],[-1.39458136,46.61197005],[-1.39535815,46.61151005],[-1.3963733,46.61129521],[-1.3965536,46.61145332],[-1.39736788,46.61139228],[-1.39798543,46.61126123],[-1.39831681,46.61103837],[-1.3985649,46.61103155],[-1.39865938,46.6119081],[-1.39911676,46.61223953],[-1.39976186,46.61233558],[-1.40036787,46.61303195],[-1.40054129,46.6133797],[-1.4004708,46.61368904],[-1.4006374,46.6144537],[-1.40075087,46.61477219],[-1.4011238,46.61520787],[-1.40324975,46.61560228],[-1.40378969,46.61580516],[-1.40404624,46.6160478],[-1.40435269,46.61619564],[-1.40520217,46.61626125],[-1.40541978,46.61644317],[-1.40522675,46.61696825],[-1.40527715,46.61718635],[-1.40683631,46.61746543],[-1.40740641,46.61762024],[-1.40777533,46.61784413],[-1.40888806,46.61810519],[-1.41012787,46.61820624],[-1.41058858,46.61760951],[-1.41057243,46.61721694],[-1.41087735,46.61716821],[-1.41141025,46.61726762],[-1.4115264,46.61731184],[-1.41157683,46.61754618],[-1.41205827,46.61791452],[-1.41356995,46.61847851],[-1.41384369,46.61864201],[-1.41409871,46.61902629],[-1.41459268,46.61908119],[-1.41494483,46.619211],[-1.41527829,46.61957781],[-1.41529416,46.61980537],[-1.41511554,46.61992679],[-1.41500347,46.62015838],[-1.41509356,46.62086465],[-1.41547706,46.62100948],[-1.41611849,46.62105869],[-1.41632275,46.6211401],[-1.41636671,46.62200326],[-1.41708602,46.62296213],[-1.41709428,46.62341814],[-1.41786547,46.62374281],[-1.4179134,46.62409087],[-1.41814863,46.62439203],[-1.41947509,46.62513806],[-1.41989872,46.62550228],[-1.42024671,46.62591813],[-1.42024908,46.62599559],[-1.4201954,46.62604366],[-1.41981281,46.62611975],[-1.41993336,46.62642714],[-1.41990877,46.62660755],[-1.41977365,46.62684544],[-1.41977961,46.62696696],[-1.41987051,46.62705454],[-1.42031788,46.62713106],[-1.42065605,46.62728124],[-1.42078421,46.62755315],[-1.42080431,46.62778415],[-1.42057386,46.62804105],[-1.42046598,46.62824362],[-1.42045301,46.62887271],[-1.42039603,46.62908955],[-1.41992312,46.62985813],[-1.41975889,46.63004394],[-1.41962479,46.63010142],[-1.41946225,46.63011491],[-1.41907737,46.63006664],[-1.41863908,46.62994106],[-1.41839134,46.62995332],[-1.41825999,46.62999627],[-1.41792713,46.63033017],[-1.4176975,46.63042019],[-1.41759185,46.63052167],[-1.41757283,46.63070638],[-1.41766516,46.63119792],[-1.41735882,46.6316327],[-1.417596,46.63210243],[-1.41760184,46.63249631],[-1.41751273,46.6327207],[-1.41757069,46.63299893],[-1.41749123,46.6330038],[-1.41743623,46.63293919],[-1.41734145,46.63235304],[-1.4172021,46.63204007],[-1.41693756,46.63163633],[-1.41653522,46.63138941],[-1.41610069,46.63137461],[-1.41643181,46.63090641],[-1.41606755,46.63032254],[-1.41599852,46.62902205],[-1.41552639,46.62902763],[-1.41548104,46.62848557],[-1.41525059,46.62842051],[-1.41447919,46.62794883],[-1.4143098,46.62791027],[-1.41406572,46.62795124],[-1.41375647,46.62789913],[-1.41331191,46.62805064],[-1.41311661,46.62807981],[-1.41271906,46.62802028],[-1.41215535,46.62799421],[-1.41173806,46.62790117],[-1.41149012,46.62792695],[-1.41132684,46.62789897],[-1.41100826,46.62802217],[-1.41055029,46.62805695],[-1.41037591,46.62816648],[-1.40968457,46.62879372],[-1.40945796,46.62885656],[-1.40941775,46.62890951],[-1.40895994,46.62913998],[-1.40883108,46.62922971],[-1.40880544,46.62930104],[-1.40858775,46.62936083],[-1.40795915,46.62980979],[-1.40777468,46.63008564],[-1.40737338,46.6311905],[-1.40680808,46.63154864],[-1.40648236,46.63166488],[-1.40606987,46.63164739],[-1.40436467,46.63178423],[-1.40430513,46.63176037],[-1.40361404,46.63184286],[-1.40316276,46.63200902],[-1.40227261,46.63264026],[-1.40153848,46.63304815],[-1.40149634,46.63320668],[-1.40095181,46.6334179],[-1.4008305,46.63342346],[-1.39963439,46.63312222],[-1.39931187,46.63308411],[-1.39868028,46.63317421],[-1.39841748,46.63329162],[-1.39736748,46.63350149],[-1.39719595,46.63359826],[-1.39727516,46.63370343],[-1.39725241,46.63376202],[-1.39705071,46.63385815],[-1.39673233,46.6341301],[-1.39652577,46.63421468],[-1.39597578,46.6347309],[-1.39582573,46.63493145],[-1.3957212,46.63533858],[-1.3957317,46.6355492],[-1.39615986,46.63606755],[-1.3961417,46.63621525],[-1.39598547,46.63637185],[-1.39683874,46.63672327],[-1.39704812,46.63686764],[-1.39704075,46.63697073],[-1.39716457,46.63710936],[-1.39736675,46.63716473],[-1.39757529,46.63712065],[-1.39788819,46.63716905],[-1.39870771,46.63757226],[-1.39900049,46.63772785],[-1.39915189,46.63791593],[-1.39915389,46.63807006],[-1.39924435,46.63818472],[-1.39940782,46.63824698],[-1.39968077,46.63825453],[-1.39988398,46.63833871],[-1.40105313,46.63919471],[-1.41038278,46.64399338],[-1.41352314,46.64565714],[-1.41378815,46.64580835],[-1.41417271,46.64610917],[-1.41468271,46.64685788],[-1.41427492,46.64714144],[-1.41234782,46.64790559],[-1.41156607,46.64835776],[-1.4104679,46.64926761],[-1.4078484,46.6518133],[-1.4067337,46.65127812],[-1.40666872,46.65130046],[-1.40631442,46.65148544],[-1.40621672,46.65165333],[-1.40589723,46.65186402],[-1.40578207,46.6520912],[-1.40523091,46.65246501],[-1.40495736,46.65256391],[-1.40388555,46.65278368],[-1.4036883,46.65288686],[-1.40363154,46.65297832],[-1.403701,46.65310822],[-1.40368051,46.65319468],[-1.40342875,46.65338472],[-1.40335566,46.65364635],[-1.40327193,46.6537605],[-1.40290021,46.65402188],[-1.40237642,46.6541845],[-1.40086045,46.65445107],[-1.40070358,46.65453556],[-1.40059025,46.65467248],[-1.40006222,46.65476671],[-1.39996801,46.65480009],[-1.39984466,46.65492657],[-1.39974128,46.65508927],[-1.39966938,46.65551137],[-1.39957649,46.65560963],[-1.39939168,46.65565641],[-1.39935601,46.6557173],[-1.39952008,46.65614207],[-1.39951621,46.65627208],[-1.39941601,46.65642563],[-1.39917696,46.65654664],[-1.39917082,46.65664878],[-1.39939849,46.65677531],[-1.39939967,46.65683839],[-1.39922088,46.65713745],[-1.3987908,46.65737401],[-1.39867688,46.65750373],[-1.39854886,46.65781527],[-1.39828417,46.65807253],[-1.39828594,46.6581915],[-1.39837957,46.65837729],[-1.39815478,46.65890086],[-1.39786101,46.65900953],[-1.39743246,46.65908731],[-1.39740195,46.65921203],[-1.39745588,46.65957069],[-1.39738133,46.65966914],[-1.39667668,46.65978276],[-1.39633751,46.65994548],[-1.39624542,46.66008609],[-1.39618969,46.66059505],[-1.3959227,46.66108326],[-1.39567493,46.66122623],[-1.39515045,46.66131669],[-1.39503656,46.66136615],[-1.39498986,46.66143648],[-1.39499933,46.66158582],[-1.39697108,46.66146147],[-1.39617336,46.66256164],[-1.39631725,46.66265622],[-1.3966372,46.66272511],[-1.39657865,46.66300511],[-1.39744098,46.66310729],[-1.39736689,46.66332477],[-1.398173,46.6634282],[-1.3981718,46.6638016],[-1.39808907,46.66418715],[-1.39951662,46.66444257],[-1.398681,46.6656407],[-1.39875734,46.66572615],[-1.39871376,46.66578644],[-1.39860755,46.66581757],[-1.39843353,46.66662868],[-1.39809667,46.66737028],[-1.39804317,46.66803607],[-1.39816581,46.66811072],[-1.39811164,46.66820208],[-1.39803785,46.66821303],[-1.39801314,46.66955769],[-1.39780327,46.67046035],[-1.39781871,46.67065094],[-1.39790697,46.67075397],[-1.39782756,46.67088958],[-1.39788651,46.67177922],[-1.39806776,46.6722863],[-1.39820801,46.67249735],[-1.39940718,46.67379593],[-1.40164784,46.67611053],[-1.40203733,46.67638957],[-1.40216713,46.67653609],[-1.40149991,46.67679078],[-1.40028163,46.67710089],[-1.39974987,46.67734586],[-1.39922459,46.67742825],[-1.39900968,46.67752488],[-1.3987932,46.67771535],[-1.39872767,46.67795775],[-1.39877546,46.67811103],[-1.39894794,46.6782992],[-1.39896145,46.67856292],[-1.39877146,46.67878935],[-1.39848501,46.67895726],[-1.39797542,46.67915267],[-1.39606515,46.67955873],[-1.39511841,46.67988993],[-1.37752836,46.68810399],[-1.37461064,46.68946257],[-1.36845613,46.69178673],[-1.36776844,46.69208437],[-1.36739259,46.69233226],[-1.36724124,46.69237319],[-1.36694661,46.6923763],[-1.36674139,46.69244815]]]]},"bbox":[-1.42080431,46.61103155,-1.32292561,46.69442358]}]}