{"type":"FeatureCollection","metadata":{"sourceType":"iris","referenceFile":"saint-hilaire-de-riez-quartiers.geojson","source":"IGN / INSEE - Contours IRIS WFS Géoplateforme","sourceUrl":"https://geoservices.ign.fr/contoursiris","license":"Licence Ouverte / Open Licence 2.0","sourceYear":"2026"},"features":[{"type":"Feature","id":"fr-quartier-85226-d374a88e6b6e","properties":{"id":"fr-quartier-85226-d374a88e6b6e","kind":"quartier","name":"Fradinière-Pissot-Pège-Demoiselles","cityCode":"85226","cityName":"Saint-Hilaire-de-Riez","sourceType":"iris","sourceIds":["852260103"],"colorIndex":0,"center":[-1.9665822756859002,46.751638509333375]},"geometry":{"type":"MultiPolygon","coordinates":[[[[-1.97922833,46.79291482],[-1.97880109,46.79288282],[-1.97803579,46.79267422],[-1.97685435,46.79258289],[-1.97648387,46.7924537],[-1.9758803,46.79201794],[-1.9753397,46.79146667],[-1.97517946,46.79113801],[-1.97392841,46.79186163],[-1.97276923,46.79275628],[-1.97236233,46.79320334],[-1.97229123,46.79387403],[-1.97253617,46.79398071],[-1.9728764,46.79442428],[-1.97268255,46.794688],[-1.97237442,46.7948087],[-1.96988365,46.79452138],[-1.96873008,46.79499172],[-1.9685119,46.79556322],[-1.96874937,46.79564587],[-1.96837094,46.7963894],[-1.96851705,46.79667899],[-1.96959823,46.79710855],[-1.96977347,46.79730035],[-1.96991573,46.79777686],[-1.96904607,46.79816364],[-1.96677891,46.79855403],[-1.96624566,46.798541],[-1.96588412,46.79835184],[-1.96530899,46.79798246],[-1.96479989,46.79750196],[-1.96441156,46.79649027],[-1.96406603,46.79598827],[-1.96358724,46.79580958],[-1.9622661,46.79588563],[-1.96189304,46.79581424],[-1.96163359,46.79560622],[-1.96130937,46.79500675],[-1.9607838,46.79479039],[-1.96110472,46.79384818],[-1.96091557,46.79275841],[-1.96128773,46.79151538],[-1.96169349,46.79109818],[-1.96283983,46.79047756],[-1.9646027,46.78921769],[-1.96509557,46.78851884],[-1.96528751,46.78807659],[-1.96532341,46.787107],[-1.9651125,46.78621034],[-1.96458871,46.7849952],[-1.96417592,46.78443205],[-1.96333438,46.78377647],[-1.96212552,46.78328291],[-1.96184299,46.78320941],[-1.9612278,46.78321796],[-1.96049921,46.78349393],[-1.96001709,46.78399472],[-1.95918414,46.78453682],[-1.95855516,46.78461],[-1.95792879,46.78452519],[-1.95730113,46.78431141],[-1.95695742,46.78435873],[-1.95657734,46.78461151],[-1.95535311,46.78587327],[-1.95461692,46.78612427],[-1.95413026,46.78615971],[-1.95234111,46.78599873],[-1.95165625,46.78584873],[-1.95045716,46.78531765],[-1.94945618,46.78466884],[-1.94901743,46.78423667],[-1.94865852,46.78411772],[-1.94743963,46.78405929],[-1.94633742,46.78422858],[-1.94577842,46.78404697],[-1.94531134,46.78364939],[-1.94545972,46.78331822],[-1.9451296,46.78262243],[-1.9455963,46.78130411],[-1.94553537,46.78072304],[-1.94530047,46.78045168],[-1.9444905,46.77993715],[-1.9436007,46.77893618],[-1.94231455,46.77849899],[-1.94204851,46.77679182],[-1.94145378,46.77479207],[-1.94099393,46.77480374],[-1.94075059,46.77456883],[-1.93855043,46.77313525],[-1.93814539,46.77276836],[-1.93811734,46.77267664],[-1.93831692,46.77244612],[-1.93816678,46.77210976],[-1.9378616,46.77203177],[-1.93656692,46.7692646],[-1.9365103,46.76890256],[-1.93637959,46.76885135],[-1.93620402,46.76836542],[-1.93580971,46.76778424],[-1.93571531,46.76723799],[-1.93480646,46.76510106],[-1.93533138,46.76519937],[-1.93560837,46.76443506],[-1.93545326,46.76394284],[-1.93480013,46.76331595],[-1.9328266,46.76225957],[-1.93055108,46.76117283],[-1.92969536,46.76092992],[-1.92853709,46.76042033],[-1.92808407,46.7603613],[-1.92782286,46.760405],[-1.92816081,46.76005037],[-1.92790394,46.76001178],[-1.92754157,46.7595492],[-1.92474035,46.75862656],[-1.92378637,46.75848617],[-1.92393334,46.75821102],[-1.92318743,46.75822228],[-1.92164856,46.75805914],[-1.91966612,46.75773819],[-1.91617903,46.75339042],[-1.91669984,46.75220072],[-1.91661298,46.75144574],[-1.91646714,46.7509955],[-1.91594882,46.7503023],[-1.91496698,46.74924465],[-1.91606533,46.74898197],[-1.91686545,46.74899099],[-1.91717966,46.74885212],[-1.9178024,46.74875777],[-1.91801887,46.74864113],[-1.91802396,46.74852364],[-1.91822816,46.74853202],[-1.91961694,46.74792668],[-1.91987975,46.74772776],[-1.92010574,46.74734007],[-1.92115014,46.74619464],[-1.92154907,46.74591951],[-1.92158799,46.74572658],[-1.921379,46.74562188],[-1.92139754,46.74505994],[-1.92173617,46.74472786],[-1.92189915,46.74423911],[-1.92177873,46.7441703],[-1.92234825,46.74317244],[-1.92240714,46.7425781],[-1.92205336,46.74069063],[-1.92043936,46.73983877],[-1.91952935,46.74020799],[-1.91823359,46.73946424],[-1.91677087,46.73876012],[-1.9155577,46.7383475],[-1.91471179,46.73849742],[-1.91439387,46.73833422],[-1.91440102,46.73818145],[-1.91531644,46.73807457],[-1.91563555,46.7377298],[-1.91494979,46.73746058],[-1.91262697,46.73719742],[-1.91114513,46.7374395],[-1.91084157,46.73739115],[-1.91031633,46.73747408],[-1.90972772,46.7374659],[-1.90864996,46.73740286],[-1.90874833,46.73692412],[-1.90895184,46.73665018],[-1.90838793,46.73530575],[-1.90794505,46.73539958],[-1.90703271,46.73542418],[-1.90676597,46.73608695],[-1.90662183,46.73617611],[-1.90636624,46.73609232],[-1.90606287,46.73621987],[-1.90575451,46.73614735],[-1.90542259,46.73578535],[-1.90501739,46.73597679],[-1.90624479,46.73762124],[-1.90610475,46.73765429],[-1.90535854,46.73673083],[-1.90449397,46.73695004],[-1.90385647,46.73615454],[-1.90333728,46.73623176],[-1.90267011,46.7353401],[-1.90237069,46.73522118],[-1.90235393,46.73507936],[-1.90264994,46.73500085],[-1.90291411,46.73503466],[-1.90294276,46.73490173],[-1.90268487,46.73473413],[-1.90229994,46.73490304],[-1.90219802,46.73484966],[-1.90216282,46.73466352],[-1.90199638,46.73457861],[-1.90189479,46.73434028],[-1.90166816,46.73421374],[-1.90163381,46.73397885],[-1.90181946,46.73371019],[-1.90131827,46.73359448],[-1.90115931,46.73391161],[-1.90069774,46.73365348],[-1.90098217,46.73318574],[-1.90143262,46.73330632],[-1.90203579,46.73266348],[-1.90281171,46.73203039],[-1.90329006,46.73134235],[-1.90368837,46.73043671],[-1.90489497,46.73144694],[-1.90557611,46.73189865],[-1.90595094,46.73196652],[-1.90634019,46.73172974],[-1.90735079,46.73093592],[-1.90752037,46.73070764],[-1.90755229,46.73034992],[-1.9073843,46.7300594],[-1.90678883,46.72964102],[-1.90597982,46.72931297],[-1.90337219,46.72847813],[-1.90348823,46.72817997],[-1.90408945,46.72753088],[-1.90461589,46.72711413],[-1.90560105,46.72685187],[-1.90608322,46.72699002],[-1.90692776,46.72765306],[-1.9075961,46.7279781],[-1.90823183,46.72813132],[-1.9086433,46.7280244],[-1.90889449,46.72772677],[-1.90894796,46.72737535],[-1.90822899,46.72550529],[-1.90829004,46.7251797],[-1.90861667,46.72471555],[-1.90911606,46.72440639],[-1.91062132,46.72416602],[-1.91209359,46.72440158],[-1.91305294,46.72443446],[-1.91376749,46.72389412],[-1.91395391,46.72256358],[-1.91417961,46.72210102],[-1.91454934,46.72178025],[-1.91491101,46.7216601],[-1.91609957,46.7215884],[-1.91662347,46.72166608],[-1.91701203,46.72181361],[-1.91877886,46.72288177],[-1.92019658,46.72355711],[-1.92166519,46.72454691],[-1.92221795,46.72462423],[-1.93610366,46.72994831],[-1.94374936,46.72497369],[-1.94485321,46.72554048],[-1.94844043,46.72755728],[-1.94891181,46.7275613],[-1.94915175,46.72748779],[-1.94933647,46.72738419],[-1.94947609,46.72724645],[-1.94956327,46.72624668],[-1.9494084,46.72536923],[-1.94906219,46.72452259],[-1.94903495,46.72376413],[-1.94893635,46.72348871],[-1.94899136,46.72340153],[-1.94911705,46.72336994],[-1.94944205,46.72343801],[-1.95095091,46.72391418],[-1.95280033,46.72426917],[-1.95464551,46.72443396],[-1.95528086,46.72443808],[-1.95584667,46.72437032],[-1.95601519,46.72424756],[-1.95605627,46.72409422],[-1.95623304,46.72236791],[-1.95630031,46.7221566],[-1.95641523,46.72200729],[-1.95775566,46.72101377],[-1.95833086,46.72071915],[-1.96227908,46.71968225],[-1.96259767,46.71956561],[-1.96283086,46.72026464],[-1.9630201,46.72105669],[-1.96303747,46.7215332],[-1.96287683,46.72231513],[-1.96302617,46.72226988],[-1.9631564,46.722331],[-1.97074679,46.72001017],[-1.97097276,46.71989932],[-1.9722967,46.71881522],[-1.97276791,46.71850337],[-1.97369201,46.71806633],[-1.9752392,46.71745788],[-1.97587702,46.71728946],[-1.9768208,46.71719617],[-1.97756116,46.71718749],[-1.97806241,46.71718918],[-1.97992955,46.71742297],[-1.98014516,46.71787102],[-1.9808771,46.71878474],[-1.98187334,46.71977629],[-1.98329822,46.72102076],[-1.98518463,46.72244726],[-1.98636963,46.72346394],[-1.98891221,46.72517581],[-1.99185073,46.72740992],[-1.99495548,46.7299931],[-1.99848785,46.73271365],[-2.00377348,46.73642675],[-2.00958344,46.74079251],[-2.01037346,46.74127498],[-2.01070163,46.74158815],[-2.01094495,46.7416506],[-2.01132763,46.74191447],[-2.01191958,46.74246874],[-2.01270749,46.74292782],[-2.01310907,46.74325402],[-2.01321535,46.74345238],[-2.01340237,46.74350195],[-2.01558725,46.74527133],[-2.01791983,46.74733015],[-2.019128,46.74827245],[-2.02062601,46.74929679],[-2.02066655,46.74939427],[-2.02087144,46.7494665],[-2.02091369,46.74956841],[-2.02115121,46.74965274],[-2.02112905,46.74973943],[-2.02142629,46.74995829],[-2.02325384,46.75115223],[-2.03353901,46.75722188],[-2.0342749,46.75775259],[-2.03458567,46.75786166],[-2.03903041,46.76097686],[-2.03918478,46.76125338],[-2.04122512,46.76272193],[-2.04541448,46.76553956],[-2.04641699,46.76611081],[-2.04648171,46.7663263],[-2.0488201,46.76793139],[-2.05128757,46.76976444],[-2.05191748,46.77012649],[-2.05687878,46.77391396],[-2.05821915,46.77480948],[-2.0585335,46.77512404],[-2.05603787,46.77571039],[-2.05432585,46.77596895],[-2.05250918,46.77634487],[-2.05018995,46.77737354],[-2.04842055,46.7778628],[-2.04617061,46.77901645],[-2.04530287,46.77933068],[-2.0448445,46.77942932],[-2.04393369,46.7794504],[-2.04194977,46.77914599],[-2.04134598,46.77898033],[-2.04047486,46.77838342],[-2.04026451,46.77826815],[-2.04011935,46.77828896],[-2.03911335,46.77748412],[-2.03890453,46.77711706],[-2.03818205,46.77629616],[-2.03793759,46.77579984],[-2.03780265,46.77577509],[-2.03704458,46.77365292],[-2.03667643,46.77318187],[-2.03597352,46.77258476],[-2.03399521,46.77143279],[-2.03200515,46.77042204],[-2.03072459,46.76944333],[-2.02798243,46.76822188],[-2.02751822,46.76817185],[-2.02697359,46.76794849],[-2.0260224,46.7672774],[-2.02578448,46.76701985],[-2.02334305,46.765768],[-2.02222878,46.76503634],[-2.02241789,46.764881],[-2.02189555,46.76451501],[-2.02125872,46.76387703],[-2.02049495,46.76249215],[-2.01999563,46.76126893],[-2.01898306,46.75983358],[-2.01869453,46.75926968],[-2.01851907,46.75883526],[-2.01856708,46.75826206],[-2.01922128,46.75737362],[-2.01972864,46.75694092],[-2.02027114,46.75666095],[-2.02106946,46.75582664],[-2.02105609,46.75527146],[-2.0207257,46.7547942],[-2.02098217,46.75461517],[-2.02030807,46.75414032],[-2.01958962,46.75444784],[-2.01888372,46.75429557],[-2.01874765,46.75434302],[-2.01714063,46.75303561],[-2.01682619,46.75319823],[-2.01641205,46.75324791],[-2.01606307,46.75286709],[-2.01452531,46.75178218],[-2.01336268,46.75075032],[-2.01146702,46.74996701],[-2.01106381,46.74972298],[-2.01093633,46.74960765],[-2.01067393,46.74878546],[-2.01051237,46.74855704],[-2.01006734,46.74810191],[-2.00961385,46.74788172],[-2.00878862,46.74768679],[-2.00789869,46.74733137],[-2.00730594,46.74730853],[-2.0065132,46.74747936],[-2.00558774,46.7479898],[-2.00343204,46.74993247],[-2.00300509,46.75046896],[-2.0026443,46.75189305],[-2.0026808,46.75301381],[-2.00232097,46.75335339],[-2.00135995,46.75370746],[-1.99952355,46.75394989],[-1.99769071,46.75359037],[-1.99719642,46.75335477],[-1.99637296,46.75251007],[-1.99614227,46.75244253],[-1.99500812,46.75264168],[-1.99370152,46.7529638],[-1.99341658,46.75310522],[-1.99304401,46.75357795],[-1.99311918,46.75439388],[-1.99137075,46.75450875],[-1.99067775,46.75442432],[-1.98958035,46.75458121],[-1.98844213,46.75433749],[-1.98829853,46.7542463],[-1.9864965,46.75168118],[-1.98619573,46.75139382],[-1.98509755,46.75091375],[-1.98401681,46.75060885],[-1.9839103,46.74920785],[-1.98232329,46.7487923],[-1.98229247,46.7486141],[-1.98150822,46.74887822],[-1.98073144,46.74952363],[-1.98039011,46.7496801],[-1.97976389,46.74970728],[-1.9787456,46.74928143],[-1.97787012,46.74872397],[-1.97654957,46.74842219],[-1.9762433,46.74803129],[-1.97624277,46.74723919],[-1.97517452,46.74686871],[-1.97419491,46.74676323],[-1.97362965,46.74686803],[-1.97307035,46.74715211],[-1.97246109,46.74822235],[-1.97213189,46.74833947],[-1.97050442,46.74861208],[-1.97027076,46.74875483],[-1.9699885,46.749155],[-1.96992205,46.75009074],[-1.9700793,46.75057472],[-1.97070836,46.7511366],[-1.97214518,46.75157505],[-1.97225026,46.7517762],[-1.97221028,46.75215595],[-1.97138738,46.75244332],[-1.97037631,46.75309791],[-1.96995338,46.75326689],[-1.96944104,46.7534199],[-1.96818403,46.7534969],[-1.96798567,46.75356683],[-1.96773365,46.7536815],[-1.96698314,46.75437259],[-1.96668577,46.75450816],[-1.96626306,46.75453638],[-1.96543407,46.7543855],[-1.96461501,46.75391302],[-1.9643194,46.75436878],[-1.9643569,46.75472081],[-1.96420871,46.75531004],[-1.96464444,46.75615457],[-1.96443249,46.75646327],[-1.96355994,46.75698369],[-1.96356817,46.75720256],[-1.96383723,46.75774667],[-1.96401831,46.75846238],[-1.96541627,46.75912004],[-1.96585989,46.7592479],[-1.96608892,46.76037203],[-1.96578863,46.76081988],[-1.96488175,46.76178295],[-1.96485528,46.76205295],[-1.96487548,46.76231642],[-1.96505377,46.76260011],[-1.96600257,46.76339808],[-1.96591583,46.76372662],[-1.9656431,46.76410291],[-1.96600108,46.76455655],[-1.96718782,46.76552917],[-1.9681816,46.76601483],[-1.96891133,46.76741501],[-1.96921667,46.767695],[-1.96948554,46.76773478],[-1.97085792,46.76748047],[-1.97157156,46.76724476],[-1.97179703,46.76728371],[-1.97247813,46.76785236],[-1.97382607,46.76937729],[-1.9738946,46.76980917],[-1.97341356,46.77081972],[-1.97339297,46.77103894],[-1.97538057,46.77157801],[-1.97638087,46.77154637],[-1.97691284,46.7716054],[-1.97707676,46.77181753],[-1.97841494,46.77199045],[-1.97854475,46.77198843],[-1.97923222,46.7716248],[-1.97974958,46.77161047],[-1.98047025,46.77246515],[-1.98108114,46.77288252],[-1.98077192,46.77377558],[-1.98081064,46.77391103],[-1.98194251,46.77455299],[-1.9821566,46.7753674],[-1.98299301,46.77610878],[-1.98273655,46.77684708],[-1.98390304,46.77800718],[-1.98383907,46.77901049],[-1.98357007,46.77931268],[-1.98364687,46.77983352],[-1.98314358,46.78050133],[-1.98252635,46.78071578],[-1.98220501,46.78093453],[-1.98236447,46.78138321],[-1.98263922,46.78165728],[-1.98379473,46.78236857],[-1.98399779,46.78257718],[-1.98403238,46.78338134],[-1.98380226,46.7837495],[-1.98367102,46.78422163],[-1.9838048,46.78431958],[-1.9849559,46.78456822],[-1.98622148,46.78466212],[-1.98712413,46.78507942],[-1.98817146,46.78507091],[-1.98834397,46.78513289],[-1.98859134,46.78538016],[-1.98907621,46.78625227],[-1.98931972,46.78677127],[-1.98956713,46.78770332],[-1.98954915,46.78822105],[-1.98788882,46.78929012],[-1.98731275,46.79029493],[-1.98691839,46.79054844],[-1.98573083,46.79106103],[-1.98536117,46.79102656],[-1.98501126,46.79087846],[-1.98416867,46.79017253],[-1.98316328,46.78978132],[-1.98250483,46.789606],[-1.98168086,46.7896589],[-1.97978383,46.7908987],[-1.97944835,46.79120736],[-1.97948728,46.79164504],[-1.98001424,46.79250452],[-1.97952798,46.79293069],[-1.9792554,46.79300928],[-1.97922833,46.79291482]]]]},"bbox":[-2.0585335,46.71718749,-1.90069774,46.79855403]},{"type":"Feature","id":"fr-quartier-85226-8fe4fd44e12d","properties":{"id":"fr-quartier-85226-8fe4fd44e12d","kind":"quartier","name":"Rue Georges Clemenceau","cityCode":"85226","cityName":"Saint-Hilaire-de-Riez","sourceType":"iris","sourceIds":["852260101"],"colorIndex":1,"center":[-1.9436193471062142,46.71568424440404]},"geometry":{"type":"MultiPolygon","coordinates":[[[[-1.92221795,46.72462423],[-1.92246619,46.72439615],[-1.92355614,46.72267405],[-1.92377147,46.72217042],[-1.92394846,46.72117224],[-1.92373286,46.72024235],[-1.92321359,46.71962321],[-1.92211435,46.71891529],[-1.92169147,46.71840387],[-1.92177005,46.71697147],[-1.92200458,46.71639034],[-1.92259611,46.7159707],[-1.92410493,46.71555587],[-1.92450304,46.71537548],[-1.92553252,46.7143912],[-1.92601114,46.71405759],[-1.92714058,46.7136112],[-1.92926191,46.71370226],[-1.93033221,46.71403425],[-1.93257697,46.71454485],[-1.93338263,46.71454808],[-1.93397138,46.71435855],[-1.93449908,46.71378642],[-1.93548519,46.71244304],[-1.93572569,46.71197258],[-1.93564816,46.71169715],[-1.93488227,46.71054466],[-1.93454251,46.70985198],[-1.93473821,46.70811048],[-1.93474841,46.70662236],[-1.93500921,46.70607254],[-1.93625268,46.70414338],[-1.93645029,46.70324532],[-1.94098027,46.70445935],[-1.94723633,46.70312766],[-1.94747081,46.70313919],[-1.94824075,46.70259442],[-1.95037588,46.70184905],[-1.95065238,46.70181816],[-1.95066589,46.7019087],[-1.95154435,46.70173452],[-1.95204881,46.70172987],[-1.95205204,46.70165034],[-1.95242783,46.70165846],[-1.95445671,46.70138764],[-1.95638413,46.70167151],[-1.95651902,46.70154027],[-1.95657383,46.70159474],[-1.95655468,46.70167225],[-1.95728073,46.70186821],[-1.95796684,46.70217234],[-1.95837485,46.70241813],[-1.95874781,46.70273942],[-1.95940617,46.70345705],[-1.95937666,46.70355035],[-1.95951288,46.70360581],[-1.95974518,46.70393769],[-1.96018938,46.70475119],[-1.9604211,46.7053348],[-1.9606235,46.70615697],[-1.960746,46.70703762],[-1.9606263,46.70732067],[-1.96065017,46.70736655],[-1.96075306,46.70738736],[-1.96098042,46.7096727],[-1.9611048,46.70969889],[-1.96117196,46.70977358],[-1.96115126,46.70984845],[-1.96101274,46.70991128],[-1.96114336,46.71138252],[-1.96097691,46.71145558],[-1.96095745,46.71154394],[-1.9610086,46.7116157],[-1.96117088,46.71165469],[-1.96152551,46.71544569],[-1.96161057,46.71580198],[-1.96186974,46.7162978],[-1.96101804,46.71650878],[-1.96191724,46.71784932],[-1.96259767,46.71956561],[-1.96227908,46.71968225],[-1.95833086,46.72071915],[-1.95775566,46.72101377],[-1.95641523,46.72200729],[-1.95630031,46.7221566],[-1.95623304,46.72236791],[-1.95605627,46.72409422],[-1.95601519,46.72424756],[-1.95584667,46.72437032],[-1.95528086,46.72443808],[-1.95464551,46.72443396],[-1.95280033,46.72426917],[-1.95095091,46.72391418],[-1.94944205,46.72343801],[-1.94911705,46.72336994],[-1.94899136,46.72340153],[-1.94893635,46.72348871],[-1.94903495,46.72376413],[-1.94906219,46.72452259],[-1.9494084,46.72536923],[-1.94956327,46.72624668],[-1.94947609,46.72724645],[-1.94933647,46.72738419],[-1.94915175,46.72748779],[-1.94891181,46.7275613],[-1.94844043,46.72755728],[-1.94485321,46.72554048],[-1.94374936,46.72497369],[-1.93610366,46.72994831],[-1.92221795,46.72462423]]]]},"bbox":[-1.96259767,46.70138764,-1.92169147,46.72994831]},{"type":"Feature","id":"fr-quartier-85226-e6bf62cf7732","properties":{"id":"fr-quartier-85226-e6bf62cf7732","kind":"quartier","name":"Sion-Bussoleries-Terre Fort","cityCode":"85226","cityName":"Saint-Hilaire-de-Riez","sourceType":"iris","sourceIds":["852260102"],"colorIndex":2,"center":[-1.9686489337464335,46.70723945010342]},"geometry":{"type":"MultiPolygon","coordinates":[[[[-1.95651902,46.70154027],[-1.95718614,46.70083297],[-1.95891494,46.6984991],[-1.95947163,46.69708654],[-1.96072383,46.69642608],[-1.95982634,46.69610404],[-1.96010453,46.6948154],[-1.96006214,46.69433727],[-1.9605594,46.69402524],[-1.96093737,46.69351267],[-1.96107218,46.6934527],[-1.96106083,46.69329982],[-1.96119452,46.69328501],[-1.96141056,46.69309522],[-1.96138585,46.69299705],[-1.96160904,46.69289987],[-1.96163305,46.6925172],[-1.96150879,46.69247747],[-1.96153937,46.69228128],[-1.96121555,46.69213831],[-1.96131457,46.69201674],[-1.96140244,46.69207429],[-1.96160096,46.69195111],[-1.96177304,46.69211237],[-1.96190686,46.69202719],[-1.96191907,46.69184532],[-1.96221601,46.69208147],[-1.96268072,46.69210194],[-1.96279696,46.69198233],[-1.96309734,46.69211277],[-1.96314982,46.69196976],[-1.96329315,46.69195994],[-1.963357,46.69198424],[-1.96340806,46.69192609],[-1.96353143,46.69198481],[-1.96363073,46.69192367],[-1.96373785,46.69209135],[-1.96385618,46.69205194],[-1.96388193,46.69210405],[-1.96398592,46.69222315],[-1.96413212,46.69224478],[-1.96421672,46.69216624],[-1.96459768,46.69231754],[-1.96473483,46.69209688],[-1.96483939,46.69209325],[-1.96491206,46.692128],[-1.96496067,46.69205732],[-1.96504498,46.69204735],[-1.96512534,46.69235243],[-1.96539662,46.69216474],[-1.96539472,46.69200063],[-1.96583496,46.69194005],[-1.96579263,46.69233705],[-1.96588857,46.69238251],[-1.96595087,46.69228959],[-1.96601448,46.69232563],[-1.96619608,46.69230423],[-1.96623602,46.69245407],[-1.96643663,46.69252567],[-1.96643886,46.69267895],[-1.96653723,46.69269363],[-1.96653898,46.6927558],[-1.96666702,46.69282243],[-1.96666499,46.69295785],[-1.96691812,46.69307319],[-1.96694513,46.69318209],[-1.96746361,46.69325976],[-1.96764332,46.69321768],[-1.96783143,46.69361101],[-1.96838559,46.6935915],[-1.96857196,46.69405166],[-1.96893245,46.69440864],[-1.96924167,46.69420577],[-1.96945514,46.69421727],[-1.96945912,46.69428927],[-1.96929799,46.69430528],[-1.96930987,46.69469271],[-1.96952258,46.69488197],[-1.9695046,46.69507221],[-1.96964517,46.69507514],[-1.96970801,46.69527451],[-1.96994289,46.69551965],[-1.97032027,46.69573154],[-1.97043601,46.69593583],[-1.97073886,46.69592089],[-1.97064885,46.69606915],[-1.97073457,46.69618903],[-1.97097795,46.69612615],[-1.97087187,46.69628502],[-1.97060171,46.69634185],[-1.97085912,46.69647504],[-1.97093016,46.69670653],[-1.97108972,46.69677359],[-1.97126599,46.69669377],[-1.97187156,46.69671983],[-1.97186953,46.69684081],[-1.97197437,46.69686874],[-1.97203525,46.69704654],[-1.9721121,46.69708381],[-1.97214414,46.6970328],[-1.97268375,46.6970545],[-1.97270043,46.69717918],[-1.97285599,46.69724551],[-1.97277507,46.6973212],[-1.97299258,46.69736228],[-1.97305469,46.69745342],[-1.97279426,46.69763072],[-1.97243728,46.69774184],[-1.97284721,46.69809396],[-1.97297124,46.69843142],[-1.9733033,46.69887804],[-1.97455389,46.6998604],[-1.97454859,46.69995987],[-1.9747049,46.70001985],[-1.97494631,46.70032153],[-1.97516203,46.70035728],[-1.97556325,46.7008857],[-1.97585709,46.70100106],[-1.97604485,46.70127529],[-1.97633379,46.70138004],[-1.97676188,46.70200111],[-1.97705778,46.7021245],[-1.97704772,46.70220072],[-1.97706466,46.70224239],[-1.97701157,46.70230695],[-1.97717278,46.7023631],[-1.97754449,46.7028125],[-1.97766609,46.70276572],[-1.9777483,46.70303281],[-1.97793948,46.7031869],[-1.97788173,46.70324354],[-1.97815564,46.70332728],[-1.97832825,46.70352188],[-1.97827977,46.70372247],[-1.97842896,46.70366186],[-1.97842909,46.70380621],[-1.97864943,46.70387783],[-1.9785718,46.70416089],[-1.97879583,46.70415838],[-1.97878896,46.70422634],[-1.97896154,46.70430636],[-1.97896477,46.70444155],[-1.97906308,46.70445532],[-1.97901681,46.7045656],[-1.97909521,46.70459106],[-1.97907353,46.70462629],[-1.97913059,46.70470501],[-1.97930322,46.70474262],[-1.97917878,46.7049014],[-1.97939637,46.70517163],[-1.97933291,46.70523754],[-1.97949417,46.705337],[-1.97970335,46.70532972],[-1.97937808,46.70551527],[-1.97943766,46.70557854],[-1.97953132,46.70559883],[-1.97950279,46.70564518],[-1.97958337,46.70572288],[-1.97955102,46.70579917],[-1.97964861,46.70581929],[-1.97964229,46.70586467],[-1.97941559,46.7059097],[-1.97921148,46.70617209],[-1.97933335,46.70728553],[-1.9795419,46.70800004],[-1.97979172,46.70849262],[-1.98002198,46.70867208],[-1.98017902,46.70895397],[-1.9806359,46.70925891],[-1.98062713,46.70939192],[-1.98043011,46.70940318],[-1.98083276,46.70967439],[-1.98075389,46.70985826],[-1.98082536,46.70987952],[-1.98074468,46.70995791],[-1.98083537,46.71001712],[-1.9807048,46.71009497],[-1.98091696,46.71012003],[-1.9809438,46.71018383],[-1.98070453,46.71032053],[-1.98095831,46.71049897],[-1.98069518,46.71061867],[-1.980767,46.71067238],[-1.98069903,46.71071774],[-1.98076442,46.71078708],[-1.98065165,46.71087317],[-1.98073595,46.7109056],[-1.98038626,46.71119687],[-1.98044125,46.7113244],[-1.9802599,46.71184924],[-1.98007867,46.71180388],[-1.97999603,46.71197528],[-1.97985544,46.71200124],[-1.97960138,46.71249134],[-1.97946179,46.71297106],[-1.97946579,46.71341477],[-1.97935513,46.71348093],[-1.97931964,46.71369449],[-1.97925354,46.71444619],[-1.9793334,46.71593045],[-1.9795464,46.71665018],[-1.97992955,46.71742297],[-1.97806241,46.71718918],[-1.97756116,46.71718749],[-1.9768208,46.71719617],[-1.97587702,46.71728946],[-1.9752392,46.71745788],[-1.97369201,46.71806633],[-1.97276791,46.71850337],[-1.9722967,46.71881522],[-1.97097276,46.71989932],[-1.97074679,46.72001017],[-1.9631564,46.722331],[-1.96302617,46.72226988],[-1.96287683,46.72231513],[-1.96303747,46.7215332],[-1.9630201,46.72105669],[-1.96283086,46.72026464],[-1.96259767,46.71956561],[-1.96191724,46.71784932],[-1.96101804,46.71650878],[-1.96186974,46.7162978],[-1.96161057,46.71580198],[-1.96152551,46.71544569],[-1.96117088,46.71165469],[-1.9610086,46.7116157],[-1.96095745,46.71154394],[-1.96097691,46.71145558],[-1.96114336,46.71138252],[-1.96101274,46.70991128],[-1.96115126,46.70984845],[-1.96117196,46.70977358],[-1.9611048,46.70969889],[-1.96098042,46.7096727],[-1.96075306,46.70738736],[-1.96065017,46.70736655],[-1.9606263,46.70732067],[-1.960746,46.70703762],[-1.9606235,46.70615697],[-1.9604211,46.7053348],[-1.96018938,46.70475119],[-1.95974518,46.70393769],[-1.95951288,46.70360581],[-1.95937666,46.70355035],[-1.95940617,46.70345705],[-1.95874781,46.70273942],[-1.95837485,46.70241813],[-1.95796684,46.70217234],[-1.95728073,46.70186821],[-1.95655468,46.70167225],[-1.95657383,46.70159474],[-1.95651902,46.70154027]]]]},"bbox":[-1.98095831,46.69184532,-1.95651902,46.722331]}]}