{"type":"FeatureCollection","metadata":{"sourceType":"iris","referenceFile":"feytiat-quartiers.geojson","source":"IGN / INSEE - Contours IRIS WFS Géoplateforme","sourceUrl":"https://geoservices.ign.fr/contoursiris","license":"Licence Ouverte / Open Licence 2.0","sourceYear":"2026"},"features":[{"type":"Feature","id":"fr-quartier-87065-64950664f739","properties":{"id":"fr-quartier-87065-64950664f739","kind":"quartier","name":"Crézin","cityCode":"87065","cityName":"Feytiat","sourceType":"iris","sourceIds":["870650105"],"colorIndex":0,"center":[1.3032426666510806,45.813438741535954]},"geometry":{"type":"MultiPolygon","coordinates":[[[[1.29582135,45.79882148],[1.29568572,45.7996697],[1.29490619,45.80097745],[1.29072685,45.80490705],[1.29432122,45.80657457],[1.29499553,45.80671716],[1.29679449,45.80676593],[1.29784904,45.80702413],[1.29794281,45.80895394],[1.2971903,45.81339205],[1.29686505,45.81441574],[1.29609539,45.8157732],[1.29571205,45.81625739],[1.29510999,45.8172751],[1.29355867,45.8185802],[1.29367085,45.81903495],[1.29463018,45.82017262],[1.2961672,45.8199157],[1.29624265,45.82060137],[1.29676261,45.82070019],[1.29850176,45.82073992],[1.29899196,45.82067615],[1.29910101,45.82085793],[1.29970566,45.82088415],[1.2997266,45.82108262],[1.30134781,45.82060173],[1.3012249,45.81990724],[1.30223156,45.81980439],[1.30228957,45.82001242],[1.30277834,45.82003688],[1.30294651,45.82022315],[1.30279755,45.82112972],[1.30341244,45.82120021],[1.30407184,45.82141547],[1.30406087,45.82126939],[1.30415929,45.82121053],[1.30436438,45.82132799],[1.30460717,45.82130822],[1.30479051,45.82137853],[1.30500707,45.82162587],[1.3053872,45.82170633],[1.30511834,45.82186172],[1.30521955,45.82217398],[1.30539194,45.8222234],[1.30566418,45.82246167],[1.30596852,45.82249326],[1.30657103,45.82229603],[1.30755527,45.82229548],[1.30724323,45.82024622],[1.30710275,45.81999642],[1.30776231,45.8198703],[1.30776497,45.81957311],[1.30845968,45.81939257],[1.30863676,45.82008786],[1.30895933,45.82002874],[1.30891543,45.81969573],[1.30935225,45.81969146],[1.30930094,45.82023111],[1.30986111,45.82023769],[1.30985564,45.81974313],[1.31028025,45.819128],[1.30994494,45.81859337],[1.31018768,45.81865916],[1.31057889,45.81858755],[1.31055691,45.8181693],[1.31095514,45.81795278],[1.310908,45.81755667],[1.31207315,45.81753447],[1.31261991,45.81738862],[1.31314384,45.81714695],[1.31324845,45.81718004],[1.31319746,45.81728916],[1.31336801,45.81752499],[1.31450554,45.81785902],[1.31440987,45.81816563],[1.31451309,45.81870849],[1.31483572,45.81906908],[1.31578386,45.81860316],[1.31606596,45.81868753],[1.3160697,45.81860742],[1.31601782,45.81840759],[1.31566685,45.81796282],[1.31481313,45.81753036],[1.31479537,45.81680413],[1.31667883,45.81683853],[1.31817879,45.81707255],[1.31834401,45.81778025],[1.31889539,45.81777856],[1.31825068,45.81708082],[1.31757394,45.81625111],[1.31764841,45.81465258],[1.31485422,45.81529815],[1.31474943,45.81535513],[1.31423314,45.81547442],[1.31403575,45.81535798],[1.31326845,45.81517629],[1.31244501,45.81514597],[1.31204664,45.81507337],[1.3115611,45.81486075],[1.31118456,45.81449574],[1.31107277,45.8142761],[1.31114882,45.81393767],[1.31207177,45.81298773],[1.3122008,45.81268522],[1.3122762,45.81181988],[1.31217635,45.81167337],[1.31169013,45.81144183],[1.31154212,45.81131172],[1.31151275,45.81117708],[1.3115909,45.81085399],[1.31176184,45.81057103],[1.31211247,45.8103502],[1.31235826,45.81027281],[1.31286733,45.81022007],[1.31286118,45.81016864],[1.31306882,45.81003304],[1.31317889,45.80988697],[1.3131829,45.80979786],[1.31306161,45.80967895],[1.3124249,45.8093569],[1.31199801,45.80924964],[1.31190266,45.80908248],[1.31134482,45.80896155],[1.31079464,45.8091794],[1.31061375,45.80919831],[1.31043773,45.8091002],[1.3101156,45.80906295],[1.30977568,45.80893357],[1.30897324,45.80876753],[1.30875422,45.80876965],[1.3084145,45.80880239],[1.30831533,45.80884414],[1.30816155,45.80902918],[1.30778273,45.80932884],[1.30763182,45.80937792],[1.30721143,45.80939503],[1.30634154,45.80924418],[1.30588083,45.8092742],[1.30512337,45.80869178],[1.30502507,45.80857952],[1.30503134,45.80845892],[1.30464796,45.80827753],[1.30423283,45.80812358],[1.30379583,45.80817826],[1.30369416,45.8082596],[1.30335158,45.80821752],[1.30301173,45.80796112],[1.30266371,45.80788653],[1.30229255,45.80772693],[1.30219124,45.80762904],[1.30213628,45.80740574],[1.30191979,45.80732592],[1.30180323,45.80722149],[1.30148395,45.80713382],[1.30111054,45.80717324],[1.30088774,45.80704739],[1.30065472,45.80704478],[1.30029093,45.80698076],[1.29977214,45.80676398],[1.29949693,45.8067094],[1.29951983,45.80663499],[1.29968017,45.80653022],[1.29962668,45.80646907],[1.29952179,45.80644587],[1.2995055,45.80626368],[1.29881343,45.80594522],[1.29871115,45.80587882],[1.2987038,45.80578324],[1.29796945,45.80549926],[1.29806384,45.80678238],[1.29800431,45.80687515],[1.29802369,45.80704027],[1.29798563,45.80702168],[1.29775416,45.80609137],[1.29767692,45.80609021],[1.29639048,45.80141058],[1.29614092,45.80019177],[1.29612664,45.79977813],[1.29614071,45.79940546],[1.29631206,45.79865145],[1.29658575,45.79800258],[1.29697981,45.79737533],[1.29748459,45.79679029],[1.29737071,45.79676695],[1.29773947,45.79641674],[1.29756924,45.79650874],[1.29638338,45.79767527],[1.29575248,45.79813231],[1.29563794,45.79829721],[1.29582135,45.79882148]]],[[[1.31919429,45.81904578],[1.31970379,45.81910831],[1.3199832,45.81907013],[1.3199907,45.81899278],[1.31912235,45.81802422],[1.31919429,45.81904578]]]]},"bbox":[1.29072685,45.79641674,1.3199907,45.82249326]},{"type":"Feature","id":"fr-quartier-87065-09779a2de5a7","properties":{"id":"fr-quartier-87065-09779a2de5a7","kind":"quartier","name":"Le Reste de Feytiat","cityCode":"87065","cityName":"Feytiat","sourceType":"iris","sourceIds":["870650103"],"colorIndex":1,"center":[1.3319490437021446,45.804104776060036]},"geometry":{"type":"MultiPolygon","coordinates":[[[[1.37575488,45.81220605],[1.37481839,45.81216645],[1.37460128,45.81241011],[1.37401855,45.81247287],[1.37328861,45.81294152],[1.37284465,45.81349625],[1.3728197,45.81290054],[1.37248676,45.81117454],[1.3726445,45.81045446],[1.3727525,45.81041729],[1.372962,45.80977632],[1.37310067,45.8096162],[1.37188338,45.80848721],[1.37178378,45.80832725],[1.37182762,45.80819458],[1.37130699,45.80755029],[1.3706635,45.80775357],[1.37042326,45.80856252],[1.37043097,45.80891209],[1.3705054,45.80892127],[1.37045552,45.80943304],[1.37029861,45.8096001],[1.37125845,45.8099382],[1.37160239,45.81019806],[1.3714685,45.81111302],[1.37222768,45.8126227],[1.37202136,45.81267467],[1.37177507,45.81220366],[1.37102082,45.81135695],[1.36968032,45.81152224],[1.36950225,45.81140258],[1.36945054,45.81079838],[1.36989714,45.81041663],[1.36975122,45.81003714],[1.36983511,45.81003114],[1.36978385,45.80980433],[1.36969864,45.80989857],[1.36952538,45.80957273],[1.36825182,45.80956604],[1.36863459,45.80877266],[1.36771246,45.80859811],[1.36771781,45.80867835],[1.36713086,45.80892836],[1.36693925,45.80913634],[1.36636393,45.80794813],[1.3657665,45.80794308],[1.36604424,45.80848031],[1.36602597,45.80870611],[1.3658365,45.80888531],[1.36560671,45.8089036],[1.36567917,45.80932707],[1.36499473,45.80951981],[1.3648224,45.80946778],[1.36467988,45.80975754],[1.36391752,45.81066699],[1.36368183,45.81057981],[1.36325653,45.81071956],[1.36235199,45.81047226],[1.36177854,45.81052609],[1.36203934,45.80855107],[1.3595042,45.80848273],[1.35871979,45.80865868],[1.35853534,45.80814801],[1.35863641,45.8079108],[1.35839533,45.80787577],[1.35879772,45.80737994],[1.35836855,45.80721698],[1.35829977,45.80693136],[1.3580133,45.80651738],[1.35762708,45.80646943],[1.35735261,45.80634475],[1.35721098,45.80621389],[1.35718168,45.80602972],[1.35686736,45.80572972],[1.35676591,45.80572014],[1.35658223,45.80587689],[1.3564971,45.80540549],[1.35669845,45.80526071],[1.35719846,45.80494644],[1.35822334,45.80456415],[1.3595364,45.80388791],[1.36031286,45.80319666],[1.36392417,45.80118469],[1.36461536,45.80071734],[1.36519955,45.80016648],[1.36696994,45.7991284],[1.36811864,45.79851544],[1.37135928,45.79735082],[1.37007527,45.79574439],[1.37073062,45.79535305],[1.369395,45.79453755],[1.3681276,45.79324477],[1.36756309,45.79252327],[1.36695174,45.79120933],[1.36609755,45.79131586],[1.36606573,45.7907813],[1.36635391,45.79048374],[1.36587559,45.78998414],[1.36158514,45.79204395],[1.35986841,45.79231984],[1.35892414,45.79099381],[1.35733429,45.79176599],[1.35688094,45.79185757],[1.35635675,45.79216607],[1.3556742,45.79182558],[1.35580498,45.79149783],[1.35559754,45.79145968],[1.35553335,45.79132365],[1.35481472,45.79141675],[1.35417021,45.79135602],[1.35376093,45.79122125],[1.35351322,45.79141128],[1.35339486,45.79192655],[1.35286178,45.7926186],[1.35274217,45.79270062],[1.35196617,45.79277396],[1.3514233,45.79249943],[1.3509829,45.7923723],[1.35084948,45.79196774],[1.35002293,45.79119098],[1.3489293,45.78991673],[1.34775876,45.78923579],[1.34728518,45.78862629],[1.34631961,45.78849686],[1.34585585,45.78854951],[1.3448301,45.78892447],[1.34463801,45.78889013],[1.34412962,45.78927177],[1.343788,45.78937213],[1.34353783,45.78912798],[1.34287889,45.78791859],[1.34207501,45.78673499],[1.34181298,45.78585747],[1.3401367,45.78431877],[1.33812685,45.7853556],[1.33753627,45.78581526],[1.33707213,45.7863083],[1.33609795,45.78779179],[1.3351867,45.78885107],[1.3338604,45.78919988],[1.33316765,45.78954452],[1.3329496,45.78887749],[1.33260719,45.78879047],[1.33071509,45.78920114],[1.3290508,45.78927288],[1.32908486,45.78908334],[1.32820483,45.78872354],[1.32945216,45.78800705],[1.32916819,45.78777587],[1.32923227,45.78753003],[1.32788274,45.78668951],[1.32727046,45.78692723],[1.32714794,45.78689208],[1.32638888,45.78725732],[1.32757043,45.78833045],[1.32634191,45.78931741],[1.32570218,45.78833607],[1.32503268,45.7886765],[1.32454635,45.78828379],[1.324119,45.78823871],[1.32373309,45.78810058],[1.32350746,45.78692363],[1.32330288,45.78679269],[1.32282426,45.78674054],[1.32258982,45.78632094],[1.32274388,45.78625027],[1.32190578,45.78565686],[1.31960483,45.78490837],[1.31964061,45.78436669],[1.31980779,45.78420345],[1.31942165,45.78411664],[1.31880531,45.78423355],[1.31666614,45.78350182],[1.31448279,45.7830387],[1.31346524,45.78516535],[1.30988464,45.78387422],[1.30942309,45.78452752],[1.30736553,45.78382475],[1.30612674,45.78476],[1.30573019,45.78539084],[1.30519841,45.785436],[1.30487034,45.78517707],[1.30431234,45.78490208],[1.30167787,45.78420676],[1.30163492,45.78443129],[1.30053649,45.78578021],[1.29899089,45.78538583],[1.2984972,45.78619983],[1.29681512,45.78605646],[1.29684312,45.78652615],[1.29473114,45.7864213],[1.29448622,45.78597265],[1.29331345,45.78613776],[1.28997581,45.78728246],[1.28684513,45.78731244],[1.2829353,45.7912017],[1.28281427,45.79116022],[1.28169684,45.79243843],[1.28060227,45.79244337],[1.27960876,45.79222107],[1.27896353,45.79218511],[1.27844137,45.7923726],[1.27751154,45.79299882],[1.27716363,45.79313131],[1.27618386,45.79329379],[1.27499942,45.79337207],[1.27546868,45.794343],[1.2744382,45.79464429],[1.27482413,45.79502669],[1.27535558,45.79516091],[1.27546306,45.79584258],[1.27541762,45.79643185],[1.27563166,45.79658734],[1.27542037,45.79803425],[1.27441369,45.79930237],[1.27378978,45.79961168],[1.27330271,45.79949794],[1.2731467,45.79958653],[1.27343391,45.80040876],[1.27433168,45.80093769],[1.2746246,45.80141324],[1.2757345,45.80137706],[1.27585422,45.80146085],[1.27593433,45.80186469],[1.27611267,45.80196829],[1.27634425,45.80197543],[1.27667697,45.8018364],[1.27695503,45.802046],[1.27753036,45.80189086],[1.27786234,45.80214722],[1.27922786,45.80246257],[1.28070892,45.80262475],[1.28113873,45.80085601],[1.2815697,45.8000006],[1.28243401,45.79875097],[1.28244342,45.79832418],[1.28218711,45.79787083],[1.2833602,45.79666912],[1.28429112,45.79621491],[1.28487528,45.79573111],[1.28497905,45.79525081],[1.28483998,45.79462901],[1.28503039,45.79421938],[1.2851086,45.79360809],[1.28502082,45.79299338],[1.28555627,45.79275022],[1.2859667,45.79346531],[1.28590941,45.79365178],[1.28701027,45.79448273],[1.28721813,45.79504612],[1.28811889,45.79564614],[1.28829426,45.79597036],[1.2907804,45.79652053],[1.29097282,45.79658559],[1.29115602,45.79678202],[1.29147313,45.7968958],[1.29169436,45.79690366],[1.29179014,45.79672136],[1.29272241,45.79672106],[1.29285859,45.79693928],[1.2935015,45.79692739],[1.29362816,45.79703739],[1.29441751,45.79703671],[1.29446659,45.79719868],[1.29467833,45.79726402],[1.29493999,45.79767239],[1.29563794,45.79829721],[1.29575248,45.79813231],[1.29638338,45.79767527],[1.29756924,45.79650874],[1.29773947,45.79641674],[1.29737071,45.79676695],[1.29748459,45.79679029],[1.29697981,45.79737533],[1.29658575,45.79800258],[1.29631206,45.79865145],[1.29614071,45.79940546],[1.29612664,45.79977813],[1.29614092,45.80019177],[1.29639048,45.80141058],[1.29767692,45.80609021],[1.29775416,45.80609137],[1.29798563,45.80702168],[1.29802369,45.80704027],[1.29800431,45.80687515],[1.29806384,45.80678238],[1.29796945,45.80549926],[1.2987038,45.80578324],[1.29871115,45.80587882],[1.29881343,45.80594522],[1.2995055,45.80626368],[1.29952179,45.80644587],[1.29962668,45.80646907],[1.29968017,45.80653022],[1.29951983,45.80663499],[1.29949693,45.8067094],[1.29977214,45.80676398],[1.30029093,45.80698076],[1.30065472,45.80704478],[1.30088774,45.80704739],[1.30111054,45.80717324],[1.30148395,45.80713382],[1.30180323,45.80722149],[1.30191979,45.80732592],[1.30213628,45.80740574],[1.30219124,45.80762904],[1.30229255,45.80772693],[1.30266371,45.80788653],[1.30301173,45.80796112],[1.30335158,45.80821752],[1.30369416,45.8082596],[1.30379583,45.80817826],[1.30423283,45.80812358],[1.30464796,45.80827753],[1.30503134,45.80845892],[1.30502507,45.80857952],[1.30512337,45.80869178],[1.30588083,45.8092742],[1.30634154,45.80924418],[1.30721143,45.80939503],[1.30763182,45.80937792],[1.30778273,45.80932884],[1.30816155,45.80902918],[1.30831533,45.80884414],[1.3084145,45.80880239],[1.30875422,45.80876965],[1.30897324,45.80876753],[1.30977568,45.80893357],[1.3101156,45.80906295],[1.31043773,45.8091002],[1.31061375,45.80919831],[1.31079464,45.8091794],[1.31134482,45.80896155],[1.31190266,45.80908248],[1.31199801,45.80924964],[1.3124249,45.8093569],[1.31306161,45.80967895],[1.3131829,45.80979786],[1.31317889,45.80988697],[1.31306882,45.81003304],[1.31286118,45.81016864],[1.31286733,45.81022007],[1.31346136,45.8100425],[1.3138408,45.80980588],[1.31469734,45.81056355],[1.31528168,45.81116763],[1.31586198,45.81139786],[1.31633935,45.81115999],[1.31652302,45.81100781],[1.31687119,45.81048699],[1.31714459,45.81030643],[1.31723343,45.81018075],[1.31737206,45.81011166],[1.31806177,45.80992109],[1.31833987,45.80979733],[1.3185914,45.80978487],[1.31869042,45.80974761],[1.31903665,45.80916281],[1.31917651,45.80905321],[1.31919519,45.80890487],[1.31930451,45.80869844],[1.31953415,45.80847398],[1.3197691,45.80854053],[1.31983771,45.80852894],[1.32011252,45.80830155],[1.32037177,45.8081622],[1.32054692,45.80811977],[1.32092203,45.80827847],[1.32093929,45.80817694],[1.32150071,45.80771423],[1.32178681,45.80724202],[1.3223832,45.80664561],[1.3225989,45.80628584],[1.32256797,45.80620162],[1.32250695,45.80613316],[1.32230347,45.80604817],[1.32185771,45.80596859],[1.32071902,45.80584898],[1.32031285,45.80556912],[1.32021822,45.805547],[1.31943099,45.8055587],[1.31932006,45.80547959],[1.31927364,45.8052276],[1.31938506,45.80516351],[1.3196401,45.80533123],[1.31995841,45.8051126],[1.31979329,45.80486786],[1.32045841,45.8046787],[1.32063375,45.80437597],[1.32084456,45.80451601],[1.32122045,45.80430904],[1.32150693,45.80407822],[1.32150857,45.8040242],[1.32141696,45.80394538],[1.32135268,45.80394172],[1.3210897,45.80407742],[1.32100896,45.80406451],[1.3209764,45.80399197],[1.3209977,45.80354554],[1.32113833,45.80345216],[1.32120852,45.80317669],[1.3213508,45.80307162],[1.32165367,45.80302119],[1.32177124,45.80279686],[1.32243329,45.80258063],[1.32265704,45.80254882],[1.32284402,45.80258313],[1.32299279,45.80273035],[1.3234868,45.8026197],[1.32419072,45.80293278],[1.32488095,45.80335825],[1.3251027,45.80356239],[1.32532608,45.80400975],[1.32545026,45.80403411],[1.32548525,45.80411209],[1.32777008,45.80427385],[1.3298137,45.80466168],[1.33005593,45.80482829],[1.33041065,45.80566127],[1.33076057,45.80597178],[1.33101293,45.80597371],[1.33117005,45.805931],[1.33135535,45.80597878],[1.33180683,45.80599716],[1.3322423,45.80590632],[1.33405704,45.80543143],[1.33571128,45.80472627],[1.33618223,45.80456839],[1.33861168,45.80403403],[1.33704954,45.80497567],[1.33660727,45.80533573],[1.33525338,45.80675778],[1.33503563,45.80723103],[1.33501078,45.80741441],[1.33623198,45.80753329],[1.33657569,45.80762392],[1.33675989,45.8078365],[1.33692572,45.80823164],[1.33707928,45.80835009],[1.33729395,45.80840639],[1.33792361,45.80845349],[1.33861165,45.80844381],[1.3390143,45.80858754],[1.33912343,45.80868462],[1.33917916,45.80888719],[1.33921952,45.80964346],[1.33930521,45.81244677],[1.34448651,45.81022431],[1.3459172,45.81371383],[1.34621418,45.81420545],[1.34647015,45.8144749],[1.34641538,45.81449752],[1.34641073,45.8145668],[1.34304707,45.81501467],[1.34206569,45.81492461],[1.34084311,45.8147175],[1.34050707,45.81471256],[1.34006659,45.81479706],[1.33963139,45.81500592],[1.33923564,45.81493075],[1.33751823,45.81438848],[1.3366095,45.81385449],[1.33591157,45.81350645],[1.33573146,45.81337139],[1.33242722,45.81304523],[1.3298113,45.81274536],[1.32958935,45.81292942],[1.32739827,45.81527301],[1.32474004,45.81695933],[1.32436919,45.81725195],[1.32428329,45.81736597],[1.32374846,45.81843526],[1.32367284,45.81880432],[1.3243753,45.82087013],[1.32440994,45.82129937],[1.32461707,45.82152042],[1.32506164,45.82185576],[1.32507857,45.82121292],[1.32536666,45.82114334],[1.32528031,45.82084753],[1.3270581,45.82084506],[1.32785551,45.8207596],[1.32818266,45.82080407],[1.32876689,45.82031373],[1.33022909,45.82001202],[1.33169958,45.81956359],[1.33283473,45.82104758],[1.33315826,45.82087042],[1.33389577,45.822172],[1.3336704,45.82263883],[1.33248302,45.82292484],[1.33272003,45.8233949],[1.3326427,45.82343879],[1.33197271,45.82339917],[1.33161334,45.82352536],[1.33115818,45.82422028],[1.33071676,45.82458844],[1.33059294,45.82480638],[1.33060684,45.82502815],[1.33043941,45.82515448],[1.33011974,45.82524522],[1.32955114,45.82526023],[1.3292586,45.82539101],[1.32972594,45.82650848],[1.3301774,45.82717176],[1.32988129,45.82725024],[1.32820258,45.82686693],[1.32791949,45.82685553],[1.32757233,45.82696028],[1.32705847,45.82691123],[1.32694118,45.82695543],[1.32703346,45.82756657],[1.32739445,45.82777097],[1.32836444,45.82866891],[1.32988678,45.83030457],[1.33282789,45.82971934],[1.33335054,45.8295208],[1.33416077,45.83072167],[1.33475975,45.83128172],[1.33495634,45.83176919],[1.33602437,45.83279821],[1.33666576,45.83374798],[1.33706894,45.83388002],[1.33728747,45.83385441],[1.33740044,45.83326972],[1.33832153,45.8335751],[1.33816567,45.83374484],[1.33919365,45.83375276],[1.33955074,45.83391833],[1.34007851,45.8336784],[1.34146622,45.83470756],[1.34216846,45.83479352],[1.34225133,45.8348659],[1.34219477,45.83507583],[1.34271115,45.8354725],[1.34377296,45.83547096],[1.34434048,45.83528023],[1.34478892,45.83536517],[1.34492693,45.83561848],[1.34543146,45.83537998],[1.34775112,45.83502574],[1.34834637,45.83330513],[1.34686985,45.83308718],[1.34749763,45.83234609],[1.34800178,45.83138703],[1.34994656,45.83253321],[1.35095568,45.83269746],[1.35116362,45.83160256],[1.35109688,45.83060182],[1.35225336,45.8304899],[1.35133995,45.83005595],[1.35094963,45.82970889],[1.35190322,45.82927157],[1.35126321,45.82861373],[1.35027709,45.82867409],[1.35003749,45.82850036],[1.35030602,45.828008],[1.34995298,45.82710396],[1.35049048,45.8269659],[1.35064574,45.82586572],[1.35024504,45.82552211],[1.34876085,45.82634256],[1.3477045,45.8257804],[1.34919429,45.82360991],[1.34791382,45.82330657],[1.34636917,45.82218962],[1.34841515,45.82162061],[1.3482768,45.82146547],[1.34845545,45.82096279],[1.34893797,45.82067983],[1.34956048,45.82045385],[1.35005346,45.82038089],[1.34997616,45.82051036],[1.35078318,45.82087792],[1.35199911,45.82096863],[1.35487521,45.81981626],[1.35866959,45.81905546],[1.35914954,45.81933354],[1.36034774,45.81971662],[1.36569495,45.82075967],[1.36707084,45.82114796],[1.36773598,45.82122062],[1.36800955,45.82089943],[1.36803234,45.8209565],[1.36843666,45.82083175],[1.36873643,45.82080095],[1.36913184,45.82093366],[1.36962045,45.82074617],[1.37032269,45.82082746],[1.37032781,45.82061047],[1.37045793,45.82056641],[1.3697682,45.82041055],[1.36996757,45.8201153],[1.37044432,45.82006724],[1.37114197,45.82043487],[1.37159192,45.82037832],[1.37151812,45.82135179],[1.37405218,45.82165221],[1.37578346,45.82152311],[1.37696609,45.8212582],[1.37696017,45.82154723],[1.37747891,45.82156099],[1.37818864,45.82257184],[1.37898129,45.82207614],[1.37919846,45.82130467],[1.37821428,45.82121669],[1.37932698,45.81793617],[1.37954423,45.81562544],[1.37981979,45.81562849],[1.37974878,45.81506365],[1.3791379,45.81459283],[1.37896277,45.81459122],[1.37830127,45.81426558],[1.37636542,45.81395675],[1.37634457,45.81400869],[1.37570982,45.81400046],[1.37521531,45.81412844],[1.37325128,45.81499544],[1.37354942,45.81453769],[1.37339839,45.81437429],[1.37380777,45.81385689],[1.37385544,45.81350631],[1.3742308,45.8133568],[1.3743922,45.81308081],[1.37537475,45.81295625],[1.37575488,45.81220605]]]]},"bbox":[1.2731467,45.7830387,1.37981979,45.83561848]},{"type":"Feature","id":"fr-quartier-87065-b7eda5fe54a7","properties":{"id":"fr-quartier-87065-b7eda5fe54a7","kind":"quartier","name":"le Vieux Crézin","cityCode":"87065","cityName":"Feytiat","sourceType":"iris","sourceIds":["870650101"],"colorIndex":2,"center":[1.327153998004466,45.81112643196109]},"geometry":{"type":"MultiPolygon","coordinates":[[[[1.31889539,45.81777856],[1.31912235,45.81802422],[1.3199907,45.81899278],[1.3199832,45.81907013],[1.32121319,45.81899205],[1.32193479,45.81915409],[1.32233359,45.81938339],[1.323235,45.82015697],[1.32364004,45.82081778],[1.32430272,45.82113926],[1.32430163,45.8212176],[1.32404179,45.82137497],[1.32431608,45.82167537],[1.32461707,45.82152042],[1.32440994,45.82129937],[1.3243753,45.82087013],[1.32367284,45.81880432],[1.32374846,45.81843526],[1.32428329,45.81736597],[1.32436919,45.81725195],[1.32474004,45.81695933],[1.32739827,45.81527301],[1.32958935,45.81292942],[1.3298113,45.81274536],[1.33242722,45.81304523],[1.33573146,45.81337139],[1.33591157,45.81350645],[1.3366095,45.81385449],[1.33751823,45.81438848],[1.33923564,45.81493075],[1.33963139,45.81500592],[1.34006659,45.81479706],[1.34050707,45.81471256],[1.34084311,45.8147175],[1.34206569,45.81492461],[1.34304707,45.81501467],[1.34641073,45.8145668],[1.34641538,45.81449752],[1.34647015,45.8144749],[1.34621418,45.81420545],[1.3459172,45.81371383],[1.34448651,45.81022431],[1.33930521,45.81244677],[1.33921952,45.80964346],[1.33917916,45.80888719],[1.33912343,45.80868462],[1.3390143,45.80858754],[1.33861165,45.80844381],[1.33792361,45.80845349],[1.33729395,45.80840639],[1.33707928,45.80835009],[1.33692572,45.80823164],[1.33675989,45.8078365],[1.33657569,45.80762392],[1.33623198,45.80753329],[1.33501078,45.80741441],[1.33503563,45.80723103],[1.33525338,45.80675778],[1.33660727,45.80533573],[1.33704954,45.80497567],[1.33861168,45.80403403],[1.33618223,45.80456839],[1.33571128,45.80472627],[1.33405704,45.80543143],[1.3322423,45.80590632],[1.33180683,45.80599716],[1.33135535,45.80597878],[1.33117005,45.805931],[1.33101293,45.80597371],[1.33076057,45.80597178],[1.33041065,45.80566127],[1.33005593,45.80482829],[1.3298137,45.80466168],[1.32777008,45.80427385],[1.32548525,45.80411209],[1.32545026,45.80403411],[1.32532608,45.80400975],[1.3251027,45.80356239],[1.32488095,45.80335825],[1.32419072,45.80293278],[1.3234868,45.8026197],[1.32299279,45.80273035],[1.32284402,45.80258313],[1.32265704,45.80254882],[1.32243329,45.80258063],[1.32177124,45.80279686],[1.32165367,45.80302119],[1.3213508,45.80307162],[1.32120852,45.80317669],[1.32113833,45.80345216],[1.3209977,45.80354554],[1.3209764,45.80399197],[1.32100896,45.80406451],[1.3210897,45.80407742],[1.32135268,45.80394172],[1.32141696,45.80394538],[1.32150857,45.8040242],[1.32150693,45.80407822],[1.32122045,45.80430904],[1.32084456,45.80451601],[1.32063375,45.80437597],[1.32045841,45.8046787],[1.31979329,45.80486786],[1.31995841,45.8051126],[1.3196401,45.80533123],[1.31938506,45.80516351],[1.31927364,45.8052276],[1.31932006,45.80547959],[1.31943099,45.8055587],[1.32021822,45.805547],[1.32031285,45.80556912],[1.32071902,45.80584898],[1.32185771,45.80596859],[1.32230347,45.80604817],[1.32250695,45.80613316],[1.32256797,45.80620162],[1.3225989,45.80628584],[1.3223832,45.80664561],[1.32178681,45.80724202],[1.32150071,45.80771423],[1.32093929,45.80817694],[1.32092203,45.80827847],[1.32054692,45.80811977],[1.32037177,45.8081622],[1.32011252,45.80830155],[1.31983771,45.80852894],[1.3197691,45.80854053],[1.31953415,45.80847398],[1.31930451,45.80869844],[1.31919519,45.80890487],[1.31917651,45.80905321],[1.31903665,45.80916281],[1.31869042,45.80974761],[1.3185914,45.80978487],[1.31833987,45.80979733],[1.31806177,45.80992109],[1.31737206,45.81011166],[1.31723343,45.81018075],[1.31714459,45.81030643],[1.31687119,45.81048699],[1.31652302,45.81100781],[1.31633935,45.81115999],[1.31586198,45.81139786],[1.31528168,45.81116763],[1.31469734,45.81056355],[1.3138408,45.80980588],[1.31346136,45.8100425],[1.31286733,45.81022007],[1.31235826,45.81027281],[1.31211247,45.8103502],[1.31176184,45.81057103],[1.3115909,45.81085399],[1.31151275,45.81117708],[1.31154212,45.81131172],[1.31169013,45.81144183],[1.31217635,45.81167337],[1.3122762,45.81181988],[1.3122008,45.81268522],[1.31207177,45.81298773],[1.31114882,45.81393767],[1.31107277,45.8142761],[1.31118456,45.81449574],[1.3115611,45.81486075],[1.31204664,45.81507337],[1.31244501,45.81514597],[1.31326845,45.81517629],[1.31403575,45.81535798],[1.31423314,45.81547442],[1.31474943,45.81535513],[1.31485422,45.81529815],[1.31764841,45.81465258],[1.31757394,45.81625111],[1.31825068,45.81708082],[1.31889539,45.81777856]]]]},"bbox":[1.31107277,45.80254882,1.34647015,45.82167537]}]}