{"type":"FeatureCollection","metadata":{"sourceType":"iris","referenceFile":"neufchateau-quartiers.geojson","source":"IGN / INSEE - Contours IRIS WFS Géoplateforme","sourceUrl":"https://geoservices.ign.fr/contoursiris","license":"Licence Ouverte / Open Licence 2.0","sourceYear":"2026"},"features":[{"type":"Feature","id":"fr-quartier-88321-b1f9d5014c47","properties":{"id":"fr-quartier-88321-b1f9d5014c47","kind":"quartier","name":"Avenue du General Henrys","cityCode":"88321","cityName":"Neufchâteau","sourceType":"iris","sourceIds":["883210102"],"colorIndex":0,"center":[5.711758238916293,48.37158444331106]},"geometry":{"type":"MultiPolygon","coordinates":[[[[5.69781034,48.38293554],[5.69739576,48.38454823],[5.6981368,48.38513629],[5.69731168,48.38780885],[5.69961284,48.38869446],[5.70198485,48.39043089],[5.70483532,48.39226888],[5.70714447,48.39340801],[5.70924487,48.39141289],[5.7111013,48.39001024],[5.71236217,48.38937826],[5.71551652,48.38722836],[5.71780118,48.38666466],[5.71866137,48.38712114],[5.71941365,48.38692834],[5.71984215,48.38653772],[5.72087354,48.38816052],[5.72129406,48.38824268],[5.72266514,48.38804555],[5.72441799,48.38760017],[5.72628557,48.38683976],[5.72663315,48.38634925],[5.72819016,48.385361],[5.73222528,48.38366295],[5.73347131,48.38472887],[5.73379038,48.38449736],[5.73418549,48.38440272],[5.73513425,48.38440333],[5.73527001,48.38433718],[5.73540708,48.38395863],[5.7352505,48.38339061],[5.73438736,48.38204761],[5.73266567,48.38105928],[5.73200823,48.38052622],[5.73175,48.37950953],[5.73097604,48.37863166],[5.72965633,48.37812104],[5.72871367,48.3779231],[5.72882268,48.37765413],[5.72920427,48.37740408],[5.72539674,48.37159712],[5.72609752,48.37057185],[5.72678024,48.37068397],[5.72698716,48.37008867],[5.72699532,48.3693341],[5.72659691,48.36933697],[5.72662125,48.36834706],[5.72612679,48.36709634],[5.72575575,48.36655844],[5.72552026,48.36587249],[5.72512933,48.36541967],[5.72502119,48.36536635],[5.72389755,48.36521665],[5.7231734,48.36492902],[5.72265325,48.36477174],[5.7220768,48.36462295],[5.72087966,48.3644101],[5.72093868,48.36314843],[5.72128843,48.36319801],[5.72211042,48.36172256],[5.72213208,48.35846056],[5.71940866,48.35503295],[5.72290868,48.35360489],[5.71911855,48.35328778],[5.71882857,48.35303427],[5.72003371,48.35212707],[5.72130723,48.35128941],[5.71784465,48.349257],[5.7173533,48.34886947],[5.71728854,48.34894928],[5.71677841,48.34895648],[5.71545346,48.3486934],[5.71315416,48.34771084],[5.71173603,48.34681789],[5.71071171,48.34709341],[5.71069314,48.34757186],[5.70955207,48.3477312],[5.70957621,48.34814746],[5.7098537,48.34821223],[5.71034285,48.34840088],[5.71074255,48.34863569],[5.71108055,48.34874768],[5.711538,48.3491072],[5.71238338,48.35007539],[5.71327479,48.35133329],[5.71353084,48.35179374],[5.71370121,48.35260904],[5.71367196,48.35285367],[5.71355301,48.35316607],[5.71352644,48.35469346],[5.71338346,48.35511624],[5.71310221,48.3556079],[5.71289915,48.35583491],[5.7125612,48.35598669],[5.71151955,48.35616538],[5.71095668,48.35619897],[5.71062053,48.35614995],[5.7101695,48.35594242],[5.70999323,48.35577181],[5.70990622,48.35562977],[5.70989499,48.35528074],[5.7098079,48.35508468],[5.70901661,48.35461666],[5.70880157,48.35453246],[5.7083998,48.35441562],[5.70748183,48.35424126],[5.70622243,48.35428265],[5.70488029,48.35457978],[5.70445379,48.35458592],[5.70348076,48.35452261],[5.70267792,48.3543807],[5.70086572,48.353836],[5.70068467,48.3537294],[5.69913621,48.35419141],[5.69883698,48.35433506],[5.69856393,48.35472567],[5.69806644,48.35513851],[5.69774882,48.35529248],[5.69731411,48.35542841],[5.69739659,48.35553546],[5.69739568,48.35570202],[5.69718923,48.35636478],[5.69709987,48.35646584],[5.6969528,48.35689049],[5.69689558,48.35727618],[5.69609599,48.35738261],[5.69609548,48.35766259],[5.69603854,48.35776381],[5.69584939,48.3577366],[5.69499985,48.35734274],[5.69418912,48.35712623],[5.69274979,48.35692581],[5.69249073,48.3569578],[5.69246135,48.3570962],[5.69251732,48.35850647],[5.69271987,48.35903299],[5.69492687,48.36132334],[5.6950599,48.36149405],[5.6951346,48.36171291],[5.69536333,48.36180042],[5.69552136,48.36193186],[5.69752498,48.36393963],[5.6971059,48.36403919],[5.69626246,48.36397737],[5.69506379,48.36381111],[5.69352324,48.3636427],[5.69316088,48.36363654],[5.69251687,48.36351165],[5.69175012,48.36500091],[5.69152028,48.3657101],[5.69149313,48.36623554],[5.6915391,48.36663238],[5.69174185,48.36718861],[5.69207563,48.36774455],[5.69240734,48.36810159],[5.69283263,48.36846551],[5.69338951,48.36883994],[5.69370026,48.36899851],[5.69444212,48.36929131],[5.69678853,48.370022],[5.69727015,48.37021898],[5.6980818,48.3706335],[5.69850862,48.37060487],[5.69869916,48.37086879],[5.69967207,48.3716082],[5.70039464,48.3723398],[5.70099187,48.37320839],[5.70228182,48.37656645],[5.70242161,48.37736714],[5.7023865,48.37791977],[5.70210854,48.37874259],[5.70162256,48.37956746],[5.70125753,48.38003758],[5.70075422,48.38049916],[5.69936813,48.38137513],[5.69835672,48.38212733],[5.6979133,48.38262443],[5.69781034,48.38293554]]]]},"bbox":[5.69149313,48.34681789,5.73540708,48.39340801]},{"type":"Feature","id":"fr-quartier-88321-7b2ed8075fb5","properties":{"id":"fr-quartier-88321-7b2ed8075fb5","kind":"quartier","name":"Rollainville","cityCode":"88321","cityName":"Neufchâteau","sourceType":"iris","sourceIds":["883210104"],"colorIndex":1,"center":[5.740613914798665,48.355225809803514]},"geometry":{"type":"MultiPolygon","coordinates":[[[[5.72920427,48.37740408],[5.73128748,48.37599045],[5.73286729,48.37531846],[5.73217184,48.37493661],[5.73239656,48.37465866],[5.73382488,48.37557004],[5.73612444,48.37418913],[5.73790646,48.37379598],[5.74134627,48.3739973],[5.74234524,48.37410921],[5.74409942,48.37445209],[5.74698689,48.37377842],[5.74908335,48.37343092],[5.74932213,48.3727259],[5.74932718,48.37127192],[5.75081375,48.36977995],[5.75190583,48.36893537],[5.75347744,48.36842533],[5.75431014,48.36835646],[5.75542881,48.36812429],[5.75665256,48.36757729],[5.75740936,48.36737513],[5.75803279,48.36738672],[5.75942255,48.36719771],[5.75874461,48.36630157],[5.75975795,48.3652733],[5.76103336,48.36432264],[5.76084501,48.36413168],[5.76089084,48.36382093],[5.7607143,48.36279967],[5.7589008,48.36219646],[5.75833,48.36184786],[5.75786159,48.36126191],[5.75706486,48.3606746],[5.75501245,48.35989234],[5.75347,48.35894155],[5.75144838,48.35791905],[5.74908237,48.35658583],[5.74682627,48.35575145],[5.74558058,48.35546075],[5.74465748,48.35537232],[5.74447222,48.35500572],[5.74404626,48.3550741],[5.74394503,48.35473886],[5.74330275,48.35490678],[5.74326811,48.35416489],[5.74346082,48.35343124],[5.74382556,48.35283673],[5.74485905,48.35196116],[5.74520553,48.35137967],[5.74517709,48.35080868],[5.74497121,48.35007256],[5.74502294,48.34966625],[5.74524382,48.34931814],[5.74567355,48.34893458],[5.74761527,48.3483584],[5.74823989,48.3479577],[5.74846881,48.34745365],[5.74857657,48.34641407],[5.74919094,48.34656725],[5.74937295,48.34560517],[5.74972443,48.34478499],[5.75041904,48.34404506],[5.75095927,48.34321958],[5.75234706,48.34173973],[5.7531211,48.34117709],[5.753127,48.34023169],[5.75273248,48.33991767],[5.75289235,48.33956646],[5.7524007,48.33920249],[5.75200403,48.33869227],[5.75185193,48.33774604],[5.75174429,48.33762431],[5.75207247,48.33721247],[5.75236943,48.33653938],[5.75231988,48.33569519],[5.75415167,48.33421579],[5.75417372,48.33347617],[5.75402181,48.33243091],[5.75439765,48.33179558],[5.75471018,48.33157585],[5.75482187,48.33128517],[5.75435402,48.33116822],[5.75466677,48.33048845],[5.75496203,48.33048068],[5.75483883,48.33021617],[5.75516715,48.33006629],[5.75537519,48.32970765],[5.75662816,48.32919414],[5.7568262,48.32900587],[5.7579001,48.3270336],[5.75869283,48.32626611],[5.76007733,48.32527685],[5.76015375,48.32506081],[5.75905879,48.32351268],[5.75822397,48.3220332],[5.74926689,48.32090833],[5.7490076,48.32250871],[5.74761444,48.32509329],[5.74702048,48.32664562],[5.7465595,48.32875481],[5.74669482,48.32917479],[5.74767574,48.32993974],[5.75009209,48.33249256],[5.75035526,48.33321385],[5.75034438,48.33450416],[5.74991517,48.33556653],[5.74976772,48.3361038],[5.7498362,48.33651002],[5.75014598,48.33706368],[5.75050246,48.33734798],[5.74972678,48.33756856],[5.74854269,48.33751863],[5.74726391,48.33725843],[5.7466424,48.33740609],[5.74549887,48.33746052],[5.74486367,48.33791547],[5.74410402,48.33870279],[5.74326988,48.3393568],[5.74243109,48.33974083],[5.74152579,48.34035146],[5.74009915,48.3422831],[5.73832961,48.34346644],[5.73807913,48.34353165],[5.73762783,48.3439679],[5.73713908,48.34422947],[5.73057787,48.34689352],[5.72857643,48.34777867],[5.72779551,48.34821528],[5.72846453,48.34898036],[5.72581733,48.35041148],[5.72752729,48.35148209],[5.72755921,48.35160289],[5.72544966,48.35241305],[5.72475925,48.35259098],[5.72376176,48.35273366],[5.72299789,48.35274493],[5.72202798,48.35263759],[5.72003371,48.35212707],[5.71882857,48.35303427],[5.71911855,48.35328778],[5.72290868,48.35360489],[5.71940866,48.35503295],[5.72213208,48.35846056],[5.72211042,48.36172256],[5.72128843,48.36319801],[5.72093868,48.36314843],[5.72087966,48.3644101],[5.7220768,48.36462295],[5.72265325,48.36477174],[5.7231734,48.36492902],[5.72389755,48.36521665],[5.72502119,48.36536635],[5.72512933,48.36541967],[5.72552026,48.36587249],[5.72575575,48.36655844],[5.72612679,48.36709634],[5.72662125,48.36834706],[5.72659691,48.36933697],[5.72699532,48.3693341],[5.72698716,48.37008867],[5.72678024,48.37068397],[5.72609752,48.37057185],[5.72539674,48.37159712],[5.72920427,48.37740408]]]]},"bbox":[5.71882857,48.32090833,5.76103336,48.37740408]},{"type":"Feature","id":"fr-quartier-88321-219e9e29a35b","properties":{"id":"fr-quartier-88321-219e9e29a35b","kind":"quartier","name":"Rue du Coteau de la Croix","cityCode":"88321","cityName":"Neufchâteau","sourceType":"iris","sourceIds":["883210103"],"colorIndex":2,"center":[5.677119808464232,48.34797546284473]},"geometry":{"type":"MultiPolygon","coordinates":[[[[5.64590329,48.32529698],[5.64528245,48.32680341],[5.64423291,48.32888655],[5.645191,48.32903979],[5.64554202,48.3292552],[5.64685099,48.3307482],[5.64716257,48.33141369],[5.64774743,48.33211718],[5.64884066,48.33304965],[5.65253871,48.33562427],[5.65501431,48.33775359],[5.65620486,48.33889716],[5.65620933,48.34064437],[5.65580837,48.34195687],[5.65691487,48.34311852],[5.65727671,48.34362532],[5.65858112,48.34488064],[5.66174066,48.3475958],[5.66177125,48.34932171],[5.66045587,48.34969605],[5.65980973,48.35024528],[5.65879849,48.35193517],[5.66187966,48.35392022],[5.66057162,48.35412155],[5.66315736,48.35509417],[5.6660668,48.35565615],[5.66615923,48.3558008],[5.67286077,48.36076111],[5.6732003,48.360983],[5.67356711,48.36107734],[5.67355914,48.36155823],[5.67493594,48.36270641],[5.67311202,48.36336602],[5.67253849,48.36364363],[5.67226333,48.36487501],[5.67127933,48.37156767],[5.67294384,48.37162014],[5.67540399,48.37137737],[5.67808308,48.37039323],[5.6804083,48.36973121],[5.67797544,48.37398385],[5.68913887,48.37900705],[5.68957465,48.37875591],[5.69477601,48.38142384],[5.69455762,48.38161875],[5.69707292,48.38275969],[5.69781034,48.38293554],[5.6979133,48.38262443],[5.69835672,48.38212733],[5.69936813,48.38137513],[5.70075422,48.38049916],[5.70125753,48.38003758],[5.70162256,48.37956746],[5.70210854,48.37874259],[5.7023865,48.37791977],[5.70242161,48.37736714],[5.70228182,48.37656645],[5.70099187,48.37320839],[5.70039464,48.3723398],[5.69967207,48.3716082],[5.69869916,48.37086879],[5.69850862,48.37060487],[5.6980818,48.3706335],[5.69727015,48.37021898],[5.69678853,48.370022],[5.69444212,48.36929131],[5.69370026,48.36899851],[5.69338951,48.36883994],[5.69283263,48.36846551],[5.69240734,48.36810159],[5.69207563,48.36774455],[5.69174185,48.36718861],[5.6915391,48.36663238],[5.69149313,48.36623554],[5.69152028,48.3657101],[5.69175012,48.36500091],[5.69251687,48.36351165],[5.69267559,48.3628914],[5.69269337,48.36220953],[5.6926129,48.36166674],[5.69232844,48.36091252],[5.69184797,48.36018167],[5.69060048,48.35871567],[5.68963635,48.35729543],[5.68909224,48.35666593],[5.68865288,48.35631492],[5.68794056,48.35585578],[5.68712278,48.35547374],[5.68732461,48.35508837],[5.68696976,48.35493708],[5.68679565,48.35491313],[5.68514394,48.35417551],[5.68523004,48.35406283],[5.68550729,48.35319684],[5.68570544,48.35308342],[5.68641643,48.35288275],[5.68660607,48.35262909],[5.6863875,48.35252782],[5.68636322,48.35231682],[5.68620247,48.35215753],[5.68568455,48.35180109],[5.68519334,48.35157097],[5.68529488,48.35117887],[5.68542469,48.35107601],[5.68545652,48.35098526],[5.68535466,48.35084174],[5.68543932,48.35056885],[5.68537425,48.3504317],[5.6854051,48.35034818],[5.68532126,48.35024025],[5.68499268,48.35015318],[5.68489309,48.35002761],[5.68487756,48.34988212],[5.68501994,48.34954942],[5.68543856,48.34891337],[5.68550863,48.34888388],[5.68558306,48.3489398],[5.68622684,48.3485084],[5.68645239,48.34872024],[5.68716133,48.34906244],[5.68730838,48.34911221],[5.68749818,48.3490737],[5.68763837,48.34909482],[5.68866032,48.34951003],[5.69012564,48.34945694],[5.69018792,48.34813941],[5.69124333,48.34823156],[5.69154629,48.34821387],[5.69180789,48.3481269],[5.69200492,48.34796578],[5.69207951,48.34783986],[5.69211429,48.34735835],[5.69205864,48.34698332],[5.69241895,48.34695173],[5.69201976,48.345326],[5.69137628,48.34370223],[5.69155958,48.34361614],[5.69230522,48.34346235],[5.69294662,48.34179946],[5.69305359,48.3413037],[5.69226751,48.3287634],[5.6900325,48.32771863],[5.68950228,48.32761905],[5.68960756,48.32447485],[5.68770903,48.32507162],[5.68625769,48.3202271],[5.68564725,48.32053803],[5.68567114,48.32129729],[5.68436841,48.32203533],[5.68264572,48.32353907],[5.68180286,48.3240848],[5.68165711,48.32389996],[5.67987955,48.32459379],[5.67948824,48.32427856],[5.67809994,48.32500946],[5.67706398,48.32406875],[5.67550712,48.32453787],[5.67530071,48.32446061],[5.67157554,48.32463028],[5.66671305,48.32507932],[5.66533497,48.3216967],[5.66416246,48.32199947],[5.66428385,48.32285105],[5.66411272,48.32352377],[5.66476058,48.32448233],[5.66463064,48.32468871],[5.66491287,48.3252774],[5.66515605,48.32621446],[5.66590145,48.32683233],[5.66385572,48.32770119],[5.66411052,48.32804114],[5.66170823,48.32808078],[5.65631647,48.32853588],[5.65429677,48.32890797],[5.65380661,48.32914672],[5.65312129,48.32920979],[5.65187523,48.32848603],[5.65107633,48.3275803],[5.65046275,48.32721775],[5.64958525,48.32700244],[5.64792932,48.32682345],[5.64728593,48.32664609],[5.64590329,48.32529698]]]]},"bbox":[5.64423291,48.3202271,5.70242161,48.38293554]},{"type":"Feature","id":"fr-quartier-88321-3c276e6a9329","properties":{"id":"fr-quartier-88321-3c276e6a9329","kind":"quartier","name":"Rue Maurice Barres","cityCode":"88321","cityName":"Neufchâteau","sourceType":"iris","sourceIds":["883210101"],"colorIndex":3,"center":[5.697727477636841,48.35084565812341]},"geometry":{"type":"MultiPolygon","coordinates":[[[[5.70957621,48.34814746],[5.70881123,48.34797861],[5.70757702,48.34748291],[5.70727203,48.34780226],[5.70807762,48.34810432],[5.70734386,48.34877826],[5.70785621,48.34952274],[5.70632426,48.35003938],[5.70606142,48.34934051],[5.7054107,48.34879364],[5.70245371,48.34736049],[5.70172362,48.34689733],[5.70152051,48.34662379],[5.70079474,48.34600749],[5.69936362,48.34540907],[5.69796628,48.34433634],[5.69744129,48.34368394],[5.69717961,48.34361068],[5.69647775,48.3437491],[5.69536926,48.34375273],[5.69342928,48.34355202],[5.69352489,48.34080326],[5.6939907,48.33412918],[5.69405668,48.32964183],[5.69226751,48.3287634],[5.69305359,48.3413037],[5.69294662,48.34179946],[5.69230522,48.34346235],[5.69155958,48.34361614],[5.69137628,48.34370223],[5.69201976,48.345326],[5.69241895,48.34695173],[5.69205864,48.34698332],[5.69211429,48.34735835],[5.69207951,48.34783986],[5.69200492,48.34796578],[5.69180789,48.3481269],[5.69154629,48.34821387],[5.69124333,48.34823156],[5.69018792,48.34813941],[5.69012564,48.34945694],[5.68866032,48.34951003],[5.68763837,48.34909482],[5.68749818,48.3490737],[5.68730838,48.34911221],[5.68716133,48.34906244],[5.68645239,48.34872024],[5.68622684,48.3485084],[5.68558306,48.3489398],[5.68550863,48.34888388],[5.68543856,48.34891337],[5.68501994,48.34954942],[5.68487756,48.34988212],[5.68489309,48.35002761],[5.68499268,48.35015318],[5.68532126,48.35024025],[5.6854051,48.35034818],[5.68537425,48.3504317],[5.68543932,48.35056885],[5.68535466,48.35084174],[5.68545652,48.35098526],[5.68542469,48.35107601],[5.68529488,48.35117887],[5.68519334,48.35157097],[5.68568455,48.35180109],[5.68620247,48.35215753],[5.68636322,48.35231682],[5.6863875,48.35252782],[5.68660607,48.35262909],[5.68641643,48.35288275],[5.68570544,48.35308342],[5.68550729,48.35319684],[5.68523004,48.35406283],[5.68514394,48.35417551],[5.68679565,48.35491313],[5.68696976,48.35493708],[5.68732461,48.35508837],[5.68712278,48.35547374],[5.68794056,48.35585578],[5.68865288,48.35631492],[5.68909224,48.35666593],[5.68963635,48.35729543],[5.69060048,48.35871567],[5.69184797,48.36018167],[5.69232844,48.36091252],[5.6926129,48.36166674],[5.69269337,48.36220953],[5.69267559,48.3628914],[5.69251687,48.36351165],[5.69316088,48.36363654],[5.69352324,48.3636427],[5.69506379,48.36381111],[5.69626246,48.36397737],[5.6971059,48.36403919],[5.69752498,48.36393963],[5.69552136,48.36193186],[5.69536333,48.36180042],[5.6951346,48.36171291],[5.6950599,48.36149405],[5.69492687,48.36132334],[5.69271987,48.35903299],[5.69251732,48.35850647],[5.69246135,48.3570962],[5.69249073,48.3569578],[5.69274979,48.35692581],[5.69418912,48.35712623],[5.69499985,48.35734274],[5.69584939,48.3577366],[5.69603854,48.35776381],[5.69609548,48.35766259],[5.69609599,48.35738261],[5.69689558,48.35727618],[5.6969528,48.35689049],[5.69709987,48.35646584],[5.69718923,48.35636478],[5.69739568,48.35570202],[5.69739659,48.35553546],[5.69731411,48.35542841],[5.69774882,48.35529248],[5.69806644,48.35513851],[5.69856393,48.35472567],[5.69883698,48.35433506],[5.69913621,48.35419141],[5.70068467,48.3537294],[5.70086572,48.353836],[5.70267792,48.3543807],[5.70348076,48.35452261],[5.70445379,48.35458592],[5.70488029,48.35457978],[5.70622243,48.35428265],[5.70748183,48.35424126],[5.7083998,48.35441562],[5.70880157,48.35453246],[5.70901661,48.35461666],[5.7098079,48.35508468],[5.70989499,48.35528074],[5.70990622,48.35562977],[5.70999323,48.35577181],[5.7101695,48.35594242],[5.71062053,48.35614995],[5.71095668,48.35619897],[5.71151955,48.35616538],[5.7125612,48.35598669],[5.71289915,48.35583491],[5.71310221,48.3556079],[5.71338346,48.35511624],[5.71352644,48.35469346],[5.71355301,48.35316607],[5.71367196,48.35285367],[5.71370121,48.35260904],[5.71353084,48.35179374],[5.71327479,48.35133329],[5.71238338,48.35007539],[5.711538,48.3491072],[5.71108055,48.34874768],[5.71074255,48.34863569],[5.71034285,48.34840088],[5.7098537,48.34821223],[5.70957621,48.34814746]]]]},"bbox":[5.68487756,48.3287634,5.71370121,48.36403919]}]}