{"type":"FeatureCollection","metadata":{"sourceType":"iris","referenceFile":"delle-quartiers.geojson","source":"IGN / INSEE - Contours IRIS WFS Géoplateforme","sourceUrl":"https://geoservices.ign.fr/contoursiris","license":"Licence Ouverte / Open Licence 2.0","sourceYear":"2026"},"features":[{"type":"Feature","id":"fr-quartier-90033-ab2f6c666d75","properties":{"id":"fr-quartier-90033-ab2f6c666d75","kind":"quartier","name":"Faubourg de Belfort","cityCode":"90033","cityName":"Delle","sourceType":"iris","sourceIds":["900330103"],"colorIndex":0,"center":[7.0035060778612745,47.51297706046431]},"geometry":{"type":"MultiPolygon","coordinates":[[[[7.01351746,47.50295109],[7.00371795,47.50074047],[7.00247666,47.5026011],[7.00345877,47.5030874],[7.00346361,47.5032053],[7.00360872,47.50329585],[7.00462802,47.50379888],[7.00548303,47.50507368],[7.00564628,47.50494458],[7.006434,47.5054096],[7.00529814,47.50589032],[7.00438008,47.50620671],[7.00293169,47.50654674],[7.00249178,47.5061076],[7.00205316,47.50588113],[7.00170392,47.50580029],[7.00069691,47.50571052],[7.00023467,47.50559481],[6.99998204,47.50564945],[6.99983382,47.50564193],[6.99971753,47.50558103],[6.99818583,47.50553629],[6.99773084,47.50557084],[6.99736641,47.50567799],[6.99688072,47.50594253],[6.99655835,47.50606085],[6.99653196,47.50634837],[6.99685848,47.50633897],[6.99678411,47.50667861],[6.99655353,47.50676133],[6.99642811,47.50693418],[6.99600874,47.50691162],[6.99589444,47.50698405],[6.99572708,47.50743233],[6.99773483,47.50806103],[6.99765287,47.5081035],[6.99724384,47.50814819],[6.99637521,47.50939387],[6.99612472,47.5099045],[6.99607648,47.51052265],[6.9962381,47.51086951],[6.99632771,47.5113207],[6.99655111,47.51174656],[6.99657285,47.51185938],[6.99649229,47.51218752],[6.99664033,47.51240596],[6.99633939,47.51277591],[6.99628222,47.5129365],[6.99624164,47.51399513],[6.99651804,47.51459583],[6.99668473,47.51543734],[6.99691838,47.51566186],[6.99717199,47.51581539],[6.99734183,47.51605832],[6.99735415,47.51616966],[6.99732919,47.5162985],[6.99705668,47.51671074],[6.99655484,47.51711642],[6.99646883,47.51744295],[6.99628524,47.51779895],[6.99592047,47.51813414],[6.99567314,47.51845628],[6.99556402,47.51856277],[6.99541895,47.51861551],[6.99483142,47.51874743],[6.99474711,47.51884766],[6.99480149,47.51923696],[6.99514039,47.51967689],[6.99565528,47.52095801],[6.99579519,47.52126326],[6.9956825,47.52153571],[6.99710362,47.52196374],[6.99723479,47.5222765],[6.996501,47.52244589],[6.99639828,47.52258461],[6.9968882,47.52365567],[6.9965644,47.52411203],[6.99669812,47.52445895],[6.99708222,47.52457736],[6.99755849,47.52455831],[6.9977423,47.5242762],[6.99826926,47.52424099],[6.99842972,47.52430488],[6.99853106,47.52450329],[6.99890765,47.52441465],[6.99924147,47.52423465],[6.99965897,47.52378588],[6.99980525,47.52328695],[7.00009202,47.5227985],[7.00066817,47.52247858],[7.00129521,47.52228759],[7.00286504,47.52215975],[7.00381792,47.52180703],[7.00416321,47.52158515],[7.00482998,47.52156944],[7.00575593,47.52142583],[7.00593745,47.52127358],[7.00581185,47.52105347],[7.00600129,47.52098927],[7.00673083,47.52120753],[7.00700192,47.52104318],[7.00734091,47.52118113],[7.00785026,47.52110682],[7.00798981,47.52087399],[7.00799228,47.52055214],[7.00815795,47.52041935],[7.00837056,47.52052199],[7.00824015,47.52112495],[7.00921554,47.52105533],[7.00954715,47.5208997],[7.00980996,47.52103306],[7.01015124,47.52107719],[7.01032622,47.52101529],[7.01009316,47.52079979],[7.0101427,47.52066198],[7.01071595,47.5202691],[7.01151609,47.52020459],[7.01170836,47.5200186],[7.01204675,47.51998892],[7.01219646,47.52010454],[7.01186559,47.52030521],[7.01216419,47.52056081],[7.01241819,47.52059443],[7.01300789,47.52042088],[7.01340862,47.52051253],[7.01349735,47.52025891],[7.01374374,47.52020896],[7.01377605,47.5201078],[7.01419362,47.52019345],[7.01457675,47.52017484],[7.01473302,47.51997026],[7.01521426,47.51992933],[7.01536161,47.51949973],[7.01555078,47.51929041],[7.01585494,47.51937186],[7.01598736,47.51975306],[7.01631598,47.51996525],[7.016443,47.51992031],[7.01650605,47.51967929],[7.01717579,47.51938489],[7.01746478,47.51952995],[7.01757417,47.51979928],[7.01787767,47.51997809],[7.0179996,47.51995405],[7.01796912,47.51974329],[7.01805919,47.519614],[7.0186041,47.51955284],[7.0188309,47.51973789],[7.01898927,47.5200569],[7.01962887,47.52008711],[7.01991252,47.51996645],[7.01994514,47.51976343],[7.02033576,47.51973823],[7.02044971,47.51937828],[7.02064478,47.51940669],[7.02080772,47.51966245],[7.02106592,47.51980496],[7.02127599,47.51983827],[7.02149489,47.51974148],[7.02133135,47.51864661],[7.02118587,47.51853446],[7.02076683,47.5183939],[7.01981099,47.51840437],[7.01905358,47.51829351],[7.01768523,47.51832089],[7.01703942,47.51854416],[7.01630582,47.51871458],[7.01562727,47.51857303],[7.01490983,47.51867528],[7.0148143,47.51864342],[7.01431188,47.51866795],[7.01385954,47.51877458],[7.01342248,47.51864182],[7.01323487,47.51862395],[7.01297982,47.51864716],[7.01260127,47.51876205],[7.01208941,47.51882025],[7.01119365,47.51886913],[7.01063664,47.51880449],[7.00991752,47.51900861],[7.00957518,47.5189501],[7.00897794,47.51875705],[7.00849682,47.51878172],[7.00578843,47.51797179],[7.00500602,47.51825468],[7.00451176,47.5181572],[7.00461461,47.51768318],[7.00498952,47.51762613],[7.00546249,47.51733316],[7.00395541,47.51735524],[7.00411584,47.51656648],[7.00428929,47.5162712],[7.00436385,47.51582789],[7.0043871,47.51519708],[7.00460994,47.51415831],[7.0049111,47.51315291],[7.00506434,47.51235719],[7.0052822,47.51162504],[7.00557365,47.51109405],[7.00590716,47.51060939],[7.00673888,47.50958392],[7.00703301,47.5093728],[7.00723046,47.50932725],[7.00721525,47.5091421],[7.00861617,47.50784917],[7.00912522,47.50752429],[7.00946037,47.50734601],[7.00960616,47.50732116],[7.00980712,47.50710964],[7.01029988,47.50676278],[7.01085884,47.50619913],[7.01170722,47.50584092],[7.01200875,47.50526811],[7.01247141,47.50464468],[7.01336825,47.50397563],[7.01356113,47.50358592],[7.01354999,47.50349076],[7.01334168,47.50332038],[7.01351746,47.50295109]]]]},"bbox":[6.99474711,47.50074047,7.02149489,47.52457736]},{"type":"Feature","id":"fr-quartier-90033-96337dcc9337","properties":{"id":"fr-quartier-90033-96337dcc9337","kind":"quartier","name":"La Voinaie","cityCode":"90033","cityName":"Delle","sourceType":"iris","sourceIds":["900330101"],"colorIndex":1,"center":[7.016118158844395,47.511802850167655]},"geometry":{"type":"MultiPolygon","coordinates":[[[[7.02493377,47.50429294],[7.02150983,47.50446804],[7.02015052,47.50439871],[7.01908203,47.50418143],[7.01767261,47.50369288],[7.01672969,47.50369477],[7.01474502,47.50330355],[7.01351746,47.50295109],[7.01334168,47.50332038],[7.01354999,47.50349076],[7.01356113,47.50358592],[7.01336825,47.50397563],[7.01247141,47.50464468],[7.01200875,47.50526811],[7.01170722,47.50584092],[7.01085884,47.50619913],[7.01029988,47.50676278],[7.00980712,47.50710964],[7.00960616,47.50732116],[7.00946037,47.50734601],[7.00912522,47.50752429],[7.00861617,47.50784917],[7.00721525,47.5091421],[7.00723046,47.50932725],[7.00703301,47.5093728],[7.00673888,47.50958392],[7.00590716,47.51060939],[7.00557365,47.51109405],[7.0052822,47.51162504],[7.00506434,47.51235719],[7.0049111,47.51315291],[7.00460994,47.51415831],[7.0043871,47.51519708],[7.00436385,47.51582789],[7.00428929,47.5162712],[7.00411584,47.51656648],[7.00395541,47.51735524],[7.00546249,47.51733316],[7.00498952,47.51762613],[7.00461461,47.51768318],[7.00451176,47.5181572],[7.00500602,47.51825468],[7.00578843,47.51797179],[7.00849682,47.51878172],[7.00897794,47.51875705],[7.00957518,47.5189501],[7.00991752,47.51900861],[7.01063664,47.51880449],[7.01119365,47.51886913],[7.01208941,47.51882025],[7.01260127,47.51876205],[7.01297982,47.51864716],[7.01323487,47.51862395],[7.01342248,47.51864182],[7.01385954,47.51877458],[7.01431188,47.51866795],[7.0148143,47.51864342],[7.01490983,47.51867528],[7.01562727,47.51857303],[7.01630582,47.51871458],[7.01703942,47.51854416],[7.01768523,47.51832089],[7.01905358,47.51829351],[7.01981099,47.51840437],[7.02076683,47.5183939],[7.02118587,47.51853446],[7.02133135,47.51864661],[7.02149489,47.51974148],[7.0215438,47.51950725],[7.021671,47.51941182],[7.02223866,47.51944089],[7.02284802,47.51967041],[7.02310832,47.51961094],[7.0235699,47.51969775],[7.02377959,47.51965535],[7.0239798,47.51943392],[7.02395547,47.51810351],[7.0243073,47.51606157],[7.02494111,47.51495538],[7.02504268,47.51459044],[7.02545839,47.51403347],[7.02651662,47.51169219],[7.02749773,47.51067672],[7.02807771,47.5104115],[7.02775522,47.5099098],[7.02695227,47.50910474],[7.02633068,47.5078815],[7.02537983,47.50663089],[7.02543256,47.50609458],[7.02569299,47.50577281],[7.02542241,47.50542975],[7.02527208,47.5047229],[7.02493377,47.50429294]]]]},"bbox":[7.00395541,47.50295109,7.02807771,47.51974148]},{"type":"Feature","id":"fr-quartier-90033-e96606f15d4e","properties":{"id":"fr-quartier-90033-e96606f15d4e","kind":"quartier","name":"Les Pasles-Les Vignes","cityCode":"90033","cityName":"Delle","sourceType":"iris","sourceIds":["900330102"],"colorIndex":2,"center":[6.9845466955919395,47.50515908397]},"geometry":{"type":"MultiPolygon","coordinates":[[[[7.00371795,47.50074047],[7.00038063,47.49972404],[7.00034128,47.49907374],[6.99941071,47.49861719],[6.99587187,47.49730382],[6.99083366,47.49583806],[6.98828096,47.49484938],[6.98602595,47.49333941],[6.98296851,47.49455177],[6.98285657,47.49429872],[6.98257462,47.49440571],[6.98215721,47.49399728],[6.98131851,47.49446761],[6.9808664,47.49530776],[6.97998212,47.49509465],[6.97881752,47.49545713],[6.97722434,47.49547551],[6.97722749,47.49628658],[6.97775096,47.49694107],[6.97785596,47.49738723],[6.97706042,47.49741982],[6.97687419,47.49756228],[6.97529565,47.4977604],[6.97371041,47.4978686],[6.97237951,47.49778423],[6.96649971,47.49676075],[6.96587703,47.49647012],[6.96384859,47.49634001],[6.96448388,47.49850493],[6.96609039,47.50311171],[6.96619676,47.50599764],[6.96724531,47.5060926],[6.96991837,47.50665854],[6.96985569,47.51108063],[6.97117249,47.51138273],[6.97171158,47.51142292],[6.97186574,47.51149247],[6.97173102,47.51168454],[6.97260353,47.5118792],[6.97308711,47.51208532],[6.97540328,47.51271289],[6.99247187,47.51779545],[6.99255431,47.51797288],[6.99212418,47.51990921],[6.99252934,47.5199539],[6.99250903,47.52018083],[6.99313587,47.5202008],[6.99306002,47.52071714],[6.99439982,47.52052068],[6.99445971,47.52077009],[6.99565528,47.52095801],[6.99514039,47.51967689],[6.99480149,47.51923696],[6.99474711,47.51884766],[6.99483142,47.51874743],[6.99541895,47.51861551],[6.99556402,47.51856277],[6.99567314,47.51845628],[6.99592047,47.51813414],[6.99628524,47.51779895],[6.99646883,47.51744295],[6.99655484,47.51711642],[6.99705668,47.51671074],[6.99732919,47.5162985],[6.99735415,47.51616966],[6.99734183,47.51605832],[6.99717199,47.51581539],[6.99691838,47.51566186],[6.99668473,47.51543734],[6.99651804,47.51459583],[6.99624164,47.51399513],[6.99628222,47.5129365],[6.99633939,47.51277591],[6.99664033,47.51240596],[6.99649229,47.51218752],[6.99657285,47.51185938],[6.99655111,47.51174656],[6.99632771,47.5113207],[6.9962381,47.51086951],[6.99607648,47.51052265],[6.99612472,47.5099045],[6.99637521,47.50939387],[6.99724384,47.50814819],[6.99765287,47.5081035],[6.99773483,47.50806103],[6.99572708,47.50743233],[6.99589444,47.50698405],[6.99600874,47.50691162],[6.99642811,47.50693418],[6.99655353,47.50676133],[6.99678411,47.50667861],[6.99685848,47.50633897],[6.99653196,47.50634837],[6.99655835,47.50606085],[6.99688072,47.50594253],[6.99736641,47.50567799],[6.99773084,47.50557084],[6.99818583,47.50553629],[6.99971753,47.50558103],[6.99983382,47.50564193],[6.99998204,47.50564945],[7.00023467,47.50559481],[7.00069691,47.50571052],[7.00170392,47.50580029],[7.00205316,47.50588113],[7.00249178,47.5061076],[7.00293169,47.50654674],[7.00438008,47.50620671],[7.00529814,47.50589032],[7.006434,47.5054096],[7.00564628,47.50494458],[7.00548303,47.50507368],[7.00462802,47.50379888],[7.00360872,47.50329585],[7.00346361,47.5032053],[7.00345877,47.5030874],[7.00247666,47.5026011],[7.00371795,47.50074047]]]]},"bbox":[6.96384859,47.49333941,7.006434,47.52095801]}]}