{"type":"FeatureCollection","metadata":{"sourceType":"iris","referenceFile":"corbeil-essonnes-quartiers.geojson","source":"IGN / INSEE - Contours IRIS WFS Géoplateforme","sourceUrl":"https://geoservices.ign.fr/contoursiris","license":"Licence Ouverte / Open Licence 2.0","sourceYear":"2026"},"features":[{"type":"Feature","id":"fr-quartier-91174-0c346b3dbe3c","properties":{"id":"fr-quartier-91174-0c346b3dbe3c","kind":"quartier","name":"Apport Paris Gare","cityCode":"91174","cityName":"Corbeil-Essonnes","sourceType":"iris","sourceIds":["911740503"],"colorIndex":0,"center":[2.475338488577586,48.61638572486687]},"geometry":{"type":"MultiPolygon","coordinates":[[[[2.47098077,48.62506081],[2.47266359,48.62382153],[2.47407114,48.62255673],[2.47560423,48.62080762],[2.47628836,48.62009821],[2.47681507,48.6193908],[2.47836548,48.61765522],[2.47934021,48.61677345],[2.47998846,48.61625096],[2.48034063,48.61603481],[2.48066518,48.61572949],[2.48161387,48.61527846],[2.48188363,48.61502597],[2.48223577,48.61480981],[2.48269644,48.61459413],[2.48307471,48.61434211],[2.48380482,48.61376598],[2.4841814,48.6134096],[2.48349179,48.6130441],[2.48273329,48.61278714],[2.48195933,48.61244825],[2.48141412,48.61216162],[2.47960307,48.61107519],[2.47953363,48.61110097],[2.47937652,48.61107599],[2.47938853,48.61095911],[2.4742959,48.60787652],[2.47294155,48.60874758],[2.47583623,48.61064578],[2.47426573,48.61182714],[2.47401592,48.61171269],[2.47379122,48.61166492],[2.47263883,48.61173269],[2.47215799,48.61166039],[2.47165777,48.61135773],[2.47077108,48.61090673],[2.47046629,48.61059683],[2.46969598,48.6096408],[2.46902659,48.60997154],[2.47023984,48.61099072],[2.47370195,48.61406807],[2.47409126,48.61447638],[2.47431205,48.6147805],[2.47464652,48.61565272],[2.47467278,48.61641563],[2.47450582,48.61710033],[2.47420186,48.6176477],[2.47370262,48.61818521],[2.47273714,48.61894374],[2.46828243,48.62167198],[2.46674017,48.62282907],[2.46632051,48.62326796],[2.46976778,48.6245193],[2.47098077,48.62506081]]]]},"bbox":[2.46632051,48.60787652,2.4841814,48.62506081]},{"type":"Feature","id":"fr-quartier-91174-adc2efa4e0a9","properties":{"id":"fr-quartier-91174-adc2efa4e0a9","kind":"quartier","name":"Centre ville","cityCode":"91174","cityName":"Corbeil-Essonnes","sourceType":"iris","sourceIds":["911740502"],"colorIndex":1,"center":[2.482391140953687,48.609339727822395]},"geometry":{"type":"MultiPolygon","coordinates":[[[[2.48945439,48.60896256],[2.48981189,48.60818959],[2.48429863,48.60701624],[2.48401335,48.60747286],[2.48349068,48.60683013],[2.4808134,48.60817048],[2.48016203,48.60751458],[2.47941977,48.6069986],[2.4792547,48.60682067],[2.47902233,48.60590933],[2.47877487,48.60569596],[2.47791754,48.60543403],[2.47798091,48.60560792],[2.4742959,48.60787652],[2.47938853,48.61095911],[2.47937652,48.61107599],[2.47953363,48.61110097],[2.47960307,48.61107519],[2.48141412,48.61216162],[2.48195933,48.61244825],[2.48273329,48.61278714],[2.48349179,48.6130441],[2.4841814,48.6134096],[2.48480871,48.61293826],[2.48757949,48.6110684],[2.48806868,48.61056587],[2.48945439,48.60896256]]]]},"bbox":[2.4742959,48.60543403,2.48981189,48.6134096]},{"type":"Feature","id":"fr-quartier-91174-48293641c9e3","properties":{"id":"fr-quartier-91174-48293641c9e3","kind":"quartier","name":"Chantemerle","cityCode":"91174","cityName":"Corbeil-Essonnes","sourceType":"iris","sourceIds":["911740601"],"colorIndex":2,"center":[2.4706166328708434,48.60812923514261]},"geometry":{"type":"MultiPolygon","coordinates":[[[[2.4742959,48.60787652],[2.47183272,48.60544498],[2.47160757,48.60544398],[2.47149357,48.60531574],[2.47130268,48.60527981],[2.46827233,48.6049002],[2.46799157,48.60489895],[2.46735936,48.60478008],[2.46553705,48.60697668],[2.46902659,48.60997154],[2.46969598,48.6096408],[2.47046629,48.61059683],[2.47077108,48.61090673],[2.47165777,48.61135773],[2.47215799,48.61166039],[2.47263883,48.61173269],[2.47379122,48.61166492],[2.47401592,48.61171269],[2.47426573,48.61182714],[2.47583623,48.61064578],[2.47294155,48.60874758],[2.4742959,48.60787652]]]]},"bbox":[2.46553705,48.60478008,2.47583623,48.61182714]},{"type":"Feature","id":"fr-quartier-91174-c47387f81883","properties":{"id":"fr-quartier-91174-c47387f81883","kind":"quartier","name":"Coquibus Art de Vivre","cityCode":"91174","cityName":"Corbeil-Essonnes","sourceType":"iris","sourceIds":["911740203"],"colorIndex":3,"center":[2.4523367902382986,48.610809065441515]},"geometry":{"type":"MultiPolygon","coordinates":[[[[2.45836755,48.60443367],[2.4560608,48.60465524],[2.45390072,48.60433771],[2.45296903,48.60484527],[2.45181855,48.60474193],[2.45177788,48.60486947],[2.45007954,48.60527363],[2.44941907,48.60591015],[2.44871641,48.60565772],[2.44633301,48.60837316],[2.44552669,48.60830014],[2.44439987,48.60915754],[2.44328984,48.60856047],[2.44340474,48.61038436],[2.43684888,48.61112713],[2.4380212,48.61274374],[2.43757996,48.6130295],[2.43807598,48.61433887],[2.4394005,48.61404197],[2.43995847,48.61336994],[2.4408541,48.61296307],[2.44223676,48.61331587],[2.44415906,48.6142082],[2.44803211,48.61717487],[2.44870452,48.6165789],[2.45270688,48.61889655],[2.45600272,48.61612132],[2.45649717,48.61553888],[2.4567379,48.61548061],[2.45690299,48.61538961],[2.45793617,48.61452897],[2.46115558,48.61174514],[2.46126713,48.61131927],[2.46134267,48.61122876],[2.46163191,48.61119948],[2.46201428,48.61108337],[2.46216721,48.61098692],[2.46527344,48.60728763],[2.46506526,48.60721833],[2.46458887,48.60671515],[2.46375404,48.60624813],[2.46346158,48.60619644],[2.46160451,48.60555299],[2.46033889,48.60490589],[2.45924595,48.60461487],[2.45836755,48.60443367]]]]},"bbox":[2.43684888,48.60433771,2.46527344,48.61889655]},{"type":"Feature","id":"fr-quartier-91174-78bc791a3416","properties":{"id":"fr-quartier-91174-78bc791a3416","kind":"quartier","name":"Ermitage","cityCode":"91174","cityName":"Corbeil-Essonnes","sourceType":"iris","sourceIds":["911740302"],"colorIndex":4,"center":[2.471404980114708,48.59697386414899]},"geometry":{"type":"MultiPolygon","coordinates":[[[[2.46469498,48.60005095],[2.46418543,48.60080697],[2.46393315,48.60133926],[2.46467079,48.60162144],[2.46543335,48.60185425],[2.46828339,48.6024751],[2.46919237,48.6025835],[2.47678221,48.59362709],[2.47735986,48.59267971],[2.47733886,48.59247362],[2.4774481,48.59226181],[2.47750458,48.59190224],[2.47736896,48.59027257],[2.47717801,48.59024834],[2.47698679,48.59011527],[2.47601692,48.59001385],[2.47589174,48.59005648],[2.4756763,48.59071849],[2.47545122,48.5911223],[2.47390909,48.59250799],[2.47371016,48.59273739],[2.47331669,48.5934328],[2.47282769,48.59378326],[2.47197773,48.59348444],[2.47090016,48.59316571],[2.47036365,48.59378851],[2.47102834,48.59403524],[2.47084336,48.59449319],[2.47081523,48.59472694],[2.47061857,48.59499773],[2.47063207,48.59527215],[2.47057112,48.59553365],[2.47039741,48.59581353],[2.47043366,48.59598461],[2.4706563,48.59609534],[2.47021655,48.59639923],[2.47021119,48.59652694],[2.4698209,48.59690121],[2.46956664,48.59723381],[2.4695716,48.59754777],[2.46892365,48.5975179],[2.46871828,48.59757545],[2.46858998,48.59765673],[2.46722948,48.59874809],[2.46614327,48.59993512],[2.46577371,48.60026539],[2.46536461,48.60021768],[2.46469498,48.60005095]]]]},"bbox":[2.46393315,48.59001385,2.47750458,48.6025835]},{"type":"Feature","id":"fr-quartier-91174-70ad61f20878","properties":{"id":"fr-quartier-91174-70ad61f20878","kind":"quartier","name":"Essonnes Est Nagis","cityCode":"91174","cityName":"Corbeil-Essonnes","sourceType":"iris","sourceIds":["911740602"],"colorIndex":5,"center":[2.476057241000821,48.60475450096467]},"geometry":{"type":"MultiPolygon","coordinates":[[[[2.46735936,48.60478008],[2.46799157,48.60489895],[2.46827233,48.6049002],[2.47130268,48.60527981],[2.47149357,48.60531574],[2.47160757,48.60544398],[2.47183272,48.60544498],[2.4742959,48.60787652],[2.47798091,48.60560792],[2.47791754,48.60543403],[2.47877487,48.60569596],[2.47902233,48.60590933],[2.4792547,48.60682067],[2.47941977,48.6069986],[2.48016203,48.60751458],[2.4808134,48.60817048],[2.48349068,48.60683013],[2.48304281,48.60630646],[2.48280534,48.60590513],[2.48158633,48.6028522],[2.48105087,48.60282379],[2.48078185,48.60287029],[2.48027843,48.60303001],[2.47996483,48.60306012],[2.4789959,48.60270327],[2.47757964,48.60205119],[2.47750807,48.60229106],[2.47715636,48.60287781],[2.47678974,48.60291938],[2.47669954,48.60298824],[2.4763115,48.602866],[2.47581745,48.60276578],[2.47237415,48.60246002],[2.47189274,48.60245159],[2.47060747,48.60267076],[2.47012328,48.60266951],[2.46919237,48.6025835],[2.46735936,48.60478008]]]]},"bbox":[2.46735936,48.60205119,2.48349068,48.60817048]},{"type":"Feature","id":"fr-quartier-91174-73ed54e1b00c","properties":{"id":"fr-quartier-91174-73ed54e1b00c","kind":"quartier","name":"Essonnes Ouest","cityCode":"91174","cityName":"Corbeil-Essonnes","sourceType":"iris","sourceIds":["911740402"],"colorIndex":6,"center":[2.4574453103912397,48.60094844019458]},"geometry":{"type":"MultiPolygon","coordinates":[[[[2.45993057,48.59570444],[2.45946698,48.59568434],[2.4590044,48.5955671],[2.458514,48.59577986],[2.45745927,48.59600804],[2.45716971,48.59633775],[2.4564684,48.59596394],[2.45582673,48.59650703],[2.45473666,48.59609005],[2.45447024,48.59640907],[2.45288554,48.59556972],[2.45276605,48.595714],[2.45098772,48.59497987],[2.45068688,48.5953473],[2.44980681,48.59663318],[2.44926208,48.598526],[2.44891791,48.59888332],[2.44884779,48.59910249],[2.44896086,48.60021485],[2.44924932,48.60064166],[2.44990415,48.60234392],[2.45060679,48.60272407],[2.45164482,48.60306978],[2.45208889,48.60314649],[2.45346823,48.60315013],[2.45408731,48.60322314],[2.45483467,48.60348113],[2.4559243,48.60408611],[2.45631759,48.60422103],[2.45741738,48.60424134],[2.45836755,48.60443367],[2.45924595,48.60461487],[2.46033889,48.60490589],[2.46160451,48.60555299],[2.46346158,48.60619644],[2.46375404,48.60624813],[2.46458887,48.60671515],[2.46506526,48.60721833],[2.46527344,48.60728763],[2.46553705,48.60697668],[2.46735936,48.60478008],[2.46919237,48.6025835],[2.46828339,48.6024751],[2.46543335,48.60185425],[2.46467079,48.60162144],[2.46393315,48.60133926],[2.46373428,48.60208499],[2.46309003,48.60208568],[2.46232994,48.60214072],[2.46189611,48.60212257],[2.46121845,48.60194409],[2.46097548,48.60235768],[2.46096802,48.60268778],[2.46039421,48.60256464],[2.4601564,48.60247721],[2.45998511,48.60238378],[2.45975008,48.60215873],[2.45955698,48.60181423],[2.45952102,48.60161796],[2.45993057,48.59570444]]]]},"bbox":[2.44884779,48.59497987,2.46919237,48.60728763]},{"type":"Feature","id":"fr-quartier-91174-f810ef31a5a4","properties":{"id":"fr-quartier-91174-f810ef31a5a4","kind":"quartier","name":"Montconseil Centre","cityCode":"91174","cityName":"Corbeil-Essonnes","sourceType":"iris","sourceIds":["911740702"],"colorIndex":7,"center":[2.47810889349929,48.5981659627328]},"geometry":{"type":"MultiPolygon","coordinates":[[[[2.48068592,48.60050858],[2.47819875,48.59422791],[2.47794338,48.59426997],[2.47774692,48.59438874],[2.47768778,48.59447214],[2.47626974,48.59863259],[2.47553149,48.60030518],[2.47691999,48.60047051],[2.47733291,48.59986513],[2.4774335,48.59984219],[2.4789052,48.6005053],[2.48068592,48.60050858]]]]},"bbox":[2.47553149,48.59422791,2.48068592,48.60050858]},{"type":"Feature","id":"fr-quartier-91174-da82f094cf03","properties":{"id":"fr-quartier-91174-da82f094cf03","kind":"quartier","name":"Montconseil Dauphine","cityCode":"91174","cityName":"Corbeil-Essonnes","sourceType":"iris","sourceIds":["911740701"],"colorIndex":8,"center":[2.475430466400072,48.599747745194605]},"geometry":{"type":"MultiPolygon","coordinates":[[[[2.48158633,48.6028522],[2.48068592,48.60050858],[2.4789052,48.6005053],[2.4774335,48.59984219],[2.47733291,48.59986513],[2.47691999,48.60047051],[2.47553149,48.60030518],[2.47626974,48.59863259],[2.47768778,48.59447214],[2.47774692,48.59438874],[2.47794338,48.59426997],[2.47819875,48.59422791],[2.47760078,48.59272575],[2.47754029,48.59267241],[2.47735986,48.59267971],[2.47678221,48.59362709],[2.46919237,48.6025835],[2.47012328,48.60266951],[2.47060747,48.60267076],[2.47189274,48.60245159],[2.47237415,48.60246002],[2.47581745,48.60276578],[2.4763115,48.602866],[2.47669954,48.60298824],[2.47678974,48.60291938],[2.47715636,48.60287781],[2.47750807,48.60229106],[2.47757964,48.60205119],[2.4789959,48.60270327],[2.47996483,48.60306012],[2.48027843,48.60303001],[2.48078185,48.60287029],[2.48105087,48.60282379],[2.48158633,48.6028522]]]]},"bbox":[2.46919237,48.59267241,2.48158633,48.60306012]},{"type":"Feature","id":"fr-quartier-91174-54a57a99ff67","properties":{"id":"fr-quartier-91174-54a57a99ff67","kind":"quartier","name":"Moulin Galant Papeterie","cityCode":"91174","cityName":"Corbeil-Essonnes","sourceType":"iris","sourceIds":["911740301"],"colorIndex":9,"center":[2.471526152416194,48.58820295269852]},"geometry":{"type":"MultiPolygon","coordinates":[[[[2.47378821,48.57767837],[2.47385225,48.5777812],[2.47265479,48.57795671],[2.47111253,48.57857955],[2.47089667,48.57874501],[2.47091908,48.57894211],[2.47083589,48.57899032],[2.47048817,48.57905624],[2.47027821,48.57863701],[2.46967395,48.57873327],[2.46950421,48.57849323],[2.46944014,48.57906417],[2.46953337,48.57936233],[2.46990138,48.57956997],[2.46996538,48.57940834],[2.47046446,48.57979287],[2.47026808,48.58030924],[2.47057851,48.58165366],[2.4707756,48.58200626],[2.4707026,48.58238824],[2.47029504,48.58300622],[2.47060115,48.58343847],[2.47058235,48.58355443],[2.47032254,48.58377276],[2.46988021,48.58380587],[2.4692846,48.58397953],[2.46909747,48.58411633],[2.46886889,48.58459657],[2.46904273,48.58537006],[2.46907937,48.58630395],[2.4697272,48.58726936],[2.46912738,48.58785409],[2.46913925,48.58868983],[2.46843134,48.58896822],[2.4682656,48.5891321],[2.46826736,48.58976089],[2.46794912,48.59052049],[2.46654823,48.59026954],[2.46574633,48.59284584],[2.46392132,48.59520704],[2.46445848,48.59506103],[2.4647718,48.59505524],[2.46503416,48.59512659],[2.46533717,48.59533304],[2.46593295,48.59555611],[2.46634022,48.59564609],[2.46663814,48.59555567],[2.46697983,48.59529363],[2.4672602,48.59519504],[2.46797279,48.59459913],[2.46816074,48.59465214],[2.46823676,48.59477842],[2.46791643,48.59520787],[2.46673548,48.59638369],[2.46675653,48.59644765],[2.46666009,48.59646251],[2.46595732,48.5971556],[2.46597568,48.59721685],[2.46587386,48.59722809],[2.46485665,48.59829758],[2.46421445,48.59889918],[2.46429722,48.59915952],[2.46395869,48.59950612],[2.46392692,48.59969488],[2.46408133,48.5998467],[2.46469498,48.60005095],[2.46536461,48.60021768],[2.46577371,48.60026539],[2.46614327,48.59993512],[2.46722948,48.59874809],[2.46858998,48.59765673],[2.46871828,48.59757545],[2.46892365,48.5975179],[2.4695716,48.59754777],[2.46956664,48.59723381],[2.4698209,48.59690121],[2.47021119,48.59652694],[2.47021655,48.59639923],[2.4706563,48.59609534],[2.47043366,48.59598461],[2.47039741,48.59581353],[2.47057112,48.59553365],[2.47063207,48.59527215],[2.47061857,48.59499773],[2.47081523,48.59472694],[2.47084336,48.59449319],[2.47102834,48.59403524],[2.47036365,48.59378851],[2.47090016,48.59316571],[2.47197773,48.59348444],[2.47282769,48.59378326],[2.47331669,48.5934328],[2.47371016,48.59273739],[2.47390909,48.59250799],[2.47545122,48.5911223],[2.4756763,48.59071849],[2.47589174,48.59005648],[2.47601692,48.59001385],[2.47698679,48.59011527],[2.47717801,48.59024834],[2.47736896,48.59027257],[2.47584694,48.5775948],[2.47378821,48.57767837]]]]},"bbox":[2.46392132,48.5775948,2.47736896,48.60026539]},{"type":"Feature","id":"fr-quartier-91174-2d8d8dd6d58b","properties":{"id":"fr-quartier-91174-2d8d8dd6d58b","kind":"quartier","name":"Pressoir Prompt Bas Coudray","cityCode":"91174","cityName":"Corbeil-Essonnes","sourceType":"iris","sourceIds":["911740801"],"colorIndex":10,"center":[2.4820921907388986,48.591665770038794]},"geometry":{"type":"MultiPolygon","coordinates":[[[[2.48981189,48.60818959],[2.49035841,48.60750559],[2.49108576,48.6053813],[2.4910491,48.60440785],[2.49084484,48.60351464],[2.49023474,48.60209526],[2.48949087,48.60118534],[2.48841531,48.60021822],[2.48684209,48.59910861],[2.48565951,48.59786214],[2.48511928,48.59570271],[2.48497498,48.59424123],[2.48497245,48.59353328],[2.48531641,48.59151259],[2.48539765,48.59014383],[2.48540767,48.58871],[2.48530794,48.58823461],[2.48474294,48.58695031],[2.48302326,48.5842433],[2.48219541,48.58254045],[2.48111113,48.580178],[2.48009402,48.58034718],[2.48005666,48.58028584],[2.47969009,48.58033911],[2.47965794,48.58098215],[2.4788978,48.57971226],[2.47863154,48.57963013],[2.4785823,48.5792656],[2.47826734,48.57862823],[2.47824932,48.57826023],[2.47788834,48.57761727],[2.47805299,48.57728246],[2.47864556,48.57481577],[2.47890391,48.57405498],[2.47939325,48.57310089],[2.48040068,48.57184411],[2.48161458,48.57067548],[2.48231358,48.57016937],[2.48172047,48.56983665],[2.48117726,48.56911913],[2.48044923,48.56940831],[2.47999361,48.56929118],[2.47905793,48.57083433],[2.47839878,48.57005512],[2.47806923,48.57034513],[2.4754009,48.57177539],[2.47587879,48.57319161],[2.47573487,48.57633043],[2.47584694,48.5775948],[2.47736896,48.59027257],[2.47750458,48.59190224],[2.4774481,48.59226181],[2.47733886,48.59247362],[2.47735986,48.59267971],[2.47754029,48.59267241],[2.47760078,48.59272575],[2.47819875,48.59422791],[2.48068592,48.60050858],[2.48158633,48.6028522],[2.48280534,48.60590513],[2.48304281,48.60630646],[2.48349068,48.60683013],[2.48401335,48.60747286],[2.48429863,48.60701624],[2.48981189,48.60818959]]]]},"bbox":[2.4754009,48.56911913,2.49108576,48.60818959]},{"type":"Feature","id":"fr-quartier-91174-2b235ab6a3e0","properties":{"id":"fr-quartier-91174-2b235ab6a3e0","kind":"quartier","name":"Rive Droite","cityCode":"91174","cityName":"Corbeil-Essonnes","sourceType":"iris","sourceIds":["911740501"],"colorIndex":11,"center":[2.4836020643888386,48.61556931986734]},"geometry":{"type":"MultiPolygon","coordinates":[[[[2.47560423,48.62080762],[2.47664527,48.62117561],[2.47674508,48.62109869],[2.47684179,48.62133299],[2.47891504,48.62214355],[2.4792966,48.62115844],[2.48001567,48.62006866],[2.48149227,48.61892731],[2.48263551,48.61774041],[2.48296152,48.61783628],[2.48295808,48.61777239],[2.48326396,48.61784748],[2.48334591,48.61779117],[2.48344287,48.6175901],[2.48328703,48.61757143],[2.48333641,48.61738004],[2.48359326,48.61706003],[2.48371365,48.61709653],[2.48388785,48.61690299],[2.48430698,48.61704963],[2.48456233,48.61674399],[2.4844353,48.61669307],[2.48488801,48.6161841],[2.48452637,48.61598644],[2.48502922,48.61548218],[2.48514951,48.61552858],[2.48523052,48.61542998],[2.485487,48.61556062],[2.48583723,48.61526169],[2.48620993,48.61530018],[2.48620101,48.61565635],[2.48628402,48.61576825],[2.48644149,48.61575814],[2.48663432,48.6153236],[2.48648003,48.61528695],[2.48645431,48.61500439],[2.48724725,48.61424321],[2.48781782,48.61388495],[2.48772078,48.61381977],[2.48891831,48.61343812],[2.48934543,48.61317998],[2.48931995,48.61287224],[2.48991079,48.61251856],[2.48960405,48.6123958],[2.49001733,48.6121646],[2.49059818,48.61158149],[2.49026194,48.61142443],[2.49119902,48.61089502],[2.49226149,48.61044259],[2.49150174,48.60989424],[2.49180116,48.60979207],[2.48945439,48.60896256],[2.48806868,48.61056587],[2.48757949,48.6110684],[2.48480871,48.61293826],[2.4841814,48.6134096],[2.48380482,48.61376598],[2.48307471,48.61434211],[2.48269644,48.61459413],[2.48223577,48.61480981],[2.48188363,48.61502597],[2.48161387,48.61527846],[2.48066518,48.61572949],[2.48034063,48.61603481],[2.47998846,48.61625096],[2.47934021,48.61677345],[2.47836548,48.61765522],[2.47681507,48.6193908],[2.47628836,48.62009821],[2.47560423,48.62080762]]]]},"bbox":[2.47560423,48.60896256,2.49226149,48.62214355]},{"type":"Feature","id":"fr-quartier-91174-fb8e97655ca6","properties":{"id":"fr-quartier-91174-fb8e97655ca6","kind":"quartier","name":"Robinson-La Nacelle","cityCode":"91174","cityName":"Corbeil-Essonnes","sourceType":"iris","sourceIds":["911740401"],"colorIndex":12,"center":[2.462589318673315,48.59837399121766]},"geometry":{"type":"MultiPolygon","coordinates":[[[[2.46392132,48.59520704],[2.46377423,48.59540158],[2.46298674,48.59536025],[2.46177985,48.594959],[2.46136379,48.59532952],[2.46066526,48.59560522],[2.46065221,48.59568702],[2.45993057,48.59570444],[2.45952102,48.60161796],[2.45955698,48.60181423],[2.45975008,48.60215873],[2.45998511,48.60238378],[2.4601564,48.60247721],[2.46039421,48.60256464],[2.46096802,48.60268778],[2.46097548,48.60235768],[2.46121845,48.60194409],[2.46189611,48.60212257],[2.46232994,48.60214072],[2.46309003,48.60208568],[2.46373428,48.60208499],[2.46393315,48.60133926],[2.46418543,48.60080697],[2.46469498,48.60005095],[2.46408133,48.5998467],[2.46392692,48.59969488],[2.46395869,48.59950612],[2.46429722,48.59915952],[2.46421445,48.59889918],[2.46485665,48.59829758],[2.46587386,48.59722809],[2.46597568,48.59721685],[2.46595732,48.5971556],[2.46666009,48.59646251],[2.46675653,48.59644765],[2.46673548,48.59638369],[2.46791643,48.59520787],[2.46823676,48.59477842],[2.46816074,48.59465214],[2.46797279,48.59459913],[2.4672602,48.59519504],[2.46697983,48.59529363],[2.46663814,48.59555567],[2.46634022,48.59564609],[2.46593295,48.59555611],[2.46533717,48.59533304],[2.46503416,48.59512659],[2.4647718,48.59505524],[2.46445848,48.59506103],[2.46392132,48.59520704]]]]},"bbox":[2.45952102,48.59459913,2.46823676,48.60268778]},{"type":"Feature","id":"fr-quartier-91174-62f1be7ddd30","properties":{"id":"fr-quartier-91174-62f1be7ddd30","kind":"quartier","name":"Tarterêts Centre","cityCode":"91174","cityName":"Corbeil-Essonnes","sourceType":"iris","sourceIds":["911740102"],"colorIndex":13,"center":[2.461631256968269,48.61761711630954]},"geometry":{"type":"MultiPolygon","coordinates":[[[[2.4652409,48.61698263],[2.46409719,48.61658799],[2.46383617,48.61690525],[2.46359021,48.61694462],[2.46239923,48.61652997],[2.46141092,48.6163303],[2.46070327,48.61627943],[2.45971414,48.61629114],[2.45880697,48.6161179],[2.45860822,48.61788907],[2.45872876,48.61817117],[2.45895454,48.61837909],[2.45933543,48.61854363],[2.46302625,48.61915222],[2.46317629,48.61920687],[2.4632879,48.61917229],[2.46339476,48.61920335],[2.46427608,48.61833028],[2.4652409,48.61698263]]]]},"bbox":[2.45860822,48.6161179,2.4652409,48.61920687]},{"type":"Feature","id":"fr-quartier-91174-20fe44879559","properties":{"id":"fr-quartier-91174-20fe44879559","kind":"quartier","name":"Tarterêts Montagne des Glaises","cityCode":"91174","cityName":"Corbeil-Essonnes","sourceType":"iris","sourceIds":["911740202"],"colorIndex":14,"center":[2.464351926021937,48.61220604271691]},"geometry":{"type":"MultiPolygon","coordinates":[[[[2.46527344,48.60728763],[2.46216721,48.61098692],[2.46201428,48.61108337],[2.46163191,48.61119948],[2.46134267,48.61122876],[2.46126713,48.61131927],[2.46115558,48.61174514],[2.45793617,48.61452897],[2.45902317,48.61488833],[2.45907842,48.61492456],[2.45909044,48.61507394],[2.4596191,48.61537858],[2.45991117,48.61494543],[2.46092175,48.61521987],[2.46082959,48.61534269],[2.46127476,48.61545535],[2.46278856,48.61574014],[2.46317826,48.61570682],[2.46340747,48.61584548],[2.46390849,48.61593769],[2.46456341,48.61597032],[2.46593379,48.61595488],[2.46662391,48.61493071],[2.46662192,48.61459338],[2.46699645,48.61378278],[2.46767499,48.61269199],[2.46811791,48.61209128],[2.46798817,48.61177587],[2.46822088,48.61170315],[2.46885946,48.61160345],[2.46966687,48.61157736],[2.469921,48.61153172],[2.46873572,48.61029588],[2.4687176,48.61021034],[2.4687893,48.61009552],[2.46902659,48.60997154],[2.46553705,48.60697668],[2.46527344,48.60728763]]]]},"bbox":[2.45793617,48.60697668,2.469921,48.61597032]},{"type":"Feature","id":"fr-quartier-91174-945f75eab74a","properties":{"id":"fr-quartier-91174-945f75eab74a","kind":"quartier","name":"Tarterêts Pablo Picasso","cityCode":"91174","cityName":"Corbeil-Essonnes","sourceType":"iris","sourceIds":["911740201"],"colorIndex":15,"center":[2.4633040645180375,48.616205396169455]},"geometry":{"type":"MultiPolygon","coordinates":[[[[2.45909044,48.61507394],[2.45892549,48.61554544],[2.45880697,48.6161179],[2.45971414,48.61629114],[2.46070327,48.61627943],[2.46141092,48.6163303],[2.46239923,48.61652997],[2.46359021,48.61694462],[2.46383617,48.61690525],[2.46409719,48.61658799],[2.4652409,48.61698263],[2.46641915,48.61731804],[2.46667379,48.61735876],[2.46741175,48.61736656],[2.46742232,48.61632676],[2.46750693,48.6160114],[2.4674208,48.61594265],[2.46716742,48.61604586],[2.46687278,48.61606973],[2.46593379,48.61595488],[2.46456341,48.61597032],[2.46390849,48.61593769],[2.46340747,48.61584548],[2.46317826,48.61570682],[2.46278856,48.61574014],[2.46127476,48.61545535],[2.46082959,48.61534269],[2.46092175,48.61521987],[2.45991117,48.61494543],[2.4596191,48.61537858],[2.45909044,48.61507394]]]]},"bbox":[2.45880697,48.61494543,2.46750693,48.61736656]},{"type":"Feature","id":"fr-quartier-91174-ddf5842af588","properties":{"id":"fr-quartier-91174-ddf5842af588","kind":"quartier","name":"Z.I. Tarterêts","cityCode":"91174","cityName":"Corbeil-Essonnes","sourceType":"iris","sourceIds":["911740101"],"colorIndex":16,"center":[2.4652655657519307,48.61815068408567]},"geometry":{"type":"MultiPolygon","coordinates":[[[[2.45270688,48.61889655],[2.45713471,48.62117283],[2.45656716,48.62173514],[2.45786801,48.62229068],[2.45909669,48.62274153],[2.45975708,48.62199073],[2.46159387,48.62255045],[2.4615144,48.62275698],[2.46553227,48.62339216],[2.46805004,48.62411225],[2.4702339,48.62552074],[2.47098077,48.62506081],[2.46976778,48.6245193],[2.46632051,48.62326796],[2.46674017,48.62282907],[2.46828243,48.62167198],[2.47273714,48.61894374],[2.47370262,48.61818521],[2.47420186,48.6176477],[2.47450582,48.61710033],[2.47467278,48.61641563],[2.47464652,48.61565272],[2.47431205,48.6147805],[2.47409126,48.61447638],[2.47370195,48.61406807],[2.47023984,48.61099072],[2.46902659,48.60997154],[2.4687893,48.61009552],[2.4687176,48.61021034],[2.46873572,48.61029588],[2.469921,48.61153172],[2.46966687,48.61157736],[2.46885946,48.61160345],[2.46822088,48.61170315],[2.46798817,48.61177587],[2.46811791,48.61209128],[2.46767499,48.61269199],[2.46699645,48.61378278],[2.46662192,48.61459338],[2.46662391,48.61493071],[2.46593379,48.61595488],[2.46687278,48.61606973],[2.46716742,48.61604586],[2.4674208,48.61594265],[2.46750693,48.6160114],[2.46742232,48.61632676],[2.46741175,48.61736656],[2.46667379,48.61735876],[2.46641915,48.61731804],[2.4652409,48.61698263],[2.46427608,48.61833028],[2.46339476,48.61920335],[2.4632879,48.61917229],[2.46317629,48.61920687],[2.46302625,48.61915222],[2.45933543,48.61854363],[2.45895454,48.61837909],[2.45872876,48.61817117],[2.45860822,48.61788907],[2.45880697,48.6161179],[2.45892549,48.61554544],[2.45909044,48.61507394],[2.45907842,48.61492456],[2.45902317,48.61488833],[2.45793617,48.61452897],[2.45690299,48.61538961],[2.4567379,48.61548061],[2.45649717,48.61553888],[2.45600272,48.61612132],[2.45270688,48.61889655]]]]},"bbox":[2.45270688,48.60997154,2.47467278,48.62552074]}]}