{"type":"FeatureCollection","metadata":{"sourceType":"iris","referenceFile":"draveil-quartiers.geojson","source":"IGN / INSEE - Contours IRIS WFS Géoplateforme","sourceUrl":"https://geoservices.ign.fr/contoursiris","license":"Licence Ouverte / Open Licence 2.0","sourceYear":"2026"},"features":[{"type":"Feature","id":"fr-quartier-91201-e1e472532ce4","properties":{"id":"fr-quartier-91201-e1e472532ce4","kind":"quartier","name":"Barbusse–Delacroix","cityCode":"91201","cityName":"Draveil","sourceType":"iris","sourceIds":["912010109"],"colorIndex":0,"center":[2.415670053803628,48.67906413603544]},"geometry":{"type":"MultiPolygon","coordinates":[[[[2.41202751,48.67414485],[2.41115381,48.67623005],[2.40999816,48.67946339],[2.40869341,48.68181357],[2.41072939,48.68207371],[2.41142089,48.68206633],[2.41163573,48.68397789],[2.41177666,48.68400916],[2.4118165,48.68409031],[2.41473367,48.68391218],[2.41520495,48.68392079],[2.41597255,48.68354767],[2.41745705,48.68271571],[2.41768228,48.68249554],[2.41808242,48.68181568],[2.41822822,48.68165269],[2.42053601,48.67994322],[2.42152911,48.67906834],[2.42245077,48.6783865],[2.42315767,48.67796267],[2.42363107,48.67777427],[2.42560948,48.67720815],[2.42357199,48.67647962],[2.42130666,48.6758489],[2.42084618,48.67585296],[2.42069537,48.67597996],[2.42060698,48.67598942],[2.41957657,48.6758243],[2.41817256,48.67579048],[2.41802291,48.67581313],[2.41781047,48.67574104],[2.41504576,48.67532273],[2.41431509,48.67507629],[2.41202751,48.67414485]]]]},"bbox":[2.40869341,48.67414485,2.42560948,48.68409031]},{"type":"Feature","id":"fr-quartier-91201-7b34da65c097","properties":{"id":"fr-quartier-91201-7b34da65c097","kind":"quartier","name":"Brossolette–Hélène-Fuchs","cityCode":"91201","cityName":"Draveil","sourceType":"iris","sourceIds":["912010110"],"colorIndex":1,"center":[2.4168336233341194,48.685072553497875]},"geometry":{"type":"MultiPolygon","coordinates":[[[[2.40866416,48.68608147],[2.40959273,48.68601681],[2.41102256,48.68571266],[2.41240416,48.68607207],[2.41490572,48.68650353],[2.41520592,48.68674876],[2.41737209,48.68656147],[2.41902137,48.6864328],[2.41942877,48.68669024],[2.42125071,48.68691767],[2.42390377,48.68778861],[2.42501814,48.68688912],[2.42625647,48.68620248],[2.42462849,48.68476896],[2.42320758,48.68341288],[2.42226204,48.68366645],[2.42131717,48.68385886],[2.41566139,48.68464891],[2.41520495,48.68392079],[2.41473367,48.68391218],[2.4118165,48.68409031],[2.41177666,48.68400916],[2.41163573,48.68397789],[2.41142089,48.68206633],[2.41072939,48.68207371],[2.40869341,48.68181357],[2.40829765,48.68257617],[2.40817718,48.68313865],[2.40820866,48.68335738],[2.40854635,48.68424684],[2.40853016,48.68543857],[2.40859903,48.68595522],[2.40866416,48.68608147]]]]},"bbox":[2.40817718,48.68181357,2.42625647,48.68778861]},{"type":"Feature","id":"fr-quartier-91201-d29c87fbc3c0","properties":{"id":"fr-quartier-91201-d29c87fbc3c0","kind":"quartier","name":"Champrosay–Bois-Rosay","cityCode":"91201","cityName":"Draveil","sourceType":"iris","sourceIds":["912010101"],"colorIndex":2,"center":[2.4330440937078355,48.66976228391719]},"geometry":{"type":"MultiPolygon","coordinates":[[[[2.43699577,48.68627975],[2.43939797,48.68383459],[2.44461773,48.67877875],[2.4472046,48.67999698],[2.4544253,48.68248042],[2.45475347,48.68214371],[2.45546171,48.68170081],[2.45605704,48.68101272],[2.45789682,48.6796458],[2.45846695,48.6787624],[2.45871779,48.67775522],[2.45962281,48.67718905],[2.46030131,48.67659127],[2.46052843,48.67629907],[2.4611379,48.67488513],[2.46152161,48.67468538],[2.46239492,48.67389238],[2.46380275,48.6728886],[2.4594758,48.67170153],[2.45892658,48.66899787],[2.45913459,48.66845013],[2.45751916,48.66852284],[2.44609691,48.66249319],[2.44528556,48.66204777],[2.44525286,48.66192978],[2.44504633,48.66194321],[2.44081184,48.65972415],[2.43267882,48.65545447],[2.42900917,48.65369821],[2.42388917,48.65656637],[2.42021802,48.65851757],[2.41884786,48.65914505],[2.41758935,48.659863],[2.41492324,48.66163005],[2.41307263,48.66331291],[2.41221423,48.66429902],[2.41074606,48.66552768],[2.40920573,48.66640696],[2.40728125,48.66726722],[2.40561676,48.66782831],[2.40411709,48.66846306],[2.40208541,48.66953858],[2.40032852,48.67056777],[2.39907753,48.67141239],[2.39776256,48.67250224],[2.39776207,48.67266324],[2.39724458,48.67302042],[2.39898471,48.67381716],[2.39978314,48.67347668],[2.40204477,48.67451886],[2.40267817,48.6742378],[2.4028523,48.67421348],[2.40302714,48.67424494],[2.40554644,48.67521009],[2.40706156,48.67574473],[2.40784072,48.6747052],[2.40917601,48.67348582],[2.41022552,48.67267338],[2.4107174,48.67289259],[2.41107487,48.67310933],[2.41143495,48.67345562],[2.41202751,48.67414485],[2.41431509,48.67507629],[2.41504576,48.67532273],[2.41781047,48.67574104],[2.41802291,48.67581313],[2.41817256,48.67579048],[2.41957657,48.6758243],[2.42060698,48.67598942],[2.42069537,48.67597996],[2.42084618,48.67585296],[2.42130666,48.6758489],[2.42357199,48.67647962],[2.42560948,48.67720815],[2.42906737,48.67859557],[2.42830987,48.67930253],[2.42833382,48.67934762],[2.42960514,48.67997525],[2.42991414,48.67978964],[2.43011963,48.67975464],[2.43014026,48.68035379],[2.43038963,48.68053038],[2.43073818,48.68057972],[2.43098883,48.68051436],[2.43135823,48.68027056],[2.43453043,48.6775854],[2.43459244,48.67762886],[2.43507679,48.67805662],[2.43577552,48.67888385],[2.43592237,48.67912111],[2.43623932,48.67996003],[2.43534566,48.68057824],[2.43437517,48.68139127],[2.43369308,48.68203656],[2.43562489,48.68264657],[2.43567767,48.68304259],[2.43581137,48.68336614],[2.4356866,48.68397719],[2.43585759,48.6844961],[2.43617611,48.68519201],[2.43640588,48.68555199],[2.43637165,48.68570294],[2.43687859,48.68631248],[2.43699577,48.68627975]]]]},"bbox":[2.39724458,48.65369821,2.46380275,48.68631248]},{"type":"Feature","id":"fr-quartier-91201-0e7c9d310e1b","properties":{"id":"fr-quartier-91201-0e7c9d310e1b","kind":"quartier","name":"Châtillon–Ormes","cityCode":"91201","cityName":"Draveil","sourceType":"iris","sourceIds":["912010104"],"colorIndex":3,"center":[2.4006360628207557,48.69211380226033]},"geometry":{"type":"MultiPolygon","coordinates":[[[[2.38796548,48.68905865],[2.38992969,48.69187509],[2.39207381,48.69419499],[2.39779444,48.69898313],[2.40001232,48.701207],[2.40046917,48.70177596],[2.40839461,48.69885807],[2.40976977,48.69813182],[2.41019742,48.69840557],[2.41082753,48.69795625],[2.41259339,48.69728047],[2.41156101,48.69641099],[2.41099279,48.69522807],[2.41017078,48.69378215],[2.40887682,48.69106293],[2.41111935,48.6902654],[2.40927072,48.68746427],[2.408965,48.6868682],[2.40871865,48.68618877],[2.40749173,48.68608734],[2.40606238,48.68622685],[2.40431252,48.68647717],[2.4007085,48.68493269],[2.39587911,48.68400075],[2.39098693,48.68310966],[2.39244408,48.68805525],[2.39031045,48.68835108],[2.39021732,48.68841537],[2.38796548,48.68905865]]]]},"bbox":[2.38796548,48.68310966,2.41259339,48.70177596]},{"type":"Feature","id":"fr-quartier-91201-dcf3c108c02c","properties":{"id":"fr-quartier-91201-dcf3c108c02c","kind":"quartier","name":"Chemin-Vert–Saint-Hubert","cityCode":"91201","cityName":"Draveil","sourceType":"iris","sourceIds":["912010107"],"colorIndex":4,"center":[2.429638106162528,48.68836111764275]},"geometry":{"type":"MultiPolygon","coordinates":[[[[2.43106957,48.69219356],[2.43459345,48.68884089],[2.4349078,48.6882892],[2.43195936,48.68695296],[2.43190159,48.68689422],[2.43184384,48.6864577],[2.43155192,48.68619366],[2.43026568,48.68554799],[2.42960389,48.68531906],[2.42840505,48.68525755],[2.42794152,48.68528411],[2.42625647,48.68620248],[2.42501814,48.68688912],[2.42390377,48.68778861],[2.42687565,48.68932665],[2.42775449,48.69020875],[2.43106957,48.69219356]]]]},"bbox":[2.42390377,48.68525755,2.4349078,48.69219356]},{"type":"Feature","id":"fr-quartier-91201-8b6bfe9ea831","properties":{"id":"fr-quartier-91201-8b6bfe9ea831","kind":"quartier","name":"Danton–Haies-Saint-Rémy","cityCode":"91201","cityName":"Draveil","sourceType":"iris","sourceIds":["912010103"],"colorIndex":5,"center":[2.4076397308757587,48.678245646030994]},"geometry":{"type":"MultiPolygon","coordinates":[[[[2.40217903,48.68083303],[2.40525183,48.6818873],[2.4062533,48.68245447],[2.40778526,48.68308003],[2.40817718,48.68313865],[2.40829765,48.68257617],[2.40869341,48.68181357],[2.40999816,48.67946339],[2.41115381,48.67623005],[2.41202751,48.67414485],[2.41143495,48.67345562],[2.41107487,48.67310933],[2.4107174,48.67289259],[2.41022552,48.67267338],[2.40917601,48.67348582],[2.40784072,48.6747052],[2.40706156,48.67574473],[2.40556851,48.67721156],[2.40378327,48.678685],[2.40241307,48.6803224],[2.40217903,48.68083303]]]]},"bbox":[2.40217903,48.67267338,2.41202751,48.68313865]},{"type":"Feature","id":"fr-quartier-91201-9b542f80103f","properties":{"id":"fr-quartier-91201-9b542f80103f","kind":"quartier","name":"Domaine-de-Villiers–Bellevue","cityCode":"91201","cityName":"Draveil","sourceType":"iris","sourceIds":["912010111"],"colorIndex":6,"center":[2.3952607944907838,48.68314094336429]},"geometry":{"type":"MultiPolygon","coordinates":[[[[2.38860564,48.67788315],[2.38828889,48.67802185],[2.38781159,48.67841697],[2.38694917,48.67933631],[2.38639236,48.68071686],[2.38600142,48.6825453],[2.38591556,48.68372588],[2.38594986,48.68415961],[2.38665724,48.6865064],[2.38740766,48.68820038],[2.38796548,48.68905865],[2.39021732,48.68841537],[2.39031045,48.68835108],[2.39244408,48.68805525],[2.39098693,48.68310966],[2.39587911,48.68400075],[2.4007085,48.68493269],[2.40431252,48.68647717],[2.40606238,48.68622685],[2.40749173,48.68608734],[2.40871865,48.68618877],[2.40866416,48.68608147],[2.40859903,48.68595522],[2.40853016,48.68543857],[2.40854635,48.68424684],[2.40820866,48.68335738],[2.40817718,48.68313865],[2.40778526,48.68308003],[2.4062533,48.68245447],[2.40525183,48.6818873],[2.40217903,48.68083303],[2.40141421,48.68072036],[2.40064457,48.68067332],[2.39977083,48.6807022],[2.39953924,48.6807604],[2.39911106,48.68078703],[2.39853567,48.68073915],[2.39531358,48.67980898],[2.38975693,48.67827673],[2.38865395,48.67793287],[2.38860564,48.67788315]]]]},"bbox":[2.38591556,48.67788315,2.40871865,48.68905865]},{"type":"Feature","id":"fr-quartier-91201-35bdc970b506","properties":{"id":"fr-quartier-91201-35bdc970b506","kind":"quartier","name":"Jean-Jaurès–René-Lebail","cityCode":"91201","cityName":"Draveil","sourceType":"iris","sourceIds":["912010105"],"colorIndex":7,"center":[2.4140551797958505,48.69078826017192]},"geometry":{"type":"MultiPolygon","coordinates":[[[[2.41259339,48.69728047],[2.41742721,48.69441597],[2.41771721,48.69338659],[2.41774925,48.6929496],[2.4176448,48.69256861],[2.4174942,48.69230613],[2.41720056,48.6919557],[2.41699399,48.69183956],[2.41699647,48.69173883],[2.41868211,48.69079811],[2.41994571,48.68968711],[2.4203542,48.68935899],[2.42042819,48.68942501],[2.42096758,48.68893112],[2.41990155,48.68815779],[2.41831217,48.68717141],[2.41768322,48.68667993],[2.41737209,48.68656147],[2.41520592,48.68674876],[2.41490572,48.68650353],[2.41240416,48.68607207],[2.41102256,48.68571266],[2.40959273,48.68601681],[2.40866416,48.68608147],[2.40871865,48.68618877],[2.408965,48.6868682],[2.40927072,48.68746427],[2.41111935,48.6902654],[2.40887682,48.69106293],[2.41017078,48.69378215],[2.41099279,48.69522807],[2.41156101,48.69641099],[2.41259339,48.69728047]]]]},"bbox":[2.40866416,48.68571266,2.42096758,48.69728047]},{"type":"Feature","id":"fr-quartier-91201-62fcfa30217d","properties":{"id":"fr-quartier-91201-62fcfa30217d","kind":"quartier","name":"Les Mazières–Ferdinand-Buisson","cityCode":"91201","cityName":"Draveil","sourceType":"iris","sourceIds":["912010102"],"colorIndex":8,"center":[2.3984943944088117,48.67710683618001]},"geometry":{"type":"MultiPolygon","coordinates":[[[[2.39618907,48.67374637],[2.39238041,48.67611696],[2.39109702,48.67680572],[2.38860564,48.67788315],[2.38865395,48.67793287],[2.38975693,48.67827673],[2.39531358,48.67980898],[2.39853567,48.68073915],[2.39911106,48.68078703],[2.39953924,48.6807604],[2.39977083,48.6807022],[2.40064457,48.68067332],[2.40141421,48.68072036],[2.40217903,48.68083303],[2.40241307,48.6803224],[2.40378327,48.678685],[2.40556851,48.67721156],[2.40706156,48.67574473],[2.40554644,48.67521009],[2.40302714,48.67424494],[2.4028523,48.67421348],[2.40267817,48.6742378],[2.40204477,48.67451886],[2.39978314,48.67347668],[2.39898471,48.67381716],[2.39724458,48.67302042],[2.39618907,48.67374637]]]]},"bbox":[2.38860564,48.67302042,2.40706156,48.68083303]},{"type":"Feature","id":"fr-quartier-91201-306f6fa2ad54","properties":{"id":"fr-quartier-91201-306f6fa2ad54","kind":"quartier","name":"Mainville–Sables-de-Rouvres","cityCode":"91201","cityName":"Draveil","sourceType":"iris","sourceIds":["912010106"],"colorIndex":9,"center":[2.4236453099735935,48.69128818729079]},"geometry":{"type":"MultiPolygon","coordinates":[[[[2.41742721,48.69441597],[2.41842324,48.6937957],[2.41876614,48.69399345],[2.42137219,48.69275765],[2.42143167,48.69290725],[2.42188873,48.69322609],[2.42594497,48.6957669],[2.42912287,48.69354247],[2.43106957,48.69219356],[2.42775449,48.69020875],[2.42687565,48.68932665],[2.42390377,48.68778861],[2.42125071,48.68691767],[2.41942877,48.68669024],[2.41902137,48.6864328],[2.41737209,48.68656147],[2.41768322,48.68667993],[2.41831217,48.68717141],[2.41990155,48.68815779],[2.42096758,48.68893112],[2.42042819,48.68942501],[2.4203542,48.68935899],[2.41994571,48.68968711],[2.41868211,48.69079811],[2.41699647,48.69173883],[2.41699399,48.69183956],[2.41720056,48.6919557],[2.4174942,48.69230613],[2.4176448,48.69256861],[2.41774925,48.6929496],[2.41771721,48.69338659],[2.41742721,48.69441597]]]]},"bbox":[2.41699399,48.6864328,2.43106957,48.6957669]},{"type":"Feature","id":"fr-quartier-91201-835cf52672bc","properties":{"id":"fr-quartier-91201-835cf52672bc","kind":"quartier","name":"Marais–Poirée","cityCode":"91201","cityName":"Draveil","sourceType":"iris","sourceIds":["912010108"],"colorIndex":10,"center":[2.427812493541539,48.68234105644178]},"geometry":{"type":"MultiPolygon","coordinates":[[[[2.4349078,48.6882892],[2.43660478,48.68676092],[2.43699577,48.68627975],[2.43687859,48.68631248],[2.43637165,48.68570294],[2.43640588,48.68555199],[2.43617611,48.68519201],[2.43585759,48.6844961],[2.4356866,48.68397719],[2.43581137,48.68336614],[2.43567767,48.68304259],[2.43562489,48.68264657],[2.43369308,48.68203656],[2.43437517,48.68139127],[2.43534566,48.68057824],[2.43623932,48.67996003],[2.43592237,48.67912111],[2.43577552,48.67888385],[2.43507679,48.67805662],[2.43459244,48.67762886],[2.43453043,48.6775854],[2.43135823,48.68027056],[2.43098883,48.68051436],[2.43073818,48.68057972],[2.43038963,48.68053038],[2.43014026,48.68035379],[2.43011963,48.67975464],[2.42991414,48.67978964],[2.42960514,48.67997525],[2.42833382,48.67934762],[2.42830987,48.67930253],[2.42906737,48.67859557],[2.42560948,48.67720815],[2.42363107,48.67777427],[2.42315767,48.67796267],[2.42245077,48.6783865],[2.42152911,48.67906834],[2.42053601,48.67994322],[2.41822822,48.68165269],[2.41808242,48.68181568],[2.41768228,48.68249554],[2.41745705,48.68271571],[2.41597255,48.68354767],[2.41520495,48.68392079],[2.41566139,48.68464891],[2.42131717,48.68385886],[2.42226204,48.68366645],[2.42320758,48.68341288],[2.42462849,48.68476896],[2.42625647,48.68620248],[2.42794152,48.68528411],[2.42840505,48.68525755],[2.42960389,48.68531906],[2.43026568,48.68554799],[2.43155192,48.68619366],[2.43184384,48.6864577],[2.43190159,48.68689422],[2.43195936,48.68695296],[2.4349078,48.6882892]]]]},"bbox":[2.41520495,48.67720815,2.43699577,48.6882892]}]}