{"type":"FeatureCollection","metadata":{"sourceType":"iris","referenceFile":"igny-quartiers.geojson","source":"IGN / INSEE - Contours IRIS WFS Géoplateforme","sourceUrl":"https://geoservices.ign.fr/contoursiris","license":"Licence Ouverte / Open Licence 2.0","sourceYear":"2026"},"features":[{"type":"Feature","id":"fr-quartier-91312-56b409849fcd","properties":{"id":"fr-quartier-91312-56b409849fcd","kind":"quartier","name":"Avenue du Président Kennedy","cityCode":"91312","cityName":"Igny","sourceType":"iris","sourceIds":["913120102"],"colorIndex":0,"center":[2.2325452357249134,48.737853264249615]},"geometry":{"type":"MultiPolygon","coordinates":[[[[2.22944646,48.7459112],[2.2296968,48.74507543],[2.23006516,48.74472072],[2.23017745,48.74448399],[2.23050893,48.74423158],[2.2305627,48.74372104],[2.23048025,48.74350194],[2.23061372,48.74274996],[2.23096756,48.74245632],[2.23082668,48.7421415],[2.2311138,48.74203811],[2.23147129,48.74168063],[2.23193224,48.74159276],[2.23277736,48.7417376],[2.23404226,48.74163509],[2.23430341,48.74172492],[2.23457555,48.74171497],[2.23526688,48.74158988],[2.23651487,48.74106179],[2.23586601,48.74042262],[2.23611851,48.74017419],[2.2363458,48.73913857],[2.23655422,48.73874235],[2.23666456,48.73835718],[2.23657344,48.73807867],[2.23755222,48.73791403],[2.2371629,48.73766239],[2.23734704,48.73753045],[2.23813377,48.73747971],[2.23821421,48.73727874],[2.23741633,48.73632382],[2.23861972,48.73576754],[2.23792341,48.73549416],[2.24174798,48.73234522],[2.24058711,48.73148155],[2.24008249,48.73111946],[2.23764869,48.73167779],[2.23621282,48.73205178],[2.23554489,48.73225978],[2.23397998,48.73290096],[2.23273572,48.73355677],[2.22871804,48.73629582],[2.2276663,48.73707245],[2.22725013,48.73744393],[2.22601199,48.7387752],[2.224605,48.74075747],[2.22419082,48.7415409],[2.22516015,48.74229554],[2.22575932,48.74260974],[2.22605566,48.7427106],[2.2259955,48.74282354],[2.22640054,48.74293141],[2.2272584,48.7430431],[2.22808837,48.74320137],[2.22847288,48.74331809],[2.22871825,48.74346359],[2.2289226,48.7438085],[2.22893105,48.74397315],[2.22885275,48.7442101],[2.22817116,48.74486949],[2.22898177,48.74560419],[2.22925998,48.74582905],[2.22944646,48.7459112]]]]},"bbox":[2.22419082,48.73111946,2.24174798,48.7459112]},{"type":"Feature","id":"fr-quartier-91312-088b52d08b3c","properties":{"id":"fr-quartier-91312-088b52d08b3c","kind":"quartier","name":"Rue de l'Etang","cityCode":"91312","cityName":"Igny","sourceType":"iris","sourceIds":["913120104"],"colorIndex":1,"center":[2.218243983354953,48.736865297560854]},"geometry":{"type":"MultiPolygon","coordinates":[[[[2.2126377,48.72875587],[2.21326296,48.72912787],[2.21340441,48.7293051],[2.21357997,48.72992599],[2.21338159,48.73054981],[2.21346013,48.73075181],[2.21515658,48.73195567],[2.21532391,48.73249285],[2.2152161,48.73342398],[2.21497961,48.7341411],[2.21504503,48.73431153],[2.21525534,48.73434169],[2.21519904,48.73446904],[2.21534483,48.73444932],[2.21538119,48.73456379],[2.21545277,48.73459574],[2.21539453,48.73467091],[2.21568863,48.73464496],[2.21594025,48.73482201],[2.2161578,48.73482344],[2.21634968,48.73526633],[2.21657316,48.73550616],[2.21748058,48.73565872],[2.21727972,48.73617729],[2.21751328,48.73628946],[2.21700117,48.73688874],[2.21692701,48.73711851],[2.21663377,48.73735854],[2.21667776,48.73750814],[2.21691743,48.73757627],[2.21680768,48.73782201],[2.21700508,48.73789796],[2.21593303,48.73802044],[2.21502444,48.73821505],[2.21474107,48.73870159],[2.21374189,48.73840899],[2.2127497,48.73801388],[2.2110456,48.73766713],[2.20972695,48.73719069],[2.20868492,48.73712712],[2.20761938,48.73691048],[2.20641563,48.73684042],[2.20485552,48.73686602],[2.20404646,48.73695237],[2.20411878,48.73756089],[2.20594166,48.7377844],[2.20943946,48.74019298],[2.21053419,48.74073271],[2.21020912,48.74073595],[2.21102167,48.74132148],[2.21177042,48.74226096],[2.21053556,48.74316125],[2.21183888,48.74367176],[2.21413444,48.74440375],[2.21502843,48.74455445],[2.21872124,48.74580462],[2.21985451,48.74641917],[2.22074572,48.74566585],[2.22253816,48.74439491],[2.22327921,48.74376562],[2.22367038,48.74325098],[2.22388251,48.74279544],[2.22407439,48.74187204],[2.22419082,48.7415409],[2.224605,48.74075747],[2.22601199,48.7387752],[2.22725013,48.73744393],[2.2276663,48.73707245],[2.22871804,48.73629582],[2.22865511,48.73613711],[2.22866588,48.73586824],[2.22857398,48.73582987],[2.22856843,48.73574528],[2.22121158,48.73057058],[2.22110103,48.73059864],[2.22100624,48.73057283],[2.22095419,48.73050683],[2.220988,48.7304279],[2.22031637,48.72997018],[2.21956887,48.72967657],[2.21968718,48.72912867],[2.2196711,48.72874899],[2.21857146,48.72582123],[2.21537886,48.72566716],[2.2137938,48.72619821],[2.21294511,48.72631044],[2.21272472,48.72650058],[2.21268678,48.72694287],[2.21295268,48.72716139],[2.21343842,48.72822057],[2.2126377,48.72875587]]]]},"bbox":[2.20404646,48.72566716,2.22871804,48.74641917]},{"type":"Feature","id":"fr-quartier-91312-039dbfe13e0a","properties":{"id":"fr-quartier-91312-039dbfe13e0a","kind":"quartier","name":"Rue du Bas Igny","cityCode":"91312","cityName":"Igny","sourceType":"iris","sourceIds":["913120101"],"colorIndex":2,"center":[2.225394519479487,48.74620438590406]},"geometry":{"type":"MultiPolygon","coordinates":[[[[2.21985451,48.74641917],[2.22101074,48.74704644],[2.22183154,48.74809695],[2.222623,48.74865347],[2.22642023,48.75004889],[2.22683974,48.74982585],[2.22817185,48.74969955],[2.22891386,48.74918986],[2.22769539,48.74834729],[2.22783133,48.74826003],[2.22768314,48.74816373],[2.22940336,48.74754163],[2.23031286,48.74710766],[2.23028724,48.74635466],[2.22944646,48.7459112],[2.22925998,48.74582905],[2.22898177,48.74560419],[2.22817116,48.74486949],[2.22885275,48.7442101],[2.22893105,48.74397315],[2.2289226,48.7438085],[2.22871825,48.74346359],[2.22847288,48.74331809],[2.22808837,48.74320137],[2.2272584,48.7430431],[2.22640054,48.74293141],[2.2259955,48.74282354],[2.22605566,48.7427106],[2.22575932,48.74260974],[2.22516015,48.74229554],[2.22419082,48.7415409],[2.22407439,48.74187204],[2.22388251,48.74279544],[2.22367038,48.74325098],[2.22327921,48.74376562],[2.22253816,48.74439491],[2.22074572,48.74566585],[2.21985451,48.74641917]]]]},"bbox":[2.21985451,48.7415409,2.23031286,48.75004889]},{"type":"Feature","id":"fr-quartier-91312-16d1428e8300","properties":{"id":"fr-quartier-91312-16d1428e8300","kind":"quartier","name":"Rue Maryse Bastié","cityCode":"91312","cityName":"Igny","sourceType":"iris","sourceIds":["913120103"],"colorIndex":3,"center":[2.2282664561317613,48.7302659211641]},"geometry":{"type":"MultiPolygon","coordinates":[[[[2.24008249,48.73111946],[2.23638806,48.72834262],[2.23499646,48.72755657],[2.23279704,48.72836367],[2.23091442,48.72750335],[2.23064879,48.72763026],[2.23132462,48.73011714],[2.23078428,48.729878],[2.23019463,48.72975637],[2.22949186,48.72974554],[2.22861407,48.72989278],[2.22976194,48.72839539],[2.22933191,48.7282379],[2.22939453,48.72814027],[2.22906374,48.72807607],[2.22899254,48.72820153],[2.22798552,48.72807989],[2.22723161,48.72785104],[2.22335787,48.72503395],[2.2231157,48.72504587],[2.22229302,48.72533104],[2.22156201,48.72548548],[2.21857146,48.72582123],[2.2196711,48.72874899],[2.21968718,48.72912867],[2.21956887,48.72967657],[2.22031637,48.72997018],[2.220988,48.7304279],[2.22095419,48.73050683],[2.22100624,48.73057283],[2.22110103,48.73059864],[2.22121158,48.73057058],[2.22856843,48.73574528],[2.22857398,48.73582987],[2.22866588,48.73586824],[2.22865511,48.73613711],[2.22871804,48.73629582],[2.23273572,48.73355677],[2.23397998,48.73290096],[2.23554489,48.73225978],[2.23621282,48.73205178],[2.23764869,48.73167779],[2.24008249,48.73111946]]]]},"bbox":[2.21857146,48.72503395,2.24008249,48.73629582]}]}