{"type":"FeatureCollection","metadata":{"sourceType":"iris","referenceFile":"villebon-sur-yvette-quartiers.geojson","source":"IGN / INSEE - Contours IRIS WFS Géoplateforme","sourceUrl":"https://geoservices.ign.fr/contoursiris","license":"Licence Ouverte / Open Licence 2.0","sourceYear":"2026"},"features":[{"type":"Feature","id":"fr-quartier-91661-7348740c22b4","properties":{"id":"fr-quartier-91661-7348740c22b4","kind":"quartier","name":"La Roche","cityCode":"91661","cityName":"Villebon-sur-Yvette","sourceType":"iris","sourceIds":["916610103"],"colorIndex":0,"center":[2.2501385246420904,48.69797641763291]},"geometry":{"type":"MultiPolygon","coordinates":[[[[2.23787219,48.70144882],[2.23828605,48.70139749],[2.23904644,48.70153187],[2.2395947,48.70186278],[2.23989587,48.70227127],[2.24055781,48.70235464],[2.24119156,48.70353789],[2.24134255,48.70362161],[2.24205724,48.70372329],[2.2423509,48.70427744],[2.24281967,48.70512683],[2.2432345,48.70557291],[2.24322614,48.70596233],[2.24345454,48.7066141],[2.24424059,48.70723523],[2.24522694,48.7075401],[2.24541325,48.70790826],[2.24663396,48.70826678],[2.24843727,48.7081855],[2.24918762,48.70855362],[2.24945199,48.70859935],[2.25032229,48.7084708],[2.25143892,48.70841305],[2.25223677,48.7086933],[2.25319928,48.70800853],[2.25362826,48.707852],[2.25383176,48.70730639],[2.25479429,48.70671156],[2.2563148,48.70653845],[2.2568397,48.70661188],[2.25797393,48.70646063],[2.25932232,48.70654007],[2.2608192,48.70649808],[2.26098007,48.70636686],[2.2617032,48.70616535],[2.26262369,48.7055567],[2.26298485,48.70548428],[2.26352803,48.70551372],[2.26410005,48.70513677],[2.26479316,48.70494136],[2.26523434,48.7050736],[2.26527588,48.70530862],[2.26545771,48.70532773],[2.26585915,48.70509634],[2.26652073,48.70501765],[2.26695573,48.70481525],[2.26735347,48.70474933],[2.26787993,48.70442065],[2.26811684,48.70409739],[2.26807086,48.70340181],[2.26752495,48.70347132],[2.26733889,48.70336584],[2.267539,48.70305045],[2.26813844,48.70313688],[2.26827981,48.7023579],[2.26863774,48.70134818],[2.26826413,48.701148],[2.26822219,48.70103801],[2.26866317,48.70079335],[2.26873703,48.70056534],[2.26900641,48.70044466],[2.26799581,48.69925204],[2.26763387,48.69938384],[2.26589099,48.69741226],[2.26596632,48.69717615],[2.26586141,48.69700281],[2.26533808,48.69682329],[2.26478262,48.69612726],[2.26377556,48.69633603],[2.26345073,48.69653461],[2.26309945,48.69658551],[2.26125471,48.69722532],[2.25941172,48.69610752],[2.2581797,48.69588939],[2.25808164,48.69600122],[2.25752553,48.69564516],[2.25721794,48.69443883],[2.25722394,48.69430304],[2.25769245,48.69374648],[2.25678675,48.69342062],[2.25666227,48.69328852],[2.25573227,48.6931442],[2.2556056,48.69307055],[2.25488701,48.69305976],[2.25453763,48.69288308],[2.25424099,48.69253402],[2.25328644,48.69239672],[2.25372796,48.69220969],[2.25301763,48.69171682],[2.25273715,48.69137866],[2.2521687,48.69103689],[2.25134389,48.69028603],[2.25120436,48.68997303],[2.2509929,48.68851722],[2.24812735,48.68646274],[2.24768949,48.6867748],[2.24606885,48.68620418],[2.24592774,48.68638049],[2.24547874,48.68652247],[2.24425633,48.68678727],[2.24347703,48.68684709],[2.24281777,48.68659195],[2.24260728,48.68658612],[2.24247698,48.686203],[2.2420513,48.68567319],[2.24141383,48.68522839],[2.24072749,48.68552985],[2.2407198,48.68577896],[2.2394644,48.68504237],[2.23924026,48.68504184],[2.23907881,48.68540061],[2.23849851,48.68606883],[2.23818729,48.68784874],[2.2380325,48.68821564],[2.23744027,48.68904749],[2.23651908,48.68979627],[2.23542301,48.68996015],[2.23423989,48.69087275],[2.23334095,48.69139587],[2.23547254,48.69335516],[2.23581568,48.69348958],[2.23680225,48.69357236],[2.23722944,48.69371991],[2.2374502,48.69386164],[2.23832409,48.69468396],[2.23975604,48.69572211],[2.23952546,48.69588075],[2.23898933,48.69602755],[2.23834061,48.69606838],[2.23813339,48.69648802],[2.23788926,48.69738954],[2.23753426,48.69815904],[2.23770084,48.69838317],[2.2377192,48.69861536],[2.23766029,48.69874091],[2.23720545,48.69862287],[2.23712068,48.6988445],[2.23708045,48.69918065],[2.23718422,48.69951862],[2.23817961,48.70086881],[2.23784193,48.70138116],[2.23787219,48.70144882]]]]},"bbox":[2.23334095,48.68504184,2.26900641,48.7086933]},{"type":"Feature","id":"fr-quartier-91661-6f632b74fba6","properties":{"id":"fr-quartier-91661-6f632b74fba6","kind":"quartier","name":"Les Casseaux","cityCode":"91661","cityName":"Villebon-sur-Yvette","sourceType":"iris","sourceIds":["916610101"],"colorIndex":1,"center":[2.2158415470742447,48.69251170361325]},"geometry":{"type":"MultiPolygon","coordinates":[[[[2.20476049,48.68523426],[2.20490259,48.68741379],[2.20427339,48.691711],[2.20444925,48.69167169],[2.20453259,48.69199876],[2.20485149,48.69220238],[2.20737417,48.69276426],[2.2077586,48.69357636],[2.20761486,48.69373732],[2.20630748,48.69438346],[2.20543277,48.69516739],[2.20548514,48.69529816],[2.20610088,48.69555142],[2.20628363,48.69595381],[2.20657651,48.69688944],[2.20660637,48.69778733],[2.20805804,48.69883319],[2.20828388,48.69908384],[2.20875453,48.69976968],[2.20901945,48.70067183],[2.20942599,48.70110538],[2.20963282,48.7015367],[2.20976278,48.70174894],[2.21137284,48.70185584],[2.21178596,48.70176503],[2.21206789,48.70190361],[2.21264281,48.70180666],[2.21278201,48.7019479],[2.21300407,48.70200154],[2.21346376,48.70179589],[2.21356138,48.70208167],[2.21402542,48.7023096],[2.21467041,48.70207189],[2.21477711,48.70175327],[2.21511929,48.70159002],[2.21568033,48.70169355],[2.21595507,48.70203986],[2.21618719,48.70214753],[2.21715751,48.70205315],[2.21748093,48.70214433],[2.2179874,48.70199024],[2.21875845,48.70213561],[2.21916664,48.70201055],[2.21935523,48.70203068],[2.21966486,48.70231694],[2.21982195,48.70235395],[2.22016648,48.70203239],[2.22098512,48.70190281],[2.22068602,48.70145651],[2.22086992,48.70133538],[2.2209162,48.70032736],[2.22090455,48.69901223],[2.22072139,48.69835531],[2.22050205,48.69793741],[2.21914862,48.69648578],[2.22255675,48.69628137],[2.22434974,48.69632092],[2.22447249,48.69574065],[2.22493497,48.69506544],[2.22525101,48.69446034],[2.22525332,48.69412124],[2.22511272,48.69343222],[2.22523378,48.69296437],[2.22520869,48.69218255],[2.2253686,48.69175183],[2.22566212,48.69119785],[2.22574648,48.69109765],[2.22592921,48.69105206],[2.22613344,48.69093106],[2.22672211,48.69081345],[2.22718798,48.69063926],[2.22765036,48.69042458],[2.22809605,48.69014413],[2.22970226,48.68938454],[2.23004146,48.68923022],[2.23036596,48.68915136],[2.22745878,48.68628836],[2.22480544,48.6843759],[2.22440302,48.68421407],[2.22420472,48.68421188],[2.22148252,48.68520517],[2.22050529,48.68542007],[2.21977106,48.68546294],[2.21731991,48.685401],[2.21624528,48.68549649],[2.21460722,48.68538677],[2.21402133,48.68541259],[2.21075223,48.68608001],[2.20476049,48.68523426]]]]},"bbox":[2.20427339,48.68421188,2.23036596,48.70235395]},{"type":"Feature","id":"fr-quartier-91661-11c39ad19803","properties":{"id":"fr-quartier-91661-11c39ad19803","kind":"quartier","name":"Rue de Liederbach","cityCode":"91661","cityName":"Villebon-sur-Yvette","sourceType":"iris","sourceIds":["916610102"],"colorIndex":2,"center":[2.2297438769922366,48.69658053667122]},"geometry":{"type":"MultiPolygon","coordinates":[[[[2.22098512,48.70190281],[2.22161944,48.7018314],[2.22193302,48.70203583],[2.22222681,48.7021097],[2.22240322,48.70194355],[2.22236274,48.7017418],[2.22271924,48.70161909],[2.22285508,48.70162268],[2.22319628,48.70188935],[2.22343682,48.70188821],[2.22434175,48.70143806],[2.22445642,48.70121933],[2.22458347,48.70117429],[2.22518976,48.70125108],[2.22575491,48.70181153],[2.22599923,48.70183111],[2.22652721,48.70169062],[2.22695065,48.70135965],[2.22730687,48.70134667],[2.22744157,48.70161109],[2.22771446,48.7017199],[2.22932155,48.70129314],[2.22973639,48.70154408],[2.23037833,48.70150774],[2.23096609,48.70118232],[2.23180529,48.70094577],[2.23284039,48.70097132],[2.23340077,48.70112154],[2.2342194,48.70089653],[2.2352709,48.70082322],[2.23589387,48.70087488],[2.23600559,48.70113375],[2.23616326,48.70122381],[2.23658824,48.70115547],[2.23709239,48.70143484],[2.2375467,48.70149801],[2.23787219,48.70144882],[2.23784193,48.70138116],[2.23817961,48.70086881],[2.23718422,48.69951862],[2.23708045,48.69918065],[2.23712068,48.6988445],[2.23720545,48.69862287],[2.23766029,48.69874091],[2.2377192,48.69861536],[2.23770084,48.69838317],[2.23753426,48.69815904],[2.23788926,48.69738954],[2.23813339,48.69648802],[2.23834061,48.69606838],[2.23898933,48.69602755],[2.23952546,48.69588075],[2.23975604,48.69572211],[2.23832409,48.69468396],[2.2374502,48.69386164],[2.23722944,48.69371991],[2.23680225,48.69357236],[2.23581568,48.69348958],[2.23547254,48.69335516],[2.23334095,48.69139587],[2.23036596,48.68915136],[2.23004146,48.68923022],[2.22970226,48.68938454],[2.22809605,48.69014413],[2.22765036,48.69042458],[2.22718798,48.69063926],[2.22672211,48.69081345],[2.22613344,48.69093106],[2.22592921,48.69105206],[2.22574648,48.69109765],[2.22566212,48.69119785],[2.2253686,48.69175183],[2.22520869,48.69218255],[2.22523378,48.69296437],[2.22511272,48.69343222],[2.22525332,48.69412124],[2.22525101,48.69446034],[2.22493497,48.69506544],[2.22447249,48.69574065],[2.22434974,48.69632092],[2.22255675,48.69628137],[2.21914862,48.69648578],[2.22050205,48.69793741],[2.22072139,48.69835531],[2.22090455,48.69901223],[2.2209162,48.70032736],[2.22086992,48.70133538],[2.22068602,48.70145651],[2.22098512,48.70190281]]]]},"bbox":[2.21914862,48.68915136,2.23975604,48.7021097]}]}