{"type":"FeatureCollection","metadata":{"sourceType":"iris","source":"IGN / INSEE — Contours IRIS 2026","sourceUrl":"https://data.geopf.fr/wfs/ows?service=WFS&version=2.0.0&request=GetFeature&typeNames=STATISTICALUNITS.IRIS%3Acontours_iris&outputFormat=application%2Fjson&srsName=CRS%3A84&count=1000&CQL_FILTER=code_insee%3D%2792009%27&sortBy=code_iris","retrievedDate":"2026-09-10","sourceYear":"2026","license":"Licence Ouverte 2.0"},"features":[{"type":"Feature","id":"fr-quartier-92009-2ac86d57855f","properties":{"id":"fr-quartier-92009-2ac86d57855f","kind":"quartier","name":"Chefson-de Gaulle","cityCode":"92009","cityName":"Bois-Colombes","sourceType":"iris","sourceIds":["920090104"],"colorIndex":0,"center":[2.273584069150904,48.91971781]},"geometry":{"type":"MultiPolygon","coordinates":[[[[2.27786554,48.91694826],[2.27624672,48.91580626],[2.27211578,48.91721653],[2.27143458,48.91752984],[2.27315393,48.91918872],[2.27084495,48.9200731],[2.27080468,48.92012232],[2.27085733,48.92026023],[2.27153181,48.9212095],[2.27216254,48.92099481],[2.2723126,48.92090129],[2.27351368,48.92039777],[2.27418802,48.92018603],[2.27631189,48.91936252],[2.27507097,48.91832171],[2.27786554,48.91694826]]]]},"bbox":[2.27080468,48.91580626,2.27786554,48.9212095]},{"type":"Feature","id":"fr-quartier-92009-f1bab3cccb88","properties":{"id":"fr-quartier-92009-f1bab3cccb88","kind":"quartier","name":"Déroulède-Leclerc-Albert","cityCode":"92009","cityName":"Bois-Colombes","sourceType":"iris","sourceIds":["920090108"],"colorIndex":1,"center":[2.266933353888137,48.913369509999995]},"geometry":{"type":"MultiPolygon","coordinates":[[[[2.27429039,48.91441128],[2.2728648,48.91322004],[2.27275123,48.91314561],[2.27232995,48.91273207],[2.27224958,48.91174683],[2.26996526,48.91245148],[2.26843847,48.91284146],[2.26628895,48.91326808],[2.2654194,48.91339405],[2.26548938,48.91384953],[2.26842047,48.91334497],[2.26881886,48.91431776],[2.26971646,48.91530528],[2.2703956,48.91484538],[2.27098795,48.9152231],[2.27173847,48.91580412],[2.27429039,48.91441128]]]]},"bbox":[2.2654194,48.91174683,2.27429039,48.91580412]},{"type":"Feature","id":"fr-quartier-92009-c5a7a2b73a65","properties":{"id":"fr-quartier-92009-c5a7a2b73a65","kind":"quartier","name":"Duflos-Géraldy","cityCode":"92009","cityName":"Bois-Colombes","sourceType":"iris","sourceIds":["920090109"],"colorIndex":2,"center":[2.2646128703696453,48.91631749]},"geometry":{"type":"MultiPolygon","coordinates":[[[[2.2615512,48.91387748],[2.26178942,48.91651394],[2.26206471,48.91730793],[2.26206737,48.91731244],[2.26234855,48.91788433],[2.26531921,48.9171085],[2.26549932,48.9171087],[2.26600336,48.91687797],[2.26796255,48.91612104],[2.26971646,48.91530528],[2.26881886,48.91431776],[2.26842047,48.91334497],[2.26548938,48.91384953],[2.2654194,48.91339405],[2.2615512,48.91387748]]]]},"bbox":[2.2615512,48.91334497,2.26971646,48.91788433]},{"type":"Feature","id":"fr-quartier-92009-7aa5fa12e5d4","properties":{"id":"fr-quartier-92009-7aa5fa12e5d4","kind":"quartier","name":"Faidherbe-Pasteur","cityCode":"92009","cityName":"Bois-Colombes","sourceType":"iris","sourceIds":["920090112"],"colorIndex":3,"center":[2.258450982652205,48.910769155]},"geometry":{"type":"MultiPolygon","coordinates":[[[[2.26494365,48.91027141],[2.2663941,48.90629273],[2.26698478,48.90464879],[2.26324678,48.90340188],[2.2613717,48.90681674],[2.2599375,48.90655428],[2.25821579,48.90607689],[2.25802435,48.90696962],[2.25704398,48.91094663],[2.25767119,48.91087857],[2.25787035,48.91289067],[2.25879934,48.91280739],[2.25867865,48.91141451],[2.25987243,48.91132206],[2.25980272,48.91065974],[2.26084397,48.91054656],[2.2611584,48.91165555],[2.26123173,48.91216052],[2.26150183,48.91235644],[2.26173118,48.91225083],[2.26214729,48.91196472],[2.26272906,48.9114449],[2.26310768,48.91091483],[2.2634017,48.91028802],[2.26451054,48.91021839],[2.26494365,48.91027141]]]]},"bbox":[2.25704398,48.90340188,2.26698478,48.91289067]},{"type":"Feature","id":"fr-quartier-92009-9115960945e8","properties":{"id":"fr-quartier-92009-9115960945e8","kind":"quartier","name":"Glatz-Mivière","cityCode":"92009","cityName":"Bois-Colombes","sourceType":"iris","sourceIds":["920090102"],"colorIndex":4,"center":[2.2736610552620418,48.922025590000004]},"geometry":{"type":"MultiPolygon","coordinates":[[[[2.26882072,48.92292595],[2.26864128,48.92297342],[2.2697871,48.92466301],[2.27049047,48.9245279],[2.27310616,48.92358514],[2.27598333,48.92296945],[2.27458499,48.9208809],[2.27465501,48.92084984],[2.27418802,48.92018603],[2.27351368,48.92039777],[2.2723126,48.92090129],[2.27216254,48.92099481],[2.27153181,48.9212095],[2.27212268,48.92199099],[2.27181876,48.92206019],[2.27175746,48.92214975],[2.27162452,48.92219031],[2.26882072,48.92292595]]]]},"bbox":[2.26864128,48.92018603,2.27598333,48.92466301]},{"type":"Feature","id":"fr-quartier-92009-cf8c1fb2ea18","properties":{"id":"fr-quartier-92009-cf8c1fb2ea18","kind":"quartier","name":"Guyot-de Gaulle","cityCode":"92009","cityName":"Bois-Colombes","sourceType":"iris","sourceIds":["920090103"],"colorIndex":5,"center":[2.2775755031504463,48.919774275]},"geometry":{"type":"MultiPolygon","coordinates":[[[[2.27621236,48.92298612],[2.27657669,48.92269425],[2.27810171,48.9214651],[2.28039822,48.91930709],[2.28064943,48.91910086],[2.2786199,48.91745641],[2.27786554,48.91694826],[2.27507097,48.91832171],[2.27631189,48.91936252],[2.27418802,48.92018603],[2.27465501,48.92084984],[2.27458499,48.9208809],[2.27598333,48.92296945],[2.27621236,48.92298612]]]]},"bbox":[2.27418802,48.91694826,2.28064943,48.92298612]},{"type":"Feature","id":"fr-quartier-92009-bfd56552dbc9","properties":{"id":"fr-quartier-92009-bfd56552dbc9","kind":"quartier","name":"Hugo-Bel-Air","cityCode":"92009","cityName":"Bois-Colombes","sourceType":"iris","sourceIds":["920090106"],"colorIndex":6,"center":[2.2653659813690634,48.92019127499999]},"geometry":{"type":"MultiPolygon","coordinates":[[[[2.26461321,48.91917437],[2.26521319,48.92036514],[2.26715896,48.91950473],[2.26831292,48.92128612],[2.26794588,48.9213801],[2.26882072,48.92292595],[2.27162452,48.92219031],[2.27175746,48.92214975],[2.27181876,48.92206019],[2.27212268,48.92199099],[2.27153181,48.9212095],[2.27085733,48.92026023],[2.27080468,48.92012232],[2.27084495,48.9200731],[2.27315393,48.91918872],[2.27143458,48.91752984],[2.27078751,48.91784247],[2.2696562,48.91707116],[2.26679559,48.91866075],[2.26630456,48.91796798],[2.26461321,48.91917437]]]]},"bbox":[2.26461321,48.91707116,2.27315393,48.92292595]},{"type":"Feature","id":"fr-quartier-92009-a8cb1ec2b07f","properties":{"id":"fr-quartier-92009-a8cb1ec2b07f","kind":"quartier","name":"Jaurès-Litolff","cityCode":"92009","cityName":"Bois-Colombes","sourceType":"iris","sourceIds":["920090111"],"colorIndex":7,"center":[2.2599701335714153,48.912010635]},"geometry":{"type":"MultiPolygon","coordinates":[[[[2.25787035,48.91289067],[2.25775261,48.91291872],[2.2579355,48.91348912],[2.25741193,48.91355872],[2.25747685,48.91388557],[2.25929094,48.91392918],[2.2615512,48.91387748],[2.2654194,48.91339405],[2.26523159,48.91200706],[2.26507731,48.91201421],[2.26474798,48.91050493],[2.26494365,48.91027141],[2.26451054,48.91021839],[2.2634017,48.91028802],[2.26310768,48.91091483],[2.26272906,48.9114449],[2.26214729,48.91196472],[2.26173118,48.91225083],[2.26150183,48.91235644],[2.26123173,48.91216052],[2.2611584,48.91165555],[2.26084397,48.91054656],[2.25980272,48.91065974],[2.25987243,48.91132206],[2.25867865,48.91141451],[2.25879934,48.91280739],[2.25787035,48.91289067]]]]},"bbox":[2.25741193,48.91021839,2.2654194,48.91392918]},{"type":"Feature","id":"fr-quartier-92009-7984aac2a851","properties":{"id":"fr-quartier-92009-7984aac2a851","kind":"quartier","name":"Jaurès-Vaudreuil","cityCode":"92009","cityName":"Bois-Colombes","sourceType":"iris","sourceIds":["920090110"],"colorIndex":8,"center":[2.265661654026406,48.910606290000004]},"geometry":{"type":"MultiPolygon","coordinates":[[[[2.27224958,48.91174683],[2.27215428,48.91017065],[2.26920334,48.91035503],[2.26899396,48.91040052],[2.26814126,48.91059316],[2.26670013,48.91061942],[2.26609511,48.91056535],[2.26494365,48.91027141],[2.26474798,48.91050493],[2.26507731,48.91201421],[2.26523159,48.91200706],[2.2654194,48.91339405],[2.26628895,48.91326808],[2.26843847,48.91284146],[2.26996526,48.91245148],[2.27224958,48.91174683]]]]},"bbox":[2.26474798,48.91017065,2.27224958,48.91339405]},{"type":"Feature","id":"fr-quartier-92009-740029ef85f5","properties":{"id":"fr-quartier-92009-740029ef85f5","kind":"quartier","name":"Lépine-Binet","cityCode":"92009","cityName":"Bois-Colombes","sourceType":"iris","sourceIds":["920090101"],"colorIndex":9,"center":[2.2725729240298156,48.924595455]},"geometry":{"type":"MultiPolygon","coordinates":[[[[2.2697871,48.92466301],[2.26774978,48.92503548],[2.26834392,48.92519558],[2.27331989,48.9268482],[2.27621236,48.92298612],[2.27598333,48.92296945],[2.27310616,48.92358514],[2.27049047,48.9245279],[2.2697871,48.92466301]]]]},"bbox":[2.26774978,48.92296945,2.27621236,48.9268482]},{"type":"Feature","id":"fr-quartier-92009-f8f13509592e","properties":{"id":"fr-quartier-92009-f8f13509592e","kind":"quartier","name":"Paix-Estienne d'Orves","cityCode":"92009","cityName":"Bois-Colombes","sourceType":"iris","sourceIds":["920090105"],"colorIndex":10,"center":[2.272544867135337,48.916438709999994]},"geometry":{"type":"MultiPolygon","coordinates":[[[[2.27624672,48.91580626],[2.27429039,48.91441128],[2.27173847,48.91580412],[2.2696562,48.91707116],[2.27078751,48.91784247],[2.27143458,48.91752984],[2.27211578,48.91721653],[2.27624672,48.91580626]]]]},"bbox":[2.2696562,48.91441128,2.27624672,48.91784247]},{"type":"Feature","id":"fr-quartier-92009-745f41db1fa8","properties":{"id":"fr-quartier-92009-745f41db1fa8","kind":"quartier","name":"Verdun-Leconte","cityCode":"92009","cityName":"Bois-Colombes","sourceType":"iris","sourceIds":["920090107"],"colorIndex":11,"center":[2.266362116283206,48.917496514999996]},"geometry":{"type":"MultiPolygon","coordinates":[[[[2.26234855,48.91788433],[2.26255732,48.9185583],[2.26239131,48.91881448],[2.26288029,48.919456],[2.26310716,48.92000957],[2.26318487,48.9202079],[2.26461321,48.91917437],[2.26630456,48.91796798],[2.26679559,48.91866075],[2.2696562,48.91707116],[2.27173847,48.91580412],[2.27098795,48.9152231],[2.2703956,48.91484538],[2.26971646,48.91530528],[2.26796255,48.91612104],[2.26600336,48.91687797],[2.26549932,48.9171087],[2.26531921,48.9171085],[2.26234855,48.91788433]]]]},"bbox":[2.26234855,48.91484538,2.27173847,48.9202079]}]}