{"type":"FeatureCollection","metadata":{"sourceType":"iris","source":"IGN / INSEE — Contours IRIS 2026","sourceUrl":"https://data.geopf.fr/wfs/ows?service=WFS&version=2.0.0&request=GetFeature&typeNames=STATISTICALUNITS.IRIS%3Acontours_iris&outputFormat=application%2Fjson&srsName=CRS%3A84&count=1000&CQL_FILTER=code_insee%3D%2792026%27&sortBy=code_iris","retrievedDate":"2026-09-10","sourceYear":"2026","license":"Licence Ouverte 2.0"},"features":[{"type":"Feature","id":"fr-quartier-92026-cb1839373100","properties":{"id":"fr-quartier-92026-cb1839373100","kind":"quartier","name":"Arche","cityCode":"92026","cityName":"Courbevoie","sourceType":"iris","sourceIds":["920260406"],"colorIndex":0,"center":[2.2387389707006333,48.89606035]},"geometry":{"type":"MultiPolygon","coordinates":[[[[2.24050791,48.89513892],[2.24004633,48.8949903],[2.23835212,48.89472323],[2.23824288,48.89473153],[2.23769429,48.8953099],[2.2367092,48.89672637],[2.23549709,48.89901553],[2.23828562,48.89964124],[2.23975482,48.89991498],[2.23975059,48.89964425],[2.24001891,48.8977097],[2.2400811,48.89756081],[2.24024874,48.8964485],[2.24036237,48.8956722],[2.24052825,48.89524067],[2.24050791,48.89513892]]]]},"bbox":[2.23549709,48.89472323,2.24052825,48.89991498]},{"type":"Feature","id":"fr-quartier-92026-83d4ecf03035","properties":{"id":"fr-quartier-92026-83d4ecf03035","kind":"quartier","name":"Arletty","cityCode":"92026","cityName":"Courbevoie","sourceType":"iris","sourceIds":["920260504"],"colorIndex":1,"center":[2.253388019246137,48.891127555]},"geometry":{"type":"MultiPolygon","coordinates":[[[[2.25174608,48.89102058],[2.2518753,48.89123453],[2.2523858,48.89168019],[2.2526521,48.89184643],[2.25345399,48.89223095],[2.25345819,48.89231911],[2.25358146,48.89237744],[2.25374564,48.89234159],[2.25377974,48.89224647],[2.25373149,48.89218682],[2.255122,48.89099307],[2.2559698,48.89026538],[2.25630955,48.89006334],[2.25622717,48.88991084],[2.25543555,48.88928538],[2.25494961,48.88960162],[2.25294874,48.89065846],[2.25211936,48.89095456],[2.25174608,48.89102058]]]]},"bbox":[2.25174608,48.88928538,2.25630955,48.89237744]},{"type":"Feature","id":"fr-quartier-92026-5cf6dadeda4c","properties":{"id":"fr-quartier-92026-5cf6dadeda4c","kind":"quartier","name":"Bertalot","cityCode":"92026","cityName":"Courbevoie","sourceType":"iris","sourceIds":["920260303"],"colorIndex":2,"center":[2.274041905804765,48.905842435]},"geometry":{"type":"MultiPolygon","coordinates":[[[[2.27613228,48.90686639],[2.27616387,48.90665524],[2.27714842,48.90570431],[2.27159356,48.90363729],[2.27082929,48.90453736],[2.27164756,48.90484811],[2.27082983,48.90576493],[2.27132697,48.90591994],[2.27119104,48.90617722],[2.2725793,48.90650852],[2.27388457,48.90672688],[2.27613228,48.90686639]]]]},"bbox":[2.27082929,48.90363729,2.27714842,48.90686639]},{"type":"Feature","id":"fr-quartier-92026-2a399e2a5efe","properties":{"id":"fr-quartier-92026-2a399e2a5efe","kind":"quartier","name":"Blondel","cityCode":"92026","cityName":"Courbevoie","sourceType":"iris","sourceIds":["920260101"],"colorIndex":3,"center":[2.2457392343178393,48.901399760000004]},"geometry":{"type":"MultiPolygon","coordinates":[[[[2.24301519,48.90233953],[2.24569724,48.90298867],[2.24620555,48.90217709],[2.2464794,48.90201243],[2.25102725,48.89936996],[2.24741474,48.8978922],[2.24570223,48.89963152],[2.24455056,48.90078709],[2.24301519,48.90233953]]]]},"bbox":[2.24301519,48.8978922,2.25102725,48.90298867]},{"type":"Feature","id":"fr-quartier-92026-17b5b835be48","properties":{"id":"fr-quartier-92026-17b5b835be48","kind":"quartier","name":"Carole Hubert","cityCode":"92026","cityName":"Courbevoie","sourceType":"iris","sourceIds":["920260703"],"colorIndex":4,"center":[2.2550587104758097,48.89306444]},"geometry":{"type":"MultiPolygon","coordinates":[[[[2.25287102,48.89303312],[2.25512513,48.89411107],[2.25531423,48.89414462],[2.25593273,48.89400457],[2.25655263,48.89395716],[2.25648109,48.8937139],[2.25656932,48.89364789],[2.25715823,48.89309576],[2.25751023,48.89260961],[2.255122,48.89099307],[2.25373149,48.89218682],[2.25377974,48.89224647],[2.25374564,48.89234159],[2.25358146,48.89237744],[2.25287102,48.89303312]]]]},"bbox":[2.25287102,48.89099307,2.25751023,48.89414462]},{"type":"Feature","id":"fr-quartier-92026-c116d135b2e1","properties":{"id":"fr-quartier-92026-c116d135b2e1","kind":"quartier","name":"Charcot","cityCode":"92026","cityName":"Courbevoie","sourceType":"iris","sourceIds":["920260204"],"colorIndex":5,"center":[2.269913511650003,48.899146855]},"geometry":{"type":"MultiPolygon","coordinates":[[[[2.27731439,48.90033367],[2.27452531,48.89961443],[2.27106396,48.89839821],[2.26791371,48.89718649],[2.26515339,48.89589974],[2.2643688,48.89669352],[2.2632992,48.89786596],[2.26554792,48.89867928],[2.27461211,48.90258722],[2.27478217,48.9025217],[2.27509688,48.90225741],[2.27525487,48.90217742],[2.27589715,48.90160574],[2.27731439,48.90033367]]]]},"bbox":[2.2632992,48.89589974,2.27731439,48.90258722]},{"type":"Feature","id":"fr-quartier-92026-55fa00d787e0","properties":{"id":"fr-quartier-92026-55fa00d787e0","kind":"quartier","name":"de Gaulle","cityCode":"92026","cityName":"Courbevoie","sourceType":"iris","sourceIds":["920260701"],"colorIndex":6,"center":[2.2524258116267903,48.895348855]},"geometry":{"type":"MultiPolygon","coordinates":[[[[2.25203383,48.8936808],[2.25058363,48.89474734],[2.24996797,48.89516257],[2.25002275,48.89524206],[2.25107799,48.89593755],[2.25228948,48.89648831],[2.25294348,48.89663269],[2.25476221,48.89678701],[2.25489792,48.89597756],[2.25501182,48.89583348],[2.25490281,48.89573118],[2.25484946,48.89545565],[2.25435981,48.89516931],[2.25452361,48.89487445],[2.25227302,48.89393051],[2.25234804,48.89383475],[2.25203383,48.8936808]]]]},"bbox":[2.24996797,48.8936808,2.25501182,48.89678701]},{"type":"Feature","id":"fr-quartier-92026-6484c2be61fc","properties":{"id":"fr-quartier-92026-6484c2be61fc","kind":"quartier","name":"d'Estienne d'Orves","cityCode":"92026","cityName":"Courbevoie","sourceType":"iris","sourceIds":["920260102"],"colorIndex":7,"center":[2.250194477554623,48.901907675]},"geometry":{"type":"MultiPolygon","coordinates":[[[[2.2464794,48.90201243],[2.25225282,48.90340929],[2.2533317,48.90218485],[2.25450154,48.90136926],[2.25603682,48.90189681],[2.2562043,48.90191854],[2.25629066,48.90112497],[2.25102725,48.89936996],[2.2464794,48.90201243]]]]},"bbox":[2.2464794,48.89936996,2.25629066,48.90340929]},{"type":"Feature","id":"fr-quartier-92026-82324da3a0df","properties":{"id":"fr-quartier-92026-82324da3a0df","kind":"quartier","name":"Diderot","cityCode":"92026","cityName":"Courbevoie","sourceType":"iris","sourceIds":["920260505"],"colorIndex":8,"center":[2.244634691828944,48.891576459999996]},"geometry":{"type":"MultiPolygon","coordinates":[[[[2.24236219,48.89050022],[2.24186892,48.89065808],[2.24236521,48.89132403],[2.24256629,48.89147099],[2.24434513,48.8921972],[2.24457676,48.89230748],[2.24451847,48.89237636],[2.24460404,48.89240118],[2.24482292,48.8923558],[2.24538767,48.89263096],[2.24654873,48.89147273],[2.24707719,48.8911451],[2.24765921,48.89088615],[2.24808437,48.89128903],[2.24906989,48.89179974],[2.2497341,48.89265107],[2.24978049,48.89283932],[2.24994187,48.89290329],[2.24999264,48.89297645],[2.25005894,48.89405517],[2.25049445,48.89421528],[2.25066348,48.89431706],[2.25066809,48.89437554],[2.25047868,48.89455332],[2.25058363,48.89474734],[2.25203383,48.8936808],[2.25287102,48.89303312],[2.25358146,48.89237744],[2.25345819,48.89231911],[2.25345399,48.89223095],[2.2526521,48.89184643],[2.2523858,48.89168019],[2.2518753,48.89123453],[2.25174608,48.89102058],[2.25149247,48.89063678],[2.25079901,48.88992197],[2.25051352,48.88985903],[2.24996576,48.89001388],[2.24981958,48.88993652],[2.2501615,48.88968055],[2.25065968,48.88917915],[2.25114992,48.88828198],[2.25156959,48.88792847],[2.25182918,48.88780058],[2.25225385,48.88766744],[2.2525846,48.88742758],[2.25247187,48.88730007],[2.24236219,48.89050022]]]]},"bbox":[2.24186892,48.88730007,2.25358146,48.89474734]},{"type":"Feature","id":"fr-quartier-92026-88ed36849a16","properties":{"id":"fr-quartier-92026-88ed36849a16","kind":"quartier","name":"Dominos","cityCode":"92026","cityName":"Courbevoie","sourceType":"iris","sourceIds":["920260506"],"colorIndex":9,"center":[2.25260386260873,48.88959443]},"geometry":{"type":"MultiPolygon","coordinates":[[[[2.25683187,48.88958724],[2.25435276,48.88766164],[2.25376102,48.88689172],[2.25303493,48.88712192],[2.25247187,48.88730007],[2.2525846,48.88742758],[2.25225385,48.88766744],[2.25182918,48.88780058],[2.25156959,48.88792847],[2.25114992,48.88828198],[2.25065968,48.88917915],[2.2501615,48.88968055],[2.24981958,48.88993652],[2.24996576,48.89001388],[2.25051352,48.88985903],[2.25079901,48.88992197],[2.25149247,48.89063678],[2.25174608,48.89102058],[2.25211936,48.89095456],[2.25294874,48.89065846],[2.25494961,48.88960162],[2.25543555,48.88928538],[2.25622717,48.88991084],[2.25630955,48.89006334],[2.25684148,48.88967813],[2.25683187,48.88958724]]]]},"bbox":[2.24981958,48.88689172,2.25684148,48.89102058]},{"type":"Feature","id":"fr-quartier-92026-06955aa9b97d","properties":{"id":"fr-quartier-92026-06955aa9b97d","kind":"quartier","name":"Dubonnet","cityCode":"92026","cityName":"Courbevoie","sourceType":"iris","sourceIds":["920260201"],"colorIndex":10,"center":[2.2616519552763767,48.90191024]},"geometry":{"type":"MultiPolygon","coordinates":[[[[2.26324678,48.90340188],[2.26698478,48.90464879],[2.26784979,48.903574],[2.26797909,48.90349835],[2.26780141,48.90352244],[2.26696841,48.90319539],[2.26379702,48.90221007],[2.26408856,48.901755],[2.26475139,48.90099195],[2.26510436,48.90082234],[2.26567576,48.90015675],[2.26571317,48.90011561],[2.26242326,48.89874911],[2.26077925,48.90040542],[2.25916373,48.90206548],[2.26324678,48.90340188]]]]},"bbox":[2.25916373,48.89874911,2.26797909,48.90464879]},{"type":"Feature","id":"fr-quartier-92026-640fa486b41d","properties":{"id":"fr-quartier-92026-640fa486b41d","kind":"quartier","name":"Essling","cityCode":"92026","cityName":"Courbevoie","sourceType":"iris","sourceIds":["920260503"],"colorIndex":11,"center":[2.248052961355777,48.89372208]},"geometry":{"type":"MultiPolygon","coordinates":[[[[2.24538767,48.89263096],[2.24492764,48.89322252],[2.24552464,48.89343762],[2.24661027,48.89400654],[2.24548104,48.89475217],[2.24754608,48.8957886],[2.24795117,48.89578935],[2.24895432,48.89593504],[2.24907233,48.89588542],[2.24996797,48.89516257],[2.25058363,48.89474734],[2.25047868,48.89455332],[2.25066809,48.89437554],[2.25066348,48.89431706],[2.25049445,48.89421528],[2.25005894,48.89405517],[2.24999264,48.89297645],[2.24994187,48.89290329],[2.24978049,48.89283932],[2.2497341,48.89265107],[2.24906989,48.89179974],[2.24808437,48.89128903],[2.24765921,48.89088615],[2.24707719,48.8911451],[2.24654873,48.89147273],[2.24538767,48.89263096]]]]},"bbox":[2.24492764,48.89088615,2.25066809,48.89593504]},{"type":"Feature","id":"fr-quartier-92026-04f3c59ac7fa","properties":{"id":"fr-quartier-92026-04f3c59ac7fa","kind":"quartier","name":"Étudiants","cityCode":"92026","cityName":"Courbevoie","sourceType":"iris","sourceIds":["920260405"],"colorIndex":12,"center":[2.2355250079369644,48.895789765]},"geometry":{"type":"MultiPolygon","coordinates":[[[[2.23835212,48.89472323],[2.23780912,48.89463973],[2.23715749,48.89471023],[2.23573765,48.89507979],[2.23507382,48.89551533],[2.23378394,48.89567166],[2.23359496,48.89590787],[2.23329289,48.89632143],[2.23182135,48.89834089],[2.23223721,48.89835255],[2.23329738,48.89860936],[2.23333258,48.89853494],[2.23549709,48.89901553],[2.2367092,48.89672637],[2.23769429,48.8953099],[2.23824288,48.89473153],[2.23835212,48.89472323]]]]},"bbox":[2.23182135,48.89463973,2.23835212,48.89901553]},{"type":"Feature","id":"fr-quartier-92026-da20a7c363de","properties":{"id":"fr-quartier-92026-da20a7c363de","kind":"quartier","name":"Fallet","cityCode":"92026","cityName":"Courbevoie","sourceType":"iris","sourceIds":["920260305"],"colorIndex":13,"center":[2.279841757341746,48.901882920000006]},"geometry":{"type":"MultiPolygon","coordinates":[[[[2.28013319,48.90364486],[2.28184541,48.9046201],[2.28427441,48.90228562],[2.28255457,48.90156846],[2.27731439,48.90033367],[2.27589715,48.90160574],[2.27685251,48.9021601],[2.28013319,48.90364486]]]]},"bbox":[2.27589715,48.90033367,2.28427441,48.9046201]},{"type":"Feature","id":"fr-quartier-92026-741c72fe9d2f","properties":{"id":"fr-quartier-92026-741c72fe9d2f","kind":"quartier","name":"Fauvelles","cityCode":"92026","cityName":"Courbevoie","sourceType":"iris","sourceIds":["920260404"],"colorIndex":14,"center":[2.235833307372527,48.900125775]},"geometry":{"type":"MultiPolygon","coordinates":[[[[2.23182135,48.89834089],[2.23057104,48.90033657],[2.23162901,48.90065183],[2.23741409,48.90177519],[2.23949164,48.90224346],[2.24258874,48.9027721],[2.24301519,48.90233953],[2.24455056,48.90078709],[2.24325437,48.9005253],[2.23975482,48.89991498],[2.23828562,48.89964124],[2.23549709,48.89901553],[2.23333258,48.89853494],[2.23329738,48.89860936],[2.23223721,48.89835255],[2.23182135,48.89834089]]]]},"bbox":[2.23057104,48.89834089,2.24455056,48.9027721]},{"type":"Feature","id":"fr-quartier-92026-bc86b4718d63","properties":{"id":"fr-quartier-92026-bc86b4718d63","kind":"quartier","name":"Franklin","cityCode":"92026","cityName":"Courbevoie","sourceType":"iris","sourceIds":["920260203"],"colorIndex":15,"center":[2.270119238030113,48.90150905]},"geometry":{"type":"MultiPolygon","coordinates":[[[[2.26242326,48.89874911],[2.26571317,48.90011561],[2.26567576,48.90015675],[2.26822308,48.90128031],[2.26809629,48.90146929],[2.26815792,48.90154881],[2.26921576,48.90189162],[2.26869112,48.90253233],[2.27001905,48.90307193],[2.27446585,48.90270594],[2.27462855,48.90267995],[2.27461211,48.90258722],[2.26554792,48.89867928],[2.2632992,48.89786596],[2.26242326,48.89874911]]]]},"bbox":[2.26242326,48.89786596,2.27462855,48.90307193]},{"type":"Feature","id":"fr-quartier-92026-e1e7609b0654","properties":{"id":"fr-quartier-92026-e1e7609b0654","kind":"quartier","name":"Gaultier","cityCode":"92026","cityName":"Courbevoie","sourceType":"iris","sourceIds":["920260402"],"colorIndex":16,"center":[2.241937661643062,48.899121980000004]},"geometry":{"type":"MultiPolygon","coordinates":[[[[2.24455056,48.90078709],[2.24570223,48.89963152],[2.24240236,48.89861244],[2.24300627,48.89751188],[2.24024874,48.8964485],[2.2400811,48.89756081],[2.24001891,48.8977097],[2.23975059,48.89964425],[2.23975482,48.89991498],[2.24325437,48.9005253],[2.24455056,48.90078709]]]]},"bbox":[2.23975059,48.8964485,2.24570223,48.90078709]},{"type":"Feature","id":"fr-quartier-92026-6707bc0f6f74","properties":{"id":"fr-quartier-92026-6707bc0f6f74","kind":"quartier","name":"Hôtel de Ville","cityCode":"92026","cityName":"Courbevoie","sourceType":"iris","sourceIds":["920260702"],"colorIndex":17,"center":[2.255507896846429,48.895081545]},"geometry":{"type":"MultiPolygon","coordinates":[[[[2.25287102,48.89303312],[2.25203383,48.8936808],[2.25234804,48.89383475],[2.25227302,48.89393051],[2.25452361,48.89487445],[2.25435981,48.89516931],[2.25484946,48.89545565],[2.25490281,48.89573118],[2.25501182,48.89583348],[2.25489792,48.89597756],[2.25476221,48.89678701],[2.25539431,48.89684221],[2.25560664,48.8968741],[2.25637655,48.89683122],[2.25642561,48.89626135],[2.25636834,48.8955919],[2.25664831,48.89499378],[2.25667654,48.89483118],[2.25655263,48.89395716],[2.25593273,48.89400457],[2.25531423,48.89414462],[2.25512513,48.89411107],[2.25287102,48.89303312]]]]},"bbox":[2.25203383,48.89303312,2.25667654,48.8968741]},{"type":"Feature","id":"fr-quartier-92026-64deb9592fb4","properties":{"id":"fr-quartier-92026-64deb9592fb4","kind":"quartier","name":"Jean Blot","cityCode":"92026","cityName":"Courbevoie","sourceType":"iris","sourceIds":["920260103"],"colorIndex":18,"center":[2.2570915663854754,48.902793364999994]},"geometry":{"type":"MultiPolygon","coordinates":[[[[2.25225282,48.90340929],[2.25587342,48.9045479],[2.25578254,48.90537022],[2.25821579,48.90607689],[2.2599375,48.90655428],[2.2613717,48.90681674],[2.26324678,48.90340188],[2.25916373,48.90206548],[2.25629066,48.90112497],[2.2562043,48.90191854],[2.25603682,48.90189681],[2.25450154,48.90136926],[2.2533317,48.90218485],[2.25225282,48.90340929]]]]},"bbox":[2.25225282,48.90112497,2.26324678,48.90681674]},{"type":"Feature","id":"fr-quartier-92026-7fa818a17a1d","properties":{"id":"fr-quartier-92026-7fa818a17a1d","kind":"quartier","name":"Kruger","cityCode":"92026","cityName":"Courbevoie","sourceType":"iris","sourceIds":["920260602"],"colorIndex":19,"center":[2.253557839746784,48.898076735000004]},"geometry":{"type":"MultiPolygon","coordinates":[[[[2.25637655,48.89683122],[2.25560664,48.8968741],[2.25539431,48.89684221],[2.25534214,48.89696149],[2.25356562,48.89795408],[2.24988001,48.89729163],[2.24910152,48.89840102],[2.24980041,48.89874535],[2.25119638,48.89927569],[2.25102725,48.89936996],[2.25629066,48.90112497],[2.25916373,48.90206548],[2.26077925,48.90040542],[2.25775885,48.89927877],[2.25816435,48.89819939],[2.25681747,48.89776206],[2.2565317,48.89771532],[2.25637655,48.89683122]]]]},"bbox":[2.24910152,48.89683122,2.26077925,48.90206548]},{"type":"Feature","id":"fr-quartier-92026-a350b954aa69","properties":{"id":"fr-quartier-92026-a350b954aa69","kind":"quartier","name":"Lalyre","cityCode":"92026","cityName":"Courbevoie","sourceType":"iris","sourceIds":["920260304"],"colorIndex":20,"center":[2.2753526856924333,48.902888935]},"geometry":{"type":"MultiPolygon","coordinates":[[[[2.27714842,48.90570431],[2.27797905,48.90522638],[2.27884895,48.9044726],[2.27895848,48.90454251],[2.27947503,48.90408426],[2.27959706,48.90413806],[2.28013319,48.90364486],[2.27685251,48.9021601],[2.27589715,48.90160574],[2.27525487,48.90217742],[2.27509688,48.90225741],[2.27478217,48.9025217],[2.27461211,48.90258722],[2.27462855,48.90267995],[2.27446585,48.90270594],[2.27001905,48.90307193],[2.27159356,48.90363729],[2.27714842,48.90570431]]]]},"bbox":[2.27001905,48.90160574,2.28013319,48.90570431]},{"type":"Feature","id":"fr-quartier-92026-49b916e84a62","properties":{"id":"fr-quartier-92026-49b916e84a62","kind":"quartier","name":"Montagne","cityCode":"92026","cityName":"Courbevoie","sourceType":"iris","sourceIds":["920260704"],"colorIndex":21,"center":[2.259330440963269,48.895119949999994]},"geometry":{"type":"MultiPolygon","coordinates":[[[[2.2632992,48.89786596],[2.2643688,48.89669352],[2.26348916,48.89620158],[2.26268513,48.89566963],[2.2620907,48.89516953],[2.26205256,48.89507037],[2.26086177,48.89411334],[2.26019796,48.8945634],[2.25992978,48.89452757],[2.25964127,48.89457795],[2.25931731,48.89491499],[2.25713643,48.89395449],[2.25695405,48.89383195],[2.25672175,48.89376665],[2.25656932,48.89364789],[2.25648109,48.8937139],[2.25655263,48.89395716],[2.25667654,48.89483118],[2.25664831,48.89499378],[2.25636834,48.8955919],[2.25642561,48.89626135],[2.25649798,48.89625551],[2.25655622,48.89618932],[2.25770909,48.89626302],[2.25865533,48.89638489],[2.25973644,48.89661372],[2.26063805,48.89690167],[2.26146003,48.89722601],[2.2632992,48.89786596]]]]},"bbox":[2.25636834,48.89364789,2.2643688,48.89786596]},{"type":"Feature","id":"fr-quartier-92026-312e7d1f4e75","properties":{"id":"fr-quartier-92026-312e7d1f4e75","kind":"quartier","name":"Parmentier","cityCode":"92026","cityName":"Courbevoie","sourceType":"iris","sourceIds":["920260603"],"colorIndex":22,"center":[2.25873320614863,48.89706384]},"geometry":{"type":"MultiPolygon","coordinates":[[[[2.26077925,48.90040542],[2.26242326,48.89874911],[2.2632992,48.89786596],[2.26146003,48.89722601],[2.26063805,48.89690167],[2.25973644,48.89661372],[2.25865533,48.89638489],[2.25770909,48.89626302],[2.25655622,48.89618932],[2.25649798,48.89625551],[2.25642561,48.89626135],[2.25637655,48.89683122],[2.2565317,48.89771532],[2.25681747,48.89776206],[2.25816435,48.89819939],[2.25775885,48.89927877],[2.26077925,48.90040542]]]]},"bbox":[2.25637655,48.89618932,2.2632992,48.90040542]},{"type":"Feature","id":"fr-quartier-92026-64cae19e3035","properties":{"id":"fr-quartier-92026-64cae19e3035","kind":"quartier","name":"Quinet","cityCode":"92026","cityName":"Courbevoie","sourceType":"iris","sourceIds":["920260301"],"colorIndex":23,"center":[2.26699515134671,48.905943089999994]},"geometry":{"type":"MultiPolygon","coordinates":[[[[2.26698478,48.90464879],[2.2663941,48.90629273],[2.26661317,48.90613939],[2.26703924,48.90601249],[2.26773385,48.90590073],[2.26815311,48.90596624],[2.26879899,48.9062148],[2.27038526,48.90682342],[2.27429532,48.90828429],[2.27510674,48.9076228],[2.27574128,48.90692607],[2.27612988,48.90694101],[2.27613228,48.90686639],[2.27388457,48.90672688],[2.2725793,48.90650852],[2.27119104,48.90617722],[2.27132697,48.90591994],[2.27082983,48.90576493],[2.26961585,48.90536274],[2.26905692,48.90513989],[2.26915244,48.90504155],[2.26908662,48.9049683],[2.26895633,48.90491985],[2.26918123,48.9045453],[2.26857576,48.90433476],[2.26843097,48.90434737],[2.26797909,48.90349835],[2.26784979,48.903574],[2.26698478,48.90464879]]]]},"bbox":[2.2663941,48.90349835,2.27613228,48.90828429]},{"type":"Feature","id":"fr-quartier-92026-4052ab7e8988","properties":{"id":"fr-quartier-92026-4052ab7e8988","kind":"quartier","name":"Regnault","cityCode":"92026","cityName":"Courbevoie","sourceType":"iris","sourceIds":["920260501"],"colorIndex":24,"center":[2.2430413806108316,48.89251607]},"geometry":{"type":"MultiPolygon","coordinates":[[[[2.24186892,48.89065808],[2.24116865,48.89088747],[2.24061105,48.894707],[2.24167803,48.8950555],[2.24201542,48.8951152],[2.2426791,48.89515447],[2.24321692,48.89503196],[2.24360383,48.89487523],[2.24399779,48.89460881],[2.24492764,48.89322252],[2.24538767,48.89263096],[2.24482292,48.8923558],[2.24460404,48.89240118],[2.24451847,48.89237636],[2.24457676,48.89230748],[2.24434513,48.8921972],[2.24256629,48.89147099],[2.24236521,48.89132403],[2.24186892,48.89065808]]]]},"bbox":[2.24061105,48.89065808,2.24538767,48.89515447]},{"type":"Feature","id":"fr-quartier-92026-f4c0411813ae","properties":{"id":"fr-quartier-92026-f4c0411813ae","kind":"quartier","name":"Sainte-Marie","cityCode":"92026","cityName":"Courbevoie","sourceType":"iris","sourceIds":["920260705"],"colorIndex":25,"center":[2.259874644380532,48.894033914999994]},"geometry":{"type":"MultiPolygon","coordinates":[[[[2.26515339,48.89589974],[2.2633447,48.8948436],[2.25911264,48.89108707],[2.25683187,48.88958724],[2.25684148,48.88967813],[2.25630955,48.89006334],[2.2559698,48.89026538],[2.255122,48.89099307],[2.25751023,48.89260961],[2.25715823,48.89309576],[2.25656932,48.89364789],[2.25672175,48.89376665],[2.25695405,48.89383195],[2.25713643,48.89395449],[2.25931731,48.89491499],[2.25964127,48.89457795],[2.25992978,48.89452757],[2.26019796,48.8945634],[2.26086177,48.89411334],[2.26205256,48.89507037],[2.2620907,48.89516953],[2.26268513,48.89566963],[2.26348916,48.89620158],[2.2643688,48.89669352],[2.26515339,48.89589974]]]]},"bbox":[2.255122,48.88958724,2.26515339,48.89669352]},{"type":"Feature","id":"fr-quartier-92026-dd9dc8e4c9cc","properties":{"id":"fr-quartier-92026-dd9dc8e4c9cc","kind":"quartier","name":"Schweitzer","cityCode":"92026","cityName":"Courbevoie","sourceType":"iris","sourceIds":["920260403"],"colorIndex":26,"center":[2.2419884678981616,48.896405619999996]},"geometry":{"type":"MultiPolygon","coordinates":[[[[2.24054688,48.89499168],[2.24050791,48.89513892],[2.24052825,48.89524067],[2.24036237,48.8956722],[2.24024874,48.8964485],[2.24300627,48.89751188],[2.24240236,48.89861244],[2.24570223,48.89963152],[2.24741474,48.8978922],[2.24487932,48.89683662],[2.24360677,48.89636274],[2.24146385,48.89543277],[2.24054688,48.89499168]]]]},"bbox":[2.24024874,48.89499168,2.24741474,48.89963152]},{"type":"Feature","id":"fr-quartier-92026-e8a847e8a75a","properties":{"id":"fr-quartier-92026-e8a847e8a75a","kind":"quartier","name":"Ségoffin","cityCode":"92026","cityName":"Courbevoie","sourceType":"iris","sourceIds":["920260502"],"colorIndex":27,"center":[2.241294166507247,48.89508535]},"geometry":{"type":"MultiPolygon","coordinates":[[[[2.24061105,48.894707],[2.24054688,48.89499168],[2.24146385,48.89543277],[2.24360677,48.89636274],[2.24487932,48.89683662],[2.24741474,48.8978922],[2.2476088,48.89758316],[2.24895432,48.89593504],[2.24795117,48.89578935],[2.24754608,48.8957886],[2.24548104,48.89475217],[2.24661027,48.89400654],[2.24552464,48.89343762],[2.24492764,48.89322252],[2.24399779,48.89460881],[2.24360383,48.89487523],[2.24321692,48.89503196],[2.2426791,48.89515447],[2.24201542,48.8951152],[2.24167803,48.8950555],[2.24061105,48.894707]]]]},"bbox":[2.24054688,48.89322252,2.24895432,48.8978922]},{"type":"Feature","id":"fr-quartier-92026-fd582544c489","properties":{"id":"fr-quartier-92026-fd582544c489","kind":"quartier","name":"Vigny","cityCode":"92026","cityName":"Courbevoie","sourceType":"iris","sourceIds":["920260302"],"colorIndex":28,"center":[2.270004778467589,48.90454133]},"geometry":{"type":"MultiPolygon","coordinates":[[[[2.26797909,48.90349835],[2.26843097,48.90434737],[2.26857576,48.90433476],[2.26918123,48.9045453],[2.26895633,48.90491985],[2.26908662,48.9049683],[2.26915244,48.90504155],[2.26905692,48.90513989],[2.26961585,48.90536274],[2.27082983,48.90576493],[2.27164756,48.90484811],[2.27082929,48.90453736],[2.27159356,48.90363729],[2.27001905,48.90307193],[2.26825508,48.90337053],[2.26797909,48.90349835]]]]},"bbox":[2.26797909,48.90307193,2.27164756,48.90576493]},{"type":"Feature","id":"fr-quartier-92026-77e3a4e5e1eb","properties":{"id":"fr-quartier-92026-77e3a4e5e1eb","kind":"quartier","name":"Villebois-Mareuil","cityCode":"92026","cityName":"Courbevoie","sourceType":"iris","sourceIds":["920260202"],"colorIndex":29,"center":[2.2665248834536023,48.90182331]},"geometry":{"type":"MultiPolygon","coordinates":[[[[2.26567576,48.90015675],[2.26510436,48.90082234],[2.26475139,48.90099195],[2.26408856,48.901755],[2.26379702,48.90221007],[2.26696841,48.90319539],[2.26780141,48.90352244],[2.26797909,48.90349835],[2.26825508,48.90337053],[2.27001905,48.90307193],[2.26869112,48.90253233],[2.26921576,48.90189162],[2.26815792,48.90154881],[2.26809629,48.90146929],[2.26822308,48.90128031],[2.26567576,48.90015675]]]]},"bbox":[2.26379702,48.90015675,2.27001905,48.90352244]},{"type":"Feature","id":"fr-quartier-92026-1286e6644559","properties":{"id":"fr-quartier-92026-1286e6644559","kind":"quartier","name":"Visien","cityCode":"92026","cityName":"Courbevoie","sourceType":"iris","sourceIds":["920260601"],"colorIndex":30,"center":[2.2517666221738075,48.896901850000006]},"geometry":{"type":"MultiPolygon","coordinates":[[[[2.25539431,48.89684221],[2.25476221,48.89678701],[2.25294348,48.89663269],[2.25228948,48.89648831],[2.25107799,48.89593755],[2.25002275,48.89524206],[2.24996797,48.89516257],[2.24907233,48.89588542],[2.24895432,48.89593504],[2.2476088,48.89758316],[2.24741474,48.8978922],[2.25102725,48.89936996],[2.25119638,48.89927569],[2.24980041,48.89874535],[2.24910152,48.89840102],[2.24988001,48.89729163],[2.25356562,48.89795408],[2.25534214,48.89696149],[2.25539431,48.89684221]]]]},"bbox":[2.24741474,48.89516257,2.25539431,48.89936996]}]}