{"type":"FeatureCollection","metadata":{"sourceType":"iris","source":"IGN / INSEE — Contours IRIS 2026","sourceUrl":"https://data.geopf.fr/wfs/ows?service=WFS&version=2.0.0&request=GetFeature&typeNames=STATISTICALUNITS.IRIS%3Acontours_iris&outputFormat=application%2Fjson&srsName=CRS%3A84&count=1000&CQL_FILTER=code_insee%3D%2792020%27&sortBy=code_iris","retrievedDate":"2026-09-10","sourceYear":"2026","license":"Licence Ouverte 2.0"},"features":[{"type":"Feature","id":"fr-quartier-92020-abf7ae3f8b5a","properties":{"id":"fr-quartier-92020-abf7ae3f8b5a","kind":"quartier","name":"Gatinot","cityCode":"92020","cityName":"Châtillon","sourceType":"iris","sourceIds":["920200102"],"colorIndex":0,"center":[2.2913710225674033,48.80380208]},"geometry":{"type":"MultiPolygon","coordinates":[[[[2.29356839,48.80698003],[2.29628708,48.80499941],[2.29622266,48.80492977],[2.29362971,48.80355819],[2.29131021,48.80251284],[2.28903157,48.8035705],[2.28882373,48.80363582],[2.2884788,48.80396834],[2.29113473,48.80560664],[2.29356839,48.80698003]]]]},"bbox":[2.2884788,48.80251284,2.29628708,48.80698003]},{"type":"Feature","id":"fr-quartier-92020-75cba44e1a62","properties":{"id":"fr-quartier-92020-75cba44e1a62","kind":"quartier","name":"Guy Môquet","cityCode":"92020","cityName":"Châtillon","sourceType":"iris","sourceIds":["920200104"],"colorIndex":1,"center":[2.2857096402384234,48.807260715]},"geometry":{"type":"MultiPolygon","coordinates":[[[[2.2912598,48.80862755],[2.29485209,48.80921991],[2.29598313,48.80835147],[2.29356839,48.80698003],[2.29113473,48.80560664],[2.2884788,48.80396834],[2.28824844,48.80428626],[2.28703315,48.80543834],[2.28492366,48.80755012],[2.28515962,48.80762078],[2.28602771,48.80776808],[2.28629121,48.80702045],[2.28711974,48.80557826],[2.28779181,48.80611831],[2.28913352,48.80707966],[2.28862205,48.80744177],[2.28892367,48.80769],[2.28815266,48.80811173],[2.2912598,48.80862755]]]]},"bbox":[2.28492366,48.80396834,2.29598313,48.80921991]},{"type":"Feature","id":"fr-quartier-92020-c19aa747137a","properties":{"id":"fr-quartier-92020-c19aa747137a","kind":"quartier","name":"Guynemer","cityCode":"92020","cityName":"Châtillon","sourceType":"iris","sourceIds":["920200103"],"colorIndex":2,"center":[2.295447596393739,48.81007753]},"geometry":{"type":"MultiPolygon","coordinates":[[[[2.29200487,48.80971394],[2.29357648,48.81191146],[2.29383375,48.81191928],[2.29482332,48.81044112],[2.29801981,48.81212381],[2.29958075,48.81098264],[2.29812868,48.80959985],[2.29598313,48.80835147],[2.29485209,48.80921991],[2.2912598,48.80862755],[2.29200487,48.80971394]]]]},"bbox":[2.2912598,48.80835147,2.29958075,48.81212381]},{"type":"Feature","id":"fr-quartier-92020-520783ad2615","properties":{"id":"fr-quartier-92020-520783ad2615","kind":"quartier","name":"Marcel Doret","cityCode":"92020","cityName":"Châtillon","sourceType":"iris","sourceIds":["920200107"],"colorIndex":3,"center":[2.2800157455279435,48.8026044]},"geometry":{"type":"MultiPolygon","coordinates":[[[[2.27754138,48.80150763],[2.27568539,48.80172305],[2.27308574,48.80185837],[2.27315312,48.80190824],[2.27468571,48.8038027],[2.2747979,48.80376381],[2.27653142,48.80354946],[2.27746209,48.80330056],[2.27805513,48.80432676],[2.27858148,48.80555042],[2.27890639,48.8059814],[2.28066243,48.80542176],[2.28134754,48.80510929],[2.28251193,48.80439946],[2.28472818,48.80760561],[2.28482663,48.80767545],[2.28492366,48.80755012],[2.28703315,48.80543834],[2.28824844,48.80428626],[2.2884788,48.80396834],[2.28458841,48.80151584],[2.28380514,48.80104976],[2.28366444,48.80098416],[2.28348767,48.80096781],[2.28337854,48.80088441],[2.28310765,48.80107885],[2.28277454,48.80124414],[2.28252901,48.80127775],[2.28037942,48.80086729],[2.27956227,48.80088575],[2.27880268,48.80107454],[2.27807502,48.80141462],[2.27754138,48.80150763]]]]},"bbox":[2.27308574,48.80086729,2.2884788,48.80767545]},{"type":"Feature","id":"fr-quartier-92020-414fad5f2fdf","properties":{"id":"fr-quartier-92020-414fad5f2fdf","kind":"quartier","name":"Parc","cityCode":"92020","cityName":"Châtillon","sourceType":"iris","sourceIds":["920200109"],"colorIndex":4,"center":[2.2903184051597862,48.799381415]},"geometry":{"type":"MultiPolygon","coordinates":[[[[2.29440329,48.79830845],[2.29360683,48.79770744],[2.29301157,48.7971292],[2.29222406,48.79597151],[2.29011997,48.79552911],[2.28934321,48.79508828],[2.28793286,48.79448988],[2.28774359,48.79499242],[2.28805033,48.79675528],[2.28804125,48.79722112],[2.28789252,48.79764475],[2.28762734,48.79822149],[2.28740918,48.79844504],[2.28702011,48.79872243],[2.28679808,48.79912944],[2.28609276,48.79963339],[2.28580475,48.79978727],[2.28572157,48.79979666],[2.28575185,48.79987239],[2.2864678,48.8005818],[2.28662663,48.8008148],[2.28675546,48.80105121],[2.28738143,48.8018716],[2.28937743,48.80087076],[2.28916749,48.80069053],[2.28914093,48.80054197],[2.28898247,48.80038093],[2.28951556,48.80012507],[2.28979925,48.80048832],[2.29030641,48.80093743],[2.29075773,48.80088885],[2.29186438,48.80020377],[2.29364123,48.80099856],[2.29373452,48.80084531],[2.29446887,48.79849232],[2.29437243,48.79847646],[2.29431199,48.79841494],[2.29440329,48.79830845]]]]},"bbox":[2.28572157,48.79448988,2.29446887,48.8018716]},{"type":"Feature","id":"fr-quartier-92020-edd9c15c0b3e","properties":{"id":"fr-quartier-92020-edd9c15c0b3e","kind":"quartier","name":"Ponceau","cityCode":"92020","cityName":"Châtillon","sourceType":"iris","sourceIds":["920200108"],"colorIndex":5,"center":[2.2864383244064066,48.80096799499999]},"geometry":{"type":"MultiPolygon","coordinates":[[[[2.29131021,48.80251284],[2.29364123,48.80099856],[2.29186438,48.80020377],[2.29075773,48.80088885],[2.29030641,48.80093743],[2.28979925,48.80048832],[2.28951556,48.80012507],[2.28898247,48.80038093],[2.28914093,48.80054197],[2.28916749,48.80069053],[2.28937743,48.80087076],[2.28738143,48.8018716],[2.28675546,48.80105121],[2.28662663,48.8008148],[2.28529721,48.80125745],[2.28489755,48.80141066],[2.28483542,48.80147325],[2.28458841,48.80151584],[2.2884788,48.80396834],[2.28882373,48.80363582],[2.28903157,48.8035705],[2.29131021,48.80251284]]]]},"bbox":[2.28458841,48.80012507,2.29364123,48.80396834]},{"type":"Feature","id":"fr-quartier-92020-8e5db7e3d459","properties":{"id":"fr-quartier-92020-8e5db7e3d459","kind":"quartier","name":"République","cityCode":"92020","cityName":"Châtillon","sourceType":"iris","sourceIds":["920200101"],"colorIndex":6,"center":[2.2996985344127285,48.805263925000006]},"geometry":{"type":"MultiPolygon","coordinates":[[[[2.30268914,48.81112043],[2.30173893,48.80997985],[2.3059438,48.80855631],[2.30472421,48.80719294],[2.30411763,48.80652655],[2.30353729,48.80552844],[2.30302236,48.80340736],[2.29962292,48.80287393],[2.29440329,48.79830845],[2.29431199,48.79841494],[2.29437243,48.79847646],[2.29446887,48.79849232],[2.29373452,48.80084531],[2.29364123,48.80099856],[2.29131021,48.80251284],[2.29362971,48.80355819],[2.29622266,48.80492977],[2.29628708,48.80499941],[2.29356839,48.80698003],[2.29598313,48.80835147],[2.29812868,48.80959985],[2.29958075,48.81098264],[2.29968109,48.81091308],[2.30009769,48.81132654],[2.30268914,48.81112043]]]]},"bbox":[2.29131021,48.79830845,2.3059438,48.81132654]},{"type":"Feature","id":"fr-quartier-92020-0a08be016a2a","properties":{"id":"fr-quartier-92020-0a08be016a2a","kind":"quartier","name":"Roissys","cityCode":"92020","cityName":"Châtillon","sourceType":"iris","sourceIds":["920200106"],"colorIndex":7,"center":[2.277317986355151,48.80533695]},"geometry":{"type":"MultiPolygon","coordinates":[[[[2.27468571,48.8038027],[2.27610477,48.80525214],[2.27724486,48.80757949],[2.27826811,48.80871352],[2.27991119,48.81091795],[2.28182371,48.81067493],[2.28482663,48.80767545],[2.28472818,48.80760561],[2.28251193,48.80439946],[2.28134754,48.80510929],[2.28066243,48.80542176],[2.27890639,48.8059814],[2.27858148,48.80555042],[2.27805513,48.80432676],[2.27746209,48.80330056],[2.27653142,48.80354946],[2.2747979,48.80376381],[2.27468571,48.8038027]]]]},"bbox":[2.27468571,48.80330056,2.28482663,48.81091795]},{"type":"Feature","id":"fr-quartier-92020-d19f750b1916","properties":{"id":"fr-quartier-92020-d19f750b1916","kind":"quartier","name":"Sablons","cityCode":"92020","cityName":"Châtillon","sourceType":"iris","sourceIds":["920200111","920200112"],"colorIndex":8,"center":[2.2816439058411744,48.79910831]},"geometry":{"type":"MultiPolygon","coordinates":[[[[2.27138565,48.7949064],[2.27219293,48.79412524],[2.27246635,48.79423753],[2.27670767,48.79594517],[2.27852368,48.79555411],[2.27978929,48.79548799],[2.28025222,48.79558162],[2.28052542,48.79502023],[2.28104704,48.79510252],[2.28261987,48.79556168],[2.2844817,48.79589572],[2.28499729,48.7962199],[2.28522667,48.79627074],[2.2854221,48.79661278],[2.2865475,48.79614821],[2.28774359,48.79499242],[2.28805033,48.79675528],[2.28804125,48.79722112],[2.28789252,48.79764475],[2.28762734,48.79822149],[2.28740918,48.79844504],[2.28702011,48.79872243],[2.28679808,48.79912944],[2.28609276,48.79963339],[2.28580475,48.79978727],[2.28572157,48.79979666],[2.28575185,48.79987239],[2.2864678,48.8005818],[2.28662663,48.8008148],[2.28529721,48.80125745],[2.28489755,48.80141066],[2.28483542,48.80147325],[2.28458841,48.80151584],[2.28380514,48.80104976],[2.28366444,48.80098416],[2.28348767,48.80096781],[2.28337854,48.80088441],[2.28310765,48.80107885],[2.28277454,48.80124414],[2.28252901,48.80127775],[2.28037942,48.80086729],[2.27956227,48.80088575],[2.27880268,48.80107454],[2.27807502,48.80141462],[2.27754138,48.80150763],[2.27713304,48.80091066],[2.27667617,48.80047528],[2.27648836,48.80046965],[2.27642401,48.80020123],[2.2766426,48.80014679],[2.27647486,48.79908718],[2.27621863,48.79881311],[2.27562869,48.79894265],[2.27531966,48.79825543],[2.27637539,48.79771948],[2.27138565,48.7949064]]]]},"bbox":[2.27138565,48.79412524,2.28805033,48.80151584]},{"type":"Feature","id":"fr-quartier-92020-bbcda1ad58c7","properties":{"id":"fr-quartier-92020-bbcda1ad58c7","kind":"quartier","name":"Stade","cityCode":"92020","cityName":"Châtillon","sourceType":"iris","sourceIds":["920200105"],"colorIndex":9,"center":[2.286918936928725,48.808369639999995]},"geometry":{"type":"MultiPolygon","coordinates":[[[[2.28182371,48.81067493],[2.28325652,48.81055671],[2.28348305,48.81022439],[2.28481488,48.81061731],[2.28520439,48.81061334],[2.28735443,48.81012611],[2.28873324,48.80967204],[2.29043712,48.80894376],[2.29044996,48.80970202],[2.29200487,48.80971394],[2.2912598,48.80862755],[2.28815266,48.80811173],[2.28892367,48.80769],[2.28862205,48.80744177],[2.28913352,48.80707966],[2.28779181,48.80611831],[2.28711974,48.80557826],[2.28629121,48.80702045],[2.28602771,48.80776808],[2.28515962,48.80762078],[2.28492366,48.80755012],[2.28482663,48.80767545],[2.28182371,48.81067493]]]]},"bbox":[2.28182371,48.80557826,2.29200487,48.81067493]}]}