{"type":"FeatureCollection","metadata":{"sourceType":"iris","source":"IGN / INSEE — Contours IRIS 2026","sourceUrl":"https://data.geopf.fr/wfs/ows?service=WFS&version=2.0.0&request=GetFeature&typeNames=STATISTICALUNITS.IRIS%3Acontours_iris&outputFormat=application%2Fjson&srsName=CRS%3A84&count=1000&CQL_FILTER=code_insee%3D%2792046%27&sortBy=code_iris","retrievedDate":"2026-09-10","sourceYear":"2026","license":"Licence Ouverte 2.0"},"features":[{"type":"Feature","id":"fr-quartier-92046-2bd5fb5dde0b","properties":{"id":"fr-quartier-92046-2bd5fb5dde0b","kind":"quartier","name":"Centre","cityCode":"92046","cityName":"Malakoff","sourceType":"iris","sourceIds":["920460105"],"colorIndex":0,"center":[2.299979873957361,48.819500255]},"geometry":{"type":"MultiPolygon","coordinates":[[[[2.29412954,48.81944352],[2.29545902,48.82033636],[2.29894597,48.82325557],[2.30131542,48.82512576],[2.30209958,48.82495316],[2.30205995,48.82486119],[2.30231008,48.82449121],[2.30298486,48.82302465],[2.30318675,48.82269576],[2.30386549,48.82205125],[2.30613923,48.81955699],[2.3045012,48.81932082],[2.30343479,48.81921838],[2.29965935,48.81922511],[2.2962242,48.81924541],[2.29612527,48.81920885],[2.29591962,48.81920854],[2.29520444,48.81932035],[2.29485718,48.8193174],[2.29412954,48.81944352]]]]},"bbox":[2.29412954,48.81920854,2.30613923,48.82512576]},{"type":"Feature","id":"fr-quartier-92046-3313f01c2e21","properties":{"id":"fr-quartier-92046-3313f01c2e21","kind":"quartier","name":"Le Clos","cityCode":"92046","cityName":"Malakoff","sourceType":"iris","sourceIds":["920460111"],"colorIndex":1,"center":[2.2793502421440928,48.812545674999996]},"geometry":{"type":"MultiPolygon","coordinates":[[[[2.27991119,48.81091795],[2.27996626,48.81097314],[2.2784988,48.81142839],[2.27737479,48.81196033],[2.27595725,48.81244552],[2.27539068,48.81274429],[2.27450566,48.81341886],[2.27818333,48.81424878],[2.28127388,48.81480164],[2.28226446,48.81496228],[2.28224498,48.81479488],[2.28214603,48.81466207],[2.28175093,48.81427836],[2.28322781,48.81264583],[2.28217734,48.81228876],[2.28219346,48.81220522],[2.28325652,48.81055671],[2.28182371,48.81067493],[2.27991119,48.81091795]]]]},"bbox":[2.27450566,48.81055671,2.28325652,48.81496228]},{"type":"Feature","id":"fr-quartier-92046-f3013aa49615","properties":{"id":"fr-quartier-92046-f3013aa49615","kind":"quartier","name":"Le Fort","cityCode":"92046","cityName":"Malakoff","sourceType":"iris","sourceIds":["920460109"],"colorIndex":2,"center":[2.2897513512781584,48.81196319]},"geometry":{"type":"MultiPolygon","coordinates":[[[[2.29357648,48.81191146],[2.29200487,48.80971394],[2.29044996,48.80970202],[2.29043712,48.80894376],[2.28873324,48.80967204],[2.28735443,48.81012611],[2.28520439,48.81061334],[2.28686796,48.81343658],[2.28715568,48.81400671],[2.28757383,48.81440044],[2.28784984,48.8142339],[2.29071061,48.8130646],[2.29339672,48.81211276],[2.29342937,48.81201492],[2.29357648,48.81191146]]]]},"bbox":[2.28520439,48.80894376,2.29357648,48.81440044]},{"type":"Feature","id":"fr-quartier-92046-c836b47c9aa1","properties":{"id":"fr-quartier-92046-c836b47c9aa1","kind":"quartier","name":"Les Fosses Rouges","cityCode":"92046","cityName":"Malakoff","sourceType":"iris","sourceIds":["920460106"],"colorIndex":3,"center":[2.298930668315176,48.817346310000005]},"geometry":{"type":"MultiPolygon","coordinates":[[[[2.30286493,48.81763034],[2.30073106,48.8156815],[2.30030302,48.81540828],[2.29925609,48.814876],[2.29845754,48.81552068],[2.29724166,48.81489476],[2.29674969,48.81532447],[2.29610444,48.81601051],[2.29582057,48.8163569],[2.29540656,48.81706228],[2.29517563,48.81772377],[2.29511781,48.81807149],[2.2951005,48.81874773],[2.29520444,48.81932035],[2.29591962,48.81920854],[2.29612527,48.81920885],[2.2962242,48.81924541],[2.29965935,48.81922511],[2.30286493,48.81763034]]]]},"bbox":[2.2951005,48.814876,2.30286493,48.81932035]},{"type":"Feature","id":"fr-quartier-92046-c254bc90fd60","properties":{"id":"fr-quartier-92046-c254bc90fd60","kind":"quartier","name":"Les Groux","cityCode":"92046","cityName":"Malakoff","sourceType":"iris","sourceIds":["920460110"],"colorIndex":4,"center":[2.2849018313171205,48.814598309999994]},"geometry":{"type":"MultiPolygon","coordinates":[[[[2.28226446,48.81496228],[2.28526515,48.81561972],[2.28763009,48.81636324],[2.28788727,48.81637917],[2.28844425,48.81578259],[2.28826666,48.8158229],[2.28811839,48.81581033],[2.2871103,48.81543377],[2.28708632,48.81539496],[2.28730155,48.81529101],[2.28768941,48.81471232],[2.28774223,48.81453455],[2.28757383,48.81440044],[2.28715568,48.81400671],[2.28686796,48.81343658],[2.28520439,48.81061334],[2.28481488,48.81061731],[2.28348305,48.81022439],[2.28325652,48.81055671],[2.28219346,48.81220522],[2.28217734,48.81228876],[2.28322781,48.81264583],[2.28175093,48.81427836],[2.28214603,48.81466207],[2.28224498,48.81479488],[2.28226446,48.81496228]]]]},"bbox":[2.28175093,48.81022439,2.28844425,48.81637917]},{"type":"Feature","id":"fr-quartier-92046-0d118d5738ea","properties":{"id":"fr-quartier-92046-0d118d5738ea","kind":"quartier","name":"Les Nouzeaux","cityCode":"92046","cityName":"Malakoff","sourceType":"iris","sourceIds":["920460107"],"colorIndex":5,"center":[2.295706595774207,48.812672445]},"geometry":{"type":"MultiPolygon","coordinates":[[[[2.30048586,48.81172724],[2.30009769,48.81132654],[2.29968109,48.81091308],[2.29958075,48.81098264],[2.29801981,48.81212381],[2.29482332,48.81044112],[2.29383375,48.81191928],[2.29357648,48.81191146],[2.29342937,48.81201492],[2.29339672,48.81211276],[2.29071061,48.8130646],[2.28784984,48.8142339],[2.28757383,48.81440044],[2.2878791,48.8144841],[2.29053148,48.81572124],[2.29132114,48.81503609],[2.29252552,48.81560175],[2.2926042,48.81552397],[2.29345842,48.81590136],[2.29554723,48.81410951],[2.29724166,48.81489476],[2.30001135,48.81228029],[2.30048586,48.81172724]]]]},"bbox":[2.28757383,48.81044112,2.30048586,48.81590136]},{"type":"Feature","id":"fr-quartier-92046-cdfef974b122","properties":{"id":"fr-quartier-92046-cdfef974b122","kind":"quartier","name":"Les Pierres Plates","cityCode":"92046","cityName":"Malakoff","sourceType":"iris","sourceIds":["920460104"],"colorIndex":6,"center":[2.298298431490509,48.815068585000006]},"geometry":{"type":"MultiPolygon","coordinates":[[[[2.30581458,48.81621838],[2.30440035,48.81524241],[2.3024965,48.81371315],[2.30048586,48.81172724],[2.30001135,48.81228029],[2.29724166,48.81489476],[2.29845754,48.81552068],[2.29925609,48.814876],[2.30030302,48.81540828],[2.30073106,48.8156815],[2.30286493,48.81763034],[2.30581458,48.81621838]]]]},"bbox":[2.29724166,48.81172724,2.30581458,48.81763034]},{"type":"Feature","id":"fr-quartier-92046-dcb55e27188a","properties":{"id":"fr-quartier-92046-dcb55e27188a","kind":"quartier","name":"Les Sablonnières","cityCode":"92046","cityName":"Malakoff","sourceType":"iris","sourceIds":["920460108"],"colorIndex":7,"center":[2.2882322014075376,48.81579646]},"geometry":{"type":"MultiPolygon","coordinates":[[[[2.28763009,48.81636324],[2.28902994,48.81687523],[2.29221928,48.8182972],[2.29412954,48.81944352],[2.29485718,48.8193174],[2.29520444,48.81932035],[2.2951005,48.81874773],[2.29511781,48.81807149],[2.29517563,48.81772377],[2.29540656,48.81706228],[2.29582057,48.8163569],[2.29610444,48.81601051],[2.29674969,48.81532447],[2.29724166,48.81489476],[2.29554723,48.81410951],[2.29345842,48.81590136],[2.2926042,48.81552397],[2.29252552,48.81560175],[2.29132114,48.81503609],[2.29053148,48.81572124],[2.2878791,48.8144841],[2.28757383,48.81440044],[2.28774223,48.81453455],[2.28768941,48.81471232],[2.28730155,48.81529101],[2.28708632,48.81539496],[2.2871103,48.81543377],[2.28811839,48.81581033],[2.28826666,48.8158229],[2.28844425,48.81578259],[2.28788727,48.81637917],[2.28763009,48.81636324]]]]},"bbox":[2.28708632,48.81410951,2.29724166,48.81944352]},{"type":"Feature","id":"fr-quartier-92046-c1e58600b23f","properties":{"id":"fr-quartier-92046-c1e58600b23f","kind":"quartier","name":"Nord","cityCode":"92046","cityName":"Malakoff","sourceType":"iris","sourceIds":["920460102"],"colorIndex":8,"center":[2.303987600498396,48.823010260000004]},"geometry":{"type":"MultiPolygon","coordinates":[[[[2.30209958,48.82495316],[2.30406672,48.82452663],[2.30476572,48.82328235],[2.30499292,48.82299587],[2.3060721,48.82347521],[2.3068634,48.82388992],[2.30695904,48.82386799],[2.30789093,48.82272218],[2.30903894,48.82335389],[2.31154237,48.82150121],[2.30960816,48.82058617],[2.30871251,48.82013401],[2.30861989,48.82003184],[2.30722508,48.81973506],[2.30613923,48.81955699],[2.30386549,48.82205125],[2.30318675,48.82269576],[2.30298486,48.82302465],[2.30231008,48.82449121],[2.30205995,48.82486119],[2.30209958,48.82495316]]]]},"bbox":[2.30205995,48.81955699,2.31154237,48.82495316]},{"type":"Feature","id":"fr-quartier-92046-5f17a32eadb3","properties":{"id":"fr-quartier-92046-5f17a32eadb3","kind":"quartier","name":"Petit Vanves","cityCode":"92046","cityName":"Malakoff","sourceType":"iris","sourceIds":["920460103"],"colorIndex":9,"center":[2.3077752299442453,48.819438905]},"geometry":{"type":"MultiPolygon","coordinates":[[[[2.31225919,48.82095491],[2.30965357,48.81900802],[2.30586855,48.81625646],[2.30581458,48.81621838],[2.30286493,48.81763034],[2.29965935,48.81922511],[2.30343479,48.81921838],[2.3045012,48.81932082],[2.30613923,48.81955699],[2.30722508,48.81973506],[2.30861989,48.82003184],[2.30871251,48.82013401],[2.30960816,48.82058617],[2.31154237,48.82150121],[2.31225919,48.82095491]]]]},"bbox":[2.29965935,48.81621838,2.31225919,48.82150121]},{"type":"Feature","id":"fr-quartier-92046-77147dfd6c41","properties":{"id":"fr-quartier-92046-77147dfd6c41","kind":"quartier","name":"Renovation","cityCode":"92046","cityName":"Malakoff","sourceType":"iris","sourceIds":["920460101"],"colorIndex":10,"center":[2.3116733085032823,48.82250636]},"geometry":{"type":"MultiPolygon","coordinates":[[[[2.30834832,48.82356305],[2.3141457,48.82229054],[2.31225919,48.82095491],[2.31154237,48.82150121],[2.30903894,48.82335389],[2.30789093,48.82272218],[2.30695904,48.82386799],[2.30834832,48.82356305]]],[[[2.3068634,48.82388992],[2.3060721,48.82347521],[2.30499292,48.82299587],[2.30476572,48.82328235],[2.30406672,48.82452663],[2.3068634,48.82388992]]]]},"bbox":[2.30406672,48.82095491,2.3141457,48.82452663]}]}