{"type":"FeatureCollection","metadata":{"sourceType":"iris","source":"IGN / INSEE — Contours IRIS 2026","sourceUrl":"https://data.geopf.fr/wfs/ows?service=WFS&version=2.0.0&request=GetFeature&typeNames=STATISTICALUNITS.IRIS%3Acontours_iris&outputFormat=application%2Fjson&srsName=CRS%3A84&count=1000&CQL_FILTER=code_insee%3D%2792051%27&sortBy=code_iris","retrievedDate":"2026-09-10","sourceYear":"2026","license":"Licence Ouverte 2.0"},"features":[{"type":"Feature","id":"fr-quartier-92051-bec18c6c5d34","properties":{"id":"fr-quartier-92051-bec18c6c5d34","kind":"quartier","name":"Charles Laffitte","cityCode":"92051","cityName":"Neuilly-sur-Seine","sourceType":"iris","sourceIds":["920510201","920510202"],"colorIndex":0,"center":[2.268673616294207,48.879894785]},"geometry":{"type":"MultiPolygon","coordinates":[[[[2.26154203,48.88000157],[2.27075012,48.87883401],[2.27748703,48.87796832],[2.27946995,48.87853157],[2.27994933,48.87857312],[2.27995964,48.87861635],[2.27917598,48.87888594],[2.27835352,48.87910132],[2.27548074,48.88006785],[2.27530738,48.879788],[2.27438573,48.88007381],[2.27412461,48.88002456],[2.27390506,48.88002592],[2.27167083,48.88027226],[2.27155226,48.88026794],[2.26220153,48.88138162],[2.26209807,48.88136929],[2.26154203,48.88000157]]]]},"bbox":[2.26154203,48.87796832,2.27995964,48.88138162]},{"type":"Feature","id":"fr-quartier-92051-6341c0435f04","properties":{"id":"fr-quartier-92051-6341c0435f04","kind":"quartier","name":"Parc de Neuilly","cityCode":"92051","cityName":"Neuilly-sur-Seine","sourceType":"iris","sourceIds":["920510401","920510402","920510403","920510404","920510405","920510406","920510407","920510408","920510409","920510410","920510411"],"colorIndex":1,"center":[2.2552599848430597,48.88678969]},"geometry":{"type":"MultiPolygon","coordinates":[[[[2.25376102,48.88689172],[2.25600222,48.8861826],[2.25654372,48.88693961],[2.2570492,48.88735464],[2.25807045,48.88832596],[2.25918236,48.88915843],[2.26275728,48.8870104],[2.26377944,48.88763454],[2.26773899,48.88507323],[2.26884856,48.88598114],[2.27277648,48.88389972],[2.27310204,48.88392508],[2.2733661,48.88386283],[2.27357015,48.88370309],[2.27357778,48.88354665],[2.27351572,48.88340148],[2.27580006,48.8828937],[2.27719148,48.88256216],[2.2773275,48.88258636],[2.27737884,48.88252282],[2.2801968,48.88187878],[2.28066877,48.8817683],[2.28089735,48.88279222],[2.28110801,48.88304081],[2.2845382,48.8855741],[2.28445957,48.88563928],[2.28336646,48.88668766],[2.28074159,48.88913339],[2.27767594,48.89207104],[2.27712306,48.89269723],[2.27641967,48.89325956],[2.27625106,48.89341862],[2.27313248,48.89639899],[2.27284901,48.89667427],[2.27106396,48.89839821],[2.26791371,48.89718649],[2.26515339,48.89589974],[2.2633447,48.8948436],[2.25911264,48.89108707],[2.25683187,48.88958724],[2.25435276,48.88766164],[2.25376102,48.88689172]]]]},"bbox":[2.25376102,48.8817683,2.2845382,48.89839821]},{"type":"Feature","id":"fr-quartier-92051-19ee8a2a35d6","properties":{"id":"fr-quartier-92051-19ee8a2a35d6","kind":"quartier","name":"Plaine des Sablons","cityCode":"92051","cityName":"Neuilly-sur-Seine","sourceType":"iris","sourceIds":["920510301","920510302","920510303","920510304","920510305","920510306","920510307","920510308","920510309"],"colorIndex":2,"center":[2.266712666910574,48.88332806]},"geometry":{"type":"MultiPolygon","coordinates":[[[[2.25514044,48.8847464],[2.25531759,48.88475559],[2.25558589,48.88487507],[2.25651213,48.88456786],[2.25800257,48.88380637],[2.25982135,48.88325464],[2.26044345,48.88275486],[2.26192258,48.88143656],[2.26209807,48.88136929],[2.26220153,48.88138162],[2.27155226,48.88026794],[2.27167083,48.88027226],[2.27390506,48.88002592],[2.27412461,48.88002456],[2.27438573,48.88007381],[2.27530738,48.879788],[2.27548074,48.88006785],[2.27835352,48.87910132],[2.27917598,48.87888594],[2.27995964,48.87861635],[2.28066877,48.8817683],[2.2801968,48.88187878],[2.27737884,48.88252282],[2.2773275,48.88258636],[2.27719148,48.88256216],[2.27580006,48.8828937],[2.27351572,48.88340148],[2.27357778,48.88354665],[2.27357015,48.88370309],[2.2733661,48.88386283],[2.27310204,48.88392508],[2.27277648,48.88389972],[2.26884856,48.88598114],[2.26773899,48.88507323],[2.26377944,48.88763454],[2.26275728,48.8870104],[2.25918236,48.88915843],[2.25807045,48.88832596],[2.2570492,48.88735464],[2.25654372,48.88693961],[2.25600222,48.8861826],[2.25539887,48.88536585],[2.25514044,48.8847464]]]]},"bbox":[2.25514044,48.87861635,2.28066877,48.88915843]},{"type":"Feature","id":"fr-quartier-92051-a8b827db5746","properties":{"id":"fr-quartier-92051-a8b827db5746","kind":"quartier","name":"Saint-James","cityCode":"92051","cityName":"Neuilly-sur-Seine","sourceType":"iris","sourceIds":["920510101"],"colorIndex":3,"center":[2.254092394646164,48.876909475000005]},"geometry":{"type":"MultiPolygon","coordinates":[[[[2.25846717,48.88038726],[2.25605716,48.87555992],[2.25387274,48.87604906],[2.2530384,48.87604206],[2.25213551,48.87625227],[2.25203001,48.87628758],[2.25193536,48.87661255],[2.25182187,48.87672966],[2.25108588,48.87708929],[2.2528552,48.87911847],[2.2541306,48.8807974],[2.25462294,48.88136346],[2.25532057,48.88216282],[2.25585037,48.88125418],[2.25865015,48.88103952],[2.25846717,48.88038726]]]]},"bbox":[2.25108588,48.87555992,2.25865015,48.88216282]},{"type":"Feature","id":"fr-quartier-92051-924e22b695ba","properties":{"id":"fr-quartier-92051-924e22b695ba","kind":"quartier","name":"Saint-James Madrid","cityCode":"92051","cityName":"Neuilly-sur-Seine","sourceType":"iris","sourceIds":["920510102","920510103","920510104"],"colorIndex":4,"center":[2.252667479822663,48.881105245]},"geometry":{"type":"MultiPolygon","coordinates":[[[[2.24570379,48.87645923],[2.24639778,48.87617761],[2.25481714,48.87408088],[2.25541034,48.87426354],[2.25605716,48.87555992],[2.25387274,48.87604906],[2.2530384,48.87604206],[2.25213551,48.87625227],[2.25203001,48.87628758],[2.25193536,48.87661255],[2.25182187,48.87672966],[2.25108588,48.87708929],[2.2528552,48.87911847],[2.2541306,48.8807974],[2.25462294,48.88136346],[2.25532057,48.88216282],[2.25585037,48.88125418],[2.25865015,48.88103952],[2.25846717,48.88038726],[2.26154203,48.88000157],[2.26209807,48.88136929],[2.26192258,48.88143656],[2.26044345,48.88275486],[2.25982135,48.88325464],[2.25800257,48.88380637],[2.25651213,48.88456786],[2.25558589,48.88487507],[2.25531759,48.88475559],[2.25514044,48.8847464],[2.25539887,48.88536585],[2.25600222,48.8861826],[2.25376102,48.88689172],[2.25247602,48.88549153],[2.25439242,48.88489193],[2.25193591,48.88207966],[2.25101627,48.88117097],[2.24803956,48.87871509],[2.24570379,48.87645923]]]]},"bbox":[2.24570379,48.87408088,2.26209807,48.88689172]}]}