{"type":"FeatureCollection","metadata":{"sourceType":"iris","source":"IGN / INSEE — Contours IRIS 2026","sourceUrl":"https://data.geopf.fr/wfs/ows?service=WFS&version=2.0.0&request=GetFeature&typeNames=STATISTICALUNITS.IRIS%3Acontours_iris&outputFormat=application%2Fjson&srsName=CRS%3A84&count=1000&CQL_FILTER=code_insee%3D%2792064%27&sortBy=code_iris","retrievedDate":"2026-09-10","sourceYear":"2026","license":"Licence Ouverte 2.0"},"features":[{"type":"Feature","id":"fr-quartier-92064-2bd5fb5dde0b","properties":{"id":"fr-quartier-92064-2bd5fb5dde0b","kind":"quartier","name":"Centre","cityCode":"92064","cityName":"Saint-Cloud","sourceType":"iris","sourceIds":["920640106","920640112"],"colorIndex":0,"center":[2.2100752575139415,48.839620815]},"geometry":{"type":"MultiPolygon","coordinates":[[[[2.18079668,48.83062426],[2.18477744,48.82887066],[2.1849871,48.82922735],[2.18615773,48.82884859],[2.186723,48.82876429],[2.18751824,48.82887133],[2.18755926,48.82877447],[2.18833041,48.8289407],[2.18901272,48.82921425],[2.19011779,48.82937103],[2.19103526,48.82923964],[2.19324141,48.82937146],[2.19375374,48.82962764],[2.19398409,48.82953116],[2.19427181,48.82942428],[2.1968896,48.82980704],[2.19826927,48.82973805],[2.19943327,48.82978542],[2.20058333,48.82985337],[2.20694374,48.82886591],[2.21102708,48.82764637],[2.21407687,48.82765746],[2.21806314,48.82744345],[2.21857018,48.82696919],[2.218432,48.82673624],[2.21888704,48.82636777],[2.21943218,48.82662226],[2.22164782,48.82702793],[2.22082832,48.82845082],[2.2216765,48.82921273],[2.22190679,48.82920794],[2.22207415,48.82931245],[2.22379143,48.82971215],[2.22286354,48.83073052],[2.22243023,48.8314679],[2.22242315,48.83194273],[2.22221349,48.83229932],[2.22217176,48.83263092],[2.22209348,48.8354113],[2.22404969,48.8351497],[2.22345606,48.83585636],[2.22311726,48.83655837],[2.22293803,48.83797913],[2.22293498,48.83891536],[2.2230399,48.83964544],[2.22359353,48.84126162],[2.22536961,48.84653357],[2.22529189,48.8466284],[2.22390923,48.84650522],[2.22367416,48.84655136],[2.22229607,48.84648755],[2.22195567,48.84656088],[2.22174127,48.8466827],[2.22151487,48.84696903],[2.22138024,48.84731531],[2.22099473,48.84894696],[2.2209376,48.84903113],[2.2209824,48.84913395],[2.22030111,48.84912771],[2.22029617,48.84927608],[2.21904348,48.84929669],[2.21905261,48.84959714],[2.21929657,48.85014105],[2.21780786,48.85017809],[2.21757153,48.8506694],[2.21728439,48.85064234],[2.21763695,48.84867233],[2.21767474,48.84733521],[2.21756972,48.84661502],[2.21709379,48.84509646],[2.21752011,48.84501831],[2.21745103,48.84471837],[2.2173884,48.84426107],[2.21741542,48.84373242],[2.21735162,48.84362498],[2.21723023,48.84354234],[2.21643326,48.84335095],[2.21519204,48.84316204],[2.2139649,48.84303436],[2.21145329,48.8427867],[2.21174518,48.84159604],[2.21110436,48.84153336],[2.21082747,48.84272231],[2.20964391,48.84259758],[2.21008804,48.84125414],[2.21003717,48.84119445],[2.20960775,48.84111876],[2.20974322,48.84063129],[2.20772463,48.84022761],[2.20730341,48.84024011],[2.20715968,48.84028413],[2.2068922,48.83986414],[2.20647859,48.83982542],[2.20431834,48.83977959],[2.19782075,48.83967504],[2.19679327,48.83959619],[2.19581144,48.83947268],[2.19442445,48.83920522],[2.1931773,48.83888293],[2.18670346,48.83691531],[2.18631107,48.83647914],[2.18530492,48.83390724],[2.18079668,48.83062426]]]]},"bbox":[2.18079668,48.82636777,2.22536961,48.8506694]},{"type":"Feature","id":"fr-quartier-92064-ea58f1253053","properties":{"id":"fr-quartier-92064-ea58f1253053","kind":"quartier","name":"Coteaux","cityCode":"92064","cityName":"Saint-Cloud","sourceType":"iris","sourceIds":["920640104","920640105"],"colorIndex":1,"center":[2.221938064803504,48.85015957]},"geometry":{"type":"MultiPolygon","coordinates":[[[[2.21642755,48.85823099],[2.21676052,48.85403403],[2.21686607,48.8533584],[2.21698317,48.85336546],[2.21736558,48.85122476],[2.21746602,48.85116157],[2.21743529,48.85103006],[2.21757153,48.8506694],[2.21780786,48.85017809],[2.21929657,48.85014105],[2.21905261,48.84959714],[2.21904348,48.84929669],[2.22029617,48.84927608],[2.22030111,48.84912771],[2.2209824,48.84913395],[2.2209376,48.84903113],[2.22099473,48.84894696],[2.22138024,48.84731531],[2.22151487,48.84696903],[2.22174127,48.8466827],[2.22195567,48.84656088],[2.22229607,48.84648755],[2.22367416,48.84655136],[2.22390923,48.84650522],[2.22529189,48.8466284],[2.22536961,48.84653357],[2.22552891,48.84764263],[2.2254832,48.84970999],[2.22433521,48.85295017],[2.22421911,48.85351692],[2.22440745,48.85615418],[2.22567029,48.85940456],[2.22426057,48.85961128],[2.22149526,48.85995756],[2.22021417,48.85994652],[2.21875633,48.8598147],[2.21660573,48.85979705],[2.21644998,48.85882381],[2.21642755,48.85823099]]]]},"bbox":[2.21642755,48.84648755,2.22567029,48.85995756]},{"type":"Feature","id":"fr-quartier-92064-90aa6920930d","properties":{"id":"fr-quartier-92064-90aa6920930d","kind":"quartier","name":"Fouilleuse","cityCode":"92064","cityName":"Saint-Cloud","sourceType":"iris","sourceIds":["920640101"],"colorIndex":2,"center":[2.205956172725241,48.856981274999995]},"geometry":{"type":"MultiPolygon","coordinates":[[[[2.20549727,48.85182287],[2.20396932,48.85219405],[2.20144199,48.85312424],[2.19970923,48.85404801],[2.19788168,48.85475077],[2.19871901,48.8551611],[2.19883861,48.85535976],[2.20076863,48.85704009],[2.20182324,48.85750671],[2.20254622,48.85844687],[2.20355829,48.86062827],[2.20526555,48.86031405],[2.20584501,48.86030351],[2.21002779,48.86096075],[2.2123964,48.8616185],[2.21262569,48.86168926],[2.21369363,48.85938852],[2.21185111,48.85882869],[2.21157115,48.85868474],[2.21134499,48.85849799],[2.21106628,48.85809143],[2.21097998,48.8577599],[2.21101774,48.85751642],[2.21123254,48.85692246],[2.21123186,48.85678755],[2.2124921,48.85312283],[2.21262245,48.85252381],[2.21226262,48.85252594],[2.21187587,48.85241637],[2.21146564,48.85241726],[2.20586097,48.85290723],[2.20549727,48.85182287]]]]},"bbox":[2.19788168,48.85182287,2.21369363,48.86168926]},{"type":"Feature","id":"fr-quartier-92064-f710753b34e3","properties":{"id":"fr-quartier-92064-f710753b34e3","kind":"quartier","name":"Montretout","cityCode":"92064","cityName":"Saint-Cloud","sourceType":"iris","sourceIds":["920640107","920640108","920640109"],"colorIndex":3,"center":[2.2076603627679816,48.846299290000005]},"geometry":{"type":"MultiPolygon","coordinates":[[[[2.19782057,48.84650312],[2.19790905,48.84588944],[2.20083976,48.84582721],[2.20722934,48.84609546],[2.20866747,48.84597278],[2.20970445,48.84606327],[2.21120559,48.84591849],[2.21218236,48.84575584],[2.21335133,48.84549822],[2.21307409,48.84526885],[2.21320559,48.8448623],[2.2134922,48.84447116],[2.2139649,48.84303436],[2.21519204,48.84316204],[2.21643326,48.84335095],[2.21723023,48.84354234],[2.21735162,48.84362498],[2.21741542,48.84373242],[2.2173884,48.84426107],[2.21745103,48.84471837],[2.21752011,48.84501831],[2.21709379,48.84509646],[2.21756972,48.84661502],[2.21767474,48.84733521],[2.21763695,48.84867233],[2.21728439,48.85064234],[2.21704473,48.85062908],[2.21689706,48.85020811],[2.21379807,48.84939634],[2.21262245,48.85252381],[2.21226262,48.85252594],[2.21187587,48.85241637],[2.21146564,48.85241726],[2.20586097,48.85290723],[2.20549727,48.85182287],[2.20515324,48.85105792],[2.2038778,48.85042348],[2.20174121,48.84951616],[2.20102484,48.84904281],[2.1990051,48.84789879],[2.19802287,48.84743713],[2.19789413,48.84730136],[2.19782057,48.84650312]]]]},"bbox":[2.19782057,48.84303436,2.21767474,48.85290723]},{"type":"Feature","id":"fr-quartier-92064-39258354b12f","properties":{"id":"fr-quartier-92064-39258354b12f","kind":"quartier","name":"Pasteur","cityCode":"92064","cityName":"Saint-Cloud","sourceType":"iris","sourceIds":["920640110","920640111"],"colorIndex":4,"center":[2.2036337657349625,48.841224295]},"geometry":{"type":"MultiPolygon","coordinates":[[[[2.18670346,48.83691531],[2.1931773,48.83888293],[2.19442445,48.83920522],[2.19581144,48.83947268],[2.19679327,48.83959619],[2.19782075,48.83967504],[2.20431834,48.83977959],[2.20647859,48.83982542],[2.2068922,48.83986414],[2.20715968,48.84028413],[2.20730341,48.84024011],[2.20772463,48.84022761],[2.20974322,48.84063129],[2.20960775,48.84111876],[2.21003717,48.84119445],[2.21008804,48.84125414],[2.20964391,48.84259758],[2.21082747,48.84272231],[2.21110436,48.84153336],[2.21174518,48.84159604],[2.21145329,48.8427867],[2.2139649,48.84303436],[2.2134922,48.84447116],[2.21320559,48.8448623],[2.21307409,48.84526885],[2.21335133,48.84549822],[2.21218236,48.84575584],[2.21120559,48.84591849],[2.20970445,48.84606327],[2.20866747,48.84597278],[2.20722934,48.84609546],[2.20083976,48.84582721],[2.19790905,48.84588944],[2.19838958,48.84477024],[2.19891681,48.8441568],[2.19908998,48.84281968],[2.19882164,48.84148411],[2.19831404,48.84144293],[2.19385978,48.84056488],[2.19188634,48.83998136],[2.18992354,48.83959214],[2.18866308,48.83925083],[2.18756608,48.83891331],[2.18817115,48.83838048],[2.18721529,48.83773003],[2.18742513,48.83755428],[2.18670346,48.83691531]]]]},"bbox":[2.18670346,48.83691531,2.2139649,48.84609546]},{"type":"Feature","id":"fr-quartier-92064-1dfb4032ca75","properties":{"id":"fr-quartier-92064-1dfb4032ca75","kind":"quartier","name":"Val d'Or","cityCode":"92064","cityName":"Saint-Cloud","sourceType":"iris","sourceIds":["920640102","920640103"],"colorIndex":5,"center":[2.2138844575699377,48.856855005]},"geometry":{"type":"MultiPolygon","coordinates":[[[[2.21097998,48.8577599],[2.21101774,48.85751642],[2.21123254,48.85692246],[2.21123186,48.85678755],[2.2124921,48.85312283],[2.21262245,48.85252381],[2.21379807,48.84939634],[2.21689706,48.85020811],[2.21704473,48.85062908],[2.21728439,48.85064234],[2.21757153,48.8506694],[2.21743529,48.85103006],[2.21746602,48.85116157],[2.21736558,48.85122476],[2.21698317,48.85336546],[2.21686607,48.8533584],[2.21676052,48.85403403],[2.21642755,48.85823099],[2.21644998,48.85882381],[2.21660573,48.85979705],[2.21527748,48.85965883],[2.21385848,48.85930327],[2.21372105,48.85928797],[2.21369363,48.85938852],[2.21185111,48.85882869],[2.21157115,48.85868474],[2.21134499,48.85849799],[2.21106628,48.85809143],[2.21097998,48.8577599]]]]},"bbox":[2.21097998,48.84939634,2.21757153,48.85979705]}]}