{"type":"FeatureCollection","metadata":{"sourceType":"iris","source":"IGN / INSEE — Contours IRIS 2026","sourceUrl":"https://data.geopf.fr/wfs/ows?service=WFS&version=2.0.0&request=GetFeature&typeNames=STATISTICALUNITS.IRIS%3Acontours_iris&outputFormat=application%2Fjson&srsName=CRS%3A84&count=1000&CQL_FILTER=code_insee%3D%2792077%27&sortBy=code_iris","retrievedDate":"2026-09-10","sourceYear":"2026","license":"Licence Ouverte 2.0"},"features":[{"type":"Feature","id":"fr-quartier-92077-7e90a91a5243","properties":{"id":"fr-quartier-92077-7e90a91a5243","kind":"quartier","name":"Centre-La Prairie","cityCode":"92077","cityName":"Ville-d'Avray","sourceType":"iris","sourceIds":["920770105"],"colorIndex":0,"center":[2.1884036013261916,48.826147245]},"geometry":{"type":"MultiPolygon","coordinates":[[[[2.19398409,48.82953116],[2.19427181,48.82942428],[2.19445906,48.82938416],[2.19449373,48.82934483],[2.1947592,48.82838517],[2.19459853,48.82838049],[2.19493618,48.82777477],[2.19512495,48.82613555],[2.19208517,48.82627515],[2.19205837,48.82615894],[2.19192225,48.82606449],[2.19151495,48.82536291],[2.1914393,48.82514654],[2.19146374,48.82488858],[2.19182179,48.82393404],[2.19110547,48.82366118],[2.1913665,48.8229902],[2.19110582,48.82293627],[2.19043769,48.82263135],[2.19006756,48.82252092],[2.18953021,48.8224777],[2.18909005,48.82257905],[2.1888066,48.8227633],[2.18780452,48.82369907],[2.18731477,48.82444673],[2.18679088,48.82493694],[2.18689869,48.82501142],[2.18674508,48.82525321],[2.18646273,48.82554],[2.18607525,48.82584226],[2.18587936,48.82591287],[2.18476659,48.82607978],[2.18475848,48.82668591],[2.18483749,48.82686003],[2.1851263,48.82703199],[2.18553402,48.82717957],[2.18870552,48.82698347],[2.18891562,48.82766304],[2.18929555,48.82793363],[2.18947888,48.82788271],[2.1902548,48.82800489],[2.19133378,48.8279978],[2.19136184,48.82847197],[2.19252953,48.82863095],[2.19293094,48.82874789],[2.19339269,48.82901452],[2.19398409,48.82953116]]]]},"bbox":[2.18475848,48.8224777,2.19512495,48.82953116]},{"type":"Feature","id":"fr-quartier-92077-739fd49b0eda","properties":{"id":"fr-quartier-92077-739fd49b0eda","kind":"quartier","name":"Côte d'Argent-Desvallières-Gambetta","cityCode":"92077","cityName":"Ville-d'Avray","sourceType":"iris","sourceIds":["920770104"],"colorIndex":1,"center":[2.1956096863739445,48.8239779]},"geometry":{"type":"MultiPolygon","coordinates":[[[[2.19427181,48.82942428],[2.1968896,48.82980704],[2.19826927,48.82973805],[2.19943327,48.82978542],[2.19820551,48.82600065],[2.20096801,48.82590852],[2.20085935,48.82402176],[2.19941937,48.82403731],[2.19939262,48.82373944],[2.19839391,48.82375793],[2.19849567,48.82316411],[2.19885908,48.82220599],[2.19651944,48.82200502],[2.195093,48.82176428],[2.19420599,48.82178529],[2.19418942,48.82188771],[2.19478907,48.82213009],[2.19527409,48.82238608],[2.19563948,48.82262778],[2.1957421,48.82277417],[2.19508895,48.82326175],[2.19492757,48.82356915],[2.19445279,48.82344274],[2.1925267,48.82309697],[2.1913665,48.8229902],[2.19110547,48.82366118],[2.19182179,48.82393404],[2.19146374,48.82488858],[2.1914393,48.82514654],[2.19151495,48.82536291],[2.19192225,48.82606449],[2.19205837,48.82615894],[2.19208517,48.82627515],[2.19512495,48.82613555],[2.19493618,48.82777477],[2.19459853,48.82838049],[2.1947592,48.82838517],[2.19449373,48.82934483],[2.19445906,48.82938416],[2.19427181,48.82942428]]]]},"bbox":[2.19110547,48.82176428,2.20096801,48.82980704]},{"type":"Feature","id":"fr-quartier-92077-4844e7b8fb52","properties":{"id":"fr-quartier-92077-4844e7b8fb52","kind":"quartier","name":"Forêt de Fausses Reposes","cityCode":"92077","cityName":"Ville-d'Avray","sourceType":"iris","sourceIds":["920770101"],"colorIndex":2,"center":[2.157681745903824,48.819805585]},"geometry":{"type":"MultiPolygon","coordinates":[[[[2.17674337,48.81400884],[2.17481528,48.81510991],[2.16931549,48.81591277],[2.16767064,48.8130772],[2.16653231,48.81230027],[2.16272809,48.81242929],[2.16204412,48.81253512],[2.16127754,48.81278158],[2.16049114,48.81307467],[2.15986076,48.81348846],[2.15854304,48.81396128],[2.15734439,48.81456533],[2.15449291,48.8160607],[2.154304,48.81612052],[2.15323869,48.81613906],[2.15163984,48.81697407],[2.15122588,48.81763939],[2.15082133,48.81797739],[2.15074729,48.81884389],[2.1513173,48.81963761],[2.15186803,48.82011011],[2.15261621,48.82100492],[2.15330833,48.82141186],[2.15367907,48.82147924],[2.15464976,48.82142315],[2.15597933,48.8214937],[2.15631587,48.82140254],[2.1573002,48.8209238],[2.15821326,48.820977],[2.15890492,48.82082357],[2.15914415,48.82085404],[2.15959982,48.8210605],[2.16063046,48.82252477],[2.16176985,48.8236678],[2.16246062,48.82365646],[2.16400392,48.82322925],[2.16487133,48.82315886],[2.1672962,48.82339253],[2.17387685,48.82431418],[2.17556878,48.82628384],[2.17600516,48.8259082],[2.17668885,48.82669179],[2.17768265,48.82647018],[2.17794817,48.82630382],[2.17853535,48.82673057],[2.17878567,48.82675117],[2.17957127,48.82651553],[2.18080277,48.82685585],[2.18104883,48.82680087],[2.18188532,48.82540444],[2.18165016,48.82537315],[2.18178524,48.82501162],[2.18079716,48.82426555],[2.18030015,48.82382234],[2.17987562,48.8232744],[2.17930137,48.82272003],[2.17819712,48.8221764],[2.17748797,48.82188732],[2.17681889,48.82156163],[2.17611451,48.82131574],[2.17583103,48.82124093],[2.17431568,48.82111716],[2.17406852,48.82107138],[2.17414026,48.82101341],[2.17220416,48.82054043],[2.17188102,48.82056158],[2.17040337,48.82029591],[2.17004955,48.81993459],[2.16854244,48.81955357],[2.16850231,48.81950832],[2.1677468,48.81939783],[2.1677741,48.81930898],[2.16612355,48.81904205],[2.16608061,48.82010934],[2.16534994,48.82006377],[2.16381873,48.81982822],[2.16585918,48.81837015],[2.16215534,48.81705541],[2.16280941,48.81694937],[2.16376893,48.81605488],[2.16424364,48.81643145],[2.16474623,48.8166841],[2.16526116,48.81684599],[2.16537776,48.8167092],[2.16551641,48.81672545],[2.1655869,48.81666119],[2.16601841,48.81684498],[2.16620044,48.81670414],[2.16684449,48.81722399],[2.16723842,48.81762967],[2.16739252,48.81787268],[2.16782132,48.81822733],[2.16775902,48.81829075],[2.16808881,48.81862043],[2.16800758,48.81867473],[2.16821035,48.81885602],[2.17038446,48.81763265],[2.17127402,48.81890428],[2.17152831,48.81910121],[2.17249939,48.81961699],[2.17307031,48.81985928],[2.17349965,48.82001155],[2.17477743,48.82034146],[2.17537828,48.82041486],[2.17699377,48.82014718],[2.17817492,48.81978295],[2.1788799,48.81947121],[2.17936333,48.81930274],[2.17982576,48.81925735],[2.18018645,48.81935875],[2.18083612,48.81961864],[2.18137286,48.82004503],[2.18149083,48.82007821],[2.18197021,48.82016784],[2.18240289,48.82019598],[2.18375841,48.82008832],[2.18468309,48.82044449],[2.18480813,48.82046154],[2.18816742,48.82051227],[2.18919097,48.82046885],[2.19086794,48.82053507],[2.18721889,48.81871423],[2.18629657,48.81812065],[2.18493376,48.81765267],[2.18410392,48.8175049],[2.18343667,48.81749855],[2.18310003,48.81751424],[2.18198717,48.81787179],[2.18156871,48.81780686],[2.17921609,48.81541812],[2.17852221,48.81485662],[2.17674337,48.81400884]]]]},"bbox":[2.15074729,48.81230027,2.19086794,48.82685585]},{"type":"Feature","id":"fr-quartier-92077-4c66f9adf76d","properties":{"id":"fr-quartier-92077-4c66f9adf76d","kind":"quartier","name":"La Ronce","cityCode":"92077","cityName":"Ville-d'Avray","sourceType":"iris","sourceIds":["920770103"],"colorIndex":3,"center":[2.18669181085008,48.822502315]},"geometry":{"type":"MultiPolygon","coordinates":[[[[2.19420599,48.82178529],[2.19386104,48.82180815],[2.1932045,48.82163373],[2.19086794,48.82053507],[2.18919097,48.82046885],[2.18816742,48.82051227],[2.18480813,48.82046154],[2.1847948,48.82070428],[2.18427097,48.82180067],[2.18416725,48.82207518],[2.18413572,48.82234928],[2.18347983,48.82222249],[2.18393339,48.82248371],[2.1846314,48.82296605],[2.18632905,48.82459203],[2.18679088,48.82493694],[2.18731477,48.82444673],[2.18780452,48.82369907],[2.1888066,48.8227633],[2.18909005,48.82257905],[2.18953021,48.8224777],[2.19006756,48.82252092],[2.19043769,48.82263135],[2.19110582,48.82293627],[2.1913665,48.8229902],[2.1925267,48.82309697],[2.19445279,48.82344274],[2.19492757,48.82356915],[2.19508895,48.82326175],[2.1957421,48.82277417],[2.19563948,48.82262778],[2.19527409,48.82238608],[2.19478907,48.82213009],[2.19418942,48.82188771],[2.19420599,48.82178529]]]]},"bbox":[2.18347983,48.82046154,2.1957421,48.82493694]},{"type":"Feature","id":"fr-quartier-92077-15cfdad95da8","properties":{"id":"fr-quartier-92077-15cfdad95da8","kind":"quartier","name":"Rue de Versailles-Monastère","cityCode":"92077","cityName":"Ville-d'Avray","sourceType":"iris","sourceIds":["920770102"],"colorIndex":4,"center":[2.165872091081967,48.820083265]},"geometry":{"type":"MultiPolygon","coordinates":[[[[2.18178524,48.82501162],[2.18483749,48.82686003],[2.18475848,48.82668591],[2.18476659,48.82607978],[2.18587936,48.82591287],[2.18607525,48.82584226],[2.18646273,48.82554],[2.18674508,48.82525321],[2.18689869,48.82501142],[2.18679088,48.82493694],[2.18632905,48.82459203],[2.1846314,48.82296605],[2.18393339,48.82248371],[2.18347983,48.82222249],[2.18413572,48.82234928],[2.18416725,48.82207518],[2.18427097,48.82180067],[2.1847948,48.82070428],[2.18480813,48.82046154],[2.18468309,48.82044449],[2.18375841,48.82008832],[2.18240289,48.82019598],[2.18197021,48.82016784],[2.18149083,48.82007821],[2.18137286,48.82004503],[2.18083612,48.81961864],[2.18018645,48.81935875],[2.17982576,48.81925735],[2.17936333,48.81930274],[2.1788799,48.81947121],[2.17817492,48.81978295],[2.17699377,48.82014718],[2.17537828,48.82041486],[2.17477743,48.82034146],[2.17349965,48.82001155],[2.17307031,48.81985928],[2.17249939,48.81961699],[2.17152831,48.81910121],[2.17127402,48.81890428],[2.17038446,48.81763265],[2.16821035,48.81885602],[2.16800758,48.81867473],[2.16808881,48.81862043],[2.16775902,48.81829075],[2.16782132,48.81822733],[2.16739252,48.81787268],[2.16723842,48.81762967],[2.16684449,48.81722399],[2.16620044,48.81670414],[2.16601841,48.81684498],[2.1655869,48.81666119],[2.16551641,48.81672545],[2.16537776,48.8167092],[2.16526116,48.81684599],[2.16474623,48.8166841],[2.16424364,48.81643145],[2.16376893,48.81605488],[2.16280941,48.81694937],[2.16215534,48.81705541],[2.16585918,48.81837015],[2.16381873,48.81982822],[2.16534994,48.82006377],[2.16608061,48.82010934],[2.16612355,48.81904205],[2.1677741,48.81930898],[2.1677468,48.81939783],[2.16850231,48.81950832],[2.16854244,48.81955357],[2.17004955,48.81993459],[2.17040337,48.82029591],[2.17188102,48.82056158],[2.17220416,48.82054043],[2.17414026,48.82101341],[2.17406852,48.82107138],[2.17431568,48.82111716],[2.17583103,48.82124093],[2.17611451,48.82131574],[2.17681889,48.82156163],[2.17748797,48.82188732],[2.17819712,48.8221764],[2.17930137,48.82272003],[2.17987562,48.8232744],[2.18030015,48.82382234],[2.18079716,48.82426555],[2.18178524,48.82501162]]]]},"bbox":[2.16215534,48.81605488,2.18689869,48.82686003]},{"type":"Feature","id":"fr-quartier-92077-1002afd55857","properties":{"id":"fr-quartier-92077-1002afd55857","kind":"quartier","name":"Thierry-Saint-Cloud","cityCode":"92077","cityName":"Ville-d'Avray","sourceType":"iris","sourceIds":["920770106"],"colorIndex":5,"center":[2.183788804686138,48.828169055000004]},"geometry":{"type":"MultiPolygon","coordinates":[[[[2.17556878,48.82628384],[2.17641594,48.82723944],[2.17620467,48.827506],[2.17615159,48.82810643],[2.1763158,48.82823168],[2.17687793,48.82826163],[2.17737365,48.82861491],[2.17821973,48.82903804],[2.17848371,48.82905694],[2.17846422,48.82917013],[2.17980187,48.8303863],[2.18079668,48.83062426],[2.18477744,48.82887066],[2.1849871,48.82922735],[2.18615773,48.82884859],[2.186723,48.82876429],[2.18751824,48.82887133],[2.18755926,48.82877447],[2.18833041,48.8289407],[2.18901272,48.82921425],[2.19011779,48.82937103],[2.19103526,48.82923964],[2.19324141,48.82937146],[2.19375374,48.82962764],[2.19398409,48.82953116],[2.19339269,48.82901452],[2.19293094,48.82874789],[2.19252953,48.82863095],[2.19136184,48.82847197],[2.19133378,48.8279978],[2.1902548,48.82800489],[2.18947888,48.82788271],[2.18929555,48.82793363],[2.18891562,48.82766304],[2.18870552,48.82698347],[2.18553402,48.82717957],[2.1851263,48.82703199],[2.18483749,48.82686003],[2.18178524,48.82501162],[2.18165016,48.82537315],[2.18188532,48.82540444],[2.18104883,48.82680087],[2.18080277,48.82685585],[2.17957127,48.82651553],[2.17878567,48.82675117],[2.17853535,48.82673057],[2.17794817,48.82630382],[2.17768265,48.82647018],[2.17668885,48.82669179],[2.17600516,48.8259082],[2.17556878,48.82628384]]]]},"bbox":[2.17556878,48.82501162,2.19398409,48.83062426]}]}