{"type":"FeatureCollection","metadata":{"sourceType":"iris","source":"IGN / INSEE — Contours IRIS 2026","sourceUrl":"https://data.geopf.fr/wfs/ows?service=WFS&version=2.0.0&request=GetFeature&typeNames=STATISTICALUNITS.IRIS%3Acontours_iris&outputFormat=application%2Fjson&srsName=CRS%3A84&count=1000&CQL_FILTER=code_insee%3D%2793007%27&sortBy=code_iris","retrievedDate":"2026-09-10","sourceYear":"2026","license":"Licence Ouverte 2.0"},"features":[{"type":"Feature","id":"fr-quartier-93007-69e6f67dc1aa","properties":{"id":"fr-quartier-93007-69e6f67dc1aa","kind":"quartier","name":"Zone d'Activités Coudray Paris Nord","cityCode":"93007","cityName":"Le Blanc-Mesnil","sourceType":"iris","sourceIds":["930070101"],"colorIndex":0,"center":[2.460851037762347,48.950831765000004]},"geometry":{"type":"MultiPolygon","coordinates":[[[[2.44753292,48.95537312],[2.44730631,48.95562386],[2.44751737,48.95567969],[2.4474863,48.95577667],[2.44801303,48.95593916],[2.44857242,48.95546873],[2.44922625,48.95510573],[2.4503067,48.95494433],[2.45262854,48.95528588],[2.45383626,48.95561782],[2.45587854,48.95566847],[2.45674908,48.95573087],[2.45948857,48.95504902],[2.46008088,48.95468479],[2.46097874,48.95369155],[2.46308728,48.95326936],[2.4641705,48.95322835],[2.46600119,48.95299911],[2.46971477,48.95223683],[2.47234951,48.95161627],[2.47155969,48.94966139],[2.4714818,48.94711523],[2.47408729,48.94584793],[2.47537794,48.94593542],[2.47619215,48.94534186],[2.4766595,48.94475578],[2.47719283,48.9445315],[2.47732519,48.94440168],[2.47825301,48.94431849],[2.47929813,48.9430182],[2.47961627,48.94273991],[2.47759036,48.94097212],[2.47708898,48.94114529],[2.47555364,48.94191466],[2.47294431,48.94358395],[2.47245315,48.94395678],[2.47216623,48.94424868],[2.47166876,48.9449731],[2.4712415,48.94536959],[2.46898931,48.94679577],[2.46667167,48.94833491],[2.46658469,48.94856204],[2.46666224,48.94925392],[2.46687076,48.94969009],[2.46656439,48.94974179],[2.46605889,48.9499059],[2.45945293,48.95006964],[2.4568922,48.9501336],[2.45675803,48.95016897],[2.45490976,48.9502568],[2.45121709,48.95032358],[2.44892301,48.95034723],[2.44902817,48.95047361],[2.45031088,48.95118992],[2.44896262,48.95137707],[2.44806071,48.95157526],[2.4475457,48.95172756],[2.44817022,48.95244985],[2.44872874,48.95321769],[2.44889379,48.95336233],[2.44907252,48.95363383],[2.44894222,48.95368899],[2.44949045,48.95426973],[2.44900341,48.95435742],[2.44848508,48.95456277],[2.44822215,48.95476209],[2.44789335,48.95512208],[2.44753292,48.95537312]]]]},"bbox":[2.44730631,48.94097212,2.47961627,48.95593916]},{"type":"Feature","id":"fr-quartier-93007-b03c285f9f91","properties":{"id":"fr-quartier-93007-b03c285f9f91","kind":"quartier","name":"Zone d'Activités Molette","cityCode":"93007","cityName":"Le Blanc-Mesnil","sourceType":"iris","sourceIds":["930070102"],"colorIndex":1,"center":[2.438077128444988,48.940019805]},"geometry":{"type":"MultiPolygon","coordinates":[[[[2.44909027,48.93958464],[2.4482379,48.93963647],[2.44763332,48.9394934],[2.44676686,48.93907304],[2.44636098,48.93860264],[2.44597511,48.9384327],[2.44561299,48.9383402],[2.44383888,48.93753072],[2.44251988,48.93731057],[2.44035318,48.93645874],[2.43891026,48.93608869],[2.43868676,48.93769915],[2.43596698,48.93775563],[2.43691838,48.94040757],[2.43813193,48.94015877],[2.43894275,48.94003667],[2.43980723,48.94000294],[2.44076782,48.9400443],[2.44101131,48.94304631],[2.44366277,48.94340306],[2.44442957,48.94357209],[2.44733391,48.94429054],[2.45000706,48.94505912],[2.45016583,48.94489259],[2.45198024,48.94411313],[2.45161134,48.94375264],[2.45094892,48.94365158],[2.44987984,48.94250191],[2.44935999,48.94054091],[2.44909027,48.93958464]]]]},"bbox":[2.43596698,48.93608869,2.45198024,48.94505912]}]}