{"type":"FeatureCollection","metadata":{"sourceType":"iris","source":"IGN / INSEE — Contours IRIS 2026","sourceUrl":"https://data.geopf.fr/wfs/ows?service=WFS&version=2.0.0&request=GetFeature&typeNames=STATISTICALUNITS.IRIS%3Acontours_iris&outputFormat=application%2Fjson&srsName=CRS%3A84&count=1000&CQL_FILTER=code_insee%3D%2793045%27&sortBy=code_iris","retrievedDate":"2026-09-10","sourceYear":"2026","license":"Licence Ouverte 2.0"},"features":[{"type":"Feature","id":"fr-quartier-93045-593ff2b475f3","properties":{"id":"fr-quartier-93045-593ff2b475f3","kind":"quartier","name":"Convention","cityCode":"93045","cityName":"Les Lilas","sourceType":"iris","sourceIds":["930450102"],"colorIndex":0,"center":[2.4133244396574423,48.882625395000005]},"geometry":{"type":"MultiPolygon","coordinates":[[[[2.41194603,48.87944986],[2.41188649,48.88025446],[2.41161248,48.88073156],[2.41117762,48.88144528],[2.41111568,48.88173816],[2.41125165,48.88261657],[2.41150524,48.88322306],[2.41307761,48.88357612],[2.41300685,48.88307845],[2.41459691,48.88343517],[2.41562371,48.88416504],[2.41696744,48.88448276],[2.4170832,48.88425219],[2.4170153,48.88422668],[2.41733385,48.88403218],[2.41646151,48.88350992],[2.41698493,48.88316353],[2.41672361,48.88275397],[2.41641613,48.8824494],[2.41540362,48.88263422],[2.41470011,48.88201834],[2.41306948,48.88030433],[2.41301503,48.88017546],[2.41279272,48.88005926],[2.41226987,48.87963041],[2.41194603,48.87944986]]]]},"bbox":[2.41111568,48.87944986,2.41733385,48.88448276]},{"type":"Feature","id":"fr-quartier-93045-a1d3ba15f492","properties":{"id":"fr-quartier-93045-a1d3ba15f492","kind":"quartier","name":"Croix de l'Épinette","cityCode":"93045","cityName":"Les Lilas","sourceType":"iris","sourceIds":["930450106"],"colorIndex":1,"center":[2.4231122155428686,48.880064335]},"geometry":{"type":"MultiPolygon","coordinates":[[[[2.42843201,48.88022578],[2.43040491,48.8806129],[2.4305974,48.88059223],[2.42993408,48.87990289],[2.4297714,48.878322],[2.42888344,48.87822783],[2.42743034,48.87819391],[2.42555432,48.87830453],[2.42254234,48.87830713],[2.42203308,48.8794747],[2.4219319,48.88048235],[2.42152722,48.88143818],[2.4248928,48.88252369],[2.42497064,48.88238917],[2.4248269,48.8818228],[2.42524071,48.88176453],[2.42521018,48.88156564],[2.42507361,48.88096783],[2.42446924,48.8808723],[2.42411291,48.87955577],[2.42424948,48.87953664],[2.42408148,48.87894587],[2.42413596,48.87882742],[2.42615889,48.87961685],[2.42843201,48.88022578]]]]},"bbox":[2.42152722,48.87819391,2.4305974,48.88252369]},{"type":"Feature","id":"fr-quartier-93045-3786e4046b07","properties":{"id":"fr-quartier-93045-3786e4046b07","kind":"quartier","name":"Jalancloud","cityCode":"93045","cityName":"Les Lilas","sourceType":"iris","sourceIds":["930450107"],"colorIndex":2,"center":[2.42069959571758,48.87922609]},"geometry":{"type":"MultiPolygon","coordinates":[[[[2.42254234,48.87830713],[2.42187062,48.87826432],[2.42042085,48.87817637],[2.41885266,48.87794753],[2.41848034,48.8790546],[2.41924703,48.87914105],[2.41926832,48.87931113],[2.41910294,48.88008015],[2.41962575,48.88015014],[2.41945622,48.88080223],[2.42152722,48.88143818],[2.4219319,48.88048235],[2.42203308,48.8794747],[2.42254234,48.87830713]]]]},"bbox":[2.41848034,48.87794753,2.42254234,48.88143818]},{"type":"Feature","id":"fr-quartier-93045-01dbe915cb52","properties":{"id":"fr-quartier-93045-01dbe915cb52","kind":"quartier","name":"La Mairie","cityCode":"93045","cityName":"Les Lilas","sourceType":"iris","sourceIds":["930450109"],"colorIndex":3,"center":[2.4161864852078274,48.879097825]},"geometry":{"type":"MultiPolygon","coordinates":[[[[2.41798605,48.88033733],[2.41945622,48.88080223],[2.41962575,48.88015014],[2.41910294,48.88008015],[2.41926832,48.87931113],[2.41924703,48.87914105],[2.41848034,48.8790546],[2.41885266,48.87794753],[2.41787389,48.87780698],[2.41676412,48.87755426],[2.41441198,48.87671899],[2.41349832,48.87782249],[2.41302439,48.8789821],[2.41316286,48.87903584],[2.41446512,48.87926885],[2.41629225,48.87975441],[2.41636911,48.87983123],[2.41798605,48.88033733]]]]},"bbox":[2.41302439,48.87671899,2.41962575,48.88080223]},{"type":"Feature","id":"fr-quartier-93045-0057eb809432","properties":{"id":"fr-quartier-93045-0057eb809432","kind":"quartier","name":"L'Avenir","cityCode":"93045","cityName":"Les Lilas","sourceType":"iris","sourceIds":["930450101"],"colorIndex":4,"center":[2.420445704433438,48.883189365]},"geometry":{"type":"MultiPolygon","coordinates":[[[[2.41733385,48.88403218],[2.41865869,48.88482013],[2.42024486,48.88675867],[2.42047241,48.88665365],[2.42071378,48.88665392],[2.42134995,48.88696096],[2.42171311,48.88729187],[2.42239585,48.88758205],[2.42202157,48.88714587],[2.42015282,48.88449283],[2.42025172,48.88442766],[2.42166192,48.8844111],[2.42209398,48.88406245],[2.42346622,48.88365537],[2.42393474,48.88321336],[2.42397948,48.88311375],[2.42423936,48.88316537],[2.42433277,48.88310286],[2.42446896,48.88311881],[2.42477506,48.88293681],[2.42557347,48.88274909],[2.4248928,48.88252369],[2.42152722,48.88143818],[2.41945622,48.88080223],[2.41798605,48.88033733],[2.41797285,48.88054231],[2.41906884,48.88252525],[2.41898205,48.88260487],[2.41694089,48.88271276],[2.41672361,48.88275397],[2.41698493,48.88316353],[2.41646151,48.88350992],[2.41733385,48.88403218]]]]},"bbox":[2.41646151,48.88033733,2.42557347,48.88758205]},{"type":"Feature","id":"fr-quartier-93045-f3013aa49615","properties":{"id":"fr-quartier-93045-f3013aa49615","kind":"quartier","name":"Le Fort","cityCode":"93045","cityName":"Les Lilas","sourceType":"iris","sourceIds":["930450104"],"colorIndex":5,"center":[2.4245140995425376,48.88794343]},"geometry":{"type":"MultiPolygon","coordinates":[[[[2.42239585,48.88758205],[2.42257562,48.88846425],[2.4226816,48.88899176],[2.42245681,48.8890941],[2.42375316,48.89050328],[2.4239785,48.89096841],[2.42435485,48.89097472],[2.42455771,48.89088306],[2.42472919,48.89042164],[2.42526273,48.89051863],[2.42557654,48.89013612],[2.42566048,48.88982087],[2.42626375,48.88977789],[2.42689536,48.88963793],[2.42669599,48.88928984],[2.42667891,48.88861167],[2.42675917,48.88850593],[2.42645181,48.88830481],[2.42681442,48.88707898],[2.42754789,48.88598172],[2.4268346,48.8861132],[2.42673228,48.885869],[2.42446896,48.88311881],[2.42433277,48.88310286],[2.42423936,48.88316537],[2.42397948,48.88311375],[2.42393474,48.88321336],[2.42346622,48.88365537],[2.42209398,48.88406245],[2.42166192,48.8844111],[2.42025172,48.88442766],[2.42015282,48.88449283],[2.42202157,48.88714587],[2.42239585,48.88758205]]]]},"bbox":[2.42015282,48.88310286,2.42754789,48.89097472]},{"type":"Feature","id":"fr-quartier-93045-5e852ebcb7de","properties":{"id":"fr-quartier-93045-5e852ebcb7de","kind":"quartier","name":"L'Église","cityCode":"93045","cityName":"Les Lilas","sourceType":"iris","sourceIds":["930450103"],"colorIndex":6,"center":[2.415358504852401,48.880239895]},"geometry":{"type":"MultiPolygon","coordinates":[[[[2.41191502,48.87881478],[2.41194603,48.87944986],[2.41226987,48.87963041],[2.41279272,48.88005926],[2.41301503,48.88017546],[2.41306948,48.88030433],[2.41470011,48.88201834],[2.41540362,48.88263422],[2.41641613,48.8824494],[2.41672361,48.88275397],[2.41694089,48.88271276],[2.41898205,48.88260487],[2.41906884,48.88252525],[2.41797285,48.88054231],[2.41798605,48.88033733],[2.41636911,48.87983123],[2.41629225,48.87975441],[2.41446512,48.87926885],[2.41316286,48.87903584],[2.41302439,48.8789821],[2.41191502,48.87881478]]]]},"bbox":[2.41191502,48.87881478,2.41906884,48.88275397]},{"type":"Feature","id":"fr-quartier-93045-2447c20fb9eb","properties":{"id":"fr-quartier-93045-2447c20fb9eb","kind":"quartier","name":"Les Bruyères","cityCode":"93045","cityName":"Les Lilas","sourceType":"iris","sourceIds":["930450110"],"colorIndex":7,"center":[2.4122223447413695,48.878129335]},"geometry":{"type":"MultiPolygon","coordinates":[[[[2.41220838,48.87674237],[2.41082032,48.87843618],[2.41179532,48.8786685],[2.41191502,48.87881478],[2.41302439,48.8789821],[2.41349832,48.87782249],[2.41441198,48.87671899],[2.41365991,48.87642753],[2.41220838,48.87674237]]]]},"bbox":[2.41082032,48.87642753,2.41441198,48.8789821]},{"type":"Feature","id":"fr-quartier-93045-c132e11f3941","properties":{"id":"fr-quartier-93045-c132e11f3941","kind":"quartier","name":"Les Sentes","cityCode":"93045","cityName":"Les Lilas","sourceType":"iris","sourceIds":["930450105"],"colorIndex":8,"center":[2.4269283076290225,48.881266735]},"geometry":{"type":"MultiPolygon","coordinates":[[[[2.42557347,48.88274909],[2.42688047,48.88318433],[2.42907423,48.88259047],[2.42843201,48.88022578],[2.42615889,48.87961685],[2.42413596,48.87882742],[2.42408148,48.87894587],[2.42424948,48.87953664],[2.42411291,48.87955577],[2.42446924,48.8808723],[2.42507361,48.88096783],[2.42521018,48.88156564],[2.42524071,48.88176453],[2.4248269,48.8818228],[2.42497064,48.88238917],[2.4248928,48.88252369],[2.42557347,48.88274909]]]]},"bbox":[2.42408148,48.87882742,2.42907423,48.88318433]},{"type":"Feature","id":"fr-quartier-93045-6ec95c7c8212","properties":{"id":"fr-quartier-93045-6ec95c7c8212","kind":"quartier","name":"Villegranges","cityCode":"93045","cityName":"Les Lilas","sourceType":"iris","sourceIds":["930450108"],"colorIndex":9,"center":[2.4174808978036033,48.877148315]},"geometry":{"type":"MultiPolygon","coordinates":[[[[2.42187062,48.87826432],[2.42083337,48.87798591],[2.42027968,48.8777512],[2.41758436,48.8760204],[2.41583746,48.87507839],[2.41343106,48.87314025],[2.41245309,48.87644319],[2.41220838,48.87674237],[2.41365991,48.87642753],[2.41441198,48.87671899],[2.41676412,48.87755426],[2.41787389,48.87780698],[2.41885266,48.87794753],[2.42042085,48.87817637],[2.42187062,48.87826432]]]]},"bbox":[2.41220838,48.87314025,2.42187062,48.87826432]}]}