{"type":"FeatureCollection","metadata":{"sourceType":"iris","source":"IGN / INSEE — Contours IRIS 2026","sourceUrl":"https://data.geopf.fr/wfs/ows?service=WFS&version=2.0.0&request=GetFeature&typeNames=STATISTICALUNITS.IRIS%3Acontours_iris&outputFormat=application%2Fjson&srsName=CRS%3A84&count=1000&CQL_FILTER=code_insee%3D%2793049%27&sortBy=code_iris","retrievedDate":"2026-09-10","sourceYear":"2026","license":"Licence Ouverte 2.0"},"features":[{"type":"Feature","id":"fr-quartier-93049-fcbaa3e5fcee","properties":{"id":"fr-quartier-93049-fcbaa3e5fcee","kind":"quartier","name":"Bel-Air","cityCode":"93049","cityName":"Neuilly-Plaisance","sourceType":"iris","sourceIds":["930490101"],"colorIndex":0,"center":[2.505677202549803,48.87185014]},"geometry":{"type":"MultiPolygon","coordinates":[[[[2.50093519,48.86699984],[2.50120204,48.86817458],[2.50099904,48.86958478],[2.50099262,48.86997057],[2.50122051,48.8708007],[2.50093206,48.87301813],[2.50276226,48.87309859],[2.50316072,48.87306068],[2.50380485,48.87285111],[2.50470066,48.87241145],[2.50579144,48.87211109],[2.50617457,48.87282583],[2.50588873,48.87292088],[2.50582766,48.87303574],[2.50704295,48.8748502],[2.50785902,48.87577896],[2.50789318,48.87620448],[2.50943945,48.87807062],[2.5120066,48.876644],[2.51172576,48.87649536],[2.51316574,48.87603718],[2.51291287,48.87566833],[2.51252443,48.87521708],[2.51106376,48.87308872],[2.51079819,48.87305886],[2.51067097,48.87295941],[2.51071603,48.87280671],[2.51086121,48.87273536],[2.51009625,48.87158919],[2.50989541,48.87120076],[2.51001629,48.87110412],[2.51066774,48.87083609],[2.50998179,48.86998972],[2.50969818,48.86970527],[2.50941468,48.86955392],[2.50883187,48.86933929],[2.50868318,48.86920558],[2.50847095,48.86872536],[2.50821369,48.86839515],[2.50817256,48.86726543],[2.50810814,48.86715814],[2.50762849,48.8668495],[2.50747867,48.8666915],[2.50678683,48.86676599],[2.50280216,48.86691948],[2.50093519,48.86699984]]]]},"bbox":[2.50093206,48.8666915,2.51316574,48.87807062]},{"type":"Feature","id":"fr-quartier-93049-828c17a817fb","properties":{"id":"fr-quartier-93049-828c17a817fb","kind":"quartier","name":"Bois de Neuilly","cityCode":"93049","cityName":"Neuilly-Plaisance","sourceType":"iris","sourceIds":["930490104"],"colorIndex":1,"center":[2.512038998640493,48.862201819999996]},"geometry":{"type":"MultiPolygon","coordinates":[[[[2.50985382,48.86388544],[2.51238806,48.8641521],[2.5130549,48.8631017],[2.51380949,48.86330712],[2.51705819,48.8603156],[2.51709462,48.86020872],[2.51701987,48.85959777],[2.51216863,48.86036412],[2.50952155,48.86081016],[2.508944,48.86163878],[2.50919237,48.86276486],[2.50898703,48.8637263],[2.50985382,48.86388544]]]]},"bbox":[2.508944,48.85959777,2.51709462,48.8641521]},{"type":"Feature","id":"fr-quartier-93049-2bd5fb5dde0b","properties":{"id":"fr-quartier-93049-2bd5fb5dde0b","kind":"quartier","name":"Centre","cityCode":"93049","cityName":"Neuilly-Plaisance","sourceType":"iris","sourceIds":["930490109"],"colorIndex":2,"center":[2.5053377002868675,48.86380587]},"geometry":{"type":"MultiPolygon","coordinates":[[[[2.50280216,48.86691948],[2.50678683,48.86676599],[2.50747867,48.8666915],[2.50745521,48.86600072],[2.50761494,48.86496534],[2.50864346,48.86503342],[2.50934439,48.86514871],[2.50978266,48.86420531],[2.50985382,48.86388544],[2.50898703,48.8637263],[2.50919237,48.86276486],[2.508944,48.86163878],[2.50952155,48.86081016],[2.50910627,48.86090828],[2.50863017,48.86109519],[2.5063196,48.86183932],[2.50111435,48.86352287],[2.50280216,48.86691948]]]]},"bbox":[2.50111435,48.86081016,2.50985382,48.86691948]},{"type":"Feature","id":"fr-quartier-93049-9239c1b40834","properties":{"id":"fr-quartier-93049-9239c1b40834","kind":"quartier","name":"Église","cityCode":"93049","cityName":"Neuilly-Plaisance","sourceType":"iris","sourceIds":["930490108"],"colorIndex":3,"center":[2.5057609152443243,48.857319329999996]},"geometry":{"type":"MultiPolygon","coordinates":[[[[2.50548436,48.85721239],[2.5045717,48.85730214],[2.5032316,48.85719496],[2.50272197,48.85689876],[2.50000312,48.85574347],[2.49931258,48.85654819],[2.49738548,48.85597713],[2.49906731,48.85682686],[2.49963339,48.85706126],[2.50007915,48.85733652],[2.50309603,48.85883389],[2.50325599,48.85878239],[2.50341928,48.85881005],[2.50350181,48.85887425],[2.50346228,48.85901798],[2.5053304,48.85993404],[2.5063196,48.86183932],[2.50863017,48.86109519],[2.50910627,48.86090828],[2.50952155,48.86081016],[2.51216863,48.86036412],[2.51132896,48.85746393],[2.51177619,48.85700709],[2.51105806,48.85684857],[2.5104731,48.85658627],[2.51034658,48.85656237],[2.50548436,48.85721239]]]]},"bbox":[2.49738548,48.85574347,2.51216863,48.86183932]},{"type":"Feature","id":"fr-quartier-93049-3039eef9f968","properties":{"id":"fr-quartier-93049-3039eef9f968","kind":"quartier","name":"Maltournée","cityCode":"93049","cityName":"Neuilly-Plaisance","sourceType":"iris","sourceIds":["930490106"],"colorIndex":4,"center":[2.5124254327428295,48.85347979]},"geometry":{"type":"MultiPolygon","coordinates":[[[[2.52096123,48.85223005],[2.5177919,48.85187737],[2.51698508,48.85173562],[2.51559237,48.85129021],[2.5145411,48.85076613],[2.51351333,48.85006316],[2.51311294,48.85032774],[2.51335507,48.85066598],[2.51346217,48.85131034],[2.51197216,48.85252738],[2.51140594,48.85245222],[2.50856082,48.85341995],[2.50809248,48.85409164],[2.50729007,48.85463603],[2.50666468,48.85533854],[2.50548436,48.85721239],[2.51034658,48.85656237],[2.5104731,48.85658627],[2.51105806,48.85684857],[2.51177619,48.85700709],[2.51308625,48.85551773],[2.51608447,48.85611716],[2.51611765,48.85562715],[2.51630057,48.85353963],[2.51642129,48.85330809],[2.52008179,48.85405309],[2.52096123,48.85223005]]]]},"bbox":[2.50548436,48.85006316,2.52096123,48.85721239]},{"type":"Feature","id":"fr-quartier-93049-b2ec1fc09c29","properties":{"id":"fr-quartier-93049-b2ec1fc09c29","kind":"quartier","name":"Marne","cityCode":"93049","cityName":"Neuilly-Plaisance","sourceType":"iris","sourceIds":["930490107"],"colorIndex":5,"center":[2.5001215253290194,48.859105]},"geometry":{"type":"MultiPolygon","coordinates":[[[[2.49738548,48.85597713],[2.49681853,48.85569325],[2.49488707,48.85881211],[2.49711322,48.85919202],[2.49610675,48.86066269],[2.49731695,48.86039708],[2.49920654,48.86332694],[2.49948204,48.86402058],[2.49977182,48.86507222],[2.50093519,48.86699984],[2.50280216,48.86691948],[2.50111435,48.86352287],[2.5063196,48.86183932],[2.5053304,48.85993404],[2.50346228,48.85901798],[2.50350181,48.85887425],[2.50341928,48.85881005],[2.50325599,48.85878239],[2.50309603,48.85883389],[2.50007915,48.85733652],[2.49963339,48.85706126],[2.49906731,48.85682686],[2.49738548,48.85597713]]]]},"bbox":[2.49488707,48.85569325,2.5063196,48.86699984]},{"type":"Feature","id":"fr-quartier-93049-b6b5c0701b55","properties":{"id":"fr-quartier-93049-b6b5c0701b55","kind":"quartier","name":"Plateau","cityCode":"93049","cityName":"Neuilly-Plaisance","sourceType":"iris","sourceIds":["930490102"],"colorIndex":6,"center":[2.516444759235254,48.871098155]},"geometry":{"type":"MultiPolygon","coordinates":[[[[2.51291287,48.87566833],[2.51499507,48.87490606],[2.51581462,48.87503708],[2.51588877,48.87512732],[2.5182911,48.87512442],[2.5179737,48.8745053],[2.51838162,48.87432888],[2.51868468,48.87443442],[2.51991634,48.87437641],[2.52047621,48.87457651],[2.52109686,48.87380108],[2.52100835,48.87349316],[2.52179144,48.87343603],[2.52186957,48.87368726],[2.52221362,48.87363377],[2.52228899,48.87374109],[2.52274526,48.87364129],[2.52264942,48.87323981],[2.52329258,48.87312726],[2.5234334,48.87338233],[2.5244176,48.87324864],[2.52434753,48.87285986],[2.52394406,48.87225481],[2.5228893,48.87131171],[2.52279677,48.87114407],[2.52286678,48.87109219],[2.52203859,48.87057087],[2.52178188,48.87031893],[2.52185739,48.87026168],[2.52112147,48.86978929],[2.52079712,48.86948222],[2.51958313,48.86881904],[2.51869139,48.8681014],[2.51726309,48.8676226],[2.51619777,48.86740066],[2.51738861,48.86584513],[2.51759,48.86573712],[2.51820644,48.864673],[2.51849959,48.86451679],[2.51380949,48.86330712],[2.5130549,48.8631017],[2.51238806,48.8641521],[2.51159303,48.86549696],[2.51109793,48.86596169],[2.5107422,48.8666824],[2.51046922,48.86671816],[2.50747867,48.8666915],[2.50762849,48.8668495],[2.50810814,48.86715814],[2.50817256,48.86726543],[2.50821369,48.86839515],[2.50847095,48.86872536],[2.50868318,48.86920558],[2.50883187,48.86933929],[2.50941468,48.86955392],[2.50969818,48.86970527],[2.50998179,48.86998972],[2.51066774,48.87083609],[2.51001629,48.87110412],[2.50989541,48.87120076],[2.51009625,48.87158919],[2.51086121,48.87273536],[2.51071603,48.87280671],[2.51067097,48.87295941],[2.51079819,48.87305886],[2.51106376,48.87308872],[2.51252443,48.87521708],[2.51291287,48.87566833]]]]},"bbox":[2.50747867,48.8631017,2.5244176,48.87566833]},{"type":"Feature","id":"fr-quartier-93049-1fb45a0b5767","properties":{"id":"fr-quartier-93049-1fb45a0b5767","kind":"quartier","name":"Pré de l'Arche","cityCode":"93049","cityName":"Neuilly-Plaisance","sourceType":"iris","sourceIds":["930490103"],"colorIndex":7,"center":[2.5151079703667203,48.85932414]},"geometry":{"type":"MultiPolygon","coordinates":[[[[2.51849959,48.86451679],[2.51891675,48.86185555],[2.51920957,48.86188101],[2.519303,48.86106209],[2.51963818,48.86107513],[2.51961465,48.86037535],[2.51933782,48.86039043],[2.51912468,48.8592636],[2.51836983,48.85938468],[2.5178558,48.85793198],[2.51733988,48.85801084],[2.51684793,48.85638555],[2.51693091,48.85625638],[2.51678957,48.85621264],[2.51651726,48.85633025],[2.51616023,48.85632521],[2.51608447,48.85611716],[2.51308625,48.85551773],[2.51177619,48.85700709],[2.51132896,48.85746393],[2.51216863,48.86036412],[2.51701987,48.85959777],[2.51709462,48.86020872],[2.51705819,48.8603156],[2.51380949,48.86330712],[2.51849959,48.86451679]]]]},"bbox":[2.51132896,48.85551773,2.51963818,48.86451679]},{"type":"Feature","id":"fr-quartier-93049-e5e849bb05a5","properties":{"id":"fr-quartier-93049-e5e849bb05a5","kind":"quartier","name":"Renouillères","cityCode":"93049","cityName":"Neuilly-Plaisance","sourceType":"iris","sourceIds":["930490105"],"colorIndex":8,"center":[2.509627877323812,48.865322835]},"geometry":{"type":"MultiPolygon","coordinates":[[[[2.51238806,48.8641521],[2.50985382,48.86388544],[2.50978266,48.86420531],[2.50934439,48.86514871],[2.50864346,48.86503342],[2.50761494,48.86496534],[2.50745521,48.86600072],[2.50747867,48.8666915],[2.51046922,48.86671816],[2.5107422,48.8666824],[2.51109793,48.86596169],[2.51159303,48.86549696],[2.51238806,48.8641521]]]]},"bbox":[2.50745521,48.86388544,2.51238806,48.86671816]}]}