{"type":"FeatureCollection","metadata":{"sourceType":"iris","source":"IGN / INSEE — Contours IRIS 2026","sourceUrl":"https://data.geopf.fr/wfs/ows?service=WFS&version=2.0.0&request=GetFeature&typeNames=STATISTICALUNITS.IRIS%3Acontours_iris&outputFormat=application%2Fjson&srsName=CRS%3A84&count=1000&CQL_FILTER=code_insee%3D%2793057%27&sortBy=code_iris","retrievedDate":"2026-09-10","sourceYear":"2026","license":"Licence Ouverte 2.0"},"features":[{"type":"Feature","id":"fr-quartier-93057-06d49f93baca","properties":{"id":"fr-quartier-93057-06d49f93baca","kind":"quartier","name":"Calmanovic","cityCode":"93057","cityName":"Les Pavillons-sous-Bois","sourceType":"iris","sourceIds":["930570103"],"colorIndex":0,"center":[2.5032381484770925,48.91136883]},"geometry":{"type":"MultiPolygon","coordinates":[[[[2.50831019,48.91002019],[2.50735924,48.90987869],[2.50730286,48.90978134],[2.50447314,48.90936768],[2.50330015,48.90919196],[2.50330069,48.90927919],[2.50021496,48.90882121],[2.49985173,48.90999237],[2.49968957,48.91025519],[2.49947605,48.91018505],[2.49854556,48.91132056],[2.49918547,48.91174321],[2.50004723,48.91250671],[2.50078799,48.91308535],[2.50219585,48.91438979],[2.50214589,48.91447771],[2.50220263,48.9145364],[2.50237883,48.91465944],[2.50676488,48.91285111],[2.50573025,48.91246465],[2.50663521,48.9114171],[2.50771775,48.91178577],[2.50831019,48.91002019]]]]},"bbox":[2.49854556,48.90882121,2.50831019,48.91465944]},{"type":"Feature","id":"fr-quartier-93057-3be36c64e4f2","properties":{"id":"fr-quartier-93057-3be36c64e4f2","kind":"quartier","name":"Canal Zone Industrielle","cityCode":"93057","cityName":"Les Pavillons-sous-Bois","sourceType":"iris","sourceIds":["930570102"],"colorIndex":1,"center":[2.4966065144295433,48.913870775]},"geometry":{"type":"MultiPolygon","coordinates":[[[[2.49017965,48.90725461],[2.4901601,48.90730129],[2.49232619,48.90761355],[2.49226508,48.90786509],[2.49045035,48.90900759],[2.49100688,48.909715],[2.49119823,48.91065648],[2.49143248,48.91335176],[2.49216678,48.91598261],[2.49187259,48.91690583],[2.49719349,48.9175353],[2.49718904,48.91672412],[2.49707619,48.91668318],[2.49707877,48.91655729],[2.49639447,48.91592401],[2.49746585,48.91547167],[2.49780518,48.91551536],[2.49790843,48.91542047],[2.49815217,48.91532976],[2.49821624,48.91533633],[2.49841892,48.91554221],[2.49861978,48.91565457],[2.4988587,48.91592355],[2.49908334,48.91583366],[2.50084027,48.91745073],[2.50106129,48.91745345],[2.5028092,48.91674218],[2.50099692,48.91505927],[2.50220263,48.9145364],[2.50214589,48.91447771],[2.50219585,48.91438979],[2.50078799,48.91308535],[2.50004723,48.91250671],[2.49918547,48.91174321],[2.49854556,48.91132056],[2.49947605,48.91018505],[2.49968957,48.91025519],[2.49985173,48.90999237],[2.50021496,48.90882121],[2.49511992,48.90806152],[2.49514528,48.90797889],[2.4944667,48.90789509],[2.49441818,48.90797402],[2.49411847,48.90793049],[2.49284209,48.90773174],[2.49287562,48.90765095],[2.49017965,48.90725461]]]]},"bbox":[2.4901601,48.90725461,2.5028092,48.9175353]},{"type":"Feature","id":"fr-quartier-93057-3c259f16dcff","properties":{"id":"fr-quartier-93057-3c259f16dcff","kind":"quartier","name":"Casanova","cityCode":"93057","cityName":"Les Pavillons-sous-Bois","sourceType":"iris","sourceIds":["930570104"],"colorIndex":2,"center":[2.5020581738297096,48.904440890000004]},"geometry":{"type":"MultiPolygon","coordinates":[[[[2.49928811,48.90235048],[2.49990062,48.90461927],[2.499346,48.90484088],[2.49929432,48.90468239],[2.49713432,48.90473629],[2.49728814,48.90575944],[2.49368744,48.90567862],[2.49369775,48.90728302],[2.49034726,48.90685693],[2.49017965,48.90725461],[2.49287562,48.90765095],[2.49284209,48.90773174],[2.49411847,48.90793049],[2.49441818,48.90797402],[2.4944667,48.90789509],[2.49514528,48.90797889],[2.50472363,48.90426251],[2.50444752,48.90403384],[2.50242331,48.90272866],[2.50342148,48.90219502],[2.50349789,48.90219264],[2.50361091,48.90235768],[2.50375294,48.90234028],[2.50488105,48.90248434],[2.50546966,48.9002592],[2.50544029,48.90019163],[2.50524376,48.90020341],[2.50120438,48.90195558],[2.50016803,48.90220127],[2.49928811,48.90235048]]]]},"bbox":[2.49017965,48.90019163,2.50546966,48.90797889]},{"type":"Feature","id":"fr-quartier-93057-65a0adff5e37","properties":{"id":"fr-quartier-93057-65a0adff5e37","kind":"quartier","name":"Émile Zola","cityCode":"93057","cityName":"Les Pavillons-sous-Bois","sourceType":"iris","sourceIds":["930570106"],"colorIndex":3,"center":[2.500816581379196,48.907476945]},"geometry":{"type":"MultiPolygon","coordinates":[[[[2.50472363,48.90426251],[2.49514528,48.90797889],[2.49511992,48.90806152],[2.50021496,48.90882121],[2.50330069,48.90927919],[2.50330015,48.90919196],[2.50447314,48.90936768],[2.50484688,48.90822802],[2.50542632,48.906975],[2.50439423,48.90676479],[2.50437985,48.90669908],[2.5043241,48.90667997],[2.50506621,48.90481789],[2.50517983,48.90477609],[2.50472363,48.90426251]]]]},"bbox":[2.49511992,48.90426251,2.50542632,48.90936768]},{"type":"Feature","id":"fr-quartier-93057-bc86b4718d63","properties":{"id":"fr-quartier-93057-bc86b4718d63","kind":"quartier","name":"Franklin","cityCode":"93057","cityName":"Les Pavillons-sous-Bois","sourceType":"iris","sourceIds":["930570107"],"colorIndex":4,"center":[2.5034791949581914,48.90219383]},"geometry":{"type":"MultiPolygon","coordinates":[[[[2.51457188,48.9050987],[2.51152167,48.90203588],[2.51146079,48.90198257],[2.5112908,48.90207181],[2.51103383,48.90183604],[2.50847497,48.89921669],[2.50562299,48.90005749],[2.50554758,48.90009765],[2.50562575,48.90019779],[2.50560607,48.90025886],[2.50546966,48.9002592],[2.50488105,48.90248434],[2.50375294,48.90234028],[2.50361091,48.90235768],[2.50349789,48.90219264],[2.50342148,48.90219502],[2.50242331,48.90272866],[2.50444752,48.90403384],[2.50472363,48.90426251],[2.50832456,48.90286634],[2.51110984,48.90565298],[2.51192486,48.90646297],[2.51444933,48.9053671],[2.51457188,48.9050987]]]]},"bbox":[2.50242331,48.89921669,2.51457188,48.90646297]},{"type":"Feature","id":"fr-quartier-93057-9df3646bb9b3","properties":{"id":"fr-quartier-93057-9df3646bb9b3","kind":"quartier","name":"Poudrette Sainte-Anne","cityCode":"93057","cityName":"Les Pavillons-sous-Bois","sourceType":"iris","sourceIds":["930570101"],"colorIndex":5,"center":[2.4975248122518465,48.915493515]},"geometry":{"type":"MultiPolygon","coordinates":[[[[2.49719349,48.9175353],[2.50617113,48.9186284],[2.50719745,48.91875313],[2.50578676,48.91743436],[2.50872521,48.91620633],[2.50851407,48.91472433],[2.50834163,48.91463549],[2.50897782,48.91314977],[2.5101494,48.91029752],[2.50831019,48.91002019],[2.50771775,48.91178577],[2.50663521,48.9114171],[2.50573025,48.91246465],[2.50676488,48.91285111],[2.50237883,48.91465944],[2.50220263,48.9145364],[2.50099692,48.91505927],[2.5028092,48.91674218],[2.50106129,48.91745345],[2.50084027,48.91745073],[2.49908334,48.91583366],[2.4988587,48.91592355],[2.49861978,48.91565457],[2.49841892,48.91554221],[2.49821624,48.91533633],[2.49815217,48.91532976],[2.49790843,48.91542047],[2.49780518,48.91551536],[2.49746585,48.91547167],[2.49639447,48.91592401],[2.49707877,48.91655729],[2.49707619,48.91668318],[2.49718904,48.91672412],[2.49719349,48.9175353]]]]},"bbox":[2.49639447,48.91002019,2.5101494,48.91875313]},{"type":"Feature","id":"fr-quartier-93057-c7719135230c","properties":{"id":"fr-quartier-93057-c7719135230c","kind":"quartier","name":"Président Wilson","cityCode":"93057","cityName":"Les Pavillons-sous-Bois","sourceType":"iris","sourceIds":["930570108"],"colorIndex":6,"center":[2.506479422860391,48.906771039999995]},"geometry":{"type":"MultiPolygon","coordinates":[[[[2.5101494,48.91029752],[2.51226986,48.91055527],[2.50851953,48.90677729],[2.51110984,48.90565298],[2.50832456,48.90286634],[2.50472363,48.90426251],[2.50517983,48.90477609],[2.50506621,48.90481789],[2.5043241,48.90667997],[2.50437985,48.90669908],[2.50439423,48.90676479],[2.50542632,48.906975],[2.50484688,48.90822802],[2.50447314,48.90936768],[2.50730286,48.90978134],[2.50735924,48.90987869],[2.50831019,48.91002019],[2.5101494,48.91029752]]]]},"bbox":[2.5043241,48.90286634,2.51226986,48.91055527]},{"type":"Feature","id":"fr-quartier-93057-bbcda1ad58c7","properties":{"id":"fr-quartier-93057-bbcda1ad58c7","kind":"quartier","name":"Stade","cityCode":"93057","cityName":"Les Pavillons-sous-Bois","sourceType":"iris","sourceIds":["930570105"],"colorIndex":7,"center":[2.499461696181859,48.89894061]},"geometry":{"type":"MultiPolygon","coordinates":[[[[2.50847497,48.89921669],[2.50801963,48.89875797],[2.50819758,48.89869126],[2.50803275,48.89852421],[2.50716115,48.89765909],[2.50514359,48.89854378],[2.50475529,48.89821033],[2.50400733,48.89854807],[2.50456656,48.89912325],[2.50231827,48.89930458],[2.50102471,48.8972182],[2.50216171,48.89670583],[2.50066336,48.89521574],[2.5001523,48.8957415],[2.49561156,48.89674677],[2.49611685,48.8975277],[2.49552266,48.89775722],[2.49599341,48.89816209],[2.49656935,48.89841002],[2.49719543,48.89968067],[2.49846341,48.89959965],[2.49952039,48.9020268],[2.49926325,48.90195648],[2.49928811,48.90235048],[2.50016803,48.90220127],[2.50120438,48.90195558],[2.50524376,48.90020341],[2.50544029,48.90019163],[2.50546966,48.9002592],[2.50560607,48.90025886],[2.50562575,48.90019779],[2.50554758,48.90009765],[2.50562299,48.90005749],[2.50847497,48.89921669]]]]},"bbox":[2.49552266,48.89521574,2.50847497,48.90235048]},{"type":"Feature","id":"fr-quartier-93057-840439e11e33","properties":{"id":"fr-quartier-93057-840439e11e33","kind":"quartier","name":"Victor Hugo","cityCode":"93057","cityName":"Les Pavillons-sous-Bois","sourceType":"iris","sourceIds":["930570109"],"colorIndex":8,"center":[2.5136628442742888,48.907810455]},"geometry":{"type":"MultiPolygon","coordinates":[[[[2.51226986,48.91055527],[2.51679049,48.91122288],[2.51945554,48.91161221],[2.52116664,48.91203543],[2.5213271,48.91209363],[2.51918958,48.90997802],[2.51766711,48.90849526],[2.51767178,48.90813916],[2.51788933,48.90748175],[2.51599443,48.90615754],[2.5152002,48.90574604],[2.51457188,48.9050987],[2.51444933,48.9053671],[2.51192486,48.90646297],[2.51110984,48.90565298],[2.50851953,48.90677729],[2.51226986,48.91055527]]]]},"bbox":[2.50851953,48.9050987,2.5213271,48.91209363]}]}