{"type":"FeatureCollection","metadata":{"sourceType":"iris","source":"IGN / INSEE — Contours IRIS 2026","sourceUrl":"https://data.geopf.fr/wfs/ows?service=WFS&version=2.0.0&request=GetFeature&typeNames=STATISTICALUNITS.IRIS%3Acontours_iris&outputFormat=application%2Fjson&srsName=CRS%3A84&count=1000&CQL_FILTER=code_insee%3D%2794018%27&sortBy=code_iris","retrievedDate":"2026-09-10","sourceYear":"2026","license":"Licence Ouverte 2.0"},"features":[{"type":"Feature","id":"fr-quartier-94018-57d720a5d98f","properties":{"id":"fr-quartier-94018-57d720a5d98f","kind":"quartier","name":"Archevêché","cityCode":"94018","cityName":"Charenton-le-Pont","sourceType":"iris","sourceIds":["940180108"],"colorIndex":0,"center":[2.4049730009420855,48.821046525]},"geometry":{"type":"MultiPolygon","coordinates":[[[[2.41311068,48.82147264],[2.41249642,48.82074742],[2.41215898,48.82035543],[2.41079479,48.82139469],[2.40983254,48.82169484],[2.4086209,48.8210458],[2.40815754,48.82035099],[2.40790099,48.8197957],[2.40638509,48.82015783],[2.40516741,48.82052232],[2.40503107,48.82053513],[2.40485626,48.82045692],[2.40458437,48.81993572],[2.40242211,48.82060127],[2.40132196,48.82104725],[2.4016629,48.82136464],[2.40229257,48.82180308],[2.40302707,48.82248398],[2.4031949,48.82257656],[2.40442695,48.8235828],[2.40546357,48.8245296],[2.4074896,48.82375721],[2.40927708,48.82287567],[2.41311068,48.82147264]]]]},"bbox":[2.40132196,48.8197957,2.41311068,48.8245296]},{"type":"Feature","id":"fr-quartier-94018-81754b255ef3","properties":{"id":"fr-quartier-94018-81754b255ef3","kind":"quartier","name":"Bercy","cityCode":"94018","cityName":"Charenton-le-Pont","sourceType":"iris","sourceIds":["940180109"],"colorIndex":1,"center":[2.3987168778418333,48.8240562]},"geometry":{"type":"MultiPolygon","coordinates":[[[[2.40018754,48.81985259],[2.39795649,48.82069129],[2.39552378,48.8220011],[2.39007201,48.82569233],[2.39095145,48.82608444],[2.39433987,48.82753884],[2.39570666,48.82772743],[2.39933693,48.82866577],[2.39931668,48.82853167],[2.40160178,48.8265717],[2.40293728,48.8256862],[2.40546357,48.8245296],[2.40442695,48.8235828],[2.4031949,48.82257656],[2.40302707,48.82248398],[2.40229257,48.82180308],[2.4016629,48.82136464],[2.40132196,48.82104725],[2.40018754,48.81985259]]]]},"bbox":[2.39007201,48.81985259,2.40546357,48.82866577]},{"type":"Feature","id":"fr-quartier-94018-554534a8e51b","properties":{"id":"fr-quartier-94018-554534a8e51b","kind":"quartier","name":"Bordeaux Victor Hugo","cityCode":"94018","cityName":"Charenton-le-Pont","sourceType":"iris","sourceIds":["940180106"],"colorIndex":2,"center":[2.4121149939654583,48.81975211]},"geometry":{"type":"MultiPolygon","coordinates":[[[[2.40815754,48.82035099],[2.4086209,48.8210458],[2.40983254,48.82169484],[2.41079479,48.82139469],[2.41215898,48.82035543],[2.41249642,48.82074742],[2.41273902,48.82061101],[2.41375548,48.81984703],[2.41370548,48.81981171],[2.41379127,48.81969251],[2.41515588,48.81811989],[2.41500726,48.81801394],[2.41466776,48.81804825],[2.41436112,48.81806654],[2.41421601,48.81813328],[2.41257994,48.81828984],[2.41288008,48.81860699],[2.41125814,48.8191998],[2.41143806,48.81942823],[2.40928883,48.82015602],[2.40830044,48.82036069],[2.40815754,48.82035099]]]]},"bbox":[2.40815754,48.81801394,2.41515588,48.82169484]},{"type":"Feature","id":"fr-quartier-94018-85bc56efd39b","properties":{"id":"fr-quartier-94018-85bc56efd39b","kind":"quartier","name":"Carrières","cityCode":"94018","cityName":"Charenton-le-Pont","sourceType":"iris","sourceIds":["940180107"],"colorIndex":3,"center":[2.4065854147271137,48.819314015]},"geometry":{"type":"MultiPolygon","coordinates":[[[[2.41592454,48.81624845],[2.41357584,48.81620188],[2.41070145,48.8163973],[2.40940041,48.81655726],[2.40900735,48.8168719],[2.40812226,48.8173397],[2.40541122,48.81813209],[2.40018754,48.81985259],[2.40132196,48.82104725],[2.40242211,48.82060127],[2.40458437,48.81993572],[2.40485626,48.82045692],[2.40503107,48.82053513],[2.40516741,48.82052232],[2.40638509,48.82015783],[2.40790099,48.8197957],[2.40815754,48.82035099],[2.40830044,48.82036069],[2.40928883,48.82015602],[2.41143806,48.81942823],[2.41125814,48.8191998],[2.41288008,48.81860699],[2.41257994,48.81828984],[2.41421601,48.81813328],[2.41436112,48.81806654],[2.41466776,48.81804825],[2.41592454,48.81624845]]]]},"bbox":[2.40018754,48.81620188,2.41592454,48.82104725]},{"type":"Feature","id":"fr-quartier-94018-adc2efa4e0a9","properties":{"id":"fr-quartier-94018-adc2efa4e0a9","kind":"quartier","name":"Centre Ville","cityCode":"94018","cityName":"Charenton-le-Pont","sourceType":"iris","sourceIds":["940180101"],"colorIndex":4,"center":[2.416730041580755,48.81975211]},"geometry":{"type":"MultiPolygon","coordinates":[[[[2.41975948,48.81686701],[2.41815328,48.81667123],[2.41592454,48.81624845],[2.41466776,48.81804825],[2.41500726,48.81801394],[2.41515588,48.81811989],[2.41379127,48.81969251],[2.41370548,48.81981171],[2.41375548,48.81984703],[2.41273902,48.82061101],[2.41249642,48.82074742],[2.41311068,48.82147264],[2.41334313,48.82175528],[2.41453955,48.82097599],[2.41979175,48.82131098],[2.41977456,48.82077487],[2.41963734,48.81854195],[2.41970894,48.81761504],[2.41975948,48.81686701]]]]},"bbox":[2.41249642,48.81624845,2.41979175,48.82175528]},{"type":"Feature","id":"fr-quartier-94018-96d919496954","properties":{"id":"fr-quartier-94018-96d919496954","kind":"quartier","name":"Conflans","cityCode":"94018","cityName":"Charenton-le-Pont","sourceType":"iris","sourceIds":["940180105"],"colorIndex":5,"center":[2.4111243279777947,48.822556925]},"geometry":{"type":"MultiPolygon","coordinates":[[[[2.41259675,48.82223818],[2.41287938,48.82205609],[2.41334313,48.82175528],[2.41311068,48.82147264],[2.40927708,48.82287567],[2.4074896,48.82375721],[2.40546357,48.8245296],[2.40690685,48.82589392],[2.41259675,48.82223818]]]]},"bbox":[2.40546357,48.82147264,2.41334313,48.82589392]},{"type":"Feature","id":"fr-quartier-94018-13335fbbfca8","properties":{"id":"fr-quartier-94018-13335fbbfca8","kind":"quartier","name":"Franges du Bois de Vincennes","cityCode":"94018","cityName":"Charenton-le-Pont","sourceType":"iris","sourceIds":["940180104"],"colorIndex":6,"center":[2.4090585968066422,48.825125944999996]},"geometry":{"type":"MultiPolygon","coordinates":[[[[2.40150845,48.82936198],[2.40223735,48.82958957],[2.40381405,48.82905961],[2.4051454,48.82830178],[2.40770668,48.82635027],[2.40917513,48.82550223],[2.40995515,48.82518321],[2.41007494,48.82506868],[2.41080023,48.82464955],[2.41119988,48.82435922],[2.41201615,48.82360057],[2.41267173,48.8225947],[2.41270975,48.82236375],[2.41259675,48.82223818],[2.40690685,48.82589392],[2.40150845,48.82936198]]]]},"bbox":[2.40150845,48.82223818,2.41270975,48.82958957]},{"type":"Feature","id":"fr-quartier-94018-c74d016b6298","properties":{"id":"fr-quartier-94018-c74d016b6298","kind":"quartier","name":"Gabrielle Leclerc","cityCode":"94018","cityName":"Charenton-le-Pont","sourceType":"iris","sourceIds":["940180102"],"colorIndex":7,"center":[2.4179213777687742,48.823023975]},"geometry":{"type":"MultiPolygon","coordinates":[[[[2.41787247,48.82450251],[2.41891465,48.82424137],[2.41996252,48.82408007],[2.41979175,48.82131098],[2.41453955,48.82097599],[2.41334313,48.82175528],[2.41287938,48.82205609],[2.41398474,48.82235201],[2.41790599,48.82369594],[2.41781789,48.82438893],[2.41787247,48.82450251]]]]},"bbox":[2.41287938,48.82097599,2.41996252,48.82450251]},{"type":"Feature","id":"fr-quartier-94018-b6b5c0701b55","properties":{"id":"fr-quartier-94018-b6b5c0701b55","kind":"quartier","name":"Plateau","cityCode":"94018","cityName":"Charenton-le-Pont","sourceType":"iris","sourceIds":["940180103"],"colorIndex":8,"center":[2.414499605031126,48.824374074999994]},"geometry":{"type":"MultiPolygon","coordinates":[[[[2.40995515,48.82518321],[2.41090728,48.82493968],[2.41193196,48.82478553],[2.41311093,48.82471757],[2.41597609,48.82477747],[2.41787247,48.82450251],[2.41781789,48.82438893],[2.41790599,48.82369594],[2.41398474,48.82235201],[2.41287938,48.82205609],[2.41259675,48.82223818],[2.41270975,48.82236375],[2.41267173,48.8225947],[2.41201615,48.82360057],[2.41119988,48.82435922],[2.41080023,48.82464955],[2.41007494,48.82506868],[2.40995515,48.82518321]]]]},"bbox":[2.40995515,48.82205609,2.41790599,48.82518321]},{"type":"Feature","id":"fr-quartier-94018-ac1272636968","properties":{"id":"fr-quartier-94018-ac1272636968","kind":"quartier","name":"Valmy","cityCode":"94018","cityName":"Charenton-le-Pont","sourceType":"iris","sourceIds":["940180110"],"colorIndex":9,"center":[2.402392797245257,48.827551685]},"geometry":{"type":"MultiPolygon","coordinates":[[[[2.39933693,48.82866577],[2.40102665,48.82920667],[2.40150845,48.82936198],[2.40690685,48.82589392],[2.40546357,48.8245296],[2.40293728,48.8256862],[2.40160178,48.8265717],[2.39931668,48.82853167],[2.39933693,48.82866577]]]]},"bbox":[2.39931668,48.8245296,2.40690685,48.82936198]}]}