{"type":"FeatureCollection","metadata":{"sourceType":"iris","source":"IGN / INSEE — Contours IRIS 2026","sourceUrl":"https://data.geopf.fr/wfs/ows?service=WFS&version=2.0.0&request=GetFeature&typeNames=STATISTICALUNITS.IRIS%3Acontours_iris&outputFormat=application%2Fjson&srsName=CRS%3A84&count=1000&CQL_FILTER=code_insee%3D%2794022%27&sortBy=code_iris","retrievedDate":"2026-09-10","sourceYear":"2026","license":"Licence Ouverte 2.0"},"features":[{"type":"Feature","id":"fr-quartier-94022-0be246abb6f2","properties":{"id":"fr-quartier-94022-0be246abb6f2","kind":"quartier","name":"Centre I","cityCode":"94022","cityName":"Choisy-le-Roi","sourceType":"iris","sourceIds":["940220102"],"colorIndex":0,"center":[2.4093248871833826,48.767437785]},"geometry":{"type":"MultiPolygon","coordinates":[[[[2.40787993,48.76815766],[2.40859867,48.76836808],[2.40904762,48.76849352],[2.40926589,48.76844334],[2.40953,48.76843025],[2.40973628,48.76847714],[2.41044267,48.76845725],[2.4105724,48.76841561],[2.41066203,48.76746627],[2.41057281,48.76729494],[2.410649,48.76596958],[2.40971203,48.76568883],[2.40918252,48.76643273],[2.4091948,48.76654971],[2.40926338,48.76662111],[2.40876672,48.76734628],[2.40859729,48.7674093],[2.40802278,48.76731921],[2.40787993,48.76815766]]]]},"bbox":[2.40787993,48.76568883,2.41066203,48.76849352]},{"type":"Feature","id":"fr-quartier-94022-24ec0c67bac7","properties":{"id":"fr-quartier-94022-24ec0c67bac7","kind":"quartier","name":"Centre II","cityCode":"94022","cityName":"Choisy-le-Roi","sourceType":"iris","sourceIds":["940220108"],"colorIndex":1,"center":[2.4066124608466013,48.766585410000005]},"geometry":{"type":"MultiPolygon","coordinates":[[[[2.40787993,48.76815766],[2.40802278,48.76731921],[2.40859729,48.7674093],[2.40876672,48.76734628],[2.40926338,48.76662111],[2.4091948,48.76654971],[2.40918252,48.76643273],[2.40971203,48.76568883],[2.40768062,48.76509865],[2.40712683,48.76486385],[2.40541514,48.76427881],[2.40457597,48.765568],[2.40431552,48.76609646],[2.40388763,48.7667509],[2.40386541,48.76690908],[2.40405356,48.76699457],[2.40787993,48.76815766]]]]},"bbox":[2.40386541,48.76427881,2.40971203,48.76815766]},{"type":"Feature","id":"fr-quartier-94022-6877fc3af0a9","properties":{"id":"fr-quartier-94022-6877fc3af0a9","kind":"quartier","name":"Centre Sud","cityCode":"94022","cityName":"Choisy-le-Roi","sourceType":"iris","sourceIds":["940220105"],"colorIndex":2,"center":[2.4078182907959444,48.764345004999996]},"geometry":{"type":"MultiPolygon","coordinates":[[[[2.40971203,48.76568883],[2.410649,48.76596958],[2.41068542,48.76479242],[2.41026708,48.76448905],[2.40998497,48.7644112],[2.41040177,48.76376658],[2.41090227,48.762455],[2.40748093,48.76147569],[2.40690321,48.76239293],[2.40671065,48.76233711],[2.40662801,48.76242664],[2.40541514,48.76427881],[2.40712683,48.76486385],[2.40768062,48.76509865],[2.40971203,48.76568883]]]]},"bbox":[2.40541514,48.76147569,2.41090227,48.76596958]},{"type":"Feature","id":"fr-quartier-94022-ebcb51017a77","properties":{"id":"fr-quartier-94022-ebcb51017a77","kind":"quartier","name":"Choisy Nord I","cityCode":"94022","cityName":"Choisy-le-Roi","sourceType":"iris","sourceIds":["940220109"],"colorIndex":3,"center":[2.40783190637742,48.768467195]},"geometry":{"type":"MultiPolygon","coordinates":[[[[2.40138791,48.77069493],[2.39918093,48.77411961],[2.39870487,48.77480977],[2.40032653,48.77508144],[2.40201646,48.77295921],[2.40580579,48.77358612],[2.40575922,48.77385121],[2.40709046,48.77393518],[2.41187424,48.77423584],[2.41163305,48.77245472],[2.41151656,48.7697523],[2.41164461,48.76792892],[2.41196518,48.76676845],[2.41220222,48.76637927],[2.41102475,48.76606857],[2.410649,48.76596958],[2.41057281,48.76729494],[2.41066203,48.76746627],[2.4105724,48.76841561],[2.41044267,48.76845725],[2.40973628,48.76847714],[2.40953,48.76843025],[2.40926589,48.76844334],[2.40904762,48.76849352],[2.40859867,48.76836808],[2.40675358,48.7682564],[2.40611249,48.77138678],[2.40138791,48.77069493]]]]},"bbox":[2.39870487,48.76596958,2.41220222,48.77508144]},{"type":"Feature","id":"fr-quartier-94022-f969f3b5e2e5","properties":{"id":"fr-quartier-94022-f969f3b5e2e5","kind":"quartier","name":"Choisy Nord II","cityCode":"94022","cityName":"Choisy-le-Roi","sourceType":"iris","sourceIds":["940220110"],"colorIndex":4,"center":[2.4055322914849233,48.76820703]},"geometry":{"type":"MultiPolygon","coordinates":[[[[2.40386541,48.76690908],[2.40138791,48.77069493],[2.40611249,48.77138678],[2.40675358,48.7682564],[2.40859867,48.76836808],[2.40787993,48.76815766],[2.40405356,48.76699457],[2.40386541,48.76690908]]]]},"bbox":[2.40138791,48.76690908,2.40859867,48.77138678]},{"type":"Feature","id":"fr-quartier-94022-701bd0076a34","properties":{"id":"fr-quartier-94022-701bd0076a34","kind":"quartier","name":"Général-Leclerc","cityCode":"94022","cityName":"Choisy-le-Roi","sourceType":"iris","sourceIds":["940220112"],"colorIndex":5,"center":[2.4044056045132356,48.76236502]},"geometry":{"type":"MultiPolygon","coordinates":[[[[2.40358989,48.76018184],[2.40316826,48.7614821],[2.40140294,48.762978],[2.40127163,48.7630394],[2.40541514,48.76427881],[2.40662801,48.76242664],[2.40671065,48.76233711],[2.40690321,48.76239293],[2.40748093,48.76147569],[2.40757122,48.76131154],[2.40358989,48.76018184]]]]},"bbox":[2.40127163,48.76018184,2.40757122,48.76427881]},{"type":"Feature","id":"fr-quartier-94022-1f5037c08ae8","properties":{"id":"fr-quartier-94022-1f5037c08ae8","kind":"quartier","name":"Gondoles Nord I","cityCode":"94022","cityName":"Choisy-le-Roi","sourceType":"iris","sourceIds":["940220201"],"colorIndex":6,"center":[2.4125612689386173,48.77044139]},"geometry":{"type":"MultiPolygon","coordinates":[[[[2.41187424,48.77423584],[2.41252712,48.77547035],[2.41468607,48.7772267],[2.41619672,48.77709558],[2.41590928,48.77663638],[2.41579166,48.77620229],[2.41590046,48.77523595],[2.4157871,48.77478659],[2.41401323,48.77206708],[2.41358424,48.77113048],[2.41356699,48.76963827],[2.41361479,48.76925895],[2.41424772,48.76729863],[2.41442127,48.76698918],[2.41305093,48.76664697],[2.4130704,48.76660929],[2.41220222,48.76637927],[2.41196518,48.76676845],[2.41164461,48.76792892],[2.41151656,48.7697523],[2.41163305,48.77245472],[2.41187424,48.77423584]]]]},"bbox":[2.41151656,48.76637927,2.41619672,48.7772267]},{"type":"Feature","id":"fr-quartier-94022-52804bc6fc72","properties":{"id":"fr-quartier-94022-52804bc6fc72","kind":"quartier","name":"Gondoles Nord II","cityCode":"94022","cityName":"Choisy-le-Roi","sourceType":"iris","sourceIds":["940220205"],"colorIndex":7,"center":[2.4212921140952988,48.773550314999994]},"geometry":{"type":"MultiPolygon","coordinates":[[[[2.41619672,48.77709558],[2.42825251,48.77609618],[2.42728837,48.77231404],[2.42752707,48.77089771],[2.42355049,48.76972554],[2.42358971,48.77196437],[2.41401323,48.77206708],[2.4157871,48.77478659],[2.41590046,48.77523595],[2.41579166,48.77620229],[2.41590928,48.77663638],[2.41619672,48.77709558]]]]},"bbox":[2.41401323,48.76972554,2.42825251,48.77709558]},{"type":"Feature","id":"fr-quartier-94022-f888b07f824c","properties":{"id":"fr-quartier-94022-f888b07f824c","kind":"quartier","name":"Gondoles Nord III","cityCode":"94022","cityName":"Choisy-le-Roi","sourceType":"iris","sourceIds":["940220206"],"colorIndex":8,"center":[2.418106163122461,48.76944861]},"geometry":{"type":"MultiPolygon","coordinates":[[[[2.41442127,48.76698918],[2.41424772,48.76729863],[2.41361479,48.76925895],[2.41356699,48.76963827],[2.41358424,48.77113048],[2.41401323,48.77206708],[2.42358971,48.77196437],[2.42355049,48.76972554],[2.41852324,48.76822703],[2.41442127,48.76698918]]]]},"bbox":[2.41356699,48.76698918,2.42358971,48.77206708]},{"type":"Feature","id":"fr-quartier-94022-c56465b31588","properties":{"id":"fr-quartier-94022-c56465b31588","kind":"quartier","name":"Gondoles Sud I","cityCode":"94022","cityName":"Choisy-le-Roi","sourceType":"iris","sourceIds":["940220202"],"colorIndex":9,"center":[2.423355606076393,48.759972435]},"geometry":{"type":"MultiPolygon","coordinates":[[[[2.43388505,48.76329017],[2.42663687,48.76052136],[2.4274012,48.75967328],[2.42850081,48.75814413],[2.42568784,48.75713317],[2.42579452,48.75646272],[2.42715516,48.75494473],[2.42782167,48.75345757],[2.42838326,48.75297727],[2.42856984,48.75258332],[2.42844581,48.75186048],[2.42852562,48.75152807],[2.42748069,48.75093664],[2.42457782,48.75269007],[2.42272403,48.75415078],[2.42161324,48.75557549],[2.42082391,48.75744787],[2.41943218,48.76027159],[2.41875421,48.76117042],[2.41786979,48.76191533],[2.41743442,48.76228287],[2.41657958,48.76281205],[2.42125904,48.76421363],[2.42200567,48.76313344],[2.424055,48.76395642],[2.42493338,48.76301446],[2.4273482,48.76400913],[2.42988511,48.76491978],[2.43156274,48.76441151],[2.43336956,48.76377881],[2.43387482,48.76373174],[2.43388505,48.76329017]]]]},"bbox":[2.41657958,48.75093664,2.43388505,48.76491978]},{"type":"Feature","id":"fr-quartier-94022-8027af7e45b9","properties":{"id":"fr-quartier-94022-8027af7e45b9","kind":"quartier","name":"Gondoles Sud II","cityCode":"94022","cityName":"Choisy-le-Roi","sourceType":"iris","sourceIds":["940220203"],"colorIndex":10,"center":[2.4160854405603724,48.7662367]},"geometry":{"type":"MultiPolygon","coordinates":[[[[2.41657958,48.76281205],[2.41477392,48.76393199],[2.41345347,48.76496884],[2.41237958,48.76609413],[2.41220222,48.76637927],[2.4130704,48.76660929],[2.41305093,48.76664697],[2.41442127,48.76698918],[2.41852324,48.76822703],[2.42125904,48.76421363],[2.41657958,48.76281205]]]]},"bbox":[2.41220222,48.76281205,2.42125904,48.76822703]},{"type":"Feature","id":"fr-quartier-94022-3bf88d154d26","properties":{"id":"fr-quartier-94022-3bf88d154d26","kind":"quartier","name":"Gondoles Sud III","cityCode":"94022","cityName":"Choisy-le-Roi","sourceType":"iris","sourceIds":["940220204"],"colorIndex":11,"center":[2.4291154075611976,48.765733264999994]},"geometry":{"type":"MultiPolygon","coordinates":[[[[2.43549256,48.76724442],[2.43608261,48.76665539],[2.43639167,48.76651025],[2.43707758,48.76636688],[2.43804523,48.76570767],[2.43822155,48.76575886],[2.43843099,48.76564022],[2.43983162,48.76469432],[2.4385096,48.76364479],[2.44004153,48.76275526],[2.44217088,48.76222647],[2.44229649,48.76180253],[2.44142497,48.76124442],[2.43689733,48.7623915],[2.43415466,48.76339399],[2.43388505,48.76329017],[2.43387482,48.76373174],[2.43336956,48.76377881],[2.43156274,48.76441151],[2.42988511,48.76491978],[2.4273482,48.76400913],[2.42493338,48.76301446],[2.424055,48.76395642],[2.42200567,48.76313344],[2.42125904,48.76421363],[2.41852324,48.76822703],[2.42355049,48.76972554],[2.42752707,48.77089771],[2.42753865,48.77083391],[2.4324932,48.7723074],[2.43232214,48.77102043],[2.43052743,48.77064313],[2.43079518,48.77004719],[2.43072303,48.76930123],[2.43195485,48.76751097],[2.43140429,48.76734196],[2.43159749,48.76696692],[2.43196955,48.76678521],[2.43358684,48.76682527],[2.43449709,48.7669483],[2.43549256,48.76724442]]]]},"bbox":[2.41852324,48.76124442,2.44229649,48.7723074]},{"type":"Feature","id":"fr-quartier-94022-2e29b529aed3","properties":{"id":"fr-quartier-94022-2e29b529aed3","kind":"quartier","name":"Hautes Bornes Navigateurs I","cityCode":"94022","cityName":"Choisy-le-Roi","sourceType":"iris","sourceIds":["940220107"],"colorIndex":12,"center":[2.4099051242684215,48.754173775]},"geometry":{"type":"MultiPolygon","coordinates":[[[[2.4165944,48.75247774],[2.41375793,48.75166965],[2.41331364,48.75247336],[2.40605509,48.75108113],[2.40532809,48.75376771],[2.41065147,48.75466385],[2.41159287,48.75489694],[2.41217963,48.7540076],[2.41337156,48.75433995],[2.41344445,48.75438978],[2.41353296,48.75438122],[2.41380967,48.75445094],[2.4150856,48.75481427],[2.4165944,48.75247774]]]]},"bbox":[2.40532809,48.75108113,2.4165944,48.75489694]},{"type":"Feature","id":"fr-quartier-94022-3c17007af782","properties":{"id":"fr-quartier-94022-3c17007af782","kind":"quartier","name":"Parc Maurice-Thorez","cityCode":"94022","cityName":"Choisy-le-Roi","sourceType":"iris","sourceIds":["940220111"],"colorIndex":13,"center":[2.402419300898961,48.764060325]},"geometry":{"type":"MultiPolygon","coordinates":[[[[2.40127163,48.7630394],[2.40068375,48.76317136],[2.4007574,48.76339209],[2.40050667,48.76342681],[2.40040667,48.76384184],[2.39806641,48.76586456],[2.40386541,48.76690908],[2.40388763,48.7667509],[2.40431552,48.76609646],[2.40457597,48.765568],[2.40541514,48.76427881],[2.40127163,48.7630394]]]]},"bbox":[2.39806641,48.7630394,2.40541514,48.76690908]},{"type":"Feature","id":"fr-quartier-94022-d8cf9184f6ac","properties":{"id":"fr-quartier-94022-d8cf9184f6ac","kind":"quartier","name":"Parc Prairie II","cityCode":"94022","cityName":"Choisy-le-Roi","sourceType":"iris","sourceIds":["940220106"],"colorIndex":14,"center":[2.4130462180313432,48.756090325]},"geometry":{"type":"MultiPolygon","coordinates":[[[[2.42457782,48.75269007],[2.42124381,48.75061606],[2.42015318,48.74973922],[2.41811328,48.75288629],[2.4165944,48.75247774],[2.4150856,48.75481427],[2.41380967,48.75445094],[2.41353296,48.75438122],[2.41344445,48.75438978],[2.41337156,48.75433995],[2.41217963,48.7540076],[2.41159287,48.75489694],[2.41065147,48.75466385],[2.40532809,48.75376771],[2.40520757,48.75419794],[2.40455712,48.75660516],[2.40960145,48.75802341],[2.40969075,48.75806613],[2.40952329,48.75831894],[2.41247815,48.75915019],[2.41292398,48.75845802],[2.4135831,48.75863665],[2.41440178,48.75866045],[2.41468854,48.75868524],[2.41489505,48.75883016],[2.41487512,48.75963685],[2.41500004,48.75990099],[2.41518842,48.75996487],[2.41700239,48.7611331],[2.41786979,48.76191533],[2.41875421,48.76117042],[2.41943218,48.76027159],[2.42082391,48.75744787],[2.42161324,48.75557549],[2.42272403,48.75415078],[2.42457782,48.75269007]]]]},"bbox":[2.40455712,48.74973922,2.42457782,48.76191533]},{"type":"Feature","id":"fr-quartier-94022-062d8a9dec0f","properties":{"id":"fr-quartier-94022-062d8a9dec0f","kind":"quartier","name":"Port","cityCode":"94022","cityName":"Choisy-le-Roi","sourceType":"iris","sourceIds":["940220114"],"colorIndex":15,"center":[2.4148872183073227,48.7620991]},"geometry":{"type":"MultiPolygon","coordinates":[[[[2.41220222,48.76637927],[2.41237958,48.76609413],[2.41345347,48.76496884],[2.41477392,48.76393199],[2.41657958,48.76281205],[2.41743442,48.76228287],[2.41786979,48.76191533],[2.41700239,48.7611331],[2.41518842,48.75996487],[2.41500004,48.75990099],[2.41487512,48.75963685],[2.41489505,48.75883016],[2.41468854,48.75868524],[2.41440178,48.75866045],[2.41230198,48.76174865],[2.41168019,48.76296161],[2.41136322,48.7638037],[2.41112709,48.76495739],[2.41102475,48.76606857],[2.41220222,48.76637927]]]]},"bbox":[2.41102475,48.75866045,2.41786979,48.76637927]},{"type":"Feature","id":"fr-quartier-94022-8e5db7e3d459","properties":{"id":"fr-quartier-94022-8e5db7e3d459","kind":"quartier","name":"République","cityCode":"94022","cityName":"Choisy-le-Roi","sourceType":"iris","sourceIds":["940220113"],"colorIndex":16,"center":[2.410034729283076,48.761393615]},"geometry":{"type":"MultiPolygon","coordinates":[[[[2.40455712,48.75660516],[2.40415671,48.75807732],[2.40358989,48.76018184],[2.40757122,48.76131154],[2.40748093,48.76147569],[2.41090227,48.762455],[2.41040177,48.76376658],[2.40998497,48.7644112],[2.41026708,48.76448905],[2.41068542,48.76479242],[2.410649,48.76596958],[2.41102475,48.76606857],[2.41112709,48.76495739],[2.41136322,48.7638037],[2.41168019,48.76296161],[2.41230198,48.76174865],[2.41440178,48.75866045],[2.4135831,48.75863665],[2.41292398,48.75845802],[2.41247815,48.75915019],[2.40952329,48.75831894],[2.40969075,48.75806613],[2.40960145,48.75802341],[2.40455712,48.75660516]]]]},"bbox":[2.40358989,48.75660516,2.41440178,48.76606857]}]}