{"type":"FeatureCollection","metadata":{"sourceType":"iris","referenceFile":"montmagny-quartiers.geojson","source":"IGN / INSEE - Contours IRIS WFS Géoplateforme","sourceUrl":"https://geoservices.ign.fr/contoursiris","license":"Licence Ouverte / Open Licence 2.0","sourceYear":"2026"},"features":[{"type":"Feature","id":"fr-quartier-95427-622886cfeb4d","properties":{"id":"fr-quartier-95427-622886cfeb4d","kind":"quartier","name":"Barrage","cityCode":"95427","cityName":"Montmagny","sourceType":"iris","sourceIds":["954270107"],"colorIndex":0,"center":[2.3606755002171917,48.97558669790095]},"geometry":{"type":"MultiPolygon","coordinates":[[[[2.35641037,48.97736776],[2.36006333,48.97803206],[2.36026951,48.97792975],[2.36227542,48.97789187],[2.36263486,48.97854843],[2.36278249,48.97865263],[2.36409654,48.97888891],[2.3642064,48.97861972],[2.36581768,48.97453846],[2.36587764,48.97432655],[2.36574194,48.97402818],[2.36529174,48.97308608],[2.36265385,48.97365751],[2.36267217,48.97372235],[2.36162896,48.97402255],[2.3609187,48.9731285],[2.36033801,48.97336281],[2.36013922,48.97319899],[2.36000711,48.97316771],[2.35971629,48.97315626],[2.35868159,48.97331979],[2.35765268,48.97312455],[2.35585899,48.97390807],[2.35427888,48.97442923],[2.35503333,48.97527679],[2.35555365,48.97572922],[2.35598685,48.97604718],[2.35660385,48.97641559],[2.35717585,48.97655714],[2.35657797,48.97729222],[2.35641037,48.97736776]]]]},"bbox":[2.35427888,48.97308608,2.36587764,48.97888891]},{"type":"Feature","id":"fr-quartier-95427-b967d207c9bd","properties":{"id":"fr-quartier-95427-b967d207c9bd","kind":"quartier","name":"Carrières Faucilles-Butte Pinson","cityCode":"95427","cityName":"Montmagny","sourceType":"iris","sourceIds":["954270106"],"colorIndex":1,"center":[2.352547015671242,48.97110018728586]},"geometry":{"type":"MultiPolygon","coordinates":[[[[2.35346634,48.96562382],[2.35257048,48.9657251],[2.3520137,48.96590735],[2.35163733,48.96618858],[2.35157594,48.96662079],[2.35051649,48.96702422],[2.34849863,48.96750337],[2.34719445,48.96770491],[2.3470776,48.96765661],[2.3450822,48.96819068],[2.34551327,48.96834231],[2.34579523,48.96862082],[2.34918705,48.97382799],[2.34959376,48.97440302],[2.34998126,48.97476662],[2.35075682,48.97534095],[2.35159099,48.97581757],[2.35201899,48.97600243],[2.35641037,48.97736776],[2.35657797,48.97729222],[2.35717585,48.97655714],[2.35660385,48.97641559],[2.35598685,48.97604718],[2.35555365,48.97572922],[2.35503333,48.97527679],[2.35427888,48.97442923],[2.35585899,48.97390807],[2.35765268,48.97312455],[2.35868159,48.97331979],[2.35971629,48.97315626],[2.36000711,48.97316771],[2.36013922,48.97319899],[2.36033801,48.97336281],[2.3609187,48.9731285],[2.36049516,48.97269101],[2.36009205,48.97248113],[2.35898493,48.97286909],[2.35750623,48.97082706],[2.356424,48.96909559],[2.35692916,48.96878176],[2.35653326,48.96843432],[2.35480395,48.96690348],[2.35392497,48.96575579],[2.35364955,48.96582805],[2.35346634,48.96562382]]]]},"bbox":[2.3450822,48.96562382,2.3609187,48.97736776]},{"type":"Feature","id":"fr-quartier-95427-6ff721c9c5c8","properties":{"id":"fr-quartier-95427-6ff721c9c5c8","kind":"quartier","name":"Centre Ville Nord","cityCode":"95427","cityName":"Montmagny","sourceType":"iris","sourceIds":["954270105"],"colorIndex":2,"center":[2.349575395829376,48.97691137683362]},"geometry":{"type":"MultiPolygon","coordinates":[[[[2.34274347,48.97491872],[2.34292597,48.97550244],[2.34375085,48.97692597],[2.34420788,48.97805704],[2.34431679,48.97787059],[2.3450451,48.97742314],[2.34487932,48.97691955],[2.34623211,48.97656454],[2.34775717,48.97924541],[2.34802025,48.97994556],[2.34841966,48.97936142],[2.34982286,48.97825666],[2.35121182,48.97916253],[2.35289485,48.97960686],[2.35444006,48.97981931],[2.35641037,48.97736776],[2.35201899,48.97600243],[2.35159099,48.97581757],[2.35075682,48.97534095],[2.34998126,48.97476662],[2.34959376,48.97440302],[2.34918705,48.97382799],[2.3488138,48.97385474],[2.34749956,48.97419201],[2.34666143,48.97436191],[2.34662255,48.97441205],[2.34621658,48.97454113],[2.34511033,48.97484804],[2.34395018,48.97509529],[2.34274347,48.97491872]]]]},"bbox":[2.34274347,48.97382799,2.35641037,48.97994556]},{"type":"Feature","id":"fr-quartier-95427-4131e84aa026","properties":{"id":"fr-quartier-95427-4131e84aa026","kind":"quartier","name":"Centre Ville Sud","cityCode":"95427","cityName":"Montmagny","sourceType":"iris","sourceIds":["954270104"],"colorIndex":3,"center":[2.344739810124581,48.97179294384859]},"geometry":{"type":"MultiPolygon","coordinates":[[[[2.3450822,48.96819068],[2.34465877,48.96819197],[2.34386504,48.96842144],[2.34301591,48.96871085],[2.34075783,48.96938009],[2.34135212,48.97001734],[2.34201149,48.97112524],[2.34261943,48.97187316],[2.34261296,48.97195316],[2.34251333,48.97205423],[2.34190802,48.97228472],[2.34144201,48.97240985],[2.34214424,48.97358724],[2.34274347,48.97491872],[2.34395018,48.97509529],[2.34511033,48.97484804],[2.34621658,48.97454113],[2.34662255,48.97441205],[2.34666143,48.97436191],[2.34749956,48.97419201],[2.3488138,48.97385474],[2.34918705,48.97382799],[2.34579523,48.96862082],[2.34551327,48.96834231],[2.3450822,48.96819068]]]]},"bbox":[2.34075783,48.96819068,2.34918705,48.97509529]},{"type":"Feature","id":"fr-quartier-95427-adac045ca277","properties":{"id":"fr-quartier-95427-adac045ca277","kind":"quartier","name":"La Plante des Champs-Tas de Cailloux","cityCode":"95427","cityName":"Montmagny","sourceType":"iris","sourceIds":["954270102"],"colorIndex":4,"center":[2.337633220912259,48.967209159629036]},"geometry":{"type":"MultiPolygon","coordinates":[[[[2.34386504,48.96842144],[2.34137364,48.96476127],[2.33987067,48.96255161],[2.33893318,48.96292144],[2.33842406,48.96322079],[2.33749153,48.9636284],[2.33587721,48.96416443],[2.3355578,48.96393694],[2.33445703,48.96564214],[2.33470142,48.96596902],[2.3336288,48.96632547],[2.33386286,48.96671256],[2.33320303,48.96757488],[2.3335246,48.96816748],[2.33191365,48.96895886],[2.33127117,48.96963602],[2.33077133,48.97026631],[2.33308208,48.97072162],[2.33435428,48.97110727],[2.33662809,48.969753],[2.33704533,48.97002418],[2.33847148,48.96947631],[2.33893234,48.96996985],[2.34075783,48.96938009],[2.34301591,48.96871085],[2.34386504,48.96842144]]]]},"bbox":[2.33077133,48.96255161,2.34386504,48.97110727]},{"type":"Feature","id":"fr-quartier-95427-998bbde30b6f","properties":{"id":"fr-quartier-95427-998bbde30b6f","kind":"quartier","name":"Les Sablons","cityCode":"95427","cityName":"Montmagny","sourceType":"iris","sourceIds":["954270101"],"colorIndex":5,"center":[2.3335990893363707,48.96092177671604]},"geometry":{"type":"MultiPolygon","coordinates":[[[[2.33893318,48.96292144],[2.33745517,48.96090882],[2.33807764,48.96007234],[2.33778061,48.95969751],[2.33680379,48.95844303],[2.33636076,48.95773915],[2.33563807,48.95712094],[2.33551494,48.95713914],[2.3350644,48.95681111],[2.33426849,48.95604771],[2.33402381,48.95617405],[2.33336294,48.95531787],[2.33080348,48.95737013],[2.32922439,48.95846651],[2.32791896,48.95951584],[2.32954188,48.96000334],[2.33146423,48.96099607],[2.33032526,48.96163269],[2.3305117,48.96178931],[2.32954918,48.96229651],[2.33061544,48.96338518],[2.3302364,48.96354763],[2.33020511,48.96364458],[2.33103895,48.96464832],[2.33093136,48.96483656],[2.33053877,48.96499084],[2.33173708,48.96633113],[2.33427613,48.96547747],[2.33445703,48.96564214],[2.3355578,48.96393694],[2.33587721,48.96416443],[2.33749153,48.9636284],[2.33842406,48.96322079],[2.33893318,48.96292144]]]]},"bbox":[2.32791896,48.95531787,2.33893318,48.96633113]},{"type":"Feature","id":"fr-quartier-95427-0bf884652080","properties":{"id":"fr-quartier-95427-0bf884652080","kind":"quartier","name":"Lévriers-Gare","cityCode":"95427","cityName":"Montmagny","sourceType":"iris","sourceIds":["954270103"],"colorIndex":6,"center":[2.3388591341352822,48.972398390643534]},"geometry":{"type":"MultiPolygon","coordinates":[[[[2.33435428,48.97110727],[2.33626122,48.97195595],[2.33642253,48.97258812],[2.33589589,48.97392869],[2.33566936,48.9753006],[2.3366291,48.97523937],[2.34147644,48.9747598],[2.34274347,48.97491872],[2.34214424,48.97358724],[2.34144201,48.97240985],[2.34190802,48.97228472],[2.34251333,48.97205423],[2.34261296,48.97195316],[2.34261943,48.97187316],[2.34201149,48.97112524],[2.34135212,48.97001734],[2.34075783,48.96938009],[2.33893234,48.96996985],[2.33847148,48.96947631],[2.33704533,48.97002418],[2.33662809,48.969753],[2.33435428,48.97110727]]]]},"bbox":[2.33435428,48.96938009,2.34274347,48.9753006]}]}