{"type":"FeatureCollection","metadata":{"sourceType":"iris","source":"IGN / INSEE — Contours IRIS 2026","sourceUrl":"https://data.geopf.fr/wfs/ows?service=WFS&version=2.0.0&request=GetFeature&typeNames=STATISTICALUNITS.IRIS%3Acontours_iris&outputFormat=application%2Fjson&srsName=CRS%3A84&count=1000&CQL_FILTER=code_insee%3D%2797109%27&sortBy=code_iris","retrievedDate":"2026-09-10","sourceYear":"2026","license":"Licence Ouverte 2.0"},"features":[{"type":"Feature","id":"fr-quartier-97109-b81b357c374d","properties":{"id":"fr-quartier-97109-b81b357c374d","kind":"quartier","name":"Blanchet-Le Bourg","cityCode":"97109","cityName":"Gourbeyre","sourceType":"iris","sourceIds":["971090102"],"colorIndex":0,"center":[-61.700085390986246,15.996532214999998]},"geometry":{"type":"MultiPolygon","coordinates":[[[[-61.71440171,15.99450003],[-61.71404181,15.99452318],[-61.71399128,15.99468015],[-61.71436715,15.99522922],[-61.71435708,15.99548857],[-61.71321262,15.99574655],[-61.7128509,15.99649096],[-61.71248573,15.99660627],[-61.71082633,15.99745678],[-61.71069025,15.9978392],[-61.71051492,15.99793215],[-61.71036727,15.99793307],[-61.71012589,15.99754206],[-61.70979721,15.9972129],[-61.70949806,15.9972337],[-61.70931736,15.99743417],[-61.70906524,15.99827956],[-61.70870565,15.99839761],[-61.70807041,15.99836939],[-61.70790517,15.99849132],[-61.70777497,15.99897499],[-61.70735223,15.99961418],[-61.70726063,16.00005471],[-61.70602021,16.00011774],[-61.70571102,16.00038974],[-61.70527392,16.00050009],[-61.7047824,16.00078997],[-61.70447773,16.0010855],[-61.7036863,16.00122353],[-61.70353701,16.00147752],[-61.70355919,16.00195126],[-61.70294951,16.00215908],[-61.70254433,16.00239073],[-61.70242403,16.00249847],[-61.70226482,16.00298648],[-61.7021041,16.00298551],[-61.70167457,16.0027913],[-61.70132721,16.00275124],[-61.70117462,16.00293832],[-61.70103085,16.00349512],[-61.70080247,16.0036971],[-61.7006795,16.00363761],[-61.70042979,16.0032366],[-61.70031859,16.00323683],[-61.70030676,16.00390922],[-61.70012884,16.00411151],[-61.69976286,16.00406049],[-61.69936673,16.00375892],[-61.69878083,16.00159247],[-61.69790125,16.00163234],[-61.69742882,16.00156982],[-61.69503445,16.00075178],[-61.69459203,16.00053036],[-61.69445115,16.00049516],[-61.69440485,16.0004307],[-61.69433383,16.00057489],[-61.69394834,16.0009386],[-61.69384391,16.00119104],[-61.69358335,16.00131238],[-61.69344783,16.00145888],[-61.693181,16.00182602],[-61.69313613,16.00197127],[-61.69304133,16.00203667],[-61.69292681,16.00226013],[-61.69239498,16.00242229],[-61.69153227,16.00288433],[-61.69143757,16.00264694],[-61.69143704,16.00244087],[-61.69163763,16.0011984],[-61.69152312,16.0007015],[-61.69158529,16.00019392],[-61.69155112,16.00013225],[-61.69150958,15.99919291],[-61.69164888,15.99803322],[-61.69161577,15.99780887],[-61.69133161,15.99696115],[-61.69119793,15.99697027],[-61.69068043,15.9966562],[-61.69060632,15.99670094],[-61.6909639,15.99760967],[-61.69103657,15.99792917],[-61.69100286,15.99808352],[-61.69091807,15.99804595],[-61.6907975,15.99776321],[-61.69028886,15.99752331],[-61.6901796,15.99736899],[-61.69007481,15.99710353],[-61.69000246,15.99702084],[-61.68993332,15.99702041],[-61.68990924,15.99712963],[-61.69002112,15.99731199],[-61.69002814,15.99738253],[-61.68995171,15.99792617],[-61.68996837,15.99809349],[-61.68989515,15.99814546],[-61.68980872,15.99807353],[-61.68964949,15.99755737],[-61.68951882,15.99739117],[-61.68899096,15.9972334],[-61.68872438,15.99727425],[-61.68811909,15.9968105],[-61.68793101,15.99670632],[-61.68703794,15.99638271],[-61.68669484,15.99640863],[-61.68601286,15.9966711],[-61.68558785,15.99664771],[-61.6852725,15.99657347],[-61.68519531,15.99666067],[-61.68511181,15.99685449],[-61.68473997,15.99713059],[-61.68465503,15.99711561],[-61.68406682,15.9966149],[-61.683675,15.99623199],[-61.6836484,15.9961559],[-61.68367688,15.99608648],[-61.684073,15.99581324],[-61.68408091,15.9957464],[-61.68378416,15.99511461],[-61.68369555,15.99480586],[-61.68345384,15.99447357],[-61.68322952,15.99405372],[-61.68302206,15.99305823],[-61.68272611,15.99244903],[-61.68267401,15.99227066],[-61.68247121,15.99227574],[-61.68242061,15.99201332],[-61.68244018,15.99187877],[-61.68251677,15.99174005],[-61.68272747,15.99152713],[-61.68273058,15.99148105],[-61.68258809,15.99140787],[-61.68252788,15.99132796],[-61.68175968,15.99148956],[-61.68138021,15.99150441],[-61.68175658,15.99110632],[-61.68235415,15.99060473],[-61.68279669,15.99037516],[-61.68311223,15.99027496],[-61.68335806,15.99026291],[-61.68347611,15.99021482],[-61.68362721,15.99025552],[-61.68388913,15.99021283],[-61.68414694,15.99022435],[-61.68889338,15.99070166],[-61.68937307,15.99079135],[-61.68972216,15.99099323],[-61.68973425,15.99085863],[-61.6898588,15.990816],[-61.68991341,15.99060936],[-61.68971669,15.99039847],[-61.68963757,15.99006447],[-61.68953528,15.98998882],[-61.6892834,15.98992673],[-61.6891878,15.98982853],[-61.68909178,15.98864663],[-61.68909995,15.98854003],[-61.68916602,15.9884383],[-61.69004886,15.9876013],[-61.68995002,15.98742625],[-61.6898108,15.9872826],[-61.68958763,15.98582515],[-61.69075591,15.98563433],[-61.6911074,15.98661442],[-61.69198448,15.98623111],[-61.69284327,15.98607273],[-61.69490533,15.98493828],[-61.69469469,15.98543321],[-61.69509078,15.98559018],[-61.69680746,15.98642127],[-61.69863635,15.98695206],[-61.69905919,15.9870206],[-61.7001567,15.98708147],[-61.70166057,15.98730205],[-61.70240846,15.98709959],[-61.70282267,15.98705689],[-61.70478331,15.98715639],[-61.70485504,15.98791605],[-61.70769982,15.98929436],[-61.70777049,15.98905797],[-61.70862595,15.98825327],[-61.70876435,15.98823693],[-61.70904403,15.98833622],[-61.70921525,15.988302],[-61.70927167,15.9882454],[-61.70938052,15.9878827],[-61.7095518,15.98769302],[-61.70971311,15.98759999],[-61.71085027,15.98920391],[-61.7118243,15.99045615],[-61.71186282,15.99057026],[-61.7121139,15.99061244],[-61.7126246,15.99082429],[-61.71324395,15.99084969],[-61.71373588,15.99078304],[-61.71405424,15.9906801],[-61.71480016,15.99019919],[-61.71493686,15.99015662],[-61.71550308,15.99030733],[-61.71588399,15.99035842],[-61.7159657,15.99043935],[-61.71627129,15.99043394],[-61.71437864,15.99167717],[-61.71334599,15.99228109],[-61.71378614,15.99315232],[-61.71408682,15.99362231],[-61.7144253,15.99446401],[-61.71440171,15.99450003]]]]},"bbox":[-61.71627129,15.98493828,-61.68138021,16.00411151]},{"type":"Feature","id":"fr-quartier-97109-85a96619d976","properties":{"id":"fr-quartier-97109-85a96619d976","kind":"quartier","name":"Champfleury-Palmiste","cityCode":"97109","cityName":"Gourbeyre","sourceType":"iris","sourceIds":["971090103"],"colorIndex":1,"center":[-61.69130606623704,15.997786040000001]},"geometry":{"type":"MultiPolygon","coordinates":[[[[-61.65969946,16.04231101],[-61.65820172,16.04070458],[-61.65783262,16.04055314],[-61.65713028,16.03992058],[-61.65639398,16.039615],[-61.65635633,16.03825902],[-61.65622251,16.03730917],[-61.65594607,16.03671995],[-61.65618547,16.03586281],[-61.65614389,16.0350943],[-61.65586716,16.03455027],[-61.65564109,16.03341907],[-61.65514696,16.03156765],[-61.65513736,16.03132536],[-61.65518325,16.03089362],[-61.65538032,16.03035527],[-61.65549099,16.02820395],[-61.65595363,16.02750187],[-61.65613298,16.02709627],[-61.65612295,16.02580374],[-61.65645611,16.02419882],[-61.65634735,16.0236938],[-61.65653041,16.02329094],[-61.65707574,16.02279905],[-61.65717972,16.02262165],[-61.65729369,16.0223485],[-61.65754417,16.02094823],[-61.65818612,16.02011982],[-61.65848705,16.01941852],[-61.65832647,16.01855708],[-61.65794278,16.01807746],[-61.65835485,16.0172458],[-61.65826218,16.01684934],[-61.65860068,16.01584007],[-61.65862729,16.01563326],[-61.65851883,16.01536144],[-61.65864779,16.01494196],[-61.65959905,16.0134114],[-61.66030069,16.01259691],[-61.66099813,16.01156908],[-61.66143855,16.01110636],[-61.66188169,16.01023692],[-61.66306231,16.00933864],[-61.66307939,16.00887779],[-61.66347677,16.00828193],[-61.66347855,16.0081554],[-61.66308098,16.00709454],[-61.66299846,16.00629504],[-61.66322897,16.00591868],[-61.66406804,16.00550904],[-61.66437061,16.00497585],[-61.66435465,16.00484651],[-61.6640935,16.00463067],[-61.66404232,16.00445863],[-61.66407439,16.00427354],[-61.66448447,16.00387298],[-61.66435231,16.00337053],[-61.66515654,16.00314054],[-61.66541008,16.00281221],[-61.66602003,16.00256835],[-61.66663118,16.00214192],[-61.66674811,16.00198357],[-61.66841099,16.00148412],[-61.66877715,16.00108238],[-61.66893818,16.00075438],[-61.66888167,16.00025692],[-61.6686632,15.99994556],[-61.66856606,15.99951654],[-61.66852516,15.99891975],[-61.66885439,15.998309],[-61.66927241,15.99783526],[-61.66955875,15.99720887],[-61.66958527,15.99673091],[-61.66937249,15.99640783],[-61.66881147,15.99590001],[-61.66877247,15.99572172],[-61.66883548,15.99551875],[-61.66836685,15.99474578],[-61.66811423,15.99465473],[-61.66771291,15.99472365],[-61.66749996,15.99456868],[-61.6672533,15.99371754],[-61.66692756,15.99309911],[-61.6668879,15.99231524],[-61.66671366,15.99153596],[-61.66675751,15.99140518],[-61.66694991,15.99071313],[-61.66686026,15.99014225],[-61.66702108,15.98984408],[-61.66678292,15.98954524],[-61.66701086,15.9889899],[-61.66709301,15.98843726],[-61.66739718,15.98779742],[-61.66682475,15.98760497],[-61.66609863,15.98691537],[-61.66569589,15.9867791],[-61.66531298,15.98675142],[-61.665143,15.98659852],[-61.66499598,15.98636622],[-61.66499439,15.98604264],[-61.66475336,15.98561453],[-61.66439482,15.98543425],[-61.66412624,15.98493367],[-61.6639905,15.98426851],[-61.66407287,15.98340315],[-61.66396279,15.98309516],[-61.66373223,15.98292019],[-61.66327065,15.98277994],[-61.66281101,15.98206758],[-61.6619845,15.98172802],[-61.66191901,15.98160017],[-61.66193432,15.98140504],[-61.66217776,15.98090673],[-61.66248561,15.98055887],[-61.66240756,15.97993022],[-61.66251617,15.97905237],[-61.6624457,15.9786904],[-61.66223105,15.97837182],[-61.66223856,15.97822635],[-61.6627311,15.97721983],[-61.6628048,15.97681446],[-61.66276596,15.97633158],[-61.66320622,15.97588059],[-61.66330186,15.97568866],[-61.66314391,15.97527373],[-61.66274557,15.97475968],[-61.6626334,15.97420494],[-61.66272215,15.9739253],[-61.66332759,15.97321955],[-61.6634895,15.97289789],[-61.66374618,15.97349963],[-61.66415261,15.97378053],[-61.66421332,15.97392462],[-61.66424648,15.97484041],[-61.66473125,15.97556648],[-61.66480897,15.97596285],[-61.66510973,15.97625936],[-61.66543075,15.97688138],[-61.66580971,15.97707896],[-61.66611802,15.97736377],[-61.66663794,15.97744021],[-61.66723687,15.97814258],[-61.66776648,15.97802565],[-61.66901885,15.97853594],[-61.66957544,15.97857824],[-61.66995501,15.97854353],[-61.67254226,15.97768279],[-61.67284912,15.97762323],[-61.67338129,15.97768345],[-61.67378338,15.97763441],[-61.67424461,15.97740045],[-61.674568,15.97681675],[-61.67478805,15.97660029],[-61.67549522,15.97619249],[-61.67717014,15.97610066],[-61.67778231,15.97578808],[-61.67842659,15.97528137],[-61.67878644,15.97440686],[-61.67883849,15.97359372],[-61.67898071,15.97327825],[-61.67996585,15.97265161],[-61.68080551,15.97283753],[-61.68150651,15.97279663],[-61.6822087,15.97257497],[-61.6835637,15.97253808],[-61.68399247,15.97269345],[-61.68460424,15.97358295],[-61.68488494,15.9736642],[-61.68550425,15.97368607],[-61.68583677,15.97384536],[-61.68606892,15.9740637],[-61.6863565,15.97466561],[-61.6867168,15.97500675],[-61.68754424,15.97492051],[-61.687958,15.97480011],[-61.68927135,15.97398652],[-61.69016553,15.97383832],[-61.69026089,15.97382805],[-61.69073529,15.97400899],[-61.69129574,15.97446161],[-61.69140826,15.97511939],[-61.69159355,15.97564926],[-61.69171502,15.97622394],[-61.69177695,15.97632736],[-61.69202243,15.97650962],[-61.69218485,15.97710805],[-61.69241706,15.97746376],[-61.69250983,15.97770927],[-61.69262934,15.97786726],[-61.69267875,15.97802845],[-61.6928204,15.97822815],[-61.69285972,15.97836126],[-61.69288395,15.97851506],[-61.69279704,15.97894837],[-61.69285181,15.97914755],[-61.69287312,15.97946222],[-61.69293283,15.97962075],[-61.69292532,15.97976984],[-61.69304918,15.98012038],[-61.69323218,15.98028418],[-61.69325951,15.98039191],[-61.69324148,15.9807226],[-61.69327258,15.98097045],[-61.69321544,15.9811364],[-61.69326325,15.981256],[-61.69336092,15.98132258],[-61.6934269,15.98166644],[-61.69355757,15.98197634],[-61.69361918,15.98227318],[-61.69379254,15.98248392],[-61.69393078,15.98277851],[-61.69414383,15.98306452],[-61.69443076,15.98391587],[-61.69488845,15.9846598],[-61.69490533,15.98493828],[-61.69284327,15.98607273],[-61.69198448,15.98623111],[-61.6911074,15.98661442],[-61.69075591,15.98563433],[-61.68958763,15.98582515],[-61.6898108,15.9872826],[-61.68995002,15.98742625],[-61.69004886,15.9876013],[-61.68916602,15.9884383],[-61.68909995,15.98854003],[-61.68909178,15.98864663],[-61.6891878,15.98982853],[-61.6892834,15.98992673],[-61.68953528,15.98998882],[-61.68963757,15.99006447],[-61.68971669,15.99039847],[-61.68991341,15.99060936],[-61.6898588,15.990816],[-61.68973425,15.99085863],[-61.68972216,15.99099323],[-61.68937307,15.99079135],[-61.68889338,15.99070166],[-61.68414694,15.99022435],[-61.68388913,15.99021283],[-61.68362721,15.99025552],[-61.68347611,15.99021482],[-61.68335806,15.99026291],[-61.68311223,15.99027496],[-61.68279669,15.99037516],[-61.68235415,15.99060473],[-61.68175658,15.99110632],[-61.68138021,15.99150441],[-61.68175968,15.99148956],[-61.68252788,15.99132796],[-61.68258809,15.99140787],[-61.68273058,15.99148105],[-61.68272747,15.99152713],[-61.68251677,15.99174005],[-61.68244018,15.99187877],[-61.68242061,15.99201332],[-61.68247121,15.99227574],[-61.68267401,15.99227066],[-61.68272611,15.99244903],[-61.68302206,15.99305823],[-61.68322952,15.99405372],[-61.68345384,15.99447357],[-61.68369555,15.99480586],[-61.68378416,15.99511461],[-61.68408091,15.9957464],[-61.684073,15.99581324],[-61.68367688,15.99608648],[-61.6836484,15.9961559],[-61.683675,15.99623199],[-61.68406682,15.9966149],[-61.68465503,15.99711561],[-61.68473997,15.99713059],[-61.68511181,15.99685449],[-61.68519531,15.99666067],[-61.6852725,15.99657347],[-61.68558785,15.99664771],[-61.68601286,15.9966711],[-61.68669484,15.99640863],[-61.68703794,15.99638271],[-61.68793101,15.99670632],[-61.68811909,15.9968105],[-61.68872438,15.99727425],[-61.68899096,15.9972334],[-61.68951882,15.99739117],[-61.68964949,15.99755737],[-61.68980872,15.99807353],[-61.68989515,15.99814546],[-61.68996837,15.99809349],[-61.68995171,15.99792617],[-61.69002814,15.99738253],[-61.69002112,15.99731199],[-61.68990924,15.99712963],[-61.68993332,15.99702041],[-61.69000246,15.99702084],[-61.69007481,15.99710353],[-61.6901796,15.99736899],[-61.69028886,15.99752331],[-61.6907975,15.99776321],[-61.69091807,15.99804595],[-61.69100286,15.99808352],[-61.69103657,15.99792917],[-61.6909639,15.99760967],[-61.69060632,15.99670094],[-61.69068043,15.9966562],[-61.69119793,15.99697027],[-61.69133161,15.99696115],[-61.69161577,15.99780887],[-61.69164888,15.99803322],[-61.69150958,15.99919291],[-61.69155112,16.00013225],[-61.69158529,16.00019392],[-61.69152312,16.0007015],[-61.69163763,16.0011984],[-61.69143704,16.00244087],[-61.69143757,16.00264694],[-61.69153227,16.00288433],[-61.69239498,16.00242229],[-61.69292681,16.00226013],[-61.69304133,16.00203667],[-61.69313613,16.00197127],[-61.693181,16.00182602],[-61.69344783,16.00145888],[-61.69358335,16.00131238],[-61.69384391,16.00119104],[-61.69394834,16.0009386],[-61.69433383,16.00057489],[-61.69440485,16.0004307],[-61.69445115,16.00049516],[-61.69459203,16.00053036],[-61.69503445,16.00075178],[-61.69742882,16.00156982],[-61.69790125,16.00163234],[-61.69878083,16.00159247],[-61.69936673,16.00375892],[-61.6990106,16.00363022],[-61.69855712,16.00381547],[-61.69836097,16.00423367],[-61.6983954,16.00483312],[-61.69780279,16.00471384],[-61.69761323,16.00526946],[-61.69741885,16.0054147],[-61.69647313,16.00556352],[-61.69529253,16.00504478],[-61.69498966,16.00505921],[-61.69494166,16.00597632],[-61.69482437,16.00619433],[-61.69460276,16.00621558],[-61.69436537,16.00607676],[-61.69417098,16.00550435],[-61.69396644,16.00534312],[-61.69391056,16.0057468],[-61.6935957,16.00631159],[-61.69332481,16.0064401],[-61.69281883,16.00707965],[-61.69264006,16.00712375],[-61.6922956,16.00706743],[-61.69222705,16.00711943],[-61.69213977,16.00832462],[-61.69176633,16.00884477],[-61.69151436,16.00936565],[-61.69089849,16.00994578],[-61.69063456,16.01072509],[-61.68997547,16.01105277],[-61.68939651,16.01156081],[-61.68884846,16.01148335],[-61.68823705,16.01195142],[-61.68760491,16.01201535],[-61.68689376,16.0115862],[-61.68643418,16.01141437],[-61.68530374,16.01108207],[-61.68497659,16.01109362],[-61.68472793,16.01082095],[-61.68457099,16.01038434],[-61.68410394,16.00964123],[-61.68371527,16.0092023],[-61.68343508,16.00903518],[-61.68314021,16.0089701],[-61.68190182,16.00900047],[-61.68143078,16.00886742],[-61.68058039,16.00901224],[-61.68022877,16.00919265],[-61.68008725,16.00953976],[-61.67947879,16.00969871],[-61.67876808,16.01005858],[-61.67849789,16.01021961],[-61.67806978,16.01066347],[-61.67720749,16.01034272],[-61.67621976,16.01048034],[-61.67599227,16.01110982],[-61.67575887,16.01121684],[-61.67522303,16.01113309],[-61.67504153,16.01130641],[-61.67491824,16.01186332],[-61.67481478,16.01196481],[-61.67418437,16.01204859],[-61.67402729,16.01262788],[-61.67349736,16.01334677],[-61.67339419,16.01340308],[-61.67264644,16.01328367],[-61.67238273,16.01331186],[-61.67221029,16.01352681],[-61.67206776,16.01388295],[-61.67185187,16.01416813],[-61.67173673,16.01419905],[-61.67103834,16.01368045],[-61.67080562,16.01368533],[-61.67050653,16.01411642],[-61.67007088,16.01442464],[-61.66993601,16.01461089],[-61.66974687,16.01537256],[-61.66951903,16.01562693],[-61.66883194,16.01566153],[-61.66771903,16.01649248],[-61.66721491,16.01711842],[-61.66693972,16.0170444],[-61.66675149,16.01710379],[-61.66625103,16.01774059],[-61.66506261,16.02008588],[-61.66431852,16.02039849],[-61.66437867,16.02104962],[-61.6643096,16.02131763],[-61.66379452,16.02190101],[-61.66360208,16.02203087],[-61.66342731,16.02203159],[-61.66289352,16.021777],[-61.66248474,16.02169491],[-61.66219687,16.02183954],[-61.66202599,16.02223977],[-61.66201951,16.02307216],[-61.66181752,16.02337187],[-61.66193283,16.02387783],[-61.66091443,16.02538088],[-61.66095014,16.02577065],[-61.66122082,16.02610223],[-61.6614137,16.02660777],[-61.66150708,16.02788095],[-61.66169089,16.02904623],[-61.66229815,16.02991859],[-61.66261385,16.03134951],[-61.66306725,16.03189102],[-61.66308998,16.03226625],[-61.66346376,16.03311547],[-61.66350211,16.03339228],[-61.66335533,16.03396078],[-61.66350566,16.03440188],[-61.66346179,16.03551512],[-61.66318231,16.03706344],[-61.66302843,16.03729387],[-61.66300173,16.03765342],[-61.66280815,16.03795138],[-61.6627522,16.03835233],[-61.6622031,16.03870502],[-61.66182641,16.03941127],[-61.66150766,16.0396985],[-61.66112631,16.04068129],[-61.65983738,16.04195215],[-61.65969946,16.04231101]]]]},"bbox":[-61.69936673,15.97253808,-61.65513736,16.04231101]},{"type":"Feature","id":"fr-quartier-97109-831ffb44daf5","properties":{"id":"fr-quartier-97109-831ffb44daf5","kind":"quartier","name":"Rivière Sens","cityCode":"97109","cityName":"Gourbeyre","sourceType":"iris","sourceIds":["971090101"],"colorIndex":2,"center":[-61.71784844335813,15.983895995000001]},"geometry":{"type":"MultiPolygon","coordinates":[[[[-61.69016553,15.97383832],[-61.69029092,15.97352183],[-61.69030382,15.97297418],[-61.69047565,15.97212562],[-61.69088122,15.97139507],[-61.69160122,15.97130545],[-61.69293409,15.97079022],[-61.69396899,15.97055066],[-61.6946464,15.97054573],[-61.69606388,15.97023617],[-61.6964959,15.97032284],[-61.69681402,15.97068631],[-61.69814918,15.97126019],[-61.6986799,15.97096514],[-61.69962859,15.97076479],[-61.70006319,15.97030826],[-61.70028209,15.9702662],[-61.70043081,15.9703855],[-61.70069479,15.97030756],[-61.70301887,15.9692216],[-61.70413941,15.96931873],[-61.70530783,15.96923538],[-61.70638369,15.96901588],[-61.70755124,15.96906809],[-61.70834305,15.96943438],[-61.70983094,15.97052792],[-61.71002775,15.97057882],[-61.7099652,15.971156],[-61.71007572,15.97169626],[-61.71100058,15.97405],[-61.71127653,15.97458311],[-61.71270458,15.97656928],[-61.71302987,15.97756998],[-61.71522233,15.98057031],[-61.71609195,15.98119735],[-61.7170005,15.98143686],[-61.71732127,15.98168643],[-61.71734462,15.98198032],[-61.71685881,15.98167735],[-61.71575689,15.98157767],[-61.71516928,15.98258647],[-61.71646667,15.98412173],[-61.71667642,15.98434532],[-61.71726526,15.98387612],[-61.71657161,15.98305129],[-61.71668171,15.98205048],[-61.71676157,15.98198136],[-61.71684252,15.98203427],[-61.71706561,15.98265564],[-61.71777405,15.98350677],[-61.71822795,15.98383306],[-61.71855347,15.98392267],[-61.71893421,15.9842928],[-61.7194731,15.98462592],[-61.71979638,15.98477608],[-61.72011164,15.98471649],[-61.72215324,15.98545713],[-61.72270206,15.98555078],[-61.72294057,15.98565975],[-61.72231594,15.98632128],[-61.72200159,15.98741307],[-61.72203168,15.98767808],[-61.72197487,15.98779434],[-61.72180295,15.98794064],[-61.7212332,15.98805114],[-61.72103421,15.98819276],[-61.7210994,15.98925517],[-61.72046579,15.98926767],[-61.71988263,15.98942961],[-61.71955262,15.98930924],[-61.71920232,15.98943911],[-61.71908355,15.989602],[-61.71902065,15.99038165],[-61.71758713,15.9914297],[-61.71756945,15.99200354],[-61.71765174,15.99243426],[-61.71757342,15.99270133],[-61.71743755,15.99275927],[-61.71642592,15.99270624],[-61.71633346,15.99284397],[-61.71631848,15.99328858],[-61.71618298,15.993436],[-61.71592315,15.99344529],[-61.71537629,15.99318804],[-61.71479296,15.99322794],[-61.71470451,15.99332412],[-61.71466367,15.99357334],[-61.71494232,15.99412726],[-61.71497581,15.9944438],[-61.71478999,15.99457014],[-61.71440171,15.99450003],[-61.7144253,15.99446401],[-61.71408682,15.99362231],[-61.71378614,15.99315232],[-61.71334599,15.99228109],[-61.71437864,15.99167717],[-61.71627129,15.99043394],[-61.7159657,15.99043935],[-61.71588399,15.99035842],[-61.71550308,15.99030733],[-61.71493686,15.99015662],[-61.71480016,15.99019919],[-61.71405424,15.9906801],[-61.71373588,15.99078304],[-61.71324395,15.99084969],[-61.7126246,15.99082429],[-61.7121139,15.99061244],[-61.71186282,15.99057026],[-61.7118243,15.99045615],[-61.71085027,15.98920391],[-61.70971311,15.98759999],[-61.7095518,15.98769302],[-61.70938052,15.9878827],[-61.70927167,15.9882454],[-61.70921525,15.988302],[-61.70904403,15.98833622],[-61.70876435,15.98823693],[-61.70862595,15.98825327],[-61.70777049,15.98905797],[-61.70769982,15.98929436],[-61.70485504,15.98791605],[-61.70478331,15.98715639],[-61.70282267,15.98705689],[-61.70240846,15.98709959],[-61.70166057,15.98730205],[-61.7001567,15.98708147],[-61.69905919,15.9870206],[-61.69863635,15.98695206],[-61.69680746,15.98642127],[-61.69509078,15.98559018],[-61.69469469,15.98543321],[-61.69490533,15.98493828],[-61.69488845,15.9846598],[-61.69443076,15.98391587],[-61.69414383,15.98306452],[-61.69393078,15.98277851],[-61.69379254,15.98248392],[-61.69361918,15.98227318],[-61.69355757,15.98197634],[-61.6934269,15.98166644],[-61.69336092,15.98132258],[-61.69326325,15.981256],[-61.69321544,15.9811364],[-61.69327258,15.98097045],[-61.69324148,15.9807226],[-61.69325951,15.98039191],[-61.69323218,15.98028418],[-61.69304918,15.98012038],[-61.69292532,15.97976984],[-61.69293283,15.97962075],[-61.69287312,15.97946222],[-61.69285181,15.97914755],[-61.69279704,15.97894837],[-61.69288395,15.97851506],[-61.69285972,15.97836126],[-61.6928204,15.97822815],[-61.69267875,15.97802845],[-61.69262934,15.97786726],[-61.69250983,15.97770927],[-61.69241706,15.97746376],[-61.69218485,15.97710805],[-61.69202243,15.97650962],[-61.69177695,15.97632736],[-61.69171502,15.97622394],[-61.69159355,15.97564926],[-61.69140826,15.97511939],[-61.69129574,15.97446161],[-61.69073529,15.97400899],[-61.69026089,15.97382805],[-61.69016553,15.97383832]]]]},"bbox":[-61.72294057,15.96901588,-61.69016553,15.99457014]}]}