{"type":"FeatureCollection","metadata":{"sourceType":"iris","source":"IGN / INSEE — Contours IRIS 2026","sourceUrl":"https://data.geopf.fr/wfs/ows?service=WFS&version=2.0.0&request=GetFeature&typeNames=STATISTICALUNITS.IRIS%3Acontours_iris&outputFormat=application%2Fjson&srsName=CRS%3A84&count=1000&CQL_FILTER=code_insee%3D%2797107%27&sortBy=code_iris","retrievedDate":"2026-09-10","sourceYear":"2026","license":"Licence Ouverte 2.0"},"features":[{"type":"Feature","id":"fr-quartier-97107-3ce15663a95d","properties":{"id":"fr-quartier-97107-3ce15663a95d","kind":"quartier","name":"Bananier-Haute Plaine","cityCode":"97107","cityName":"Capesterre-Belle-Eau","sourceType":"iris","sourceIds":["971070101"],"colorIndex":0,"center":[-61.61278012874537,16.004840455]},"geometry":{"type":"MultiPolygon","coordinates":[[[[-61.59907819,16.00332354],[-61.59916825,16.00327261],[-61.59906464,16.0031219],[-61.59872848,16.00308808],[-61.59832753,16.00229643],[-61.59820341,16.00187174],[-61.59833649,16.0012788],[-61.59865384,16.00106215],[-61.59880491,16.00110561],[-61.59892324,16.00102143],[-61.59939785,16.00103175],[-61.59978342,16.0009475],[-61.60061464,16.00114001],[-61.60162038,16.00055998],[-61.60226315,16.00044124],[-61.60238599,16.00011034],[-61.60263737,15.99983812],[-61.60293801,15.99933575],[-61.60304294,15.99929486],[-61.60342843,15.99854991],[-61.60317784,15.99817049],[-61.60356933,15.99763527],[-61.60347121,15.99723334],[-61.60395325,15.99698069],[-61.60404571,15.99685295],[-61.60409484,15.99663997],[-61.60400578,15.9961432],[-61.60428845,15.99566963],[-61.60427169,15.99552762],[-61.6048244,15.99532243],[-61.60499084,15.995037],[-61.60513545,15.994934],[-61.60604932,15.99492908],[-61.60630353,15.99478612],[-61.60655974,15.99448952],[-61.60657658,15.99435135],[-61.60645741,15.99429002],[-61.60692287,15.99427044],[-61.60727232,15.9938669],[-61.60722324,15.99366864],[-61.6073564,15.99359991],[-61.60731496,15.99351107],[-61.60737772,15.99348888],[-61.60723213,15.99332977],[-61.60772469,15.99317479],[-61.60767031,15.99306598],[-61.6078681,15.99297417],[-61.60798626,15.99264233],[-61.60831113,15.99254954],[-61.60829673,15.99233614],[-61.60898963,15.99226019],[-61.60929067,15.99210035],[-61.60955491,15.99212737],[-61.60980519,15.9920124],[-61.61064915,15.99211637],[-61.61077959,15.99203497],[-61.61077782,15.99188582],[-61.61091584,15.99179001],[-61.61121429,15.99186967],[-61.6113149,15.99164255],[-61.61150935,15.99149287],[-61.61191955,15.99162748],[-61.61246221,15.99138695],[-61.61280089,15.99078268],[-61.61276665,15.99059898],[-61.61283367,15.99049999],[-61.61344137,15.99031231],[-61.61353525,15.99011317],[-61.61382972,15.98982133],[-61.61395019,15.98942352],[-61.6142595,15.98914804],[-61.61427179,15.98885619],[-61.61404324,15.98853115],[-61.61402772,15.98834215],[-61.61409854,15.98809948],[-61.61421366,15.9880704],[-61.61440403,15.98783392],[-61.61444179,15.98737141],[-61.61427257,15.98725102],[-61.61421316,15.98692255],[-61.61431111,15.98667463],[-61.61427342,15.98658491],[-61.61444485,15.98665561],[-61.6146041,15.98618936],[-61.61508737,15.98629461],[-61.61552988,15.98648454],[-61.61663839,15.98738284],[-61.61707519,15.98786106],[-61.61728512,15.98844899],[-61.61757695,15.98881239],[-61.61825363,15.98891978],[-61.61930489,15.98931427],[-61.61993401,15.98940779],[-61.62146072,15.98941668],[-61.62179549,15.98951372],[-61.62190737,15.98968617],[-61.62185486,15.9899868],[-61.62228206,15.99050381],[-61.62240792,15.99149972],[-61.62255604,15.99170132],[-61.62287997,15.99188235],[-61.62299718,15.9920955],[-61.62293029,15.99244756],[-61.62300495,15.99273455],[-61.62319791,15.99293734],[-61.6236385,15.99300252],[-61.6238388,15.99322524],[-61.62348189,15.99485977],[-61.62364881,15.9951817],[-61.62380139,15.99609734],[-61.6238984,15.99625974],[-61.62421566,15.99645971],[-61.62427818,15.99660834],[-61.62422329,15.9968466],[-61.62392642,15.99694411],[-61.62403488,15.99720692],[-61.62390565,15.99738414],[-61.62384328,15.99775973],[-61.62427374,15.99794054],[-61.62436474,15.99815985],[-61.62462935,15.99827181],[-61.62461221,15.99845608],[-61.62450177,15.99848158],[-61.62441814,15.99868621],[-61.62440808,15.99879189],[-61.62454411,15.99898528],[-61.62444586,15.99955225],[-61.62426463,15.99968124],[-61.62421988,15.99980206],[-61.62421976,16.00091285],[-61.62441204,16.00108039],[-61.62434546,16.00152464],[-61.62483467,16.00213333],[-61.6248152,16.00224799],[-61.62455628,16.00225989],[-61.62455132,16.00257529],[-61.6246637,16.002811],[-61.6249552,16.00309125],[-61.62541381,16.00312039],[-61.62553487,16.00331729],[-61.62594231,16.00358743],[-61.62599416,16.00379383],[-61.62617514,16.00397576],[-61.62632048,16.004312],[-61.62631757,16.00487506],[-61.62645009,16.00517327],[-61.62650248,16.00557399],[-61.62663212,16.00574745],[-61.62698681,16.00594223],[-61.62705161,16.00616951],[-61.62730134,16.00640881],[-61.62736675,16.00681956],[-61.62719416,16.00773493],[-61.62721086,16.00857287],[-61.62687744,16.00936701],[-61.62715711,16.00987493],[-61.62705965,16.01046179],[-61.62719642,16.01095977],[-61.62770167,16.01182524],[-61.62440491,16.01153933],[-61.62279898,16.01638163],[-61.62481526,16.01916566],[-61.62607471,16.01947741],[-61.62613582,16.01942447],[-61.62645059,16.0193117],[-61.62689269,16.01875326],[-61.62703454,16.01864661],[-61.62738662,16.01854312],[-61.62764668,16.01836763],[-61.62791555,16.01840731],[-61.62824221,16.01833167],[-61.62845842,16.01855539],[-61.62869886,16.01892569],[-61.62888896,16.01914201],[-61.62868836,16.02101073],[-61.62639242,16.02603664],[-61.6259808,16.02609817],[-61.62586542,16.0261607],[-61.62575011,16.02635067],[-61.62560395,16.02640396],[-61.62546307,16.02636962],[-61.62509328,16.0261901],[-61.62418794,16.0260198],[-61.62354153,16.02597769],[-61.62333579,16.02586159],[-61.62310819,16.02579957],[-61.62290645,16.02550906],[-61.62274743,16.02539506],[-61.62248919,16.02543859],[-61.62237441,16.02541436],[-61.62231972,16.02534893],[-61.62229638,16.02520959],[-61.62235616,16.02507802],[-61.6225296,16.02486222],[-61.6223802,16.02484409],[-61.62215734,16.02490683],[-61.62205214,16.02484921],[-61.62202457,16.02478125],[-61.62187834,16.02470891],[-61.6216273,16.02465849],[-61.62140662,16.02454048],[-61.6207953,16.02442448],[-61.6199553,16.02440371],[-61.61946919,16.02456056],[-61.61904668,16.02484706],[-61.61888548,16.02491381],[-61.61870419,16.02491264],[-61.61839033,16.02502721],[-61.61746632,16.02526258],[-61.61716544,16.02539169],[-61.6167483,16.02544052],[-61.61664709,16.02548144],[-61.6159577,16.02503142],[-61.6155831,16.02514469],[-61.61515863,16.02517268],[-61.61473593,16.02507867],[-61.61406645,16.02485924],[-61.61373396,16.02496464],[-61.61293678,16.02496853],[-61.61259378,16.02483706],[-61.61171179,16.02467139],[-61.61117444,16.02440038],[-61.6105819,16.02440739],[-61.61038546,16.02429856],[-61.61031267,16.02414987],[-61.61022626,16.024077],[-61.60969629,16.0238196],[-61.60949829,16.02366828],[-61.60938676,16.02357989],[-61.6091675,16.02325852],[-61.60890285,16.02301458],[-61.6082072,16.02252834],[-61.60804798,16.02230949],[-61.60801429,16.02218183],[-61.6080432,16.02191991],[-61.6079739,16.02167182],[-61.60791392,16.02156117],[-61.60769857,16.02135099],[-61.60769625,16.02128138],[-61.60776212,16.02121673],[-61.60804426,16.02109384],[-61.60843922,16.02100782],[-61.60887545,16.02103596],[-61.60900004,16.02099248],[-61.60934037,16.02069824],[-61.60960322,16.02039264],[-61.60948301,16.02020839],[-61.6093989,16.01980384],[-61.60873717,16.0181998],[-61.60800459,16.01765006],[-61.60774098,16.01739257],[-61.60758231,16.01709509],[-61.60750245,16.01661736],[-61.60730838,16.01643805],[-61.60724197,16.01604355],[-61.60717447,16.01593918],[-61.60710103,16.01561423],[-61.60711534,16.01543808],[-61.60729139,16.01498099],[-61.60731025,16.01468738],[-61.60713926,16.01454889],[-61.60655233,16.0138862],[-61.60585806,16.01334121],[-61.6054887,16.01283629],[-61.60467736,16.01233031],[-61.60443236,16.01221936],[-61.60350823,16.0119413],[-61.60306501,16.01171337],[-61.60250003,16.01152441],[-61.60158798,16.01152661],[-61.60126034,16.01147386],[-61.60107042,16.01123763],[-61.60085494,16.01104914],[-61.60087098,16.01075912],[-61.60103772,16.01056679],[-61.60111847,16.01037662],[-61.60109876,16.01025538],[-61.60099784,16.01012005],[-61.60096851,16.00990385],[-61.60073009,16.00952089],[-61.6002535,16.00912101],[-61.59984905,16.00869358],[-61.59969933,16.00858957],[-61.59922626,16.00795382],[-61.59932258,16.00754141],[-61.59919095,16.00738871],[-61.59924543,16.00667867],[-61.59920574,16.00620572],[-61.59908757,16.00599888],[-61.59908711,16.00593109],[-61.59913063,16.00571988],[-61.59924221,16.00553081],[-61.59930067,16.00532151],[-61.59921574,16.00517273],[-61.59928933,16.00493731],[-61.59922578,16.00480585],[-61.59916733,16.00420805],[-61.59909673,16.00388041],[-61.59918298,16.00357277],[-61.59918973,16.00340832],[-61.59916024,16.00334848],[-61.59907819,16.00332354]]]]},"bbox":[-61.62888896,15.98618936,-61.59820341,16.02640396]},{"type":"Feature","id":"fr-quartier-97107-24e4c92ee0b1","properties":{"id":"fr-quartier-97107-24e4c92ee0b1","kind":"quartier","name":"Cambrefort-Moravie","cityCode":"97107","cityName":"Capesterre-Belle-Eau","sourceType":"iris","sourceIds":["971070105"],"colorIndex":1,"center":[-61.63941093155675,16.058090465]},"geometry":{"type":"MultiPolygon","coordinates":[[[[-61.68410478,16.08949766],[-61.68265044,16.09030215],[-61.68044226,16.09200581],[-61.67988107,16.09204753],[-61.67824601,16.09190186],[-61.67707597,16.09212058],[-61.67558683,16.09111714],[-61.67478745,16.09112846],[-61.67465184,16.09127675],[-61.67429937,16.0911399],[-61.67415594,16.09119956],[-61.6738813,16.09116803],[-61.67292817,16.09096147],[-61.67244304,16.09095303],[-61.67196066,16.09080994],[-61.67120999,16.09080618],[-61.67006921,16.09056229],[-61.66921002,16.0905705],[-61.66848818,16.09016922],[-61.66816069,16.09021238],[-61.66787934,16.0903462],[-61.66698343,16.09151558],[-61.6667455,16.09214678],[-61.66641589,16.09250625],[-61.66350402,16.09456686],[-61.6617776,16.09410415],[-61.66098511,16.09378285],[-61.65860007,16.09394866],[-61.65780607,16.09385329],[-61.65720146,16.09339758],[-61.65500826,16.0928415],[-61.6546832,16.09252312],[-61.6544058,16.09206946],[-61.65398635,16.09188606],[-61.65365977,16.09179362],[-61.65244419,16.09183115],[-61.65061977,16.09204559],[-61.64954717,16.09167729],[-61.64912894,16.09131312],[-61.64796348,16.09085385],[-61.64716858,16.09089401],[-61.64328327,16.09172801],[-61.6408506,16.0920289],[-61.6407116,16.09184725],[-61.64062058,16.09148514],[-61.64034167,16.09125742],[-61.63982876,16.09107339],[-61.63824666,16.09002393],[-61.63736013,16.08979233],[-61.63698775,16.089564],[-61.63657079,16.08901905],[-61.63587431,16.08833675],[-61.63540877,16.08806263],[-61.63420125,16.08692515],[-61.63331598,16.08651278],[-61.63173024,16.08600554],[-61.63116999,16.08591157],[-61.63070229,16.08595377],[-61.6279394,16.0867043],[-61.62705042,16.08683417],[-61.62663101,16.08665071],[-61.62523784,16.08533123],[-61.62369857,16.08486942],[-61.62230107,16.08418257],[-61.62160373,16.08363579],[-61.62118277,16.08367826],[-61.62024551,16.08403374],[-61.61954193,16.08439073],[-61.61930324,16.08511223],[-61.61789327,16.08623289],[-61.61775086,16.0865483],[-61.61774555,16.08731651],[-61.61587066,16.08807261],[-61.61394274,16.08973217],[-61.61262932,16.09040151],[-61.61169201,16.09075695],[-61.60986601,16.09119698],[-61.6082279,16.09150266],[-61.60733953,16.09154206],[-61.606352,16.09239424],[-61.60541372,16.09288522],[-61.60470006,16.09307216],[-61.60387956,16.09343104],[-61.60298509,16.09447361],[-61.60265737,16.09508244],[-61.60237998,16.095312],[-61.60222341,16.09537695],[-61.60206281,16.09534788],[-61.60164204,16.09509387],[-61.60147607,16.09503043],[-61.60042345,16.09436014],[-61.60022099,16.09430188],[-61.60007609,16.09430093],[-61.6005736,16.09014036],[-61.60056288,16.09006889],[-61.60034303,16.089959],[-61.60016962,16.08975812],[-61.59994593,16.08912942],[-61.59973835,16.08873581],[-61.5996033,16.08866442],[-61.59933568,16.08870154],[-61.5989673,16.08884283],[-61.59862842,16.08904306],[-61.59836991,16.08924743],[-61.59820427,16.08927255],[-61.59795909,16.08917605],[-61.59795916,16.08903144],[-61.59787789,16.08888991],[-61.59767604,16.08887955],[-61.59752885,16.08894004],[-61.59737845,16.08905746],[-61.59730455,16.08906511],[-61.5969069,16.08884739],[-61.59659562,16.08884535],[-61.59654558,16.08891642],[-61.59633861,16.08896929],[-61.59615273,16.08908104],[-61.59590727,16.08915716],[-61.59573019,16.08908008],[-61.59549469,16.08880377],[-61.59532883,16.08885962],[-61.59519308,16.08902051],[-61.59527626,16.08942235],[-61.59510059,16.08954411],[-61.59449964,16.08925817],[-61.59401495,16.08918901],[-61.59320835,16.08943135],[-61.59287407,16.08964154],[-61.59248501,16.08979895],[-61.59220264,16.08980613],[-61.5919907,16.08963572],[-61.59189463,16.08947241],[-61.59114579,16.08907974],[-61.59092435,16.08906382],[-61.59082025,16.08911194],[-61.59074574,16.08920454],[-61.59040592,16.08980243],[-61.5902392,16.08984742],[-61.58962745,16.08976837],[-61.58948123,16.08982344],[-61.58939363,16.08991686],[-61.58932517,16.09007909],[-61.58917673,16.09018385],[-61.58898996,16.09015641],[-61.5886098,16.08997947],[-61.58845846,16.08996401],[-61.58824731,16.09007921],[-61.58810672,16.09052837],[-61.58806243,16.09057869],[-61.5877709,16.09069064],[-61.58772276,16.0907563],[-61.58758822,16.09127419],[-61.58750687,16.09141013],[-61.58739063,16.09145455],[-61.58713445,16.09132723],[-61.58705404,16.09132941],[-61.58695252,16.09140827],[-61.58678763,16.09225224],[-61.58670609,16.09241438],[-61.58658138,16.09246688],[-61.5865132,16.0924583],[-61.58609839,16.0921573],[-61.58590643,16.09207017],[-61.58486974,16.09206331],[-61.58428328,16.09210733],[-61.58422513,16.092003],[-61.58424782,16.09157114],[-61.58411729,16.09152147],[-61.58392063,16.09157078],[-61.58341574,16.0918449],[-61.58299865,16.09186744],[-61.5821947,16.08962612],[-61.58226821,16.08954255],[-61.58153613,16.08705496],[-61.58145938,16.0865411],[-61.58150629,16.08585904],[-61.58139205,16.08575525],[-61.58105041,16.08568429],[-61.58093603,16.08559948],[-61.58088547,16.08547984],[-61.58074402,16.08473056],[-61.58575033,16.08374424],[-61.58593173,16.08360626],[-61.58605302,16.08337478],[-61.58610656,16.08294131],[-61.58653159,16.08271998],[-61.58687429,16.08264],[-61.58672857,16.08183104],[-61.58670928,16.08151819],[-61.58664008,16.08152226],[-61.58652561,16.0814501],[-61.586362,16.08118872],[-61.58647765,16.08109369],[-61.58651365,16.08089418],[-61.58659023,16.08077268],[-61.58702968,16.08062555],[-61.58654248,16.07946095],[-61.58633211,16.07933393],[-61.58552109,16.08033902],[-61.58505595,16.08068119],[-61.58376565,16.08138394],[-61.58256249,16.08165976],[-61.57913088,16.08126463],[-61.57775721,16.08106751],[-61.57790438,16.08074764],[-61.57836866,16.08039554],[-61.57858627,16.08016019],[-61.57863495,16.07988756],[-61.57856933,16.07925628],[-61.57772886,16.07966553],[-61.57730883,16.07970974],[-61.57678418,16.07987435],[-61.57648715,16.07984165],[-61.57618919,16.07967698],[-61.57601625,16.07954749],[-61.57598118,16.07935294],[-61.57579149,16.07921159],[-61.57560323,16.07913261],[-61.57524932,16.07908055],[-61.5741934,16.07915847],[-61.57350111,16.0789749],[-61.57331423,16.07896371],[-61.57312397,16.07903475],[-61.5726856,16.07942136],[-61.57239519,16.0795098],[-61.57182314,16.07950508],[-61.57164995,16.07940993],[-61.57139048,16.07935397],[-61.57124555,16.07936023],[-61.57116161,16.07946451],[-61.57109415,16.07948575],[-61.57083113,16.07940355],[-61.57046846,16.07940113],[-61.57029329,16.07932133],[-61.57019612,16.07918421],[-61.57005112,16.07906846],[-61.56974386,16.07903025],[-61.56951768,16.07876393],[-61.56924589,16.07860033],[-61.56909599,16.07864813],[-61.56899241,16.07888333],[-61.56883513,16.07891752],[-61.56854051,16.07867966],[-61.56829317,16.07862739],[-61.56740564,16.07855728],[-61.56779292,16.07747352],[-61.56747578,16.0773774],[-61.5662156,16.07713397],[-61.56406975,16.07682223],[-61.56219064,16.07646617],[-61.56218122,16.07517549],[-61.56224927,16.07442128],[-61.56240555,16.07400659],[-61.56284717,16.07342751],[-61.56201997,16.07316076],[-61.56118745,16.07298344],[-61.56096921,16.07278675],[-61.56087554,16.0724237],[-61.56095754,16.07206907],[-61.56089435,16.07162849],[-61.56097689,16.07067826],[-61.56090201,16.069783],[-61.56093985,16.06933046],[-61.5607199,16.06872072],[-61.56061931,16.06802142],[-61.56059485,16.066483],[-61.56079534,16.06368982],[-61.56050412,16.06129371],[-61.56006567,16.05987452],[-61.55965785,16.05926714],[-61.55939913,16.05911176],[-61.55899574,16.05905662],[-61.55843095,16.05883139],[-61.55807079,16.05861477],[-61.55707004,16.05727765],[-61.55583001,16.05607357],[-61.55530877,16.05473606],[-61.55530174,16.05363791],[-61.55546138,16.0534049],[-61.55589337,16.05324875],[-61.55612056,16.05323943],[-61.55623675,16.0530685],[-61.55680693,16.05345193],[-61.55748814,16.05373218],[-61.55804226,16.05387961],[-61.55836565,16.05401013],[-61.55901127,16.05443112],[-61.55918841,16.05462211],[-61.55942777,16.05474031],[-61.56010701,16.05503589],[-61.56070668,16.05521797],[-61.56094659,16.05525935],[-61.56124605,16.05520894],[-61.56140096,16.05511237],[-61.56164169,16.05477868],[-61.56236233,16.05464614],[-61.56249085,16.05471027],[-61.56281658,16.05490587],[-61.56293252,16.05503047],[-61.5632324,16.05557114],[-61.56350208,16.05589379],[-61.5636342,16.05597693],[-61.56394054,16.05613986],[-61.56448121,16.0563396],[-61.56485557,16.05640086],[-61.56501693,16.05644894],[-61.56517511,16.05654851],[-61.56550381,16.05658958],[-61.56597639,16.05677169],[-61.56615921,16.05695458],[-61.56645348,16.05749702],[-61.56666532,16.05780482],[-61.56731545,16.05838399],[-61.56770896,16.05851225],[-61.56781037,16.0585789],[-61.56807615,16.05892412],[-61.568403,16.05948756],[-61.56849228,16.05955052],[-61.5692886,16.05981523],[-61.56974672,16.05992856],[-61.57005872,16.05995504],[-61.57075278,16.05988195],[-61.57093734,16.05982172],[-61.57122175,16.05965371],[-61.57137991,16.05962494],[-61.57192349,16.05968189],[-61.57214965,16.05981806],[-61.5724037,16.06010626],[-61.57257122,16.0602077],[-61.57330956,16.06060938],[-61.57354581,16.06064169],[-61.57382536,16.06063089],[-61.57403998,16.06054917],[-61.57485462,16.06008191],[-61.57568818,16.05971238],[-61.57647964,16.05947994],[-61.57674076,16.05943197],[-61.57715118,16.05941933],[-61.57716641,16.05832765],[-61.57714464,16.05823531],[-61.57691098,16.05797076],[-61.5767693,16.05791559],[-61.57552985,16.05766242],[-61.57437978,16.05745864],[-61.5745648,16.05667718],[-61.57475438,16.05643623],[-61.57501985,16.05630242],[-61.5755682,16.05621298],[-61.57586955,16.05589594],[-61.57600936,16.0556881],[-61.57611459,16.05534716],[-61.57610717,16.05520883],[-61.57626937,16.05474355],[-61.57589837,16.0546028],[-61.57576067,16.05451422],[-61.57571701,16.05434492],[-61.57614392,16.05279955],[-61.5764886,16.05309105],[-61.5769967,16.05340443],[-61.57761858,16.05362095],[-61.57827718,16.05379886],[-61.57856602,16.05379445],[-61.57870201,16.05372937],[-61.57884596,16.05359656],[-61.5791093,16.05310212],[-61.57930634,16.05299407],[-61.57953023,16.05305521],[-61.57996806,16.05326056],[-61.5807781,16.0538308],[-61.58131065,16.05399159],[-61.58241895,16.05375761],[-61.58273865,16.05361874],[-61.58316379,16.053373],[-61.58332765,16.05333071],[-61.58349037,16.05331822],[-61.58381812,16.05336287],[-61.58398504,16.0534173],[-61.58415526,16.05353321],[-61.58442298,16.053873],[-61.58456574,16.05417129],[-61.58468067,16.05430852],[-61.58478966,16.05436076],[-61.58499906,16.05435582],[-61.58544387,16.05423584],[-61.58587369,16.05425404],[-61.58599098,16.05432079],[-61.58624302,16.05476351],[-61.58622076,16.05500468],[-61.58612595,16.05519385],[-61.58615812,16.05527089],[-61.58623832,16.05529763],[-61.58650507,16.05524516],[-61.5867788,16.05513038],[-61.58736577,16.05513063],[-61.58758574,16.05508508],[-61.588737,16.05525265],[-61.58931566,16.05523838],[-61.5894884,16.05513106],[-61.58977158,16.05513383],[-61.59000046,16.05501694],[-61.59042449,16.05466273],[-61.59070773,16.05465736],[-61.59081476,16.05472314],[-61.590985,16.05496919],[-61.5910059,16.05518714],[-61.59096188,16.05546613],[-61.59100876,16.05584332],[-61.59135239,16.05642221],[-61.59193797,16.056887],[-61.59221431,16.05719882],[-61.592656,16.05739062],[-61.59274501,16.05736048],[-61.59275675,16.05688696],[-61.59282364,16.05667772],[-61.59296007,16.05654937],[-61.5931005,16.05651685],[-61.59324147,16.05654128],[-61.59332658,16.05666566],[-61.59335935,16.0567915],[-61.59345878,16.05740584],[-61.59363014,16.05762839],[-61.59370288,16.05778432],[-61.59386339,16.05782063],[-61.59419659,16.05775684],[-61.59462847,16.05721558],[-61.59484173,16.05706062],[-61.59499882,16.05705171],[-61.59524463,16.05718618],[-61.59533784,16.0573558],[-61.5954075,16.05781901],[-61.59547035,16.05791974],[-61.59565755,16.05801587],[-61.59578213,16.05797692],[-61.59647947,16.05730183],[-61.5968422,16.05729065],[-61.59696623,16.05733033],[-61.59731207,16.05759741],[-61.59754217,16.0575727],[-61.59810617,16.05765141],[-61.59872964,16.05751269],[-61.5990593,16.05701866],[-61.59917098,16.05695341],[-61.59956059,16.05697584],[-61.59983113,16.05704901],[-61.59992597,16.05725389],[-61.60020087,16.05750604],[-61.60034257,16.05755939],[-61.60058535,16.05772728],[-61.60071545,16.05796944],[-61.60099341,16.0580526],[-61.60106657,16.05814979],[-61.60110294,16.0584284],[-61.60118888,16.05856995],[-61.60128821,16.05866731],[-61.60151872,16.05871852],[-61.60169114,16.05865638],[-61.60199032,16.05824258],[-61.60238974,16.05739561],[-61.60251967,16.05726089],[-61.60277696,16.05722461],[-61.6030399,16.0573158],[-61.60376204,16.05777151],[-61.60407529,16.05775276],[-61.6042205,16.0577049],[-61.60448392,16.05745988],[-61.60457772,16.05741259],[-61.60470297,16.0574116],[-61.6050098,16.0575094],[-61.60531585,16.05785303],[-61.60539053,16.05786708],[-61.60569128,16.05762953],[-61.60642856,16.05685072],[-61.60672051,16.05666915],[-61.60692818,16.05664429],[-61.60705387,16.0567156],[-61.60720883,16.05701306],[-61.60717792,16.05715656],[-61.60686851,16.05769864],[-61.60686015,16.05795979],[-61.60692594,16.05804156],[-61.60701734,16.05807017],[-61.60743727,16.05803404],[-61.60835319,16.05804451],[-61.60878555,16.05796688],[-61.60901071,16.0579819],[-61.60912407,16.05794378],[-61.60940622,16.05796278],[-61.60977757,16.05792181],[-61.60994795,16.05801781],[-61.61028288,16.05810766],[-61.61052432,16.05833608],[-61.61078461,16.05867579],[-61.61087585,16.0587279],[-61.61107759,16.05875],[-61.61142994,16.05861942],[-61.61205078,16.05831977],[-61.61276438,16.05825751],[-61.6132396,16.05806536],[-61.61332778,16.05801894],[-61.61360462,16.05758871],[-61.61382755,16.05752056],[-61.61416003,16.05755977],[-61.61436079,16.05745261],[-61.61480145,16.05698728],[-61.61492154,16.05692118],[-61.61519269,16.05690847],[-61.61539752,16.05702367],[-61.61546702,16.05711179],[-61.61560094,16.05747961],[-61.61569636,16.05760314],[-61.61580813,16.057659],[-61.61605238,16.05761629],[-61.6163059,16.05744891],[-61.61664416,16.05705794],[-61.61706265,16.05682294],[-61.61749926,16.05667211],[-61.61787059,16.05649826],[-61.61806595,16.05636124],[-61.61821174,16.05582261],[-61.61840457,16.05551023],[-61.61871803,16.05545983],[-61.61959858,16.05544924],[-61.62001261,16.05531723],[-61.62008867,16.05513154],[-61.62004719,16.0546405],[-61.62013381,16.0544124],[-61.61964289,16.04969585],[-61.62003432,16.04972458],[-61.62061791,16.0496714],[-61.62116747,16.0498087],[-61.62184115,16.04983834],[-61.62251452,16.04977759],[-61.62262169,16.04982438],[-61.62312537,16.05038165],[-61.62357162,16.05072978],[-61.62410546,16.05097995],[-61.62465528,16.05108109],[-61.62667837,16.04555548],[-61.62696192,16.04550398],[-61.62724807,16.04534493],[-61.62747739,16.04529669],[-61.62759606,16.04530106],[-61.62798763,16.04544366],[-61.62828595,16.04541846],[-61.62848722,16.04523446],[-61.62867673,16.04513083],[-61.62878328,16.04513061],[-61.62912263,16.0452557],[-61.6294336,16.04529384],[-61.62956652,16.04526487],[-61.629821,16.04508935],[-61.63016285,16.04498669],[-61.63060093,16.04502474],[-61.63129408,16.04535002],[-61.63140332,16.04536608],[-61.63166345,16.04532165],[-61.63189995,16.04517945],[-61.63208539,16.04498722],[-61.63231618,16.04485944],[-61.63257986,16.04429534],[-61.63346387,16.04280967],[-61.63368067,16.04267729],[-61.63436944,16.04158716],[-61.63441454,16.04127653],[-61.63439731,16.04078745],[-61.63444522,16.04047775],[-61.63455269,16.04020548],[-61.63469871,16.04003469],[-61.63473778,16.03965081],[-61.63464555,16.03947036],[-61.63460584,16.03926223],[-61.63464543,16.03907539],[-61.63472813,16.03900904],[-61.63482947,16.03894913],[-61.63554551,16.03879371],[-61.63594395,16.03875015],[-61.6362804,16.0386131],[-61.63664967,16.03859828],[-61.63672747,16.03856533],[-61.6369459,16.03832992],[-61.63750285,16.03792855],[-61.63788793,16.03778729],[-61.63825171,16.03775435],[-61.63845703,16.03765985],[-61.63869408,16.03743449],[-61.63884533,16.03718329],[-61.63898719,16.03707392],[-61.63920724,16.03701205],[-61.63969616,16.03699437],[-61.64022464,16.03679346],[-61.64060216,16.03652651],[-61.64071957,16.0363013],[-61.64070897,16.03607347],[-61.6408875,16.0359318],[-61.64104592,16.03572402],[-61.64131263,16.035535],[-61.64176527,16.03549087],[-61.6418478,16.03544801],[-61.64215033,16.03507484],[-61.64259229,16.03481463],[-61.64312581,16.03469508],[-61.64325892,16.03477456],[-61.64344525,16.03499988],[-61.64359521,16.03507495],[-61.64370362,16.03507563],[-61.64381337,16.03501577],[-61.64381821,16.03471573],[-61.64393462,16.03449955],[-61.64473372,16.03408161],[-61.64480713,16.03400525],[-61.64484344,16.03388708],[-61.64494393,16.03381541],[-61.64525119,16.03384718],[-61.64542612,16.03368469],[-61.64581464,16.03358682],[-61.64620094,16.03340217],[-61.64627897,16.03333397],[-61.64632644,16.033224],[-61.64637969,16.03295048],[-61.64648681,16.03286439],[-61.64655787,16.03285941],[-61.64672282,16.03293005],[-61.64691713,16.03294212],[-61.64725641,16.03279875],[-61.64763662,16.03282374],[-61.64814956,16.03256848],[-61.64856415,16.03248432],[-61.64890637,16.03218189],[-61.6493086,16.0319901],[-61.6497296,16.03192406],[-61.64999894,16.03203693],[-61.65013052,16.03192749],[-61.65071909,16.03182002],[-61.6510392,16.03188711],[-61.65132229,16.03190064],[-61.65182755,16.03167334],[-61.65228426,16.0315786],[-61.6532932,16.03164007],[-61.65375982,16.03132124],[-61.65466769,16.03223799],[-61.65536194,16.03323655],[-61.65564109,16.03341907],[-61.65586716,16.03455027],[-61.65614389,16.0350943],[-61.65618547,16.03586281],[-61.65594607,16.03671995],[-61.65622251,16.03730917],[-61.65635633,16.03825902],[-61.65639398,16.039615],[-61.65713028,16.03992058],[-61.65783262,16.04055314],[-61.65820172,16.04070458],[-61.65969946,16.04231101],[-61.66300087,16.04394948],[-61.66304699,16.04404015],[-61.66110933,16.04728183],[-61.66091908,16.04777775],[-61.66137733,16.04913635],[-61.66172241,16.04952896],[-61.66190211,16.04977141],[-61.66183134,16.05001138],[-61.66201584,16.05065606],[-61.6623614,16.05097727],[-61.66260917,16.05138373],[-61.66318123,16.05193954],[-61.66332672,16.05226763],[-61.66333819,16.05250902],[-61.66313932,16.05303652],[-61.66313184,16.05345766],[-61.6630323,16.05352663],[-61.66310695,16.05382536],[-61.66294265,16.05407469],[-61.66289282,16.05467904],[-61.66311196,16.05503562],[-61.66333334,16.05519697],[-61.66322861,16.05548374],[-61.66329366,16.05582037],[-61.66361457,16.05619384],[-61.66341427,16.05637607],[-61.66340291,16.05667788],[-61.66371394,16.05713173],[-61.66399368,16.05723109],[-61.66389957,16.0576083],[-61.66410908,16.05772711],[-61.66419647,16.05765896],[-61.66460604,16.05763259],[-61.6651228,16.05807327],[-61.66545111,16.05803916],[-61.66645508,16.05830571],[-61.66704191,16.05861215],[-61.66735188,16.05866469],[-61.67013783,16.05971418],[-61.67062288,16.05944243],[-61.67095793,16.05937853],[-61.67113412,16.05916813],[-61.67148325,16.05909528],[-61.671592,16.05918724],[-61.67167948,16.06009161],[-61.67195568,16.060726],[-61.67269504,16.06199595],[-61.67306592,16.06245016],[-61.67309066,16.06308932],[-61.67362815,16.06379222],[-61.67365076,16.06475313],[-61.6737236,16.06504551],[-61.67369045,16.06553428],[-61.67421814,16.06630761],[-61.67456858,16.06660262],[-61.67458605,16.06707091],[-61.67480088,16.06751874],[-61.67485102,16.06813455],[-61.67509566,16.06930291],[-61.67511516,16.0704527],[-61.67488863,16.07191189],[-61.67480634,16.07332678],[-61.67455073,16.07395426],[-61.67403875,16.07461721],[-61.67413157,16.0748573],[-61.67404472,16.0752671],[-61.67468304,16.07571212],[-61.67502948,16.07619149],[-61.67532307,16.07632255],[-61.67555148,16.07655625],[-61.67608522,16.07755015],[-61.67647846,16.07801986],[-61.67684801,16.07825805],[-61.67725808,16.07886886],[-61.67800041,16.07956307],[-61.67841747,16.08010795],[-61.67902299,16.08042803],[-61.67916052,16.0808356],[-61.67915305,16.08196534],[-61.67924534,16.08214668],[-61.68063857,16.08351102],[-61.68053853,16.08450462],[-61.68063171,16.08455038],[-61.68129607,16.08516366],[-61.68216668,16.08568964],[-61.68296007,16.08587529],[-61.68318693,16.08691609],[-61.68332685,16.08696214],[-61.68401844,16.08841253],[-61.68410478,16.08949766]]]]},"bbox":[-61.68410478,16.03132124,-61.55530174,16.09537695]},{"type":"Feature","id":"fr-quartier-97107-0debfdd33f8e","properties":{"id":"fr-quartier-97107-0debfdd33f8e","kind":"quartier","name":"Le Bourg","cityCode":"97107","cityName":"Capesterre-Belle-Eau","sourceType":"iris","sourceIds":["971070106"],"colorIndex":2,"center":[-61.567621050251475,16.041457475]},"geometry":{"type":"MultiPolygon","coordinates":[[[[-61.56046617,16.04771668],[-61.56079693,16.04590769],[-61.56097348,16.04540095],[-61.56127171,16.0451282],[-61.56316841,16.04390272],[-61.5639564,16.04284243],[-61.56382028,16.04253513],[-61.56384423,16.0423229],[-61.56400965,16.04219386],[-61.56427348,16.04215586],[-61.56441586,16.04171938],[-61.56461158,16.0417948],[-61.56463941,16.04169376],[-61.56443308,16.04166346],[-61.56442341,16.04157843],[-61.56451142,16.04064269],[-61.56472858,16.03968251],[-61.56466296,16.03775156],[-61.56512276,16.03657699],[-61.56519457,16.03594572],[-61.56509541,16.03556727],[-61.56513434,16.03522047],[-61.56506504,16.03484855],[-61.56484672,16.03453527],[-61.5645335,16.03442472],[-61.56447258,16.03418752],[-61.56464889,16.03384074],[-61.56532996,16.03348016],[-61.56578712,16.03306567],[-61.56659136,16.03351571],[-61.56791262,16.03433073],[-61.5681663,16.03453487],[-61.56797501,16.03488607],[-61.5677781,16.0353701],[-61.56944794,16.03631939],[-61.56908672,16.03821947],[-61.56896981,16.03901765],[-61.57001151,16.03906888],[-61.57180061,16.03928868],[-61.57255654,16.03944104],[-61.57280912,16.03953852],[-61.57310136,16.03971038],[-61.57320326,16.03970564],[-61.57390157,16.03942016],[-61.57546182,16.03909794],[-61.57585279,16.03892158],[-61.57619773,16.03891032],[-61.57741158,16.0390684],[-61.57674733,16.04114093],[-61.57392357,16.04145114],[-61.57348192,16.04139217],[-61.57219152,16.04109075],[-61.57111337,16.04090732],[-61.57080379,16.04146381],[-61.57077431,16.04179711],[-61.57080019,16.04210006],[-61.5708565,16.04219714],[-61.5708295,16.04231445],[-61.57101972,16.04250642],[-61.57102309,16.04255887],[-61.5709388,16.04258361],[-61.57061132,16.0425037],[-61.57076145,16.04268275],[-61.57067734,16.04268219],[-61.56991822,16.04572654],[-61.56749869,16.04504518],[-61.56606605,16.04959887],[-61.56573549,16.05086378],[-61.56554789,16.0520013],[-61.56261364,16.05127487],[-61.56244993,16.05129546],[-61.56236926,16.05120635],[-61.56272196,16.05011693],[-61.56107948,16.0497715],[-61.56122766,16.04918051],[-61.56143462,16.04782169],[-61.56046617,16.04771668]]]]},"bbox":[-61.57741158,16.03306567,-61.56046617,16.0520013]},{"type":"Feature","id":"fr-quartier-97107-393d97b93cd6","properties":{"id":"fr-quartier-97107-393d97b93cd6","kind":"quartier","name":"Moulin à Eaux-Routhiers-Concession","cityCode":"97107","cityName":"Capesterre-Belle-Eau","sourceType":"iris","sourceIds":["971070103"],"colorIndex":3,"center":[-61.59566108447527,16.040457755]},"geometry":{"type":"MultiPolygon","coordinates":[[[[-61.56578712,16.03306567],[-61.56592192,16.03290388],[-61.56596947,16.03252732],[-61.56630764,16.03189331],[-61.56776107,16.03029426],[-61.56818058,16.03017776],[-61.568813,16.02969031],[-61.56929079,16.02887104],[-61.5694917,16.02874223],[-61.56987759,16.02822874],[-61.56993422,16.02788748],[-61.56975024,16.02747683],[-61.569701,16.02717373],[-61.56911571,16.02603285],[-61.56933252,16.02550919],[-61.56965166,16.02518143],[-61.57000922,16.02496871],[-61.57033046,16.02500248],[-61.57067618,16.02487916],[-61.57110335,16.02486483],[-61.57167829,16.02470417],[-61.57203325,16.02407026],[-61.57194817,16.023287],[-61.57201051,16.02293132],[-61.57232546,16.02279694],[-61.5726661,16.02207345],[-61.5731541,16.02165282],[-61.57428162,16.02105567],[-61.57430322,16.02090849],[-61.57455612,16.02122108],[-61.57457223,16.02158451],[-61.57463957,16.02157683],[-61.5748756,16.02229149],[-61.57511739,16.02258955],[-61.57540546,16.02281922],[-61.57571699,16.02290353],[-61.5759961,16.02307801],[-61.57637614,16.02325406],[-61.57680404,16.02353165],[-61.57711143,16.02393679],[-61.57715839,16.02456343],[-61.57698589,16.02490393],[-61.57686557,16.02500345],[-61.57667647,16.02504829],[-61.57654026,16.02514861],[-61.57650489,16.0253915],[-61.57656855,16.02550761],[-61.57665851,16.02560491],[-61.57718584,16.02596451],[-61.577614,16.02633881],[-61.5777918,16.02643669],[-61.5785343,16.02636931],[-61.57892736,16.02629057],[-61.57918686,16.02633296],[-61.57933486,16.02641529],[-61.5793842,16.02657468],[-61.5793556,16.02678689],[-61.57923455,16.02698854],[-61.57891881,16.02736514],[-61.57886672,16.02759436],[-61.5790789,16.02785335],[-61.57945479,16.02795616],[-61.57948244,16.02814252],[-61.57956031,16.02823161],[-61.57969681,16.02822348],[-61.57972325,16.02818569],[-61.57972257,16.02801758],[-61.57975296,16.02794819],[-61.57991937,16.02780739],[-61.58006489,16.02731669],[-61.58013585,16.02719424],[-61.58029278,16.02707236],[-61.58045604,16.02711321],[-61.58054581,16.02723672],[-61.58056919,16.02736612],[-61.58063857,16.02826044],[-61.58070462,16.02856727],[-61.58079011,16.02876757],[-61.58088004,16.02886939],[-61.58110988,16.02887724],[-61.5813728,16.02883379],[-61.58185983,16.02841855],[-61.58198098,16.02833349],[-61.58209046,16.02831433],[-61.58214623,16.02835718],[-61.58236547,16.02880781],[-61.58274139,16.02903896],[-61.58472613,16.0292039],[-61.58506963,16.02939506],[-61.58559915,16.03024271],[-61.58579653,16.03048171],[-61.58603082,16.03065407],[-61.58615643,16.03059977],[-61.58621889,16.03048992],[-61.58637843,16.02973087],[-61.58645923,16.02913941],[-61.58649447,16.02904655],[-61.58661495,16.02892443],[-61.58675058,16.02890725],[-61.58685922,16.02900738],[-61.58689965,16.02910435],[-61.58694367,16.0293568],[-61.58692236,16.02959527],[-61.58699117,16.0300431],[-61.58704521,16.03019891],[-61.58716719,16.03026208],[-61.5873314,16.03016736],[-61.58767321,16.02967071],[-61.58810952,16.02929037],[-61.58842102,16.02911527],[-61.58865647,16.02912225],[-61.5887653,16.02919617],[-61.58902906,16.02956395],[-61.58973257,16.03078961],[-61.58995329,16.03089862],[-61.59009823,16.03088692],[-61.59024169,16.03081917],[-61.5903469,16.03074304],[-61.59047611,16.03057488],[-61.59091994,16.02978877],[-61.59084815,16.02949818],[-61.59085332,16.02929485],[-61.59097031,16.02913655],[-61.59113966,16.02910874],[-61.59129819,16.02915769],[-61.59147204,16.02928717],[-61.59194818,16.03028719],[-61.59219144,16.0306476],[-61.5925102,16.03090276],[-61.59280104,16.03100951],[-61.59298791,16.03101525],[-61.59315698,16.03089435],[-61.59321183,16.03080161],[-61.59329983,16.03038011],[-61.59337673,16.03034266],[-61.59364589,16.03034171],[-61.59376806,16.03037776],[-61.59385163,16.03045513],[-61.59420003,16.03088221],[-61.59464007,16.03130084],[-61.59483111,16.03137982],[-61.59507027,16.03139223],[-61.59517412,16.03124198],[-61.59516916,16.03101599],[-61.59494475,16.03063221],[-61.59496062,16.03050126],[-61.5950323,16.03040774],[-61.59514477,16.03036238],[-61.5952928,16.03030822],[-61.59544137,16.03031281],[-61.59570063,16.03039042],[-61.59625089,16.03041843],[-61.59696317,16.0306635],[-61.59734588,16.03086303],[-61.5976668,16.03094376],[-61.59777367,16.03103123],[-61.59794827,16.03105406],[-61.59802255,16.03112323],[-61.59807391,16.03126276],[-61.59810822,16.03170223],[-61.59820596,16.03189177],[-61.59835853,16.03199128],[-61.59861277,16.03198571],[-61.59899372,16.03190324],[-61.59932269,16.03190268],[-61.60000964,16.03203008],[-61.6005328,16.03179037],[-61.60094957,16.0317958],[-61.60107341,16.03186168],[-61.60117438,16.03199068],[-61.60137765,16.0327268],[-61.60151733,16.03293378],[-61.6016265,16.03322643],[-61.6019084,16.0335446],[-61.60197907,16.0338632],[-61.60214563,16.03396822],[-61.60225606,16.03394635],[-61.60236714,16.03383138],[-61.6026676,16.03309402],[-61.60275816,16.03297441],[-61.60305769,16.03290677],[-61.6034816,16.03269352],[-61.60368646,16.03266683],[-61.60375395,16.03277121],[-61.6037711,16.03299366],[-61.6037368,16.03335496],[-61.60347108,16.03406995],[-61.603482,16.03424626],[-61.60351516,16.03431698],[-61.60360634,16.03437541],[-61.60394385,16.03435592],[-61.60413388,16.03444573],[-61.60431158,16.03442791],[-61.60456598,16.0345344],[-61.60472326,16.03462942],[-61.60492561,16.03496334],[-61.60506559,16.03512694],[-61.60516523,16.0351782],[-61.60537378,16.03515967],[-61.60576781,16.03494261],[-61.60609389,16.03495557],[-61.6067115,16.03511143],[-61.60681931,16.03519799],[-61.60687343,16.03534476],[-61.60671647,16.03587518],[-61.6067328,16.03608045],[-61.6068386,16.03632155],[-61.60688884,16.03635442],[-61.60741543,16.03629457],[-61.60790053,16.03628687],[-61.60852346,16.03635147],[-61.60937708,16.03657031],[-61.60949242,16.03664969],[-61.60956224,16.03682458],[-61.60956549,16.03716443],[-61.60962487,16.03749651],[-61.60979688,16.03762507],[-61.61026516,16.03761816],[-61.61065187,16.03751311],[-61.6109205,16.03718587],[-61.61102817,16.03715764],[-61.61131627,16.03725712],[-61.61148031,16.03745702],[-61.61164267,16.03816937],[-61.6117255,16.03835519],[-61.61173066,16.03855406],[-61.61181302,16.03880857],[-61.61208641,16.03900737],[-61.61226924,16.03905826],[-61.61243247,16.03897074],[-61.61244078,16.03871502],[-61.61256055,16.03842477],[-61.61264341,16.03833582],[-61.61289804,16.03827421],[-61.61302782,16.03829312],[-61.61318694,16.03839447],[-61.61334461,16.03856993],[-61.61387013,16.03947533],[-61.61402519,16.03962275],[-61.61441153,16.03984397],[-61.61446716,16.0399076],[-61.61452555,16.04011404],[-61.61451076,16.04022512],[-61.614201,16.04069039],[-61.61418287,16.04087917],[-61.61432701,16.04098313],[-61.6149954,16.04109862],[-61.61522353,16.04122121],[-61.61561474,16.04168377],[-61.6158034,16.04224445],[-61.61581242,16.04269822],[-61.61592019,16.04279201],[-61.61613389,16.04283858],[-61.61662489,16.04279204],[-61.61723924,16.04301834],[-61.61770005,16.04328433],[-61.61805605,16.04329656],[-61.61854339,16.04323915],[-61.61906006,16.04326417],[-61.61918449,16.04338247],[-61.61925436,16.04355012],[-61.61928964,16.04372027],[-61.6192296,16.04402447],[-61.61926988,16.04414674],[-61.61932389,16.04417511],[-61.61951468,16.04415736],[-61.6198073,16.04387363],[-61.62007762,16.04370727],[-61.62033288,16.04369174],[-61.62061287,16.04374958],[-61.62093159,16.04388358],[-61.6211183,16.04405109],[-61.62131938,16.04430274],[-61.62139185,16.04450114],[-61.62164504,16.04492304],[-61.62183721,16.04511137],[-61.62225336,16.04521256],[-61.62267181,16.0452514],[-61.62326167,16.04510064],[-61.62353682,16.04518284],[-61.62392077,16.04520971],[-61.62431976,16.04522402],[-61.62510238,16.04517572],[-61.62548802,16.04522881],[-61.62639216,16.04544971],[-61.62667837,16.04555548],[-61.62465528,16.05108109],[-61.62410546,16.05097995],[-61.62357162,16.05072978],[-61.62312537,16.05038165],[-61.62262169,16.04982438],[-61.62251452,16.04977759],[-61.62184115,16.04983834],[-61.62116747,16.0498087],[-61.62061791,16.0496714],[-61.62003432,16.04972458],[-61.61964289,16.04969585],[-61.62013381,16.0544124],[-61.62004719,16.0546405],[-61.62008867,16.05513154],[-61.62001261,16.05531723],[-61.61959858,16.05544924],[-61.61871803,16.05545983],[-61.61840457,16.05551023],[-61.61821174,16.05582261],[-61.61806595,16.05636124],[-61.61787059,16.05649826],[-61.61749926,16.05667211],[-61.61706265,16.05682294],[-61.61664416,16.05705794],[-61.6163059,16.05744891],[-61.61605238,16.05761629],[-61.61580813,16.057659],[-61.61569636,16.05760314],[-61.61560094,16.05747961],[-61.61546702,16.05711179],[-61.61539752,16.05702367],[-61.61519269,16.05690847],[-61.61492154,16.05692118],[-61.61480145,16.05698728],[-61.61436079,16.05745261],[-61.61416003,16.05755977],[-61.61382755,16.05752056],[-61.61360462,16.05758871],[-61.61332778,16.05801894],[-61.6132396,16.05806536],[-61.61276438,16.05825751],[-61.61205078,16.05831977],[-61.61142994,16.05861942],[-61.61107759,16.05875],[-61.61087585,16.0587279],[-61.61078461,16.05867579],[-61.61052432,16.05833608],[-61.61028288,16.05810766],[-61.60994795,16.05801781],[-61.60977757,16.05792181],[-61.60940622,16.05796278],[-61.60912407,16.05794378],[-61.60901071,16.0579819],[-61.60878555,16.05796688],[-61.60835319,16.05804451],[-61.60743727,16.05803404],[-61.60701734,16.05807017],[-61.60692594,16.05804156],[-61.60686015,16.05795979],[-61.60686851,16.05769864],[-61.60717792,16.05715656],[-61.60720883,16.05701306],[-61.60705387,16.0567156],[-61.60692818,16.05664429],[-61.60672051,16.05666915],[-61.60642856,16.05685072],[-61.60569128,16.05762953],[-61.60539053,16.05786708],[-61.60531585,16.05785303],[-61.6050098,16.0575094],[-61.60470297,16.0574116],[-61.60457772,16.05741259],[-61.60448392,16.05745988],[-61.6042205,16.0577049],[-61.60407529,16.05775276],[-61.60376204,16.05777151],[-61.6030399,16.0573158],[-61.60277696,16.05722461],[-61.60251967,16.05726089],[-61.60238974,16.05739561],[-61.60199032,16.05824258],[-61.60169114,16.05865638],[-61.60151872,16.05871852],[-61.60128821,16.05866731],[-61.60118888,16.05856995],[-61.60110294,16.0584284],[-61.60106657,16.05814979],[-61.60099341,16.0580526],[-61.60071545,16.05796944],[-61.60058535,16.05772728],[-61.60034257,16.05755939],[-61.60020087,16.05750604],[-61.59992597,16.05725389],[-61.59983113,16.05704901],[-61.59956059,16.05697584],[-61.59917098,16.05695341],[-61.5990593,16.05701866],[-61.59872964,16.05751269],[-61.59810617,16.05765141],[-61.59754217,16.0575727],[-61.59731207,16.05759741],[-61.59696623,16.05733033],[-61.5968422,16.05729065],[-61.59647947,16.05730183],[-61.59578213,16.05797692],[-61.59565755,16.05801587],[-61.59547035,16.05791974],[-61.5954075,16.05781901],[-61.59533784,16.0573558],[-61.59524463,16.05718618],[-61.59499882,16.05705171],[-61.59484173,16.05706062],[-61.59462847,16.05721558],[-61.59419659,16.05775684],[-61.59386339,16.05782063],[-61.59370288,16.05778432],[-61.59363014,16.05762839],[-61.59345878,16.05740584],[-61.59335935,16.0567915],[-61.59332658,16.05666566],[-61.59324147,16.05654128],[-61.5931005,16.05651685],[-61.59296007,16.05654937],[-61.59282364,16.05667772],[-61.59275675,16.05688696],[-61.59274501,16.05736048],[-61.592656,16.05739062],[-61.59221431,16.05719882],[-61.59193797,16.056887],[-61.59135239,16.05642221],[-61.59100876,16.05584332],[-61.59096188,16.05546613],[-61.5910059,16.05518714],[-61.590985,16.05496919],[-61.59081476,16.05472314],[-61.59070773,16.05465736],[-61.59042449,16.05466273],[-61.59000046,16.05501694],[-61.58977158,16.05513383],[-61.5894884,16.05513106],[-61.58931566,16.05523838],[-61.588737,16.05525265],[-61.58758574,16.05508508],[-61.58736577,16.05513063],[-61.5867788,16.05513038],[-61.58650507,16.05524516],[-61.58623832,16.05529763],[-61.58615812,16.05527089],[-61.58612595,16.05519385],[-61.58622076,16.05500468],[-61.58624302,16.05476351],[-61.58599098,16.05432079],[-61.58587369,16.05425404],[-61.58544387,16.05423584],[-61.58499906,16.05435582],[-61.58478966,16.05436076],[-61.58468067,16.05430852],[-61.58456574,16.05417129],[-61.58442298,16.053873],[-61.58415526,16.05353321],[-61.58398504,16.0534173],[-61.58381812,16.05336287],[-61.58349037,16.05331822],[-61.58332765,16.05333071],[-61.58316379,16.053373],[-61.58273865,16.05361874],[-61.58241895,16.05375761],[-61.58131065,16.05399159],[-61.5807781,16.0538308],[-61.57996806,16.05326056],[-61.57953023,16.05305521],[-61.57930634,16.05299407],[-61.5791093,16.05310212],[-61.57884596,16.05359656],[-61.57870201,16.05372937],[-61.57856602,16.05379445],[-61.57827718,16.05379886],[-61.57761858,16.05362095],[-61.5769967,16.05340443],[-61.5764886,16.05309105],[-61.57614392,16.05279955],[-61.57669331,16.0511158],[-61.57828544,16.04683965],[-61.5786342,16.04629246],[-61.57842479,16.04616815],[-61.57815362,16.04618623],[-61.5780112,16.0459738],[-61.57756591,16.04563644],[-61.57726493,16.04550881],[-61.57683645,16.04504232],[-61.57658017,16.04480653],[-61.57639034,16.04468959],[-61.57610287,16.04463526],[-61.5751696,16.04484054],[-61.57498171,16.04484381],[-61.57469452,16.04461866],[-61.57416058,16.04439459],[-61.57394607,16.04393674],[-61.57358699,16.04370117],[-61.57343005,16.04369019],[-61.57326047,16.04374871],[-61.57293933,16.04356581],[-61.57226602,16.04335888],[-61.57119308,16.04270461],[-61.57076145,16.04268275],[-61.57061132,16.0425037],[-61.5709388,16.04258361],[-61.57102309,16.04255887],[-61.57101972,16.04250642],[-61.5708295,16.04231445],[-61.5708565,16.04219714],[-61.57080019,16.04210006],[-61.57077431,16.04179711],[-61.57080379,16.04146381],[-61.57111337,16.04090732],[-61.57219152,16.04109075],[-61.57348192,16.04139217],[-61.57392357,16.04145114],[-61.57674733,16.04114093],[-61.57741158,16.0390684],[-61.57619773,16.03891032],[-61.57585279,16.03892158],[-61.57546182,16.03909794],[-61.57390157,16.03942016],[-61.57320326,16.03970564],[-61.57310136,16.03971038],[-61.57280912,16.03953852],[-61.57255654,16.03944104],[-61.57180061,16.03928868],[-61.57001151,16.03906888],[-61.56896981,16.03901765],[-61.56908672,16.03821947],[-61.56944794,16.03631939],[-61.5677781,16.0353701],[-61.56797501,16.03488607],[-61.5681663,16.03453487],[-61.56791262,16.03433073],[-61.56659136,16.03351571],[-61.56578712,16.03306567]]]]},"bbox":[-61.62667837,16.02090849,-61.56578712,16.05875]},{"type":"Feature","id":"fr-quartier-97107-d614e3ea1b5d","properties":{"id":"fr-quartier-97107-d614e3ea1b5d","kind":"quartier","name":"Sainte-Marie-Four à Chaux","cityCode":"97107","cityName":"Capesterre-Belle-Eau","sourceType":"iris","sourceIds":["971070104"],"colorIndex":4,"center":[-61.593661633592575,16.09157096]},"geometry":{"type":"MultiPolygon","coordinates":[[[[-61.60164204,16.09509387],[-61.60031211,16.09517284],[-61.59988667,16.09545113],[-61.59924727,16.09544514],[-61.59864757,16.09564275],[-61.59763023,16.0958069],[-61.59696849,16.09578629],[-61.59621632,16.09546411],[-61.59609933,16.09548323],[-61.59549324,16.09605768],[-61.59482843,16.09620876],[-61.59440267,16.09599899],[-61.59430899,16.09602639],[-61.59411567,16.09639659],[-61.59326517,16.0966305],[-61.59246385,16.09718196],[-61.59165089,16.09726156],[-61.59112146,16.09770093],[-61.59032063,16.09778332],[-61.59003123,16.09759342],[-61.58983693,16.09757135],[-61.58973586,16.09771801],[-61.58975093,16.09796755],[-61.58924302,16.09813863],[-61.58907093,16.09828211],[-61.58945589,16.09844281],[-61.58955122,16.09857992],[-61.58947011,16.09881256],[-61.58924263,16.09885534],[-61.58844246,16.09857982],[-61.5883134,16.09858711],[-61.58815785,16.09877045],[-61.58886397,16.09939061],[-61.58884931,16.09961284],[-61.58843267,16.09970047],[-61.58818696,16.10007392],[-61.58783638,16.09994236],[-61.58795349,16.10030285],[-61.58788131,16.10046235],[-61.58751484,16.10019782],[-61.58717778,16.10013775],[-61.58715338,16.1002831],[-61.58749057,16.10058991],[-61.58761138,16.10095675],[-61.58754827,16.10141907],[-61.58728766,16.10204911],[-61.58702513,16.10215583],[-61.58679985,16.10215253],[-61.5861773,16.10200832],[-61.58521194,16.10221884],[-61.58507133,16.10227214],[-61.58479816,16.10269331],[-61.58459416,16.10285283],[-61.58429181,16.10290686],[-61.58411109,16.10281529],[-61.58395859,16.10283054],[-61.58376686,16.1037647],[-61.58365917,16.1037893],[-61.58341111,16.10356984],[-61.58318711,16.10351774],[-61.5828762,16.1038555],[-61.58243005,16.10401523],[-61.58204268,16.10392951],[-61.58180125,16.10396134],[-61.58167161,16.10404905],[-61.58161845,16.10429453],[-61.58165375,16.10458941],[-61.58182395,16.10484631],[-61.5817588,16.10506821],[-61.58145495,16.10520086],[-61.5807516,16.10511214],[-61.58043599,16.10518867],[-61.58042437,16.10537658],[-61.58070367,16.10580412],[-61.58070756,16.10591532],[-61.58056295,16.10613579],[-61.58036991,16.10619958],[-61.58018409,16.10590461],[-61.57965804,16.10559924],[-61.57948307,16.10575082],[-61.57939296,16.10606474],[-61.57904317,16.10660921],[-61.57852939,16.10668171],[-61.57866151,16.10716431],[-61.57866625,16.10754936],[-61.57855533,16.10776554],[-61.57836557,16.10776156],[-61.57801083,16.10755585],[-61.57773835,16.10761549],[-61.57737866,16.10757965],[-61.57713117,16.10767471],[-61.57690765,16.10794707],[-61.5767191,16.10803619],[-61.57626829,16.10766806],[-61.57600444,16.10769793],[-61.57569905,16.10791371],[-61.57549314,16.10794668],[-61.57431359,16.10764146],[-61.57415153,16.10781662],[-61.57427269,16.10813195],[-61.57416245,16.10877562],[-61.57390677,16.10896913],[-61.57287259,16.10912219],[-61.57265526,16.10944339],[-61.57257955,16.10983423],[-61.5722791,16.11014222],[-61.5721367,16.11018284],[-61.5715011,16.11003308],[-61.57100723,16.11006503],[-61.57031023,16.11039386],[-61.56972484,16.11054178],[-61.56907048,16.11092241],[-61.56863397,16.1102561],[-61.56787095,16.10936165],[-61.56727133,16.10875842],[-61.56681066,16.1084634],[-61.56604345,16.10815548],[-61.56555176,16.10814495],[-61.56542232,16.10794344],[-61.56505404,16.10780269],[-61.56370334,16.10763996],[-61.56316394,16.10750529],[-61.56308491,16.10757344],[-61.56276048,16.10731729],[-61.56230349,16.10664361],[-61.56222283,16.10641892],[-61.56231268,16.10640507],[-61.56248958,16.10585766],[-61.56280555,16.10547115],[-61.56297874,16.10504935],[-61.56299445,16.10442584],[-61.56293805,16.1040784],[-61.56271874,16.10363497],[-61.56272587,16.10342444],[-61.5624877,16.10300348],[-61.56225158,16.10281661],[-61.56205911,16.10280085],[-61.56174798,16.10251587],[-61.56125594,16.10229655],[-61.56083539,16.10175687],[-61.56047149,16.10153028],[-61.56081508,16.10120271],[-61.56081937,16.10034775],[-61.56091403,16.09966603],[-61.56084424,16.09923174],[-61.56104315,16.09887337],[-61.56117316,16.09821539],[-61.56110072,16.09801878],[-61.56120916,16.09698195],[-61.56112272,16.096393],[-61.56096339,16.09605934],[-61.56054971,16.09573661],[-61.56044188,16.0952632],[-61.56000613,16.09488881],[-61.55979469,16.09478164],[-61.55950284,16.09480679],[-61.55945247,16.09479108],[-61.55948861,16.09470637],[-61.55936671,16.09449858],[-61.55888051,16.09463901],[-61.55925087,16.09435681],[-61.55908249,16.09411346],[-61.55897777,16.09411637],[-61.55899489,16.09407491],[-61.55901527,16.09384187],[-61.55885503,16.09376487],[-61.55882989,16.09375114],[-61.5588787,16.09372345],[-61.55893572,16.0935955],[-61.55884271,16.09327041],[-61.55877194,16.09323198],[-61.55883032,16.09317272],[-61.55882443,16.09282291],[-61.55879655,16.09280104],[-61.55880979,16.09277943],[-61.55891132,16.0924412],[-61.55888636,16.09240307],[-61.55900975,16.0924039],[-61.55914046,16.09203784],[-61.55912595,16.09197629],[-61.55871872,16.0917964],[-61.55907347,16.09186477],[-61.55924172,16.09147818],[-61.55917358,16.09120477],[-61.55944061,16.09086132],[-61.55945573,16.08993143],[-61.55954561,16.08952261],[-61.55950733,16.0891274],[-61.55964235,16.0885526],[-61.55939109,16.08839455],[-61.56000425,16.08814562],[-61.56019235,16.08772752],[-61.55984537,16.08749201],[-61.56005492,16.08734068],[-61.55999373,16.08701038],[-61.55981362,16.0869676],[-61.55963523,16.08681637],[-61.55989722,16.08678288],[-61.56010257,16.08695418],[-61.56042473,16.08622428],[-61.56045101,16.08517063],[-61.5606178,16.08407817],[-61.56059471,16.08339023],[-61.56072101,16.08298528],[-61.56074104,16.0824106],[-61.56056708,16.08086485],[-61.56059631,16.08044027],[-61.56074854,16.08020088],[-61.56039532,16.08018314],[-61.55998763,16.07916273],[-61.55965581,16.07877006],[-61.55920076,16.07861425],[-61.55885081,16.07827388],[-61.55884317,16.07816627],[-61.55905377,16.07799778],[-61.55925259,16.0775192],[-61.55946325,16.07747182],[-61.55963531,16.07720274],[-61.55956367,16.07611862],[-61.55980384,16.07599641],[-61.55985205,16.07566324],[-61.56003752,16.07547831],[-61.56001684,16.07536429],[-61.56011415,16.07535139],[-61.56030551,16.07499839],[-61.56052002,16.07480642],[-61.56088119,16.07306724],[-61.56087554,16.0724237],[-61.56096921,16.07278675],[-61.56118745,16.07298344],[-61.56201997,16.07316076],[-61.56284717,16.07342751],[-61.56240555,16.07400659],[-61.56224927,16.07442128],[-61.56218122,16.07517549],[-61.56219064,16.07646617],[-61.56406975,16.07682223],[-61.5662156,16.07713397],[-61.56747578,16.0773774],[-61.56779292,16.07747352],[-61.56740564,16.07855728],[-61.56829317,16.07862739],[-61.56854051,16.07867966],[-61.56883513,16.07891752],[-61.56899241,16.07888333],[-61.56909599,16.07864813],[-61.56924589,16.07860033],[-61.56951768,16.07876393],[-61.56974386,16.07903025],[-61.57005112,16.07906846],[-61.57019612,16.07918421],[-61.57029329,16.07932133],[-61.57046846,16.07940113],[-61.57083113,16.07940355],[-61.57109415,16.07948575],[-61.57116161,16.07946451],[-61.57124555,16.07936023],[-61.57139048,16.07935397],[-61.57164995,16.07940993],[-61.57182314,16.07950508],[-61.57239519,16.0795098],[-61.5726856,16.07942136],[-61.57312397,16.07903475],[-61.57331423,16.07896371],[-61.57350111,16.0789749],[-61.5741934,16.07915847],[-61.57524932,16.07908055],[-61.57560323,16.07913261],[-61.57579149,16.07921159],[-61.57598118,16.07935294],[-61.57601625,16.07954749],[-61.57618919,16.07967698],[-61.57648715,16.07984165],[-61.57678418,16.07987435],[-61.57730883,16.07970974],[-61.57772886,16.07966553],[-61.57856933,16.07925628],[-61.57863495,16.07988756],[-61.57858627,16.08016019],[-61.57836866,16.08039554],[-61.57790438,16.08074764],[-61.57775721,16.08106751],[-61.57913088,16.08126463],[-61.58256249,16.08165976],[-61.58376565,16.08138394],[-61.58505595,16.08068119],[-61.58552109,16.08033902],[-61.58633211,16.07933393],[-61.58654248,16.07946095],[-61.58702968,16.08062555],[-61.58659023,16.08077268],[-61.58651365,16.08089418],[-61.58647765,16.08109369],[-61.586362,16.08118872],[-61.58652561,16.0814501],[-61.58664008,16.08152226],[-61.58670928,16.08151819],[-61.58672857,16.08183104],[-61.58687429,16.08264],[-61.58653159,16.08271998],[-61.58610656,16.08294131],[-61.58605302,16.08337478],[-61.58593173,16.08360626],[-61.58575033,16.08374424],[-61.58074402,16.08473056],[-61.58088547,16.08547984],[-61.58093603,16.08559948],[-61.58105041,16.08568429],[-61.58139205,16.08575525],[-61.58150629,16.08585904],[-61.58145938,16.0865411],[-61.58153613,16.08705496],[-61.58226821,16.08954255],[-61.5821947,16.08962612],[-61.58299865,16.09186744],[-61.58341574,16.0918449],[-61.58392063,16.09157078],[-61.58411729,16.09152147],[-61.58424782,16.09157114],[-61.58422513,16.092003],[-61.58428328,16.09210733],[-61.58486974,16.09206331],[-61.58590643,16.09207017],[-61.58609839,16.0921573],[-61.5865132,16.0924583],[-61.58658138,16.09246688],[-61.58670609,16.09241438],[-61.58678763,16.09225224],[-61.58695252,16.09140827],[-61.58705404,16.09132941],[-61.58713445,16.09132723],[-61.58739063,16.09145455],[-61.58750687,16.09141013],[-61.58758822,16.09127419],[-61.58772276,16.0907563],[-61.5877709,16.09069064],[-61.58806243,16.09057869],[-61.58810672,16.09052837],[-61.58824731,16.09007921],[-61.58845846,16.08996401],[-61.5886098,16.08997947],[-61.58898996,16.09015641],[-61.58917673,16.09018385],[-61.58932517,16.09007909],[-61.58939363,16.08991686],[-61.58948123,16.08982344],[-61.58962745,16.08976837],[-61.5902392,16.08984742],[-61.59040592,16.08980243],[-61.59074574,16.08920454],[-61.59082025,16.08911194],[-61.59092435,16.08906382],[-61.59114579,16.08907974],[-61.59189463,16.08947241],[-61.5919907,16.08963572],[-61.59220264,16.08980613],[-61.59248501,16.08979895],[-61.59287407,16.08964154],[-61.59320835,16.08943135],[-61.59401495,16.08918901],[-61.59449964,16.08925817],[-61.59510059,16.08954411],[-61.59527626,16.08942235],[-61.59519308,16.08902051],[-61.59532883,16.08885962],[-61.59549469,16.08880377],[-61.59573019,16.08908008],[-61.59590727,16.08915716],[-61.59615273,16.08908104],[-61.59633861,16.08896929],[-61.59654558,16.08891642],[-61.59659562,16.08884535],[-61.5969069,16.08884739],[-61.59730455,16.08906511],[-61.59737845,16.08905746],[-61.59752885,16.08894004],[-61.59767604,16.08887955],[-61.59787789,16.08888991],[-61.59795916,16.08903144],[-61.59795909,16.08917605],[-61.59820427,16.08927255],[-61.59836991,16.08924743],[-61.59862842,16.08904306],[-61.5989673,16.08884283],[-61.59933568,16.08870154],[-61.5996033,16.08866442],[-61.59973835,16.08873581],[-61.59994593,16.08912942],[-61.60016962,16.08975812],[-61.60034303,16.089959],[-61.60056288,16.09006889],[-61.6005736,16.09014036],[-61.60007609,16.09430093],[-61.60022099,16.09430188],[-61.60042345,16.09436014],[-61.60147607,16.09503043],[-61.60164204,16.09509387]]]]},"bbox":[-61.60164204,16.0724237,-61.55871872,16.11092241]},{"type":"Feature","id":"fr-quartier-97107-a71cf1119ff9","properties":{"id":"fr-quartier-97107-a71cf1119ff9","kind":"quartier","name":"Saint-Sauveur-L'Habituée","cityCode":"97107","cityName":"Capesterre-Belle-Eau","sourceType":"iris","sourceIds":["971070102"],"colorIndex":5,"center":[-61.61422375026577,16.028227545]},"geometry":{"type":"MultiPolygon","coordinates":[[[[-61.57463957,16.02157683],[-61.5747069,16.02157004],[-61.57473263,16.02123671],[-61.57489042,16.0213887],[-61.57485401,16.02112093],[-61.57468524,16.02080438],[-61.57479225,16.02060535],[-61.57525055,16.0206816],[-61.57632581,16.02046821],[-61.57690092,16.02028042],[-61.57747832,16.01990194],[-61.5777294,16.01954931],[-61.57823765,16.01956533],[-61.57890461,16.01947214],[-61.58006484,16.01860584],[-61.58090957,16.01768774],[-61.5811916,16.01718528],[-61.58168735,16.01658934],[-61.58163367,16.01625096],[-61.58153803,16.01616537],[-61.58166528,16.01561308],[-61.58234378,16.01507348],[-61.58238234,16.01477367],[-61.58277449,16.01429182],[-61.58273002,16.01410444],[-61.58290267,16.01413631],[-61.58312067,16.01396602],[-61.58324342,16.01405089],[-61.58362065,16.01409314],[-61.58404457,16.01387631],[-61.58402776,16.01374154],[-61.58440205,16.01314026],[-61.58434006,16.01291933],[-61.58446148,16.0127954],[-61.58448951,16.01239882],[-61.58458417,16.01235877],[-61.58461172,16.01229478],[-61.58469099,16.0123179],[-61.58468067,16.01219039],[-61.58481218,16.01222651],[-61.5847068,16.01206403],[-61.58499727,16.01208402],[-61.58522322,16.01224458],[-61.58549041,16.01225448],[-61.58628273,16.01187106],[-61.58689866,16.01172147],[-61.58766887,16.01195791],[-61.5878139,16.01193084],[-61.58865135,16.01124223],[-61.58885971,16.0112454],[-61.58908213,16.01071091],[-61.58907465,16.0105789],[-61.58874157,16.00997207],[-61.58833276,16.00963769],[-61.58829509,16.00928043],[-61.58844204,16.00937811],[-61.58848311,16.0093847],[-61.58845909,16.00947945],[-61.58855914,16.00947016],[-61.58871949,16.00925792],[-61.58876987,16.00900247],[-61.58947612,16.00929723],[-61.58957052,16.00956086],[-61.58967277,16.00963745],[-61.58984478,16.00962774],[-61.59024916,16.0093945],[-61.59116904,16.00867568],[-61.591212,16.00814633],[-61.59131491,16.00799517],[-61.59145447,16.00794818],[-61.59142708,16.00772386],[-61.59158622,16.0074167],[-61.5915391,16.00720581],[-61.59160642,16.00706796],[-61.59184803,16.00712649],[-61.59225127,16.00705502],[-61.59255534,16.00713564],[-61.59258504,16.007031],[-61.59234376,16.00679171],[-61.59236846,16.00646741],[-61.59266675,16.00683812],[-61.59274668,16.00676634],[-61.5927072,16.0065329],[-61.59280313,16.00657871],[-61.59285132,16.00636935],[-61.59327503,16.00644443],[-61.59335012,16.00639611],[-61.59336877,16.00600127],[-61.59399466,16.00576044],[-61.59414301,16.00552551],[-61.59415497,16.00528518],[-61.59435347,16.00509487],[-61.59558144,16.00467631],[-61.59589802,16.00443706],[-61.59594028,16.00427284],[-61.596153,16.00432123],[-61.59659762,16.00421116],[-61.59706302,16.00420426],[-61.59751175,16.00363959],[-61.59776015,16.00352824],[-61.5982324,16.00347619],[-61.59827829,16.00332736],[-61.59795974,16.00264471],[-61.59803345,16.00252589],[-61.59811645,16.00254993],[-61.59807613,16.00270332],[-61.59818589,16.0029101],[-61.59849252,16.00329261],[-61.59895918,16.00323781],[-61.59907819,16.00332354],[-61.59916024,16.00334848],[-61.59918973,16.00340832],[-61.59918298,16.00357277],[-61.59909673,16.00388041],[-61.59916733,16.00420805],[-61.59922578,16.00480585],[-61.59928933,16.00493731],[-61.59921574,16.00517273],[-61.59930067,16.00532151],[-61.59924221,16.00553081],[-61.59913063,16.00571988],[-61.59908711,16.00593109],[-61.59908757,16.00599888],[-61.59920574,16.00620572],[-61.59924543,16.00667867],[-61.59919095,16.00738871],[-61.59932258,16.00754141],[-61.59922626,16.00795382],[-61.59969933,16.00858957],[-61.59984905,16.00869358],[-61.6002535,16.00912101],[-61.60073009,16.00952089],[-61.60096851,16.00990385],[-61.60099784,16.01012005],[-61.60109876,16.01025538],[-61.60111847,16.01037662],[-61.60103772,16.01056679],[-61.60087098,16.01075912],[-61.60085494,16.01104914],[-61.60107042,16.01123763],[-61.60126034,16.01147386],[-61.60158798,16.01152661],[-61.60250003,16.01152441],[-61.60306501,16.01171337],[-61.60350823,16.0119413],[-61.60443236,16.01221936],[-61.60467736,16.01233031],[-61.6054887,16.01283629],[-61.60585806,16.01334121],[-61.60655233,16.0138862],[-61.60713926,16.01454889],[-61.60731025,16.01468738],[-61.60729139,16.01498099],[-61.60711534,16.01543808],[-61.60710103,16.01561423],[-61.60717447,16.01593918],[-61.60724197,16.01604355],[-61.60730838,16.01643805],[-61.60750245,16.01661736],[-61.60758231,16.01709509],[-61.60774098,16.01739257],[-61.60800459,16.01765006],[-61.60873717,16.0181998],[-61.6093989,16.01980384],[-61.60948301,16.02020839],[-61.60960322,16.02039264],[-61.60934037,16.02069824],[-61.60900004,16.02099248],[-61.60887545,16.02103596],[-61.60843922,16.02100782],[-61.60804426,16.02109384],[-61.60776212,16.02121673],[-61.60769625,16.02128138],[-61.60769857,16.02135099],[-61.60791392,16.02156117],[-61.6079739,16.02167182],[-61.6080432,16.02191991],[-61.60801429,16.02218183],[-61.60804798,16.02230949],[-61.6082072,16.02252834],[-61.60890285,16.02301458],[-61.6091675,16.02325852],[-61.60938676,16.02357989],[-61.60949829,16.02366828],[-61.60969629,16.0238196],[-61.61022626,16.024077],[-61.61031267,16.02414987],[-61.61038546,16.02429856],[-61.6105819,16.02440739],[-61.61117444,16.02440038],[-61.61171179,16.02467139],[-61.61259378,16.02483706],[-61.61293678,16.02496853],[-61.61373396,16.02496464],[-61.61406645,16.02485924],[-61.61473593,16.02507867],[-61.61515863,16.02517268],[-61.6155831,16.02514469],[-61.6159577,16.02503142],[-61.61664709,16.02548144],[-61.6167483,16.02544052],[-61.61716544,16.02539169],[-61.61746632,16.02526258],[-61.61839033,16.02502721],[-61.61870419,16.02491264],[-61.61888548,16.02491381],[-61.61904668,16.02484706],[-61.61946919,16.02456056],[-61.6199553,16.02440371],[-61.6207953,16.02442448],[-61.62140662,16.02454048],[-61.6216273,16.02465849],[-61.62187834,16.02470891],[-61.62202457,16.02478125],[-61.62205214,16.02484921],[-61.62215734,16.02490683],[-61.6223802,16.02484409],[-61.6225296,16.02486222],[-61.62235616,16.02507802],[-61.62229638,16.02520959],[-61.62231972,16.02534893],[-61.62237441,16.02541436],[-61.62248919,16.02543859],[-61.62274743,16.02539506],[-61.62290645,16.02550906],[-61.62310819,16.02579957],[-61.62333579,16.02586159],[-61.62354153,16.02597769],[-61.62418794,16.0260198],[-61.62509328,16.0261901],[-61.62546307,16.02636962],[-61.62560395,16.02640396],[-61.62575011,16.02635067],[-61.62586542,16.0261607],[-61.6259808,16.02609817],[-61.62639242,16.02603664],[-61.62868836,16.02101073],[-61.62888896,16.01914201],[-61.62869886,16.01892569],[-61.62845842,16.01855539],[-61.62824221,16.01833167],[-61.62791555,16.01840731],[-61.62764668,16.01836763],[-61.62738662,16.01854312],[-61.62703454,16.01864661],[-61.62689269,16.01875326],[-61.62645059,16.0193117],[-61.62613582,16.01942447],[-61.62607471,16.01947741],[-61.62481526,16.01916566],[-61.62279898,16.01638163],[-61.62440491,16.01153933],[-61.62770167,16.01182524],[-61.62849013,16.01309201],[-61.62937106,16.01409184],[-61.62988224,16.01450182],[-61.63076689,16.01495937],[-61.63109179,16.01527778],[-61.6316463,16.01618514],[-61.63256661,16.01826979],[-61.63302861,16.01904098],[-61.63386441,16.01981454],[-61.63465534,16.02031668],[-61.63675209,16.02118864],[-61.63689073,16.02141547],[-61.63958359,16.02396326],[-61.64004625,16.02464406],[-61.6411951,16.02749838],[-61.64128824,16.02754416],[-61.64278897,16.02674022],[-61.64353781,16.02656419],[-61.64437917,16.02652432],[-61.6452184,16.02680076],[-61.65061884,16.02977223],[-61.65313601,16.03069188],[-61.65375982,16.03132124],[-61.6532932,16.03164007],[-61.65228426,16.0315786],[-61.65182755,16.03167334],[-61.65132229,16.03190064],[-61.6510392,16.03188711],[-61.65071909,16.03182002],[-61.65013052,16.03192749],[-61.64999894,16.03203693],[-61.6497296,16.03192406],[-61.6493086,16.0319901],[-61.64890637,16.03218189],[-61.64856415,16.03248432],[-61.64814956,16.03256848],[-61.64763662,16.03282374],[-61.64725641,16.03279875],[-61.64691713,16.03294212],[-61.64672282,16.03293005],[-61.64655787,16.03285941],[-61.64648681,16.03286439],[-61.64637969,16.03295048],[-61.64632644,16.033224],[-61.64627897,16.03333397],[-61.64620094,16.03340217],[-61.64581464,16.03358682],[-61.64542612,16.03368469],[-61.64525119,16.03384718],[-61.64494393,16.03381541],[-61.64484344,16.03388708],[-61.64480713,16.03400525],[-61.64473372,16.03408161],[-61.64393462,16.03449955],[-61.64381821,16.03471573],[-61.64381337,16.03501577],[-61.64370362,16.03507563],[-61.64359521,16.03507495],[-61.64344525,16.03499988],[-61.64325892,16.03477456],[-61.64312581,16.03469508],[-61.64259229,16.03481463],[-61.64215033,16.03507484],[-61.6418478,16.03544801],[-61.64176527,16.03549087],[-61.64131263,16.035535],[-61.64104592,16.03572402],[-61.6408875,16.0359318],[-61.64070897,16.03607347],[-61.64071957,16.0363013],[-61.64060216,16.03652651],[-61.64022464,16.03679346],[-61.63969616,16.03699437],[-61.63920724,16.03701205],[-61.63898719,16.03707392],[-61.63884533,16.03718329],[-61.63869408,16.03743449],[-61.63845703,16.03765985],[-61.63825171,16.03775435],[-61.63788793,16.03778729],[-61.63750285,16.03792855],[-61.6369459,16.03832992],[-61.63672747,16.03856533],[-61.63664967,16.03859828],[-61.6362804,16.0386131],[-61.63594395,16.03875015],[-61.63554551,16.03879371],[-61.63482947,16.03894913],[-61.63472813,16.03900904],[-61.63464543,16.03907539],[-61.63460584,16.03926223],[-61.63464555,16.03947036],[-61.63473778,16.03965081],[-61.63469871,16.04003469],[-61.63455269,16.04020548],[-61.63444522,16.04047775],[-61.63439731,16.04078745],[-61.63441454,16.04127653],[-61.63436944,16.04158716],[-61.63368067,16.04267729],[-61.63346387,16.04280967],[-61.63257986,16.04429534],[-61.63231618,16.04485944],[-61.63208539,16.04498722],[-61.63189995,16.04517945],[-61.63166345,16.04532165],[-61.63140332,16.04536608],[-61.63129408,16.04535002],[-61.63060093,16.04502474],[-61.63016285,16.04498669],[-61.629821,16.04508935],[-61.62956652,16.04526487],[-61.6294336,16.04529384],[-61.62912263,16.0452557],[-61.62878328,16.04513061],[-61.62867673,16.04513083],[-61.62848722,16.04523446],[-61.62828595,16.04541846],[-61.62798763,16.04544366],[-61.62759606,16.04530106],[-61.62747739,16.04529669],[-61.62724807,16.04534493],[-61.62696192,16.04550398],[-61.62667837,16.04555548],[-61.62639216,16.04544971],[-61.62548802,16.04522881],[-61.62510238,16.04517572],[-61.62431976,16.04522402],[-61.62392077,16.04520971],[-61.62353682,16.04518284],[-61.62326167,16.04510064],[-61.62267181,16.0452514],[-61.62225336,16.04521256],[-61.62183721,16.04511137],[-61.62164504,16.04492304],[-61.62139185,16.04450114],[-61.62131938,16.04430274],[-61.6211183,16.04405109],[-61.62093159,16.04388358],[-61.62061287,16.04374958],[-61.62033288,16.04369174],[-61.62007762,16.04370727],[-61.6198073,16.04387363],[-61.61951468,16.04415736],[-61.61932389,16.04417511],[-61.61926988,16.04414674],[-61.6192296,16.04402447],[-61.61928964,16.04372027],[-61.61925436,16.04355012],[-61.61918449,16.04338247],[-61.61906006,16.04326417],[-61.61854339,16.04323915],[-61.61805605,16.04329656],[-61.61770005,16.04328433],[-61.61723924,16.04301834],[-61.61662489,16.04279204],[-61.61613389,16.04283858],[-61.61592019,16.04279201],[-61.61581242,16.04269822],[-61.6158034,16.04224445],[-61.61561474,16.04168377],[-61.61522353,16.04122121],[-61.6149954,16.04109862],[-61.61432701,16.04098313],[-61.61418287,16.04087917],[-61.614201,16.04069039],[-61.61451076,16.04022512],[-61.61452555,16.04011404],[-61.61446716,16.0399076],[-61.61441153,16.03984397],[-61.61402519,16.03962275],[-61.61387013,16.03947533],[-61.61334461,16.03856993],[-61.61318694,16.03839447],[-61.61302782,16.03829312],[-61.61289804,16.03827421],[-61.61264341,16.03833582],[-61.61256055,16.03842477],[-61.61244078,16.03871502],[-61.61243247,16.03897074],[-61.61226924,16.03905826],[-61.61208641,16.03900737],[-61.61181302,16.03880857],[-61.61173066,16.03855406],[-61.6117255,16.03835519],[-61.61164267,16.03816937],[-61.61148031,16.03745702],[-61.61131627,16.03725712],[-61.61102817,16.03715764],[-61.6109205,16.03718587],[-61.61065187,16.03751311],[-61.61026516,16.03761816],[-61.60979688,16.03762507],[-61.60962487,16.03749651],[-61.60956549,16.03716443],[-61.60956224,16.03682458],[-61.60949242,16.03664969],[-61.60937708,16.03657031],[-61.60852346,16.03635147],[-61.60790053,16.03628687],[-61.60741543,16.03629457],[-61.60688884,16.03635442],[-61.6068386,16.03632155],[-61.6067328,16.03608045],[-61.60671647,16.03587518],[-61.60687343,16.03534476],[-61.60681931,16.03519799],[-61.6067115,16.03511143],[-61.60609389,16.03495557],[-61.60576781,16.03494261],[-61.60537378,16.03515967],[-61.60516523,16.0351782],[-61.60506559,16.03512694],[-61.60492561,16.03496334],[-61.60472326,16.03462942],[-61.60456598,16.0345344],[-61.60431158,16.03442791],[-61.60413388,16.03444573],[-61.60394385,16.03435592],[-61.60360634,16.03437541],[-61.60351516,16.03431698],[-61.603482,16.03424626],[-61.60347108,16.03406995],[-61.6037368,16.03335496],[-61.6037711,16.03299366],[-61.60375395,16.03277121],[-61.60368646,16.03266683],[-61.6034816,16.03269352],[-61.60305769,16.03290677],[-61.60275816,16.03297441],[-61.6026676,16.03309402],[-61.60236714,16.03383138],[-61.60225606,16.03394635],[-61.60214563,16.03396822],[-61.60197907,16.0338632],[-61.6019084,16.0335446],[-61.6016265,16.03322643],[-61.60151733,16.03293378],[-61.60137765,16.0327268],[-61.60117438,16.03199068],[-61.60107341,16.03186168],[-61.60094957,16.0317958],[-61.6005328,16.03179037],[-61.60000964,16.03203008],[-61.59932269,16.03190268],[-61.59899372,16.03190324],[-61.59861277,16.03198571],[-61.59835853,16.03199128],[-61.59820596,16.03189177],[-61.59810822,16.03170223],[-61.59807391,16.03126276],[-61.59802255,16.03112323],[-61.59794827,16.03105406],[-61.59777367,16.03103123],[-61.5976668,16.03094376],[-61.59734588,16.03086303],[-61.59696317,16.0306635],[-61.59625089,16.03041843],[-61.59570063,16.03039042],[-61.59544137,16.03031281],[-61.5952928,16.03030822],[-61.59514477,16.03036238],[-61.5950323,16.03040774],[-61.59496062,16.03050126],[-61.59494475,16.03063221],[-61.59516916,16.03101599],[-61.59517412,16.03124198],[-61.59507027,16.03139223],[-61.59483111,16.03137982],[-61.59464007,16.03130084],[-61.59420003,16.03088221],[-61.59385163,16.03045513],[-61.59376806,16.03037776],[-61.59364589,16.03034171],[-61.59337673,16.03034266],[-61.59329983,16.03038011],[-61.59321183,16.03080161],[-61.59315698,16.03089435],[-61.59298791,16.03101525],[-61.59280104,16.03100951],[-61.5925102,16.03090276],[-61.59219144,16.0306476],[-61.59194818,16.03028719],[-61.59147204,16.02928717],[-61.59129819,16.02915769],[-61.59113966,16.02910874],[-61.59097031,16.02913655],[-61.59085332,16.02929485],[-61.59084815,16.02949818],[-61.59091994,16.02978877],[-61.59047611,16.03057488],[-61.5903469,16.03074304],[-61.59024169,16.03081917],[-61.59009823,16.03088692],[-61.58995329,16.03089862],[-61.58973257,16.03078961],[-61.58902906,16.02956395],[-61.5887653,16.02919617],[-61.58865647,16.02912225],[-61.58842102,16.02911527],[-61.58810952,16.02929037],[-61.58767321,16.02967071],[-61.5873314,16.03016736],[-61.58716719,16.03026208],[-61.58704521,16.03019891],[-61.58699117,16.0300431],[-61.58692236,16.02959527],[-61.58694367,16.0293568],[-61.58689965,16.02910435],[-61.58685922,16.02900738],[-61.58675058,16.02890725],[-61.58661495,16.02892443],[-61.58649447,16.02904655],[-61.58645923,16.02913941],[-61.58637843,16.02973087],[-61.58621889,16.03048992],[-61.58615643,16.03059977],[-61.58603082,16.03065407],[-61.58579653,16.03048171],[-61.58559915,16.03024271],[-61.58506963,16.02939506],[-61.58472613,16.0292039],[-61.58274139,16.02903896],[-61.58236547,16.02880781],[-61.58214623,16.02835718],[-61.58209046,16.02831433],[-61.58198098,16.02833349],[-61.58185983,16.02841855],[-61.5813728,16.02883379],[-61.58110988,16.02887724],[-61.58088004,16.02886939],[-61.58079011,16.02876757],[-61.58070462,16.02856727],[-61.58063857,16.02826044],[-61.58056919,16.02736612],[-61.58054581,16.02723672],[-61.58045604,16.02711321],[-61.58029278,16.02707236],[-61.58013585,16.02719424],[-61.58006489,16.02731669],[-61.57991937,16.02780739],[-61.57975296,16.02794819],[-61.57972257,16.02801758],[-61.57972325,16.02818569],[-61.57969681,16.02822348],[-61.57956031,16.02823161],[-61.57948244,16.02814252],[-61.57945479,16.02795616],[-61.5790789,16.02785335],[-61.57886672,16.02759436],[-61.57891881,16.02736514],[-61.57923455,16.02698854],[-61.5793556,16.02678689],[-61.5793842,16.02657468],[-61.57933486,16.02641529],[-61.57918686,16.02633296],[-61.57892736,16.02629057],[-61.5785343,16.02636931],[-61.5777918,16.02643669],[-61.577614,16.02633881],[-61.57718584,16.02596451],[-61.57665851,16.02560491],[-61.57656855,16.02550761],[-61.57650489,16.0253915],[-61.57654026,16.02514861],[-61.57667647,16.02504829],[-61.57686557,16.02500345],[-61.57698589,16.02490393],[-61.57715839,16.02456343],[-61.57711143,16.02393679],[-61.57680404,16.02353165],[-61.57637614,16.02325406],[-61.5759961,16.02307801],[-61.57571699,16.02290353],[-61.57540546,16.02281922],[-61.57511739,16.02258955],[-61.5748756,16.02229149],[-61.57463957,16.02157683]]]]},"bbox":[-61.65375982,16.00252589,-61.57463957,16.04555548]},{"type":"Feature","id":"fr-quartier-97107-7994ff499f07","properties":{"id":"fr-quartier-97107-7994ff499f07","kind":"quartier","name":"Sarlassone-Petit Pérou","cityCode":"97107","cityName":"Capesterre-Belle-Eau","sourceType":"iris","sourceIds":["971070107"],"colorIndex":6,"center":[-61.56759683989988,16.054634125]},"geometry":{"type":"MultiPolygon","coordinates":[[[[-61.55623675,16.0530685],[-61.55646055,16.05275097],[-61.55659379,16.05267866],[-61.55623016,16.05229752],[-61.5565892,16.05150099],[-61.55650127,16.05125095],[-61.55673126,16.05072287],[-61.55725253,16.05023924],[-61.55760354,16.05003644],[-61.55778231,16.05000149],[-61.55807335,16.05007937],[-61.55912869,16.04954148],[-61.55935398,16.04914443],[-61.55960658,16.04910997],[-61.55981136,16.04896674],[-61.55980073,16.04888533],[-61.55998151,16.04869946],[-61.56046617,16.04771668],[-61.56143462,16.04782169],[-61.56122766,16.04918051],[-61.56107948,16.0497715],[-61.56272196,16.05011693],[-61.56236926,16.05120635],[-61.56244993,16.05129546],[-61.56261364,16.05127487],[-61.56554789,16.0520013],[-61.56573549,16.05086378],[-61.56606605,16.04959887],[-61.56749869,16.04504518],[-61.56991822,16.04572654],[-61.57067734,16.04268219],[-61.57076145,16.04268275],[-61.57119308,16.04270461],[-61.57226602,16.04335888],[-61.57293933,16.04356581],[-61.57326047,16.04374871],[-61.57343005,16.04369019],[-61.57358699,16.04370117],[-61.57394607,16.04393674],[-61.57416058,16.04439459],[-61.57469452,16.04461866],[-61.57498171,16.04484381],[-61.5751696,16.04484054],[-61.57610287,16.04463526],[-61.57639034,16.04468959],[-61.57658017,16.04480653],[-61.57683645,16.04504232],[-61.57726493,16.04550881],[-61.57756591,16.04563644],[-61.5780112,16.0459738],[-61.57815362,16.04618623],[-61.57842479,16.04616815],[-61.5786342,16.04629246],[-61.57828544,16.04683965],[-61.57669331,16.0511158],[-61.57614392,16.05279955],[-61.57571701,16.05434492],[-61.57576067,16.05451422],[-61.57589837,16.0546028],[-61.57626937,16.05474355],[-61.57610717,16.05520883],[-61.57611459,16.05534716],[-61.57600936,16.0556881],[-61.57586955,16.05589594],[-61.5755682,16.05621298],[-61.57501985,16.05630242],[-61.57475438,16.05643623],[-61.5745648,16.05667718],[-61.57437978,16.05745864],[-61.57552985,16.05766242],[-61.5767693,16.05791559],[-61.57691098,16.05797076],[-61.57714464,16.05823531],[-61.57716641,16.05832765],[-61.57715118,16.05941933],[-61.57674076,16.05943197],[-61.57647964,16.05947994],[-61.57568818,16.05971238],[-61.57485462,16.06008191],[-61.57403998,16.06054917],[-61.57382536,16.06063089],[-61.57354581,16.06064169],[-61.57330956,16.06060938],[-61.57257122,16.0602077],[-61.5724037,16.06010626],[-61.57214965,16.05981806],[-61.57192349,16.05968189],[-61.57137991,16.05962494],[-61.57122175,16.05965371],[-61.57093734,16.05982172],[-61.57075278,16.05988195],[-61.57005872,16.05995504],[-61.56974672,16.05992856],[-61.5692886,16.05981523],[-61.56849228,16.05955052],[-61.568403,16.05948756],[-61.56807615,16.05892412],[-61.56781037,16.0585789],[-61.56770896,16.05851225],[-61.56731545,16.05838399],[-61.56666532,16.05780482],[-61.56645348,16.05749702],[-61.56615921,16.05695458],[-61.56597639,16.05677169],[-61.56550381,16.05658958],[-61.56517511,16.05654851],[-61.56501693,16.05644894],[-61.56485557,16.05640086],[-61.56448121,16.0563396],[-61.56394054,16.05613986],[-61.5636342,16.05597693],[-61.56350208,16.05589379],[-61.5632324,16.05557114],[-61.56293252,16.05503047],[-61.56281658,16.05490587],[-61.56249085,16.05471027],[-61.56236233,16.05464614],[-61.56164169,16.05477868],[-61.56140096,16.05511237],[-61.56124605,16.05520894],[-61.56094659,16.05525935],[-61.56070668,16.05521797],[-61.56010701,16.05503589],[-61.55942777,16.05474031],[-61.55918841,16.05462211],[-61.55901127,16.05443112],[-61.55836565,16.05401013],[-61.55804226,16.05387961],[-61.55748814,16.05373218],[-61.55680693,16.05345193],[-61.55623675,16.0530685]]]]},"bbox":[-61.5786342,16.04268219,-61.55623016,16.06064169]}]}