{"type":"FeatureCollection","metadata":{"sourceType":"iris","source":"IGN / INSEE — Contours IRIS 2026","sourceUrl":"https://data.geopf.fr/wfs/ows?service=WFS&version=2.0.0&request=GetFeature&typeNames=STATISTICALUNITS.IRIS%3Acontours_iris&outputFormat=application%2Fjson&srsName=CRS%3A84&count=1000&CQL_FILTER=code_insee%3D%2797116%27&sortBy=code_iris","retrievedDate":"2026-09-10","sourceYear":"2026","license":"Licence Ouverte 2.0"},"features":[{"type":"Feature","id":"fr-quartier-97116-f1ea4d72be37","properties":{"id":"fr-quartier-97116-f1ea4d72be37","kind":"quartier","name":"Bosredon Lebraire Gensolin","cityCode":"97116","cityName":"Morne-à-l'Eau","sourceType":"iris","sourceIds":["971160103"],"colorIndex":0,"center":[-61.47338570358272,16.312709275]},"geometry":{"type":"MultiPolygon","coordinates":[[[[-61.46112457,16.29922386],[-61.46178704,16.30019027],[-61.46302741,16.29977092],[-61.46326134,16.29977262],[-61.46353959,16.30009095],[-61.46378382,16.3009323],[-61.4645766,16.30066965],[-61.46523979,16.30034551],[-61.46550215,16.30042152],[-61.46549863,16.30087337],[-61.46574683,16.30228771],[-61.4659869,16.30222258],[-61.46607335,16.30193672],[-61.46629926,16.30176665],[-61.46667328,16.30156422],[-61.46713124,16.30151783],[-61.46779363,16.30057371],[-61.46854783,16.29985618],[-61.47186826,16.30006097],[-61.47261509,16.3002923],[-61.47405602,16.30152277],[-61.47461222,16.30220459],[-61.47498617,16.30225248],[-61.47573686,16.30198677],[-61.47597359,16.30162698],[-61.47635801,16.30031932],[-61.47663873,16.30032135],[-61.47682483,16.30045825],[-61.4779774,16.30268073],[-61.47772274,16.30281717],[-61.47707317,16.30283418],[-61.47684431,16.30290212],[-61.47656303,16.30357699],[-61.47614326,16.30388756],[-61.47741134,16.30533185],[-61.47922156,16.30479903],[-61.48082681,16.30414813],[-61.48248306,16.30367834],[-61.48370256,16.30292885],[-61.48354086,16.30217396],[-61.48358769,16.30204687],[-61.48668122,16.30122043],[-61.48712643,16.30210387],[-61.48761159,16.30278063],[-61.48862838,16.30210468],[-61.48914518,16.30195112],[-61.48929976,16.30204983],[-61.48999339,16.30336703],[-61.49030501,16.30373437],[-61.49066146,16.30398997],[-61.4911396,16.303997],[-61.49110046,16.30556473],[-61.49114116,16.30574938],[-61.49132548,16.30599832],[-61.49127363,16.30617057],[-61.49058136,16.30711637],[-61.48611353,16.31201705],[-61.48567635,16.31276493],[-61.48561498,16.31295699],[-61.48590364,16.31411947],[-61.48602485,16.31442219],[-61.48706902,16.31615854],[-61.48738172,16.31675183],[-61.48764612,16.31815092],[-61.48781231,16.31856784],[-61.48793273,16.31873047],[-61.48817163,16.31894095],[-61.48900568,16.31928311],[-61.48914583,16.31943504],[-61.48919782,16.31973275],[-61.48911548,16.32046238],[-61.48885082,16.3227533],[-61.4888491,16.32346453],[-61.48875842,16.32442638],[-61.48873186,16.32459428],[-61.48862695,16.3248502],[-61.48827477,16.32525165],[-61.48669681,16.32683635],[-61.48660775,16.3268556],[-61.48593593,16.3264694],[-61.48383616,16.32556594],[-61.48196435,16.32532293],[-61.4808047,16.32545286],[-61.47787363,16.32542903],[-61.47765332,16.32547715],[-61.47715132,16.32576453],[-61.47692817,16.32581714],[-61.47611068,16.32575431],[-61.47567357,16.32576019],[-61.47494863,16.32583086],[-61.47441792,16.32595807],[-61.47418774,16.32595189],[-61.47246746,16.32560054],[-61.47129604,16.32555862],[-61.4701109,16.32487313],[-61.46971396,16.32476903],[-61.46936503,16.32474843],[-61.46679457,16.32649206],[-61.46592854,16.32641256],[-61.46531451,16.32630236],[-61.46460299,16.32609294],[-61.46405222,16.32579251],[-61.46348144,16.32505723],[-61.46302976,16.32537205],[-61.46292317,16.32535862],[-61.4627547,16.3255996],[-61.46258167,16.32630416],[-61.46245489,16.32635927],[-61.46212515,16.32639753],[-61.46157062,16.32657785],[-61.46138359,16.32619963],[-61.46078543,16.32537829],[-61.46066648,16.32515058],[-61.46065719,16.32502128],[-61.46075292,16.32462885],[-61.4608476,16.32389029],[-61.4608148,16.32281912],[-61.46065968,16.32278907],[-61.45987681,16.32284843],[-61.4593813,16.32278426],[-61.45975606,16.32141693],[-61.45989469,16.32104199],[-61.45998476,16.32089443],[-61.46021945,16.32068196],[-61.46053985,16.32052072],[-61.46083019,16.3206123],[-61.46109591,16.32062057],[-61.4612319,16.3205836],[-61.46163548,16.32019703],[-61.46164779,16.32005885],[-61.46211471,16.31982909],[-61.46245065,16.31959385],[-61.46352687,16.31815932],[-61.46372453,16.31765467],[-61.46379716,16.3172223],[-61.46378516,16.31696104],[-61.46357759,16.31621665],[-61.46347857,16.31523447],[-61.46334444,16.31503377],[-61.46297736,16.31470304],[-61.4629006,16.314585],[-61.46275299,16.31371362],[-61.4625635,16.31317181],[-61.46242175,16.31298912],[-61.46224004,16.31288839],[-61.46166663,16.31285619],[-61.46134544,16.31288097],[-61.46120061,16.3128528],[-61.46111682,16.31279706],[-61.4610281,16.31265362],[-61.46093364,16.31216672],[-61.46081407,16.31189925],[-61.46067866,16.31174282],[-61.46034295,16.31147106],[-61.46035063,16.31132652],[-61.46058252,16.31099292],[-61.46060509,16.31085933],[-61.46056546,16.31066112],[-61.46047843,16.31054029],[-61.46005883,16.31034655],[-61.45994315,16.31018032],[-61.45991682,16.3100762],[-61.45990251,16.30975255],[-61.45997679,16.30922893],[-61.46005467,16.30896289],[-61.46028043,16.30857503],[-61.46035031,16.30825471],[-61.46030834,16.30787754],[-61.46004858,16.30734787],[-61.46001366,16.30702588],[-61.460122,16.3066941],[-61.46034442,16.30637399],[-61.46036099,16.30616986],[-61.46013503,16.30562597],[-61.45946357,16.30437211],[-61.45924885,16.30358791],[-61.45923038,16.30319736],[-61.45931958,16.30280036],[-61.45941647,16.30261671],[-61.45985246,16.30214813],[-61.46007848,16.30184612],[-61.46063045,16.30042585],[-61.46110288,16.29936559],[-61.46112457,16.29922386]]]]},"bbox":[-61.49132548,16.29922386,-61.45923038,16.3268556]},{"type":"Feature","id":"fr-quartier-97116-ba07acf57884","properties":{"id":"fr-quartier-97116-ba07acf57884","kind":"quartier","name":"Bourg Bonne Terre","cityCode":"97116","cityName":"Morne-à-l'Eau","sourceType":"iris","sourceIds":["971160106"],"colorIndex":1,"center":[-61.45453152537692,16.329025665]},"geometry":{"type":"MultiPolygon","coordinates":[[[[-61.45591952,16.35662189],[-61.45591524,16.35668963],[-61.44864642,16.35745772],[-61.44849178,16.35748189],[-61.44847473,16.35762636],[-61.44653753,16.35781],[-61.44568882,16.34961234],[-61.44088434,16.3503152],[-61.44064932,16.34961849],[-61.44007299,16.34593244],[-61.43736236,16.33839787],[-61.43827002,16.33901461],[-61.43683502,16.33562313],[-61.43680147,16.33560571],[-61.43678087,16.33548898],[-61.436086,16.33400985],[-61.43597485,16.33339268],[-61.43541129,16.32905603],[-61.43641887,16.32945843],[-61.43663658,16.32950342],[-61.43691547,16.32950459],[-61.43739815,16.32941779],[-61.43772942,16.32930457],[-61.43825996,16.32908437],[-61.43868016,16.3288516],[-61.43908425,16.32876151],[-61.43981114,16.32879942],[-61.44042856,16.32907149],[-61.44195098,16.32993676],[-61.44261762,16.33025709],[-61.44284544,16.33032474],[-61.44311123,16.3303258],[-61.44334158,16.33031213],[-61.4436455,16.33022581],[-61.44644951,16.32880231],[-61.446591,16.32878076],[-61.44696483,16.32884768],[-61.44730165,16.32909868],[-61.44752434,16.32934343],[-61.44748555,16.32832825],[-61.4481014,16.32844484],[-61.44885701,16.32852089],[-61.44933499,16.32867352],[-61.44948413,16.32863214],[-61.44977143,16.32863425],[-61.45229648,16.3289953],[-61.4523326,16.32880578],[-61.45278971,16.3275665],[-61.45311981,16.32724448],[-61.45389073,16.32668259],[-61.45433884,16.32646807],[-61.45475117,16.3264006],[-61.45545114,16.32641114],[-61.45561066,16.32635718],[-61.45571234,16.32628021],[-61.45662357,16.32477221],[-61.45690991,16.32382267],[-61.45696563,16.32340104],[-61.45692094,16.32325159],[-61.45760794,16.32312467],[-61.4577782,16.32313405],[-61.45794619,16.3234326],[-61.45809946,16.32381781],[-61.45892536,16.32328341],[-61.45927692,16.32296696],[-61.4593813,16.32278426],[-61.45987681,16.32284843],[-61.46065968,16.32278907],[-61.4608148,16.32281912],[-61.4608476,16.32389029],[-61.46075292,16.32462885],[-61.46065719,16.32502128],[-61.46066648,16.32515058],[-61.46078543,16.32537829],[-61.46138359,16.32619963],[-61.46157062,16.32657785],[-61.46212515,16.32639753],[-61.46245489,16.32635927],[-61.46258167,16.32630416],[-61.4627547,16.3255996],[-61.46292317,16.32535862],[-61.46302976,16.32537205],[-61.46348144,16.32505723],[-61.46405222,16.32579251],[-61.46460299,16.32609294],[-61.46531451,16.32630236],[-61.46592854,16.32641256],[-61.46679457,16.32649206],[-61.46654048,16.32667186],[-61.46633768,16.32687373],[-61.46590046,16.32749323],[-61.46547015,16.3278272],[-61.46518784,16.32790467],[-61.46328686,16.32816286],[-61.46286022,16.32826549],[-61.46077865,16.32947398],[-61.4604248,16.32972354],[-61.46031415,16.32975074],[-61.45990455,16.33030536],[-61.45958114,16.33061117],[-61.45927017,16.33076073],[-61.45824458,16.33109666],[-61.45745247,16.33591049],[-61.45751257,16.3362435],[-61.45783539,16.33696975],[-61.45766803,16.33718633],[-61.45719233,16.33840832],[-61.45704501,16.33869553],[-61.45625356,16.33983929],[-61.45596342,16.34055382],[-61.45517578,16.3427604],[-61.45496117,16.34338963],[-61.45471169,16.34440721],[-61.45449515,16.34551993],[-61.45420959,16.34755304],[-61.45420437,16.34809795],[-61.45435446,16.34865124],[-61.45609,16.35184329],[-61.45629082,16.35225506],[-61.45634526,16.35247416],[-61.45631306,16.3528788],[-61.45592809,16.35410324],[-61.45584828,16.35449217],[-61.45596358,16.35554134],[-61.45591952,16.35662189]]]]},"bbox":[-61.46679457,16.32278426,-61.43541129,16.35781]},{"type":"Feature","id":"fr-quartier-97116-dbf2c4034720","properties":{"id":"fr-quartier-97116-dbf2c4034720","kind":"quartier","name":"Bourg Marieulle","cityCode":"97116","cityName":"Morne-à-l'Eau","sourceType":"iris","sourceIds":["971160107"],"colorIndex":2,"center":[-61.47278621132015,16.336017495]},"geometry":{"type":"MultiPolygon","coordinates":[[[[-61.46465944,16.35589589],[-61.46290859,16.35678958],[-61.46145409,16.35737271],[-61.46085136,16.35664532],[-61.46057127,16.3565529],[-61.45817941,16.35634834],[-61.45591952,16.35662189],[-61.45596358,16.35554134],[-61.45584828,16.35449217],[-61.45592809,16.35410324],[-61.45631306,16.3528788],[-61.45634526,16.35247416],[-61.45629082,16.35225506],[-61.45609,16.35184329],[-61.45435446,16.34865124],[-61.45420437,16.34809795],[-61.45420959,16.34755304],[-61.45449515,16.34551993],[-61.45471169,16.34440721],[-61.45496117,16.34338963],[-61.45517578,16.3427604],[-61.45596342,16.34055382],[-61.45625356,16.33983929],[-61.45704501,16.33869553],[-61.45719233,16.33840832],[-61.45766803,16.33718633],[-61.45783539,16.33696975],[-61.45751257,16.3362435],[-61.45745247,16.33591049],[-61.45824458,16.33109666],[-61.45927017,16.33076073],[-61.45958114,16.33061117],[-61.45990455,16.33030536],[-61.46031415,16.32975074],[-61.4604248,16.32972354],[-61.46077865,16.32947398],[-61.46286022,16.32826549],[-61.46328686,16.32816286],[-61.46518784,16.32790467],[-61.46547015,16.3278272],[-61.46590046,16.32749323],[-61.46633768,16.32687373],[-61.46654048,16.32667186],[-61.46679457,16.32649206],[-61.46936503,16.32474843],[-61.46971396,16.32476903],[-61.4701109,16.32487313],[-61.47129604,16.32555862],[-61.47246746,16.32560054],[-61.47418774,16.32595189],[-61.47441792,16.32595807],[-61.47494863,16.32583086],[-61.47567357,16.32576019],[-61.47611068,16.32575431],[-61.47692817,16.32581714],[-61.47715132,16.32576453],[-61.47765332,16.32547715],[-61.47787363,16.32542903],[-61.4808047,16.32545286],[-61.48196435,16.32532293],[-61.48383616,16.32556594],[-61.48593593,16.3264694],[-61.48500255,16.32820783],[-61.48493359,16.32841158],[-61.48501061,16.32849799],[-61.48527914,16.32863006],[-61.48533427,16.32876331],[-61.48530973,16.32927555],[-61.48515754,16.33044391],[-61.48517131,16.33120767],[-61.48531142,16.33185214],[-61.48526629,16.33260735],[-61.4851849,16.33308937],[-61.48522572,16.33349996],[-61.4852335,16.33443449],[-61.48534021,16.33455455],[-61.48603411,16.33487223],[-61.48625665,16.33490094],[-61.48683361,16.33484724],[-61.48701496,16.33487655],[-61.4871818,16.33496632],[-61.48800213,16.33564007],[-61.48814487,16.33618695],[-61.48815493,16.33646086],[-61.488122,16.33660522],[-61.48801624,16.33660537],[-61.48753499,16.3361401],[-61.48737599,16.3361245],[-61.4871572,16.33621783],[-61.48692623,16.33643397],[-61.48672373,16.33732813],[-61.48647377,16.33770049],[-61.48649994,16.33879963],[-61.48639898,16.33902665],[-61.48630172,16.33962333],[-61.48664599,16.34000989],[-61.48532812,16.34766418],[-61.48406842,16.34739937],[-61.48373573,16.34720899],[-61.48334835,16.34682935],[-61.48284831,16.34649317],[-61.48112737,16.34547582],[-61.4790641,16.34418757],[-61.47795234,16.34367797],[-61.47551883,16.34282533],[-61.4692779,16.34039424],[-61.46571338,16.33875878],[-61.46298169,16.33763271],[-61.46345962,16.34438168],[-61.46465944,16.35589589]]]]},"bbox":[-61.48815493,16.32474843,-61.45420437,16.35737271]},{"type":"Feature","id":"fr-quartier-97116-17633048232c","properties":{"id":"fr-quartier-97116-17633048232c","kind":"quartier","name":"Chazeau Saint-Cyr","cityCode":"97116","cityName":"Morne-à-l'Eau","sourceType":"iris","sourceIds":["971160104"],"colorIndex":3,"center":[-61.44876345124885,16.31044342]},"geometry":{"type":"MultiPolygon","coordinates":[[[[-61.42976647,16.30986233],[-61.42967912,16.30896428],[-61.43065344,16.30659562],[-61.4320215,16.30589997],[-61.43189421,16.30531431],[-61.43192211,16.30451291],[-61.43215892,16.30415318],[-61.43352399,16.30312401],[-61.4327351,16.30230481],[-61.43273581,16.30221444],[-61.43390906,16.30177128],[-61.43345161,16.30045748],[-61.43345341,16.30023156],[-61.43425199,16.2998308],[-61.43439199,16.29987702],[-61.43448377,16.30010363],[-61.43476556,16.29997016],[-61.43486415,16.29933828],[-61.43597904,16.29905282],[-61.43590844,16.29875136],[-61.43550957,16.29795584],[-61.43544638,16.29672178],[-61.43615333,16.29642697],[-61.43816634,16.29592853],[-61.43780316,16.29452507],[-61.43841315,16.29430364],[-61.43864385,16.29471202],[-61.44023617,16.29427824],[-61.44000112,16.29359057],[-61.4393999,16.2927059],[-61.4389734,16.29232589],[-61.4385532,16.29221525],[-61.43937566,16.29186706],[-61.44065365,16.29153849],[-61.44099703,16.29130605],[-61.44153023,16.29180071],[-61.44180304,16.29161746],[-61.4420866,16.29125805],[-61.44209588,16.29008327],[-61.44196945,16.28832006],[-61.44146063,16.28817442],[-61.44160091,16.28759255],[-61.4422347,16.28755293],[-61.44327277,16.28715028],[-61.4431225,16.2868654],[-61.44290721,16.28557058],[-61.44522596,16.28472909],[-61.44632323,16.2845302],[-61.44640257,16.28514893],[-61.44619887,16.28594543],[-61.44650682,16.28640679],[-61.44732642,16.28594197],[-61.44778439,16.28707861],[-61.44817544,16.28708781],[-61.44898062,16.28750492],[-61.44937665,16.28759548],[-61.44962768,16.28756208],[-61.4501234,16.28735062],[-61.45037993,16.28733172],[-61.45141283,16.28782549],[-61.45220069,16.28794604],[-61.45257436,16.28826327],[-61.45285579,16.28888801],[-61.4533569,16.28942036],[-61.45359721,16.28956129],[-61.45390002,16.28960779],[-61.45453287,16.28944974],[-61.45503465,16.28977966],[-61.45590479,16.28990983],[-61.45618504,16.2902083],[-61.45655929,16.29093131],[-61.45712892,16.29131956],[-61.4572296,16.29172607],[-61.45716559,16.29237268],[-61.45724122,16.292873],[-61.45666549,16.29362161],[-61.45666665,16.29395148],[-61.45758807,16.29506619],[-61.45835477,16.29514408],[-61.45876819,16.29528808],[-61.45979736,16.29590651],[-61.46024711,16.29631105],[-61.46062935,16.29649277],[-61.46050395,16.29769203],[-61.46112457,16.29922386],[-61.46110288,16.29936559],[-61.46063045,16.30042585],[-61.46007848,16.30184612],[-61.45985246,16.30214813],[-61.45941647,16.30261671],[-61.45931958,16.30280036],[-61.45923038,16.30319736],[-61.45924885,16.30358791],[-61.45946357,16.30437211],[-61.46013503,16.30562597],[-61.46036099,16.30616986],[-61.46034442,16.30637399],[-61.460122,16.3066941],[-61.46001366,16.30702588],[-61.46004858,16.30734787],[-61.46030834,16.30787754],[-61.46035031,16.30825471],[-61.46028043,16.30857503],[-61.46005467,16.30896289],[-61.45997679,16.30922893],[-61.45990251,16.30975255],[-61.45991682,16.3100762],[-61.45994315,16.31018032],[-61.46005883,16.31034655],[-61.46047843,16.31054029],[-61.46056546,16.31066112],[-61.46060509,16.31085933],[-61.46058252,16.31099292],[-61.46035063,16.31132652],[-61.46034295,16.31147106],[-61.46067866,16.31174282],[-61.46081407,16.31189925],[-61.46093364,16.31216672],[-61.4610281,16.31265362],[-61.46111682,16.31279706],[-61.46120061,16.3128528],[-61.46134544,16.31288097],[-61.46166663,16.31285619],[-61.46224004,16.31288839],[-61.46242175,16.31298912],[-61.4625635,16.31317181],[-61.46275299,16.31371362],[-61.4629006,16.314585],[-61.46297736,16.31470304],[-61.46334444,16.31503377],[-61.46347857,16.31523447],[-61.46357759,16.31621665],[-61.46378516,16.31696104],[-61.46379716,16.3172223],[-61.46372453,16.31765467],[-61.46352687,16.31815932],[-61.46245065,16.31959385],[-61.46211471,16.31982909],[-61.46164779,16.32005885],[-61.46163548,16.32019703],[-61.4612319,16.3205836],[-61.46109591,16.32062057],[-61.46083019,16.3206123],[-61.46053985,16.32052072],[-61.46021945,16.32068196],[-61.45998476,16.32089443],[-61.45989469,16.32104199],[-61.45975606,16.32141693],[-61.4593813,16.32278426],[-61.45927692,16.32296696],[-61.45892536,16.32328341],[-61.45809946,16.32381781],[-61.45794619,16.3234326],[-61.4577782,16.32313405],[-61.45760794,16.32312467],[-61.45692094,16.32325159],[-61.45696563,16.32340104],[-61.45690991,16.32382267],[-61.45662357,16.32477221],[-61.45571234,16.32628021],[-61.45561066,16.32635718],[-61.45545114,16.32641114],[-61.45475117,16.3264006],[-61.45433884,16.32646807],[-61.45389073,16.32668259],[-61.45311981,16.32724448],[-61.45278971,16.3275665],[-61.4523326,16.32880578],[-61.45229648,16.3289953],[-61.44977143,16.32863425],[-61.44943265,16.32851337],[-61.44928489,16.32826195],[-61.44900595,16.32802945],[-61.44756539,16.32663163],[-61.44669663,16.32595105],[-61.4459354,16.3255216],[-61.44590184,16.32514901],[-61.44592639,16.3248853],[-61.44623452,16.32402722],[-61.44672738,16.32324189],[-61.44686512,16.32286424],[-61.44689235,16.32261591],[-61.44681248,16.32206314],[-61.44685587,16.32154563],[-61.44693592,16.32124527],[-61.4471544,16.32071729],[-61.44719724,16.32050704],[-61.44712311,16.31982056],[-61.44714214,16.31883111],[-61.44701556,16.31791199],[-61.44688706,16.31771132],[-61.44670786,16.31753106],[-61.44642004,16.31735904],[-61.44565589,16.31706603],[-61.44496727,16.31668952],[-61.44404054,16.31612781],[-61.44387882,16.31598654],[-61.44380044,16.31583865],[-61.44377288,16.3155366],[-61.44386048,16.31439945],[-61.44394146,16.3141],[-61.44407553,16.31395007],[-61.4447413,16.31366397],[-61.44492786,16.31350358],[-61.44507102,16.31326966],[-61.44509735,16.3131352],[-61.44508828,16.3128613],[-61.44502234,16.31267917],[-61.44494599,16.3126298],[-61.44414855,16.31252542],[-61.4437367,16.31241755],[-61.44361978,16.31229198],[-61.44355723,16.31215505],[-61.44350545,16.31160159],[-61.44234591,16.31149001],[-61.44084881,16.31169857],[-61.44046498,16.31171743],[-61.43975509,16.31154771],[-61.43861152,16.31119313],[-61.43796077,16.31112053],[-61.43781533,16.31116916],[-61.43776783,16.31125828],[-61.43768155,16.31175379],[-61.4372075,16.31028624],[-61.43767969,16.30998247],[-61.43731394,16.30949175],[-61.43690518,16.30911367],[-61.43644308,16.30979709],[-61.42976647,16.30986233]]]]},"bbox":[-61.46379716,16.2845302,-61.42967912,16.3289953]},{"type":"Feature","id":"fr-quartier-97116-b8323030ea91","properties":{"id":"fr-quartier-97116-b8323030ea91","kind":"quartier","name":"Lasserre Jabrun Blanchet","cityCode":"97116","cityName":"Morne-à-l'Eau","sourceType":"iris","sourceIds":["971160105"],"colorIndex":4,"center":[-61.42576035153064,16.321395449999997]},"geometry":{"type":"MultiPolygon","coordinates":[[[[-61.43736236,16.33839787],[-61.43718544,16.33828359],[-61.43666584,16.33842072],[-61.43413974,16.33935722],[-61.43108996,16.34023376],[-61.43174575,16.34261995],[-61.42972736,16.3427929],[-61.42941875,16.34264239],[-61.42918421,16.34165739],[-61.42861207,16.34169109],[-61.42778691,16.34070982],[-61.42702334,16.34033721],[-61.42662679,16.33889733],[-61.42468483,16.33934735],[-61.42203903,16.33093379],[-61.42160891,16.33076791],[-61.41999641,16.33040971],[-61.41960942,16.32918498],[-61.41653395,16.32919807],[-61.41619776,16.32910698],[-61.41589907,16.32912462],[-61.41572217,16.32901033],[-61.41493358,16.33001025],[-61.41459342,16.3301794],[-61.41368882,16.33035876],[-61.41339286,16.33050204],[-61.41120033,16.33058223],[-61.41091944,16.33071297],[-61.41071005,16.33102859],[-61.41031265,16.33121628],[-61.40741839,16.33207919],[-61.4072977,16.33207467],[-61.4066998,16.33101642],[-61.40620318,16.32981886],[-61.40611681,16.32938984],[-61.40531894,16.32944979],[-61.40406798,16.32998617],[-61.40366003,16.32997314],[-61.40407865,16.32878612],[-61.40423865,16.3280987],[-61.40467865,16.32715854],[-61.40460543,16.32695465],[-61.4043548,16.32670152],[-61.40378604,16.32643876],[-61.40578767,16.32588817],[-61.40545956,16.32514825],[-61.40530191,16.32450723],[-61.40415064,16.3192163],[-61.40373027,16.31912275],[-61.40349925,16.31875952],[-61.40190952,16.31861193],[-61.40126587,16.31639657],[-61.40119037,16.31486059],[-61.40110798,16.31175299],[-61.40104237,16.31165037],[-61.40071214,16.31163702],[-61.40065004,16.30995022],[-61.40045751,16.3092276],[-61.40043951,16.3091398],[-61.40061145,16.30917092],[-61.40095091,16.30908403],[-61.40501203,16.3078423],[-61.41156023,16.30558083],[-61.41437396,16.30478861],[-61.41723591,16.30381598],[-61.41853077,16.30373078],[-61.41882474,16.30348085],[-61.4216443,16.30253856],[-61.42183144,16.30253996],[-61.42210456,16.30349091],[-61.42210347,16.30362646],[-61.42186846,16.30376026],[-61.42205162,16.30425868],[-61.4226602,16.30421803],[-61.42335838,16.30467511],[-61.42349332,16.30535391],[-61.42377404,16.305356],[-61.42466515,16.30509153],[-61.42457375,16.30481973],[-61.42420235,16.30445547],[-61.42420343,16.30431992],[-61.42526601,16.30402781],[-61.42545136,16.30413673],[-61.42558348,16.30411422],[-61.42602593,16.30460463],[-61.42597734,16.3048302],[-61.42569482,16.30505402],[-61.42544752,16.30672407],[-61.42591178,16.3071794],[-61.42600139,16.30767711],[-61.42665172,16.30826938],[-61.42678486,16.3091741],[-61.42794518,16.31035758],[-61.42822879,16.3099982],[-61.42894713,16.31039486],[-61.42945004,16.30987896],[-61.42976647,16.30986233],[-61.43644308,16.30979709],[-61.43690518,16.30911367],[-61.43731394,16.30949175],[-61.43767969,16.30998247],[-61.4372075,16.31028624],[-61.43768155,16.31175379],[-61.43776783,16.31125828],[-61.43781533,16.31116916],[-61.43796077,16.31112053],[-61.43861152,16.31119313],[-61.43975509,16.31154771],[-61.44046498,16.31171743],[-61.44084881,16.31169857],[-61.44234591,16.31149001],[-61.44350545,16.31160159],[-61.44355723,16.31215505],[-61.44361978,16.31229198],[-61.4437367,16.31241755],[-61.44414855,16.31252542],[-61.44494599,16.3126298],[-61.44502234,16.31267917],[-61.44508828,16.3128613],[-61.44509735,16.3131352],[-61.44507102,16.31326966],[-61.44492786,16.31350358],[-61.4447413,16.31366397],[-61.44407553,16.31395007],[-61.44394146,16.3141],[-61.44386048,16.31439945],[-61.44377288,16.3155366],[-61.44380044,16.31583865],[-61.44387882,16.31598654],[-61.44404054,16.31612781],[-61.44496727,16.31668952],[-61.44565589,16.31706603],[-61.44642004,16.31735904],[-61.44670786,16.31753106],[-61.44688706,16.31771132],[-61.44701556,16.31791199],[-61.44714214,16.31883111],[-61.44712311,16.31982056],[-61.44719724,16.32050704],[-61.4471544,16.32071729],[-61.44693592,16.32124527],[-61.44685587,16.32154563],[-61.44681248,16.32206314],[-61.44689235,16.32261591],[-61.44686512,16.32286424],[-61.44672738,16.32324189],[-61.44623452,16.32402722],[-61.44592639,16.3248853],[-61.44590184,16.32514901],[-61.4459354,16.3255216],[-61.44669663,16.32595105],[-61.44756539,16.32663163],[-61.44900595,16.32802945],[-61.44928489,16.32826195],[-61.44943265,16.32851337],[-61.44977143,16.32863425],[-61.44948413,16.32863214],[-61.44933499,16.32867352],[-61.44885701,16.32852089],[-61.4481014,16.32844484],[-61.44748555,16.32832825],[-61.44752434,16.32934343],[-61.44730165,16.32909868],[-61.44696483,16.32884768],[-61.446591,16.32878076],[-61.44644951,16.32880231],[-61.4436455,16.33022581],[-61.44334158,16.33031213],[-61.44311123,16.3303258],[-61.44284544,16.33032474],[-61.44261762,16.33025709],[-61.44195098,16.32993676],[-61.44042856,16.32907149],[-61.43981114,16.32879942],[-61.43908425,16.32876151],[-61.43868016,16.3288516],[-61.43825996,16.32908437],[-61.43772942,16.32930457],[-61.43739815,16.32941779],[-61.43691547,16.32950459],[-61.43663658,16.32950342],[-61.43641887,16.32945843],[-61.43541129,16.32905603],[-61.43597485,16.33339268],[-61.436086,16.33400985],[-61.43678087,16.33548898],[-61.43680147,16.33560571],[-61.43683502,16.33562313],[-61.43827002,16.33901461],[-61.43736236,16.33839787]]]]},"bbox":[-61.44977143,16.30253856,-61.40043951,16.3427929]},{"type":"Feature","id":"fr-quartier-97116-c87c88928f7b","properties":{"id":"fr-quartier-97116-c87c88928f7b","kind":"quartier","name":"Perrin Belle Espérance","cityCode":"97116","cityName":"Morne-à-l'Eau","sourceType":"iris","sourceIds":["971160102"],"colorIndex":5,"center":[-61.51796214682117,16.32140112]},"geometry":{"type":"MultiPolygon","coordinates":[[[[-61.4911396,16.303997],[-61.49114944,16.3038127],[-61.49640579,16.30406798],[-61.49860772,16.30566792],[-61.49899359,16.3058722],[-61.50202633,16.30590457],[-61.50295688,16.30598256],[-61.50332659,16.30412706],[-61.50348094,16.30265594],[-61.50392755,16.30274767],[-61.50421848,16.30041895],[-61.50660505,16.30062742],[-61.50694315,16.30059095],[-61.51133818,16.30076836],[-61.5117037,16.3037931],[-61.51425366,16.30393396],[-61.51435242,16.30411631],[-61.51717193,16.30338419],[-61.51782966,16.30502099],[-61.51847279,16.30511588],[-61.5209429,16.30642285],[-61.52384902,16.3077473],[-61.52458715,16.30840498],[-61.52494714,16.30882141],[-61.52559503,16.30990774],[-61.52611353,16.310403],[-61.52634213,16.31049407],[-61.52731436,16.31038517],[-61.52872297,16.31048898],[-61.52906811,16.31076613],[-61.52946438,16.31083667],[-61.53078292,16.31134834],[-61.53165969,16.31149181],[-61.53222677,16.31149756],[-61.53284789,16.31166274],[-61.53316613,16.31165591],[-61.53355978,16.31145078],[-61.53377058,16.31154533],[-61.53397855,16.3117691],[-61.53455478,16.31255847],[-61.53447749,16.31263205],[-61.53498209,16.31323836],[-61.53498047,16.31408517],[-61.53507098,16.3143732],[-61.53481371,16.31486396],[-61.5346622,16.31497588],[-61.53455503,16.31529146],[-61.53442284,16.3154487],[-61.53425389,16.3155144],[-61.53413529,16.31573139],[-61.53398433,16.3157692],[-61.53393517,16.31596227],[-61.53378438,16.31597749],[-61.5334043,16.31649451],[-61.53412173,16.31642087],[-61.53467116,16.3167898],[-61.5349634,16.31675658],[-61.53508979,16.31700238],[-61.53553227,16.31715457],[-61.53564344,16.31755842],[-61.53554818,16.31765717],[-61.53563306,16.31769572],[-61.53580886,16.31809279],[-61.53588366,16.31873227],[-61.53573247,16.31917768],[-61.53531355,16.3197586],[-61.53499881,16.3204243],[-61.5347316,16.32061404],[-61.53436899,16.32067027],[-61.53391899,16.32064817],[-61.53373494,16.32047879],[-61.5337104,16.32063226],[-61.53342783,16.32074869],[-61.53375497,16.32080609],[-61.5337869,16.32116782],[-61.53404703,16.32117414],[-61.53424686,16.3213617],[-61.53436542,16.32152701],[-61.53439987,16.321802],[-61.5341612,16.3225586],[-61.53380973,16.32300261],[-61.53361559,16.3230573],[-61.53293156,16.32291517],[-61.53344026,16.32309946],[-61.53363016,16.32348849],[-61.53371233,16.32351437],[-61.53385155,16.32341954],[-61.53397969,16.32355599],[-61.53401076,16.32378305],[-61.53416675,16.3238239],[-61.53441605,16.32453147],[-61.53444071,16.32473951],[-61.5343523,16.32492326],[-61.5344109,16.32509719],[-61.53433942,16.3251446],[-61.53430706,16.3253423],[-61.53411019,16.32551174],[-61.53411444,16.32581995],[-61.53397909,16.32577202],[-61.53373539,16.32582093],[-61.53357805,16.32596083],[-61.53325033,16.32585371],[-61.53322102,16.32589418],[-61.53331909,16.32592107],[-61.53342218,16.32602753],[-61.53352844,16.32646388],[-61.53348635,16.32658559],[-61.53311762,16.32670775],[-61.53292373,16.32660247],[-61.53271639,16.32666881],[-61.53223836,16.32663837],[-61.53095068,16.32649204],[-61.52913217,16.32661765],[-61.52838954,16.3264263],[-61.52820272,16.32625238],[-61.52779945,16.32548589],[-61.52775886,16.32528226],[-61.52776454,16.3248991],[-61.52696295,16.32433227],[-61.52674922,16.32412834],[-61.52672067,16.32394106],[-61.52652477,16.32373002],[-61.52646028,16.32359401],[-61.52633507,16.3228168],[-61.52626115,16.32268976],[-61.52612165,16.3225713],[-61.52579743,16.32262416],[-61.52554659,16.32275074],[-61.52498141,16.32323573],[-61.52465345,16.32378834],[-61.52440737,16.32402883],[-61.52343702,16.32450285],[-61.52329841,16.32451453],[-61.52314462,16.3244294],[-61.52241956,16.32389473],[-61.52202772,16.32348077],[-61.52180027,16.32335807],[-61.52162924,16.32332615],[-61.52142073,16.32342501],[-61.52135099,16.32348868],[-61.52127683,16.32364361],[-61.52124741,16.32382235],[-61.5213036,16.32431529],[-61.52115596,16.32453387],[-61.52088251,16.32468017],[-61.52064061,16.32486194],[-61.51980528,16.32505129],[-61.51936239,16.32507891],[-61.51874701,16.32501856],[-61.51858034,16.32490442],[-61.5183669,16.32453871],[-61.51821421,16.32418336],[-61.51813825,16.32383037],[-61.51821574,16.32335915],[-61.51835288,16.3230438],[-61.51838416,16.32286688],[-61.51833444,16.32263426],[-61.51818721,16.32254828],[-61.51768981,16.32260624],[-61.51671166,16.32249996],[-61.51630594,16.32256217],[-61.51590278,16.32278257],[-61.5154742,16.32314648],[-61.51482709,16.32344649],[-61.51442761,16.3233027],[-61.5134159,16.32280664],[-61.51324468,16.32280001],[-61.51312285,16.32294556],[-61.51302743,16.32331091],[-61.51295079,16.32342153],[-61.51275165,16.32351774],[-61.51257733,16.32354904],[-61.51265053,16.32401861],[-61.51252449,16.32397705],[-61.51239085,16.32407552],[-61.51212815,16.32416133],[-61.51164253,16.32402144],[-61.51144133,16.32389531],[-61.51107791,16.32356287],[-61.51093795,16.32350585],[-61.51050307,16.32358774],[-61.51021394,16.32357937],[-61.5096179,16.32380833],[-61.50933301,16.32385783],[-61.5085996,16.32381288],[-61.50855779,16.32377282],[-61.50790606,16.32394083],[-61.50618052,16.32402804],[-61.50593566,16.32398293],[-61.50541253,16.32373069],[-61.50521827,16.3236769],[-61.50471916,16.32359022],[-61.50321783,16.32348468],[-61.50309294,16.32341692],[-61.50296588,16.32314128],[-61.50293705,16.32299376],[-61.5029982,16.32246008],[-61.50287616,16.32214019],[-61.50275567,16.32198569],[-61.50165293,16.32140489],[-61.50143094,16.3211828],[-61.5012004,16.32085491],[-61.50101066,16.32069992],[-61.50027489,16.32047508],[-61.49968187,16.32006328],[-61.49909212,16.31959004],[-61.49882903,16.31948153],[-61.49811962,16.3193599],[-61.4975437,16.31903858],[-61.49737383,16.31897863],[-61.49704095,16.31894011],[-61.49535249,16.31895791],[-61.49512652,16.31901323],[-61.49494187,16.31917188],[-61.49488953,16.31928538],[-61.49479661,16.32005471],[-61.49474775,16.32020258],[-61.49462206,16.32036164],[-61.49439041,16.32042506],[-61.49426223,16.32042144],[-61.49383414,16.32022769],[-61.49353258,16.32025446],[-61.4930465,16.32066762],[-61.4924602,16.32133492],[-61.49227889,16.3214249],[-61.49177997,16.32155871],[-61.49139336,16.3215695],[-61.49095294,16.32139735],[-61.49053801,16.32107446],[-61.49005771,16.32061101],[-61.48981913,16.32048007],[-61.48911548,16.32046238],[-61.48919782,16.31973275],[-61.48914583,16.31943504],[-61.48900568,16.31928311],[-61.48817163,16.31894095],[-61.48793273,16.31873047],[-61.48781231,16.31856784],[-61.48764612,16.31815092],[-61.48738172,16.31675183],[-61.48706902,16.31615854],[-61.48602485,16.31442219],[-61.48590364,16.31411947],[-61.48561498,16.31295699],[-61.48567635,16.31276493],[-61.48611353,16.31201705],[-61.49058136,16.30711637],[-61.49127363,16.30617057],[-61.49132548,16.30599832],[-61.49114116,16.30574938],[-61.49110046,16.30556473],[-61.4911396,16.303997]]]]},"bbox":[-61.53588366,16.30041895,-61.48561498,16.32670775]},{"type":"Feature","id":"fr-quartier-97116-cc765cf4ea4a","properties":{"id":"fr-quartier-97116-cc765cf4ea4a","kind":"quartier","name":"Vieux Bourg","cityCode":"97116","cityName":"Morne-à-l'Eau","sourceType":"iris","sourceIds":["971160101"],"colorIndex":6,"center":[-61.52905913988374,16.338779770000002]},"geometry":{"type":"MultiPolygon","coordinates":[[[[-61.53283673,16.32672207],[-61.53331767,16.32699021],[-61.53344632,16.32693326],[-61.53384943,16.32709603],[-61.53401237,16.32720923],[-61.53445067,16.32779972],[-61.5347569,16.32790126],[-61.53477858,16.32800625],[-61.53469684,16.32804816],[-61.53461381,16.32826448],[-61.53493606,16.32835077],[-61.5350091,16.32809461],[-61.53522321,16.32837536],[-61.53520423,16.328537],[-61.53508504,16.32857955],[-61.53499125,16.32848039],[-61.53478639,16.32922006],[-61.53488774,16.32956148],[-61.53481534,16.32973179],[-61.5346327,16.3297495],[-61.53474714,16.32996629],[-61.53454471,16.33012666],[-61.53503626,16.33010386],[-61.53506796,16.33024597],[-61.53495368,16.33025874],[-61.53494494,16.33042587],[-61.5351086,16.33044328],[-61.53516695,16.33052592],[-61.53515343,16.33058277],[-61.53521135,16.33059673],[-61.53539324,16.33080585],[-61.53548066,16.33113272],[-61.53560853,16.33130623],[-61.53557825,16.33147592],[-61.53548521,16.33152679],[-61.53544643,16.33195852],[-61.5350886,16.33237538],[-61.53454148,16.33244479],[-61.53445069,16.33257159],[-61.53446584,16.33267382],[-61.53473344,16.33268471],[-61.53480837,16.33280272],[-61.53443571,16.3332005],[-61.53444092,16.33337948],[-61.53464495,16.3333809],[-61.53447233,16.33368698],[-61.53402721,16.3337589],[-61.53381868,16.33410992],[-61.53350024,16.33426405],[-61.53322568,16.33455768],[-61.53309949,16.33453601],[-61.53303967,16.33440003],[-61.53278084,16.33421657],[-61.53257115,16.33422054],[-61.53256362,16.33447715],[-61.53267407,16.33460174],[-61.53264546,16.33492418],[-61.5321433,16.33498847],[-61.53183738,16.33484445],[-61.53132511,16.33475864],[-61.53124996,16.33479427],[-61.53113324,16.33513327],[-61.53087067,16.33520103],[-61.53044058,16.33513929],[-61.53001428,16.33494743],[-61.52947927,16.33502414],[-61.53014739,16.33529631],[-61.5303241,16.33544576],[-61.53137727,16.33566909],[-61.53151598,16.33576947],[-61.53092916,16.33601573],[-61.53068741,16.33630234],[-61.53057541,16.33625999],[-61.53023523,16.33656671],[-61.53010132,16.33657571],[-61.53000413,16.33642953],[-61.52985953,16.33649179],[-61.52981282,16.33660443],[-61.52952804,16.33651297],[-61.52930603,16.33653763],[-61.52921779,16.33669608],[-61.52924379,16.336849],[-61.52949329,16.3371535],[-61.52948167,16.33733146],[-61.52982123,16.33760857],[-61.52983528,16.33773158],[-61.52917527,16.33762666],[-61.52890016,16.33749189],[-61.52880595,16.33732403],[-61.52855066,16.33729243],[-61.5284257,16.33748135],[-61.52815987,16.33735748],[-61.52809843,16.33743749],[-61.52817878,16.33758265],[-61.52809318,16.33776371],[-61.52813299,16.33807307],[-61.52782651,16.33825259],[-61.52815833,16.33843927],[-61.52818291,16.33865635],[-61.52843352,16.33881174],[-61.52845301,16.33895918],[-61.52864284,16.33885838],[-61.52882064,16.33848818],[-61.52913035,16.33850118],[-61.52942606,16.33875991],[-61.52976708,16.33934251],[-61.52991185,16.33938328],[-61.53012466,16.33921305],[-61.53021083,16.33933024],[-61.53030937,16.33929568],[-61.53040814,16.33935511],[-61.53034052,16.33976043],[-61.5299376,16.3399456],[-61.52970458,16.33994036],[-61.52920728,16.3396034],[-61.52885617,16.33961903],[-61.52830688,16.33997489],[-61.52776655,16.34013561],[-61.5271937,16.34063862],[-61.52632515,16.34088108],[-61.52580497,16.34159864],[-61.52471464,16.34208357],[-61.5246423,16.34224393],[-61.5247824,16.34253411],[-61.52460361,16.34303445],[-61.52435049,16.34271275],[-61.52413704,16.34271848],[-61.52403772,16.34285787],[-61.52408862,16.34305886],[-61.5242619,16.34316762],[-61.52429448,16.34331697],[-61.52441911,16.34329796],[-61.52451097,16.34340524],[-61.52433202,16.34380164],[-61.52437286,16.34384802],[-61.52385945,16.34403602],[-61.52380338,16.34365063],[-61.52339719,16.34376979],[-61.52335161,16.34398095],[-61.52323169,16.34399638],[-61.52319318,16.344138],[-61.52338119,16.3442803],[-61.52348366,16.34459463],[-61.52316151,16.34449205],[-61.52308469,16.34462527],[-61.52298081,16.34462274],[-61.52281844,16.34492978],[-61.52281162,16.3450906],[-61.52265581,16.34527297],[-61.5226561,16.34535793],[-61.52292204,16.34534352],[-61.5233261,16.34563194],[-61.52331755,16.3460223],[-61.52345844,16.34633147],[-61.52304857,16.34619304],[-61.52230061,16.34520812],[-61.52222843,16.34497354],[-61.52101729,16.3438462],[-61.52034085,16.34355767],[-61.52000984,16.34326524],[-61.51925104,16.34322557],[-61.51895166,16.34295867],[-61.51841781,16.34312573],[-61.51772415,16.34313622],[-61.51728142,16.34326053],[-61.51663088,16.34326319],[-61.51612459,16.34312858],[-61.5158169,16.34321769],[-61.51555466,16.34299172],[-61.51489702,16.34269517],[-61.51467007,16.34287704],[-61.51462842,16.3429382],[-61.51458844,16.34290267],[-61.51450785,16.34291566],[-61.51449274,16.34293272],[-61.51446961,16.34289731],[-61.51421358,16.34284038],[-61.51385718,16.34293547],[-61.51333566,16.3429571],[-61.51328882,16.34308691],[-61.51317308,16.34304362],[-61.51287312,16.34310206],[-61.51180556,16.34292281],[-61.51165146,16.34300216],[-61.51153516,16.34290915],[-61.51118192,16.34283436],[-61.51118837,16.34272505],[-61.51094525,16.34269351],[-61.51092571,16.34280092],[-61.51073133,16.34276068],[-61.51076056,16.34260816],[-61.51037059,16.34256383],[-61.51034968,16.34272907],[-61.50991945,16.34268626],[-61.50897809,16.34228196],[-61.50880504,16.34214517],[-61.50881992,16.34141685],[-61.50831964,16.34024476],[-61.50659838,16.33703871],[-61.50667667,16.33732847],[-61.50817449,16.34013076],[-61.50867993,16.34136254],[-61.50875401,16.34183844],[-61.50852831,16.34197873],[-61.50841808,16.34182612],[-61.50811374,16.34209148],[-61.50788071,16.34208802],[-61.50781818,16.34243371],[-61.50799174,16.34262744],[-61.50792286,16.34270016],[-61.50763345,16.34272522],[-61.50766386,16.34291071],[-61.50755438,16.34290632],[-61.50741576,16.34328853],[-61.50728865,16.34326413],[-61.50731957,16.34350655],[-61.50700413,16.34387757],[-61.50705296,16.34398004],[-61.50690229,16.34410007],[-61.50693166,16.34429911],[-61.50684104,16.34439969],[-61.50718093,16.34463074],[-61.50717318,16.34491175],[-61.50727091,16.34510675],[-61.50728219,16.34547014],[-61.50716773,16.3456293],[-61.50705905,16.34564299],[-61.50703956,16.34574316],[-61.50661673,16.34583416],[-61.50642612,16.34579033],[-61.5060696,16.34553114],[-61.50540209,16.34530228],[-61.50533896,16.34535786],[-61.50506878,16.34531438],[-61.50459754,16.34537068],[-61.50433868,16.34543934],[-61.50412744,16.3456457],[-61.50409627,16.34580544],[-61.50380693,16.3461902],[-61.50334188,16.34629263],[-61.50365518,16.3464503],[-61.50372076,16.34656645],[-61.50383396,16.34657358],[-61.50419373,16.3461595],[-61.50435427,16.34609647],[-61.50462425,16.34604236],[-61.50485003,16.34613976],[-61.50536387,16.3461434],[-61.5056454,16.34641743],[-61.50562898,16.34673001],[-61.5058981,16.34678975],[-61.50599574,16.3469965],[-61.50608472,16.3469899],[-61.50609593,16.3471156],[-61.50629142,16.34725617],[-61.50634431,16.34719418],[-61.50644606,16.34723015],[-61.506473,16.34738127],[-61.50664002,16.34757314],[-61.50684112,16.34759264],[-61.50692011,16.34766821],[-61.50685831,16.34828685],[-61.50665438,16.34876349],[-61.506576,16.34959257],[-61.50642805,16.3500922],[-61.50627463,16.350327],[-61.50604068,16.35044282],[-61.50560241,16.35022372],[-61.5056359,16.35000435],[-61.5055385,16.34976597],[-61.50519333,16.34973551],[-61.5051016,16.34985957],[-61.50490061,16.34982471],[-61.50487701,16.34960493],[-61.50534331,16.34946183],[-61.50554937,16.34919849],[-61.50560823,16.34896574],[-61.50550752,16.34891622],[-61.50527388,16.3491143],[-61.50502618,16.34906826],[-61.50493415,16.34861573],[-61.50479777,16.34857861],[-61.50439622,16.34894811],[-61.50410025,16.34897221],[-61.50397258,16.34914392],[-61.50401177,16.34928248],[-61.50387093,16.34946223],[-61.50354811,16.349572],[-61.50355889,16.34963082],[-61.5038565,16.34963745],[-61.50394894,16.34978903],[-61.50390806,16.3499948],[-61.50401138,16.35007145],[-61.50426014,16.35010033],[-61.50436423,16.35019867],[-61.50461751,16.35012636],[-61.50480912,16.35028588],[-61.50490043,16.35046456],[-61.50486925,16.35062521],[-61.50459824,16.35093598],[-61.50404393,16.35108207],[-61.50339977,16.3509817],[-61.50283251,16.3509849],[-61.50267031,16.35138773],[-61.5024507,16.35146389],[-61.50212372,16.35174896],[-61.50185893,16.35185824],[-61.50143017,16.35186513],[-61.50118486,16.35199714],[-61.50065102,16.35191291],[-61.50058109,16.35200007],[-61.50035825,16.35188552],[-61.50012793,16.35201492],[-61.49998028,16.35186024],[-61.49948712,16.35184317],[-61.49917437,16.35210393],[-61.49896134,16.35217471],[-61.49892713,16.35236516],[-61.49877259,16.35237762],[-61.49873443,16.35247043],[-61.49838033,16.35238476],[-61.4982971,16.35249714],[-61.49803851,16.35252873],[-61.49770301,16.35245856],[-61.49754154,16.35227485],[-61.4973632,16.35233956],[-61.49711173,16.352298],[-61.49702791,16.35248719],[-61.49672882,16.35242902],[-61.49662883,16.35252953],[-61.49639467,16.35254955],[-61.49604833,16.3527947],[-61.49569763,16.35263043],[-61.4955462,16.35248204],[-61.49515839,16.35251994],[-61.4946303,16.35290749],[-61.49464576,16.35308835],[-61.49490528,16.35317967],[-61.49494764,16.35327035],[-61.49471331,16.35343496],[-61.49455157,16.3532874],[-61.49442248,16.35327654],[-61.49424592,16.3534741],[-61.49425737,16.35369018],[-61.49312197,16.35344347],[-61.49297684,16.35344966],[-61.49285702,16.35357172],[-61.49246117,16.35331584],[-61.49214179,16.35321775],[-61.49149763,16.35360537],[-61.49130419,16.35356332],[-61.49094039,16.35364385],[-61.48600444,16.35330569],[-61.48326919,16.35332398],[-61.48192769,16.35201203],[-61.47784463,16.35129934],[-61.46915251,16.35444646],[-61.46465944,16.35589589],[-61.46345962,16.34438168],[-61.46298169,16.33763271],[-61.46571338,16.33875878],[-61.4692779,16.34039424],[-61.47551883,16.34282533],[-61.47795234,16.34367797],[-61.4790641,16.34418757],[-61.48112737,16.34547582],[-61.48284831,16.34649317],[-61.48334835,16.34682935],[-61.48373573,16.34720899],[-61.48406842,16.34739937],[-61.48532812,16.34766418],[-61.48664599,16.34000989],[-61.48630172,16.33962333],[-61.48639898,16.33902665],[-61.48649994,16.33879963],[-61.48647377,16.33770049],[-61.48672373,16.33732813],[-61.48692623,16.33643397],[-61.4871572,16.33621783],[-61.48737599,16.3361245],[-61.48753499,16.3361401],[-61.48801624,16.33660537],[-61.488122,16.33660522],[-61.48815493,16.33646086],[-61.48814487,16.33618695],[-61.48800213,16.33564007],[-61.4871818,16.33496632],[-61.48701496,16.33487655],[-61.48683361,16.33484724],[-61.48625665,16.33490094],[-61.48603411,16.33487223],[-61.48534021,16.33455455],[-61.4852335,16.33443449],[-61.48522572,16.33349996],[-61.4851849,16.33308937],[-61.48526629,16.33260735],[-61.48531142,16.33185214],[-61.48517131,16.33120767],[-61.48515754,16.33044391],[-61.48530973,16.32927555],[-61.48533427,16.32876331],[-61.48527914,16.32863006],[-61.48501061,16.32849799],[-61.48493359,16.32841158],[-61.48500255,16.32820783],[-61.48593593,16.3264694],[-61.48660775,16.3268556],[-61.48669681,16.32683635],[-61.48827477,16.32525165],[-61.48862695,16.3248502],[-61.48873186,16.32459428],[-61.48875842,16.32442638],[-61.4888491,16.32346453],[-61.48885082,16.3227533],[-61.48911548,16.32046238],[-61.48981913,16.32048007],[-61.49005771,16.32061101],[-61.49053801,16.32107446],[-61.49095294,16.32139735],[-61.49139336,16.3215695],[-61.49177997,16.32155871],[-61.49227889,16.3214249],[-61.4924602,16.32133492],[-61.4930465,16.32066762],[-61.49353258,16.32025446],[-61.49383414,16.32022769],[-61.49426223,16.32042144],[-61.49439041,16.32042506],[-61.49462206,16.32036164],[-61.49474775,16.32020258],[-61.49479661,16.32005471],[-61.49488953,16.31928538],[-61.49494187,16.31917188],[-61.49512652,16.31901323],[-61.49535249,16.31895791],[-61.49704095,16.31894011],[-61.49737383,16.31897863],[-61.4975437,16.31903858],[-61.49811962,16.3193599],[-61.49882903,16.31948153],[-61.49909212,16.31959004],[-61.49968187,16.32006328],[-61.50027489,16.32047508],[-61.50101066,16.32069992],[-61.5012004,16.32085491],[-61.50143094,16.3211828],[-61.50165293,16.32140489],[-61.50275567,16.32198569],[-61.50287616,16.32214019],[-61.5029982,16.32246008],[-61.50293705,16.32299376],[-61.50296588,16.32314128],[-61.50309294,16.32341692],[-61.50321783,16.32348468],[-61.50471916,16.32359022],[-61.50521827,16.3236769],[-61.50541253,16.32373069],[-61.50593566,16.32398293],[-61.50618052,16.32402804],[-61.50790606,16.32394083],[-61.50855779,16.32377282],[-61.5085996,16.32381288],[-61.50933301,16.32385783],[-61.5096179,16.32380833],[-61.51021394,16.32357937],[-61.51050307,16.32358774],[-61.51093795,16.32350585],[-61.51107791,16.32356287],[-61.51144133,16.32389531],[-61.51164253,16.32402144],[-61.51212815,16.32416133],[-61.51239085,16.32407552],[-61.51252449,16.32397705],[-61.51265053,16.32401861],[-61.51257733,16.32354904],[-61.51275165,16.32351774],[-61.51295079,16.32342153],[-61.51302743,16.32331091],[-61.51312285,16.32294556],[-61.51324468,16.32280001],[-61.5134159,16.32280664],[-61.51442761,16.3233027],[-61.51482709,16.32344649],[-61.5154742,16.32314648],[-61.51590278,16.32278257],[-61.51630594,16.32256217],[-61.51671166,16.32249996],[-61.51768981,16.32260624],[-61.51818721,16.32254828],[-61.51833444,16.32263426],[-61.51838416,16.32286688],[-61.51835288,16.3230438],[-61.51821574,16.32335915],[-61.51813825,16.32383037],[-61.51821421,16.32418336],[-61.5183669,16.32453871],[-61.51858034,16.32490442],[-61.51874701,16.32501856],[-61.51936239,16.32507891],[-61.51980528,16.32505129],[-61.52064061,16.32486194],[-61.52088251,16.32468017],[-61.52115596,16.32453387],[-61.5213036,16.32431529],[-61.52124741,16.32382235],[-61.52127683,16.32364361],[-61.52135099,16.32348868],[-61.52142073,16.32342501],[-61.52162924,16.32332615],[-61.52180027,16.32335807],[-61.52202772,16.32348077],[-61.52241956,16.32389473],[-61.52314462,16.3244294],[-61.52329841,16.32451453],[-61.52343702,16.32450285],[-61.52440737,16.32402883],[-61.52465345,16.32378834],[-61.52498141,16.32323573],[-61.52554659,16.32275074],[-61.52579743,16.32262416],[-61.52612165,16.3225713],[-61.52626115,16.32268976],[-61.52633507,16.3228168],[-61.52646028,16.32359401],[-61.52652477,16.32373002],[-61.52672067,16.32394106],[-61.52674922,16.32412834],[-61.52696295,16.32433227],[-61.52776454,16.3248991],[-61.52775886,16.32528226],[-61.52779945,16.32548589],[-61.52820272,16.32625238],[-61.52838954,16.3264263],[-61.52913217,16.32661765],[-61.53095068,16.32649204],[-61.53223836,16.32663837],[-61.53263235,16.32676945],[-61.53283673,16.32672207]]],[[[-61.59385547,16.34463741],[-61.59430626,16.34364355],[-61.5943784,16.34324185],[-61.59432105,16.34275433],[-61.59410627,16.34242121],[-61.59423312,16.34222232],[-61.59480205,16.34211585],[-61.59565753,16.3422526],[-61.59582913,16.34168616],[-61.59609075,16.34135803],[-61.59646679,16.34113006],[-61.59674045,16.34121323],[-61.59679559,16.34135639],[-61.59669418,16.34205615],[-61.59704075,16.34241545],[-61.59707715,16.3425612],[-61.59668546,16.34301591],[-61.59666627,16.3432128],[-61.59610437,16.34364468],[-61.59601732,16.34390711],[-61.59572457,16.34413652],[-61.59395817,16.34598293],[-61.59376318,16.34641725],[-61.59379846,16.34671844],[-61.59367023,16.34710983],[-61.59280173,16.34748091],[-61.59239498,16.34794364],[-61.59217381,16.34837236],[-61.59187687,16.3486623],[-61.59135357,16.34958247],[-61.59137829,16.3497905],[-61.59126817,16.35000486],[-61.59136843,16.35012122],[-61.59126299,16.35059681],[-61.59100761,16.35070446],[-61.59110984,16.35080727],[-61.59100337,16.35090416],[-61.59107438,16.35105286],[-61.59102778,16.35115467],[-61.59084058,16.35115342],[-61.59040372,16.35072211],[-61.59019279,16.35076679],[-61.59019598,16.35084363],[-61.59040149,16.35090285],[-61.59049041,16.35103449],[-61.59046642,16.35137686],[-61.59052719,16.35151736],[-61.59061874,16.35154327],[-61.59068284,16.35135029],[-61.59090925,16.35136717],[-61.59104989,16.35172691],[-61.59118722,16.35189593],[-61.591321,16.35190587],[-61.59142464,16.35207376],[-61.59153029,16.35248207],[-61.59138363,16.35270161],[-61.59072137,16.35289511],[-61.59044598,16.35305143],[-61.59036016,16.35327138],[-61.59040827,16.35347957],[-61.59003994,16.35380427],[-61.5890713,16.3537761],[-61.58851093,16.35359792],[-61.58800858,16.35355298],[-61.58729889,16.35331324],[-61.58683726,16.35307335],[-61.58663524,16.3530494],[-61.58649579,16.35291561],[-61.58608134,16.35275377],[-61.58565322,16.35267046],[-61.58527845,16.35245827],[-61.58457387,16.35241829],[-61.58320041,16.35206291],[-61.58280186,16.35203312],[-61.58237661,16.3516823],[-61.58211412,16.35160733],[-61.58198079,16.35127475],[-61.58183592,16.35124485],[-61.58096689,16.35064613],[-61.58049778,16.35040799],[-61.58009899,16.34989376],[-61.57994662,16.34921671],[-61.57975288,16.3492136],[-61.5795561,16.34937224],[-61.57923078,16.34905463],[-61.57921096,16.34881861],[-61.5793537,16.34836588],[-61.57947532,16.34824559],[-61.57979533,16.34813297],[-61.5805684,16.34814721],[-61.5807055,16.34821592],[-61.58083902,16.34813367],[-61.58075384,16.34787371],[-61.58056634,16.34778478],[-61.58054388,16.34765359],[-61.58002111,16.34732832],[-61.58002779,16.34718105],[-61.58024207,16.34693215],[-61.58022949,16.34673052],[-61.58016384,16.34661891],[-61.57993394,16.34656766],[-61.57981113,16.3464638],[-61.57980365,16.3463336],[-61.57993233,16.34614287],[-61.58038243,16.34590279],[-61.58037187,16.34580872],[-61.58046418,16.34572891],[-61.58102171,16.34577695],[-61.58110725,16.34572781],[-61.58121799,16.34555775],[-61.58126105,16.34529775],[-61.58150367,16.34527227],[-61.58171527,16.34513541],[-61.58223215,16.34510907],[-61.58335245,16.34473701],[-61.58369038,16.34473386],[-61.58375071,16.34467552],[-61.58473866,16.34474451],[-61.58554148,16.34504634],[-61.58588287,16.34508297],[-61.58653013,16.34501953],[-61.58695804,16.34512995],[-61.58773257,16.34520021],[-61.5892944,16.34512752],[-61.5896773,16.34524938],[-61.5904922,16.34595616],[-61.59086907,16.34639792],[-61.591446,16.34648221],[-61.591698,16.34645407],[-61.59203305,16.34619964],[-61.59237686,16.34589917],[-61.59277546,16.34539842],[-61.59306691,16.34521961],[-61.59343987,16.3450305],[-61.59385547,16.34463741]]],[[[-61.51004364,16.34926827],[-61.51013476,16.34947226],[-61.51007474,16.34973392],[-61.50982755,16.34986774],[-61.50938554,16.34977152],[-61.5083196,16.34986791],[-61.50791469,16.34969333],[-61.50756078,16.34945856],[-61.50740344,16.34922428],[-61.50735952,16.34835275],[-61.50746776,16.34827399],[-61.5077727,16.34830055],[-61.50817793,16.34843266],[-61.50850321,16.34910916],[-61.50866121,16.34913468],[-61.50910022,16.34900945],[-61.5094813,16.34899317],[-61.51004364,16.34926827]]],[[[-61.52682046,16.34872555],[-61.52666124,16.34898743],[-61.5274136,16.34901619],[-61.52777863,16.34926908],[-61.52828188,16.34918855],[-61.52883277,16.34949696],[-61.52902386,16.34947931],[-61.52938472,16.34966349],[-61.52983045,16.34976511],[-61.53011562,16.35005901],[-61.52993165,16.3506271],[-61.52959448,16.35065276],[-61.52887728,16.35042814],[-61.52810226,16.35042544],[-61.52758402,16.35050677],[-61.52729113,16.35012063],[-61.5271406,16.35009698],[-61.52690129,16.35017936],[-61.52647681,16.35011584],[-61.52632027,16.35027019],[-61.5261632,16.3502456],[-61.52614362,16.35048496],[-61.52584358,16.35080098],[-61.52592574,16.35107991],[-61.52581985,16.35109544],[-61.52571905,16.35093116],[-61.52544107,16.35080359],[-61.52538099,16.35070104],[-61.52556112,16.35052246],[-61.52583797,16.35042679],[-61.52582248,16.34999559],[-61.52558046,16.34981585],[-61.52564364,16.34962922],[-61.52560021,16.3495548],[-61.52536938,16.34962911],[-61.52545775,16.34945439],[-61.52533394,16.34898809],[-61.52516946,16.3489535],[-61.52528553,16.34882869],[-61.52519876,16.34866722],[-61.52489848,16.3485169],[-61.52486824,16.34843083],[-61.52500283,16.34833236],[-61.52561733,16.34827068],[-61.52558164,16.34853614],[-61.5255008,16.34858167],[-61.525549,16.34876998],[-61.52573311,16.34880742],[-61.52612275,16.34852456],[-61.52630688,16.34856019],[-61.52630084,16.34874271],[-61.52661092,16.34870872],[-61.52679255,16.34857805],[-61.52682046,16.34872555]]]]},"bbox":[-61.59707715,16.31894011,-61.46298169,16.35589589]}]}