{"type":"FeatureCollection","metadata":{"sourceType":"iris","source":"IGN / INSEE — Contours IRIS 2026","sourceUrl":"https://data.geopf.fr/wfs/ows?service=WFS&version=2.0.0&request=GetFeature&typeNames=STATISTICALUNITS.IRIS%3Acontours_iris&outputFormat=application%2Fjson&srsName=CRS%3A84&count=1000&CQL_FILTER=code_insee%3D%2797210%27&sortBy=code_iris","retrievedDate":"2026-09-10","sourceYear":"2026","license":"Licence Ouverte 2.0"},"features":[{"type":"Feature","id":"fr-quartier-97210-49d3cf59764f","properties":{"id":"fr-quartier-97210-49d3cf59764f","kind":"quartier","name":"Bellevue-Chopotte-Bonnie","cityCode":"97210","cityName":"Le François","sourceType":"iris","sourceIds":["972100103"],"colorIndex":0,"center":[-60.91909651155978,14.635852055]},"geometry":{"type":"MultiPolygon","coordinates":[[[[-60.93875144,14.63330624],[-60.93829786,14.63337903],[-60.93830307,14.63321913],[-60.93786204,14.63294143],[-60.93692788,14.63339401],[-60.93648031,14.63302226],[-60.93597054,14.63245477],[-60.93593678,14.63239212],[-60.9361169,14.63228528],[-60.93606331,14.63225951],[-60.93576318,14.63229932],[-60.93535822,14.63223428],[-60.93322231,14.63178339],[-60.93321796,14.63214842],[-60.93334708,14.63273061],[-60.93319556,14.63315307],[-60.93324848,14.63364692],[-60.93299141,14.63384434],[-60.93258868,14.63383896],[-60.93184211,14.63397962],[-60.93146579,14.63392929],[-60.92928554,14.63404907],[-60.92704448,14.63432009],[-60.92519917,14.63672087],[-60.9230957,14.63972475],[-60.92290386,14.64018841],[-60.92249045,14.64052719],[-60.92251695,14.64086719],[-60.92273115,14.64098567],[-60.92268874,14.64125187],[-60.92230956,14.6416018],[-60.9219043,14.64137137],[-60.92157636,14.64179857],[-60.9212787,14.6419676],[-60.9212158,14.64204385],[-60.92124751,14.64222486],[-60.92155293,14.64251223],[-60.92079912,14.6425326],[-60.91966003,14.644336],[-60.91820798,14.64615647],[-60.91704549,14.64650209],[-60.91649321,14.64709716],[-60.91639265,14.64732758],[-60.91666802,14.64775024],[-60.91648405,14.64845884],[-60.9163327,14.64866261],[-60.91556269,14.64921595],[-60.91498037,14.64945291],[-60.91394375,14.64973639],[-60.91360799,14.64990868],[-60.91406095,14.65186638],[-60.91263905,14.65362924],[-60.91196293,14.65357708],[-60.91059505,14.65394612],[-60.90898808,14.65427596],[-60.90825998,14.654517],[-60.9034717,14.65558533],[-60.90200733,14.65370705],[-60.89861997,14.65454484],[-60.89543531,14.65514857],[-60.89490683,14.65353444],[-60.89493742,14.65344165],[-60.89399979,14.64996599],[-60.89436404,14.65011658],[-60.89452254,14.65033217],[-60.89478877,14.65044482],[-60.89501881,14.65075052],[-60.89489917,14.65112986],[-60.89511062,14.65202183],[-60.89512932,14.65259037],[-60.8952409,14.65266638],[-60.89553015,14.65260304],[-60.89575031,14.65248666],[-60.8956693,14.65222207],[-60.89568405,14.65184359],[-60.8955931,14.65164849],[-60.8956308,14.65139401],[-60.89580327,14.65131334],[-60.89589719,14.65090576],[-60.89592121,14.65043158],[-60.89580448,14.65031124],[-60.89571095,14.64970588],[-60.89593179,14.64903107],[-60.89630901,14.64850225],[-60.89655333,14.64838157],[-60.89689527,14.64853556],[-60.89724791,14.64853966],[-60.89762414,14.64879607],[-60.89789684,14.6488139],[-60.89801648,14.64921257],[-60.89830477,14.64944469],[-60.89837267,14.64962332],[-60.89828605,14.64985025],[-60.89811829,14.64992373],[-60.89811146,14.65025078],[-60.8982253,14.65096566],[-60.89829695,14.65230908],[-60.89850771,14.65269051],[-60.8985067,14.65338086],[-60.89872185,14.65369184],[-60.89871005,14.65434505],[-60.89891084,14.65440921],[-60.8990555,14.65432558],[-60.89917535,14.65392365],[-60.89914373,14.65334595],[-60.89932011,14.65305116],[-60.89937659,14.65248059],[-60.89947231,14.65227272],[-60.89978894,14.65186895],[-60.90038376,14.65149119],[-60.9007786,14.65164656],[-60.90099651,14.65186268],[-60.90120119,14.65190881],[-60.90158107,14.65227007],[-60.9015914,14.65264697],[-60.90178817,14.65342676],[-60.90231571,14.65397459],[-60.90297285,14.65426516],[-60.90307225,14.65406094],[-60.90266236,14.65363435],[-60.90227477,14.65281488],[-60.90257886,14.65285016],[-60.90303064,14.65277652],[-60.9034751,14.65288715],[-60.90345194,14.65268724],[-60.90351948,14.65251436],[-60.90365758,14.65243699],[-60.90396216,14.65242076],[-60.90410232,14.65232262],[-60.90394047,14.65226243],[-60.9036713,14.65197085],[-60.90338748,14.65195021],[-60.90320849,14.65164318],[-60.90267669,14.65144501],[-60.90256376,14.65131568],[-60.90245261,14.65090172],[-60.90222857,14.65084277],[-60.90189119,14.65059936],[-60.90174592,14.65006492],[-60.90190302,14.64955127],[-60.90215168,14.64955984],[-60.90237984,14.64947877],[-60.90275829,14.64959965],[-60.90281402,14.64949804],[-60.90305649,14.64937643],[-60.90311221,14.64907965],[-60.90331063,14.64871005],[-60.90375443,14.6484014],[-60.90413878,14.6483895],[-60.9044761,14.64854163],[-60.9053279,14.64856467],[-60.90548058,14.64841785],[-60.90559638,14.64804931],[-60.905702,14.64797165],[-60.90571028,14.64768618],[-60.90558246,14.64756123],[-60.90493845,14.64745242],[-60.90497247,14.64738766],[-60.90554311,14.64730606],[-60.90558916,14.64724593],[-60.90559238,14.64671192],[-60.90545144,14.64650191],[-60.90553699,14.64638702],[-60.90544765,14.64631483],[-60.90547105,14.64619666],[-60.90512031,14.645992],[-60.90488503,14.6459438],[-60.90433122,14.6460129],[-60.90422437,14.64582941],[-60.90399086,14.64569267],[-60.90373085,14.64590268],[-60.90350123,14.64594217],[-60.90314238,14.64580972],[-60.90292729,14.64588278],[-60.90133481,14.64576902],[-60.90106304,14.64555603],[-60.90075229,14.64563636],[-60.90036829,14.64551362],[-60.90020108,14.64562687],[-60.89991061,14.64552665],[-60.89948838,14.64522826],[-60.89924912,14.64491616],[-60.89840934,14.64451008],[-60.89828488,14.6445198],[-60.89846239,14.64391056],[-60.89843617,14.64364195],[-60.89826766,14.6433079],[-60.89791825,14.64296498],[-60.89732389,14.64310238],[-60.89691239,14.64304173],[-60.89641593,14.64196375],[-60.89606682,14.64149252],[-60.8956466,14.64117969],[-60.89549193,14.64114576],[-60.89494664,14.64129534],[-60.89377227,14.64084556],[-60.8931558,14.64086889],[-60.89294626,14.6410414],[-60.89281512,14.64145948],[-60.89270912,14.6415769],[-60.89155017,14.64174712],[-60.8913078,14.64195547],[-60.8914947,14.64221017],[-60.89140002,14.6424054],[-60.8908697,14.64273674],[-60.89045188,14.64275554],[-60.88990715,14.64323403],[-60.88987838,14.64294281],[-60.88973059,14.6426749],[-60.88906082,14.64225497],[-60.88898645,14.6418802],[-60.88865837,14.64134681],[-60.88868298,14.64110215],[-60.88898821,14.64101727],[-60.88953515,14.64117946],[-60.89041764,14.6409977],[-60.8917563,14.64115441],[-60.8926809,14.6407417],[-60.89304607,14.6407938],[-60.8933707,14.64071723],[-60.89355727,14.64052102],[-60.89376067,14.63992196],[-60.89393481,14.6396651],[-60.89418259,14.63957066],[-60.89484535,14.63955858],[-60.89500027,14.63946872],[-60.89509336,14.63914697],[-60.89506795,14.63869764],[-60.89498989,14.63861109],[-60.89472199,14.63857795],[-60.89464166,14.63834047],[-60.89400838,14.63798595],[-60.89375435,14.63756979],[-60.89372453,14.6373879],[-60.89417539,14.63740734],[-60.8962467,14.63732577],[-60.90322222,14.63682395],[-60.90332775,14.63675532],[-60.90379986,14.63658879],[-60.90406967,14.63642043],[-60.90496623,14.63602549],[-60.90542609,14.63587872],[-60.90644618,14.63566832],[-60.90811909,14.63561287],[-60.90970487,14.63564338],[-60.90975361,14.63569081],[-60.91017796,14.63576601],[-60.91060405,14.63575447],[-60.91103206,14.63583512],[-60.91148371,14.63586899],[-60.91166379,14.63606127],[-60.9122211,14.63591356],[-60.91246562,14.63577027],[-60.91278419,14.63564661],[-60.91315766,14.63560569],[-60.91377344,14.63545759],[-60.91420641,14.63530785],[-60.91480105,14.63523727],[-60.91525485,14.63533803],[-60.91536543,14.63532275],[-60.91592014,14.63505753],[-60.91604303,14.63462399],[-60.91613655,14.63454892],[-60.9168089,14.63420795],[-60.91740307,14.63418615],[-60.91761094,14.63408952],[-60.91784757,14.63379796],[-60.91807273,14.63344213],[-60.91817353,14.633087],[-60.91810401,14.63238878],[-60.91832804,14.63205464],[-60.91837496,14.63180294],[-60.91833235,14.63140135],[-60.91821811,14.63101629],[-60.91807081,14.63069418],[-60.91808,14.63060481],[-60.9182753,14.63075836],[-60.91852224,14.63104521],[-60.91870574,14.63117155],[-60.91889915,14.63123021],[-60.91938298,14.63119658],[-60.91956774,14.63128769],[-60.91964381,14.63138867],[-60.91968167,14.63150739],[-60.91971716,14.63237067],[-60.91987771,14.63276428],[-60.91994808,14.63307756],[-60.91994093,14.63354106],[-60.92003883,14.63378863],[-60.92018705,14.63401405],[-60.92019284,14.6340891],[-60.92073273,14.63411471],[-60.92180711,14.63405111],[-60.92206343,14.63393412],[-60.92259588,14.63376537],[-60.92307049,14.63372623],[-60.92333808,14.63359488],[-60.92378018,14.63326267],[-60.92394339,14.63317828],[-60.92432448,14.63282023],[-60.92437925,14.63272041],[-60.92435913,14.63258921],[-60.92402343,14.63216693],[-60.92389232,14.63170039],[-60.92340069,14.63128034],[-60.92328866,14.63066035],[-60.92317009,14.63063671],[-60.92303246,14.6306662],[-60.92286169,14.63096288],[-60.92269629,14.63108339],[-60.9220469,14.6312538],[-60.92180462,14.63175225],[-60.92150729,14.63169086],[-60.9214644,14.63131818],[-60.92148467,14.63103824],[-60.92159257,14.63051962],[-60.92170219,14.63031005],[-60.92157233,14.63000798],[-60.92163984,14.62993449],[-60.92179902,14.6298835],[-60.92180703,14.62982031],[-60.92156945,14.62962391],[-60.92140909,14.6297011],[-60.92132092,14.62930814],[-60.92147755,14.62903393],[-60.92151701,14.62888428],[-60.92148623,14.62860478],[-60.9213633,14.62845368],[-60.92126503,14.62824587],[-60.92119399,14.62790547],[-60.92089092,14.62727113],[-60.92059523,14.62683927],[-60.92025972,14.6266944],[-60.92014424,14.62653975],[-60.92009171,14.62620494],[-60.92019701,14.6260604],[-60.91949484,14.62543243],[-60.91899397,14.62491108],[-60.91827455,14.62404621],[-60.91820234,14.62402659],[-60.91791279,14.62412611],[-60.91749996,14.62440616],[-60.91738914,14.62444673],[-60.91720033,14.62449203],[-60.91680316,14.62448848],[-60.91634677,14.62476272],[-60.91584371,14.6240814],[-60.91567082,14.62391449],[-60.9141596,14.62297384],[-60.91397438,14.62293243],[-60.91374489,14.62296109],[-60.91366466,14.62290797],[-60.91347951,14.62266323],[-60.91340966,14.62249273],[-60.91327285,14.62184631],[-60.91306543,14.62140529],[-60.91291138,14.62081565],[-60.91252999,14.62012638],[-60.91239377,14.61971221],[-60.91232703,14.61960588],[-60.91217444,14.6194518],[-60.91166445,14.6191138],[-60.9112742,14.61896933],[-60.91123234,14.61888131],[-60.91124324,14.61870972],[-60.91119503,14.61860717],[-60.90940972,14.61623542],[-60.90932994,14.6161344],[-60.90930479,14.61594893],[-60.90931502,14.61584782],[-60.9094272,14.61566268],[-60.90940142,14.61554317],[-60.90988315,14.61563062],[-60.91042429,14.6156174],[-60.91107643,14.61544613],[-60.91141119,14.61527564],[-60.91490707,14.61280027],[-60.91511746,14.61272987],[-60.91533666,14.61270833],[-60.9161376,14.61269832],[-60.91731105,14.61244947],[-60.91778977,14.61246278],[-60.91938459,14.6128963],[-60.91960925,14.61288747],[-60.92081717,14.61469556],[-60.9210903,14.61496005],[-60.92492188,14.61704544],[-60.92638937,14.61730881],[-60.92753964,14.61765338],[-60.92768959,14.61779387],[-60.92811312,14.61834976],[-60.92829799,14.61852581],[-60.9286021,14.61875351],[-60.92964901,14.62022761],[-60.93114105,14.62143908],[-60.93199496,14.62201957],[-60.93226033,14.62242133],[-60.93349337,14.62384375],[-60.93392416,14.62451807],[-60.9342097,14.62464891],[-60.93499151,14.62470555],[-60.93517927,14.62487258],[-60.93561322,14.62511046],[-60.93573457,14.62523353],[-60.93603839,14.62569256],[-60.93625143,14.62613361],[-60.93643555,14.62629338],[-60.93654557,14.62633773],[-60.93688878,14.62635613],[-60.937427,14.6265597],[-60.93777769,14.62687004],[-60.93820479,14.62704732],[-60.93858567,14.62740401],[-60.93901141,14.62752887],[-60.93934598,14.62777672],[-60.93986699,14.62803525],[-60.94028593,14.62829288],[-60.94043152,14.62840441],[-60.94053687,14.62855173],[-60.94087003,14.62944928],[-60.9411867,14.62992468],[-60.94163181,14.63085936],[-60.9417957,14.63099907],[-60.9422791,14.63101328],[-60.94257573,14.63115054],[-60.94291321,14.63118606],[-60.94237744,14.63141446],[-60.94181538,14.63157667],[-60.94156534,14.63181754],[-60.94148147,14.63185385],[-60.94097789,14.63171565],[-60.94049507,14.6317394],[-60.94031215,14.63164922],[-60.9402131,14.63192124],[-60.94011513,14.63207671],[-60.94005466,14.63209153],[-60.93993467,14.63202089],[-60.93986343,14.63209707],[-60.93985543,14.63225785],[-60.93991098,14.6324716],[-60.93985646,14.63264462],[-60.9396322,14.632808],[-60.93901154,14.63308263],[-60.93875144,14.63330624]]]]},"bbox":[-60.94291321,14.61244947,-60.88865837,14.65558533]},{"type":"Feature","id":"fr-quartier-97210-cceaf985c4e4","properties":{"id":"fr-quartier-97210-cceaf985c4e4","kind":"quartier","name":"Bourg-Presqu'île","cityCode":"97210","cityName":"Le François","sourceType":"iris","sourceIds":["972100101"],"colorIndex":1,"center":[-60.898279389365484,14.616257155]},"geometry":{"type":"MultiPolygon","coordinates":[[[[-60.89556362,14.62077528],[-60.89465164,14.61977577],[-60.8941689,14.61950304],[-60.89398461,14.61946252],[-60.89368803,14.61952038],[-60.8933165,14.61975015],[-60.89298152,14.62013658],[-60.89265483,14.62023754],[-60.89227816,14.62012932],[-60.89170804,14.61977537],[-60.89054276,14.61984253],[-60.89019624,14.61968849],[-60.89022937,14.61962011],[-60.89000928,14.6195386],[-60.8899421,14.61957685],[-60.88957235,14.61942621],[-60.88956868,14.61932407],[-60.88950276,14.61932799],[-60.88922754,14.61938333],[-60.88907108,14.61953914],[-60.88901632,14.62041425],[-60.88905242,14.62071457],[-60.88928765,14.62115405],[-60.88944214,14.62120515],[-60.88967782,14.62101391],[-60.8898246,14.62109476],[-60.88961389,14.62148864],[-60.88928655,14.62185163],[-60.88904657,14.62191],[-60.88878389,14.62220672],[-60.8886563,14.62225436],[-60.88817952,14.62223196],[-60.8876696,14.62198698],[-60.88746696,14.62182882],[-60.88726214,14.62150889],[-60.88685858,14.62023565],[-60.8865865,14.61899253],[-60.88667348,14.61863097],[-60.88694783,14.61827743],[-60.88714816,14.61770726],[-60.88719931,14.61594929],[-60.88756794,14.61553697],[-60.88771465,14.61552746],[-60.88783351,14.61542281],[-60.88751541,14.61530517],[-60.8873066,14.61540358],[-60.88644578,14.61536776],[-60.88621749,14.61517503],[-60.88622038,14.61487235],[-60.88595824,14.61482298],[-60.88589514,14.61462904],[-60.88569947,14.6147122],[-60.88563848,14.61487972],[-60.88525331,14.61478858],[-60.88534045,14.61489509],[-60.88532669,14.61526635],[-60.88510359,14.61559776],[-60.88495208,14.61620542],[-60.88444204,14.61675109],[-60.88414888,14.61683969],[-60.88365613,14.61674124],[-60.88343133,14.6167654],[-60.8831143,14.61692427],[-60.88303027,14.61736537],[-60.88315395,14.61782192],[-60.8831481,14.61814265],[-60.88366802,14.61850429],[-60.88407258,14.61918658],[-60.88463822,14.61884382],[-60.88545226,14.61785363],[-60.88523248,14.61832332],[-60.88506494,14.6184727],[-60.88473868,14.61901281],[-60.88431398,14.61936769],[-60.88343028,14.61987833],[-60.88324077,14.6198992],[-60.88280661,14.61969104],[-60.88258006,14.61970344],[-60.88214591,14.61939769],[-60.8819399,14.61910666],[-60.88190347,14.61835724],[-60.88166678,14.61807226],[-60.88124793,14.61791303],[-60.88081841,14.61789918],[-60.88071768,14.61795248],[-60.88066367,14.61787519],[-60.88051819,14.61794886],[-60.88056763,14.61801889],[-60.88010918,14.61782858],[-60.87958686,14.61839491],[-60.87955368,14.61856448],[-60.88030947,14.61929605],[-60.88000067,14.61975589],[-60.87947421,14.62017309],[-60.87883686,14.62025132],[-60.87839192,14.62039275],[-60.87774038,14.62117476],[-60.87678259,14.62166844],[-60.87640618,14.62153489],[-60.87525668,14.62054039],[-60.87516295,14.62025128],[-60.87519669,14.62002388],[-60.87543554,14.61969715],[-60.87535008,14.61951293],[-60.87503582,14.61918929],[-60.8742451,14.61910075],[-60.87330096,14.61885178],[-60.87308774,14.61882905],[-60.87264624,14.61899851],[-60.87247367,14.61899513],[-60.87178405,14.61881624],[-60.87069729,14.6194036],[-60.87050824,14.61956904],[-60.8701584,14.61956855],[-60.86947303,14.61846712],[-60.86895626,14.61797445],[-60.86892292,14.61767866],[-60.86905001,14.61749097],[-60.86922832,14.61738056],[-60.86945646,14.61739439],[-60.86980386,14.61755208],[-60.86995154,14.61753897],[-60.87038822,14.61777248],[-60.87079746,14.61786839],[-60.87166821,14.61764321],[-60.87195451,14.61740095],[-60.87235245,14.61674314],[-60.87283252,14.61661469],[-60.87353743,14.61597595],[-60.87405059,14.61578365],[-60.87447788,14.61573965],[-60.87542629,14.61592992],[-60.87566569,14.61602789],[-60.87573736,14.61619842],[-60.87609146,14.61633538],[-60.87623184,14.61630865],[-60.876291,14.61613931],[-60.87617253,14.61562408],[-60.87572971,14.61545016],[-60.8761007,14.61547071],[-60.87629725,14.61423366],[-60.8764332,14.61399183],[-60.87682489,14.61378937],[-60.877267,14.613844],[-60.87775734,14.61370841],[-60.87804334,14.61349595],[-60.87823436,14.61322028],[-60.87870344,14.61317214],[-60.8794967,14.61289743],[-60.88021086,14.61245212],[-60.88026708,14.61200806],[-60.87981585,14.61193709],[-60.8797115,14.61169036],[-60.87929587,14.61168115],[-60.87908598,14.61150485],[-60.87868795,14.61082171],[-60.87898768,14.61062836],[-60.87962115,14.61037117],[-60.87979896,14.61011797],[-60.880089,14.61006368],[-60.88062345,14.60987516],[-60.88096256,14.60983307],[-60.88168362,14.60982787],[-60.88195616,14.60985745],[-60.88380322,14.6103929],[-60.88414141,14.61044567],[-60.88486947,14.61038902],[-60.8854384,14.61018545],[-60.88669978,14.60937821],[-60.88693916,14.60908942],[-60.88723513,14.60841439],[-60.88743063,14.6082517],[-60.88772628,14.60819293],[-60.88819283,14.60821433],[-60.88853271,14.6080909],[-60.89084996,14.60719741],[-60.89106386,14.60714694],[-60.89226577,14.60702678],[-60.89291299,14.60698022],[-60.8932362,14.60704729],[-60.89385382,14.60767275],[-60.89405061,14.60776309],[-60.89442032,14.60772215],[-60.89499271,14.60754388],[-60.89512446,14.60754507],[-60.89522798,14.60758847],[-60.89539034,14.60768934],[-60.89582642,14.60808544],[-60.89632978,14.60833486],[-60.89648718,14.60846912],[-60.89655568,14.60858449],[-60.89659485,14.60914871],[-60.89671125,14.60949584],[-60.89690063,14.60978038],[-60.89719802,14.61012463],[-60.89770173,14.61053309],[-60.89774734,14.61061573],[-60.89775107,14.61080914],[-60.8976298,14.611071],[-60.89764513,14.61121572],[-60.89776908,14.61135418],[-60.89815081,14.61151395],[-60.89825243,14.61165945],[-60.89819971,14.61232494],[-60.89830377,14.6125066],[-60.89838042,14.61254524],[-60.89856038,14.61255229],[-60.89869602,14.61243875],[-60.89907734,14.61176267],[-60.89917267,14.61169124],[-60.89930013,14.61165714],[-60.90048319,14.61186298],[-60.90119123,14.61186213],[-60.90128561,14.61189099],[-60.90378762,14.61196681],[-60.90461049,14.61218837],[-60.90510484,14.61241059],[-60.905355,14.61255018],[-60.90678579,14.61354527],[-60.90720644,14.61322194],[-60.90730861,14.61301683],[-60.90728391,14.61288106],[-60.90696668,14.6124743],[-60.90688601,14.61227207],[-60.90691979,14.61203652],[-60.90709649,14.61170106],[-60.90937119,14.61196996],[-60.90923021,14.6115693],[-60.91017375,14.61110064],[-60.91037919,14.61096423],[-60.91050676,14.61081989],[-60.91070916,14.61080905],[-60.91089646,14.61121736],[-60.91087499,14.6117223],[-60.91089288,14.61189143],[-60.91094586,14.61198046],[-60.91091534,14.61216543],[-60.91112078,14.61301126],[-60.91113702,14.61335569],[-60.91141119,14.61527564],[-60.91107643,14.61544613],[-60.91042429,14.6156174],[-60.90988315,14.61563062],[-60.90940142,14.61554317],[-60.9094272,14.61566268],[-60.90931502,14.61584782],[-60.90930479,14.61594893],[-60.90932994,14.6161344],[-60.90940972,14.61623542],[-60.90790911,14.61702527],[-60.90770328,14.61710385],[-60.90665764,14.61708181],[-60.90611635,14.61720797],[-60.90593206,14.61716836],[-60.90550196,14.61692142],[-60.90540634,14.61682659],[-60.90501581,14.61690892],[-60.90407752,14.61691856],[-60.90391822,14.6168855],[-60.90371994,14.6167545],[-60.90345821,14.61646569],[-60.90317185,14.61632667],[-60.90248095,14.61627889],[-60.90148591,14.61640186],[-60.90095038,14.61680095],[-60.90080516,14.61694694],[-60.89838108,14.61872148],[-60.89822367,14.61888],[-60.89814241,14.6189353],[-60.89802344,14.61895501],[-60.89784701,14.61916125],[-60.89771202,14.61920702],[-60.89603835,14.62042806],[-60.89582954,14.62052648],[-60.89556362,14.62077528]]]]},"bbox":[-60.91141119,14.60698022,-60.86892292,14.62225436]},{"type":"Feature","id":"fr-quartier-97210-2fe011f8aa41","properties":{"id":"fr-quartier-97210-2fe011f8aa41","kind":"quartier","name":"Dumaine-Bois Soldat-Beauregard","cityCode":"97210","cityName":"Le François","sourceType":"iris","sourceIds":["972100107"],"colorIndex":2,"center":[-60.90339378307763,14.593536705]},"geometry":{"type":"MultiPolygon","coordinates":[[[[-60.90709649,14.61170106],[-60.90691979,14.61203652],[-60.90688601,14.61227207],[-60.90696668,14.6124743],[-60.90728391,14.61288106],[-60.90730861,14.61301683],[-60.90720644,14.61322194],[-60.90678579,14.61354527],[-60.905355,14.61255018],[-60.90510484,14.61241059],[-60.90461049,14.61218837],[-60.90378762,14.61196681],[-60.90128561,14.61189099],[-60.90119123,14.61186213],[-60.90048319,14.61186298],[-60.89930013,14.61165714],[-60.89917267,14.61169124],[-60.89907734,14.61176267],[-60.89869602,14.61243875],[-60.89856038,14.61255229],[-60.89838042,14.61254524],[-60.89830377,14.6125066],[-60.89819971,14.61232494],[-60.89825243,14.61165945],[-60.89815081,14.61151395],[-60.89776908,14.61135418],[-60.89764513,14.61121572],[-60.8976298,14.611071],[-60.89775107,14.61080914],[-60.89774734,14.61061573],[-60.89770173,14.61053309],[-60.89719802,14.61012463],[-60.89690063,14.60978038],[-60.89671125,14.60949584],[-60.89659485,14.60914871],[-60.89655568,14.60858449],[-60.89648718,14.60846912],[-60.89632978,14.60833486],[-60.89582642,14.60808544],[-60.89539034,14.60768934],[-60.89522798,14.60758847],[-60.89512446,14.60754507],[-60.89499271,14.60754388],[-60.89442032,14.60772215],[-60.89405061,14.60776309],[-60.89385382,14.60767275],[-60.8932362,14.60704729],[-60.89291299,14.60698022],[-60.89226577,14.60702678],[-60.89106386,14.60714694],[-60.89084996,14.60719741],[-60.88853271,14.6080909],[-60.88848486,14.60795131],[-60.8885287,14.60773303],[-60.88904516,14.60670578],[-60.88919156,14.6057565],[-60.88925941,14.6054535],[-60.88946071,14.6049737],[-60.88951198,14.6045594],[-60.88964547,14.60447657],[-60.8899993,14.60454303],[-60.89023587,14.60435451],[-60.89036999,14.6043024],[-60.89038257,14.6042483],[-60.8900726,14.60415514],[-60.8899123,14.60403351],[-60.88986943,14.60395541],[-60.8888087,14.60357804],[-60.88865241,14.60332813],[-60.88833926,14.60308313],[-60.8880146,14.60287687],[-60.88754845,14.60271723],[-60.88657111,14.60351892],[-60.8862823,14.60393106],[-60.88616491,14.60359204],[-60.88607357,14.60343941],[-60.88467777,14.59851201],[-60.88489009,14.59852929],[-60.88540718,14.59840657],[-60.88579084,14.59836035],[-60.88626878,14.59835384],[-60.88668,14.59765636],[-60.88619598,14.59703751],[-60.88630865,14.59621896],[-60.88594505,14.59591386],[-60.88550337,14.59562251],[-60.88502517,14.59585221],[-60.88497221,14.59537372],[-60.88492587,14.59527119],[-60.88486203,14.59525163],[-60.88463275,14.59497034],[-60.88403103,14.59453205],[-60.88230504,14.59357574],[-60.88199609,14.59337776],[-60.88182717,14.59318918],[-60.88240339,14.59250947],[-60.88194398,14.59232638],[-60.88203994,14.592189],[-60.88195368,14.59199123],[-60.88207008,14.59146277],[-60.88218096,14.5912207],[-60.88321136,14.58981409],[-60.88351724,14.58984668],[-60.88401794,14.58998044],[-60.88493474,14.59036194],[-60.88529004,14.59056305],[-60.88549754,14.59079354],[-60.88598882,14.59181727],[-60.88626357,14.59229235],[-60.88635824,14.59238628],[-60.8866555,14.59254529],[-60.88698999,14.59259531],[-60.88723312,14.59268968],[-60.88803942,14.5931786],[-60.88848059,14.59352326],[-60.88869343,14.59387488],[-60.88876805,14.59451532],[-60.88905142,14.59496336],[-60.88912238,14.59491792],[-60.88931011,14.59449672],[-60.88958754,14.59420646],[-60.88976113,14.5941005],[-60.89026366,14.5940436],[-60.89037674,14.59395968],[-60.89063099,14.59386077],[-60.89123186,14.59370807],[-60.89175345,14.59369561],[-60.89265581,14.59355015],[-60.89336111,14.59324657],[-60.89396862,14.59307856],[-60.89437198,14.59330178],[-60.89463849,14.59337828],[-60.89484811,14.5933865],[-60.89553304,14.59307821],[-60.89606634,14.59290682],[-60.89607198,14.59250927],[-60.89611191,14.59240843],[-60.896168,14.59236466],[-60.89641907,14.59230728],[-60.89658206,14.59195001],[-60.89713047,14.59184923],[-60.89721266,14.59179304],[-60.89767425,14.59135623],[-60.89770659,14.59127249],[-60.89765979,14.59112026],[-60.89733423,14.59061853],[-60.8972902,14.59046723],[-60.8973879,14.58985184],[-60.89734426,14.58926861],[-60.89719724,14.5890197],[-60.89666701,14.58857576],[-60.89666835,14.5885324],[-60.89672463,14.58846785],[-60.89715719,14.58835156],[-60.89737251,14.58824868],[-60.89758076,14.58781411],[-60.89791047,14.58738966],[-60.89841875,14.58594302],[-60.89854937,14.5857698],[-60.89894187,14.5858655],[-60.89951484,14.58610831],[-60.90009671,14.58629336],[-60.90044398,14.58646185],[-60.90054458,14.58642119],[-60.90101778,14.58583447],[-60.90105292,14.58584744],[-60.90105971,14.58591346],[-60.90092004,14.5862592],[-60.90088952,14.58644507],[-60.90089491,14.58665928],[-60.90093496,14.58674096],[-60.90096373,14.58674032],[-60.90114371,14.58644916],[-60.90131685,14.58629258],[-60.90157157,14.58624156],[-60.90175693,14.58626401],[-60.90185944,14.58631463],[-60.90209951,14.58653637],[-60.90234335,14.5869479],[-60.90261379,14.58709852],[-60.90287057,14.5873195],[-60.90341169,14.58759455],[-60.90402775,14.58808984],[-60.90426576,14.58823566],[-60.90478636,14.58832617],[-60.90484439,14.58837187],[-60.9049687,14.58866847],[-60.9050876,14.58885027],[-60.90513914,14.58889501],[-60.90540917,14.58889291],[-60.90549381,14.58896957],[-60.90553283,14.58906209],[-60.90573727,14.58824524],[-60.90564158,14.58796336],[-60.90567404,14.5872787],[-60.90549163,14.58694363],[-60.90560972,14.5865245],[-60.90557065,14.58614282],[-60.90541317,14.58542936],[-60.90545066,14.58529144],[-60.90569812,14.58502618],[-60.9058652,14.58472497],[-60.90599459,14.58458245],[-60.90604876,14.58444649],[-60.90604774,14.58386726],[-60.90599533,14.5837195],[-60.90589892,14.583612],[-60.90589894,14.5835117],[-60.90576873,14.58325029],[-60.90587736,14.58314373],[-60.90613226,14.58307373],[-60.90635707,14.58265194],[-60.90645102,14.58213591],[-60.90628967,14.58183175],[-60.90622638,14.58155739],[-60.90629467,14.58140077],[-60.90641116,14.58134669],[-60.90647391,14.58138249],[-60.90651347,14.58161508],[-60.9066027,14.5817948],[-60.90675373,14.58191543],[-60.90690784,14.58229814],[-60.9068412,14.58247737],[-60.90685209,14.58279825],[-60.90691433,14.58308435],[-60.90701678,14.5832407],[-60.90701413,14.58332381],[-60.90682478,14.58342964],[-60.90665122,14.58333682],[-60.90661147,14.58341959],[-60.90673183,14.58374146],[-60.90666795,14.58382493],[-60.90692738,14.58425647],[-60.9069584,14.58441037],[-60.9068203,14.58449317],[-60.90680581,14.58455358],[-60.90691824,14.5847326],[-60.90690349,14.58482102],[-60.90700221,14.58517523],[-60.90725905,14.58578296],[-60.90743077,14.58607094],[-60.90749237,14.58632632],[-60.90748667,14.58653681],[-60.90742678,14.58678748],[-60.90722977,14.58711373],[-60.90703434,14.58727283],[-60.90699893,14.58738727],[-60.9071146,14.58781301],[-60.90732722,14.58828932],[-60.90763813,14.58867434],[-60.90790345,14.58887642],[-60.90802458,14.58921546],[-60.90890257,14.58899561],[-60.90975856,14.58894454],[-60.91061038,14.58864584],[-60.91217937,14.58855234],[-60.9123064,14.5887586],[-60.91294912,14.58918453],[-60.91344024,14.58935248],[-60.91438378,14.58975851],[-60.91451563,14.58984734],[-60.91453028,14.59016284],[-60.91446181,14.59043873],[-60.91449022,14.59057453],[-60.91488618,14.59129013],[-60.9149625,14.59156099],[-60.91492385,14.59172421],[-60.91480764,14.59194456],[-60.91479517,14.59208632],[-60.91496594,14.59287038],[-60.91440806,14.5931889],[-60.91412711,14.5934629],[-60.91394798,14.5939601],[-60.91398305,14.59447277],[-60.91389041,14.59465357],[-60.91358323,14.59495354],[-60.91345869,14.5952705],[-60.91327929,14.59599271],[-60.91312389,14.59603921],[-60.91277547,14.59589061],[-60.91262249,14.59587749],[-60.91240084,14.59596316],[-60.91210182,14.59628308],[-60.91163424,14.59627348],[-60.91135723,14.59632612],[-60.91112427,14.59643066],[-60.91083972,14.59669197],[-60.91074209,14.59690978],[-60.91069417,14.59716959],[-60.91075377,14.59734272],[-60.91095313,14.59755414],[-60.91101318,14.59768119],[-60.91104583,14.59805558],[-60.91102651,14.59823433],[-60.91093888,14.59837632],[-60.91076445,14.59847235],[-60.91029155,14.59853498],[-60.91005953,14.59863772],[-60.90978052,14.59919637],[-60.90963953,14.59958277],[-60.90960872,14.59979936],[-60.90971131,14.60023583],[-60.9098809,14.60065211],[-60.90991901,14.60084131],[-60.90987718,14.60143823],[-60.91005718,14.60183292],[-60.91044327,14.60221861],[-60.91055078,14.60242922],[-60.91060164,14.60352848],[-60.91054508,14.60362195],[-60.91033729,14.60371316],[-60.90964257,14.60358224],[-60.90944292,14.60359762],[-60.90920514,14.60372019],[-60.90911091,14.60387206],[-60.9090556,14.60442187],[-60.9089109,14.60490672],[-60.9088626,14.60530388],[-60.9089029,14.60545876],[-60.90902806,14.60566682],[-60.9095222,14.60630378],[-60.90958652,14.60646882],[-60.90961446,14.60675281],[-60.90955765,14.60697098],[-60.90915617,14.6077219],[-60.9090445,14.60814832],[-60.90902476,14.60837133],[-60.90914421,14.60898687],[-60.90896283,14.60981658],[-60.9089047,14.60997781],[-60.90879763,14.61011329],[-60.90785961,14.61068591],[-60.90756689,14.61092545],[-60.90709649,14.61170106]]]]},"bbox":[-60.91496594,14.58134669,-60.88182717,14.61354527]},{"type":"Feature","id":"fr-quartier-97210-7fc5dbdbba89","properties":{"id":"fr-quartier-97210-7fc5dbdbba89","kind":"quartier","name":"Frégate-Dostaly-Perriolat","cityCode":"97210","cityName":"Le François","sourceType":"iris","sourceIds":["972100108"],"colorIndex":3,"center":[-60.891060263266525,14.590307970000001]},"geometry":{"type":"MultiPolygon","coordinates":[[[[-60.86102782,14.58052437],[-60.86335336,14.57932398],[-60.86365261,14.57908094],[-60.86383367,14.57877808],[-60.86403906,14.57903116],[-60.86416784,14.57904951],[-60.86482078,14.57859283],[-60.86552141,14.57848267],[-60.8662797,14.57806942],[-60.86689055,14.57793584],[-60.86733965,14.57793181],[-60.86800576,14.5772629],[-60.8684869,14.57701428],[-60.87022914,14.57645276],[-60.87094381,14.57652252],[-60.87139266,14.57635041],[-60.87180696,14.57581563],[-60.87188446,14.57537719],[-60.87229406,14.57513875],[-60.87284111,14.57449765],[-60.87321947,14.5742264],[-60.87378893,14.57434543],[-60.87610663,14.57656499],[-60.87722633,14.57638812],[-60.87731359,14.5762859],[-60.87731039,14.57477956],[-60.87741269,14.57417326],[-60.88019584,14.57390756],[-60.88093986,14.57391521],[-60.8814921,14.5739916],[-60.88166968,14.57463207],[-60.88437653,14.57448671],[-60.88519495,14.57428177],[-60.88508019,14.57289097],[-60.88481293,14.57134066],[-60.88454444,14.56855781],[-60.88642605,14.56874471],[-60.88757349,14.56896291],[-60.8914712,14.56885443],[-60.8913734,14.56830957],[-60.89116675,14.56818571],[-60.89111842,14.56770726],[-60.89082543,14.56729709],[-60.89061547,14.56674128],[-60.89055079,14.56612894],[-60.89111577,14.56574187],[-60.89092974,14.56491338],[-60.89081733,14.56463676],[-60.89149226,14.56458954],[-60.89166413,14.56427211],[-60.8920428,14.56415986],[-60.89203174,14.56444531],[-60.893143,14.56446616],[-60.89333779,14.56417695],[-60.89470578,14.56422632],[-60.89477944,14.5634056],[-60.89590011,14.5630208],[-60.89606399,14.5631542],[-60.8964737,14.56309373],[-60.89675279,14.56340528],[-60.89741516,14.5638016],[-60.89858744,14.56511878],[-60.89914496,14.56561536],[-60.89935149,14.56594794],[-60.89964114,14.56680989],[-60.90005031,14.56719941],[-60.9002475,14.56753914],[-60.90053965,14.56862791],[-60.90132848,14.5696832],[-60.90111448,14.56984574],[-60.90083942,14.56969507],[-60.89985612,14.56948293],[-60.89966246,14.5693592],[-60.8996405,14.56942496],[-60.89971297,14.56960905],[-60.89967792,14.56968554],[-60.899575,14.5696792],[-60.89935933,14.56952816],[-60.8992713,14.56951562],[-60.89936865,14.5698174],[-60.89937527,14.5699015],[-60.89931638,14.56994796],[-60.89922462,14.569939],[-60.89889785,14.56976257],[-60.89882087,14.56976007],[-60.89900591,14.5704015],[-60.89932002,14.57103324],[-60.89917814,14.57131842],[-60.89930942,14.57156357],[-60.89895223,14.57205193],[-60.89894839,14.57216395],[-60.89905842,14.57239898],[-60.89899419,14.57251948],[-60.89908225,14.572626],[-60.89935679,14.57283178],[-60.89963728,14.57289846],[-60.89978555,14.5749736],[-60.89958363,14.57483896],[-60.89928104,14.57475491],[-60.89889143,14.57435562],[-60.89831086,14.57384166],[-60.89822051,14.57368272],[-60.89814893,14.57340376],[-60.89806245,14.57322858],[-60.89776974,14.57317806],[-60.89767541,14.57324407],[-60.89765501,14.57334058],[-60.89767163,14.57374103],[-60.89752773,14.57414185],[-60.89754798,14.57435438],[-60.89749707,14.57453736],[-60.89726242,14.57491929],[-60.89677258,14.57540374],[-60.89568955,14.57533435],[-60.89547892,14.57523847],[-60.89547725,14.57531707],[-60.8956881,14.57548795],[-60.89564926,14.57557164],[-60.8951469,14.57571259],[-60.89502906,14.57581183],[-60.89482712,14.57587508],[-60.89460163,14.57578088],[-60.89406205,14.57544529],[-60.89375118,14.57535303],[-60.89343417,14.57551644],[-60.89328168,14.57555121],[-60.89310181,14.57553784],[-60.89231431,14.5753211],[-60.89216411,14.57521221],[-60.89210681,14.57548097],[-60.8921265,14.57584983],[-60.89196334,14.57612848],[-60.89191576,14.57635124],[-60.89199417,14.57688599],[-60.89198784,14.57716153],[-60.89195406,14.57729948],[-60.89182017,14.57752418],[-60.89198886,14.57812751],[-60.89183943,14.57813249],[-60.89145096,14.57829796],[-60.89124084,14.57834305],[-60.89095149,14.57852387],[-60.89078011,14.57849612],[-60.89021365,14.57825516],[-60.88996181,14.57819957],[-60.88993126,14.57809538],[-60.88957357,14.57824305],[-60.88967158,14.57866864],[-60.88962585,14.57918329],[-60.88901666,14.57972718],[-60.8889364,14.57987374],[-60.8888861,14.57989407],[-60.88885548,14.57999139],[-60.88886284,14.58019296],[-60.88904969,14.58044766],[-60.88925278,14.58113986],[-60.88975173,14.58165039],[-60.8900074,14.5823756],[-60.89016274,14.5826273],[-60.89012866,14.58308784],[-60.8901592,14.58319384],[-60.89034418,14.58345033],[-60.89050591,14.58381052],[-60.89058936,14.58391339],[-60.89103948,14.58419396],[-60.89186054,14.58449505],[-60.8923523,14.58488443],[-60.89297548,14.58579728],[-60.89324548,14.58579791],[-60.89360394,14.58625386],[-60.89499713,14.58776462],[-60.89513232,14.58808663],[-60.89594707,14.58827379],[-60.89636915,14.5884791],[-60.89666835,14.5885324],[-60.89666701,14.58857576],[-60.89719724,14.5890197],[-60.89734426,14.58926861],[-60.8973879,14.58985184],[-60.8972902,14.59046723],[-60.89733423,14.59061853],[-60.89765979,14.59112026],[-60.89770659,14.59127249],[-60.89767425,14.59135623],[-60.89721266,14.59179304],[-60.89713047,14.59184923],[-60.89658206,14.59195001],[-60.89641907,14.59230728],[-60.896168,14.59236466],[-60.89611191,14.59240843],[-60.89607198,14.59250927],[-60.89606634,14.59290682],[-60.89553304,14.59307821],[-60.89484811,14.5933865],[-60.89463849,14.59337828],[-60.89437198,14.59330178],[-60.89396862,14.59307856],[-60.89336111,14.59324657],[-60.89265581,14.59355015],[-60.89175345,14.59369561],[-60.89123186,14.59370807],[-60.89063099,14.59386077],[-60.89037674,14.59395968],[-60.89026366,14.5940436],[-60.88976113,14.5941005],[-60.88958754,14.59420646],[-60.88931011,14.59449672],[-60.88912238,14.59491792],[-60.88905142,14.59496336],[-60.88876805,14.59451532],[-60.88869343,14.59387488],[-60.88848059,14.59352326],[-60.88803942,14.5931786],[-60.88723312,14.59268968],[-60.88698999,14.59259531],[-60.8866555,14.59254529],[-60.88635824,14.59238628],[-60.88626357,14.59229235],[-60.88598882,14.59181727],[-60.88549754,14.59079354],[-60.88529004,14.59056305],[-60.88493474,14.59036194],[-60.88401794,14.58998044],[-60.88351724,14.58984668],[-60.88321136,14.58981409],[-60.88218096,14.5912207],[-60.88207008,14.59146277],[-60.88195368,14.59199123],[-60.88203994,14.592189],[-60.88194398,14.59232638],[-60.88240339,14.59250947],[-60.88182717,14.59318918],[-60.88199609,14.59337776],[-60.88230504,14.59357574],[-60.88403103,14.59453205],[-60.88463275,14.59497034],[-60.88486203,14.59525163],[-60.88492587,14.59527119],[-60.88497221,14.59537372],[-60.88502517,14.59585221],[-60.88550337,14.59562251],[-60.88594505,14.59591386],[-60.88630865,14.59621896],[-60.88619598,14.59703751],[-60.88668,14.59765636],[-60.88626878,14.59835384],[-60.88579084,14.59836035],[-60.88540718,14.59840657],[-60.88489009,14.59852929],[-60.88467777,14.59851201],[-60.88607357,14.60343941],[-60.88616491,14.60359204],[-60.8862823,14.60393106],[-60.88657111,14.60351892],[-60.88754845,14.60271723],[-60.8880146,14.60287687],[-60.88833926,14.60308313],[-60.88865241,14.60332813],[-60.8888087,14.60357804],[-60.88986943,14.60395541],[-60.8899123,14.60403351],[-60.8900726,14.60415514],[-60.89038257,14.6042483],[-60.89036999,14.6043024],[-60.89023587,14.60435451],[-60.8899993,14.60454303],[-60.88964547,14.60447657],[-60.88951198,14.6045594],[-60.88946071,14.6049737],[-60.88925941,14.6054535],[-60.88919156,14.6057565],[-60.88904516,14.60670578],[-60.8885287,14.60773303],[-60.88848486,14.60795131],[-60.88853271,14.6080909],[-60.88819283,14.60821433],[-60.88772628,14.60819293],[-60.88743063,14.6082517],[-60.88723513,14.60841439],[-60.88693916,14.60908942],[-60.88669978,14.60937821],[-60.8854384,14.61018545],[-60.88486947,14.61038902],[-60.88414141,14.61044567],[-60.88380322,14.6103929],[-60.88195616,14.60985745],[-60.88168362,14.60982787],[-60.88096256,14.60983307],[-60.88062345,14.60987516],[-60.880089,14.61006368],[-60.87979896,14.61011797],[-60.87962115,14.61037117],[-60.87898768,14.61062836],[-60.87868795,14.61082171],[-60.87836121,14.61054224],[-60.87785643,14.61034608],[-60.87749371,14.61043223],[-60.87725916,14.61031172],[-60.87648013,14.61036246],[-60.87637127,14.61029641],[-60.87594008,14.61026447],[-60.87553015,14.6099508],[-60.87470421,14.60976526],[-60.87481388,14.60955482],[-60.87515864,14.60940615],[-60.87537986,14.60917504],[-60.87546645,14.60885505],[-60.87540981,14.60808646],[-60.87571878,14.60789591],[-60.8763392,14.6078383],[-60.87646673,14.60769941],[-60.87643776,14.60762414],[-60.87625317,14.60781041],[-60.8757724,14.60782049],[-60.87555226,14.6077471],[-60.87512769,14.60789594],[-60.87454639,14.60764848],[-60.87412005,14.60769248],[-60.8734048,14.60747994],[-60.87282872,14.60746203],[-60.87227722,14.60710821],[-60.87219399,14.60717613],[-60.87191628,14.60691335],[-60.87191087,14.60680035],[-60.87168516,14.60653444],[-60.87143731,14.60635146],[-60.8706068,14.60625623],[-60.87038934,14.60609701],[-60.87027532,14.60618181],[-60.87016237,14.60615458],[-60.87004934,14.60632975],[-60.86988223,14.60595232],[-60.86926654,14.60513526],[-60.86910799,14.60473713],[-60.86920268,14.60454011],[-60.86918893,14.60288548],[-60.86906987,14.60224103],[-60.86893089,14.60202651],[-60.86812451,14.60164414],[-60.86796264,14.60139779],[-60.86784132,14.60098825],[-60.8681661,14.60060267],[-60.86820785,14.60021721],[-60.86845009,14.60011551],[-60.86876457,14.6001229],[-60.86917447,14.60024411],[-60.86923568,14.60034316],[-60.86915859,14.60054396],[-60.86919644,14.60065997],[-60.86951992,14.6010831],[-60.87080779,14.60147528],[-60.87143794,14.60136808],[-60.87167729,14.60166303],[-60.87185035,14.60171069],[-60.87200313,14.60164793],[-60.87216475,14.60143796],[-60.87194665,14.60124893],[-60.87190062,14.60101809],[-60.87167155,14.600716],[-60.87206519,14.60030845],[-60.87205405,14.60001919],[-60.87226536,14.59946721],[-60.87209631,14.59938796],[-60.87210181,14.59929855],[-60.87235499,14.59912014],[-60.8724587,14.59914187],[-60.87257453,14.59896582],[-60.87249654,14.59877716],[-60.87261118,14.5986282],[-60.87270908,14.59771013],[-60.87267197,14.59732395],[-60.87279449,14.59703049],[-60.87249413,14.59671239],[-60.87238699,14.59646744],[-60.8727168,14.59632858],[-60.87270504,14.59620016],[-60.87245052,14.59622947],[-60.87201144,14.5959598],[-60.87168204,14.59595951],[-60.87147062,14.59575246],[-60.87142119,14.59558575],[-60.87107589,14.5954064],[-60.87061716,14.59544287],[-60.87041634,14.59538773],[-60.87037958,14.59525456],[-60.87058616,14.59509651],[-60.87068384,14.59487783],[-60.87055973,14.5948541],[-60.87035003,14.59495068],[-60.87069345,14.5946502],[-60.87061532,14.59428443],[-60.87041629,14.59404316],[-60.87019907,14.59395624],[-60.86983693,14.59408125],[-60.86957826,14.59386654],[-60.86905016,14.59359154],[-60.86862386,14.59353795],[-60.86855794,14.59344608],[-60.8683191,14.59348457],[-60.86815666,14.59339543],[-60.86809118,14.59287165],[-60.86846126,14.59240425],[-60.86874618,14.59230113],[-60.86881889,14.59216987],[-60.86877957,14.59153156],[-60.86855029,14.59115628],[-60.86857459,14.59104174],[-60.86833821,14.59072965],[-60.86825409,14.59031142],[-60.8685259,14.59031661],[-60.86853347,14.59020463],[-60.86789507,14.59030452],[-60.86770797,14.59027119],[-60.86753626,14.59037353],[-60.86736189,14.59036652],[-60.86722509,14.59021527],[-60.86653036,14.5899017],[-60.86639082,14.58965103],[-60.86602723,14.58954108],[-60.86578293,14.58956957],[-60.86535938,14.58932714],[-60.86508624,14.58888278],[-60.86509566,14.58857926],[-60.86431953,14.58872216],[-60.86376229,14.58868092],[-60.86311501,14.58931655],[-60.86301834,14.58952621],[-60.86301115,14.5897909],[-60.86279694,14.58987387],[-60.86242106,14.58988399],[-60.86231233,14.58999775],[-60.86216191,14.59000902],[-60.86173643,14.58958314],[-60.86153199,14.58961561],[-60.86147621,14.58953016],[-60.86140642,14.58897471],[-60.86123937,14.58888282],[-60.86120327,14.58877767],[-60.86116109,14.58824596],[-60.86035984,14.58839494],[-60.86015881,14.58845907],[-60.85995947,14.58873193],[-60.85952982,14.58873793],[-60.85944257,14.58893321],[-60.85976965,14.58936362],[-60.86026327,14.58936272],[-60.86073237,14.58997966],[-60.86125856,14.59025827],[-60.86122452,14.59032392],[-60.8607443,14.59018579],[-60.8600322,14.59013499],[-60.85955082,14.58982877],[-60.85922886,14.58982853],[-60.85848473,14.58963556],[-60.85831851,14.58974518],[-60.85827111,14.58956132],[-60.85784074,14.5896414],[-60.85767183,14.58974196],[-60.85761642,14.58990681],[-60.85694859,14.59026664],[-60.85673066,14.59054295],[-60.85636003,14.59173591],[-60.85616595,14.59203954],[-60.85579505,14.59220601],[-60.85525613,14.59228419],[-60.85521375,14.59244464],[-60.8549509,14.59247204],[-60.85483286,14.59230108],[-60.85414598,14.5923282],[-60.853524,14.59245712],[-60.85314219,14.59269577],[-60.85294096,14.59316198],[-60.85289643,14.59373536],[-60.8526194,14.59417196],[-60.85267335,14.59434956],[-60.85210619,14.5946597],[-60.85202747,14.59474029],[-60.85203913,14.59487775],[-60.85193489,14.59481444],[-60.85188362,14.59502993],[-60.85173727,14.59509997],[-60.85144965,14.59547954],[-60.8511718,14.59552306],[-60.85108593,14.59538402],[-60.85119744,14.59517542],[-60.85118078,14.59498009],[-60.85106249,14.59483532],[-60.85101086,14.59432341],[-60.85141359,14.59412923],[-60.85197423,14.59324706],[-60.85193167,14.59256536],[-60.85176248,14.5923108],[-60.85136346,14.59202882],[-60.85081292,14.59187014],[-60.85080986,14.59170746],[-60.85051167,14.59155201],[-60.85067672,14.59099059],[-60.85104123,14.59071744],[-60.85119406,14.59045771],[-60.85110032,14.58988668],[-60.850685,14.58956389],[-60.85025436,14.58967197],[-60.84964944,14.58995464],[-60.84915746,14.58988144],[-60.84915698,14.58964469],[-60.84930577,14.58932348],[-60.8494338,14.58922978],[-60.84943115,14.58912042],[-60.84935791,14.58892276],[-60.84933881,14.58888283],[-60.84942523,14.58887007],[-60.84954454,14.5885269],[-60.84908396,14.58827868],[-60.84893314,14.58833151],[-60.84877019,14.58819989],[-60.84828179,14.58814118],[-60.84821157,14.58801493],[-60.84836768,14.5877995],[-60.84878078,14.58777801],[-60.84924275,14.58759703],[-60.84970208,14.5876871],[-60.84992292,14.58749396],[-60.84999534,14.58720276],[-60.85030502,14.58712971],[-60.8504483,14.58699278],[-60.850546,14.58658255],[-60.85052859,14.58627336],[-60.85060122,14.58615114],[-60.85055619,14.58601066],[-60.85045522,14.58599347],[-60.85048113,14.58552293],[-60.85031185,14.58537409],[-60.85011708,14.58546175],[-60.85001591,14.5856569],[-60.84999419,14.58541002],[-60.85590454,14.58137648],[-60.85630541,14.58117866],[-60.85691005,14.58101794],[-60.85834555,14.5809037],[-60.86102782,14.58052437]]],[[[-60.86321197,14.60723677],[-60.86311439,14.60715545],[-60.86293551,14.60665412],[-60.86289349,14.60620103],[-60.86296198,14.6058357],[-60.86331886,14.60529771],[-60.86390644,14.6051793],[-60.86433789,14.60527904],[-60.86468142,14.60516291],[-60.86473071,14.60524739],[-60.86465195,14.60533161],[-60.86468142,14.60545115],[-60.86508467,14.60568436],[-60.86428504,14.60690865],[-60.86378957,14.60719236],[-60.86321197,14.60723677]]],[[[-60.86144739,14.6089284],[-60.86110089,14.60973484],[-60.86059397,14.60995428],[-60.86026465,14.60994494],[-60.85920623,14.61038702],[-60.85888634,14.61036149],[-60.85842814,14.61062746],[-60.85819722,14.61090094],[-60.85785621,14.61113997],[-60.85768205,14.6113968],[-60.85782069,14.61202788],[-60.8578272,14.61240926],[-60.85762939,14.61290442],[-60.85750208,14.61301891],[-60.85731234,14.61306415],[-60.8567387,14.61269834],[-60.85588657,14.61263177],[-60.85553724,14.61305777],[-60.85509472,14.61323713],[-60.85477618,14.61345467],[-60.85434334,14.61359346],[-60.8541756,14.61357023],[-60.85385103,14.61373983],[-60.85342021,14.61376568],[-60.85301627,14.61436827],[-60.85239717,14.61467069],[-60.85209631,14.61450076],[-60.85157872,14.61438394],[-60.85135038,14.61410353],[-60.85139458,14.61394852],[-60.85181345,14.61362437],[-60.85222152,14.61288357],[-60.85254186,14.61248081],[-60.85253395,14.6122449],[-60.85209168,14.61144385],[-60.85187091,14.61124483],[-60.85084935,14.61123452],[-60.85068721,14.61111284],[-60.85022076,14.61098656],[-60.8501256,14.61084833],[-60.84980408,14.61070441],[-60.84985208,14.60996661],[-60.85012828,14.60980923],[-60.85038083,14.60979348],[-60.85088017,14.60997248],[-60.85132755,14.61024678],[-60.85157486,14.61029333],[-60.85211435,14.61025583],[-60.85242258,14.61033548],[-60.85279353,14.61016812],[-60.85301596,14.61019637],[-60.85327868,14.61047077],[-60.85343979,14.61117615],[-60.85402464,14.61143726],[-60.85453964,14.61143748],[-60.85511599,14.6110452],[-60.85527783,14.61100603],[-60.8561044,14.61131633],[-60.85647597,14.61137125],[-60.85705836,14.61092933],[-60.85748631,14.61005045],[-60.85760445,14.6095419],[-60.85769896,14.60946054],[-60.85829155,14.60940093],[-60.85865361,14.60948016],[-60.85980044,14.60929822],[-60.86051068,14.60887643],[-60.86091559,14.60884219],[-60.86113148,14.60897158],[-60.8618606,14.60822828],[-60.8619744,14.60816698],[-60.86222756,14.60818375],[-60.86204862,14.60855259],[-60.8616655,14.60873251],[-60.86144739,14.6089284]]],[[[-60.84817835,14.61518298],[-60.84827593,14.61507274],[-60.84897765,14.61476747],[-60.84922811,14.61458545],[-60.84934808,14.61455855],[-60.84937347,14.61461932],[-60.8489803,14.61487683],[-60.84850892,14.61535139],[-60.84817835,14.61518298]]],[[[-60.8638273,14.61941933],[-60.86252247,14.62000374],[-60.86152484,14.62029639],[-60.86083864,14.62062804],[-60.86049933,14.62088155],[-60.86003929,14.6210481],[-60.85961215,14.62174627],[-60.8592704,14.62196361],[-60.85861,14.62202531],[-60.85834265,14.62213038],[-60.85825877,14.62207178],[-60.85831633,14.62120757],[-60.85838851,14.62103745],[-60.85910334,14.62062475],[-60.85979471,14.62052719],[-60.86041336,14.61998439],[-60.86066012,14.61941829],[-60.8604484,14.61885792],[-60.86069379,14.61862433],[-60.86118658,14.61852404],[-60.8618123,14.61868882],[-60.86263155,14.61832134],[-60.86314123,14.61839378],[-60.86378873,14.61822532],[-60.86431467,14.61844068],[-60.86462762,14.61870559],[-60.8647641,14.61898606],[-60.86463316,14.6189966],[-60.86441056,14.61927197],[-60.8638273,14.61941933]]],[[[-60.8490073,14.62582773],[-60.84857791,14.62646712],[-60.8483339,14.6271281],[-60.84721022,14.62787583],[-60.84640591,14.62822893],[-60.84658223,14.62794321],[-60.84709722,14.62747269],[-60.84719353,14.6273028],[-60.84718539,14.6269955],[-60.84694759,14.6266391],[-60.8469699,14.62615949],[-60.84686352,14.62593442],[-60.8465335,14.62580306],[-60.84621613,14.62570796],[-60.84583101,14.62570801],[-60.84567852,14.62554847],[-60.84565567,14.62541724],[-60.84606777,14.62541021],[-60.8465838,14.62521258],[-60.84664678,14.62513003],[-60.84664685,14.62483817],[-60.84635942,14.62443161],[-60.84640851,14.62415556],[-60.84657234,14.62400889],[-60.84688087,14.62386897],[-60.847207,14.62420812],[-60.84742483,14.62423363],[-60.84792687,14.62404309],[-60.84804214,14.62383181],[-60.84836294,14.62357544],[-60.84875102,14.62355734],[-60.84932424,14.62396654],[-60.84958046,14.62452913],[-60.85015361,14.62485068],[-60.85060264,14.62486296],[-60.85073364,14.62494278],[-60.85017167,14.62537855],[-60.84961811,14.62552253],[-60.8490073,14.62582773]]],[[[-60.85414498,14.62723231],[-60.85399654,14.62760955],[-60.85403416,14.62774996],[-60.85365697,14.6285561],[-60.85322268,14.62922257],[-60.85325277,14.62937284],[-60.85309494,14.6294753],[-60.85290861,14.6294546],[-60.85225946,14.62902574],[-60.85217125,14.62883969],[-60.85230535,14.62850569],[-60.85214592,14.62810483],[-60.85217747,14.62781868],[-60.85195312,14.62731873],[-60.85217411,14.62692409],[-60.85304879,14.62620476],[-60.85355109,14.62627355],[-60.85395947,14.62617249],[-60.85432067,14.62653365],[-60.85456832,14.62664165],[-60.85432646,14.62679664],[-60.85413655,14.62704971],[-60.85414498,14.62723231]]]]},"bbox":[-60.90132848,14.5630208,-60.84565567,14.6294753]},{"type":"Feature","id":"fr-quartier-97210-21cee201b575","properties":{"id":"fr-quartier-97210-21cee201b575","kind":"quartier","name":"Manzo-Réunion-Morne Gamelle","cityCode":"97210","cityName":"Le François","sourceType":"iris","sourceIds":["972100105"],"colorIndex":4,"center":[-60.923388237844634,14.59691761]},"geometry":{"type":"MultiPolygon","coordinates":[[[[-60.92345019,14.57945839],[-60.92789395,14.57982135],[-60.92827615,14.58002805],[-60.92837208,14.57969095],[-60.92874895,14.5796735],[-60.92869992,14.5803526],[-60.92897426,14.58048426],[-60.93014127,14.58011146],[-60.93015498,14.58043147],[-60.9308709,14.58126735],[-60.93056813,14.5818945],[-60.93054366,14.58352083],[-60.92997074,14.58376425],[-60.93003578,14.58415249],[-60.93046877,14.58408765],[-60.93047529,14.5844826],[-60.93170414,14.58404709],[-60.93219131,14.58593097],[-60.93338555,14.58582407],[-60.93359004,14.58697982],[-60.93428284,14.58671577],[-60.93438429,14.58727963],[-60.93545528,14.58715717],[-60.93594477,14.58809948],[-60.93502354,14.58818169],[-60.93480087,14.58827822],[-60.93566292,14.58966751],[-60.93541499,14.589687],[-60.93506435,14.58997397],[-60.93524487,14.59021774],[-60.93527758,14.59069064],[-60.93522837,14.59139052],[-60.93509888,14.591843],[-60.93544988,14.59261239],[-60.93537599,14.593172],[-60.93496787,14.59365274],[-60.93517668,14.59444527],[-60.93493834,14.59492841],[-60.93500211,14.59535369],[-60.93498788,14.5965798],[-60.93606012,14.59692544],[-60.93667394,14.59727425],[-60.93691659,14.59732429],[-60.9375323,14.59727099],[-60.93779161,14.59742419],[-60.93779023,14.59757238],[-60.93721243,14.59933208],[-60.93730946,14.60007302],[-60.93727245,14.60035914],[-60.9373516,14.60042942],[-60.93726842,14.60059315],[-60.93757551,14.60129618],[-60.93756662,14.60165214],[-60.93763571,14.60180637],[-60.93809304,14.60192156],[-60.93813235,14.60218396],[-60.93864174,14.60238907],[-60.93872002,14.60255242],[-60.93847754,14.60258281],[-60.93817608,14.6025693],[-60.93783365,14.60247229],[-60.93750768,14.60230043],[-60.93717928,14.6019921],[-60.9366494,14.60119854],[-60.9364529,14.60097631],[-60.93615991,14.60075142],[-60.93569661,14.60048075],[-60.93564692,14.60053543],[-60.93540159,14.60057302],[-60.93523391,14.60054352],[-60.93514944,14.6006467],[-60.93513326,14.60068993],[-60.93554313,14.60071976],[-60.93579467,14.60081145],[-60.93592995,14.60093283],[-60.93648008,14.60164344],[-60.93658359,14.60188743],[-60.93676755,14.60305656],[-60.93689778,14.60342097],[-60.9370728,14.60365837],[-60.93741484,14.60389815],[-60.93767635,14.60401613],[-60.93718743,14.60698839],[-60.93728938,14.60700285],[-60.93739771,14.6071276],[-60.93752729,14.60736279],[-60.93766637,14.60777337],[-60.9378427,14.60906533],[-60.93806981,14.60909083],[-60.93820748,14.6090559],[-60.938815,14.60878928],[-60.9406094,14.61449987],[-60.93818262,14.61540284],[-60.93845703,14.61672548],[-60.93761343,14.61692857],[-60.93714359,14.61735545],[-60.93653859,14.61764648],[-60.93603861,14.61752458],[-60.93543268,14.61751741],[-60.93495989,14.61736593],[-60.93466589,14.61734706],[-60.93431566,14.61758522],[-60.93382325,14.61784382],[-60.93210085,14.6186391],[-60.93174191,14.61871634],[-60.92981893,14.618533],[-60.92901657,14.61839484],[-60.92847964,14.61845242],[-60.92829799,14.61852581],[-60.92811312,14.61834976],[-60.92768959,14.61779387],[-60.92753964,14.61765338],[-60.92638937,14.61730881],[-60.92492188,14.61704544],[-60.9210903,14.61496005],[-60.92081717,14.61469556],[-60.91960925,14.61288747],[-60.91938459,14.6128963],[-60.91778977,14.61246278],[-60.91731105,14.61244947],[-60.9161376,14.61269832],[-60.91533666,14.61270833],[-60.91511746,14.61272987],[-60.91490707,14.61280027],[-60.91141119,14.61527564],[-60.91113702,14.61335569],[-60.91112078,14.61301126],[-60.91091534,14.61216543],[-60.91094586,14.61198046],[-60.91089288,14.61189143],[-60.91087499,14.6117223],[-60.91089646,14.61121736],[-60.91070916,14.61080905],[-60.91050676,14.61081989],[-60.91037919,14.61096423],[-60.91017375,14.61110064],[-60.90923021,14.6115693],[-60.90937119,14.61196996],[-60.90709649,14.61170106],[-60.90756689,14.61092545],[-60.90785961,14.61068591],[-60.90879763,14.61011329],[-60.9089047,14.60997781],[-60.90896283,14.60981658],[-60.90914421,14.60898687],[-60.90902476,14.60837133],[-60.9090445,14.60814832],[-60.90915617,14.6077219],[-60.90955765,14.60697098],[-60.90961446,14.60675281],[-60.90958652,14.60646882],[-60.9095222,14.60630378],[-60.90902806,14.60566682],[-60.9089029,14.60545876],[-60.9088626,14.60530388],[-60.9089109,14.60490672],[-60.9090556,14.60442187],[-60.90911091,14.60387206],[-60.90920514,14.60372019],[-60.90944292,14.60359762],[-60.90964257,14.60358224],[-60.91033729,14.60371316],[-60.91054508,14.60362195],[-60.91060164,14.60352848],[-60.91055078,14.60242922],[-60.91044327,14.60221861],[-60.91005718,14.60183292],[-60.90987718,14.60143823],[-60.90991901,14.60084131],[-60.9098809,14.60065211],[-60.90971131,14.60023583],[-60.90960872,14.59979936],[-60.90963953,14.59958277],[-60.90978052,14.59919637],[-60.91005953,14.59863772],[-60.91029155,14.59853498],[-60.91076445,14.59847235],[-60.91093888,14.59837632],[-60.91102651,14.59823433],[-60.91104583,14.59805558],[-60.91101318,14.59768119],[-60.91095313,14.59755414],[-60.91075377,14.59734272],[-60.91069417,14.59716959],[-60.91074209,14.59690978],[-60.91083972,14.59669197],[-60.91112427,14.59643066],[-60.91135723,14.59632612],[-60.91163424,14.59627348],[-60.91210182,14.59628308],[-60.91240084,14.59596316],[-60.91262249,14.59587749],[-60.91277547,14.59589061],[-60.91312389,14.59603921],[-60.91327929,14.59599271],[-60.91345869,14.5952705],[-60.91358323,14.59495354],[-60.91389041,14.59465357],[-60.91398305,14.59447277],[-60.91394798,14.5939601],[-60.91412711,14.5934629],[-60.91440806,14.5931889],[-60.91496594,14.59287038],[-60.91479517,14.59208632],[-60.91480764,14.59194456],[-60.91492385,14.59172421],[-60.9149625,14.59156099],[-60.91488618,14.59129013],[-60.91449022,14.59057453],[-60.91446181,14.59043873],[-60.91453028,14.59016284],[-60.91451563,14.58984734],[-60.91438378,14.58975851],[-60.91344024,14.58935248],[-60.91294912,14.58918453],[-60.9123064,14.5887586],[-60.91217937,14.58855234],[-60.91209966,14.58785403],[-60.91216585,14.58772269],[-60.91214363,14.58702851],[-60.9120037,14.5867146],[-60.91206257,14.58657235],[-60.91226953,14.58637089],[-60.91244863,14.58626947],[-60.9134103,14.58593198],[-60.91435116,14.58583285],[-60.91603197,14.58558761],[-60.91588438,14.58519954],[-60.91540326,14.58426632],[-60.91548118,14.58416942],[-60.91544272,14.58401637],[-60.91576067,14.58375354],[-60.91602857,14.58368093],[-60.91614082,14.58358524],[-60.91616302,14.58349327],[-60.91604675,14.58303138],[-60.91619277,14.58289533],[-60.91633178,14.58291374],[-60.9167938,14.58282027],[-60.91689017,14.58283378],[-60.91706451,14.58294196],[-60.91723719,14.58293175],[-60.91758063,14.58262126],[-60.91793236,14.58251505],[-60.91805555,14.58243934],[-60.9181139,14.58225281],[-60.91807007,14.58188103],[-60.91810342,14.58168976],[-60.91820115,14.58155779],[-60.91877214,14.58142101],[-60.91906175,14.58140823],[-60.91923494,14.5814414],[-60.91972919,14.58167081],[-60.9198975,14.58281721],[-60.92042242,14.58254627],[-60.92091742,14.58249827],[-60.92117868,14.58234246],[-60.92064593,14.58137173],[-60.92079212,14.58131611],[-60.92107106,14.58145142],[-60.92131599,14.5814536],[-60.92142714,14.58137598],[-60.92147458,14.58106555],[-60.92155049,14.5809858],[-60.9217498,14.58110324],[-60.92185346,14.58103187],[-60.92189773,14.58086238],[-60.92194343,14.58083749],[-60.92232159,14.58088061],[-60.92252284,14.58079113],[-60.92273505,14.58161171],[-60.92283942,14.58186024],[-60.92280162,14.58193309],[-60.9228833,14.5821281],[-60.92286448,14.58215685],[-60.92359758,14.5820468],[-60.92358262,14.58176293],[-60.92367755,14.58143485],[-60.92374583,14.58137581],[-60.92382668,14.58136298],[-60.92413988,14.58140643],[-60.92436959,14.58135063],[-60.92455991,14.58113997],[-60.92459129,14.58105892],[-60.92336172,14.58117631],[-60.92346958,14.58026099],[-60.92341187,14.57988456],[-60.92345019,14.57945839]]]]},"bbox":[-60.9406094,14.57945839,-60.90709649,14.61871634]},{"type":"Feature","id":"fr-quartier-97210-a5d12024a586","properties":{"id":"fr-quartier-97210-a5d12024a586","kind":"quartier","name":"Morne Acajou-La Guillot","cityCode":"97210","cityName":"Le François","sourceType":"iris","sourceIds":["972100106"],"colorIndex":5,"center":[-60.92318653785287,14.58142793]},"geometry":{"type":"MultiPolygon","coordinates":[[[[-60.90111448,14.56984574],[-60.90106583,14.56988868],[-60.90114785,14.5705355],[-60.90291969,14.57036526],[-60.90366169,14.56970323],[-60.90443828,14.56970026],[-60.90437618,14.56979097],[-60.90456282,14.56977457],[-60.90524161,14.57049994],[-60.90528159,14.57068735],[-60.90609857,14.57151606],[-60.90621734,14.57161381],[-60.90599821,14.57202481],[-60.9065049,14.57230766],[-60.906695,14.57251449],[-60.90692541,14.57385663],[-60.90789992,14.5737262],[-60.90954649,14.5737572],[-60.90960118,14.57425468],[-60.90940714,14.57515296],[-60.90976664,14.57550046],[-60.91096609,14.5763118],[-60.91064165,14.57706704],[-60.91114737,14.57775019],[-60.91138051,14.57752636],[-60.91257374,14.57732467],[-60.9127297,14.57692215],[-60.91369189,14.57770696],[-60.91399425,14.57781719],[-60.9140734,14.57798416],[-60.91444551,14.57817634],[-60.91450826,14.57831154],[-60.91483244,14.57846986],[-60.91489185,14.57895926],[-60.91523631,14.57913131],[-60.91534162,14.57927954],[-60.91573378,14.57931286],[-60.91589459,14.57918327],[-60.91621333,14.57913099],[-60.91641881,14.57888794],[-60.9166588,14.57882321],[-60.91671707,14.57844782],[-60.91708122,14.57850077],[-60.91743246,14.57874155],[-60.91753092,14.57971745],[-60.91963732,14.57989345],[-60.91968636,14.57990744],[-60.91962887,14.58020061],[-60.92071157,14.58030874],[-60.92069721,14.5805544],[-60.92097784,14.5806075],[-60.92119568,14.58053083],[-60.92098715,14.58001119],[-60.92190436,14.5800564],[-60.9219918,14.5793406],[-60.92345019,14.57945839],[-60.92341187,14.57988456],[-60.92346958,14.58026099],[-60.92336172,14.58117631],[-60.92459129,14.58105892],[-60.92455991,14.58113997],[-60.92436959,14.58135063],[-60.92413988,14.58140643],[-60.92382668,14.58136298],[-60.92374583,14.58137581],[-60.92367755,14.58143485],[-60.92358262,14.58176293],[-60.92359758,14.5820468],[-60.92286448,14.58215685],[-60.9228833,14.5821281],[-60.92280162,14.58193309],[-60.92283942,14.58186024],[-60.92273505,14.58161171],[-60.92252284,14.58079113],[-60.92232159,14.58088061],[-60.92194343,14.58083749],[-60.92189773,14.58086238],[-60.92185346,14.58103187],[-60.9217498,14.58110324],[-60.92155049,14.5809858],[-60.92147458,14.58106555],[-60.92142714,14.58137598],[-60.92131599,14.5814536],[-60.92107106,14.58145142],[-60.92079212,14.58131611],[-60.92064593,14.58137173],[-60.92117868,14.58234246],[-60.92091742,14.58249827],[-60.92042242,14.58254627],[-60.9198975,14.58281721],[-60.91972919,14.58167081],[-60.91923494,14.5814414],[-60.91906175,14.58140823],[-60.91877214,14.58142101],[-60.91820115,14.58155779],[-60.91810342,14.58168976],[-60.91807007,14.58188103],[-60.9181139,14.58225281],[-60.91805555,14.58243934],[-60.91793236,14.58251505],[-60.91758063,14.58262126],[-60.91723719,14.58293175],[-60.91706451,14.58294196],[-60.91689017,14.58283378],[-60.9167938,14.58282027],[-60.91633178,14.58291374],[-60.91619277,14.58289533],[-60.91604675,14.58303138],[-60.91616302,14.58349327],[-60.91614082,14.58358524],[-60.91602857,14.58368093],[-60.91576067,14.58375354],[-60.91544272,14.58401637],[-60.91548118,14.58416942],[-60.91540326,14.58426632],[-60.91588438,14.58519954],[-60.91603197,14.58558761],[-60.91435116,14.58583285],[-60.9134103,14.58593198],[-60.91244863,14.58626947],[-60.91226953,14.58637089],[-60.91206257,14.58657235],[-60.9120037,14.5867146],[-60.91214363,14.58702851],[-60.91216585,14.58772269],[-60.91209966,14.58785403],[-60.91217937,14.58855234],[-60.91061038,14.58864584],[-60.90975856,14.58894454],[-60.90890257,14.58899561],[-60.90802458,14.58921546],[-60.90790345,14.58887642],[-60.90763813,14.58867434],[-60.90732722,14.58828932],[-60.9071146,14.58781301],[-60.90699893,14.58738727],[-60.90703434,14.58727283],[-60.90722977,14.58711373],[-60.90742678,14.58678748],[-60.90748667,14.58653681],[-60.90749237,14.58632632],[-60.90743077,14.58607094],[-60.90725905,14.58578296],[-60.90700221,14.58517523],[-60.90690349,14.58482102],[-60.90691824,14.5847326],[-60.90680581,14.58455358],[-60.9068203,14.58449317],[-60.9069584,14.58441037],[-60.90692738,14.58425647],[-60.90666795,14.58382493],[-60.90673183,14.58374146],[-60.90661147,14.58341959],[-60.90665122,14.58333682],[-60.90682478,14.58342964],[-60.90701413,14.58332381],[-60.90701678,14.5832407],[-60.90691433,14.58308435],[-60.90685209,14.58279825],[-60.9068412,14.58247737],[-60.90690784,14.58229814],[-60.90675373,14.58191543],[-60.9066027,14.5817948],[-60.90651347,14.58161508],[-60.90647391,14.58138249],[-60.90641116,14.58134669],[-60.90629467,14.58140077],[-60.90622638,14.58155739],[-60.90628967,14.58183175],[-60.90645102,14.58213591],[-60.90635707,14.58265194],[-60.90613226,14.58307373],[-60.90587736,14.58314373],[-60.90576873,14.58325029],[-60.90589894,14.5835117],[-60.90589892,14.583612],[-60.90599533,14.5837195],[-60.90604774,14.58386726],[-60.90604876,14.58444649],[-60.90599459,14.58458245],[-60.9058652,14.58472497],[-60.90569812,14.58502618],[-60.90545066,14.58529144],[-60.90541317,14.58542936],[-60.90557065,14.58614282],[-60.90560972,14.5865245],[-60.90549163,14.58694363],[-60.90567404,14.5872787],[-60.90564158,14.58796336],[-60.90573727,14.58824524],[-60.90553283,14.58906209],[-60.90549381,14.58896957],[-60.90540917,14.58889291],[-60.90513914,14.58889501],[-60.9050876,14.58885027],[-60.9049687,14.58866847],[-60.90484439,14.58837187],[-60.90478636,14.58832617],[-60.90426576,14.58823566],[-60.90402775,14.58808984],[-60.90341169,14.58759455],[-60.90287057,14.5873195],[-60.90261379,14.58709852],[-60.90234335,14.5869479],[-60.90209951,14.58653637],[-60.90185944,14.58631463],[-60.90175693,14.58626401],[-60.90157157,14.58624156],[-60.90131685,14.58629258],[-60.90114371,14.58644916],[-60.90096373,14.58674032],[-60.90093496,14.58674096],[-60.90089491,14.58665928],[-60.90088952,14.58644507],[-60.90092004,14.5862592],[-60.90105971,14.58591346],[-60.90105292,14.58584744],[-60.90101778,14.58583447],[-60.90054458,14.58642119],[-60.90044398,14.58646185],[-60.90009671,14.58629336],[-60.89951484,14.58610831],[-60.89894187,14.5858655],[-60.89854937,14.5857698],[-60.89841875,14.58594302],[-60.89791047,14.58738966],[-60.89758076,14.58781411],[-60.89737251,14.58824868],[-60.89715719,14.58835156],[-60.89672463,14.58846785],[-60.89666835,14.5885324],[-60.89636915,14.5884791],[-60.89594707,14.58827379],[-60.89513232,14.58808663],[-60.89499713,14.58776462],[-60.89360394,14.58625386],[-60.89324548,14.58579791],[-60.89297548,14.58579728],[-60.8923523,14.58488443],[-60.89186054,14.58449505],[-60.89103948,14.58419396],[-60.89058936,14.58391339],[-60.89050591,14.58381052],[-60.89034418,14.58345033],[-60.8901592,14.58319384],[-60.89012866,14.58308784],[-60.89016274,14.5826273],[-60.8900074,14.5823756],[-60.88975173,14.58165039],[-60.88925278,14.58113986],[-60.88904969,14.58044766],[-60.88886284,14.58019296],[-60.88885548,14.57999139],[-60.8888861,14.57989407],[-60.8889364,14.57987374],[-60.88901666,14.57972718],[-60.88962585,14.57918329],[-60.88967158,14.57866864],[-60.88957357,14.57824305],[-60.88993126,14.57809538],[-60.88996181,14.57819957],[-60.89021365,14.57825516],[-60.89078011,14.57849612],[-60.89095149,14.57852387],[-60.89124084,14.57834305],[-60.89145096,14.57829796],[-60.89183943,14.57813249],[-60.89198886,14.57812751],[-60.89182017,14.57752418],[-60.89195406,14.57729948],[-60.89198784,14.57716153],[-60.89199417,14.57688599],[-60.89191576,14.57635124],[-60.89196334,14.57612848],[-60.8921265,14.57584983],[-60.89210681,14.57548097],[-60.89216411,14.57521221],[-60.89231431,14.5753211],[-60.89310181,14.57553784],[-60.89328168,14.57555121],[-60.89343417,14.57551644],[-60.89375118,14.57535303],[-60.89406205,14.57544529],[-60.89460163,14.57578088],[-60.89482712,14.57587508],[-60.89502906,14.57581183],[-60.8951469,14.57571259],[-60.89564926,14.57557164],[-60.8956881,14.57548795],[-60.89547725,14.57531707],[-60.89547892,14.57523847],[-60.89568955,14.57533435],[-60.89677258,14.57540374],[-60.89726242,14.57491929],[-60.89749707,14.57453736],[-60.89754798,14.57435438],[-60.89752773,14.57414185],[-60.89767163,14.57374103],[-60.89765501,14.57334058],[-60.89767541,14.57324407],[-60.89776974,14.57317806],[-60.89806245,14.57322858],[-60.89814893,14.57340376],[-60.89822051,14.57368272],[-60.89831086,14.57384166],[-60.89889143,14.57435562],[-60.89928104,14.57475491],[-60.89958363,14.57483896],[-60.89978555,14.5749736],[-60.89963728,14.57289846],[-60.89935679,14.57283178],[-60.89908225,14.572626],[-60.89899419,14.57251948],[-60.89905842,14.57239898],[-60.89894839,14.57216395],[-60.89895223,14.57205193],[-60.89930942,14.57156357],[-60.89917814,14.57131842],[-60.89932002,14.57103324],[-60.89900591,14.5704015],[-60.89882087,14.56976007],[-60.89889785,14.56976257],[-60.89922462,14.569939],[-60.89931638,14.56994796],[-60.89937527,14.5699015],[-60.89936865,14.5698174],[-60.8992713,14.56951562],[-60.89935933,14.56952816],[-60.899575,14.5696792],[-60.89967792,14.56968554],[-60.89971297,14.56960905],[-60.8996405,14.56942496],[-60.89966246,14.5693592],[-60.89985612,14.56948293],[-60.90083942,14.56969507],[-60.90111448,14.56984574]]]]},"bbox":[-60.92459129,14.5693592,-60.88885548,14.58921546]},{"type":"Feature","id":"fr-quartier-97210-2aab3af5d810","properties":{"id":"fr-quartier-97210-2aab3af5d810","kind":"quartier","name":"Morne-Pitault-Morne Serpent-Belle Ame","cityCode":"97210","cityName":"Le François","sourceType":"iris","sourceIds":["972100104"],"colorIndex":6,"center":[-60.940206090048676,14.61858605]},"geometry":{"type":"MultiPolygon","coordinates":[[[[-60.93872002,14.60255242],[-60.93874291,14.60278486],[-60.93919674,14.60267772],[-60.93931867,14.60283784],[-60.94007675,14.60294303],[-60.94047687,14.60332338],[-60.94044648,14.60369722],[-60.94060797,14.60389383],[-60.94075573,14.60357073],[-60.94072352,14.60294422],[-60.94105304,14.60243567],[-60.94132954,14.60223841],[-60.94193234,14.60217866],[-60.94229526,14.6019686],[-60.94249724,14.60200292],[-60.94313329,14.60245764],[-60.94325809,14.60300815],[-60.94340984,14.60325438],[-60.94424409,14.6037515],[-60.94500083,14.60400216],[-60.94524622,14.60445704],[-60.94558349,14.60471123],[-60.94583226,14.60510289],[-60.94653097,14.60550755],[-60.94715883,14.60604713],[-60.94729105,14.6063989],[-60.94720995,14.60743829],[-60.9466001,14.60815583],[-60.945903,14.60837651],[-60.94553501,14.60863171],[-60.94531835,14.60927771],[-60.94488606,14.60996067],[-60.94485877,14.6103011],[-60.94508207,14.61143624],[-60.94555174,14.61162472],[-60.94584954,14.61183337],[-60.94592807,14.61197051],[-60.94603093,14.61198678],[-60.94613013,14.61249641],[-60.94694382,14.61351294],[-60.94752059,14.61445962],[-60.94748365,14.61454062],[-60.94767641,14.61566826],[-60.94760975,14.61605082],[-60.94766883,14.61788302],[-60.94796423,14.61785219],[-60.94820466,14.61834408],[-60.94817534,14.61850286],[-60.94832485,14.61909245],[-60.94830498,14.61973296],[-60.94846672,14.62010488],[-60.9486248,14.61987042],[-60.94897607,14.62081872],[-60.94912883,14.62185745],[-60.94907975,14.6225465],[-60.94947646,14.62359822],[-60.94947503,14.62385303],[-60.94920851,14.62437118],[-60.94921283,14.62470467],[-60.94952287,14.62649661],[-60.94899765,14.62649018],[-60.94899588,14.62638082],[-60.94770128,14.62627815],[-60.94771723,14.62835577],[-60.94708056,14.62855799],[-60.94689442,14.62821568],[-60.94616803,14.62868459],[-60.94642922,14.62884051],[-60.94656678,14.63021526],[-60.94789583,14.63210565],[-60.94801456,14.63251243],[-60.94830964,14.63291625],[-60.94922226,14.63378185],[-60.9486068,14.63439542],[-60.94830255,14.63487709],[-60.94787757,14.63496823],[-60.9477396,14.63513419],[-60.9475963,14.63517449],[-60.94678249,14.63486188],[-60.94621389,14.63442854],[-60.94564087,14.63427167],[-60.94539294,14.63378694],[-60.9451957,14.63373912],[-60.94477598,14.63376342],[-60.94446036,14.63387088],[-60.9436844,14.63497551],[-60.94278794,14.63456999],[-60.94199405,14.63421236],[-60.94162878,14.63516518],[-60.94118567,14.63501035],[-60.93965598,14.63383926],[-60.93875144,14.63330624],[-60.93901154,14.63308263],[-60.9396322,14.632808],[-60.93985646,14.63264462],[-60.93991098,14.6324716],[-60.93985543,14.63225785],[-60.93986343,14.63209707],[-60.93993467,14.63202089],[-60.94005466,14.63209153],[-60.94011513,14.63207671],[-60.9402131,14.63192124],[-60.94031215,14.63164922],[-60.94049507,14.6317394],[-60.94097789,14.63171565],[-60.94148147,14.63185385],[-60.94156534,14.63181754],[-60.94181538,14.63157667],[-60.94237744,14.63141446],[-60.94291321,14.63118606],[-60.94257573,14.63115054],[-60.9422791,14.63101328],[-60.9417957,14.63099907],[-60.94163181,14.63085936],[-60.9411867,14.62992468],[-60.94087003,14.62944928],[-60.94053687,14.62855173],[-60.94043152,14.62840441],[-60.94028593,14.62829288],[-60.93986699,14.62803525],[-60.93934598,14.62777672],[-60.93901141,14.62752887],[-60.93858567,14.62740401],[-60.93820479,14.62704732],[-60.93777769,14.62687004],[-60.937427,14.6265597],[-60.93688878,14.62635613],[-60.93654557,14.62633773],[-60.93643555,14.62629338],[-60.93625143,14.62613361],[-60.93603839,14.62569256],[-60.93573457,14.62523353],[-60.93561322,14.62511046],[-60.93517927,14.62487258],[-60.93499151,14.62470555],[-60.9342097,14.62464891],[-60.93392416,14.62451807],[-60.93349337,14.62384375],[-60.93226033,14.62242133],[-60.93199496,14.62201957],[-60.93114105,14.62143908],[-60.92964901,14.62022761],[-60.9286021,14.61875351],[-60.92829799,14.61852581],[-60.92847964,14.61845242],[-60.92901657,14.61839484],[-60.92981893,14.618533],[-60.93174191,14.61871634],[-60.93210085,14.6186391],[-60.93382325,14.61784382],[-60.93431566,14.61758522],[-60.93466589,14.61734706],[-60.93495989,14.61736593],[-60.93543268,14.61751741],[-60.93603861,14.61752458],[-60.93653859,14.61764648],[-60.93714359,14.61735545],[-60.93761343,14.61692857],[-60.93845703,14.61672548],[-60.93818262,14.61540284],[-60.9406094,14.61449987],[-60.938815,14.60878928],[-60.93820748,14.6090559],[-60.93806981,14.60909083],[-60.9378427,14.60906533],[-60.93766637,14.60777337],[-60.93752729,14.60736279],[-60.93739771,14.6071276],[-60.93728938,14.60700285],[-60.93718743,14.60698839],[-60.93767635,14.60401613],[-60.93741484,14.60389815],[-60.9370728,14.60365837],[-60.93689778,14.60342097],[-60.93676755,14.60305656],[-60.93658359,14.60188743],[-60.93648008,14.60164344],[-60.93592995,14.60093283],[-60.93579467,14.60081145],[-60.93554313,14.60071976],[-60.93513326,14.60068993],[-60.93514944,14.6006467],[-60.93523391,14.60054352],[-60.93540159,14.60057302],[-60.93564692,14.60053543],[-60.93569661,14.60048075],[-60.93615991,14.60075142],[-60.9364529,14.60097631],[-60.9366494,14.60119854],[-60.93717928,14.6019921],[-60.93750768,14.60230043],[-60.93783365,14.60247229],[-60.93817608,14.6025693],[-60.93847754,14.60258281],[-60.93872002,14.60255242]]]]},"bbox":[-60.94952287,14.60048075,-60.92829799,14.63517449]},{"type":"Feature","id":"fr-quartier-97210-10e17c3c0d4a","properties":{"id":"fr-quartier-97210-10e17c3c0d4a","kind":"quartier","name":"Pointe Couchée-Vapeur","cityCode":"97210","cityName":"Le François","sourceType":"iris","sourceIds":["972100102"],"colorIndex":7,"center":[-60.90809816526186,14.630197710000001]},"geometry":{"type":"MultiPolygon","coordinates":[[[[-60.89384809,14.63688932],[-60.89380658,14.63676515],[-60.8940952,14.63618221],[-60.89407798,14.636042],[-60.89453392,14.63572263],[-60.89456084,14.6354301],[-60.89470976,14.63528777],[-60.89466248,14.63508855],[-60.89473319,14.63497262],[-60.89498821,14.63489541],[-60.89525334,14.635121],[-60.89542827,14.63517047],[-60.89570634,14.63510973],[-60.89593201,14.63489942],[-60.89507598,14.63454741],[-60.89461783,14.63461284],[-60.89429431,14.63447618],[-60.89351694,14.63482969],[-60.89339896,14.63493887],[-60.89332528,14.63517133],[-60.89298909,14.63538967],[-60.89243669,14.63560516],[-60.89240535,14.63577746],[-60.89206161,14.63610598],[-60.89154742,14.63620795],[-60.89108851,14.6361577],[-60.89098668,14.63603299],[-60.89095083,14.63560887],[-60.89110203,14.63542229],[-60.89112228,14.63524536],[-60.89139398,14.63497764],[-60.8919181,14.6347104],[-60.8921273,14.63437886],[-60.89228196,14.63373237],[-60.89197817,14.63318203],[-60.89167643,14.63290369],[-60.89135783,14.63273816],[-60.89119449,14.63254511],[-60.89108935,14.63218452],[-60.89110725,14.63176812],[-60.89091015,14.63141664],[-60.89100599,14.63100184],[-60.89137679,14.6306564],[-60.8923761,14.63057961],[-60.89269482,14.63073159],[-60.89294364,14.63120733],[-60.89327718,14.63155644],[-60.89346994,14.63129342],[-60.89361635,14.63121975],[-60.89403034,14.63121084],[-60.89443217,14.63131026],[-60.89459145,14.63144272],[-60.89476308,14.63144879],[-60.89492622,14.63137256],[-60.89495529,14.6312436],[-60.89496766,14.63052986],[-60.89452642,14.6301852],[-60.89424579,14.63012574],[-60.89413275,14.63020423],[-60.89398903,14.63019119],[-60.89383014,14.63001626],[-60.89390559,14.62989043],[-60.89406662,14.62984038],[-60.89425793,14.62953398],[-60.89481079,14.62858747],[-60.8948951,14.62830992],[-60.89533945,14.6282308],[-60.89565446,14.62828606],[-60.8958134,14.62845466],[-60.89566738,14.62848768],[-60.89569735,14.62865422],[-60.89617854,14.62889712],[-60.89653598,14.62888228],[-60.89706876,14.62867835],[-60.89749643,14.62869396],[-60.89846081,14.62926381],[-60.89829195,14.62857644],[-60.89880946,14.62812388],[-60.89894975,14.62810707],[-60.8993864,14.62825288],[-60.89981016,14.62858201],[-60.89995426,14.62836102],[-60.89973458,14.62813765],[-60.89917764,14.62795461],[-60.89826665,14.62791928],[-60.89793938,14.62808079],[-60.89767329,14.62805309],[-60.89748925,14.62759691],[-60.89735193,14.62671645],[-60.89740334,14.62589823],[-60.89731399,14.62563267],[-60.8974153,14.62551882],[-60.89732283,14.62548455],[-60.89670225,14.62418949],[-60.89618296,14.62385498],[-60.89605016,14.62367035],[-60.89611127,14.62358686],[-60.89654015,14.62357266],[-60.89682195,14.62399539],[-60.89734016,14.62424856],[-60.89749235,14.62424903],[-60.89764973,14.62409412],[-60.89763782,14.62388347],[-60.89784132,14.62366031],[-60.89883236,14.62308371],[-60.89886198,14.62270084],[-60.89873384,14.62183131],[-60.89834522,14.62093051],[-60.89808218,14.62058386],[-60.89794585,14.6205754],[-60.89770947,14.62074224],[-60.89759501,14.62067796],[-60.89720353,14.62066358],[-60.89704896,14.6208167],[-60.89681606,14.62061852],[-60.89669153,14.62073486],[-60.89675931,14.62102282],[-60.89662108,14.62111555],[-60.8966307,14.62098281],[-60.8965338,14.62092591],[-60.89623468,14.62095755],[-60.89556362,14.62077528],[-60.89582954,14.62052648],[-60.89603835,14.62042806],[-60.89771202,14.61920702],[-60.89784701,14.61916125],[-60.89802344,14.61895501],[-60.89814241,14.6189353],[-60.89822367,14.61888],[-60.89838108,14.61872148],[-60.90080516,14.61694694],[-60.90095038,14.61680095],[-60.90148591,14.61640186],[-60.90248095,14.61627889],[-60.90317185,14.61632667],[-60.90345821,14.61646569],[-60.90371994,14.6167545],[-60.90391822,14.6168855],[-60.90407752,14.61691856],[-60.90501581,14.61690892],[-60.90540634,14.61682659],[-60.90550196,14.61692142],[-60.90593206,14.61716836],[-60.90611635,14.61720797],[-60.90665764,14.61708181],[-60.90770328,14.61710385],[-60.90790911,14.61702527],[-60.90940972,14.61623542],[-60.91119503,14.61860717],[-60.91124324,14.61870972],[-60.91123234,14.61888131],[-60.9112742,14.61896933],[-60.91166445,14.6191138],[-60.91217444,14.6194518],[-60.91232703,14.61960588],[-60.91239377,14.61971221],[-60.91252999,14.62012638],[-60.91291138,14.62081565],[-60.91306543,14.62140529],[-60.91327285,14.62184631],[-60.91340966,14.62249273],[-60.91347951,14.62266323],[-60.91366466,14.62290797],[-60.91374489,14.62296109],[-60.91397438,14.62293243],[-60.9141596,14.62297384],[-60.91567082,14.62391449],[-60.91584371,14.6240814],[-60.91634677,14.62476272],[-60.91680316,14.62448848],[-60.91720033,14.62449203],[-60.91738914,14.62444673],[-60.91749996,14.62440616],[-60.91791279,14.62412611],[-60.91820234,14.62402659],[-60.91827455,14.62404621],[-60.91899397,14.62491108],[-60.91949484,14.62543243],[-60.92019701,14.6260604],[-60.92009171,14.62620494],[-60.92014424,14.62653975],[-60.92025972,14.6266944],[-60.92059523,14.62683927],[-60.92089092,14.62727113],[-60.92119399,14.62790547],[-60.92126503,14.62824587],[-60.9213633,14.62845368],[-60.92148623,14.62860478],[-60.92151701,14.62888428],[-60.92147755,14.62903393],[-60.92132092,14.62930814],[-60.92140909,14.6297011],[-60.92156945,14.62962391],[-60.92180703,14.62982031],[-60.92179902,14.6298835],[-60.92163984,14.62993449],[-60.92157233,14.63000798],[-60.92170219,14.63031005],[-60.92159257,14.63051962],[-60.92148467,14.63103824],[-60.9214644,14.63131818],[-60.92150729,14.63169086],[-60.92180462,14.63175225],[-60.9220469,14.6312538],[-60.92269629,14.63108339],[-60.92286169,14.63096288],[-60.92303246,14.6306662],[-60.92317009,14.63063671],[-60.92328866,14.63066035],[-60.92340069,14.63128034],[-60.92389232,14.63170039],[-60.92402343,14.63216693],[-60.92435913,14.63258921],[-60.92437925,14.63272041],[-60.92432448,14.63282023],[-60.92394339,14.63317828],[-60.92378018,14.63326267],[-60.92333808,14.63359488],[-60.92307049,14.63372623],[-60.92259588,14.63376537],[-60.92206343,14.63393412],[-60.92180711,14.63405111],[-60.92073273,14.63411471],[-60.92019284,14.6340891],[-60.92018705,14.63401405],[-60.92003883,14.63378863],[-60.91994093,14.63354106],[-60.91994808,14.63307756],[-60.91987771,14.63276428],[-60.91971716,14.63237067],[-60.91968167,14.63150739],[-60.91964381,14.63138867],[-60.91956774,14.63128769],[-60.91938298,14.63119658],[-60.91889915,14.63123021],[-60.91870574,14.63117155],[-60.91852224,14.63104521],[-60.9182753,14.63075836],[-60.91808,14.63060481],[-60.91807081,14.63069418],[-60.91821811,14.63101629],[-60.91833235,14.63140135],[-60.91837496,14.63180294],[-60.91832804,14.63205464],[-60.91810401,14.63238878],[-60.91817353,14.633087],[-60.91807273,14.63344213],[-60.91784757,14.63379796],[-60.91761094,14.63408952],[-60.91740307,14.63418615],[-60.9168089,14.63420795],[-60.91613655,14.63454892],[-60.91604303,14.63462399],[-60.91592014,14.63505753],[-60.91536543,14.63532275],[-60.91525485,14.63533803],[-60.91480105,14.63523727],[-60.91420641,14.63530785],[-60.91377344,14.63545759],[-60.91315766,14.63560569],[-60.91278419,14.63564661],[-60.91246562,14.63577027],[-60.9122211,14.63591356],[-60.91166379,14.63606127],[-60.91148371,14.63586899],[-60.91103206,14.63583512],[-60.91060405,14.63575447],[-60.91017796,14.63576601],[-60.90975361,14.63569081],[-60.90970487,14.63564338],[-60.90811909,14.63561287],[-60.90644618,14.63566832],[-60.90542609,14.63587872],[-60.90496623,14.63602549],[-60.90406967,14.63642043],[-60.90379986,14.63658879],[-60.90332775,14.63675532],[-60.90322222,14.63682395],[-60.8962467,14.63732577],[-60.89417539,14.63740734],[-60.89372453,14.6373879],[-60.89384809,14.63688932]]],[[[-60.88992799,14.6338737],[-60.88985168,14.63408987],[-60.88937077,14.63439997],[-60.88921934,14.63470673],[-60.88902356,14.63489742],[-60.88882529,14.63495888],[-60.88840843,14.63478251],[-60.8879586,14.63484981],[-60.88775204,14.63480908],[-60.88770583,14.63478879],[-60.88784222,14.63430749],[-60.88780871,14.63402707],[-60.88714846,14.63290602],[-60.88677601,14.63274361],[-60.88634645,14.63292404],[-60.88584197,14.63298091],[-60.88494901,14.63270985],[-60.88474656,14.63253],[-60.88474404,14.63201763],[-60.88492587,14.63173464],[-60.88537653,14.63138542],[-60.88632599,14.63108682],[-60.88653719,14.63093422],[-60.88687521,14.63042674],[-60.88740374,14.62989208],[-60.88763574,14.6297966],[-60.88796516,14.62979958],[-60.88831656,14.63002777],[-60.88834485,14.63036869],[-60.88853654,14.63070296],[-60.8886459,14.63110696],[-60.88861653,14.63165519],[-60.88840436,14.63210326],[-60.88839958,14.63231195],[-60.88867034,14.63262706],[-60.88922323,14.63284442],[-60.88993628,14.63339486],[-60.88985539,14.63360467],[-60.88992799,14.6338737]]],[[[-60.88416354,14.63303524],[-60.88394717,14.63295285],[-60.8837924,14.63273729],[-60.88396158,14.63251473],[-60.88458009,14.63256644],[-60.88462689,14.63262198],[-60.88446417,14.63284821],[-60.88416354,14.63303524]]]]},"bbox":[-60.92437925,14.61623542,-60.8837924,14.63740734]}]}