{"type":"FeatureCollection","metadata":{"sourceType":"iris","source":"IGN / INSEE — Contours IRIS 2026","sourceUrl":"https://data.geopf.fr/wfs/ows?service=WFS&version=2.0.0&request=GetFeature&typeNames=STATISTICALUNITS.IRIS%3Acontours_iris&outputFormat=application%2Fjson&srsName=CRS%3A84&count=1000&CQL_FILTER=code_insee%3D%2797229%27&sortBy=code_iris","retrievedDate":"2026-09-10","sourceYear":"2026","license":"Licence Ouverte 2.0"},"features":[{"type":"Feature","id":"fr-quartier-97229-642c9cdfcf28","properties":{"id":"fr-quartier-97229-642c9cdfcf28","kind":"quartier","name":"Bourg-Enclos","cityCode":"97229","cityName":"Schœlcher","sourceType":"iris","sourceIds":["972290106"],"colorIndex":0,"center":[-61.10526263790089,14.620216085]},"geometry":{"type":"MultiPolygon","coordinates":[[[[-61.10032357,14.61399365],[-61.10056593,14.61451797],[-61.10167471,14.61530601],[-61.1018154,14.61513455],[-61.1019417,14.61512473],[-61.10198374,14.61509254],[-61.10199845,14.61510892],[-61.10205019,14.61513646],[-61.10225527,14.61513903],[-61.10240015,14.6152351],[-61.10297165,14.61515028],[-61.10326006,14.61528457],[-61.10341626,14.61579283],[-61.10373544,14.61601865],[-61.10398914,14.61608758],[-61.10438551,14.61651104],[-61.10437155,14.61673233],[-61.1042538,14.61693471],[-61.10404428,14.61701615],[-61.1036743,14.6169788],[-61.10357014,14.61722015],[-61.10364983,14.61777478],[-61.10407097,14.61855721],[-61.10449555,14.61904686],[-61.10494742,14.61938491],[-61.10554488,14.62016968],[-61.10659793,14.62129343],[-61.10823945,14.62230537],[-61.10904471,14.62256224],[-61.10930735,14.62278036],[-61.10970133,14.62294442],[-61.11014914,14.6233249],[-61.1104267,14.62386125],[-61.11075821,14.62394889],[-61.11090005,14.62385967],[-61.11107148,14.62400023],[-61.11122038,14.62460422],[-61.11087376,14.62454628],[-61.11081266,14.62485305],[-61.11067801,14.62507879],[-61.11049896,14.625287],[-61.11033484,14.62624452],[-61.10990822,14.62599073],[-61.10983747,14.62623145],[-61.10987633,14.62624622],[-61.1097207,14.62653686],[-61.10931032,14.62633742],[-61.1092938,14.62620715],[-61.10936505,14.62612368],[-61.10888196,14.62585226],[-61.10881332,14.62595654],[-61.10827268,14.625794],[-61.10810564,14.62579083],[-61.1070052,14.62597077],[-61.10662274,14.62597941],[-61.10648496,14.62613554],[-61.1062053,14.62627786],[-61.10599441,14.62651834],[-61.10571374,14.62699503],[-61.10556681,14.62713662],[-61.10545878,14.62717912],[-61.10546348,14.62673995],[-61.10393627,14.62808762],[-61.10321871,14.62712745],[-61.10309721,14.62690144],[-61.10310694,14.62674156],[-61.1033251,14.62630323],[-61.10328052,14.62609049],[-61.10291041,14.62530938],[-61.10279384,14.62494242],[-61.10265565,14.62428249],[-61.10268438,14.62385436],[-61.10277338,14.62332641],[-61.1025468,14.62236753],[-61.10263151,14.62147354],[-61.10267836,14.62131396],[-61.10280727,14.62110896],[-61.10369089,14.62056037],[-61.10407462,14.62018754],[-61.10419897,14.61997257],[-61.10426872,14.61995596],[-61.10431489,14.61998345],[-61.10432505,14.6200974],[-61.10442681,14.62024463],[-61.10500195,14.62049331],[-61.10491868,14.62013838],[-61.10484236,14.61994798],[-61.10472033,14.61978341],[-61.10441333,14.61954414],[-61.10383887,14.61932348],[-61.10293495,14.61910104],[-61.10227925,14.61883091],[-61.10183807,14.61854626],[-61.10049948,14.61749879],[-61.10040542,14.61742844],[-61.10048272,14.61739744],[-61.10025598,14.61721395],[-61.0994756,14.61676567],[-61.09918168,14.61651746],[-61.09910906,14.61654398],[-61.09895233,14.61631496],[-61.09859353,14.61562521],[-61.09797555,14.61474718],[-61.09803347,14.61470337],[-61.09779406,14.61448453],[-61.09786811,14.61439928],[-61.09822665,14.61468687],[-61.09901839,14.61510904],[-61.10032357,14.61399365]]]]},"bbox":[-61.11122038,14.61399365,-61.09779406,14.62808762]},{"type":"Feature","id":"fr-quartier-97229-88db440c9ab8","properties":{"id":"fr-quartier-97229-88db440c9ab8","kind":"quartier","name":"Cité Ozanam","cityCode":"97229","cityName":"Schœlcher","sourceType":"iris","sourceIds":["972290102"],"colorIndex":1,"center":[-61.092606970817826,14.609137695000001]},"geometry":{"type":"MultiPolygon","coordinates":[[[[-61.09442999,14.6082151],[-61.0949495,14.60856185],[-61.09479791,14.6089212],[-61.09522129,14.6090078],[-61.09505382,14.60937966],[-61.09504823,14.60948987],[-61.09469719,14.61037806],[-61.09406179,14.61055723],[-61.09380977,14.61072416],[-61.09361749,14.61074428],[-61.09327855,14.61066017],[-61.09293719,14.61053357],[-61.09278229,14.61041573],[-61.09247785,14.61031202],[-61.09212495,14.61033986],[-61.09180195,14.61023691],[-61.09123419,14.60999729],[-61.09111949,14.60984634],[-61.09097787,14.6098027],[-61.09073329,14.60986125],[-61.09065787,14.60967447],[-61.09036991,14.60981309],[-61.09025482,14.61002904],[-61.09007828,14.6100538],[-61.08993216,14.60999386],[-61.08954189,14.60994367],[-61.08973366,14.60955213],[-61.08996999,14.60926759],[-61.09034077,14.60867417],[-61.0903776,14.60860037],[-61.09036839,14.60848462],[-61.09048485,14.60843135],[-61.09058779,14.60876295],[-61.09177578,14.60821509],[-61.0916541,14.60790502],[-61.09254473,14.60750835],[-61.09348695,14.60715547],[-61.09355386,14.60703763],[-61.09362381,14.60699753],[-61.09374267,14.60698856],[-61.09387013,14.6070601],[-61.09392557,14.6071952],[-61.09391091,14.60728094],[-61.09382094,14.60738322],[-61.0937195,14.60741583],[-61.0939105,14.60754482],[-61.09420001,14.60798006],[-61.09442999,14.6082151]]]]},"bbox":[-61.09522129,14.60698856,-61.08954189,14.61074428]},{"type":"Feature","id":"fr-quartier-97229-d62aa3ce0911","properties":{"id":"fr-quartier-97229-d62aa3ce0911","kind":"quartier","name":"Cité Saint-Georges-Batelière","cityCode":"97229","cityName":"Schœlcher","sourceType":"iris","sourceIds":["972290101"],"colorIndex":2,"center":[-61.09196902783827,14.606834679999999]},"geometry":{"type":"MultiPolygon","coordinates":[[[[-61.08770568,14.61064797],[-61.08800459,14.61010187],[-61.08784656,14.6095954],[-61.08769965,14.60941345],[-61.08766798,14.60921167],[-61.08783379,14.60849638],[-61.08812542,14.60782641],[-61.08807505,14.60742746],[-61.08792772,14.60707833],[-61.08804032,14.60661384],[-61.08843385,14.60639385],[-61.0885656,14.60607501],[-61.08888591,14.60584448],[-61.08949558,14.60520603],[-61.08973202,14.60490794],[-61.08950643,14.60459431],[-61.08952923,14.60431886],[-61.08983108,14.60407553],[-61.08992042,14.60383135],[-61.09074794,14.60289646],[-61.09027994,14.60239107],[-61.09017298,14.60198894],[-61.0904294,14.60045021],[-61.09059991,14.60026273],[-61.09099364,14.60034186],[-61.09099885,14.60059766],[-61.09115725,14.60073993],[-61.09134815,14.60077132],[-61.09158179,14.60068918],[-61.09203155,14.60018859],[-61.09213362,14.60019033],[-61.09212259,14.60050021],[-61.09245102,14.60126382],[-61.09449769,14.60423569],[-61.09475235,14.60440677],[-61.09509603,14.60437072],[-61.09560326,14.60484931],[-61.09588977,14.6049863],[-61.09578303,14.60498814],[-61.09577124,14.60506396],[-61.09586546,14.60533132],[-61.09599267,14.60542996],[-61.09618193,14.60543783],[-61.09620569,14.60526451],[-61.09611318,14.60501524],[-61.09623033,14.60498998],[-61.09631233,14.60527442],[-61.09627483,14.60553438],[-61.09591309,14.60615861],[-61.09600511,14.6066808],[-61.09584431,14.60714039],[-61.09565067,14.60742619],[-61.09554892,14.60771093],[-61.0954569,14.60783579],[-61.09503414,14.60800134],[-61.09471603,14.60819213],[-61.09442999,14.6082151],[-61.09420001,14.60798006],[-61.0939105,14.60754482],[-61.0937195,14.60741583],[-61.09382094,14.60738322],[-61.09391091,14.60728094],[-61.09392557,14.6071952],[-61.09387013,14.6070601],[-61.09374267,14.60698856],[-61.09362381,14.60699753],[-61.09355386,14.60703763],[-61.09348695,14.60715547],[-61.09254473,14.60750835],[-61.0916541,14.60790502],[-61.09177578,14.60821509],[-61.09058779,14.60876295],[-61.09048485,14.60843135],[-61.09036839,14.60848462],[-61.0903776,14.60860037],[-61.09034077,14.60867417],[-61.08996999,14.60926759],[-61.08973366,14.60955213],[-61.08954189,14.60994367],[-61.08864059,14.60985495],[-61.08855774,14.61052754],[-61.08859328,14.61071038],[-61.08770568,14.61064797]]]]},"bbox":[-61.09631233,14.60018859,-61.08766798,14.61071038]},{"type":"Feature","id":"fr-quartier-97229-be9a3e2d6918","properties":{"id":"fr-quartier-97229-be9a3e2d6918","kind":"quartier","name":"Enclos-Fonds Duclos","cityCode":"97229","cityName":"Schœlcher","sourceType":"iris","sourceIds":["972290107"],"colorIndex":3,"center":[-61.10568978511223,14.63185396]},"geometry":{"type":"MultiPolygon","coordinates":[[[[-61.10245649,14.65068292],[-61.10222527,14.65090877],[-61.10211048,14.65119702],[-61.10190154,14.65131461],[-61.10126458,14.65133652],[-61.10065756,14.65144001],[-61.10030053,14.65140004],[-61.09976936,14.65121044],[-61.09922156,14.65068904],[-61.09894336,14.65055031],[-61.09876443,14.6504169],[-61.09844201,14.64991632],[-61.09805183,14.64941699],[-61.09777997,14.64886531],[-61.09769634,14.64876884],[-61.09655715,14.64793895],[-61.09638585,14.64789055],[-61.0962858,14.64765296],[-61.09615865,14.64754347],[-61.09607535,14.64751568],[-61.095871,14.64753208],[-61.09546849,14.64770772],[-61.09531147,14.64783296],[-61.09507136,14.64822862],[-61.09496645,14.64833802],[-61.09455404,14.64858587],[-61.09420214,14.64870589],[-61.09415759,14.6483829],[-61.09404344,14.64805844],[-61.09420859,14.64785194],[-61.09545417,14.64678672],[-61.09583747,14.64625577],[-61.09611558,14.64597337],[-61.09660247,14.64537729],[-61.0974369,14.64451926],[-61.09748875,14.6444266],[-61.09755288,14.64409366],[-61.097632,14.6440681],[-61.09868118,14.64413903],[-61.09882,14.64407961],[-61.09889137,14.6439835],[-61.0990267,14.64271218],[-61.09942336,14.64213704],[-61.09970873,14.64154925],[-61.10002319,14.64103398],[-61.10003126,14.64095904],[-61.09996243,14.64076057],[-61.09968537,14.6404899],[-61.09899176,14.63998087],[-61.09824246,14.63968827],[-61.0977803,14.63914136],[-61.09771291,14.63899079],[-61.09763894,14.63852749],[-61.09767054,14.63819879],[-61.09774935,14.63788585],[-61.09776488,14.63748382],[-61.09769344,14.63705036],[-61.09772066,14.63701444],[-61.09784396,14.63703171],[-61.0981191,14.63730869],[-61.0982458,14.63736214],[-61.09841803,14.63730119],[-61.09862623,14.6371601],[-61.09925664,14.63649289],[-61.09965147,14.63591231],[-61.10053629,14.63512517],[-61.10094844,14.63436489],[-61.10148595,14.6335975],[-61.10190695,14.63310208],[-61.10217681,14.63291269],[-61.10337859,14.63250226],[-61.10358783,14.63234762],[-61.10365441,14.63205174],[-61.10365645,14.63170654],[-61.10372147,14.63137631],[-61.10401418,14.63068825],[-61.1041032,14.63037358],[-61.10404531,14.62987335],[-61.10410167,14.62871344],[-61.10401817,14.62827716],[-61.103165,14.62927515],[-61.10293509,14.62945944],[-61.1026968,14.62953884],[-61.10259758,14.62952899],[-61.10248137,14.6294431],[-61.10240946,14.62927894],[-61.10239766,14.62881614],[-61.10245417,14.62850391],[-61.09887115,14.62661214],[-61.09713592,14.62775382],[-61.09688853,14.62738218],[-61.09666793,14.6272403],[-61.0960398,14.62883022],[-61.09572961,14.62917471],[-61.09545359,14.62932518],[-61.09509369,14.62962227],[-61.09485621,14.62971612],[-61.09448809,14.6297827],[-61.09443392,14.62971448],[-61.09444336,14.62958894],[-61.09383743,14.62957223],[-61.09359303,14.62885449],[-61.09361781,14.62867124],[-61.09374471,14.62848521],[-61.09405553,14.62828261],[-61.09464483,14.62807506],[-61.09508292,14.6277515],[-61.09544146,14.62739566],[-61.09579272,14.62713012],[-61.09587252,14.62702504],[-61.09591696,14.62660699],[-61.09582851,14.62631617],[-61.09559105,14.62576206],[-61.09543219,14.62556466],[-61.09523735,14.6254492],[-61.09514554,14.62533277],[-61.09519647,14.62513166],[-61.09546771,14.62488987],[-61.09644013,14.62448753],[-61.0967942,14.6244344],[-61.09738348,14.62444282],[-61.09786487,14.6242624],[-61.09832341,14.62414866],[-61.09867732,14.62422294],[-61.09888809,14.62421201],[-61.09919132,14.62413496],[-61.09939741,14.62402187],[-61.09949083,14.62395123],[-61.09959985,14.62379307],[-61.09963741,14.62341833],[-61.09975181,14.62317526],[-61.10002965,14.62281243],[-61.10036317,14.62223406],[-61.10092023,14.62167197],[-61.10096655,14.6214663],[-61.10090833,14.62132846],[-61.10089867,14.62104913],[-61.1008246,14.62070421],[-61.10060352,14.62072681],[-61.10064621,14.62061962],[-61.10062057,14.62025521],[-61.10040832,14.61914191],[-61.10007121,14.61841077],[-61.10018359,14.6182933],[-61.10010006,14.61807843],[-61.10010472,14.61785977],[-61.10015235,14.61771737],[-61.10028179,14.61755847],[-61.10049948,14.61749879],[-61.10183807,14.61854626],[-61.10227925,14.61883091],[-61.10293495,14.61910104],[-61.10383887,14.61932348],[-61.10441333,14.61954414],[-61.10472033,14.61978341],[-61.10484236,14.61994798],[-61.10491868,14.62013838],[-61.10500195,14.62049331],[-61.10442681,14.62024463],[-61.10432505,14.6200974],[-61.10431489,14.61998345],[-61.10426872,14.61995596],[-61.10419897,14.61997257],[-61.10407462,14.62018754],[-61.10369089,14.62056037],[-61.10280727,14.62110896],[-61.10267836,14.62131396],[-61.10263151,14.62147354],[-61.1025468,14.62236753],[-61.10277338,14.62332641],[-61.10268438,14.62385436],[-61.10265565,14.62428249],[-61.10279384,14.62494242],[-61.10291041,14.62530938],[-61.10328052,14.62609049],[-61.1033251,14.62630323],[-61.10310694,14.62674156],[-61.10309721,14.62690144],[-61.10321871,14.62712745],[-61.10393627,14.62808762],[-61.10546348,14.62673995],[-61.10545878,14.62717912],[-61.10556681,14.62713662],[-61.10571374,14.62699503],[-61.10599441,14.62651834],[-61.1062053,14.62627786],[-61.10648496,14.62613554],[-61.10662274,14.62597941],[-61.1070052,14.62597077],[-61.10810564,14.62579083],[-61.10827268,14.625794],[-61.10881332,14.62595654],[-61.10888196,14.62585226],[-61.10936505,14.62612368],[-61.1092938,14.62620715],[-61.10931032,14.62633742],[-61.10937715,14.62742062],[-61.10914443,14.62771786],[-61.10928788,14.62787447],[-61.10893909,14.62850243],[-61.10881278,14.62851135],[-61.10870274,14.62868126],[-61.10871766,14.62888923],[-61.10857281,14.62900464],[-61.10859395,14.6292452],[-61.10826671,14.62974139],[-61.10785975,14.63054963],[-61.10779687,14.6307389],[-61.10778142,14.63102615],[-61.10782657,14.63128047],[-61.10781621,14.63151444],[-61.10768395,14.63200138],[-61.10752757,14.63227122],[-61.10720975,14.63253253],[-61.10773464,14.63312602],[-61.10761646,14.63327055],[-61.10737047,14.63370595],[-61.10714359,14.63429514],[-61.10716482,14.63463421],[-61.10731143,14.6350719],[-61.10736981,14.63551519],[-61.10729701,14.63577849],[-61.10697422,14.6362946],[-61.10692675,14.63652647],[-61.10696359,14.6367771],[-61.10715232,14.63717356],[-61.10735626,14.637853],[-61.10740864,14.63823841],[-61.10732762,14.63837873],[-61.10717284,14.63846062],[-61.10662908,14.63833419],[-61.10643079,14.63840217],[-61.1063624,14.63847662],[-61.10624413,14.63873773],[-61.10618913,14.63919818],[-61.10603658,14.63934425],[-61.10595327,14.63953425],[-61.10588304,14.63960688],[-61.10582461,14.63981697],[-61.1056152,14.64020748],[-61.10556393,14.64045016],[-61.10576431,14.64100306],[-61.1057582,14.64106537],[-61.10562939,14.64125772],[-61.10545145,14.64176596],[-61.10545523,14.64197475],[-61.10554053,14.64220138],[-61.10564523,14.64276344],[-61.10552098,14.64328929],[-61.10558729,14.64367391],[-61.1054731,14.64410858],[-61.10532611,14.64436403],[-61.10532557,14.64442639],[-61.10539713,14.64452457],[-61.10536972,14.64458128],[-61.10517384,14.64469265],[-61.10510248,14.64478877],[-61.10508172,14.64515189],[-61.10481745,14.6455528],[-61.1048106,14.6458094],[-61.1047616,14.64600239],[-61.10459466,14.64641855],[-61.10428554,14.64685343],[-61.10394227,14.64704945],[-61.10374666,14.64745362],[-61.1037611,14.64771672],[-61.1038674,14.64798509],[-61.10386972,14.64825442],[-61.1036568,14.64862049],[-61.10363559,14.64903603],[-61.10342365,14.64928734],[-61.10338734,14.64940724],[-61.10329356,14.64951854],[-61.10294044,14.64978044],[-61.10291818,14.65020953],[-61.10284848,14.65032735],[-61.10250731,14.650602],[-61.10245649,14.65068292]]]]},"bbox":[-61.10937715,14.61749879,-61.09359303,14.65144001]},{"type":"Feature","id":"fr-quartier-97229-4d9c729189f9","properties":{"id":"fr-quartier-97229-4d9c729189f9","kind":"quartier","name":"Fond Lahaye","cityCode":"97229","cityName":"Schœlcher","sourceType":"iris","sourceIds":["972290109"],"colorIndex":4,"center":[-61.110696628377774,14.642088065]},"geometry":{"type":"MultiPolygon","coordinates":[[[[-61.11122038,14.62460422],[-61.11087604,14.62525662],[-61.11097897,14.62548429],[-61.11154454,14.62576993],[-61.11166049,14.62556121],[-61.11128755,14.62532412],[-61.11137649,14.62523447],[-61.11163256,14.62535403],[-61.11183254,14.62552013],[-61.11188718,14.62575102],[-61.11208484,14.62586378],[-61.11206598,14.62600642],[-61.11217312,14.62617628],[-61.11273951,14.62658483],[-61.11359754,14.62696773],[-61.11422625,14.62703428],[-61.11504377,14.62737979],[-61.11525999,14.62738425],[-61.11538817,14.62715574],[-61.11574064,14.62718119],[-61.11592464,14.62726401],[-61.11589522,14.62744903],[-61.11735202,14.62771115],[-61.1178756,14.62802445],[-61.11749505,14.62878773],[-61.11767894,14.62877476],[-61.11825997,14.62899093],[-61.11846833,14.62926463],[-61.11868025,14.62988268],[-61.11897639,14.63031073],[-61.11845437,14.63101141],[-61.11812867,14.63394137],[-61.11629438,14.6369052],[-61.11659665,14.63781227],[-61.11714668,14.63850988],[-61.11725388,14.63910811],[-61.11782739,14.63966582],[-61.11779989,14.64005962],[-61.11741599,14.64045144],[-61.11652727,14.640503],[-61.11621422,14.64074899],[-61.11619946,14.64149986],[-61.11557184,14.6427139],[-61.11565053,14.64328117],[-61.11513865,14.6434415],[-61.11459801,14.64414202],[-61.11379743,14.64473922],[-61.11342568,14.6446856],[-61.11330152,14.64476773],[-61.11309718,14.64554328],[-61.11232861,14.64619495],[-61.11213416,14.64711517],[-61.11129587,14.64864559],[-61.11138337,14.64872492],[-61.11091377,14.64990679],[-61.10950719,14.65026769],[-61.10836988,14.65191677],[-61.1079484,14.6526806],[-61.10786505,14.65352399],[-61.10790327,14.65404575],[-61.10813067,14.65491336],[-61.10874751,14.65637155],[-61.10896021,14.65797919],[-61.1091543,14.6584019],[-61.10952339,14.65866065],[-61.10983727,14.65907801],[-61.1096031,14.66008104],[-61.10874436,14.66106363],[-61.10867377,14.66150136],[-61.10891694,14.6623709],[-61.10866335,14.66282341],[-61.10826386,14.66318526],[-61.10792728,14.66422089],[-61.10785572,14.66498666],[-61.10772094,14.66522414],[-61.10757503,14.66578326],[-61.1074374,14.66570351],[-61.10745248,14.66546054],[-61.10734586,14.6646888],[-61.10712079,14.6643065],[-61.10683609,14.66362549],[-61.10679889,14.66341733],[-61.10679597,14.6630016],[-61.10637503,14.66251107],[-61.10613266,14.66208977],[-61.10614818,14.6615802],[-61.10593047,14.66109765],[-61.10571793,14.66076968],[-61.10573671,14.66042009],[-61.10566063,14.65933592],[-61.10555262,14.65872683],[-61.10518525,14.65826927],[-61.1043994,14.65768449],[-61.10432497,14.65759622],[-61.1043374,14.6574463],[-61.1044385,14.65713173],[-61.1046482,14.6567105],[-61.1047401,14.65638591],[-61.10476232,14.65606889],[-61.10466408,14.65561894],[-61.10467012,14.65545632],[-61.1048429,14.65501039],[-61.10513013,14.65453196],[-61.10516174,14.65441744],[-61.10475824,14.65395236],[-61.10465326,14.65363881],[-61.10425273,14.65304452],[-61.10375335,14.6523952],[-61.10343209,14.6520826],[-61.10331099,14.6515927],[-61.10302751,14.6512036],[-61.10260103,14.65092991],[-61.10245649,14.65068292],[-61.10250731,14.650602],[-61.10284848,14.65032735],[-61.10291818,14.65020953],[-61.10294044,14.64978044],[-61.10329356,14.64951854],[-61.10338734,14.64940724],[-61.10342365,14.64928734],[-61.10363559,14.64903603],[-61.1036568,14.64862049],[-61.10386972,14.64825442],[-61.1038674,14.64798509],[-61.1037611,14.64771672],[-61.10374666,14.64745362],[-61.10394227,14.64704945],[-61.10428554,14.64685343],[-61.10459466,14.64641855],[-61.1047616,14.64600239],[-61.1048106,14.6458094],[-61.10481745,14.6455528],[-61.10508172,14.64515189],[-61.10510248,14.64478877],[-61.10517384,14.64469265],[-61.10536972,14.64458128],[-61.10539713,14.64452457],[-61.10532557,14.64442639],[-61.10532611,14.64436403],[-61.1054731,14.64410858],[-61.10558729,14.64367391],[-61.10552098,14.64328929],[-61.10564523,14.64276344],[-61.10554053,14.64220138],[-61.10545523,14.64197475],[-61.10545145,14.64176596],[-61.10562939,14.64125772],[-61.1057582,14.64106537],[-61.10576431,14.64100306],[-61.10556393,14.64045016],[-61.1056152,14.64020748],[-61.10582461,14.63981697],[-61.10588304,14.63960688],[-61.10595327,14.63953425],[-61.10603658,14.63934425],[-61.10618913,14.63919818],[-61.10624413,14.63873773],[-61.1063624,14.63847662],[-61.10643079,14.63840217],[-61.10662908,14.63833419],[-61.10717284,14.63846062],[-61.10732762,14.63837873],[-61.10740864,14.63823841],[-61.10735626,14.637853],[-61.10715232,14.63717356],[-61.10696359,14.6367771],[-61.10692675,14.63652647],[-61.10697422,14.6362946],[-61.10729701,14.63577849],[-61.10736981,14.63551519],[-61.10731143,14.6350719],[-61.10716482,14.63463421],[-61.10714359,14.63429514],[-61.10737047,14.63370595],[-61.10761646,14.63327055],[-61.10773464,14.63312602],[-61.10720975,14.63253253],[-61.10752757,14.63227122],[-61.10768395,14.63200138],[-61.10781621,14.63151444],[-61.10782657,14.63128047],[-61.10778142,14.63102615],[-61.10779687,14.6307389],[-61.10785975,14.63054963],[-61.10826671,14.62974139],[-61.10859395,14.6292452],[-61.10857281,14.62900464],[-61.10871766,14.62888923],[-61.10870274,14.62868126],[-61.10881278,14.62851135],[-61.10893909,14.62850243],[-61.10928788,14.62787447],[-61.10914443,14.62771786],[-61.10937715,14.62742062],[-61.10931032,14.62633742],[-61.1097207,14.62653686],[-61.10987633,14.62624622],[-61.10983747,14.62623145],[-61.10990822,14.62599073],[-61.11033484,14.62624452],[-61.11049896,14.625287],[-61.11067801,14.62507879],[-61.11081266,14.62485305],[-61.11087376,14.62454628],[-61.11122038,14.62460422]]]]},"bbox":[-61.11897639,14.62454628,-61.10245649,14.66578326]},{"type":"Feature","id":"fr-quartier-97229-235d1f5349dd","properties":{"id":"fr-quartier-97229-235d1f5349dd","kind":"quartier","name":"Plateau Fofo Est-Sainte-Catherine","cityCode":"97229","cityName":"Schœlcher","sourceType":"iris","sourceIds":["972290104"],"colorIndex":5,"center":[-61.087825874895,14.61740194]},"geometry":{"type":"MultiPolygon","coordinates":[[[[-61.08292546,14.6274204],[-61.08220547,14.6226908],[-61.08191379,14.62207839],[-61.08183326,14.62152014],[-61.08125424,14.62097225],[-61.08119764,14.62065006],[-61.08123669,14.6202148],[-61.08132475,14.61958564],[-61.08153981,14.61918797],[-61.08172188,14.61842041],[-61.08198422,14.61824183],[-61.0820711,14.6179624],[-61.08232236,14.61788494],[-61.08238507,14.61771736],[-61.08264501,14.61749448],[-61.08285397,14.61758476],[-61.08307725,14.61752244],[-61.08348796,14.6175719],[-61.08397262,14.61701378],[-61.08414712,14.61668988],[-61.08409465,14.61578393],[-61.08437845,14.61494943],[-61.08487152,14.6142757],[-61.08521159,14.61401642],[-61.08546099,14.61361631],[-61.08578947,14.61330181],[-61.08605192,14.6132163],[-61.08644111,14.61264203],[-61.0867331,14.61257484],[-61.08697101,14.61243039],[-61.08784751,14.61270508],[-61.08771818,14.61327968],[-61.08759243,14.61365459],[-61.08777412,14.61367868],[-61.08795701,14.61377959],[-61.08840769,14.61392788],[-61.0893349,14.61402766],[-61.0893862,14.61410489],[-61.08933276,14.61427525],[-61.08967332,14.61427985],[-61.09099794,14.61403495],[-61.09115831,14.61405615],[-61.09143023,14.61416411],[-61.09146769,14.6142331],[-61.09070989,14.6149345],[-61.09238582,14.61463192],[-61.09250732,14.61464105],[-61.09269238,14.61481246],[-61.09286372,14.61474608],[-61.09359722,14.61460116],[-61.09402344,14.61446638],[-61.09412425,14.61439943],[-61.09432107,14.61406937],[-61.09448436,14.61396768],[-61.09577024,14.61369352],[-61.09616671,14.61367236],[-61.09626815,14.61374729],[-61.09651744,14.61357401],[-61.09668252,14.61369555],[-61.09644469,14.61404696],[-61.09621969,14.61420237],[-61.09613156,14.61430558],[-61.09609317,14.61445257],[-61.09613141,14.61475382],[-61.09609238,14.61508335],[-61.09588519,14.6154323],[-61.09571278,14.61562339],[-61.09547225,14.61574884],[-61.09505918,14.61586566],[-61.0946353,14.61615952],[-61.09453457,14.61610899],[-61.09440048,14.61583769],[-61.09428351,14.61573371],[-61.0939588,14.61572021],[-61.09362873,14.61589825],[-61.09353801,14.61597884],[-61.09343247,14.61616324],[-61.09343273,14.61645605],[-61.09349823,14.61660931],[-61.09352155,14.61681103],[-61.09341792,14.6172042],[-61.09329837,14.61729178],[-61.09306301,14.61735673],[-61.09208274,14.61738125],[-61.09194966,14.61742263],[-61.09173568,14.61759078],[-61.0915714,14.61780723],[-61.09150311,14.61797656],[-61.09150775,14.61808414],[-61.0916225,14.61833722],[-61.09161799,14.61853781],[-61.09151048,14.6186273],[-61.09141097,14.61865179],[-61.09130701,14.61865365],[-61.09116194,14.61857926],[-61.0909553,14.61854142],[-61.09086319,14.61856777],[-61.09081521,14.61864329],[-61.09081371,14.61892433],[-61.09067329,14.61927834],[-61.09037962,14.61964555],[-61.09026664,14.61972506],[-61.08992019,14.6204],[-61.08973146,14.62054576],[-61.08911966,14.62088867],[-61.08884872,14.62120275],[-61.08858907,14.62139221],[-61.08818485,14.62144944],[-61.08780812,14.62144093],[-61.0876537,14.62148123],[-61.08740519,14.62177741],[-61.08725528,14.6220482],[-61.08714577,14.62215484],[-61.0868165,14.62234553],[-61.08645469,14.62243474],[-61.08558013,14.62300322],[-61.08542909,14.62318995],[-61.08538026,14.62336216],[-61.08522993,14.62464509],[-61.08512494,14.62487196],[-61.08488639,14.62519534],[-61.08473971,14.62552127],[-61.08432897,14.62611525],[-61.0842394,14.62616964],[-61.08394628,14.62615006],[-61.08374165,14.62620169],[-61.08334974,14.62644337],[-61.08323363,14.62656171],[-61.08317534,14.62664708],[-61.08321845,14.62692035],[-61.08312595,14.62709853],[-61.08297967,14.62727083],[-61.08292546,14.6274204]]]]},"bbox":[-61.09668252,14.61243039,-61.08119764,14.6274204]},{"type":"Feature","id":"fr-quartier-97229-3b76c3455330","properties":{"id":"fr-quartier-97229-3b76c3455330","kind":"quartier","name":"Plateau Fofo-Fonds Nigaud-Madiana","cityCode":"97229","cityName":"Schœlcher","sourceType":"iris","sourceIds":["972290103"],"colorIndex":6,"center":[-61.093012825338675,14.610786860000001]},"geometry":{"type":"MultiPolygon","coordinates":[[[[-61.08644111,14.61264203],[-61.08660757,14.61238855],[-61.08664778,14.61192437],[-61.08721666,14.61149797],[-61.08770568,14.61064797],[-61.08859328,14.61071038],[-61.08855774,14.61052754],[-61.08864059,14.60985495],[-61.08954189,14.60994367],[-61.08993216,14.60999386],[-61.09007828,14.6100538],[-61.09025482,14.61002904],[-61.09036991,14.60981309],[-61.09065787,14.60967447],[-61.09073329,14.60986125],[-61.09097787,14.6098027],[-61.09111949,14.60984634],[-61.09123419,14.60999729],[-61.09180195,14.61023691],[-61.09212495,14.61033986],[-61.09247785,14.61031202],[-61.09278229,14.61041573],[-61.09293719,14.61053357],[-61.09327855,14.61066017],[-61.09361749,14.61074428],[-61.09380977,14.61072416],[-61.09406179,14.61055723],[-61.09469719,14.61037806],[-61.09504823,14.60948987],[-61.09505382,14.60937966],[-61.09522129,14.6090078],[-61.09479791,14.6089212],[-61.0949495,14.60856185],[-61.09442999,14.6082151],[-61.09471603,14.60819213],[-61.09503414,14.60800134],[-61.0954569,14.60783579],[-61.09554892,14.60771093],[-61.09565067,14.60742619],[-61.09584431,14.60714039],[-61.09600511,14.6066808],[-61.09599144,14.6069744],[-61.09612639,14.6071463],[-61.0962587,14.60708412],[-61.09641796,14.607127],[-61.09698182,14.60706472],[-61.09726931,14.60730384],[-61.0976357,14.60851239],[-61.09787551,14.60879269],[-61.09782464,14.60920437],[-61.09837682,14.61028429],[-61.09840183,14.61082944],[-61.09822353,14.61095089],[-61.09827798,14.61120166],[-61.09848629,14.61158382],[-61.09925021,14.61243322],[-61.10002479,14.61269077],[-61.10013127,14.61293564],[-61.10011142,14.61373346],[-61.10032357,14.61399365],[-61.09901839,14.61510904],[-61.09822665,14.61468687],[-61.09786811,14.61439928],[-61.09779406,14.61448453],[-61.09668252,14.61369555],[-61.09651744,14.61357401],[-61.09626815,14.61374729],[-61.09616671,14.61367236],[-61.09577024,14.61369352],[-61.09448436,14.61396768],[-61.09432107,14.61406937],[-61.09412425,14.61439943],[-61.09402344,14.61446638],[-61.09359722,14.61460116],[-61.09286372,14.61474608],[-61.09269238,14.61481246],[-61.09250732,14.61464105],[-61.09238582,14.61463192],[-61.09070989,14.6149345],[-61.09146769,14.6142331],[-61.09143023,14.61416411],[-61.09115831,14.61405615],[-61.09099794,14.61403495],[-61.08967332,14.61427985],[-61.08933276,14.61427525],[-61.0893862,14.61410489],[-61.0893349,14.61402766],[-61.08840769,14.61392788],[-61.08795701,14.61377959],[-61.08777412,14.61367868],[-61.08759243,14.61365459],[-61.08771818,14.61327968],[-61.08784751,14.61270508],[-61.08697101,14.61243039],[-61.0867331,14.61257484],[-61.08644111,14.61264203]]]]},"bbox":[-61.10032357,14.6066808,-61.08644111,14.61510904]},{"type":"Feature","id":"fr-quartier-97229-4f6a2a319289","properties":{"id":"fr-quartier-97229-4f6a2a319289","kind":"quartier","name":"Ravine Touza","cityCode":"97229","cityName":"Schœlcher","sourceType":"iris","sourceIds":["972290105"],"colorIndex":7,"center":[-61.0921987390775,14.634263305]},"geometry":{"type":"MultiPolygon","coordinates":[[[[-61.09131053,14.65494851],[-61.09127459,14.65416741],[-61.09112958,14.65408398],[-61.09099142,14.65417412],[-61.09083644,14.65449186],[-61.09030479,14.6549999],[-61.08921446,14.6554943],[-61.08880353,14.65599791],[-61.08863046,14.65593865],[-61.08875379,14.65541732],[-61.08887438,14.65521317],[-61.08890044,14.65488443],[-61.08953549,14.65476132],[-61.08968015,14.6545646],[-61.08956517,14.65433592],[-61.089049,14.65423679],[-61.08895425,14.65413751],[-61.08908526,14.6538024],[-61.0889547,14.6535501],[-61.08909636,14.65327111],[-61.08910687,14.65302268],[-61.08933921,14.65256099],[-61.08939074,14.65218456],[-61.08908165,14.65164793],[-61.08898821,14.65118447],[-61.08861598,14.65107838],[-61.08833903,14.65047514],[-61.08827905,14.65011317],[-61.08834678,14.64915308],[-61.08815457,14.64873308],[-61.0879252,14.64853058],[-61.08722491,14.6484715],[-61.0872232,14.64834768],[-61.08751082,14.64804097],[-61.08752828,14.64784772],[-61.08735031,14.64771161],[-61.08693834,14.64758712],[-61.08668952,14.6472733],[-61.0868586,14.64672162],[-61.08661076,14.6461873],[-61.08660517,14.6457616],[-61.08718755,14.64485997],[-61.0869496,14.64404197],[-61.08680059,14.64377776],[-61.08532085,14.64315921],[-61.0852922,14.64293124],[-61.08503909,14.64257761],[-61.08467604,14.64173779],[-61.08440953,14.64143014],[-61.08390922,14.64111244],[-61.08419474,14.64093947],[-61.08401086,14.64084487],[-61.08366716,14.64055557],[-61.08342371,14.63994537],[-61.0832443,14.63922816],[-61.0828864,14.63897217],[-61.08250721,14.63828133],[-61.08235167,14.63770167],[-61.08221468,14.63755143],[-61.08234579,14.63709704],[-61.08224277,14.63698956],[-61.08220677,14.63664585],[-61.08247833,14.63626402],[-61.08236228,14.63616094],[-61.08231607,14.63592469],[-61.08237653,14.63537483],[-61.08199916,14.63501024],[-61.08207238,14.63480841],[-61.08200246,14.63473735],[-61.08204671,14.63445124],[-61.08189893,14.63436778],[-61.08186315,14.63421296],[-61.08159467,14.63413483],[-61.08165725,14.63387508],[-61.08140245,14.63382508],[-61.08155097,14.63360942],[-61.08153944,14.6327996],[-61.08195383,14.63210897],[-61.0824229,14.63174683],[-61.08309951,14.63164034],[-61.08321919,14.63153921],[-61.08321268,14.63132678],[-61.08300199,14.63079277],[-61.08295424,14.62977209],[-61.08314684,14.62918265],[-61.08292452,14.62881211],[-61.08298977,14.62835175],[-61.08288512,14.62768395],[-61.08292546,14.6274204],[-61.08297967,14.62727083],[-61.08312595,14.62709853],[-61.08321845,14.62692035],[-61.08317534,14.62664708],[-61.08323363,14.62656171],[-61.08334974,14.62644337],[-61.08374165,14.62620169],[-61.08394628,14.62615006],[-61.0842394,14.62616964],[-61.08432897,14.62611525],[-61.08473971,14.62552127],[-61.08488639,14.62519534],[-61.08512494,14.62487196],[-61.08522993,14.62464509],[-61.08538026,14.62336216],[-61.08542909,14.62318995],[-61.08558013,14.62300322],[-61.08645469,14.62243474],[-61.0868165,14.62234553],[-61.08714577,14.62215484],[-61.08725528,14.6220482],[-61.08740519,14.62177741],[-61.0876537,14.62148123],[-61.08780812,14.62144093],[-61.08818485,14.62144944],[-61.08858907,14.62139221],[-61.08884872,14.62120275],[-61.08911966,14.62088867],[-61.08973146,14.62054576],[-61.08992019,14.6204],[-61.09026664,14.61972506],[-61.09037962,14.61964555],[-61.09067329,14.61927834],[-61.09081371,14.61892433],[-61.09081521,14.61864329],[-61.09086319,14.61856777],[-61.0909553,14.61854142],[-61.09116194,14.61857926],[-61.09130701,14.61865365],[-61.09141097,14.61865179],[-61.09151048,14.6186273],[-61.09161799,14.61853781],[-61.0916225,14.61833722],[-61.09150775,14.61808414],[-61.09150311,14.61797656],[-61.0915714,14.61780723],[-61.09173568,14.61759078],[-61.09194966,14.61742263],[-61.09208274,14.61738125],[-61.09306301,14.61735673],[-61.09329837,14.61729178],[-61.09341792,14.6172042],[-61.09352155,14.61681103],[-61.09349823,14.61660931],[-61.09343273,14.61645605],[-61.09343247,14.61616324],[-61.09353801,14.61597884],[-61.09362873,14.61589825],[-61.0939588,14.61572021],[-61.09428351,14.61573371],[-61.09440048,14.61583769],[-61.09453457,14.61610899],[-61.0946353,14.61615952],[-61.09505918,14.61586566],[-61.09547225,14.61574884],[-61.09571278,14.61562339],[-61.09588519,14.6154323],[-61.09609238,14.61508335],[-61.09613141,14.61475382],[-61.09609317,14.61445257],[-61.09613156,14.61430558],[-61.09621969,14.61420237],[-61.09644469,14.61404696],[-61.09668252,14.61369555],[-61.09779406,14.61448453],[-61.09803347,14.61470337],[-61.09797555,14.61474718],[-61.09859353,14.61562521],[-61.09895233,14.61631496],[-61.09910906,14.61654398],[-61.09918168,14.61651746],[-61.0994756,14.61676567],[-61.10025598,14.61721395],[-61.10048272,14.61739744],[-61.10040542,14.61742844],[-61.10049948,14.61749879],[-61.10028179,14.61755847],[-61.10015235,14.61771737],[-61.10010472,14.61785977],[-61.10010006,14.61807843],[-61.10018359,14.6182933],[-61.10007121,14.61841077],[-61.10040832,14.61914191],[-61.10062057,14.62025521],[-61.10064621,14.62061962],[-61.10060352,14.62072681],[-61.1008246,14.62070421],[-61.10089867,14.62104913],[-61.10090833,14.62132846],[-61.10096655,14.6214663],[-61.10092023,14.62167197],[-61.10036317,14.62223406],[-61.10002965,14.62281243],[-61.09975181,14.62317526],[-61.09963741,14.62341833],[-61.09959985,14.62379307],[-61.09949083,14.62395123],[-61.09939741,14.62402187],[-61.09919132,14.62413496],[-61.09888809,14.62421201],[-61.09867732,14.62422294],[-61.09832341,14.62414866],[-61.09786487,14.6242624],[-61.09738348,14.62444282],[-61.0967942,14.6244344],[-61.09644013,14.62448753],[-61.09546771,14.62488987],[-61.09519647,14.62513166],[-61.09514554,14.62533277],[-61.09523735,14.6254492],[-61.09543219,14.62556466],[-61.09559105,14.62576206],[-61.09582851,14.62631617],[-61.09591696,14.62660699],[-61.09587252,14.62702504],[-61.09579272,14.62713012],[-61.09544146,14.62739566],[-61.09508292,14.6277515],[-61.09464483,14.62807506],[-61.09405553,14.62828261],[-61.09374471,14.62848521],[-61.09361781,14.62867124],[-61.09359303,14.62885449],[-61.09383743,14.62957223],[-61.09408465,14.6306081],[-61.09403139,14.63129449],[-61.09388366,14.6314198],[-61.09339196,14.63171671],[-61.09280125,14.63197937],[-61.09263672,14.63200784],[-61.0921683,14.63197418],[-61.0920207,14.63208413],[-61.09198671,14.63215073],[-61.09199123,14.63227186],[-61.09213008,14.63253056],[-61.09265195,14.63314574],[-61.09268298,14.63342163],[-61.09251018,14.63419198],[-61.09246922,14.63431365],[-61.09236228,14.63444471],[-61.09223101,14.63449063],[-61.09206642,14.63441879],[-61.09184282,14.63419465],[-61.09158121,14.63417895],[-61.0913158,14.63449668],[-61.09119469,14.63476229],[-61.09116537,14.63514793],[-61.09120909,14.63545917],[-61.09139696,14.63605896],[-61.09140881,14.63640518],[-61.09134316,14.63669925],[-61.0912373,14.63691889],[-61.09108389,14.6370568],[-61.09095762,14.63706119],[-61.09056867,14.6369595],[-61.09042278,14.63708663],[-61.09043976,14.63726931],[-61.09070443,14.63800349],[-61.09075399,14.63828314],[-61.09071948,14.63851692],[-61.09060366,14.638816],[-61.09065502,14.63953036],[-61.09086871,14.64004271],[-61.0909915,14.64022626],[-61.09103546,14.64040194],[-61.0909191,14.64054829],[-61.09060028,14.6405999],[-61.09040284,14.6406769],[-61.09028197,14.64080876],[-61.09025708,14.64100285],[-61.09040023,14.64130044],[-61.09079753,14.64172573],[-61.09087201,14.64191341],[-61.09078237,14.64208258],[-61.09064973,14.64217909],[-61.09038611,14.64218144],[-61.09017643,14.64227732],[-61.09019011,14.64252053],[-61.09016147,14.64261157],[-61.08979436,14.64309566],[-61.08962599,14.6432452],[-61.08966484,14.64336752],[-61.08989641,14.64353028],[-61.09013103,14.64376988],[-61.09016496,14.64403133],[-61.09013637,14.64411695],[-61.08987513,14.64437959],[-61.08936095,14.64448201],[-61.08917268,14.64457174],[-61.08911957,14.64470234],[-61.08925016,14.6451634],[-61.08922279,14.64532313],[-61.08911133,14.64543879],[-61.08874126,14.64551347],[-61.08862894,14.64562099],[-61.08842388,14.64614888],[-61.08837249,14.6464015],[-61.08905187,14.64705233],[-61.08912506,14.64717493],[-61.08905234,14.64731893],[-61.08878677,14.64754538],[-61.08874187,14.64769232],[-61.0887739,14.647745],[-61.08889279,14.64784267],[-61.08944311,14.6480695],[-61.08958523,14.6482722],[-61.08959746,14.64857504],[-61.08979177,14.64896704],[-61.08976824,14.64911234],[-61.08959271,14.64944437],[-61.08983749,14.64990456],[-61.08982018,14.65018728],[-61.08975848,14.65045246],[-61.0897888,14.6505955],[-61.08998781,14.65087457],[-61.09040057,14.65090869],[-61.09064732,14.65103452],[-61.09078913,14.65116582],[-61.09091244,14.65139637],[-61.09090894,14.65158703],[-61.09086243,14.65170503],[-61.09042691,14.65215421],[-61.09036474,14.65225944],[-61.09037129,14.65236071],[-61.09045388,14.65246983],[-61.0906776,14.65257559],[-61.09184131,14.65271709],[-61.09204673,14.65279197],[-61.09223224,14.65291459],[-61.09256389,14.65331223],[-61.09262316,14.65343562],[-61.09264328,14.65368521],[-61.09259215,14.65390891],[-61.09234648,14.65419337],[-61.09233246,14.65431255],[-61.09255443,14.65461982],[-61.09286215,14.6547805],[-61.09131053,14.65494851]]],[[[-61.10079073,14.69539316],[-61.10128681,14.69482066],[-61.10188216,14.69447127],[-61.10264159,14.69436543],[-61.10287794,14.69419566],[-61.10249355,14.69323096],[-61.10227694,14.69068343],[-61.10287802,14.68891527],[-61.10290494,14.68827023],[-61.10273096,14.68809801],[-61.10262547,14.6878432],[-61.10269867,14.68775162],[-61.10268522,14.68758885],[-61.1024661,14.68737649],[-61.10233401,14.68740614],[-61.10215605,14.68683444],[-61.10163296,14.68666749],[-61.10162789,14.686071],[-61.10139488,14.68574737],[-61.10114982,14.68563602],[-61.10096671,14.68566163],[-61.10081038,14.68559619],[-61.10048559,14.68525735],[-61.10022851,14.68438768],[-61.09973749,14.68351881],[-61.09958118,14.68194598],[-61.09922659,14.6809743],[-61.09930817,14.68044991],[-61.09901186,14.67971728],[-61.09895697,14.67930113],[-61.09867076,14.6790114],[-61.09819098,14.67823841],[-61.0983091,14.67735374],[-61.09859145,14.67647946],[-61.09846859,14.67565607],[-61.09857161,14.67469175],[-61.09887459,14.6742225],[-61.09914893,14.67405936],[-61.0990905,14.67319313],[-61.09875309,14.67238245],[-61.09880119,14.67143575],[-61.09874058,14.67071409],[-61.09821777,14.6696588],[-61.09861512,14.66739735],[-61.09737304,14.66428383],[-61.09728403,14.6630893],[-61.0971609,14.66272862],[-61.09498369,14.6626665],[-61.09493565,14.66231818],[-61.09455381,14.66128211],[-61.09441571,14.66007723],[-61.09426336,14.65955364],[-61.09432838,14.65933457],[-61.09444695,14.65925511],[-61.09458882,14.65927344],[-61.09463163,14.6591536],[-61.09468767,14.65739544],[-61.09425094,14.6561601],[-61.09286215,14.6547805],[-61.09303351,14.65482257],[-61.09342812,14.65502462],[-61.09402683,14.65513346],[-61.09446665,14.65525997],[-61.0950627,14.6555685],[-61.09519642,14.6556699],[-61.09532487,14.65584447],[-61.09550135,14.65626072],[-61.09581342,14.65731429],[-61.09608023,14.65791202],[-61.09607505,14.65797524],[-61.09596078,14.65809359],[-61.09551218,14.65822909],[-61.09541867,14.65830876],[-61.09525476,14.65869239],[-61.09522874,14.65891088],[-61.09534829,14.65936371],[-61.09559705,14.65968657],[-61.09584431,14.65986211],[-61.09596098,14.6598956],[-61.09631084,14.6599075],[-61.09650036,14.65978163],[-61.09667901,14.65973339],[-61.09697077,14.65980807],[-61.097358,14.66011398],[-61.0977079,14.66055063],[-61.09782284,14.66078382],[-61.09815315,14.66101697],[-61.09823951,14.66112161],[-61.09834525,14.66134569],[-61.09839729,14.66166151],[-61.09838973,14.66200034],[-61.09847107,14.66225585],[-61.0986196,14.6623628],[-61.09895505,14.66243061],[-61.09903074,14.66248003],[-61.09913663,14.66268785],[-61.09923144,14.66310343],[-61.0994236,14.66342492],[-61.09964446,14.66364904],[-61.0999586,14.66381969],[-61.1000164,14.66389879],[-61.10009044,14.66424732],[-61.10008585,14.66456449],[-61.10046356,14.66522277],[-61.10078077,14.66600707],[-61.10079103,14.66621592],[-61.10070352,14.66646011],[-61.100843,14.66697185],[-61.10084717,14.66724119],[-61.10064767,14.66798512],[-61.10060896,14.66805981],[-61.10038388,14.66821793],[-61.10031147,14.66854086],[-61.10045159,14.66876252],[-61.10042939,14.66896838],[-61.10046041,14.66903189],[-61.10051485,14.66906939],[-61.10079042,14.6690852],[-61.1009194,14.66919922],[-61.10098592,14.66934436],[-61.10100022,14.66951618],[-61.10086508,14.6700085],[-61.10086235,14.67021724],[-61.10093127,14.67040577],[-61.10103624,14.67050514],[-61.10193365,14.6708604],[-61.10201272,14.67094871],[-61.10213196,14.67133105],[-61.10211035,14.67146914],[-61.10195128,14.67161424],[-61.10173804,14.67169022],[-61.10119551,14.67173549],[-61.10091692,14.67185431],[-61.10074741,14.67202643],[-61.10055954,14.67239],[-61.10043973,14.67293396],[-61.10047831,14.67308971],[-61.10055966,14.67312924],[-61.10071013,14.67311962],[-61.10126609,14.67302476],[-61.10139399,14.6730484],[-61.10145176,14.67313111],[-61.10141628,14.67326276],[-61.1010461,14.67388239],[-61.10092274,14.67440734],[-61.10081983,14.67514574],[-61.10081802,14.67578555],[-61.10086546,14.67609772],[-61.10077473,14.67617651],[-61.1006733,14.67620369],[-61.10017064,14.67614626],[-61.09994721,14.67632698],[-61.09973522,14.67668673],[-61.09970195,14.67699282],[-61.09974335,14.67735826],[-61.09983688,14.67760031],[-61.10001964,14.67782954],[-61.10004402,14.67790927],[-61.09992656,14.67818033],[-61.09986588,14.67854222],[-61.0999602,14.67890809],[-61.10016411,14.67916099],[-61.10057938,14.67944906],[-61.10060049,14.67958479],[-61.10054621,14.67974249],[-61.10053343,14.67993217],[-61.10057906,14.68002291],[-61.10064912,14.68008132],[-61.10096464,14.68009475],[-61.10118871,14.68016346],[-61.10151303,14.68044807],[-61.10175241,14.68046358],[-61.10208221,14.68022227],[-61.10233487,14.68020446],[-61.10251082,14.68047068],[-61.10264762,14.68054048],[-61.10306033,14.68058723],[-61.10345304,14.68058502],[-61.10381435,14.68067202],[-61.10414459,14.68070182],[-61.10463487,14.6807971],[-61.10483804,14.68092167],[-61.10495223,14.68102924],[-61.10512078,14.68129269],[-61.10521581,14.68157633],[-61.10521408,14.68220891],[-61.10523946,14.68227961],[-61.1053808,14.6823612],[-61.10547727,14.68237012],[-61.10591182,14.68225437],[-61.10663156,14.68222409],[-61.1068727,14.68225137],[-61.10722086,14.68214124],[-61.10735439,14.6821586],[-61.10797528,14.68239591],[-61.10799502,14.6824756],[-61.10791582,14.68272528],[-61.10781908,14.68328661],[-61.10785506,14.68352909],[-61.10794596,14.68364641],[-61.10808899,14.68374699],[-61.10859455,14.68401048],[-61.10870961,14.68412528],[-61.10875667,14.68426574],[-61.10852543,14.68513865],[-61.10861732,14.6861127],[-61.10872646,14.68648321],[-61.1086811,14.68679191],[-61.10888718,14.68722647],[-61.10888566,14.68740359],[-61.10905762,14.68759477],[-61.10885922,14.68767087],[-61.10895224,14.68775748],[-61.10924739,14.68787556],[-61.10939086,14.68803308],[-61.10993754,14.68815772],[-61.11011863,14.68825951],[-61.11024124,14.68846836],[-61.11026997,14.68879845],[-61.11046963,14.68911638],[-61.11053261,14.68934915],[-61.11095313,14.68957037],[-61.11118599,14.68980633],[-61.11200997,14.69029019],[-61.11232789,14.69056751],[-61.11241583,14.69070469],[-61.11251068,14.69112027],[-61.11275451,14.69148464],[-61.1128066,14.6916893],[-61.1127817,14.69188521],[-61.11281522,14.69198218],[-61.1132028,14.69236489],[-61.11344212,14.69249697],[-61.11364105,14.69268476],[-61.11380882,14.69304128],[-61.1142776,14.69380602],[-61.11433603,14.69424661],[-61.11455937,14.69472649],[-61.1145735,14.69481155],[-61.1145152,14.69500628],[-61.114594,14.69512802],[-61.11467025,14.69543862],[-61.11464752,14.69570684],[-61.11469607,14.69589159],[-61.11488677,14.69628083],[-61.11478528,14.69653124],[-61.11459271,14.69668512],[-61.11443449,14.69705435],[-61.11418978,14.69722407],[-61.11408593,14.69742476],[-61.11409114,14.69768416],[-61.11376003,14.69829238],[-61.11343265,14.69868374],[-61.11355032,14.6989278],[-61.11341079,14.69928273],[-61.11345379,14.69946563],[-61.11321013,14.69983688],[-61.11316231,14.70010851],[-61.11330272,14.70116429],[-61.1132161,14.70130457],[-61.11317265,14.7017145],[-61.11326452,14.7020442],[-61.11325248,14.70268936],[-61.11237175,14.70232251],[-61.11213848,14.70234862],[-61.11152616,14.70272681],[-61.11139496,14.70308452],[-61.11089072,14.7034184],[-61.11072177,14.70341521],[-61.11042459,14.70320855],[-61.11018841,14.70292467],[-61.10996883,14.70287137],[-61.10975384,14.70271598],[-61.10879668,14.70249129],[-61.10849669,14.70228731],[-61.1082722,14.70237224],[-61.10803707,14.70218325],[-61.10739458,14.70229187],[-61.10662268,14.70222502],[-61.10702941,14.7014629],[-61.10695126,14.70105107],[-61.1070133,14.70042349],[-61.10403191,14.70087268],[-61.10235594,14.69981338],[-61.10209593,14.69949585],[-61.1022152,14.69890851],[-61.10203938,14.6988411],[-61.10173596,14.69763849],[-61.10179811,14.69753778],[-61.10176925,14.69690224],[-61.101694,14.69669287],[-61.10135741,14.69610541],[-61.10112607,14.69591012],[-61.1006358,14.69570187],[-61.10079073,14.69539316]]]]},"bbox":[-61.11488677,14.61369555,-61.08140245,14.7034184]},{"type":"Feature","id":"fr-quartier-97229-d25b3631a74b","properties":{"id":"fr-quartier-97229-d25b3631a74b","kind":"quartier","name":"Terreville","cityCode":"97229","cityName":"Schœlcher","sourceType":"iris","sourceIds":["972290108"],"colorIndex":8,"center":[-61.10050311334618,14.659349814999999]},"geometry":{"type":"MultiPolygon","coordinates":[[[[-61.10757503,14.66578326],[-61.10760473,14.66708033],[-61.10753584,14.6674268],[-61.10721351,14.66755973],[-61.10696134,14.66784506],[-61.10718179,14.66887348],[-61.10711175,14.66913769],[-61.10662645,14.66987027],[-61.10636403,14.67005158],[-61.10624446,14.67035426],[-61.10589134,14.67061165],[-61.10581506,14.67138551],[-61.10570587,14.67156084],[-61.10540881,14.67177531],[-61.10534819,14.67224023],[-61.10546646,14.67273553],[-61.10578571,14.67317824],[-61.10576681,14.67354048],[-61.10591368,14.67373416],[-61.10581057,14.67395654],[-61.10608732,14.67416033],[-61.10584514,14.67447013],[-61.10707873,14.67449013],[-61.10752006,14.67477027],[-61.10801258,14.67482037],[-61.10772062,14.67595306],[-61.10739313,14.6766842],[-61.10705455,14.67719295],[-61.10705872,14.67757164],[-61.10689558,14.67786673],[-61.10701697,14.6781081],[-61.10694723,14.67876906],[-61.10721558,14.67919418],[-61.10745588,14.68007365],[-61.10778078,14.68050827],[-61.10914817,14.68149],[-61.10950393,14.68157514],[-61.11137955,14.68316016],[-61.11315148,14.68363095],[-61.11323528,14.68414404],[-61.11348682,14.68479947],[-61.11348942,14.68568604],[-61.11323648,14.6867097],[-61.11343886,14.68725087],[-61.11348812,14.68778627],[-61.1136242,14.68804855],[-61.11412793,14.68852619],[-61.11470169,14.68895831],[-61.11532004,14.68927873],[-61.11580632,14.68995234],[-61.11590069,14.69020705],[-61.11581415,14.69044674],[-61.11586272,14.69062968],[-61.11622217,14.69126068],[-61.1161855,14.69163995],[-61.11628113,14.69196516],[-61.11620971,14.69293156],[-61.11651096,14.69353046],[-61.11617038,14.69383767],[-61.11579613,14.69460731],[-61.11570237,14.69557985],[-61.11527304,14.69681717],[-61.1148364,14.69728265],[-61.11423884,14.69745763],[-61.11409114,14.69768416],[-61.11408593,14.69742476],[-61.11418978,14.69722407],[-61.11443449,14.69705435],[-61.11459271,14.69668512],[-61.11478528,14.69653124],[-61.11488677,14.69628083],[-61.11469607,14.69589159],[-61.11464752,14.69570684],[-61.11467025,14.69543862],[-61.114594,14.69512802],[-61.1145152,14.69500628],[-61.1145735,14.69481155],[-61.11455937,14.69472649],[-61.11433603,14.69424661],[-61.1142776,14.69380602],[-61.11380882,14.69304128],[-61.11364105,14.69268476],[-61.11344212,14.69249697],[-61.1132028,14.69236489],[-61.11281522,14.69198218],[-61.1127817,14.69188521],[-61.1128066,14.6916893],[-61.11275451,14.69148464],[-61.11251068,14.69112027],[-61.11241583,14.69070469],[-61.11232789,14.69056751],[-61.11200997,14.69029019],[-61.11118599,14.68980633],[-61.11095313,14.68957037],[-61.11053261,14.68934915],[-61.11046963,14.68911638],[-61.11026997,14.68879845],[-61.11024124,14.68846836],[-61.11011863,14.68825951],[-61.10993754,14.68815772],[-61.10939086,14.68803308],[-61.10924739,14.68787556],[-61.10895224,14.68775748],[-61.10885922,14.68767087],[-61.10905762,14.68759477],[-61.10888566,14.68740359],[-61.10888718,14.68722647],[-61.1086811,14.68679191],[-61.10872646,14.68648321],[-61.10861732,14.6861127],[-61.10852543,14.68513865],[-61.10875667,14.68426574],[-61.10870961,14.68412528],[-61.10859455,14.68401048],[-61.10808899,14.68374699],[-61.10794596,14.68364641],[-61.10785506,14.68352909],[-61.10781908,14.68328661],[-61.10791582,14.68272528],[-61.10799502,14.6824756],[-61.10797528,14.68239591],[-61.10735439,14.6821586],[-61.10722086,14.68214124],[-61.1068727,14.68225137],[-61.10663156,14.68222409],[-61.10591182,14.68225437],[-61.10547727,14.68237012],[-61.1053808,14.6823612],[-61.10523946,14.68227961],[-61.10521408,14.68220891],[-61.10521581,14.68157633],[-61.10512078,14.68129269],[-61.10495223,14.68102924],[-61.10483804,14.68092167],[-61.10463487,14.6807971],[-61.10414459,14.68070182],[-61.10381435,14.68067202],[-61.10345304,14.68058502],[-61.10306033,14.68058723],[-61.10264762,14.68054048],[-61.10251082,14.68047068],[-61.10233487,14.68020446],[-61.10208221,14.68022227],[-61.10175241,14.68046358],[-61.10151303,14.68044807],[-61.10118871,14.68016346],[-61.10096464,14.68009475],[-61.10064912,14.68008132],[-61.10057906,14.68002291],[-61.10053343,14.67993217],[-61.10054621,14.67974249],[-61.10060049,14.67958479],[-61.10057938,14.67944906],[-61.10016411,14.67916099],[-61.0999602,14.67890809],[-61.09986588,14.67854222],[-61.09992656,14.67818033],[-61.10004402,14.67790927],[-61.10001964,14.67782954],[-61.09983688,14.67760031],[-61.09974335,14.67735826],[-61.09970195,14.67699282],[-61.09973522,14.67668673],[-61.09994721,14.67632698],[-61.10017064,14.67614626],[-61.1006733,14.67620369],[-61.10077473,14.67617651],[-61.10086546,14.67609772],[-61.10081802,14.67578555],[-61.10081983,14.67514574],[-61.10092274,14.67440734],[-61.1010461,14.67388239],[-61.10141628,14.67326276],[-61.10145176,14.67313111],[-61.10139399,14.6730484],[-61.10126609,14.67302476],[-61.10071013,14.67311962],[-61.10055966,14.67312924],[-61.10047831,14.67308971],[-61.10043973,14.67293396],[-61.10055954,14.67239],[-61.10074741,14.67202643],[-61.10091692,14.67185431],[-61.10119551,14.67173549],[-61.10173804,14.67169022],[-61.10195128,14.67161424],[-61.10211035,14.67146914],[-61.10213196,14.67133105],[-61.10201272,14.67094871],[-61.10193365,14.6708604],[-61.10103624,14.67050514],[-61.10093127,14.67040577],[-61.10086235,14.67021724],[-61.10086508,14.6700085],[-61.10100022,14.66951618],[-61.10098592,14.66934436],[-61.1009194,14.66919922],[-61.10079042,14.6690852],[-61.10051485,14.66906939],[-61.10046041,14.66903189],[-61.10042939,14.66896838],[-61.10045159,14.66876252],[-61.10031147,14.66854086],[-61.10038388,14.66821793],[-61.10060896,14.66805981],[-61.10064767,14.66798512],[-61.10084717,14.66724119],[-61.100843,14.66697185],[-61.10070352,14.66646011],[-61.10079103,14.66621592],[-61.10078077,14.66600707],[-61.10046356,14.66522277],[-61.10008585,14.66456449],[-61.10009044,14.66424732],[-61.1000164,14.66389879],[-61.0999586,14.66381969],[-61.09964446,14.66364904],[-61.0994236,14.66342492],[-61.09923144,14.66310343],[-61.09913663,14.66268785],[-61.09903074,14.66248003],[-61.09895505,14.66243061],[-61.0986196,14.6623628],[-61.09847107,14.66225585],[-61.09838973,14.66200034],[-61.09839729,14.66166151],[-61.09834525,14.66134569],[-61.09823951,14.66112161],[-61.09815315,14.66101697],[-61.09782284,14.66078382],[-61.0977079,14.66055063],[-61.097358,14.66011398],[-61.09697077,14.65980807],[-61.09667901,14.65973339],[-61.09650036,14.65978163],[-61.09631084,14.6599075],[-61.09596098,14.6598956],[-61.09584431,14.65986211],[-61.09559705,14.65968657],[-61.09534829,14.65936371],[-61.09522874,14.65891088],[-61.09525476,14.65869239],[-61.09541867,14.65830876],[-61.09551218,14.65822909],[-61.09596078,14.65809359],[-61.09607505,14.65797524],[-61.09608023,14.65791202],[-61.09581342,14.65731429],[-61.09550135,14.65626072],[-61.09532487,14.65584447],[-61.09519642,14.6556699],[-61.0950627,14.6555685],[-61.09446665,14.65525997],[-61.09402683,14.65513346],[-61.09342812,14.65502462],[-61.09303351,14.65482257],[-61.09286215,14.6547805],[-61.09255443,14.65461982],[-61.09233246,14.65431255],[-61.09234648,14.65419337],[-61.09259215,14.65390891],[-61.09264328,14.65368521],[-61.09262316,14.65343562],[-61.09256389,14.65331223],[-61.09223224,14.65291459],[-61.09204673,14.65279197],[-61.09184131,14.65271709],[-61.0906776,14.65257559],[-61.09045388,14.65246983],[-61.09037129,14.65236071],[-61.09036474,14.65225944],[-61.09042691,14.65215421],[-61.09086243,14.65170503],[-61.09090894,14.65158703],[-61.09091244,14.65139637],[-61.09078913,14.65116582],[-61.09064732,14.65103452],[-61.09040057,14.65090869],[-61.08998781,14.65087457],[-61.0897888,14.6505955],[-61.08975848,14.65045246],[-61.08982018,14.65018728],[-61.08983749,14.64990456],[-61.08959271,14.64944437],[-61.08976824,14.64911234],[-61.08979177,14.64896704],[-61.08959746,14.64857504],[-61.08958523,14.6482722],[-61.08944311,14.6480695],[-61.08889279,14.64784267],[-61.0887739,14.647745],[-61.08874187,14.64769232],[-61.08878677,14.64754538],[-61.08905234,14.64731893],[-61.08912506,14.64717493],[-61.08905187,14.64705233],[-61.08837249,14.6464015],[-61.08842388,14.64614888],[-61.08862894,14.64562099],[-61.08874126,14.64551347],[-61.08911133,14.64543879],[-61.08922279,14.64532313],[-61.08925016,14.6451634],[-61.08911957,14.64470234],[-61.08917268,14.64457174],[-61.08936095,14.64448201],[-61.08987513,14.64437959],[-61.09013637,14.64411695],[-61.09016496,14.64403133],[-61.09013103,14.64376988],[-61.08989641,14.64353028],[-61.08966484,14.64336752],[-61.08962599,14.6432452],[-61.08979436,14.64309566],[-61.09016147,14.64261157],[-61.09019011,14.64252053],[-61.09017643,14.64227732],[-61.09038611,14.64218144],[-61.09064973,14.64217909],[-61.09078237,14.64208258],[-61.09087201,14.64191341],[-61.09079753,14.64172573],[-61.09040023,14.64130044],[-61.09025708,14.64100285],[-61.09028197,14.64080876],[-61.09040284,14.6406769],[-61.09060028,14.6405999],[-61.0909191,14.64054829],[-61.09103546,14.64040194],[-61.0909915,14.64022626],[-61.09086871,14.64004271],[-61.09065502,14.63953036],[-61.09060366,14.638816],[-61.09071948,14.63851692],[-61.09075399,14.63828314],[-61.09070443,14.63800349],[-61.09043976,14.63726931],[-61.09042278,14.63708663],[-61.09056867,14.6369595],[-61.09095762,14.63706119],[-61.09108389,14.6370568],[-61.0912373,14.63691889],[-61.09134316,14.63669925],[-61.09140881,14.63640518],[-61.09139696,14.63605896],[-61.09120909,14.63545917],[-61.09116537,14.63514793],[-61.09119469,14.63476229],[-61.0913158,14.63449668],[-61.09158121,14.63417895],[-61.09184282,14.63419465],[-61.09206642,14.63441879],[-61.09223101,14.63449063],[-61.09236228,14.63444471],[-61.09246922,14.63431365],[-61.09251018,14.63419198],[-61.09268298,14.63342163],[-61.09265195,14.63314574],[-61.09213008,14.63253056],[-61.09199123,14.63227186],[-61.09198671,14.63215073],[-61.0920207,14.63208413],[-61.0921683,14.63197418],[-61.09263672,14.63200784],[-61.09280125,14.63197937],[-61.09339196,14.63171671],[-61.09388366,14.6314198],[-61.09403139,14.63129449],[-61.09408465,14.6306081],[-61.09383743,14.62957223],[-61.09444336,14.62958894],[-61.09443392,14.62971448],[-61.09448809,14.6297827],[-61.09485621,14.62971612],[-61.09509369,14.62962227],[-61.09545359,14.62932518],[-61.09572961,14.62917471],[-61.0960398,14.62883022],[-61.09666793,14.6272403],[-61.09688853,14.62738218],[-61.09713592,14.62775382],[-61.09887115,14.62661214],[-61.10245417,14.62850391],[-61.10239766,14.62881614],[-61.10240946,14.62927894],[-61.10248137,14.6294431],[-61.10259758,14.62952899],[-61.1026968,14.62953884],[-61.10293509,14.62945944],[-61.103165,14.62927515],[-61.10401817,14.62827716],[-61.10410167,14.62871344],[-61.10404531,14.62987335],[-61.1041032,14.63037358],[-61.10401418,14.63068825],[-61.10372147,14.63137631],[-61.10365645,14.63170654],[-61.10365441,14.63205174],[-61.10358783,14.63234762],[-61.10337859,14.63250226],[-61.10217681,14.63291269],[-61.10190695,14.63310208],[-61.10148595,14.6335975],[-61.10094844,14.63436489],[-61.10053629,14.63512517],[-61.09965147,14.63591231],[-61.09925664,14.63649289],[-61.09862623,14.6371601],[-61.09841803,14.63730119],[-61.0982458,14.63736214],[-61.0981191,14.63730869],[-61.09784396,14.63703171],[-61.09772066,14.63701444],[-61.09769344,14.63705036],[-61.09776488,14.63748382],[-61.09774935,14.63788585],[-61.09767054,14.63819879],[-61.09763894,14.63852749],[-61.09771291,14.63899079],[-61.0977803,14.63914136],[-61.09824246,14.63968827],[-61.09899176,14.63998087],[-61.09968537,14.6404899],[-61.09996243,14.64076057],[-61.10003126,14.64095904],[-61.10002319,14.64103398],[-61.09970873,14.64154925],[-61.09942336,14.64213704],[-61.0990267,14.64271218],[-61.09889137,14.6439835],[-61.09882,14.64407961],[-61.09868118,14.64413903],[-61.097632,14.6440681],[-61.09755288,14.64409366],[-61.09748875,14.6444266],[-61.0974369,14.64451926],[-61.09660247,14.64537729],[-61.09611558,14.64597337],[-61.09583747,14.64625577],[-61.09545417,14.64678672],[-61.09420859,14.64785194],[-61.09404344,14.64805844],[-61.09415759,14.6483829],[-61.09420214,14.64870589],[-61.09455404,14.64858587],[-61.09496645,14.64833802],[-61.09507136,14.64822862],[-61.09531147,14.64783296],[-61.09546849,14.64770772],[-61.095871,14.64753208],[-61.09607535,14.64751568],[-61.09615865,14.64754347],[-61.0962858,14.64765296],[-61.09638585,14.64789055],[-61.09655715,14.64793895],[-61.09769634,14.64876884],[-61.09777997,14.64886531],[-61.09805183,14.64941699],[-61.09844201,14.64991632],[-61.09876443,14.6504169],[-61.09894336,14.65055031],[-61.09922156,14.65068904],[-61.09976936,14.65121044],[-61.10030053,14.65140004],[-61.10065756,14.65144001],[-61.10126458,14.65133652],[-61.10190154,14.65131461],[-61.10211048,14.65119702],[-61.10222527,14.65090877],[-61.10245649,14.65068292],[-61.10260103,14.65092991],[-61.10302751,14.6512036],[-61.10331099,14.6515927],[-61.10343209,14.6520826],[-61.10375335,14.6523952],[-61.10425273,14.65304452],[-61.10465326,14.65363881],[-61.10475824,14.65395236],[-61.10516174,14.65441744],[-61.10513013,14.65453196],[-61.1048429,14.65501039],[-61.10467012,14.65545632],[-61.10466408,14.65561894],[-61.10476232,14.65606889],[-61.1047401,14.65638591],[-61.1046482,14.6567105],[-61.1044385,14.65713173],[-61.1043374,14.6574463],[-61.10432497,14.65759622],[-61.1043994,14.65768449],[-61.10518525,14.65826927],[-61.10555262,14.65872683],[-61.10566063,14.65933592],[-61.10573671,14.66042009],[-61.10571793,14.66076968],[-61.10593047,14.66109765],[-61.10614818,14.6615802],[-61.10613266,14.66208977],[-61.10637503,14.66251107],[-61.10679597,14.6630016],[-61.10679889,14.66341733],[-61.10683609,14.66362549],[-61.10712079,14.6643065],[-61.10734586,14.6646888],[-61.10745248,14.66546054],[-61.1074374,14.66570351],[-61.10757503,14.66578326]]]]},"bbox":[-61.11651096,14.62661214,-61.08837249,14.69768416]}]}