{"type":"FeatureCollection","metadata":{"sourceType":"iris","source":"IGN / INSEE — Contours IRIS 2026","sourceUrl":"https://data.geopf.fr/wfs/ows?service=WFS&version=2.0.0&request=GetFeature&typeNames=STATISTICALUNITS.IRIS%3Acontours_iris&outputFormat=application%2Fjson&srsName=CRS%3A84&count=1000&CQL_FILTER=code_insee%3D%2797405%27&sortBy=code_iris","retrievedDate":"2026-09-10","sourceYear":"2026","license":"Licence Ouverte 2.0"},"features":[{"type":"Feature","id":"fr-quartier-97405-adc2efa4e0a9","properties":{"id":"fr-quartier-97405-adc2efa4e0a9","kind":"quartier","name":"Centre Ville","cityCode":"97405","cityName":"Petite-Île","sourceType":"iris","sourceIds":["974050101"],"colorIndex":0,"center":[55.56029967743609,-21.354265065]},"geometry":{"type":"MultiPolygon","coordinates":[[[[55.55836217,-21.35238409],[55.55831404,-21.35217862],[55.55884498,-21.3522157],[55.55881192,-21.35244124],[55.55901983,-21.35247825],[55.5590145,-21.35233368],[55.55921479,-21.35236159],[55.55922143,-21.35256941],[55.55961256,-21.35260619],[55.55965672,-21.35183694],[55.55977409,-21.35137094],[55.55993403,-21.35118622],[55.56013347,-21.35120239],[55.56065002,-21.35004696],[55.56093135,-21.34928065],[55.56068352,-21.34928304],[55.56085316,-21.34889426],[55.56089737,-21.34851344],[55.56101003,-21.3484313],[55.56107202,-21.34830356],[55.5610324,-21.34811443],[55.56115188,-21.34713535],[55.56231834,-21.34726006],[55.56239393,-21.34682531],[55.56272959,-21.34651654],[55.56308658,-21.34679058],[55.56314362,-21.34687327],[55.56314855,-21.3470603],[55.56303202,-21.34734204],[55.56309603,-21.34760094],[55.5632312,-21.34787942],[55.5636588,-21.34822904],[55.5641277,-21.34829899],[55.56447791,-21.34867506],[55.56469254,-21.34901293],[55.56490583,-21.34909153],[55.56504998,-21.34904218],[55.56536465,-21.34851371],[55.56572451,-21.34819521],[55.56596814,-21.34783144],[55.56612661,-21.3476973],[55.56622672,-21.34771532],[55.5666923,-21.34802732],[55.56681596,-21.34800308],[55.56769779,-21.34834574],[55.56773591,-21.34809403],[55.56796973,-21.34784581],[55.56816187,-21.34772008],[55.56886964,-21.34741898],[55.5699728,-21.34770841],[55.57047089,-21.34755276],[55.57169715,-21.34747738],[55.57161355,-21.34764649],[55.57184726,-21.34780746],[55.57163157,-21.34827445],[55.571413,-21.34864114],[55.57135187,-21.3488791],[55.57057835,-21.34999444],[55.5714436,-21.34996025],[55.57158105,-21.34990632],[55.57159224,-21.34994526],[55.57113955,-21.35039036],[55.57105696,-21.35105269],[55.57105551,-21.35150072],[55.57101831,-21.35155822],[55.57078587,-21.35166283],[55.57067209,-21.35176213],[55.57052147,-21.35208063],[55.57039067,-21.35224482],[55.57001653,-21.35244488],[55.57018933,-21.35252404],[55.57044628,-21.35257591],[55.5705156,-21.3526867],[55.57050532,-21.35275166],[55.57031612,-21.3528729],[55.57026884,-21.35297547],[55.57049329,-21.35309752],[55.57082388,-21.35321235],[55.57089259,-21.3532861],[55.57099272,-21.35360041],[55.57126555,-21.35400471],[55.5708085,-21.35440099],[55.57080033,-21.35444789],[55.57134046,-21.35483098],[55.57137435,-21.35491618],[55.57095629,-21.3550707],[55.57093141,-21.35514998],[55.57118806,-21.35553246],[55.57151092,-21.35634549],[55.57175571,-21.35645958],[55.57200242,-21.35647432],[55.57201748,-21.35651239],[55.57138485,-21.35661812],[55.57098315,-21.35677549],[55.57063268,-21.35682038],[55.57048779,-21.35674598],[55.57025238,-21.35646034],[55.57008881,-21.35642371],[55.56988019,-21.35655743],[55.56949602,-21.35699498],[55.56919531,-21.3571785],[55.56872696,-21.35734614],[55.56807195,-21.35747244],[55.56803883,-21.35760585],[55.56815926,-21.35791401],[55.56842397,-21.35826043],[55.56849958,-21.35841825],[55.56843281,-21.3586408],[55.56798755,-21.35901278],[55.56786638,-21.35917706],[55.5678234,-21.35963015],[55.56784003,-21.35980464],[55.56793617,-21.36003309],[55.56804651,-21.3601885],[55.56818723,-21.36029539],[55.56866528,-21.36032024],[55.56888445,-21.36039167],[55.56925476,-21.36078777],[55.56952925,-21.36102135],[55.57014697,-21.36146021],[55.57022445,-21.36162437],[55.57019083,-21.36180926],[55.57001235,-21.36191704],[55.56924809,-21.36177233],[55.56917471,-21.36178164],[55.56900946,-21.36191663],[55.5689237,-21.36200984],[55.56886798,-21.36218642],[55.56883292,-21.36281754],[55.56873355,-21.36312021],[55.56794724,-21.36296084],[55.56674488,-21.36284579],[55.56617335,-21.36281381],[55.56576135,-21.3628383],[55.56573591,-21.36277665],[55.5655783,-21.36282047],[55.56539226,-21.36281256],[55.5645983,-21.36274616],[55.56423661,-21.36265454],[55.56404149,-21.3626881],[55.56367617,-21.36267233],[55.56260094,-21.3625746],[55.56246963,-21.36259064],[55.5613865,-21.36251271],[55.56188605,-21.36073113],[55.56178021,-21.36070764],[55.56201876,-21.35958325],[55.56191152,-21.35950465],[55.56183481,-21.35867023],[55.56159201,-21.35835289],[55.5618887,-21.35808895],[55.56190772,-21.35801685],[55.56181033,-21.35801692],[55.56161635,-21.3578355],[55.56172889,-21.35707407],[55.56212227,-21.35678295],[55.56204424,-21.35677416],[55.56203399,-21.35673793],[55.56133747,-21.35637426],[55.56010649,-21.35613517],[55.56013397,-21.35569187],[55.5601047,-21.35562839],[55.55988186,-21.35563732],[55.55981491,-21.35558164],[55.55985106,-21.35513842],[55.55961782,-21.3548302],[55.56012357,-21.35428893],[55.56023381,-21.35425646],[55.56055571,-21.35427367],[55.56067614,-21.35418527],[55.56036614,-21.35314832],[55.55975235,-21.35300395],[55.55911141,-21.35277713],[55.55886752,-21.35267116],[55.55861475,-21.35248833],[55.55836217,-21.35238409]]]]},"bbox":[55.55831404,-21.36312021,55.57201748,-21.34651654]},{"type":"Feature","id":"fr-quartier-97405-3b9eb28c2e3e","properties":{"id":"fr-quartier-97405-3b9eb28c2e3e","kind":"quartier","name":"La Ravine du Pont-Manapany les Hauts","cityCode":"97405","cityName":"Petite-Île","sourceType":"iris","sourceIds":["974050102"],"colorIndex":1,"center":[55.54868520930313,-21.33963559]},"geometry":{"type":"MultiPolygon","coordinates":[[[[55.58674365,-21.3276818],[55.58622121,-21.32807397],[55.58528449,-21.32823411],[55.58501125,-21.32847661],[55.58506211,-21.32890431],[55.58524182,-21.32936652],[55.58519347,-21.33018543],[55.58537256,-21.3306124],[55.58534966,-21.33078926],[55.58510847,-21.33120728],[55.58505183,-21.33168466],[55.58517067,-21.33196027],[55.58552824,-21.3323752],[55.58549125,-21.33271363],[55.5855804,-21.33316966],[55.58589491,-21.33365197],[55.58606487,-21.33372386],[55.58651056,-21.3336969],[55.58682576,-21.33380524],[55.58705226,-21.33411518],[55.58749478,-21.3344197],[55.58793212,-21.3348624],[55.58863317,-21.33515193],[55.58901557,-21.33549298],[55.58951885,-21.33559477],[55.58994843,-21.33614398],[55.58976569,-21.33650017],[55.58947703,-21.33684281],[55.58958515,-21.33702981],[55.58955527,-21.33783623],[55.58928417,-21.33865959],[55.58941632,-21.33915753],[55.58986943,-21.3396672],[55.58985111,-21.33986939],[55.58946994,-21.34040638],[55.58935822,-21.34130063],[55.58930835,-21.34147456],[55.58905965,-21.34177057],[55.58909096,-21.34202557],[55.5889627,-21.34222864],[55.58909876,-21.34251975],[55.58912619,-21.3428777],[55.58935062,-21.34340532],[55.58924185,-21.34439445],[55.58967045,-21.34514962],[55.58953505,-21.34559562],[55.58980983,-21.34589964],[55.58990369,-21.34616781],[55.58976413,-21.34674658],[55.58925311,-21.34734932],[55.58932878,-21.34840956],[55.58909735,-21.34881411],[55.58910083,-21.34895325],[55.58934004,-21.34934911],[55.58944085,-21.35030116],[55.58969771,-21.35147131],[55.58964481,-21.35206255],[55.58946194,-21.35283335],[55.58939621,-21.3544615],[55.58916405,-21.35483985],[55.58898671,-21.35553663],[55.58913901,-21.35624701],[55.5890858,-21.3570713],[55.58816872,-21.35737705],[55.58563007,-21.35683898],[55.58548235,-21.35695878],[55.58526048,-21.35696775],[55.58517042,-21.35690647],[55.58476581,-21.35626351],[55.58469502,-21.3562042],[55.58461816,-21.35617464],[55.58450792,-21.35620714],[55.58428326,-21.35650695],[55.58418294,-21.35650972],[55.58399163,-21.35634912],[55.58388145,-21.35617475],[55.58377923,-21.35587399],[55.58371581,-21.35585087],[55.58364826,-21.35585662],[55.58350848,-21.3559521],[55.58339719,-21.35619416],[55.58338825,-21.35632145],[55.58345221,-21.35658937],[55.58341494,-21.35675527],[55.58329361,-21.35683735],[55.58285016,-21.35682458],[55.58257713,-21.35673826],[55.58226709,-21.35648994],[55.58217577,-21.35646026],[55.58188019,-21.35651287],[55.58183121,-21.35649258],[55.58159408,-21.35618345],[55.58127937,-21.35642017],[55.58114939,-21.3563992],[55.58095193,-21.35617712],[55.58088881,-21.35602212],[55.58089594,-21.35568253],[55.5808494,-21.35560897],[55.58077698,-21.3556192],[55.58054397,-21.35578344],[55.58047931,-21.35578922],[55.58026433,-21.35568352],[55.58015223,-21.35580813],[55.58002801,-21.35619099],[55.5799375,-21.35627695],[55.57980826,-21.35627947],[55.57923322,-21.35611381],[55.57884454,-21.35622073],[55.57867872,-21.35621752],[55.57853301,-21.35612776],[55.57848472,-21.35603611],[55.5784307,-21.35573846],[55.5784714,-21.35531786],[55.57843112,-21.35519467],[55.57834401,-21.35512889],[55.57798713,-21.35533815],[55.57770718,-21.3553701],[55.57746095,-21.35550532],[55.57707724,-21.35639636],[55.57692116,-21.35658203],[55.57685731,-21.35660407],[55.57673243,-21.35655423],[55.57662651,-21.35633924],[55.57653814,-21.35630327],[55.57641682,-21.35638444],[55.57626779,-21.35663972],[55.57617036,-21.35664341],[55.57607265,-21.35657574],[55.57587682,-21.35628501],[55.57567577,-21.35613516],[55.57555551,-21.35610614],[55.57469018,-21.35624423],[55.5738502,-21.35615399],[55.57351849,-21.35635262],[55.57345255,-21.35629153],[55.57316721,-21.35578415],[55.57316157,-21.35566938],[55.57327635,-21.35546711],[55.57323369,-21.35539177],[55.57314723,-21.35535852],[55.57296916,-21.35542476],[55.57273786,-21.35561068],[55.57259428,-21.35580006],[55.57232781,-21.35633075],[55.57218403,-21.35644154],[55.57201748,-21.35651239],[55.57200242,-21.35647432],[55.57175571,-21.35645958],[55.57151092,-21.35634549],[55.57118806,-21.35553246],[55.57093141,-21.35514998],[55.57095629,-21.3550707],[55.57137435,-21.35491618],[55.57134046,-21.35483098],[55.57080033,-21.35444789],[55.5708085,-21.35440099],[55.57126555,-21.35400471],[55.57099272,-21.35360041],[55.57089259,-21.3532861],[55.57082388,-21.35321235],[55.57049329,-21.35309752],[55.57026884,-21.35297547],[55.57031612,-21.3528729],[55.57050532,-21.35275166],[55.5705156,-21.3526867],[55.57044628,-21.35257591],[55.57018933,-21.35252404],[55.57001653,-21.35244488],[55.57039067,-21.35224482],[55.57052147,-21.35208063],[55.57067209,-21.35176213],[55.57078587,-21.35166283],[55.57101831,-21.35155822],[55.57105551,-21.35150072],[55.57105696,-21.35105269],[55.57113955,-21.35039036],[55.57159224,-21.34994526],[55.57158105,-21.34990632],[55.5714436,-21.34996025],[55.57057835,-21.34999444],[55.57135187,-21.3488791],[55.571413,-21.34864114],[55.57163157,-21.34827445],[55.57184726,-21.34780746],[55.57161355,-21.34764649],[55.57169715,-21.34747738],[55.57047089,-21.34755276],[55.5699728,-21.34770841],[55.56886964,-21.34741898],[55.56816187,-21.34772008],[55.56796973,-21.34784581],[55.56773591,-21.34809403],[55.56769779,-21.34834574],[55.56681596,-21.34800308],[55.5666923,-21.34802732],[55.56622672,-21.34771532],[55.56612661,-21.3476973],[55.56596814,-21.34783144],[55.56572451,-21.34819521],[55.56536465,-21.34851371],[55.56504998,-21.34904218],[55.56490583,-21.34909153],[55.56469254,-21.34901293],[55.56447791,-21.34867506],[55.5641277,-21.34829899],[55.5636588,-21.34822904],[55.5632312,-21.34787942],[55.56309603,-21.34760094],[55.56303202,-21.34734204],[55.56314855,-21.3470603],[55.56314362,-21.34687327],[55.56308658,-21.34679058],[55.56272959,-21.34651654],[55.56239393,-21.34682531],[55.56231834,-21.34726006],[55.56115188,-21.34713535],[55.5610324,-21.34811443],[55.56107202,-21.34830356],[55.56101003,-21.3484313],[55.56089737,-21.34851344],[55.56085316,-21.34889426],[55.56068352,-21.34928304],[55.56093135,-21.34928065],[55.56065002,-21.35004696],[55.56013347,-21.35120239],[55.55993403,-21.35118622],[55.55977409,-21.35137094],[55.55965672,-21.35183694],[55.55961256,-21.35260619],[55.55922143,-21.35256941],[55.55921479,-21.35236159],[55.5590145,-21.35233368],[55.55901983,-21.35247825],[55.55881192,-21.35244124],[55.55884498,-21.3522157],[55.55831404,-21.35217862],[55.55836217,-21.35238409],[55.55821177,-21.35238099],[55.55781167,-21.35227638],[55.55765258,-21.35197963],[55.55737705,-21.35185622],[55.55692454,-21.35188395],[55.55654141,-21.35181833],[55.55395066,-21.35111223],[55.55334382,-21.35104739],[55.55315345,-21.35118757],[55.55231101,-21.35115592],[55.55186732,-21.3510726],[55.55144034,-21.35105356],[55.55140771,-21.35113639],[55.55109349,-21.35102528],[55.55088293,-21.35086538],[55.55062253,-21.35077371],[55.55038336,-21.35048349],[55.55030613,-21.35049185],[55.55016481,-21.35093958],[55.5501035,-21.35099686],[55.55005957,-21.35095312],[55.55008906,-21.35079801],[55.54995931,-21.3508538],[55.54980366,-21.35099247],[55.54968135,-21.35078184],[55.54952771,-21.35081484],[55.54942305,-21.35096569],[55.54932147,-21.35100004],[55.548674,-21.35104684],[55.54828188,-21.35101364],[55.54781505,-21.35083166],[55.5474918,-21.3507575],[55.54725179,-21.35084666],[55.5468317,-21.35091168],[55.54643053,-21.35091633],[55.54602695,-21.35087219],[55.54588281,-21.35091972],[55.54538433,-21.35091721],[55.54528357,-21.35086756],[55.54513775,-21.35069467],[55.5449889,-21.35063286],[55.54482975,-21.3506387],[55.5445636,-21.35073757],[55.54395489,-21.35115595],[55.54388278,-21.35113545],[55.54379029,-21.35102986],[55.53875808,-21.34955531],[55.53864547,-21.34924269],[55.53869453,-21.34896309],[55.53927296,-21.34829245],[55.53983634,-21.34816727],[55.54011765,-21.34789962],[55.54059186,-21.34684687],[55.54052032,-21.34608656],[55.54124291,-21.34555898],[55.54134176,-21.3454108],[55.54124248,-21.34453101],[55.54134519,-21.3442844],[55.54174992,-21.34401601],[55.54182651,-21.34387576],[55.5416354,-21.3434089],[55.54190198,-21.34267863],[55.54174661,-21.3423024],[55.54172845,-21.34189666],[55.54198445,-21.34165137],[55.54251672,-21.34145275],[55.54261312,-21.34135693],[55.54263643,-21.34124151],[55.54248332,-21.341027],[55.54243895,-21.34073574],[55.54311914,-21.34030083],[55.54329504,-21.34006207],[55.54329798,-21.33986246],[55.54300892,-21.33945256],[55.54297789,-21.33927525],[55.54326133,-21.3385948],[55.54340763,-21.33725375],[55.54373207,-21.33652036],[55.54422895,-21.33638826],[55.5443488,-21.33626013],[55.54433106,-21.33590858],[55.54395403,-21.33542476],[55.54407018,-21.33537969],[55.5442107,-21.3354044],[55.5443035,-21.335379],[55.54442289,-21.33520028],[55.54451244,-21.33482166],[55.54455604,-21.33479946],[55.54469998,-21.33486845],[55.54482806,-21.33498157],[55.5449273,-21.33518387],[55.54514253,-21.33594271],[55.54543119,-21.33639235],[55.54554989,-21.33647919],[55.5458838,-21.33644776],[55.54634878,-21.33632261],[55.54659574,-21.33611337],[55.54670698,-21.33607639],[55.54708445,-21.33602636],[55.54720564,-21.33605631],[55.54726752,-21.33613634],[55.54723508,-21.33619929],[55.54691556,-21.33633654],[55.5465872,-21.33678445],[55.54653285,-21.33691858],[55.54651632,-21.33722556],[55.5466184,-21.33733575],[55.5473914,-21.33765498],[55.54833813,-21.33756379],[55.54895685,-21.33759082],[55.54921652,-21.33765719],[55.54953294,-21.33783517],[55.54974778,-21.33785238],[55.55012605,-21.33762349],[55.55060747,-21.33719947],[55.5508649,-21.33719898],[55.55121077,-21.33702943],[55.55135751,-21.33700992],[55.55144962,-21.33705588],[55.55157881,-21.33725301],[55.55169164,-21.33725037],[55.55183932,-21.33713602],[55.55215779,-21.3367124],[55.55227586,-21.33666645],[55.55235178,-21.33669239],[55.55239648,-21.33675511],[55.55247096,-21.33702494],[55.5523821,-21.33733582],[55.55241007,-21.33753117],[55.55246883,-21.33763466],[55.55297288,-21.33814756],[55.55304514,-21.3381527],[55.55312857,-21.33810013],[55.55342246,-21.33782353],[55.5538895,-21.33768573],[55.55419751,-21.3376396],[55.55422853,-21.33772117],[55.55386937,-21.33826368],[55.55383317,-21.33841513],[55.55418957,-21.33943352],[55.55430569,-21.33998103],[55.55468629,-21.34069521],[55.55515643,-21.34122589],[55.55525705,-21.34128908],[55.55533233,-21.34128069],[55.55554074,-21.34097084],[55.55600946,-21.34056386],[55.55609549,-21.34054112],[55.55642694,-21.34056474],[55.55650195,-21.34058435],[55.5565246,-21.34063423],[55.55664152,-21.34060814],[55.55703668,-21.34032789],[55.55717496,-21.34018906],[55.557522,-21.33960398],[55.55758035,-21.33935517],[55.55733666,-21.33903421],[55.55709596,-21.33850731],[55.55706922,-21.33828396],[55.5571804,-21.33805547],[55.55735706,-21.33783658],[55.55782261,-21.33745577],[55.55872933,-21.33751232],[55.55910236,-21.33722646],[55.55935028,-21.33691604],[55.55984166,-21.33655621],[55.5600226,-21.33629219],[55.56018782,-21.33586182],[55.56065797,-21.33530489],[55.56097028,-21.33501579],[55.56107777,-21.33457228],[55.56157567,-21.33413482],[55.56164593,-21.3340487],[55.56171085,-21.3338171],[55.56177727,-21.33372915],[55.56224606,-21.33370696],[55.56253105,-21.33354951],[55.56250622,-21.33312926],[55.5625519,-21.33299234],[55.56269423,-21.33293033],[55.5628654,-21.33267976],[55.5632378,-21.33235685],[55.56322599,-21.33198549],[55.56356448,-21.33168035],[55.56372356,-21.33138271],[55.56402067,-21.33116845],[55.56409215,-21.33095588],[55.56429394,-21.33082752],[55.5645135,-21.3305566],[55.56471041,-21.33063145],[55.5648678,-21.3306075],[55.565515,-21.33018124],[55.5656573,-21.33002256],[55.56580056,-21.32976543],[55.56606284,-21.32956352],[55.5661469,-21.329445],[55.56670755,-21.32929351],[55.56700096,-21.32896268],[55.56715889,-21.328684],[55.56751198,-21.32826245],[55.56774692,-21.32819399],[55.5680725,-21.32822387],[55.56819345,-21.32817883],[55.5683172,-21.32804348],[55.56848037,-21.32782085],[55.56849171,-21.32774416],[55.56839107,-21.32758432],[55.56838788,-21.32751564],[55.56846602,-21.32731215],[55.56865761,-21.32704098],[55.56876573,-21.32662909],[55.56873965,-21.32633528],[55.56882442,-21.32624296],[55.56907155,-21.32620984],[55.56923423,-21.32613625],[55.56942512,-21.3254396],[55.569509,-21.32534005],[55.56961648,-21.32529218],[55.56992002,-21.32540587],[55.57005382,-21.32532842],[55.57015237,-21.32510704],[55.57011795,-21.32477885],[55.57017141,-21.32463477],[55.57031865,-21.32456195],[55.57074326,-21.32451949],[55.57086539,-21.32445097],[55.57109909,-21.32421087],[55.5711561,-21.32399907],[55.57139237,-21.32389178],[55.57153528,-21.3238677],[55.57168904,-21.32391869],[55.57196946,-21.32403128],[55.57221071,-21.32420676],[55.57235467,-21.32417456],[55.57253889,-21.32396656],[55.57294137,-21.32411812],[55.57318137,-21.3228275],[55.57320197,-21.32269127],[55.57316998,-21.3226088],[55.57355268,-21.32231305],[55.57365709,-21.32218385],[55.57353191,-21.3219687],[55.57357668,-21.32172519],[55.57367549,-21.32167634],[55.57398043,-21.32174487],[55.57404039,-21.32172551],[55.5740675,-21.32161372],[55.57394107,-21.32142837],[55.57394887,-21.32131914],[55.57403987,-21.3211808],[55.5742537,-21.32110041],[55.57434518,-21.32101176],[55.5743527,-21.32093142],[55.57465581,-21.32109027],[55.57506681,-21.32065835],[55.5747042,-21.32037163],[55.57496075,-21.32036026],[55.57545831,-21.32024885],[55.57563934,-21.32017089],[55.57570168,-21.32010367],[55.57580535,-21.31995008],[55.57584053,-21.31970196],[55.57590645,-21.31956341],[55.57608494,-21.31944929],[55.57652913,-21.31867349],[55.57675305,-21.31844594],[55.57676531,-21.31837468],[55.57739742,-21.31780461],[55.57767158,-21.31736611],[55.57807776,-21.31683206],[55.57875098,-21.31719818],[55.57887186,-21.31715855],[55.57890652,-21.31726363],[55.57915891,-21.31708239],[55.57954125,-21.31732229],[55.57962602,-21.31732933],[55.57958534,-21.31764967],[55.57919709,-21.31812425],[55.57903903,-21.3181202],[55.5789672,-21.31817108],[55.57869557,-21.31864755],[55.57850061,-21.31877146],[55.57803244,-21.31893462],[55.57792841,-21.31902588],[55.57783757,-21.31914887],[55.57776033,-21.31946076],[55.57778842,-21.31984762],[55.57786031,-21.32009123],[55.57812846,-21.32057587],[55.57817144,-21.32071805],[55.57800325,-21.32126495],[55.57791055,-21.32198141],[55.57772611,-21.32281271],[55.57776391,-21.32289252],[55.57797161,-21.32304785],[55.5784495,-21.32327772],[55.57854839,-21.32342038],[55.57854007,-21.32348354],[55.57835575,-21.32360303],[55.57785549,-21.32379301],[55.57766522,-21.32392961],[55.57742638,-21.3242031],[55.57739524,-21.32433382],[55.57743944,-21.32444892],[55.57767623,-21.32478786],[55.5776642,-21.3249359],[55.57760086,-21.32500583],[55.57738504,-21.32509162],[55.5769318,-21.32510495],[55.57675856,-21.32517394],[55.57660518,-21.32538312],[55.57667971,-21.32555267],[55.57702559,-21.32597564],[55.57707368,-21.32608806],[55.57708609,-21.32650099],[55.57713876,-21.3267372],[55.57732448,-21.326774],[55.57742114,-21.32684799],[55.57770595,-21.32680614],[55.57832548,-21.32694597],[55.57843269,-21.32702547],[55.57845231,-21.32729031],[55.57830189,-21.32769282],[55.58061186,-21.32799418],[55.58113641,-21.32798596],[55.58144452,-21.32792804],[55.58168662,-21.32781626],[55.5820831,-21.3277916],[55.58214911,-21.32784546],[55.58237801,-21.32790249],[55.58248727,-21.32766945],[55.58259513,-21.32758093],[55.58274641,-21.32759034],[55.58289484,-21.32769457],[55.58303487,-21.32767045],[55.58324033,-21.32755837],[55.58339367,-21.32765361],[55.58350571,-21.3275326],[55.58382704,-21.32730135],[55.58427508,-21.32753005],[55.58476169,-21.32695421],[55.58488796,-21.32685591],[55.58499854,-21.32688665],[55.58538634,-21.32726389],[55.58554128,-21.3272932],[55.58565785,-21.32740348],[55.58583277,-21.32746005],[55.58617185,-21.3274891],[55.58674365,-21.3276818]]]]},"bbox":[55.53864547,-21.35737705,55.58994843,-21.31683206]},{"type":"Feature","id":"fr-quartier-97405-a23ed71265c4","properties":{"id":"fr-quartier-97405-a23ed71265c4","kind":"quartier","name":"Manapany les Bas-Anse les Bas","cityCode":"97405","cityName":"Petite-Île","sourceType":"iris","sourceIds":["974050103"],"colorIndex":2,"center":[55.552499313543684,-21.363114315]},"geometry":{"type":"MultiPolygon","coordinates":[[[[55.56707729,-21.37764134],[55.56721622,-21.3776353],[55.56740291,-21.37738035],[55.56727374,-21.37727447],[55.56745165,-21.37712874],[55.56763316,-21.37710861],[55.56772812,-21.37686372],[55.56786383,-21.37679262],[55.56786071,-21.37632016],[55.56821876,-21.37589775],[55.56841223,-21.37583797],[55.56904451,-21.37607462],[55.56883579,-21.37641339],[55.56894392,-21.37660039],[55.56886614,-21.37666477],[55.56870505,-21.37656945],[55.56861594,-21.37660843],[55.56861787,-21.37680628],[55.56872009,-21.37700588],[55.56867566,-21.37721146],[55.56854423,-21.37723924],[55.56843423,-21.37744335],[55.56829131,-21.37756137],[55.56803711,-21.37751946],[55.56804991,-21.3773931],[55.56786586,-21.37737708],[55.56734064,-21.37753519],[55.56726195,-21.3776935],[55.56727545,-21.37789144],[55.56713069,-21.37809978],[55.56693902,-21.37797529],[55.56707729,-21.37764134]]],[[[55.58623813,-21.36301199],[55.58610412,-21.36310842],[55.58586969,-21.36362134],[55.58535425,-21.36377237],[55.58452578,-21.3642848],[55.58425799,-21.3643548],[55.58390984,-21.36435729],[55.58372432,-21.36419403],[55.58350828,-21.36379655],[55.58319009,-21.36379206],[55.58308207,-21.3642943],[55.58316284,-21.36451991],[55.58260775,-21.3650825],[55.58262008,-21.36530483],[55.58247515,-21.36553395],[55.58253379,-21.36585332],[55.58226021,-21.36632344],[55.58246594,-21.36669103],[55.58258165,-21.36709308],[55.58235053,-21.36786076],[55.58225997,-21.3686522],[55.58242124,-21.36913052],[55.58309272,-21.37000338],[55.58357477,-21.3709207],[55.58358876,-21.37106987],[55.5833672,-21.37154586],[55.58316692,-21.37241497],[55.58271408,-21.37227113],[55.58056361,-21.37305871],[55.58030612,-21.37345851],[55.58014448,-21.37351857],[55.58008363,-21.37362826],[55.57998387,-21.37357232],[55.57964007,-21.37372207],[55.57929175,-21.37373989],[55.57896003,-21.37393582],[55.57885646,-21.37417522],[55.57869248,-21.37427862],[55.5781797,-21.37434925],[55.57785909,-21.37419387],[55.57757746,-21.374196],[55.57740266,-21.37412135],[55.57724302,-21.3741742],[55.5770385,-21.37438113],[55.57691282,-21.37441258],[55.57683394,-21.37459167],[55.57671744,-21.37457172],[55.5766392,-21.37468397],[55.57654991,-21.37464256],[55.5763389,-21.37472207],[55.57552525,-21.37558777],[55.57478764,-21.37567093],[55.57479011,-21.37581368],[55.57470579,-21.37585632],[55.5747405,-21.37615652],[55.57460931,-21.37605965],[55.5744706,-21.37574412],[55.57433244,-21.37566978],[55.5738829,-21.37568312],[55.57357308,-21.37590722],[55.57353939,-21.37610024],[55.57312779,-21.37587995],[55.5728637,-21.37596261],[55.57280431,-21.37602082],[55.57289725,-21.37618331],[55.57285427,-21.37623895],[55.57268418,-21.37607671],[55.57256818,-21.37610463],[55.5725814,-21.37623301],[55.57241069,-21.37603464],[55.57231482,-21.37617474],[55.57219983,-21.37609879],[55.57212233,-21.37613426],[55.57196308,-21.37594863],[55.57192303,-21.37610004],[55.57199084,-21.37626773],[55.57176147,-21.37635069],[55.5717332,-21.37618334],[55.57156672,-21.37624515],[55.57151882,-21.37581477],[55.5713878,-21.37570074],[55.57097947,-21.37593935],[55.57067734,-21.37586722],[55.5704894,-21.37565605],[55.57034617,-21.37560786],[55.56999625,-21.37569069],[55.56988987,-21.37562204],[55.56982386,-21.37536854],[55.5691844,-21.37557357],[55.56845079,-21.37524392],[55.56784982,-21.37486301],[55.56760246,-21.3743162],[55.56728328,-21.37411475],[55.56702558,-21.37383884],[55.5668124,-21.37374398],[55.56662118,-21.37377216],[55.56613344,-21.37364785],[55.56585191,-21.37334374],[55.5656294,-21.37331654],[55.56540021,-21.3731827],[55.565286,-21.37292789],[55.565084,-21.37297404],[55.56472238,-21.37287158],[55.56443108,-21.3726803],[55.5640675,-21.37277926],[55.56401231,-21.37270291],[55.56406546,-21.37259316],[55.56387583,-21.37245785],[55.56349274,-21.37248167],[55.5630652,-21.37231631],[55.56263237,-21.37229725],[55.56175111,-21.37277207],[55.56133634,-21.37287962],[55.56124068,-21.3730956],[55.56125894,-21.3732999],[55.56119234,-21.37330566],[55.56096272,-21.37292068],[55.56042341,-21.37294225],[55.56041485,-21.37283197],[55.56020816,-21.37276516],[55.5599524,-21.37278555],[55.55973476,-21.3729508],[55.55919643,-21.3728721],[55.55907366,-21.37300113],[55.55896411,-21.37276352],[55.55876772,-21.37262995],[55.5589463,-21.37241559],[55.55894428,-21.37222858],[55.55885023,-21.37218171],[55.55836268,-21.37213777],[55.55785218,-21.37227069],[55.55779033,-21.37238217],[55.55731452,-21.372519],[55.55715867,-21.37247972],[55.55705331,-21.37230809],[55.55677723,-21.37223616],[55.55638115,-21.37230592],[55.55627786,-21.37221831],[55.55644012,-21.37160275],[55.55636372,-21.37142775],[55.55622387,-21.37143016],[55.55611105,-21.37172367],[55.55597491,-21.37183812],[55.55577391,-21.37188065],[55.55563222,-21.37177465],[55.5557186,-21.3714231],[55.55552902,-21.37148019],[55.55536746,-21.37143453],[55.55497082,-21.37116825],[55.55473583,-21.37123398],[55.55478893,-21.37132567],[55.55473265,-21.37145978],[55.5545223,-21.37156998],[55.55407506,-21.37134933],[55.55395353,-21.3713519],[55.55370541,-21.37157559],[55.55397478,-21.37203589],[55.55402647,-21.37256567],[55.55401315,-21.37264595],[55.55367182,-21.37273786],[55.55358172,-21.37297556],[55.55333671,-21.37288312],[55.55324783,-21.37250657],[55.55306762,-21.37249327],[55.5528349,-21.37272071],[55.55248012,-21.37280708],[55.55241568,-21.37298538],[55.55233807,-21.37293412],[55.55207169,-21.37305377],[55.55196615,-21.37329224],[55.55180332,-21.37317882],[55.55170043,-21.37324659],[55.55167363,-21.37381454],[55.55155601,-21.37371235],[55.55143576,-21.37377996],[55.55121726,-21.37422793],[55.55099173,-21.37431179],[55.55085145,-21.37425909],[55.55065146,-21.37390327],[55.55041994,-21.37400876],[55.55037367,-21.37420258],[55.55027075,-21.37397857],[55.55032449,-21.37390767],[55.55007848,-21.37381883],[55.5504865,-21.37361459],[55.54992875,-21.37364861],[55.54967102,-21.37347657],[55.54985807,-21.37318732],[55.5496734,-21.37294183],[55.54975547,-21.37283414],[55.54973438,-21.37252773],[55.55001452,-21.37159794],[55.54973271,-21.37122785],[55.54961429,-21.37120786],[55.54943769,-21.37102477],[55.5494764,-21.37091309],[55.54933268,-21.37072035],[55.54889862,-21.37053413],[55.54887826,-21.37044723],[55.54862343,-21.37056878],[55.54741532,-21.36966405],[55.54742502,-21.36956026],[55.54762758,-21.36936057],[55.54495843,-21.36748567],[55.54453661,-21.36772139],[55.54421947,-21.3677087],[55.54386663,-21.36779507],[55.5438352,-21.36795016],[55.5433629,-21.36792619],[55.54328402,-21.36780898],[55.54321193,-21.36788243],[55.54310794,-21.36786707],[55.54317082,-21.36774928],[55.54306195,-21.3677393],[55.54307373,-21.36771773],[55.54295173,-21.36737793],[55.54270959,-21.36728911],[55.54270118,-21.36716438],[55.54251051,-21.36713743],[55.54237083,-21.36702511],[55.54244925,-21.36699327],[55.54215586,-21.36672425],[55.54191193,-21.36662276],[55.54099353,-21.36646303],[55.54075509,-21.36629294],[55.54056477,-21.36593899],[55.53999338,-21.36550315],[55.53988482,-21.36546155],[55.53966029,-21.36554271],[55.53969434,-21.36541564],[55.53940819,-21.3652921],[55.53921924,-21.36528684],[55.53903202,-21.36539813],[55.53904938,-21.36500895],[55.53882774,-21.36499257],[55.538825,-21.36507475],[55.53860209,-21.36489576],[55.5386743,-21.36480967],[55.53862163,-21.36477218],[55.53881718,-21.36459954],[55.53867329,-21.36423154],[55.53847922,-21.36406094],[55.53822429,-21.36390154],[55.53776933,-21.36378467],[55.53742065,-21.36354948],[55.53710467,-21.36361447],[55.53716724,-21.3635292],[55.53686894,-21.36336762],[55.53638042,-21.36332813],[55.53625901,-21.36302718],[55.53592429,-21.36255273],[55.53578645,-21.36177107],[55.53606818,-21.36136794],[55.53637407,-21.36057028],[55.53701363,-21.35996431],[55.5373025,-21.35913308],[55.53748814,-21.35772282],[55.53840611,-21.3561699],[55.53843063,-21.356031],[55.53831404,-21.35573099],[55.53744858,-21.35539375],[55.53733199,-21.35519039],[55.53737241,-21.35500376],[55.53771743,-21.35453704],[55.5376632,-21.35407498],[55.53786376,-21.35349228],[55.5378512,-21.35174517],[55.53804157,-21.35131414],[55.53880436,-21.35033437],[55.53890104,-21.34982213],[55.53875808,-21.34955531],[55.54379029,-21.35102986],[55.54388278,-21.35113545],[55.54395489,-21.35115595],[55.5445636,-21.35073757],[55.54482975,-21.3506387],[55.5449889,-21.35063286],[55.54513775,-21.35069467],[55.54528357,-21.35086756],[55.54538433,-21.35091721],[55.54588281,-21.35091972],[55.54602695,-21.35087219],[55.54643053,-21.35091633],[55.5468317,-21.35091168],[55.54725179,-21.35084666],[55.5474918,-21.3507575],[55.54781505,-21.35083166],[55.54828188,-21.35101364],[55.548674,-21.35104684],[55.54932147,-21.35100004],[55.54942305,-21.35096569],[55.54952771,-21.35081484],[55.54968135,-21.35078184],[55.54980366,-21.35099247],[55.54995931,-21.3508538],[55.55008906,-21.35079801],[55.55005957,-21.35095312],[55.5501035,-21.35099686],[55.55016481,-21.35093958],[55.55030613,-21.35049185],[55.55038336,-21.35048349],[55.55062253,-21.35077371],[55.55088293,-21.35086538],[55.55109349,-21.35102528],[55.55140771,-21.35113639],[55.55144034,-21.35105356],[55.55186732,-21.3510726],[55.55231101,-21.35115592],[55.55315345,-21.35118757],[55.55334382,-21.35104739],[55.55395066,-21.35111223],[55.55654141,-21.35181833],[55.55692454,-21.35188395],[55.55737705,-21.35185622],[55.55765258,-21.35197963],[55.55781167,-21.35227638],[55.55821177,-21.35238099],[55.55836217,-21.35238409],[55.55861475,-21.35248833],[55.55886752,-21.35267116],[55.55911141,-21.35277713],[55.55975235,-21.35300395],[55.56036614,-21.35314832],[55.56067614,-21.35418527],[55.56055571,-21.35427367],[55.56023381,-21.35425646],[55.56012357,-21.35428893],[55.55961782,-21.3548302],[55.55985106,-21.35513842],[55.55981491,-21.35558164],[55.55988186,-21.35563732],[55.5601047,-21.35562839],[55.56013397,-21.35569187],[55.56010649,-21.35613517],[55.56133747,-21.35637426],[55.56203399,-21.35673793],[55.56204424,-21.35677416],[55.56212227,-21.35678295],[55.56172889,-21.35707407],[55.56161635,-21.3578355],[55.56181033,-21.35801692],[55.56190772,-21.35801685],[55.5618887,-21.35808895],[55.56159201,-21.35835289],[55.56183481,-21.35867023],[55.56191152,-21.35950465],[55.56201876,-21.35958325],[55.56178021,-21.36070764],[55.56188605,-21.36073113],[55.5613865,-21.36251271],[55.56246963,-21.36259064],[55.56260094,-21.3625746],[55.56367617,-21.36267233],[55.56404149,-21.3626881],[55.56423661,-21.36265454],[55.5645983,-21.36274616],[55.56539226,-21.36281256],[55.5655783,-21.36282047],[55.56573591,-21.36277665],[55.56576135,-21.3628383],[55.56617335,-21.36281381],[55.56674488,-21.36284579],[55.56794724,-21.36296084],[55.56873355,-21.36312021],[55.56883292,-21.36281754],[55.56886798,-21.36218642],[55.5689237,-21.36200984],[55.56900946,-21.36191663],[55.56917471,-21.36178164],[55.56924809,-21.36177233],[55.57001235,-21.36191704],[55.57019083,-21.36180926],[55.57022445,-21.36162437],[55.57014697,-21.36146021],[55.56952925,-21.36102135],[55.56925476,-21.36078777],[55.56888445,-21.36039167],[55.56866528,-21.36032024],[55.56818723,-21.36029539],[55.56804651,-21.3601885],[55.56793617,-21.36003309],[55.56784003,-21.35980464],[55.5678234,-21.35963015],[55.56786638,-21.35917706],[55.56798755,-21.35901278],[55.56843281,-21.3586408],[55.56849958,-21.35841825],[55.56842397,-21.35826043],[55.56815926,-21.35791401],[55.56803883,-21.35760585],[55.56807195,-21.35747244],[55.56872696,-21.35734614],[55.56919531,-21.3571785],[55.56949602,-21.35699498],[55.56988019,-21.35655743],[55.57008881,-21.35642371],[55.57025238,-21.35646034],[55.57048779,-21.35674598],[55.57063268,-21.35682038],[55.57098315,-21.35677549],[55.57138485,-21.35661812],[55.57201748,-21.35651239],[55.57218403,-21.35644154],[55.57232781,-21.35633075],[55.57259428,-21.35580006],[55.57273786,-21.35561068],[55.57296916,-21.35542476],[55.57314723,-21.35535852],[55.57323369,-21.35539177],[55.57327635,-21.35546711],[55.57316157,-21.35566938],[55.57316721,-21.35578415],[55.57345255,-21.35629153],[55.57351849,-21.35635262],[55.5738502,-21.35615399],[55.57469018,-21.35624423],[55.57555551,-21.35610614],[55.57567577,-21.35613516],[55.57587682,-21.35628501],[55.57607265,-21.35657574],[55.57617036,-21.35664341],[55.57626779,-21.35663972],[55.57641682,-21.35638444],[55.57653814,-21.35630327],[55.57662651,-21.35633924],[55.57673243,-21.35655423],[55.57685731,-21.35660407],[55.57692116,-21.35658203],[55.57707724,-21.35639636],[55.57746095,-21.35550532],[55.57770718,-21.3553701],[55.57798713,-21.35533815],[55.57834401,-21.35512889],[55.57843112,-21.35519467],[55.5784714,-21.35531786],[55.5784307,-21.35573846],[55.57848472,-21.35603611],[55.57853301,-21.35612776],[55.57867872,-21.35621752],[55.57884454,-21.35622073],[55.57923322,-21.35611381],[55.57980826,-21.35627947],[55.5799375,-21.35627695],[55.58002801,-21.35619099],[55.58015223,-21.35580813],[55.58026433,-21.35568352],[55.58047931,-21.35578922],[55.58054397,-21.35578344],[55.58077698,-21.3556192],[55.5808494,-21.35560897],[55.58089594,-21.35568253],[55.58088881,-21.35602212],[55.58095193,-21.35617712],[55.58114939,-21.3563992],[55.58127937,-21.35642017],[55.58159408,-21.35618345],[55.58183121,-21.35649258],[55.58188019,-21.35651287],[55.58217577,-21.35646026],[55.58226709,-21.35648994],[55.58257713,-21.35673826],[55.58285016,-21.35682458],[55.58329361,-21.35683735],[55.58341494,-21.35675527],[55.58345221,-21.35658937],[55.58338825,-21.35632145],[55.58339719,-21.35619416],[55.58350848,-21.3559521],[55.58364826,-21.35585662],[55.58371581,-21.35585087],[55.58377923,-21.35587399],[55.58388145,-21.35617475],[55.58399163,-21.35634912],[55.58418294,-21.35650972],[55.58428326,-21.35650695],[55.58450792,-21.35620714],[55.58461816,-21.35617464],[55.58469502,-21.3562042],[55.58476581,-21.35626351],[55.58517042,-21.35690647],[55.58526048,-21.35696775],[55.58548235,-21.35695878],[55.58563007,-21.35683898],[55.58816872,-21.35737705],[55.5890858,-21.3570713],[55.58958729,-21.35756873],[55.58977336,-21.35787471],[55.58979567,-21.35806279],[55.58967143,-21.35855045],[55.58938753,-21.3589943],[55.58932506,-21.35937498],[55.58920464,-21.35956457],[55.58873662,-21.35959858],[55.58845082,-21.35983827],[55.58826733,-21.36046995],[55.58757938,-21.36121573],[55.58750692,-21.361833],[55.5869715,-21.36225847],[55.58722809,-21.36305465],[55.58706709,-21.36325112],[55.58671625,-21.36323281],[55.58623813,-21.36301199]]]]},"bbox":[55.53578645,-21.37809978,55.58979567,-21.34955531]},{"type":"Feature","id":"fr-quartier-97405-77372356b2fb","properties":{"id":"fr-quartier-97405-77372356b2fb","kind":"quartier","name":"Piton Goyaves","cityCode":"97405","cityName":"Petite-Île","sourceType":"iris","sourceIds":["974050201"],"colorIndex":3,"center":[55.56113630397627,-21.321384325]},"geometry":{"type":"MultiPolygon","coordinates":[[[[55.54395403,-21.33542476],[55.54370521,-21.33474873],[55.54450145,-21.3341766],[55.54457159,-21.33302819],[55.54517093,-21.33218337],[55.54492355,-21.33184971],[55.54494982,-21.33123839],[55.54475184,-21.33097923],[55.54477164,-21.33063344],[55.54448783,-21.33008357],[55.54430595,-21.32946323],[55.54430742,-21.32911908],[55.54412061,-21.32821685],[55.54382597,-21.32778884],[55.54391159,-21.32722049],[55.5437359,-21.32695069],[55.54369758,-21.32673085],[55.5441078,-21.32609486],[55.54479451,-21.32547932],[55.54525746,-21.32477513],[55.54570764,-21.32438699],[55.54576544,-21.32419599],[55.54570036,-21.32385397],[55.54579371,-21.32367502],[55.54613074,-21.32342139],[55.54687013,-21.32244678],[55.54714937,-21.32228479],[55.54781546,-21.32209543],[55.54808325,-21.3219216],[55.54851678,-21.32097144],[55.54875074,-21.32100236],[55.54959674,-21.32134028],[55.55020375,-21.32108084],[55.55043446,-21.32104941],[55.55070988,-21.32068684],[55.55112567,-21.32046098],[55.55147847,-21.32056339],[55.55180364,-21.32053457],[55.55189807,-21.32014606],[55.55219628,-21.32001493],[55.55274718,-21.3199709],[55.55283154,-21.31982258],[55.55275531,-21.31953466],[55.55282001,-21.31942502],[55.55317697,-21.31939828],[55.55369661,-21.31910014],[55.5538384,-21.31869848],[55.5551755,-21.31850221],[55.55585007,-21.31803557],[55.5561354,-21.31793956],[55.55670945,-21.31799146],[55.55681123,-21.31773669],[55.55710302,-21.31757118],[55.55740543,-21.31789806],[55.55757566,-21.31793927],[55.55758568,-21.31750576],[55.55777779,-21.31718131],[55.55804312,-21.31715829],[55.55833208,-21.31698643],[55.55856132,-21.31700646],[55.55885709,-21.31682833],[55.5592202,-21.31696062],[55.55945901,-21.31679013],[55.55975414,-21.3167755],[55.56001628,-21.31648687],[55.56027208,-21.31645293],[55.56059088,-21.31628403],[55.56078603,-21.31594515],[55.56110466,-21.3160906],[55.56129132,-21.31583114],[55.56139831,-21.31583205],[55.56160679,-21.31600456],[55.56183627,-21.31580237],[55.56215971,-21.31575094],[55.56245705,-21.31580678],[55.56296214,-21.31610919],[55.56321781,-21.31589006],[55.56378188,-21.31597708],[55.56403385,-21.31613822],[55.56445136,-21.31612823],[55.56466189,-21.31599092],[55.56533522,-21.31594517],[55.56573275,-21.31620601],[55.56674259,-21.31625256],[55.56710867,-21.31637763],[55.56711746,-21.31646533],[55.5679479,-21.31642181],[55.56822823,-21.3163438],[55.56879327,-21.31573345],[55.56968646,-21.31498407],[55.569815,-21.31495083],[55.57014752,-21.31445954],[55.57025275,-21.31394554],[55.5703708,-21.31380021],[55.57079848,-21.31373609],[55.57140368,-21.31375659],[55.57179827,-21.31392345],[55.57193252,-21.31369785],[55.57198396,-21.31326289],[55.57257079,-21.31308901],[55.57267193,-21.31299773],[55.57263833,-21.31288362],[55.57234035,-21.31269411],[55.57227993,-21.31256261],[55.57296542,-21.31215471],[55.57336858,-21.31213283],[55.57408214,-21.31191215],[55.57469036,-21.31141867],[55.57516854,-21.31121496],[55.57625555,-21.3111528],[55.57715356,-21.31089753],[55.57734106,-21.31094699],[55.5775724,-21.31114858],[55.57814576,-21.31087069],[55.57882615,-21.31088999],[55.57901396,-21.31080666],[55.57962667,-21.30994465],[55.57967799,-21.30972106],[55.58035894,-21.30988127],[55.58063776,-21.30945635],[55.58074245,-21.30728925],[55.58109804,-21.30699957],[55.58118561,-21.30550982],[55.58187121,-21.304783],[55.58251436,-21.30355719],[55.58299021,-21.30399389],[55.58324254,-21.30371598],[55.58447071,-21.30430806],[55.58448157,-21.30438223],[55.58453687,-21.30444593],[55.58464155,-21.30448655],[55.58488715,-21.30481021],[55.58495593,-21.30517753],[55.58493837,-21.30560105],[55.58471136,-21.30585297],[55.58432386,-21.30595269],[55.5840442,-21.30596389],[55.58397337,-21.30601207],[55.58392406,-21.30622846],[55.58394076,-21.30649779],[55.58388954,-21.30681352],[55.58363278,-21.30715101],[55.5835387,-21.30751245],[55.58355993,-21.30761019],[55.58376959,-21.30796245],[55.58394455,-21.30811387],[55.5840121,-21.30840802],[55.58391114,-21.30938638],[55.58401638,-21.30947037],[55.5842425,-21.30951293],[55.58452219,-21.30980073],[55.58463689,-21.31000404],[55.58481634,-21.31059181],[55.58481995,-21.31071831],[55.58471746,-21.31115285],[55.5847364,-21.31159022],[55.5846467,-21.31179633],[55.58466234,-21.31187505],[55.58471313,-21.31190619],[55.58492834,-21.3118809],[55.58516719,-21.31200486],[55.58528552,-21.31223168],[55.5853197,-21.31238644],[55.58527752,-21.31276458],[55.58523124,-21.31286627],[55.58501783,-21.31310566],[55.58494112,-21.31346544],[55.58488328,-21.31356522],[55.58471593,-21.31362615],[55.58446806,-21.31353824],[55.58431415,-21.31360379],[55.58418222,-21.31369031],[55.58401598,-21.31393642],[55.58350373,-21.31447591],[55.58324104,-21.31462636],[55.58316305,-21.31481721],[55.58311912,-21.31507519],[55.58279959,-21.31562352],[55.5825088,-21.31588936],[55.58218239,-21.31604921],[55.5820588,-21.31617012],[55.58200155,-21.31650928],[55.58187861,-21.31666272],[55.58170951,-21.31670465],[55.58156431,-21.31666549],[55.58111154,-21.31643222],[55.58096607,-21.31642106],[55.58074581,-21.31687086],[55.58087389,-21.31728567],[55.58088057,-21.31739322],[55.58080345,-21.31749374],[55.58022971,-21.3177084],[55.57988077,-21.31810563],[55.57966834,-21.31814087],[55.57919709,-21.31812425],[55.57958534,-21.31764967],[55.57962602,-21.31732933],[55.57954125,-21.31732229],[55.57915891,-21.31708239],[55.57890652,-21.31726363],[55.57887186,-21.31715855],[55.57875098,-21.31719818],[55.57807776,-21.31683206],[55.57767158,-21.31736611],[55.57739742,-21.31780461],[55.57676531,-21.31837468],[55.57675305,-21.31844594],[55.57652913,-21.31867349],[55.57608494,-21.31944929],[55.57590645,-21.31956341],[55.57584053,-21.31970196],[55.57580535,-21.31995008],[55.57570168,-21.32010367],[55.57563934,-21.32017089],[55.57545831,-21.32024885],[55.57496075,-21.32036026],[55.5747042,-21.32037163],[55.57506681,-21.32065835],[55.57465581,-21.32109027],[55.5743527,-21.32093142],[55.57434518,-21.32101176],[55.5742537,-21.32110041],[55.57403987,-21.3211808],[55.57394887,-21.32131914],[55.57394107,-21.32142837],[55.5740675,-21.32161372],[55.57404039,-21.32172551],[55.57398043,-21.32174487],[55.57367549,-21.32167634],[55.57357668,-21.32172519],[55.57353191,-21.3219687],[55.57365709,-21.32218385],[55.57355268,-21.32231305],[55.57316998,-21.3226088],[55.57320197,-21.32269127],[55.57318137,-21.3228275],[55.57294137,-21.32411812],[55.57253889,-21.32396656],[55.57235467,-21.32417456],[55.57221071,-21.32420676],[55.57196946,-21.32403128],[55.57168904,-21.32391869],[55.57153528,-21.3238677],[55.57139237,-21.32389178],[55.5711561,-21.32399907],[55.57109909,-21.32421087],[55.57086539,-21.32445097],[55.57074326,-21.32451949],[55.57031865,-21.32456195],[55.57017141,-21.32463477],[55.57011795,-21.32477885],[55.57015237,-21.32510704],[55.57005382,-21.32532842],[55.56992002,-21.32540587],[55.56961648,-21.32529218],[55.569509,-21.32534005],[55.56942512,-21.3254396],[55.56923423,-21.32613625],[55.56907155,-21.32620984],[55.56882442,-21.32624296],[55.56873965,-21.32633528],[55.56876573,-21.32662909],[55.56865761,-21.32704098],[55.56846602,-21.32731215],[55.56838788,-21.32751564],[55.56839107,-21.32758432],[55.56849171,-21.32774416],[55.56848037,-21.32782085],[55.5683172,-21.32804348],[55.56819345,-21.32817883],[55.5680725,-21.32822387],[55.56774692,-21.32819399],[55.56751198,-21.32826245],[55.56715889,-21.328684],[55.56700096,-21.32896268],[55.56670755,-21.32929351],[55.5661469,-21.329445],[55.56606284,-21.32956352],[55.56580056,-21.32976543],[55.5656573,-21.33002256],[55.565515,-21.33018124],[55.5648678,-21.3306075],[55.56471041,-21.33063145],[55.5645135,-21.3305566],[55.56429394,-21.33082752],[55.56409215,-21.33095588],[55.56402067,-21.33116845],[55.56372356,-21.33138271],[55.56356448,-21.33168035],[55.56322599,-21.33198549],[55.5632378,-21.33235685],[55.5628654,-21.33267976],[55.56269423,-21.33293033],[55.5625519,-21.33299234],[55.56250622,-21.33312926],[55.56253105,-21.33354951],[55.56224606,-21.33370696],[55.56177727,-21.33372915],[55.56171085,-21.3338171],[55.56164593,-21.3340487],[55.56157567,-21.33413482],[55.56107777,-21.33457228],[55.56097028,-21.33501579],[55.56065797,-21.33530489],[55.56018782,-21.33586182],[55.5600226,-21.33629219],[55.55984166,-21.33655621],[55.55935028,-21.33691604],[55.55910236,-21.33722646],[55.55872933,-21.33751232],[55.55782261,-21.33745577],[55.55735706,-21.33783658],[55.5571804,-21.33805547],[55.55706922,-21.33828396],[55.55709596,-21.33850731],[55.55733666,-21.33903421],[55.55758035,-21.33935517],[55.557522,-21.33960398],[55.55717496,-21.34018906],[55.55703668,-21.34032789],[55.55664152,-21.34060814],[55.5565246,-21.34063423],[55.55650195,-21.34058435],[55.55642694,-21.34056474],[55.55609549,-21.34054112],[55.55600946,-21.34056386],[55.55554074,-21.34097084],[55.55533233,-21.34128069],[55.55525705,-21.34128908],[55.55515643,-21.34122589],[55.55468629,-21.34069521],[55.55430569,-21.33998103],[55.55418957,-21.33943352],[55.55383317,-21.33841513],[55.55386937,-21.33826368],[55.55422853,-21.33772117],[55.55419751,-21.3376396],[55.5538895,-21.33768573],[55.55342246,-21.33782353],[55.55312857,-21.33810013],[55.55304514,-21.3381527],[55.55297288,-21.33814756],[55.55246883,-21.33763466],[55.55241007,-21.33753117],[55.5523821,-21.33733582],[55.55247096,-21.33702494],[55.55239648,-21.33675511],[55.55235178,-21.33669239],[55.55227586,-21.33666645],[55.55215779,-21.3367124],[55.55183932,-21.33713602],[55.55169164,-21.33725037],[55.55157881,-21.33725301],[55.55144962,-21.33705588],[55.55135751,-21.33700992],[55.55121077,-21.33702943],[55.5508649,-21.33719898],[55.55060747,-21.33719947],[55.55012605,-21.33762349],[55.54974778,-21.33785238],[55.54953294,-21.33783517],[55.54921652,-21.33765719],[55.54895685,-21.33759082],[55.54833813,-21.33756379],[55.5473914,-21.33765498],[55.5466184,-21.33733575],[55.54651632,-21.33722556],[55.54653285,-21.33691858],[55.5465872,-21.33678445],[55.54691556,-21.33633654],[55.54723508,-21.33619929],[55.54726752,-21.33613634],[55.54720564,-21.33605631],[55.54708445,-21.33602636],[55.54670698,-21.33607639],[55.54659574,-21.33611337],[55.54634878,-21.33632261],[55.5458838,-21.33644776],[55.54554989,-21.33647919],[55.54543119,-21.33639235],[55.54514253,-21.33594271],[55.5449273,-21.33518387],[55.54482806,-21.33498157],[55.54469998,-21.33486845],[55.54455604,-21.33479946],[55.54451244,-21.33482166],[55.54442289,-21.33520028],[55.5443035,-21.335379],[55.5442107,-21.3354044],[55.54407018,-21.33537969],[55.54395403,-21.33542476]]]]},"bbox":[55.54369758,-21.34128908,55.5853197,-21.30355719]},{"type":"Feature","id":"fr-quartier-97405-7fb450ca362c","properties":{"id":"fr-quartier-97405-7fb450ca362c","kind":"quartier","name":"Zone Forestière des Hauts","cityCode":"97405","cityName":"Petite-Île","sourceType":"iris","sourceIds":["974050104"],"colorIndex":4,"center":[55.58834694531417,-21.31201788]},"geometry":{"type":"MultiPolygon","coordinates":[[[[55.58447071,-21.30430806],[55.5844395,-21.30354088],[55.5845962,-21.30348529],[55.58486097,-21.30351732],[55.58510375,-21.30343084],[55.58610072,-21.30189272],[55.58673064,-21.30144093],[55.58732053,-21.30144407],[55.58746535,-21.30131882],[55.58765844,-21.30078296],[55.58753909,-21.30056336],[55.5876636,-21.29963849],[55.58780418,-21.29945178],[55.5881859,-21.29935019],[55.58832477,-21.29924205],[55.58832072,-21.29875784],[55.58817972,-21.29858502],[55.58831481,-21.29816611],[55.5890487,-21.29782538],[55.58951622,-21.29782298],[55.58959376,-21.29757611],[55.58954528,-21.2973029],[55.58963965,-21.29701011],[55.59061646,-21.29676807],[55.59078775,-21.29619137],[55.59110279,-21.29610639],[55.59194523,-21.29610621],[55.59221388,-21.29593321],[55.59236898,-21.29563912],[55.59233369,-21.29539673],[55.59261782,-21.29481285],[55.5925716,-21.2942],[55.59272445,-21.29373607],[55.59264477,-21.29350053],[55.59272493,-21.29297727],[55.59307491,-21.29246078],[55.59390572,-21.2921624],[55.59414142,-21.29170276],[55.59438293,-21.29164516],[55.59404814,-21.29117263],[55.59442589,-21.29087769],[55.5943332,-21.29048938],[55.59402273,-21.29070269],[55.59389164,-21.29019663],[55.59651314,-21.28899901],[55.59802738,-21.28889419],[55.60439676,-21.28784595],[55.60385477,-21.28951172],[55.60397137,-21.29043409],[55.60382231,-21.29101008],[55.60401183,-21.29135492],[55.60394172,-21.29163437],[55.60416922,-21.29214213],[55.60468873,-21.29275619],[55.60469351,-21.29306697],[55.60449774,-21.29328215],[55.60451681,-21.29361022],[55.60482251,-21.29451428],[55.60516744,-21.29616302],[55.6054387,-21.29703969],[55.60545722,-21.29742647],[55.60545405,-21.29745626],[55.6054088,-21.29765462],[55.60508509,-21.29814877],[55.604638,-21.29833476],[55.60449845,-21.29882231],[55.60428647,-21.2989154],[55.60396888,-21.29886308],[55.60384182,-21.29894604],[55.60384445,-21.29917731],[55.60404198,-21.29959358],[55.60317196,-21.30016269],[55.60313961,-21.30052647],[55.60301642,-21.30070972],[55.60259397,-21.30094018],[55.60231692,-21.30098214],[55.60210796,-21.30147001],[55.60200912,-21.30152429],[55.60142492,-21.30153028],[55.60092618,-21.30187663],[55.60068026,-21.30229554],[55.60066218,-21.30257632],[55.6004074,-21.30301503],[55.6003191,-21.30348403],[55.6007894,-21.30481764],[55.60078644,-21.30513017],[55.60065899,-21.30545793],[55.60041124,-21.30576481],[55.60040948,-21.30605205],[55.60009424,-21.3062581],[55.5999881,-21.30647221],[55.59945003,-21.30669446],[55.59931018,-21.30690558],[55.59927688,-21.30726664],[55.59900708,-21.30735563],[55.59855078,-21.30708715],[55.59811857,-21.30702303],[55.5979254,-21.30706207],[55.5974527,-21.3074041],[55.59695421,-21.30812713],[55.59679338,-21.3086181],[55.59625167,-21.30891801],[55.59610316,-21.30943076],[55.59607644,-21.3099093],[55.59591335,-21.31013107],[55.59567122,-21.31025009],[55.5953849,-21.31025131],[55.59523672,-21.31032415],[55.59498994,-21.31062832],[55.5946897,-21.31077576],[55.59415773,-21.31086075],[55.59375295,-21.31074896],[55.59339845,-21.31082459],[55.59276662,-21.31127278],[55.59227807,-21.31185856],[55.59177683,-21.31185437],[55.59149945,-21.3120309],[55.59057921,-21.31239446],[55.59037078,-21.31261855],[55.59027021,-21.31305492],[55.58983025,-21.31309459],[55.5896383,-21.31330797],[55.58951011,-21.31360861],[55.58961317,-21.31381995],[55.59005616,-21.31396819],[55.59044325,-21.31391363],[55.59059112,-21.31397539],[55.59065532,-21.31421802],[55.59061399,-21.31470999],[55.59023121,-21.31512141],[55.5895548,-21.31528827],[55.58804178,-21.31644629],[55.58800323,-21.31664741],[55.58812406,-21.31681463],[55.5886876,-21.31695938],[55.5889605,-21.31715317],[55.58879295,-21.31773803],[55.58832558,-21.3182219],[55.58826651,-21.31845175],[55.58838016,-21.31856382],[55.58894645,-21.31872394],[55.58906858,-21.31895712],[55.58900828,-21.3191138],[55.5887313,-21.31934634],[55.58744958,-21.32000404],[55.58728392,-21.3202899],[55.58739577,-21.32159705],[55.5875082,-21.32193765],[55.5872284,-21.32236348],[55.58711181,-21.323666],[55.58726141,-21.3239509],[55.58782757,-21.32432873],[55.58788935,-21.32452166],[55.58783909,-21.32463596],[55.58741904,-21.32510939],[55.58735774,-21.32557047],[55.58717702,-21.32601881],[55.58739546,-21.32686796],[55.58702042,-21.32747275],[55.58674365,-21.3276818],[55.58617185,-21.3274891],[55.58583277,-21.32746005],[55.58565785,-21.32740348],[55.58554128,-21.3272932],[55.58538634,-21.32726389],[55.58499854,-21.32688665],[55.58488796,-21.32685591],[55.58476169,-21.32695421],[55.58427508,-21.32753005],[55.58382704,-21.32730135],[55.58350571,-21.3275326],[55.58339367,-21.32765361],[55.58324033,-21.32755837],[55.58303487,-21.32767045],[55.58289484,-21.32769457],[55.58274641,-21.32759034],[55.58259513,-21.32758093],[55.58248727,-21.32766945],[55.58237801,-21.32790249],[55.58214911,-21.32784546],[55.5820831,-21.3277916],[55.58168662,-21.32781626],[55.58144452,-21.32792804],[55.58113641,-21.32798596],[55.58061186,-21.32799418],[55.57830189,-21.32769282],[55.57845231,-21.32729031],[55.57843269,-21.32702547],[55.57832548,-21.32694597],[55.57770595,-21.32680614],[55.57742114,-21.32684799],[55.57732448,-21.326774],[55.57713876,-21.3267372],[55.57708609,-21.32650099],[55.57707368,-21.32608806],[55.57702559,-21.32597564],[55.57667971,-21.32555267],[55.57660518,-21.32538312],[55.57675856,-21.32517394],[55.5769318,-21.32510495],[55.57738504,-21.32509162],[55.57760086,-21.32500583],[55.5776642,-21.3249359],[55.57767623,-21.32478786],[55.57743944,-21.32444892],[55.57739524,-21.32433382],[55.57742638,-21.3242031],[55.57766522,-21.32392961],[55.57785549,-21.32379301],[55.57835575,-21.32360303],[55.57854007,-21.32348354],[55.57854839,-21.32342038],[55.5784495,-21.32327772],[55.57797161,-21.32304785],[55.57776391,-21.32289252],[55.57772611,-21.32281271],[55.57791055,-21.32198141],[55.57800325,-21.32126495],[55.57817144,-21.32071805],[55.57812846,-21.32057587],[55.57786031,-21.32009123],[55.57778842,-21.31984762],[55.57776033,-21.31946076],[55.57783757,-21.31914887],[55.57792841,-21.31902588],[55.57803244,-21.31893462],[55.57850061,-21.31877146],[55.57869557,-21.31864755],[55.5789672,-21.31817108],[55.57903903,-21.3181202],[55.57919709,-21.31812425],[55.57966834,-21.31814087],[55.57988077,-21.31810563],[55.58022971,-21.3177084],[55.58080345,-21.31749374],[55.58088057,-21.31739322],[55.58087389,-21.31728567],[55.58074581,-21.31687086],[55.58096607,-21.31642106],[55.58111154,-21.31643222],[55.58156431,-21.31666549],[55.58170951,-21.31670465],[55.58187861,-21.31666272],[55.58200155,-21.31650928],[55.5820588,-21.31617012],[55.58218239,-21.31604921],[55.5825088,-21.31588936],[55.58279959,-21.31562352],[55.58311912,-21.31507519],[55.58316305,-21.31481721],[55.58324104,-21.31462636],[55.58350373,-21.31447591],[55.58401598,-21.31393642],[55.58418222,-21.31369031],[55.58431415,-21.31360379],[55.58446806,-21.31353824],[55.58471593,-21.31362615],[55.58488328,-21.31356522],[55.58494112,-21.31346544],[55.58501783,-21.31310566],[55.58523124,-21.31286627],[55.58527752,-21.31276458],[55.5853197,-21.31238644],[55.58528552,-21.31223168],[55.58516719,-21.31200486],[55.58492834,-21.3118809],[55.58471313,-21.31190619],[55.58466234,-21.31187505],[55.5846467,-21.31179633],[55.5847364,-21.31159022],[55.58471746,-21.31115285],[55.58481995,-21.31071831],[55.58481634,-21.31059181],[55.58463689,-21.31000404],[55.58452219,-21.30980073],[55.5842425,-21.30951293],[55.58401638,-21.30947037],[55.58391114,-21.30938638],[55.5840121,-21.30840802],[55.58394455,-21.30811387],[55.58376959,-21.30796245],[55.58355993,-21.30761019],[55.5835387,-21.30751245],[55.58363278,-21.30715101],[55.58388954,-21.30681352],[55.58394076,-21.30649779],[55.58392406,-21.30622846],[55.58397337,-21.30601207],[55.5840442,-21.30596389],[55.58432386,-21.30595269],[55.58471136,-21.30585297],[55.58493837,-21.30560105],[55.58495593,-21.30517753],[55.58488715,-21.30481021],[55.58464155,-21.30448655],[55.58453687,-21.30444593],[55.58448157,-21.30438223],[55.58447071,-21.30430806]]]]},"bbox":[55.57660518,-21.32799418,55.60545722,-21.28784595]}]}