{"type":"FeatureCollection","metadata":{"sourceType":"iris","source":"IGN / INSEE — Contours IRIS 2026","sourceUrl":"https://data.geopf.fr/wfs/ows?service=WFS&version=2.0.0&request=GetFeature&typeNames=STATISTICALUNITS.IRIS%3Acontours_iris&outputFormat=application%2Fjson&srsName=CRS%3A84&count=1000&CQL_FILTER=code_insee%3D%2797408%27&sortBy=code_iris","retrievedDate":"2026-09-10","sourceYear":"2026","license":"Licence Ouverte 2.0"},"features":[{"type":"Feature","id":"fr-quartier-97408-adc2efa4e0a9","properties":{"id":"fr-quartier-97408-adc2efa4e0a9","kind":"quartier","name":"Centre Ville","cityCode":"97408","cityName":"La Possession","sourceType":"iris","sourceIds":["974080101"],"colorIndex":0,"center":[55.33248479124522,-20.928192265]},"geometry":{"type":"MultiPolygon","coordinates":[[[[55.33171302,-20.92737608],[55.33186951,-20.92722225],[55.33179686,-20.92709779],[55.33188572,-20.92706072],[55.33197382,-20.92717901],[55.33208716,-20.92701481],[55.33208145,-20.92701024],[55.33211405,-20.92701779],[55.33215323,-20.92695223],[55.33211116,-20.92693195],[55.33212178,-20.92692753],[55.33216493,-20.92685118],[55.33200004,-20.92680801],[55.33163274,-20.92698508],[55.33154233,-20.92690109],[55.33157195,-20.92683093],[55.33231951,-20.92669642],[55.33352989,-20.9260922],[55.33457164,-20.92595694],[55.3348723,-20.92598065],[55.33617332,-20.92561305],[55.33784286,-20.92486874],[55.33801719,-20.9251884],[55.33843131,-20.92556007],[55.33854492,-20.92572015],[55.33906056,-20.92708643],[55.33908665,-20.92724927],[55.3390816,-20.92735762],[55.3387685,-20.92802571],[55.33871493,-20.92861233],[55.33866341,-20.92875003],[55.338464,-20.92887274],[55.33832689,-20.92944861],[55.33832099,-20.9299842],[55.33846328,-20.93042007],[55.33848502,-20.93062804],[55.33845439,-20.93105138],[55.3383896,-20.93134703],[55.33848726,-20.93190711],[55.33866724,-20.93258723],[55.33868903,-20.9328783],[55.33862786,-20.93336819],[55.33834039,-20.93406454],[55.33837603,-20.9342329],[55.33860589,-20.93448805],[55.33767456,-20.93576436],[55.33687317,-20.93467532],[55.33634091,-20.9340306],[55.33306493,-20.93066461],[55.33298708,-20.93048861],[55.33301934,-20.93035343],[55.33299412,-20.93028634],[55.33266445,-20.93019008],[55.3320164,-20.92958578],[55.33200959,-20.92950622],[55.33207501,-20.92941563],[55.33308325,-20.92857458],[55.33262579,-20.92812389],[55.33247717,-20.92826064],[55.33171302,-20.92737608]]]]},"bbox":[55.33154233,-20.93576436,55.33908665,-20.92486874]},{"type":"Feature","id":"fr-quartier-97408-7d715910590f","properties":{"id":"fr-quartier-97408-7d715910590f","kind":"quartier","name":"Dos-d'Âne","cityCode":"97408","cityName":"La Possession","sourceType":"iris","sourceIds":["974080701"],"colorIndex":1,"center":[55.37246900717514,-20.978327595]},"geometry":{"type":"MultiPolygon","coordinates":[[[[55.36330509,-20.97649684],[55.36439837,-20.97483986],[55.36451695,-20.97499004],[55.36488875,-20.9752917],[55.36519002,-20.97544634],[55.36625924,-20.97414141],[55.36639647,-20.97416892],[55.36672305,-20.97402933],[55.36686838,-20.97401988],[55.36704149,-20.97410826],[55.36737907,-20.97437345],[55.36770864,-20.97449042],[55.36840651,-20.97443387],[55.36919991,-20.97443786],[55.369383,-20.97475847],[55.3695594,-20.97489927],[55.36992009,-20.97489639],[55.37020216,-20.97478166],[55.37045764,-20.97472449],[55.37082948,-20.97475695],[55.37115339,-20.97495335],[55.37145361,-20.9754711],[55.37163237,-20.97557127],[55.37179044,-20.97554026],[55.37213581,-20.97526444],[55.37244151,-20.97509935],[55.37293218,-20.97517179],[55.37356109,-20.97508927],[55.37519907,-20.9750778],[55.3756522,-20.975242],[55.37572651,-20.97539627],[55.37603347,-20.97573793],[55.37633348,-20.97592055],[55.37644024,-20.97592066],[55.3768048,-20.97573715],[55.3769716,-20.97578752],[55.37731289,-20.97615661],[55.37739018,-20.97630187],[55.37748221,-20.97668574],[55.37803313,-20.97750305],[55.37875217,-20.97762552],[55.37918697,-20.97752939],[55.37960616,-20.97736356],[55.38001293,-20.97736924],[55.38020417,-20.97747222],[55.3803364,-20.97760717],[55.38067137,-20.97829595],[55.3808342,-20.97844745],[55.38098353,-20.978513],[55.38113975,-20.97847474],[55.38133744,-20.97833661],[55.38162136,-20.9782282],[55.38185285,-20.97816717],[55.38221192,-20.97813626],[55.38258175,-20.97817771],[55.38275464,-20.97828865],[55.38322406,-20.97837079],[55.38340693,-20.9784484],[55.38357053,-20.97843911],[55.38376849,-20.97836511],[55.38418036,-20.97807545],[55.3843851,-20.97799609],[55.38456412,-20.97798424],[55.38542409,-20.97823899],[55.3858312,-20.97830247],[55.38634992,-20.97818273],[55.38658275,-20.978175],[55.38684387,-20.97830935],[55.38709323,-20.97837494],[55.38781805,-20.97831858],[55.38852657,-20.97843638],[55.38879529,-20.97867017],[55.38902678,-20.97869765],[55.38956544,-20.97662787],[55.39029694,-20.97603679],[55.39037169,-20.97588213],[55.39056272,-20.97582613],[55.39071375,-20.97564328],[55.39100973,-20.97548619],[55.39104667,-20.97535917],[55.39115075,-20.97524995],[55.39116682,-20.97500622],[55.39128052,-20.97489618],[55.39157139,-20.97503713],[55.39177329,-20.97504356],[55.39192316,-20.97478934],[55.39215353,-20.97474093],[55.39226743,-20.97461283],[55.39235505,-20.97469315],[55.39245133,-20.97468322],[55.39265007,-20.97444572],[55.39273606,-20.97440859],[55.39280339,-20.97440832],[55.39291948,-20.97452413],[55.39296757,-20.97452368],[55.39316823,-20.97437653],[55.39329183,-20.97432982],[55.39370602,-20.97436083],[55.39396591,-20.97433979],[55.39407201,-20.97440131],[55.39423495,-20.9743631],[55.39440857,-20.97440629],[55.39495386,-20.97422806],[55.39511978,-20.9743615],[55.39539747,-20.97429547],[55.395803,-20.97441672],[55.39591737,-20.97433379],[55.39633088,-20.97433768],[55.39650545,-20.9744712],[55.39665724,-20.97430733],[55.39688059,-20.9744666],[55.39711018,-20.97440102],[55.39718493,-20.97424635],[55.39731064,-20.97427192],[55.39747637,-20.97442343],[55.39759238,-20.97445794],[55.39778234,-20.97432062],[55.39901122,-20.97425268],[55.39987968,-20.97470436],[55.40140283,-20.97644759],[55.40146228,-20.97646531],[55.40153546,-20.97672795],[55.40186188,-20.97723506],[55.40201952,-20.97760508],[55.40239577,-20.97867271],[55.40200249,-20.97911615],[55.40163826,-20.97945057],[55.40131569,-20.97966705],[55.40106878,-20.98000256],[55.40103407,-20.98037259],[55.40091211,-20.98080684],[55.4009601,-20.98135831],[55.40086757,-20.98173863],[55.40092296,-20.98195594],[55.40076311,-20.98287762],[55.40058786,-20.98361939],[55.3998964,-20.98460472],[55.39766277,-20.98661525],[55.39657299,-20.98706839],[55.39618671,-20.98712346],[55.39598014,-20.98719288],[55.39559909,-20.98738802],[55.39553087,-20.98738105],[55.39556722,-20.98731003],[55.39550877,-20.98728961],[55.39522201,-20.98757235],[55.39506078,-20.98762864],[55.39505786,-20.98772165],[55.39500091,-20.98774009],[55.39492873,-20.98774483],[55.3948064,-20.98758108],[55.39470784,-20.98753318],[55.39435838,-20.98765273],[55.39382262,-20.987654],[55.39361933,-20.98777674],[55.39309806,-20.98795158],[55.39288088,-20.98811393],[55.39276265,-20.98828625],[55.39239224,-20.98856548],[55.39219974,-20.98875697],[55.39157383,-20.98900308],[55.39125207,-20.98931981],[55.39112757,-20.98935928],[55.39093366,-20.98950288],[55.39077553,-20.98971908],[55.39049794,-20.98986279],[55.39033087,-20.99001478],[55.38986901,-20.99021004],[55.38975424,-20.99041852],[55.38957448,-20.99058844],[55.38965264,-20.99065422],[55.38961365,-20.99070263],[55.38912285,-20.99063656],[55.38905609,-20.99067297],[55.38882467,-20.99054793],[55.38839143,-20.99040653],[55.38828754,-20.99031792],[55.38809524,-20.99031068],[55.38772754,-20.99015726],[55.38740356,-20.99014244],[55.38723765,-20.99009661],[55.38688389,-20.98989905],[55.38680608,-20.98979985],[55.38681093,-20.98970686],[55.38672579,-20.98957417],[55.38672831,-20.98951819],[55.38667814,-20.98944365],[55.38654809,-20.98937196],[55.38610044,-20.98958812],[55.38453532,-20.98933842],[55.38360293,-20.98946145],[55.38345479,-20.98973104],[55.3821707,-20.99026895],[55.38193689,-20.99027666],[55.38185444,-20.98971584],[55.38153896,-20.9891808],[55.38148145,-20.98916218],[55.37779005,-20.99110798],[55.3774403,-20.99125189],[55.37693457,-20.99132204],[55.37598134,-20.99177002],[55.3757278,-20.9918227],[55.37554595,-20.99102787],[55.3754399,-20.99078387],[55.37525767,-20.99055812],[55.37486338,-20.99019665],[55.37474809,-20.99000676],[55.37465185,-20.98974479],[55.37365363,-20.98830806],[55.3734895,-20.98801021],[55.37312495,-20.98756773],[55.37298102,-20.98726917],[55.3724911,-20.98659153],[55.37232793,-20.98629369],[55.37188536,-20.98604015],[55.3713951,-20.9856606],[55.37062662,-20.98521696],[55.37026087,-20.98506351],[55.36939553,-20.98459365],[55.36847307,-20.98415936],[55.36828016,-20.98403286],[55.36737747,-20.98248771],[55.36673459,-20.98128559],[55.36590861,-20.98003022],[55.36556199,-20.97962312],[55.36447629,-20.97863805],[55.36417842,-20.97825852],[55.36343033,-20.97683136],[55.36330509,-20.97649684]]]]},"bbox":[55.36330509,-20.9918227,55.40239577,-20.97401988]},{"type":"Feature","id":"fr-quartier-97408-099416d7f55e","properties":{"id":"fr-quartier-97408-099416d7f55e","kind":"quartier","name":"La Montagne-Secteur Possession","cityCode":"97408","cityName":"La Possession","sourceType":"iris","sourceIds":["974080602"],"colorIndex":2,"center":[55.38097169555128,-20.959938755]},"geometry":{"type":"MultiPolygon","coordinates":[[[[55.39085277,-20.93207559],[55.39092534,-20.93212234],[55.39142694,-20.93232941],[55.39170083,-20.93252259],[55.39181685,-20.93291211],[55.39184515,-20.93341371],[55.3923223,-20.93402071],[55.39233905,-20.93434244],[55.39180556,-20.93595072],[55.39170995,-20.93716025],[55.39189599,-20.93801743],[55.39190686,-20.93843937],[55.39248358,-20.93953871],[55.39333176,-20.94042923],[55.39380339,-20.94065408],[55.39467506,-20.94132711],[55.39482849,-20.94163658],[55.39543591,-20.94229358],[55.39618183,-20.94330959],[55.39658786,-20.94463946],[55.39686226,-20.94478657],[55.3974465,-20.94473334],[55.39772357,-20.94481002],[55.39785078,-20.94496387],[55.39791561,-20.94546852],[55.39810461,-20.94577923],[55.3982405,-20.94584103],[55.39884648,-20.94582323],[55.39901291,-20.94590609],[55.39924972,-20.94651353],[55.39983964,-20.94755425],[55.40034885,-20.94813805],[55.40045419,-20.94844977],[55.40044911,-20.94901881],[55.40052479,-20.94931671],[55.40067869,-20.94949339],[55.40091145,-20.94957868],[55.40145638,-20.94915381],[55.40168172,-20.94912341],[55.40225853,-20.94949917],[55.4029682,-20.94967925],[55.40319359,-20.94982498],[55.40341432,-20.95031935],[55.40342239,-20.95091742],[55.40547872,-20.9544171],[55.40707197,-20.95679414],[55.40705419,-20.95720137],[55.40678687,-20.95765414],[55.40677571,-20.95779947],[55.40691485,-20.9579191],[55.40692417,-20.95849189],[55.40687887,-20.9587742],[55.40663207,-20.95919554],[55.40659689,-20.95988353],[55.40635977,-20.96011708],[55.40614854,-20.96017653],[55.40609426,-20.96076046],[55.40593823,-20.96132809],[55.40579033,-20.96158144],[55.40591053,-20.96176413],[55.40587412,-20.96202303],[55.40598113,-20.96218031],[55.40580354,-20.9626032],[55.40534147,-20.96273799],[55.40523759,-20.96283006],[55.40506947,-20.96344905],[55.40506502,-20.96368658],[55.40519267,-20.96389192],[55.40513641,-20.96420936],[55.40537656,-20.96441666],[55.40558289,-20.96472933],[55.40576116,-20.96524046],[55.40578155,-20.96549448],[55.40568768,-20.96563994],[55.40592396,-20.96603057],[55.40596633,-20.96647901],[55.40611615,-20.96658971],[55.40614282,-20.96724847],[55.40534511,-20.9684704],[55.40519982,-20.96902096],[55.40529163,-20.96943192],[55.40514032,-20.96991558],[55.40481439,-20.97017901],[55.40472918,-20.97068587],[55.40437719,-20.97104841],[55.4042543,-20.97130019],[55.40429295,-20.97209817],[55.40404891,-20.9723479],[55.40351265,-20.97267259],[55.40332165,-20.97290837],[55.40332131,-20.97303031],[55.40350351,-20.97317113],[55.40359085,-20.9734601],[55.40416515,-20.97444376],[55.40495968,-20.97551981],[55.40507174,-20.97583521],[55.40504163,-20.97604449],[55.40428455,-20.97624155],[55.40360587,-20.9762108],[55.40319925,-20.9763723],[55.40295737,-20.97632667],[55.40255903,-20.97634281],[55.40238419,-20.97641434],[55.40209345,-20.97644142],[55.4019466,-20.9765936],[55.40184053,-20.97661971],[55.40146228,-20.97646531],[55.40140283,-20.97644759],[55.39987968,-20.97470436],[55.39901122,-20.97425268],[55.39778234,-20.97432062],[55.39759238,-20.97445794],[55.39747637,-20.97442343],[55.39731064,-20.97427192],[55.39718493,-20.97424635],[55.39711018,-20.97440102],[55.39688059,-20.9744666],[55.39665724,-20.97430733],[55.39650545,-20.9744712],[55.39633088,-20.97433768],[55.39591737,-20.97433379],[55.395803,-20.97441672],[55.39539747,-20.97429547],[55.39511978,-20.9743615],[55.39495386,-20.97422806],[55.39440857,-20.97440629],[55.39423495,-20.9743631],[55.39407201,-20.97440131],[55.39396591,-20.97433979],[55.39370602,-20.97436083],[55.39329183,-20.97432982],[55.39316823,-20.97437653],[55.39296757,-20.97452368],[55.39291948,-20.97452413],[55.39280339,-20.97440832],[55.39273606,-20.97440859],[55.39265007,-20.97444572],[55.39245133,-20.97468322],[55.39235505,-20.97469315],[55.39226743,-20.97461283],[55.39215353,-20.97474093],[55.39192316,-20.97478934],[55.39177329,-20.97504356],[55.39157139,-20.97503713],[55.39128052,-20.97489618],[55.39116682,-20.97500622],[55.39115075,-20.97524995],[55.39104667,-20.97535917],[55.39100973,-20.97548619],[55.39071375,-20.97564328],[55.39056272,-20.97582613],[55.39037169,-20.97588213],[55.39029694,-20.97603679],[55.38956544,-20.97662787],[55.38902678,-20.97869765],[55.38879529,-20.97867017],[55.38852657,-20.97843638],[55.38781805,-20.97831858],[55.38709323,-20.97837494],[55.38684387,-20.97830935],[55.38658275,-20.978175],[55.38634992,-20.97818273],[55.3858312,-20.97830247],[55.38542409,-20.97823899],[55.38456412,-20.97798424],[55.3843851,-20.97799609],[55.38418036,-20.97807545],[55.38376849,-20.97836511],[55.38357053,-20.97843911],[55.38340693,-20.9784484],[55.38322406,-20.97837079],[55.38275464,-20.97828865],[55.38258175,-20.97817771],[55.38221192,-20.97813626],[55.38185285,-20.97816717],[55.38162136,-20.9782282],[55.38133744,-20.97833661],[55.38113975,-20.97847474],[55.38098353,-20.978513],[55.3808342,-20.97844745],[55.38067137,-20.97829595],[55.3803364,-20.97760717],[55.38020417,-20.97747222],[55.38001293,-20.97736924],[55.37960616,-20.97736356],[55.37918697,-20.97752939],[55.37875217,-20.97762552],[55.37803313,-20.97750305],[55.37748221,-20.97668574],[55.37739018,-20.97630187],[55.37731289,-20.97615661],[55.3769716,-20.97578752],[55.3768048,-20.97573715],[55.37644024,-20.97592066],[55.37633348,-20.97592055],[55.37603347,-20.97573793],[55.37572651,-20.97539627],[55.3756522,-20.975242],[55.37519907,-20.9750778],[55.37356109,-20.97508927],[55.37293218,-20.97517179],[55.37244151,-20.97509935],[55.37213581,-20.97526444],[55.37179044,-20.97554026],[55.37163237,-20.97557127],[55.37145361,-20.9754711],[55.37115339,-20.97495335],[55.37082948,-20.97475695],[55.37045764,-20.97472449],[55.37020216,-20.97478166],[55.36992009,-20.97489639],[55.3695594,-20.97489927],[55.369383,-20.97475847],[55.36919991,-20.97443786],[55.36840651,-20.97443387],[55.36770864,-20.97449042],[55.36737907,-20.97437345],[55.36704149,-20.97410826],[55.36686838,-20.97401988],[55.36672305,-20.97402933],[55.36639647,-20.97416892],[55.36625924,-20.97414141],[55.36607978,-20.97401774],[55.36569403,-20.97349555],[55.36546995,-20.97331816],[55.36527622,-20.97309138],[55.3651889,-20.97289634],[55.36499733,-20.97202915],[55.36480511,-20.97184122],[55.36447693,-20.97177394],[55.36432972,-20.97169213],[55.36427417,-20.9715823],[55.36435372,-20.97116574],[55.36430248,-20.97092498],[55.36395741,-20.97055402],[55.36380624,-20.97021745],[55.36371884,-20.97011815],[55.36333001,-20.96988137],[55.36323283,-20.96970881],[55.3632214,-20.96952172],[55.363299,-20.969284],[55.36330576,-20.96901669],[55.36309387,-20.96851513],[55.36311131,-20.96815037],[55.36299091,-20.96772557],[55.36309297,-20.96745014],[55.3633913,-20.96716576],[55.36343567,-20.96662421],[55.36358521,-20.96640344],[55.3636025,-20.96631689],[55.36316895,-20.96585927],[55.36288855,-20.96529112],[55.36244477,-20.96462564],[55.36214532,-20.96439514],[55.3619716,-20.96418661],[55.36161513,-20.96362856],[55.36136335,-20.96343555],[55.36091739,-20.96332467],[55.36060131,-20.96329634],[55.3602278,-20.96333159],[55.35991272,-20.96329965],[55.35866717,-20.96252348],[55.35798652,-20.9621529],[55.35771637,-20.96205726],[55.35731707,-20.96198928],[55.35708261,-20.96188404],[55.35703632,-20.96180772],[55.35703823,-20.96172102],[55.35720308,-20.96133148],[55.35682275,-20.96058351],[55.3567427,-20.9605168],[55.35641231,-20.96039076],[55.35586093,-20.96024724],[55.35562379,-20.96012391],[55.35545115,-20.95999398],[55.3551947,-20.95970245],[55.35509532,-20.95946845],[55.35503317,-20.95908395],[55.35494633,-20.95893497],[55.35481927,-20.95885877],[55.35433284,-20.95875652],[55.35408118,-20.95855356],[55.35388395,-20.95821112],[55.35364885,-20.95746273],[55.3535759,-20.95657138],[55.35335724,-20.95625402],[55.35308293,-20.95601381],[55.35308255,-20.95587289],[55.35324454,-20.95556914],[55.3533066,-20.95534573],[55.35331963,-20.9549466],[55.3531782,-20.9546896],[55.35272184,-20.95430129],[55.35226005,-20.95361846],[55.35213422,-20.95351788],[55.3514519,-20.95321682],[55.35085001,-20.95312247],[55.35050404,-20.95292853],[55.35019179,-20.95281621],[55.35012817,-20.95274243],[55.34999677,-20.95236088],[55.34994548,-20.95230257],[55.34940309,-20.95213202],[55.34903149,-20.95208326],[55.34889376,-20.9521036],[55.34880133,-20.95202683],[55.34862028,-20.95205127],[55.34854455,-20.95211738],[55.34826127,-20.95208212],[55.34808706,-20.95200907],[55.34778013,-20.95167549],[55.34769817,-20.95152114],[55.34759942,-20.95114351],[55.34727505,-20.95038432],[55.34722346,-20.95000353],[55.34759728,-20.9499376],[55.34771718,-20.94987734],[55.34805531,-20.9493829],[55.34815777,-20.94933422],[55.34842236,-20.94931962],[55.34873915,-20.94954399],[55.34881018,-20.94964314],[55.34881077,-20.94993942],[55.3488788,-20.95004938],[55.34904414,-20.95014131],[55.34941386,-20.95009791],[55.35004054,-20.95012295],[55.35016425,-20.95015305],[55.35035782,-20.95030216],[55.35053779,-20.95037616],[55.35171633,-20.95040833],[55.35188418,-20.95044699],[55.3523132,-20.95034545],[55.35257012,-20.95015373],[55.35284108,-20.95008498],[55.35384568,-20.95010733],[55.35411834,-20.95005847],[55.3549033,-20.95002992],[55.35515306,-20.9500531],[55.35563382,-20.95049583],[55.35587049,-20.95057309],[55.35603978,-20.9505684],[55.356352,-20.95050727],[55.35677513,-20.95050413],[55.35923452,-20.95009513],[55.36011903,-20.95010815],[55.36053095,-20.94998656],[55.36138364,-20.94965511],[55.36182233,-20.94954732],[55.36213232,-20.94951416],[55.36274668,-20.94952187],[55.36297769,-20.94958912],[55.36318736,-20.94976186],[55.36374291,-20.94987288],[55.36417967,-20.95003153],[55.36453049,-20.95022278],[55.36567027,-20.950726],[55.36609442,-20.95080685],[55.36669747,-20.95106013],[55.36724189,-20.95113399],[55.36756595,-20.95131053],[55.36778428,-20.95148424],[55.36809467,-20.95185756],[55.3685584,-20.95227842],[55.36897256,-20.95292643],[55.36984981,-20.95378934],[55.37000131,-20.95391815],[55.37071085,-20.95428535],[55.37121633,-20.95449342],[55.3714269,-20.9547619],[55.3717003,-20.95482323],[55.37178511,-20.95480597],[55.37202238,-20.95465106],[55.37226294,-20.9546362],[55.37261518,-20.95487622],[55.37337121,-20.95530257],[55.37400146,-20.95544498],[55.37447606,-20.95548563],[55.37521536,-20.95576999],[55.37577843,-20.95590001],[55.3757906,-20.95575289],[55.37511084,-20.95476363],[55.37430373,-20.95336847],[55.37403292,-20.9530678],[55.37331633,-20.95264093],[55.37313903,-20.95249652],[55.37245055,-20.95213857],[55.37163941,-20.95165298],[55.37051005,-20.95089426],[55.37024609,-20.95076166],[55.36976693,-20.9504328],[55.36919513,-20.9498691],[55.36938426,-20.94954211],[55.37008199,-20.94895531],[55.37095905,-20.94814621],[55.37208952,-20.94737836],[55.37196863,-20.94708634],[55.37141497,-20.94609014],[55.37102135,-20.94567809],[55.37034518,-20.94516308],[55.36978262,-20.94463469],[55.3695751,-20.94435178],[55.36951746,-20.94416967],[55.36948732,-20.94366805],[55.36927197,-20.9429542],[55.37108381,-20.93883892],[55.37265166,-20.93914113],[55.3746221,-20.9403604],[55.37484352,-20.94042484],[55.37509339,-20.94043625],[55.3753725,-20.94050123],[55.37618042,-20.94030026],[55.37689225,-20.94045066],[55.37732472,-20.94038161],[55.37810488,-20.940081],[55.37840251,-20.94030062],[55.37841587,-20.93780945],[55.37869216,-20.93768923],[55.37888264,-20.9376802],[55.37902952,-20.93770147],[55.37933711,-20.93788866],[55.38179093,-20.93609541],[55.38107564,-20.93590977],[55.38814285,-20.93176006],[55.38864608,-20.93244409],[55.38875313,-20.93268358],[55.38893845,-20.93288586],[55.38907397,-20.93315994],[55.38916635,-20.93324301],[55.38925568,-20.93325108],[55.38931566,-20.93321642],[55.38937322,-20.93304895],[55.38924424,-20.93252291],[55.38927651,-20.9323823],[55.38930228,-20.93150092],[55.38923414,-20.93121934],[55.38937223,-20.93107341],[55.38966123,-20.93102104],[55.38982516,-20.93088618],[55.38992396,-20.93090789],[55.39023248,-20.93154853],[55.39050115,-20.93186903],[55.39085277,-20.93207559]]]]},"bbox":[55.34722346,-20.97869765,55.40707197,-20.93088618]},{"type":"Feature","id":"fr-quartier-97408-4b65d28491ce","properties":{"id":"fr-quartier-97408-4b65d28491ce","kind":"quartier","name":"La Ravine à Malheur","cityCode":"97408","cityName":"La Possession","sourceType":"iris","sourceIds":["974080601"],"colorIndex":3,"center":[55.36968395143106,-20.9290987]},"geometry":{"type":"MultiPolygon","coordinates":[[[[55.34555665,-20.92124561],[55.34487186,-20.92074578],[55.34548779,-20.92024861],[55.34795106,-20.91707301],[55.34979315,-20.91407743],[55.34995776,-20.91396882],[55.35013809,-20.91400579],[55.35067749,-20.91426212],[55.35151449,-20.91227031],[55.35194259,-20.9117144],[55.35231803,-20.91140367],[55.35290574,-20.91110855],[55.35584357,-20.90978552],[55.35683143,-20.90937951],[55.35759524,-20.90915562],[55.35890801,-20.90857296],[55.36029328,-20.90777601],[55.36272921,-20.90609666],[55.36403399,-20.90491771],[55.36727695,-20.90140689],[55.36747762,-20.90098426],[55.36811163,-20.90013489],[55.36749266,-20.89959422],[55.3687833,-20.89838077],[55.36943699,-20.89793265],[55.3701063,-20.89755061],[55.37103243,-20.89715296],[55.37325499,-20.89651472],[55.37503474,-20.89575571],[55.37525002,-20.89584809],[55.37545489,-20.8961942],[55.37567197,-20.89603005],[55.37599277,-20.89650011],[55.37615786,-20.89759468],[55.37609516,-20.89788314],[55.37580081,-20.89834915],[55.37577838,-20.89864703],[55.37668563,-20.89982543],[55.37670674,-20.90000719],[55.37651055,-20.90055183],[55.37649044,-20.90081269],[55.37661787,-20.9010307],[55.37702717,-20.90131732],[55.37718565,-20.90159794],[55.3770157,-20.90220516],[55.37740849,-20.90340125],[55.37698997,-20.90459686],[55.37692484,-20.90519965],[55.37758312,-20.90593396],[55.37797044,-20.90701528],[55.37905608,-20.9085061],[55.37913304,-20.90894854],[55.37911869,-20.90974693],[55.37898625,-20.91053064],[55.37910109,-20.91111617],[55.37939471,-20.91143601],[55.38052039,-20.91161922],[55.38078429,-20.91184213],[55.38119879,-20.91254341],[55.38131041,-20.91298167],[55.38132279,-20.91344066],[55.38189414,-20.91502505],[55.38277311,-20.91607398],[55.38367798,-20.91748809],[55.38525588,-20.91907838],[55.38553989,-20.92029782],[55.38599745,-20.92066347],[55.38683531,-20.92079785],[55.38718146,-20.92097365],[55.38826039,-20.92194134],[55.38868116,-20.92206184],[55.38914141,-20.92235615],[55.3892769,-20.9225426],[55.38950537,-20.92302532],[55.38950104,-20.92316077],[55.3893839,-20.9234162],[55.38874745,-20.92377423],[55.38869326,-20.92389747],[55.3886794,-20.92402471],[55.38898802,-20.92465361],[55.38869807,-20.92533558],[55.38866038,-20.92571371],[55.38913099,-20.92683915],[55.38927886,-20.92739608],[55.3893931,-20.9283122],[55.38926479,-20.92889272],[55.38949517,-20.92910717],[55.39019468,-20.92932695],[55.39042323,-20.93016286],[55.39053806,-20.93165439],[55.39085277,-20.93207559],[55.39050115,-20.93186903],[55.39023248,-20.93154853],[55.38992396,-20.93090789],[55.38982516,-20.93088618],[55.38966123,-20.93102104],[55.38937223,-20.93107341],[55.38923414,-20.93121934],[55.38930228,-20.93150092],[55.38927651,-20.9323823],[55.38924424,-20.93252291],[55.38937322,-20.93304895],[55.38931566,-20.93321642],[55.38925568,-20.93325108],[55.38916635,-20.93324301],[55.38907397,-20.93315994],[55.38893845,-20.93288586],[55.38875313,-20.93268358],[55.38864608,-20.93244409],[55.38814285,-20.93176006],[55.38107564,-20.93590977],[55.38179093,-20.93609541],[55.37933711,-20.93788866],[55.37902952,-20.93770147],[55.37888264,-20.9376802],[55.37869216,-20.93768923],[55.37841587,-20.93780945],[55.37840251,-20.94030062],[55.37810488,-20.940081],[55.37732472,-20.94038161],[55.37689225,-20.94045066],[55.37618042,-20.94030026],[55.3753725,-20.94050123],[55.37509339,-20.94043625],[55.37484352,-20.94042484],[55.3746221,-20.9403604],[55.37265166,-20.93914113],[55.37108381,-20.93883892],[55.36911364,-20.93848588],[55.36851738,-20.93867529],[55.36819043,-20.93885553],[55.36748867,-20.93910807],[55.36725731,-20.93925219],[55.36636338,-20.93931499],[55.36595013,-20.93929658],[55.36451774,-20.93900645],[55.36116315,-20.93775752],[55.35991393,-20.93795508],[55.3580493,-20.93753879],[55.35707873,-20.93660719],[55.35664657,-20.93647205],[55.35640566,-20.93634507],[55.35619463,-20.93629968],[55.35570417,-20.9363085],[55.35548301,-20.93639851],[55.35530994,-20.93639865],[55.35514621,-20.93633565],[55.35471355,-20.93633509],[55.3544931,-20.93627154],[55.35430067,-20.93637085],[55.35406962,-20.93639753],[55.35368533,-20.93601805],[55.35250236,-20.93657661],[55.35215671,-20.93653172],[55.35176181,-20.93659475],[55.35087781,-20.93662957],[55.3504639,-20.93658492],[55.35013783,-20.93668384],[55.34986865,-20.93659271],[55.34986859,-20.93615913],[55.34978199,-20.9360779],[55.34951346,-20.93601478],[55.34937882,-20.93584276],[55.34904245,-20.93565343],[55.34854218,-20.9356802],[55.34834031,-20.93585168],[55.34822514,-20.9358334],[55.3481382,-20.93586959],[55.34785029,-20.93573312],[55.3476582,-20.935715],[55.34752345,-20.93581486],[55.3475039,-20.9359321],[55.34739771,-20.93605844],[55.34736911,-20.93621172],[55.34660047,-20.93598568],[55.34658094,-20.93575063],[55.34670694,-20.93530834],[55.3466967,-20.93519081],[55.34662067,-20.93510968],[55.34655261,-20.93509096],[55.34633184,-20.93514482],[55.34563025,-20.93485529],[55.34547694,-20.93472012],[55.34515919,-20.93467458],[55.34501531,-20.93481862],[55.34486167,-20.93480087],[55.34476525,-20.9347376],[55.34483282,-20.93453863],[55.3448042,-20.93443086],[55.3447659,-20.93117865],[55.34522817,-20.93119668],[55.34525674,-20.93113373],[55.34519966,-20.93081612],[55.34525844,-20.93071643],[55.34538337,-20.93063453],[55.34572097,-20.93053483],[55.34611616,-20.93018186],[55.34656884,-20.93010857],[55.34731068,-20.93023318],[55.34777221,-20.93040476],[55.34795504,-20.93056641],[55.34916608,-20.9296369],[55.34950343,-20.92947215],[55.34960558,-20.92927532],[55.34989508,-20.92909023],[55.35001753,-20.92905799],[55.35017606,-20.92889242],[55.35077071,-20.928498],[55.35091742,-20.92853375],[55.35116757,-20.92816581],[55.35127303,-20.92810541],[55.3511844,-20.92759419],[55.35105551,-20.92733641],[55.35011773,-20.92693171],[55.35013432,-20.92682167],[55.35047605,-20.92660728],[55.3509173,-20.9268753],[55.35115739,-20.92681168],[55.35135281,-20.92670156],[55.35162254,-20.92612516],[55.35086895,-20.92558313],[55.35069795,-20.9253954],[55.3503048,-20.92521275],[55.34889843,-20.92554692],[55.34836199,-20.92519306],[55.3476557,-20.92498569],[55.34784533,-20.92443833],[55.34749501,-20.92429673],[55.34721344,-20.92393449],[55.34710198,-20.92357842],[55.34711184,-20.9233807],[55.3471664,-20.92322676],[55.34700363,-20.92316557],[55.3467346,-20.92288836],[55.34624115,-20.92256021],[55.34640867,-20.92245163],[55.34648625,-20.92230334],[55.34555665,-20.92124561]]]]},"bbox":[55.34476525,-20.94050123,55.39085277,-20.89575571]},{"type":"Feature","id":"fr-quartier-97408-46e88021eb5d","properties":{"id":"fr-quartier-97408-46e88021eb5d","kind":"quartier","name":"La Ravine à Marquet","cityCode":"97408","cityName":"La Possession","sourceType":"iris","sourceIds":["974080103"],"colorIndex":4,"center":[55.33095794142256,-20.943667225]},"geometry":{"type":"MultiPolygon","coordinates":[[[[55.32897874,-20.94314506],[55.32983555,-20.94123036],[55.330154,-20.94078003],[55.32946368,-20.94016897],[55.32620575,-20.9373459],[55.32588758,-20.93768422],[55.32513404,-20.93705536],[55.32946478,-20.93252901],[55.32942285,-20.93119535],[55.32953639,-20.93006013],[55.32961784,-20.92973755],[55.3300327,-20.92908764],[55.33020781,-20.92855551],[55.33027558,-20.92825267],[55.33025211,-20.92759485],[55.33110478,-20.92760499],[55.33171302,-20.92737608],[55.33247717,-20.92826064],[55.33262579,-20.92812389],[55.33308325,-20.92857458],[55.33207501,-20.92941563],[55.33200959,-20.92950622],[55.3320164,-20.92958578],[55.33266445,-20.93019008],[55.33299412,-20.93028634],[55.33301934,-20.93035343],[55.33298708,-20.93048861],[55.33306493,-20.93066461],[55.33634091,-20.9340306],[55.33687317,-20.93467532],[55.33767456,-20.93576436],[55.33860589,-20.93448805],[55.3389442,-20.93476143],[55.33935891,-20.9349949],[55.33974372,-20.93497516],[55.34020541,-20.93478454],[55.3404457,-20.9347914],[55.34113872,-20.93463554],[55.34230256,-20.93407056],[55.34250504,-20.93410594],[55.34281302,-20.93407732],[55.34342836,-20.93416549],[55.343563,-20.93407467],[55.34387046,-20.93418153],[55.34401479,-20.93417209],[55.34435225,-20.93426118],[55.3448042,-20.93443086],[55.34483282,-20.93453863],[55.34476525,-20.9347376],[55.34486167,-20.93480087],[55.34501531,-20.93481862],[55.34515919,-20.93467458],[55.34547694,-20.93472012],[55.34563025,-20.93485529],[55.34633184,-20.93514482],[55.34655261,-20.93509096],[55.34662067,-20.93510968],[55.3466967,-20.93519081],[55.34670694,-20.93530834],[55.34658094,-20.93575063],[55.34660047,-20.93598568],[55.34736911,-20.93621172],[55.34739771,-20.93605844],[55.3475039,-20.9359321],[55.34752345,-20.93581486],[55.3476582,-20.935715],[55.34785029,-20.93573312],[55.3481382,-20.93586959],[55.34822514,-20.9358334],[55.34834031,-20.93585168],[55.34854218,-20.9356802],[55.34904245,-20.93565343],[55.34937882,-20.93584276],[55.34951346,-20.93601478],[55.34978199,-20.9360779],[55.34986859,-20.93615913],[55.34986865,-20.93659271],[55.35013783,-20.93668384],[55.3504639,-20.93658492],[55.35087781,-20.93662957],[55.35176181,-20.93659475],[55.35215671,-20.93653172],[55.35250236,-20.93657661],[55.35368533,-20.93601805],[55.35406962,-20.93639753],[55.35430067,-20.93637085],[55.3544931,-20.93627154],[55.35471355,-20.93633509],[55.35514621,-20.93633565],[55.35530994,-20.93639865],[55.35548301,-20.93639851],[55.35570417,-20.9363085],[55.35619463,-20.93629968],[55.35640566,-20.93634507],[55.35664657,-20.93647205],[55.35707873,-20.93660719],[55.3580493,-20.93753879],[55.35991393,-20.93795508],[55.36116315,-20.93775752],[55.36451774,-20.93900645],[55.36595013,-20.93929658],[55.36636338,-20.93931499],[55.36725731,-20.93925219],[55.36748867,-20.93910807],[55.36819043,-20.93885553],[55.36851738,-20.93867529],[55.36911364,-20.93848588],[55.37108381,-20.93883892],[55.36927197,-20.9429542],[55.36948732,-20.94366805],[55.36951746,-20.94416967],[55.3695751,-20.94435178],[55.36978262,-20.94463469],[55.37034518,-20.94516308],[55.37102135,-20.94567809],[55.37141497,-20.94609014],[55.37196863,-20.94708634],[55.37208952,-20.94737836],[55.37095905,-20.94814621],[55.37008199,-20.94895531],[55.36938426,-20.94954211],[55.36919513,-20.9498691],[55.36976693,-20.9504328],[55.37024609,-20.95076166],[55.37051005,-20.95089426],[55.37163941,-20.95165298],[55.37245055,-20.95213857],[55.37313903,-20.95249652],[55.37331633,-20.95264093],[55.37403292,-20.9530678],[55.37430373,-20.95336847],[55.37511084,-20.95476363],[55.3757906,-20.95575289],[55.37577843,-20.95590001],[55.37521536,-20.95576999],[55.37447606,-20.95548563],[55.37400146,-20.95544498],[55.37337121,-20.95530257],[55.37261518,-20.95487622],[55.37226294,-20.9546362],[55.37202238,-20.95465106],[55.37178511,-20.95480597],[55.3717003,-20.95482323],[55.3714269,-20.9547619],[55.37121633,-20.95449342],[55.37071085,-20.95428535],[55.37000131,-20.95391815],[55.36984981,-20.95378934],[55.36897256,-20.95292643],[55.3685584,-20.95227842],[55.36809467,-20.95185756],[55.36778428,-20.95148424],[55.36756595,-20.95131053],[55.36724189,-20.95113399],[55.36669747,-20.95106013],[55.36609442,-20.95080685],[55.36567027,-20.950726],[55.36453049,-20.95022278],[55.36417967,-20.95003153],[55.36374291,-20.94987288],[55.36318736,-20.94976186],[55.36297769,-20.94958912],[55.36274668,-20.94952187],[55.36213232,-20.94951416],[55.36182233,-20.94954732],[55.36138364,-20.94965511],[55.36053095,-20.94998656],[55.36011903,-20.95010815],[55.35923452,-20.95009513],[55.35677513,-20.95050413],[55.356352,-20.95050727],[55.35603978,-20.9505684],[55.35587049,-20.95057309],[55.35563382,-20.95049583],[55.35515306,-20.9500531],[55.3549033,-20.95002992],[55.35411834,-20.95005847],[55.35384568,-20.95010733],[55.35284108,-20.95008498],[55.35257012,-20.95015373],[55.3523132,-20.95034545],[55.35188418,-20.95044699],[55.35171633,-20.95040833],[55.35053779,-20.95037616],[55.35035782,-20.95030216],[55.35016425,-20.95015305],[55.35004054,-20.95012295],[55.34941386,-20.95009791],[55.34904414,-20.95014131],[55.3488788,-20.95004938],[55.34881077,-20.94993942],[55.34881018,-20.94964314],[55.34873915,-20.94954399],[55.34842236,-20.94931962],[55.34815777,-20.94933422],[55.34805531,-20.9493829],[55.34771718,-20.94987734],[55.34759728,-20.9499376],[55.34722346,-20.95000353],[55.34628327,-20.94972072],[55.34586957,-20.9497402],[55.34573843,-20.94968653],[55.34522929,-20.94964095],[55.34460748,-20.94926185],[55.3443896,-20.94905108],[55.34445589,-20.94896862],[55.34463209,-20.94894775],[55.34469634,-20.94887611],[55.34466437,-20.94863552],[55.34354688,-20.94760035],[55.34306603,-20.94734546],[55.3427004,-20.94693001],[55.34235588,-20.94678124],[55.34223868,-20.94668344],[55.341989,-20.94630525],[55.34192979,-20.94609421],[55.34187951,-20.94559511],[55.34192424,-20.94493885],[55.34186951,-20.94414614],[55.34178357,-20.94391767],[55.3416138,-20.94370465],[55.34141325,-20.94357986],[55.34120942,-20.9436664],[55.34084914,-20.94372612],[55.34071379,-20.94379345],[55.34030403,-20.94380663],[55.33982744,-20.94395104],[55.33969094,-20.943947],[55.33923381,-20.94372215],[55.33922302,-20.94347996],[55.33913577,-20.94336981],[55.33898191,-20.94328431],[55.33825202,-20.94320494],[55.33763728,-20.94323418],[55.33749784,-20.94332314],[55.33781534,-20.94339218],[55.33771639,-20.94347161],[55.33754101,-20.94350603],[55.33741897,-20.94358614],[55.33723793,-20.94387252],[55.33711864,-20.94396439],[55.33702611,-20.94398517],[55.33599327,-20.94391187],[55.33562709,-20.94372312],[55.33479316,-20.94366169],[55.33411921,-20.94356659],[55.33342403,-20.94330597],[55.33245988,-20.94302105],[55.33241295,-20.94317867],[55.33233032,-20.94325915],[55.33231031,-20.9432427],[55.33223966,-20.94354461],[55.33224383,-20.94368917],[55.33208281,-20.94407601],[55.33183857,-20.94433738],[55.33106733,-20.94417176],[55.33026538,-20.94417475],[55.33013428,-20.94403166],[55.33001935,-20.94399079],[55.32983609,-20.94378214],[55.32960424,-20.94361909],[55.32938889,-20.94327012],[55.32897874,-20.94314506]]]]},"bbox":[55.32513404,-20.95590001,55.3757906,-20.92737608]},{"type":"Feature","id":"fr-quartier-97408-e2264cfc4ce6","properties":{"id":"fr-quartier-97408-e2264cfc4ce6","kind":"quartier","name":"La Rivière des Galets","cityCode":"97408","cityName":"La Possession","sourceType":"iris","sourceIds":["974080301"],"colorIndex":5,"center":[55.32696836098316,-20.964201465000002]},"geometry":{"type":"MultiPolygon","coordinates":[[[[55.33031009,-20.97081569],[55.32560991,-20.97050039],[55.32415561,-20.96982851],[55.32315419,-20.96976897],[55.32150567,-20.96944021],[55.31885573,-20.96905278],[55.32095747,-20.96462124],[55.32087665,-20.96427991],[55.32030679,-20.9636411],[55.32016319,-20.96323863],[55.32017204,-20.96304903],[55.32897874,-20.94314506],[55.32938889,-20.94327012],[55.32960424,-20.94361909],[55.32983609,-20.94378214],[55.33001935,-20.94399079],[55.33013428,-20.94403166],[55.33026538,-20.94417475],[55.33037809,-20.94458956],[55.33086201,-20.94543254],[55.33085682,-20.94616054],[55.33073073,-20.94634538],[55.33069907,-20.94651218],[55.33068935,-20.94678217],[55.33073423,-20.94689732],[55.33065075,-20.94748816],[55.33051048,-20.9477379],[55.33018578,-20.94788286],[55.33000056,-20.94802376],[55.32987117,-20.94824651],[55.32967445,-20.94890307],[55.32959026,-20.94903774],[55.32891744,-20.9497059],[55.32875261,-20.94991566],[55.32847513,-20.9503971],[55.3282251,-20.95057259],[55.3283265,-20.95070637],[55.32952033,-20.95161322],[55.32902996,-20.95238885],[55.32886794,-20.95312434],[55.32899419,-20.95318519],[55.32922478,-20.95363548],[55.3296199,-20.9538173],[55.32959221,-20.95414582],[55.32970819,-20.95452634],[55.32979441,-20.9546419],[55.32918192,-20.95611005],[55.32821333,-20.95734347],[55.32820512,-20.95747618],[55.32876892,-20.95745009],[55.32933566,-20.95759204],[55.329947,-20.95761429],[55.33047602,-20.95777664],[55.33058872,-20.95775877],[55.33074852,-20.95765737],[55.33178624,-20.95773166],[55.33102409,-20.9595145],[55.3319543,-20.95992015],[55.33229491,-20.96016285],[55.33248407,-20.96018818],[55.33286312,-20.96034726],[55.33303709,-20.96061543],[55.33335208,-20.96074045],[55.33439523,-20.96093492],[55.33431498,-20.96114821],[55.33430885,-20.9613541],[55.33433056,-20.96147806],[55.33453182,-20.96188741],[55.33450544,-20.9620118],[55.33444489,-20.96209522],[55.33414624,-20.9622305],[55.33391716,-20.96251008],[55.33319314,-20.96414879],[55.33306696,-20.96425414],[55.33306575,-20.96436252],[55.33298922,-20.96441326],[55.33299422,-20.96456958],[55.33294688,-20.9646757],[55.33279203,-20.96476452],[55.33255932,-20.96476314],[55.33273108,-20.9651442],[55.3339232,-20.96535006],[55.33468885,-20.96542168],[55.33569689,-20.96540352],[55.33645928,-20.96559704],[55.33671003,-20.96561846],[55.33692837,-20.96535412],[55.33714413,-20.96549714],[55.33745023,-20.96547122],[55.33766597,-20.96552843],[55.33784488,-20.96569909],[55.33792157,-20.96572151],[55.3383341,-20.96572373],[55.33860906,-20.96564421],[55.33881324,-20.96570311],[55.33901128,-20.96570955],[55.33950767,-20.96586795],[55.33998737,-20.96588436],[55.34048665,-20.96595607],[55.34064175,-20.96584467],[55.34129992,-20.96598386],[55.3413896,-20.96596215],[55.34191797,-20.96601155],[55.34217655,-20.96610891],[55.34222981,-20.96616363],[55.34214037,-20.96633799],[55.3420213,-20.9664091],[55.3418664,-20.96659006],[55.34179027,-20.9667781],[55.34193998,-20.96698099],[55.34210122,-20.96709728],[55.34155757,-20.96703779],[55.34116332,-20.96703395],[55.3396592,-20.96686394],[55.33947278,-20.96728576],[55.33906344,-20.96742991],[55.33875424,-20.96747477],[55.33841224,-20.96761597],[55.33824685,-20.96761435],[55.33657787,-20.96704707],[55.3365486,-20.96717144],[55.33618502,-20.96769902],[55.33557579,-20.96765603],[55.3350147,-20.96752048],[55.33463714,-20.96765951],[55.33381599,-20.96773458],[55.3318972,-20.96784227],[55.33128429,-20.96778388],[55.33067747,-20.96778336],[55.33034949,-20.9679608],[55.33031009,-20.97081569]]]]},"bbox":[55.31885573,-20.97081569,55.34222981,-20.94314506]},{"type":"Feature","id":"fr-quartier-97408-0d2bb0256957","properties":{"id":"fr-quartier-97408-0d2bb0256957","kind":"quartier","name":"Le Camp Magloire","cityCode":"97408","cityName":"La Possession","sourceType":"iris","sourceIds":["974080102"],"colorIndex":6,"center":[55.344688046693165,-20.92857304]},"geometry":{"type":"MultiPolygon","coordinates":[[[[55.33784286,-20.92486874],[55.33816356,-20.92464424],[55.33890437,-20.9243353],[55.34060004,-20.92374749],[55.34184549,-20.92283462],[55.34311459,-20.92248111],[55.34360358,-20.92216429],[55.34381243,-20.92214283],[55.34425937,-20.92171539],[55.34470595,-20.92097089],[55.34538023,-20.9214643],[55.34555665,-20.92124561],[55.34648625,-20.92230334],[55.34640867,-20.92245163],[55.34624115,-20.92256021],[55.3467346,-20.92288836],[55.34700363,-20.92316557],[55.3471664,-20.92322676],[55.34711184,-20.9233807],[55.34710198,-20.92357842],[55.34721344,-20.92393449],[55.34749501,-20.92429673],[55.34784533,-20.92443833],[55.3476557,-20.92498569],[55.34836199,-20.92519306],[55.34889843,-20.92554692],[55.3503048,-20.92521275],[55.35069795,-20.9253954],[55.35086895,-20.92558313],[55.35162254,-20.92612516],[55.35135281,-20.92670156],[55.35115739,-20.92681168],[55.3509173,-20.9268753],[55.35047605,-20.92660728],[55.35013432,-20.92682167],[55.35011773,-20.92693171],[55.35105551,-20.92733641],[55.3511844,-20.92759419],[55.35127303,-20.92810541],[55.35116757,-20.92816581],[55.35091742,-20.92853375],[55.35077071,-20.928498],[55.35017606,-20.92889242],[55.35001753,-20.92905799],[55.34989508,-20.92909023],[55.34960558,-20.92927532],[55.34950343,-20.92947215],[55.34916608,-20.9296369],[55.34795504,-20.93056641],[55.34777221,-20.93040476],[55.34731068,-20.93023318],[55.34656884,-20.93010857],[55.34611616,-20.93018186],[55.34572097,-20.93053483],[55.34538337,-20.93063453],[55.34525844,-20.93071643],[55.34519966,-20.93081612],[55.34525674,-20.93113373],[55.34522817,-20.93119668],[55.3447659,-20.93117865],[55.3448042,-20.93443086],[55.34435225,-20.93426118],[55.34401479,-20.93417209],[55.34387046,-20.93418153],[55.343563,-20.93407467],[55.34342836,-20.93416549],[55.34281302,-20.93407732],[55.34250504,-20.93410594],[55.34230256,-20.93407056],[55.34113872,-20.93463554],[55.3404457,-20.9347914],[55.34020541,-20.93478454],[55.33974372,-20.93497516],[55.33935891,-20.9349949],[55.3389442,-20.93476143],[55.33860589,-20.93448805],[55.33837603,-20.9342329],[55.33834039,-20.93406454],[55.33862786,-20.93336819],[55.33868903,-20.9328783],[55.33866724,-20.93258723],[55.33848726,-20.93190711],[55.3383896,-20.93134703],[55.33845439,-20.93105138],[55.33848502,-20.93062804],[55.33846328,-20.93042007],[55.33832099,-20.9299842],[55.33832689,-20.92944861],[55.338464,-20.92887274],[55.33866341,-20.92875003],[55.33871493,-20.92861233],[55.3387685,-20.92802571],[55.3390816,-20.92735762],[55.33908665,-20.92724927],[55.33906056,-20.92708643],[55.33854492,-20.92572015],[55.33843131,-20.92556007],[55.33801719,-20.9251884],[55.33784286,-20.92486874]]]]},"bbox":[55.33784286,-20.9349949,55.35162254,-20.92097089]},{"type":"Feature","id":"fr-quartier-97408-f59a4fd29308","properties":{"id":"fr-quartier-97408-f59a4fd29308","kind":"quartier","name":"Lit de la Rivière des Galets","cityCode":"97408","cityName":"La Possession","sourceType":"iris","sourceIds":["974080302"],"colorIndex":7,"center":[55.35260949467528,-20.97315466]},"geometry":{"type":"MultiPolygon","coordinates":[[[[55.37282641,-20.9928392],[55.37287295,-20.99182886],[55.37280849,-20.99103154],[55.3726286,-20.99067844],[55.37225374,-20.99029999],[55.37219436,-20.99009889],[55.37120972,-20.98865324],[55.3698498,-20.98757976],[55.36897073,-20.98731029],[55.3680096,-20.98636166],[55.36714455,-20.98586469],[55.36671513,-20.98546403],[55.36588718,-20.9840343],[55.36528925,-20.98356337],[55.36450677,-20.98272935],[55.36158208,-20.98121894],[55.36066257,-20.98042965],[55.35973337,-20.97982453],[55.35811046,-20.97766088],[55.35763268,-20.97764091],[55.3573672,-20.97746854],[55.35674309,-20.97675795],[55.35605971,-20.97619222],[55.35511627,-20.97566192],[55.35178216,-20.97476164],[55.35149545,-20.97468389],[55.3509364,-20.9742711],[55.34931778,-20.97357254],[55.34681684,-20.97317614],[55.34502886,-20.97310097],[55.34378884,-20.97313318],[55.34221089,-20.97284956],[55.33861317,-20.97205937],[55.33775501,-20.97156594],[55.33652309,-20.97104175],[55.33638865,-20.9711109],[55.33350441,-20.97103123],[55.33031009,-20.97081569],[55.33034949,-20.9679608],[55.33067747,-20.96778336],[55.33128429,-20.96778388],[55.3318972,-20.96784227],[55.33381599,-20.96773458],[55.33463714,-20.96765951],[55.3350147,-20.96752048],[55.33557579,-20.96765603],[55.33618502,-20.96769902],[55.3365486,-20.96717144],[55.33657787,-20.96704707],[55.33824685,-20.96761435],[55.33841224,-20.96761597],[55.33875424,-20.96747477],[55.33906344,-20.96742991],[55.33947278,-20.96728576],[55.3396592,-20.96686394],[55.34116332,-20.96703395],[55.34155757,-20.96703779],[55.34210122,-20.96709728],[55.3422455,-20.9672694],[55.34227504,-20.96746841],[55.34215046,-20.9676036],[55.34193829,-20.96765753],[55.3418515,-20.96776599],[55.34182415,-20.96789218],[55.34185296,-20.96798279],[55.34200604,-20.96805474],[55.3418714,-20.96805523],[55.34187175,-20.96863334],[55.34393296,-20.96886836],[55.34433703,-20.96920289],[55.34492425,-20.96914988],[55.34529985,-20.96901442],[55.34549341,-20.96907773],[55.34568522,-20.96921328],[55.34630157,-20.96948482],[55.346446,-20.96981864],[55.34682148,-20.96969311],[55.34802532,-20.96945006],[55.34867095,-20.96959542],[55.34900722,-20.96945054],[55.34933539,-20.96960457],[55.35002841,-20.96955076],[55.35050995,-20.96975053],[55.35149172,-20.96985036],[55.35192557,-20.96975158],[55.35221326,-20.96991425],[55.35251222,-20.97001379],[55.35293696,-20.97013171],[55.35356119,-20.97021271],[55.3542066,-20.97046645],[55.35504487,-20.97093703],[55.35666243,-20.97173308],[55.35800045,-20.97250113],[55.35917419,-20.97334165],[55.36026194,-20.97430871],[55.36245683,-20.97614363],[55.36330509,-20.97649684],[55.36343033,-20.97683136],[55.36417842,-20.97825852],[55.36447629,-20.97863805],[55.36556199,-20.97962312],[55.36590861,-20.98003022],[55.36673459,-20.98128559],[55.36737747,-20.98248771],[55.36828016,-20.98403286],[55.36847307,-20.98415936],[55.36939553,-20.98459365],[55.37026087,-20.98506351],[55.37062662,-20.98521696],[55.3713951,-20.9856606],[55.37188536,-20.98604015],[55.37232793,-20.98629369],[55.3724911,-20.98659153],[55.37298102,-20.98726917],[55.37312495,-20.98756773],[55.3734895,-20.98801021],[55.37365363,-20.98830806],[55.37465185,-20.98974479],[55.37474809,-20.99000676],[55.37486338,-20.99019665],[55.37525767,-20.99055812],[55.3754399,-20.99078387],[55.37554595,-20.99102787],[55.3757278,-20.9918227],[55.37497208,-20.99197266],[55.37407042,-20.99227659],[55.37370662,-20.99256308],[55.37282641,-20.9928392]]]]},"bbox":[55.33031009,-20.9928392,55.3757278,-20.96686394]},{"type":"Feature","id":"fr-quartier-97408-8ecd0a2e2d7a","properties":{"id":"fr-quartier-97408-8ecd0a2e2d7a","kind":"quartier","name":"Mafate-Grand Place-Aurère-Îlets à Bourse et Malheur","cityCode":"97408","cityName":"La Possession","sourceType":"iris","sourceIds":["974080304"],"colorIndex":8,"center":[55.42852649804485,-21.04043381]},"geometry":{"type":"MultiPolygon","coordinates":[[[[55.46478597,-21.0856628],[55.46393911,-21.08574366],[55.46223635,-21.08603536],[55.46078809,-21.08619385],[55.46013654,-21.08637492],[55.45878514,-21.08694077],[55.45806039,-21.08694051],[55.45646763,-21.08673723],[55.45586396,-21.08656914],[55.45496522,-21.0856161],[55.45383338,-21.08505386],[55.45282454,-21.08479084],[55.45211657,-21.08447183],[55.45116296,-21.08426621],[55.45090004,-21.08409579],[55.45041744,-21.08394866],[55.44927031,-21.08375029],[55.44867128,-21.08378637],[55.44830491,-21.08393929],[55.44785679,-21.08427213],[55.44739341,-21.08440609],[55.4465134,-21.08480633],[55.44607702,-21.08530548],[55.44563915,-21.08520752],[55.44546679,-21.08539925],[55.44546587,-21.08585812],[55.44502355,-21.08609525],[55.44455069,-21.08612163],[55.44420967,-21.08679779],[55.44405221,-21.08676021],[55.44330452,-21.08609755],[55.44300454,-21.08597556],[55.44207703,-21.0860366],[55.44139684,-21.08637813],[55.44123268,-21.08670633],[55.44125129,-21.08722951],[55.44193068,-21.08798008],[55.44212432,-21.08833234],[55.44213582,-21.08852124],[55.44199675,-21.08875121],[55.44199019,-21.08891916],[55.44223755,-21.0891039],[55.44237699,-21.08948457],[55.44218496,-21.09008531],[55.4420661,-21.09022333],[55.44183341,-21.09020042],[55.44162813,-21.09031777],[55.4411579,-21.09082923],[55.44078122,-21.09104618],[55.44055136,-21.09139726],[55.44018181,-21.09148419],[55.43970616,-21.09140845],[55.43927502,-21.0919546],[55.43883458,-21.09210049],[55.43846054,-21.09243308],[55.43769507,-21.09273406],[55.43756363,-21.09260096],[55.43747835,-21.09228854],[55.43708169,-21.09229753],[55.43669283,-21.09211419],[55.43648314,-21.09219265],[55.43602476,-21.0916618],[55.43571917,-21.09161562],[55.43549842,-21.09173914],[55.43527568,-21.09205234],[55.43524737,-21.09264194],[55.43441726,-21.09295676],[55.43431872,-21.09289984],[55.43402186,-21.09293775],[55.43392298,-21.09272908],[55.43400368,-21.09246877],[55.43387329,-21.09232755],[55.43348984,-21.09227072],[55.4330293,-21.09249771],[55.43235488,-21.09256013],[55.43216386,-21.09251049],[55.4318969,-21.09226774],[55.43155195,-21.09211912],[55.43244979,-21.09112837],[55.43263852,-21.09084647],[55.43281323,-21.09024829],[55.43293321,-21.09000461],[55.43311037,-21.08981565],[55.4333545,-21.08911423],[55.43351443,-21.08882394],[55.43388964,-21.08838117],[55.43401953,-21.08810957],[55.43392747,-21.08789374],[55.433731,-21.08762996],[55.43369658,-21.0874246],[55.43376919,-21.08710821],[55.43388207,-21.08616439],[55.43460344,-21.08409887],[55.43494167,-21.0829575],[55.43527393,-21.08293708],[55.43536442,-21.08275093],[55.43525525,-21.08233079],[55.43508679,-21.08215039],[55.43512002,-21.08191764],[55.43497828,-21.08120724],[55.4346676,-21.08100474],[55.43467391,-21.08067871],[55.43474458,-21.08045534],[55.43513708,-21.0801961],[55.43510656,-21.07970984],[55.43487799,-21.07911155],[55.43460348,-21.07894823],[55.43478751,-21.07837723],[55.43549797,-21.07725646],[55.43549072,-21.07693752],[55.43552739,-21.07683579],[55.43561319,-21.07672999],[55.43590749,-21.07656559],[55.43598507,-21.07623389],[55.43615187,-21.07602044],[55.43640011,-21.07584297],[55.43666768,-21.07556451],[55.43681938,-21.07550719],[55.4366729,-21.07543357],[55.43612084,-21.07530654],[55.4357944,-21.07514004],[55.43556544,-21.07494733],[55.43549294,-21.07470186],[55.43567745,-21.07445245],[55.43570478,-21.07432352],[55.43568085,-21.07421942],[55.43514008,-21.07402565],[55.43504436,-21.07388385],[55.43498311,-21.0736674],[55.43469608,-21.07350577],[55.43441582,-21.07343272],[55.43419125,-21.07309643],[55.43421451,-21.07298915],[55.43437081,-21.07285961],[55.43441501,-21.07277511],[55.43442862,-21.07257832],[55.43415191,-21.07207443],[55.43405941,-21.07180891],[55.43344674,-21.07149794],[55.4333677,-21.07141862],[55.43334165,-21.07124043],[55.43292203,-21.0710586],[55.43277886,-21.07094527],[55.43277897,-21.0708432],[55.43298627,-21.0706229],[55.43301044,-21.07052015],[55.43288923,-21.07033204],[55.43279737,-21.070006],[55.43285884,-21.0697419],[55.43257485,-21.06938338],[55.43248413,-21.06904019],[55.43245167,-21.06873999],[55.43237021,-21.06861549],[55.43218893,-21.06846567],[55.43197022,-21.06839861],[55.43180865,-21.06829595],[55.43141574,-21.06795448],[55.43118149,-21.06780869],[55.43089636,-21.06765069],[55.43046425,-21.06755998],[55.43031555,-21.06742401],[55.4302149,-21.06720268],[55.43021759,-21.06694616],[55.43046691,-21.06648146],[55.43059157,-21.06615652],[55.43055725,-21.06594212],[55.43047828,-21.06585648],[55.4302137,-21.06575828],[55.43001485,-21.06563269],[55.42987107,-21.06539469],[55.42973668,-21.0652706],[55.42954856,-21.06522279],[55.42916459,-21.06522195],[55.42869342,-21.0650026],[55.42849269,-21.06478215],[55.42821589,-21.06419876],[55.42808504,-21.063829],[55.42794023,-21.06359822],[55.42760298,-21.06318229],[55.42748264,-21.06309536],[55.42684101,-21.06288888],[55.42495786,-21.06287594],[55.42398124,-21.06258866],[55.42347919,-21.06237895],[55.42306757,-21.06235435],[55.42263892,-21.06239373],[55.42246844,-21.06231717],[55.42211738,-21.06202485],[55.42180714,-21.06187835],[55.42129721,-21.06150416],[55.42108928,-21.06141912],[55.4202026,-21.06145604],[55.41992538,-21.06155372],[55.41974534,-21.06165322],[55.41894533,-21.06241177],[55.41873052,-21.06252268],[55.41815578,-21.0627269],[55.41703016,-21.06260711],[55.4164078,-21.0627648],[55.41587985,-21.0628204],[55.41484164,-21.06208084],[55.41452595,-21.06126854],[55.41408322,-21.06081998],[55.41373572,-21.06055839],[55.41323191,-21.06042541],[55.41302761,-21.06027175],[55.41275834,-21.05961976],[55.4125169,-21.05933839],[55.41119408,-21.05867203],[55.4098265,-21.05823377],[55.4095457,-21.05803513],[55.40931494,-21.05765448],[55.40908285,-21.05749062],[55.40843771,-21.05734727],[55.40784009,-21.05698939],[55.40716544,-21.05681685],[55.40681153,-21.0568876],[55.40598564,-21.05655015],[55.4058976,-21.0563226],[55.40593775,-21.05607728],[55.40606643,-21.05583098],[55.40659985,-21.05534911],[55.4067827,-21.05489556],[55.40674784,-21.05464502],[55.40642675,-21.05443515],[55.40521112,-21.05455201],[55.40494083,-21.05454225],[55.40455079,-21.05439135],[55.40444573,-21.05413653],[55.40441502,-21.05367827],[55.40477962,-21.05314514],[55.40486835,-21.05267535],[55.40457595,-21.05239259],[55.404206,-21.05234395],[55.40395895,-21.05214019],[55.40393041,-21.05192855],[55.40402551,-21.05149225],[55.40373415,-21.0510225],[55.40320615,-21.05072668],[55.40281352,-21.05027857],[55.40203974,-21.04993075],[55.40173934,-21.04967771],[55.40171361,-21.04938389],[55.4020233,-21.0489469],[55.40210963,-21.04861169],[55.40182641,-21.04783128],[55.40176496,-21.04745764],[55.40180549,-21.04708677],[55.40210144,-21.04676437],[55.40288227,-21.04644923],[55.40309211,-21.04608176],[55.40307952,-21.04572845],[55.40276258,-21.04531176],[55.40261162,-21.0446708],[55.40276534,-21.04324955],[55.40339168,-21.04208025],[55.40348075,-21.04157795],[55.40337339,-21.04108826],[55.40284341,-21.04052955],[55.40229491,-21.03954342],[55.40217453,-21.03919271],[55.40217195,-21.03889279],[55.40231441,-21.03843706],[55.4029999,-21.03722315],[55.40334521,-21.03678106],[55.40342126,-21.03650718],[55.40325522,-21.03601693],[55.40267359,-21.03534122],[55.40228599,-21.03505665],[55.40170585,-21.03478382],[55.40143244,-21.03452833],[55.40119777,-21.03415848],[55.40117209,-21.03386015],[55.40126386,-21.0332847],[55.40121343,-21.03296175],[55.40095752,-21.0325095],[55.40036882,-21.03213723],[55.4001838,-21.03180488],[55.4003538,-21.03084085],[55.40019751,-21.03043019],[55.40003082,-21.03027235],[55.39918108,-21.0298407],[55.3984164,-21.02928249],[55.39755873,-21.02851293],[55.3974474,-21.02830773],[55.39742088,-21.02799855],[55.3975985,-21.02785299],[55.40092154,-21.02659436],[55.40142175,-21.02633079],[55.40160259,-21.02615273],[55.40178628,-21.02588889],[55.40186757,-21.0255735],[55.40189846,-21.02475179],[55.40198747,-21.02452409],[55.40220289,-21.02435177],[55.40304532,-21.02402276],[55.4033747,-21.0236284],[55.40345744,-21.02317662],[55.40306305,-21.0225388],[55.40309304,-21.02216241],[55.4033326,-21.0217103],[55.40435967,-21.0207534],[55.40435859,-21.02040291],[55.4039169,-21.01950992],[55.40359856,-21.01904896],[55.40324784,-21.018015],[55.40315718,-21.01758508],[55.40325107,-21.01716954],[55.40294303,-21.0161938],[55.40251413,-21.01563695],[55.40077333,-21.01424125],[55.4003386,-21.013781],[55.40043846,-21.01325802],[55.40092313,-21.01246226],[55.40117442,-21.01181063],[55.40125837,-21.01115472],[55.40089893,-21.00994995],[55.40069514,-21.00957407],[55.40020433,-21.00896153],[55.39973758,-21.00861931],[55.39881395,-21.00818155],[55.39825733,-21.00805798],[55.3970043,-21.00801908],[55.39667285,-21.00806926],[55.39636712,-21.00787216],[55.39627867,-21.00768796],[55.39624627,-21.00711858],[55.39576399,-21.00571121],[55.39549637,-21.00536995],[55.39447792,-21.00444711],[55.39360211,-21.00430877],[55.39311421,-21.00459593],[55.39251113,-21.00468056],[55.39082034,-21.00447218],[55.39024845,-21.00424998],[55.38907121,-21.00288931],[55.38869748,-21.00230857],[55.38852778,-21.00171891],[55.38815061,-21.00127995],[55.38741572,-21.00011497],[55.38612913,-20.99890952],[55.38482737,-20.99813388],[55.38407043,-20.99794785],[55.38318685,-20.99817793],[55.38273266,-20.99837324],[55.38231738,-20.99870622],[55.38113798,-20.99925144],[55.38025426,-20.99922587],[55.37873066,-20.99930982],[55.37819861,-20.99914216],[55.3767018,-20.99888401],[55.37592494,-20.9984954],[55.37546065,-20.99811159],[55.37459839,-20.99717116],[55.3740312,-20.99669784],[55.37318183,-20.99527968],[55.37288304,-20.99435908],[55.37277929,-20.99345931],[55.37282641,-20.9928392],[55.37370662,-20.99256308],[55.37407042,-20.99227659],[55.37497208,-20.99197266],[55.3757278,-20.9918227],[55.37598134,-20.99177002],[55.37693457,-20.99132204],[55.3774403,-20.99125189],[55.37779005,-20.99110798],[55.38148145,-20.98916218],[55.38153896,-20.9891808],[55.38185444,-20.98971584],[55.38193689,-20.99027666],[55.3821707,-20.99026895],[55.38345479,-20.98973104],[55.38360293,-20.98946145],[55.38453532,-20.98933842],[55.38610044,-20.98958812],[55.38654809,-20.98937196],[55.38667814,-20.98944365],[55.38672831,-20.98951819],[55.38672579,-20.98957417],[55.38681093,-20.98970686],[55.38680608,-20.98979985],[55.38688389,-20.98989905],[55.38723765,-20.99009661],[55.38740356,-20.99014244],[55.38772754,-20.99015726],[55.38809524,-20.99031068],[55.38828754,-20.99031792],[55.38839143,-20.99040653],[55.38882467,-20.99054793],[55.38905609,-20.99067297],[55.38912285,-20.99063656],[55.38961365,-20.99070263],[55.38965264,-20.99065422],[55.38957448,-20.99058844],[55.38975424,-20.99041852],[55.38986901,-20.99021004],[55.39033087,-20.99001478],[55.39049794,-20.98986279],[55.39077553,-20.98971908],[55.39093366,-20.98950288],[55.39112757,-20.98935928],[55.39125207,-20.98931981],[55.39157383,-20.98900308],[55.39219974,-20.98875697],[55.39239224,-20.98856548],[55.39276265,-20.98828625],[55.39288088,-20.98811393],[55.39309806,-20.98795158],[55.39361933,-20.98777674],[55.39382262,-20.987654],[55.39435838,-20.98765273],[55.39470784,-20.98753318],[55.3948064,-20.98758108],[55.39492873,-20.98774483],[55.39500091,-20.98774009],[55.39505786,-20.98772165],[55.39506078,-20.98762864],[55.39522201,-20.98757235],[55.39550877,-20.98728961],[55.39556722,-20.98731003],[55.39553087,-20.98738105],[55.39559909,-20.98738802],[55.39598014,-20.98719288],[55.39618671,-20.98712346],[55.39657299,-20.98706839],[55.39766277,-20.98661525],[55.3998964,-20.98460472],[55.40058786,-20.98361939],[55.40076311,-20.98287762],[55.40092296,-20.98195594],[55.40086757,-20.98173863],[55.4009601,-20.98135831],[55.40091211,-20.98080684],[55.40103407,-20.98037259],[55.40106878,-20.98000256],[55.40131569,-20.97966705],[55.40163826,-20.97945057],[55.40200249,-20.97911615],[55.40239577,-20.97867271],[55.40201952,-20.97760508],[55.40186188,-20.97723506],[55.40153546,-20.97672795],[55.40146228,-20.97646531],[55.40184053,-20.97661971],[55.4019466,-20.9765936],[55.40209345,-20.97644142],[55.40238419,-20.97641434],[55.40255903,-20.97634281],[55.40295737,-20.97632667],[55.40319925,-20.9763723],[55.40360587,-20.9762108],[55.40428455,-20.97624155],[55.40504163,-20.97604449],[55.40505758,-20.97626324],[55.40476271,-20.97704184],[55.40482803,-20.97714001],[55.40438465,-20.97786482],[55.40454087,-20.97936577],[55.40444767,-20.97953833],[55.40416255,-20.97975968],[55.40402562,-20.98006552],[55.40400041,-20.98035615],[55.40411252,-20.9808486],[55.40368775,-20.98163049],[55.40361766,-20.98198122],[55.40331834,-20.98263331],[55.40292421,-20.98333781],[55.40296249,-20.98344656],[55.40449195,-20.98351961],[55.40528102,-20.98348364],[55.40787838,-20.98380242],[55.40842709,-20.98366663],[55.40896578,-20.98329679],[55.40952323,-20.98306262],[55.41080081,-20.98294357],[55.41143448,-20.98295851],[55.41174545,-20.98283947],[55.41232311,-20.98278433],[55.41263564,-20.98251716],[55.41342396,-20.98264283],[55.41356354,-20.98272272],[55.41376886,-20.98267947],[55.41420438,-20.98278741],[55.41554962,-20.9828198],[55.41571595,-20.98291619],[55.41651933,-20.98307361],[55.41752533,-20.98289688],[55.4182652,-20.98305732],[55.41862281,-20.98298295],[55.41892732,-20.98311134],[55.41936668,-20.98303773],[55.41953626,-20.98310073],[55.42026654,-20.98371634],[55.42069106,-20.98395604],[55.42138833,-20.98450991],[55.42265752,-20.98519102],[55.42327481,-20.98566917],[55.4245017,-20.98644201],[55.42526668,-20.98787903],[55.42772016,-20.98900013],[55.42858637,-20.98931615],[55.43135762,-20.98957927],[55.43324382,-20.99050176],[55.43394227,-20.99030494],[55.43455236,-20.99037197],[55.43580914,-20.989669],[55.43673862,-20.98982297],[55.43691181,-20.98991038],[55.43713923,-20.99005519],[55.43738127,-20.99045848],[55.4384396,-20.99080151],[55.44002782,-20.99254502],[55.44103795,-20.99382704],[55.4435197,-20.99576839],[55.44408168,-20.99639681],[55.44414922,-20.9964697],[55.44448597,-20.99674016],[55.4452254,-20.99760235],[55.44553876,-20.99771722],[55.44606141,-20.9977789],[55.4462743,-20.99765619],[55.44662451,-20.99774249],[55.44812035,-20.99866668],[55.44899626,-20.9989854],[55.44937558,-20.99904757],[55.44958629,-20.99941534],[55.4505168,-21.0001293],[55.45150783,-21.00103893],[55.45200305,-21.00170918],[55.45254047,-21.00220547],[55.45368347,-21.00423929],[55.45401013,-21.00446538],[55.45421487,-21.00448079],[55.45439425,-21.00462334],[55.45450252,-21.00485286],[55.45471865,-21.00497677],[55.45504821,-21.00566899],[55.45534003,-21.00591554],[55.45542144,-21.00623063],[55.45570015,-21.00644364],[55.45607447,-21.00699354],[55.45669321,-21.00734964],[55.45685954,-21.00773235],[55.45706322,-21.00794557],[55.45704303,-21.00822452],[55.45690596,-21.00855118],[55.45695653,-21.00868442],[55.45734915,-21.00923359],[55.4574211,-21.00962718],[55.45772859,-21.01022255],[55.45806778,-21.01054178],[55.45824734,-21.01085596],[55.45832895,-21.01105814],[55.45824734,-21.01141692],[55.45832098,-21.01164703],[55.45881131,-21.01195589],[55.45877241,-21.01246501],[55.45900197,-21.01278145],[55.45906491,-21.01321019],[55.45988881,-21.01345071],[55.46030221,-21.01413375],[55.46056427,-21.01428336],[55.46071752,-21.01453587],[55.46088492,-21.01462952],[55.46109154,-21.01502524],[55.4606194,-21.01641027],[55.46070148,-21.01675518],[55.46090241,-21.01695573],[55.46093807,-21.01723066],[55.46089141,-21.01737206],[55.46070788,-21.01753751],[55.46062175,-21.01805614],[55.46040837,-21.01831798],[55.46019179,-21.01936025],[55.46022854,-21.01971559],[55.46013335,-21.01999114],[55.46066343,-21.02102392],[55.46064732,-21.02146911],[55.4610287,-21.02264868],[55.46106126,-21.02322529],[55.46139206,-21.02427252],[55.46166757,-21.02451891],[55.46177556,-21.02496523],[55.46196387,-21.02517831],[55.46185094,-21.02549525],[55.46186282,-21.02574377],[55.46206386,-21.02621622],[55.46177431,-21.02658667],[55.46060993,-21.02735841],[55.46031088,-21.02781097],[55.45956799,-21.0280111],[55.45905678,-21.0280426],[55.45857316,-21.028386],[55.45749418,-21.02889652],[55.4564372,-21.02960597],[55.4556334,-21.02974049],[55.45502736,-21.0300105],[55.4543279,-21.03019655],[55.45380931,-21.03047637],[55.45382056,-21.03078451],[55.45370787,-21.03107616],[55.45383499,-21.03171776],[55.45373959,-21.03201138],[55.45404752,-21.03247396],[55.45408034,-21.03292953],[55.45429034,-21.0334644],[55.45423676,-21.03380898],[55.45429257,-21.03408771],[55.4541919,-21.0343334],[55.45423749,-21.0345768],[55.45409837,-21.03481853],[55.45413598,-21.03499683],[55.45399442,-21.03528821],[55.45407008,-21.03578843],[55.45388971,-21.03620503],[55.45397982,-21.03651659],[55.45415045,-21.03676475],[55.4543007,-21.03749689],[55.45420113,-21.03772814],[55.45443398,-21.03856673],[55.45422084,-21.03964064],[55.45432815,-21.04033807],[55.45407706,-21.04070614],[55.45403073,-21.04128023],[55.45384153,-21.04180514],[55.45415937,-21.04270683],[55.45398474,-21.04312528],[55.45376761,-21.04365265],[55.45382207,-21.04452846],[55.45374962,-21.04483583],[55.45406336,-21.04538971],[55.45399761,-21.04579289],[55.45404579,-21.04588005],[55.45424373,-21.04590714],[55.4543218,-21.04598734],[55.45437435,-21.04621003],[55.45424691,-21.04709051],[55.45395098,-21.04760632],[55.45399536,-21.04787501],[55.45393545,-21.0479928],[55.45464278,-21.04873001],[55.45473049,-21.04899639],[55.45406603,-21.05062895],[55.45403318,-21.05194659],[55.45417885,-21.05228395],[55.4543509,-21.05332794],[55.45409031,-21.05405544],[55.45368012,-21.05445278],[55.45353227,-21.05525809],[55.4537668,-21.05584286],[55.45385551,-21.0564778],[55.45412616,-21.05664015],[55.4543033,-21.05700579],[55.45434734,-21.05721396],[55.45425815,-21.05765035],[55.45342926,-21.05870781],[55.4527191,-21.05944928],[55.45278011,-21.0605293],[55.45250493,-21.06089715],[55.45161401,-21.06143643],[55.44931652,-21.06249764],[55.44915018,-21.06276169],[55.44896365,-21.06283948],[55.44868459,-21.06311605],[55.44824371,-21.06322132],[55.44770256,-21.06352983],[55.44746657,-21.06392151],[55.44727159,-21.06397844],[55.44667413,-21.06451948],[55.44649894,-21.06461634],[55.44590163,-21.06467862],[55.44563957,-21.06480088],[55.44494521,-21.06540426],[55.44471898,-21.06568944],[55.44373088,-21.0663145],[55.44373475,-21.06640487],[55.44377418,-21.06668526],[55.44415234,-21.06724516],[55.44502233,-21.06798391],[55.44542852,-21.06844019],[55.44569342,-21.0686016],[55.44589961,-21.06894855],[55.44658464,-21.06924388],[55.44666018,-21.06947672],[55.44682384,-21.06965617],[55.44719015,-21.06987631],[55.44743578,-21.07013329],[55.44779165,-21.07024585],[55.44831102,-21.07064805],[55.44919408,-21.07096596],[55.44937344,-21.07120968],[55.44962771,-21.07137641],[55.45065792,-21.07281937],[55.4510018,-21.07353341],[55.45108818,-21.07364892],[55.45132129,-21.07372151],[55.45140962,-21.07411435],[55.45163959,-21.0742113],[55.45175024,-21.07458628],[55.45226098,-21.07545179],[55.45230183,-21.07578187],[55.45247507,-21.07606077],[55.45302852,-21.07652018],[55.45334007,-21.07729083],[55.45371263,-21.07783983],[55.45454925,-21.07846622],[55.45487684,-21.07861734],[55.45494049,-21.07907048],[55.45566402,-21.07918546],[55.45641944,-21.07947507],[55.45741765,-21.07973979],[55.45847563,-21.08176921],[55.45855328,-21.08179882],[55.45923261,-21.0821889],[55.45955445,-21.08215208],[55.45997476,-21.08236727],[55.46051685,-21.08253207],[55.4612209,-21.08229818],[55.46138544,-21.08248936],[55.46182442,-21.0824798],[55.46282687,-21.08280414],[55.46314819,-21.08272485],[55.4634361,-21.08308607],[55.46347179,-21.08345314],[55.4640562,-21.08493264],[55.46451945,-21.08546617],[55.46478597,-21.0856628]]]]},"bbox":[55.37277929,-21.09295676,55.46478597,-20.97604449]},{"type":"Feature","id":"fr-quartier-97408-834518ece4de","properties":{"id":"fr-quartier-97408-834518ece4de","kind":"quartier","name":"Mafate-La Nouvelle","cityCode":"97408","cityName":"La Possession","sourceType":"iris","sourceIds":["974080303"],"colorIndex":9,"center":[55.409017192335966,-21.077151975]},"geometry":{"type":"MultiPolygon","coordinates":[[[[55.43155195,-21.09211912],[55.43084781,-21.09235379],[55.43071166,-21.09230375],[55.4301788,-21.09235934],[55.42954268,-21.09207433],[55.4290892,-21.09162932],[55.42841273,-21.09133851],[55.42785511,-21.09173531],[55.42731867,-21.0918568],[55.42699592,-21.09243373],[55.42664194,-21.09277822],[55.42646018,-21.09322005],[55.42619143,-21.09342261],[55.42599607,-21.09369359],[55.42606044,-21.09379626],[55.42602554,-21.09400189],[55.42590129,-21.09410191],[55.42583763,-21.09429643],[55.42549439,-21.09444319],[55.42540448,-21.09548476],[55.42523411,-21.09557622],[55.42464922,-21.09563583],[55.42393161,-21.09586673],[55.42347085,-21.09574772],[55.42312878,-21.09587372],[55.42278096,-21.09581538],[55.42266259,-21.09590371],[55.42246753,-21.09632825],[55.42197062,-21.09662352],[55.42187398,-21.09702459],[55.42163877,-21.09723919],[55.42143837,-21.0972572],[55.42125565,-21.09687792],[55.42075237,-21.09659231],[55.42051161,-21.09614835],[55.42023388,-21.09619816],[55.41998061,-21.09602688],[55.41937321,-21.09584869],[55.41905919,-21.09587105],[55.41723102,-21.09471856],[55.41709181,-21.09450408],[55.41696693,-21.09402597],[55.4167479,-21.09389476],[55.41643708,-21.09343388],[55.41428738,-21.09192878],[55.41419817,-21.09162805],[55.41420421,-21.09115026],[55.41407011,-21.09090783],[55.41376094,-21.09083628],[55.41321809,-21.09056383],[55.41245406,-21.09036428],[55.4119371,-21.09037299],[55.41172551,-21.09026803],[55.41154311,-21.09004231],[55.41160703,-21.08955242],[55.41137696,-21.08937412],[55.41086565,-21.08921396],[55.41035854,-21.08884067],[55.41012298,-21.08845546],[55.41006346,-21.08807913],[55.40970598,-21.08739289],[55.40960921,-21.08735224],[55.40925919,-21.08750251],[55.40907632,-21.0875017],[55.40885023,-21.0873126],[55.40877815,-21.0870319],[55.40881536,-21.08661041],[55.40914385,-21.08631179],[55.40916614,-21.08620722],[55.40852582,-21.08560052],[55.40789912,-21.08561271],[55.40691909,-21.08590611],[55.40531926,-21.08565442],[55.40458369,-21.08513624],[55.40435397,-21.08483689],[55.40414189,-21.08432815],[55.40380529,-21.08421388],[55.40369976,-21.08409184],[55.40372347,-21.0838536],[55.40393806,-21.08376709],[55.40455103,-21.08278646],[55.40473861,-21.08198429],[55.40460303,-21.08152143],[55.40474553,-21.08124546],[55.40496899,-21.08104884],[55.40529778,-21.08090288],[55.40581542,-21.08046604],[55.40634759,-21.08029038],[55.40686859,-21.0798093],[55.40708949,-21.07940037],[55.40709097,-21.07926128],[55.40752925,-21.0787749],[55.40771893,-21.07822477],[55.40798983,-21.07809091],[55.4081419,-21.07763888],[55.40840727,-21.07730173],[55.40889317,-21.07713195],[55.40950388,-21.077172],[55.40976522,-21.07712206],[55.41025743,-21.07663076],[55.41081775,-21.07643096],[55.41087692,-21.07629692],[55.41074193,-21.07595873],[55.41081806,-21.07567761],[55.4110553,-21.0754504],[55.4114282,-21.07549905],[55.41154812,-21.07544417],[55.4121547,-21.07433156],[55.41227414,-21.07350616],[55.41314961,-21.0731729],[55.41328393,-21.07303054],[55.41330402,-21.07286],[55.41301841,-21.07247704],[55.41308877,-21.0722853],[55.41382605,-21.07146025],[55.41395551,-21.07141359],[55.41422062,-21.07146123],[55.41441632,-21.0713384],[55.4144373,-21.07108387],[55.41521768,-21.07000448],[55.41523461,-21.06958822],[55.41532213,-21.06941109],[55.41555854,-21.06935187],[55.41580784,-21.06898384],[55.41613059,-21.06867793],[55.41675567,-21.06835676],[55.41739105,-21.0677909],[55.41740985,-21.06737827],[55.41732337,-21.06718415],[55.41750183,-21.06641621],[55.41746216,-21.06561732],[55.41703462,-21.06436858],[55.41658916,-21.06345029],[55.41629432,-21.06312145],[55.41587985,-21.0628204],[55.4164078,-21.0627648],[55.41703016,-21.06260711],[55.41815578,-21.0627269],[55.41873052,-21.06252268],[55.41894533,-21.06241177],[55.41974534,-21.06165322],[55.41992538,-21.06155372],[55.4202026,-21.06145604],[55.42108928,-21.06141912],[55.42129721,-21.06150416],[55.42180714,-21.06187835],[55.42211738,-21.06202485],[55.42246844,-21.06231717],[55.42263892,-21.06239373],[55.42306757,-21.06235435],[55.42347919,-21.06237895],[55.42398124,-21.06258866],[55.42495786,-21.06287594],[55.42684101,-21.06288888],[55.42748264,-21.06309536],[55.42760298,-21.06318229],[55.42794023,-21.06359822],[55.42808504,-21.063829],[55.42821589,-21.06419876],[55.42849269,-21.06478215],[55.42869342,-21.0650026],[55.42916459,-21.06522195],[55.42954856,-21.06522279],[55.42973668,-21.0652706],[55.42987107,-21.06539469],[55.43001485,-21.06563269],[55.4302137,-21.06575828],[55.43047828,-21.06585648],[55.43055725,-21.06594212],[55.43059157,-21.06615652],[55.43046691,-21.06648146],[55.43021759,-21.06694616],[55.4302149,-21.06720268],[55.43031555,-21.06742401],[55.43046425,-21.06755998],[55.43089636,-21.06765069],[55.43118149,-21.06780869],[55.43141574,-21.06795448],[55.43180865,-21.06829595],[55.43197022,-21.06839861],[55.43218893,-21.06846567],[55.43237021,-21.06861549],[55.43245167,-21.06873999],[55.43248413,-21.06904019],[55.43257485,-21.06938338],[55.43285884,-21.0697419],[55.43279737,-21.070006],[55.43288923,-21.07033204],[55.43301044,-21.07052015],[55.43298627,-21.0706229],[55.43277897,-21.0708432],[55.43277886,-21.07094527],[55.43292203,-21.0710586],[55.43334165,-21.07124043],[55.4333677,-21.07141862],[55.43344674,-21.07149794],[55.43405941,-21.07180891],[55.43415191,-21.07207443],[55.43442862,-21.07257832],[55.43441501,-21.07277511],[55.43437081,-21.07285961],[55.43421451,-21.07298915],[55.43419125,-21.07309643],[55.43441582,-21.07343272],[55.43469608,-21.07350577],[55.43498311,-21.0736674],[55.43504436,-21.07388385],[55.43514008,-21.07402565],[55.43568085,-21.07421942],[55.43570478,-21.07432352],[55.43567745,-21.07445245],[55.43549294,-21.07470186],[55.43556544,-21.07494733],[55.4357944,-21.07514004],[55.43612084,-21.07530654],[55.4366729,-21.07543357],[55.43681938,-21.07550719],[55.43666768,-21.07556451],[55.43640011,-21.07584297],[55.43615187,-21.07602044],[55.43598507,-21.07623389],[55.43590749,-21.07656559],[55.43561319,-21.07672999],[55.43552739,-21.07683579],[55.43549072,-21.07693752],[55.43549797,-21.07725646],[55.43478751,-21.07837723],[55.43460348,-21.07894823],[55.43487799,-21.07911155],[55.43510656,-21.07970984],[55.43513708,-21.0801961],[55.43474458,-21.08045534],[55.43467391,-21.08067871],[55.4346676,-21.08100474],[55.43497828,-21.08120724],[55.43512002,-21.08191764],[55.43508679,-21.08215039],[55.43525525,-21.08233079],[55.43536442,-21.08275093],[55.43527393,-21.08293708],[55.43494167,-21.0829575],[55.43460344,-21.08409887],[55.43388207,-21.08616439],[55.43376919,-21.08710821],[55.43369658,-21.0874246],[55.433731,-21.08762996],[55.43392747,-21.08789374],[55.43401953,-21.08810957],[55.43388964,-21.08838117],[55.43351443,-21.08882394],[55.4333545,-21.08911423],[55.43311037,-21.08981565],[55.43293321,-21.09000461],[55.43281323,-21.09024829],[55.43263852,-21.09084647],[55.43244979,-21.09112837],[55.43155195,-21.09211912]]]]},"bbox":[55.40369976,-21.0972572,55.43681938,-21.06141912]},{"type":"Feature","id":"fr-quartier-97408-07e319d9dfb2","properties":{"id":"fr-quartier-97408-07e319d9dfb2","kind":"quartier","name":"Pichette","cityCode":"97408","cityName":"La Possession","sourceType":"iris","sourceIds":["974080501"],"colorIndex":10,"center":[55.347709753641354,-20.96465067]},"geometry":{"type":"MultiPolygon","coordinates":[[[[55.36625924,-20.97414141],[55.36519002,-20.97544634],[55.36488875,-20.9752917],[55.36451695,-20.97499004],[55.36439837,-20.97483986],[55.36330509,-20.97649684],[55.36245683,-20.97614363],[55.36026194,-20.97430871],[55.35917419,-20.97334165],[55.35800045,-20.97250113],[55.35666243,-20.97173308],[55.35504487,-20.97093703],[55.3542066,-20.97046645],[55.35356119,-20.97021271],[55.35293696,-20.97013171],[55.35251222,-20.97001379],[55.35221326,-20.96991425],[55.35192557,-20.96975158],[55.35149172,-20.96985036],[55.35050995,-20.96975053],[55.35002841,-20.96955076],[55.34933539,-20.96960457],[55.34900722,-20.96945054],[55.34867095,-20.96959542],[55.34802532,-20.96945006],[55.34682148,-20.96969311],[55.346446,-20.96981864],[55.34630157,-20.96948482],[55.34568522,-20.96921328],[55.34549341,-20.96907773],[55.34529985,-20.96901442],[55.34492425,-20.96914988],[55.34433703,-20.96920289],[55.34393296,-20.96886836],[55.34187175,-20.96863334],[55.3418714,-20.96805523],[55.34200604,-20.96805474],[55.34185296,-20.96798279],[55.34182415,-20.96789218],[55.3418515,-20.96776599],[55.34193829,-20.96765753],[55.34215046,-20.9676036],[55.34227504,-20.96746841],[55.3422455,-20.9672694],[55.34210122,-20.96709728],[55.34193998,-20.96698099],[55.34179027,-20.9667781],[55.3418664,-20.96659006],[55.3420213,-20.9664091],[55.34214037,-20.96633799],[55.34222981,-20.96616363],[55.34217655,-20.96610891],[55.34191797,-20.96601155],[55.3413896,-20.96596215],[55.34129992,-20.96598386],[55.34064175,-20.96584467],[55.34048665,-20.96595607],[55.33998737,-20.96588436],[55.33950767,-20.96586795],[55.33901128,-20.96570955],[55.33881324,-20.96570311],[55.33860906,-20.96564421],[55.3383341,-20.96572373],[55.33792157,-20.96572151],[55.33784488,-20.96569909],[55.33766597,-20.96552843],[55.33745023,-20.96547122],[55.33714413,-20.96549714],[55.33692837,-20.96535412],[55.33671003,-20.96561846],[55.33645928,-20.96559704],[55.33569689,-20.96540352],[55.33468885,-20.96542168],[55.3339232,-20.96535006],[55.33273108,-20.9651442],[55.33255932,-20.96476314],[55.33279203,-20.96476452],[55.33294688,-20.9646757],[55.33299422,-20.96456958],[55.33298922,-20.96441326],[55.33306575,-20.96436252],[55.33306696,-20.96425414],[55.33319314,-20.96414879],[55.33391716,-20.96251008],[55.33414624,-20.9622305],[55.33444489,-20.96209522],[55.33450544,-20.9620118],[55.33453182,-20.96188741],[55.33433056,-20.96147806],[55.33430885,-20.9613541],[55.33431498,-20.96114821],[55.33439523,-20.96093492],[55.33464515,-20.96042339],[55.33490225,-20.96004562],[55.33518369,-20.95981351],[55.33605116,-20.95928543],[55.33595993,-20.95918699],[55.33599839,-20.95910065],[55.33660961,-20.95809132],[55.33649405,-20.95741092],[55.33646086,-20.95736815],[55.33635584,-20.95738699],[55.33630492,-20.95729526],[55.33633816,-20.95724591],[55.33642571,-20.95724225],[55.33664168,-20.95701763],[55.33678297,-20.95693681],[55.33696635,-20.95696208],[55.33709821,-20.95703924],[55.33721764,-20.95702144],[55.3372899,-20.95709621],[55.33752393,-20.95715089],[55.33769329,-20.95757528],[55.33787039,-20.95773508],[55.33812279,-20.9577809],[55.33820366,-20.95794699],[55.33874272,-20.95807057],[55.33896473,-20.95816938],[55.33920276,-20.95794949],[55.33928103,-20.95782741],[55.33943554,-20.95733301],[55.339456,-20.95696106],[55.3398907,-20.95695626],[55.34020079,-20.9568283],[55.34038335,-20.95666749],[55.34051945,-20.9564466],[55.34088194,-20.95662447],[55.34144765,-20.95590192],[55.34153015,-20.95565793],[55.34213514,-20.95608204],[55.34364134,-20.95649051],[55.34437273,-20.95678938],[55.345128,-20.95727726],[55.34757355,-20.95796489],[55.34811054,-20.9581905],[55.34851882,-20.95779069],[55.34857312,-20.95774966],[55.34863647,-20.95776021],[55.34878865,-20.95765058],[55.34891397,-20.95762199],[55.34936901,-20.95769233],[55.34954129,-20.95767955],[55.34982655,-20.95735984],[55.35072803,-20.95679407],[55.35084225,-20.95681324],[55.35125509,-20.95704847],[55.35158655,-20.95716369],[55.3518482,-20.95733152],[55.35233115,-20.9573118],[55.35222127,-20.95628098],[55.35253328,-20.95624064],[55.35308293,-20.95601381],[55.35335724,-20.95625402],[55.3535759,-20.95657138],[55.35364885,-20.95746273],[55.35388395,-20.95821112],[55.35408118,-20.95855356],[55.35433284,-20.95875652],[55.35481927,-20.95885877],[55.35494633,-20.95893497],[55.35503317,-20.95908395],[55.35509532,-20.95946845],[55.3551947,-20.95970245],[55.35545115,-20.95999398],[55.35562379,-20.96012391],[55.35586093,-20.96024724],[55.35641231,-20.96039076],[55.3567427,-20.9605168],[55.35682275,-20.96058351],[55.35720308,-20.96133148],[55.35703823,-20.96172102],[55.35703632,-20.96180772],[55.35708261,-20.96188404],[55.35731707,-20.96198928],[55.35771637,-20.96205726],[55.35798652,-20.9621529],[55.35866717,-20.96252348],[55.35991272,-20.96329965],[55.3602278,-20.96333159],[55.36060131,-20.96329634],[55.36091739,-20.96332467],[55.36136335,-20.96343555],[55.36161513,-20.96362856],[55.3619716,-20.96418661],[55.36214532,-20.96439514],[55.36244477,-20.96462564],[55.36288855,-20.96529112],[55.36316895,-20.96585927],[55.3636025,-20.96631689],[55.36358521,-20.96640344],[55.36343567,-20.96662421],[55.3633913,-20.96716576],[55.36309297,-20.96745014],[55.36299091,-20.96772557],[55.36311131,-20.96815037],[55.36309387,-20.96851513],[55.36330576,-20.96901669],[55.363299,-20.969284],[55.3632214,-20.96952172],[55.36323283,-20.96970881],[55.36333001,-20.96988137],[55.36371884,-20.97011815],[55.36380624,-20.97021745],[55.36395741,-20.97055402],[55.36430248,-20.97092498],[55.36435372,-20.97116574],[55.36427417,-20.9715823],[55.36432972,-20.97169213],[55.36447693,-20.97177394],[55.36480511,-20.97184122],[55.36499733,-20.97202915],[55.3651889,-20.97289634],[55.36527622,-20.97309138],[55.36546995,-20.97331816],[55.36569403,-20.97349555],[55.36607978,-20.97401774],[55.36625924,-20.97414141]]]]},"bbox":[55.33255932,-20.97649684,55.36625924,-20.95565793]},{"type":"Feature","id":"fr-quartier-97408-41a1ab2008a3","properties":{"id":"fr-quartier-97408-41a1ab2008a3","kind":"quartier","name":"Sainte-Thérèse","cityCode":"97408","cityName":"La Possession","sourceType":"iris","sourceIds":["974080401"],"colorIndex":11,"center":[55.34475323135132,-20.954067725]},"geometry":{"type":"MultiPolygon","coordinates":[[[[55.35308293,-20.95601381],[55.35253328,-20.95624064],[55.35222127,-20.95628098],[55.35233115,-20.9573118],[55.3518482,-20.95733152],[55.35158655,-20.95716369],[55.35125509,-20.95704847],[55.35084225,-20.95681324],[55.35072803,-20.95679407],[55.34982655,-20.95735984],[55.34954129,-20.95767955],[55.34936901,-20.95769233],[55.34891397,-20.95762199],[55.34878865,-20.95765058],[55.34863647,-20.95776021],[55.34857312,-20.95774966],[55.34851882,-20.95779069],[55.34811054,-20.9581905],[55.34757355,-20.95796489],[55.345128,-20.95727726],[55.34437273,-20.95678938],[55.34364134,-20.95649051],[55.34213514,-20.95608204],[55.34153015,-20.95565793],[55.34144765,-20.95590192],[55.34088194,-20.95662447],[55.34051945,-20.9564466],[55.34038335,-20.95666749],[55.34020079,-20.9568283],[55.3398907,-20.95695626],[55.339456,-20.95696106],[55.33943554,-20.95733301],[55.33928103,-20.95782741],[55.33920276,-20.95794949],[55.33896473,-20.95816938],[55.33874272,-20.95807057],[55.33820366,-20.95794699],[55.33812279,-20.9577809],[55.33787039,-20.95773508],[55.33769329,-20.95757528],[55.33752393,-20.95715089],[55.3372899,-20.95709621],[55.33721764,-20.95702144],[55.33709821,-20.95703924],[55.33696635,-20.95696208],[55.33678297,-20.95693681],[55.33664168,-20.95701763],[55.33642571,-20.95724225],[55.33633816,-20.95724591],[55.33630492,-20.95729526],[55.33615352,-20.95698667],[55.33626912,-20.95618478],[55.33620792,-20.95545884],[55.33613986,-20.9553525],[55.33605146,-20.95534621],[55.33595179,-20.95540215],[55.33675855,-20.95427459],[55.33712661,-20.95386086],[55.33826931,-20.95304821],[55.33892807,-20.95234464],[55.33843919,-20.95194515],[55.33791019,-20.9527403],[55.33627442,-20.95074887],[55.33746925,-20.94556392],[55.33886852,-20.94502022],[55.33864655,-20.94448422],[55.3386893,-20.94444489],[55.33895291,-20.9444312],[55.33908977,-20.9443151],[55.33923381,-20.94372215],[55.33969094,-20.943947],[55.33982744,-20.94395104],[55.34030403,-20.94380663],[55.34071379,-20.94379345],[55.34084914,-20.94372612],[55.34120942,-20.9436664],[55.34141325,-20.94357986],[55.3416138,-20.94370465],[55.34178357,-20.94391767],[55.34186951,-20.94414614],[55.34192424,-20.94493885],[55.34187951,-20.94559511],[55.34192979,-20.94609421],[55.341989,-20.94630525],[55.34223868,-20.94668344],[55.34235588,-20.94678124],[55.3427004,-20.94693001],[55.34306603,-20.94734546],[55.34354688,-20.94760035],[55.34466437,-20.94863552],[55.34469634,-20.94887611],[55.34463209,-20.94894775],[55.34445589,-20.94896862],[55.3443896,-20.94905108],[55.34460748,-20.94926185],[55.34522929,-20.94964095],[55.34573843,-20.94968653],[55.34586957,-20.9497402],[55.34628327,-20.94972072],[55.34722346,-20.95000353],[55.34727505,-20.95038432],[55.34759942,-20.95114351],[55.34769817,-20.95152114],[55.34778013,-20.95167549],[55.34808706,-20.95200907],[55.34826127,-20.95208212],[55.34854455,-20.95211738],[55.34862028,-20.95205127],[55.34880133,-20.95202683],[55.34889376,-20.9521036],[55.34903149,-20.95208326],[55.34940309,-20.95213202],[55.34994548,-20.95230257],[55.34999677,-20.95236088],[55.35012817,-20.95274243],[55.35019179,-20.95281621],[55.35050404,-20.95292853],[55.35085001,-20.95312247],[55.3514519,-20.95321682],[55.35213422,-20.95351788],[55.35226005,-20.95361846],[55.35272184,-20.95430129],[55.3531782,-20.9546896],[55.35331963,-20.9549466],[55.3533066,-20.95534573],[55.35324454,-20.95556914],[55.35308255,-20.95587289],[55.35308293,-20.95601381]]]]},"bbox":[55.33595179,-20.9581905,55.35331963,-20.94357986]},{"type":"Feature","id":"fr-quartier-97408-665c361b8d62","properties":{"id":"fr-quartier-97408-665c361b8d62","kind":"quartier","name":"ZAC Saint-Laurent","cityCode":"97408","cityName":"La Possession","sourceType":"iris","sourceIds":["974080201"],"colorIndex":12,"center":[55.33228771402258,-20.95063948]},"geometry":{"type":"MultiPolygon","coordinates":[[[[55.33439523,-20.96093492],[55.33335208,-20.96074045],[55.33303709,-20.96061543],[55.33286312,-20.96034726],[55.33248407,-20.96018818],[55.33229491,-20.96016285],[55.3319543,-20.95992015],[55.33102409,-20.9595145],[55.33178624,-20.95773166],[55.33074852,-20.95765737],[55.33058872,-20.95775877],[55.33047602,-20.95777664],[55.329947,-20.95761429],[55.32933566,-20.95759204],[55.32876892,-20.95745009],[55.32820512,-20.95747618],[55.32821333,-20.95734347],[55.32918192,-20.95611005],[55.32979441,-20.9546419],[55.32970819,-20.95452634],[55.32959221,-20.95414582],[55.3296199,-20.9538173],[55.32922478,-20.95363548],[55.32899419,-20.95318519],[55.32886794,-20.95312434],[55.32902996,-20.95238885],[55.32952033,-20.95161322],[55.3283265,-20.95070637],[55.3282251,-20.95057259],[55.32847513,-20.9503971],[55.32875261,-20.94991566],[55.32891744,-20.9497059],[55.32959026,-20.94903774],[55.32967445,-20.94890307],[55.32987117,-20.94824651],[55.33000056,-20.94802376],[55.33018578,-20.94788286],[55.33051048,-20.9477379],[55.33065075,-20.94748816],[55.33073423,-20.94689732],[55.33068935,-20.94678217],[55.33069907,-20.94651218],[55.33073073,-20.94634538],[55.33085682,-20.94616054],[55.33086201,-20.94543254],[55.33037809,-20.94458956],[55.33026538,-20.94417475],[55.33106733,-20.94417176],[55.33183857,-20.94433738],[55.33208281,-20.94407601],[55.33224383,-20.94368917],[55.33223966,-20.94354461],[55.33231031,-20.9432427],[55.33233032,-20.94325915],[55.33241295,-20.94317867],[55.33245988,-20.94302105],[55.33342403,-20.94330597],[55.33411921,-20.94356659],[55.33479316,-20.94366169],[55.33562709,-20.94372312],[55.33599327,-20.94391187],[55.33702611,-20.94398517],[55.33711864,-20.94396439],[55.33723793,-20.94387252],[55.33741897,-20.94358614],[55.33754101,-20.94350603],[55.33771639,-20.94347161],[55.33781534,-20.94339218],[55.33749784,-20.94332314],[55.33763728,-20.94323418],[55.33825202,-20.94320494],[55.33898191,-20.94328431],[55.33913577,-20.94336981],[55.33922302,-20.94347996],[55.33923381,-20.94372215],[55.33908977,-20.9443151],[55.33895291,-20.9444312],[55.3386893,-20.94444489],[55.33864655,-20.94448422],[55.33886852,-20.94502022],[55.33746925,-20.94556392],[55.33627442,-20.95074887],[55.33791019,-20.9527403],[55.33843919,-20.95194515],[55.33892807,-20.95234464],[55.33826931,-20.95304821],[55.33712661,-20.95386086],[55.33675855,-20.95427459],[55.33595179,-20.95540215],[55.33605146,-20.95534621],[55.33613986,-20.9553525],[55.33620792,-20.95545884],[55.33626912,-20.95618478],[55.33615352,-20.95698667],[55.33630492,-20.95729526],[55.33635584,-20.95738699],[55.33646086,-20.95736815],[55.33649405,-20.95741092],[55.33660961,-20.95809132],[55.33599839,-20.95910065],[55.33595993,-20.95918699],[55.33605116,-20.95928543],[55.33518369,-20.95981351],[55.33490225,-20.96004562],[55.33464515,-20.96042339],[55.33439523,-20.96093492]]]]},"bbox":[55.32820512,-20.96093492,55.33923381,-20.94302105]}]}