{"type":"FeatureCollection","metadata":{"sourceType":"iris","source":"IGN / INSEE — Contours IRIS 2026","sourceUrl":"https://data.geopf.fr/wfs/ows?service=WFS&version=2.0.0&request=GetFeature&typeNames=STATISTICALUNITS.IRIS%3Acontours_iris&outputFormat=application%2Fjson&srsName=CRS%3A84&count=1000&CQL_FILTER=code_insee%3D%2797801%27&sortBy=code_iris","retrievedDate":"2026-09-10","sourceYear":"2026","license":"Licence Ouverte 2.0"},"features":[{"type":"Feature","id":"fr-quartier-97801-cdc92dffbd33","properties":{"id":"fr-quartier-97801-cdc92dffbd33","kind":"quartier","name":"Anse-Marcel - Cul de Sac","cityCode":"97801","cityName":"Saint-Martin","sourceType":"iris","sourceIds":["978010112"],"colorIndex":0,"center":[-63.049703182334866,18.11643547]},"geometry":{"type":"MultiPolygon","coordinates":[[[[-63.05303077,18.10956894],[-63.05285237,18.11036709],[-63.05286098,18.1107205],[-63.05334225,18.11124641],[-63.05344826,18.11171729],[-63.05341809,18.11195682],[-63.05350128,18.11200922],[-63.05330659,18.11207887],[-63.05292955,18.11242424],[-63.05261782,18.11308324],[-63.05281769,18.11450133],[-63.05273084,18.11487464],[-63.0528179,18.11519187],[-63.05291717,18.11526054],[-63.05292871,18.11592939],[-63.05274076,18.11642384],[-63.05268711,18.11719485],[-63.05235371,18.11812952],[-63.05237835,18.11832746],[-63.05210614,18.11839803],[-63.05159011,18.1186874],[-63.05146722,18.11865219],[-63.05104379,18.11879782],[-63.0509502,18.11877344],[-63.05104091,18.11863693],[-63.05074883,18.11866865],[-63.05056068,18.11850239],[-63.05041605,18.11849158],[-63.05044633,18.11860726],[-63.05034615,18.11864887],[-63.05026012,18.11859556],[-63.0502242,18.11861997],[-63.05020528,18.11856936],[-63.05004555,18.11862002],[-63.05017689,18.11844826],[-63.04989615,18.11845827],[-63.05000483,18.11836334],[-63.04972883,18.11841493],[-63.049846,18.11826124],[-63.04976183,18.1181275],[-63.04959545,18.1180706],[-63.049603,18.11800823],[-63.04915015,18.11775255],[-63.04887412,18.1176993],[-63.04882875,18.11770112],[-63.04883914,18.11765954],[-63.04853094,18.11747794],[-63.04847994,18.11763251],[-63.04811134,18.11779891],[-63.0482786,18.11764431],[-63.04822375,18.11752954],[-63.04813112,18.11757294],[-63.04787871,18.11746635],[-63.04745525,18.11749086],[-63.04743822,18.11743031],[-63.04752895,18.11737425],[-63.04732099,18.11736797],[-63.04719051,18.11723694],[-63.04725288,18.11716552],[-63.04705436,18.11709869],[-63.0469919,18.11680857],[-63.04669783,18.1164471],[-63.04579503,18.11611289],[-63.04551903,18.11614097],[-63.0451883,18.11654417],[-63.04487166,18.11662288],[-63.04482538,18.11673587],[-63.04471287,18.11665997],[-63.04444729,18.11680103],[-63.04420435,18.11673782],[-63.04409283,18.1167966],[-63.04402374,18.11646942],[-63.04351698,18.1160149],[-63.04310187,18.11542206],[-63.04280866,18.11463849],[-63.0425174,18.11410708],[-63.04219976,18.11394356],[-63.04122334,18.11392569],[-63.04056739,18.11408762],[-63.03982545,18.11439689],[-63.03904103,18.11493213],[-63.03878309,18.11544919],[-63.03879447,18.11559109],[-63.03907151,18.11599144],[-63.03945815,18.11615135],[-63.03914815,18.11634483],[-63.03955476,18.11704614],[-63.04041162,18.11905342],[-63.0400356,18.11991758],[-63.04003107,18.12079522],[-63.03985433,18.12089017],[-63.03979003,18.120779],[-63.03941289,18.12086043],[-63.03936752,18.12091015],[-63.03944789,18.12099781],[-63.03945265,18.1211596],[-63.0393496,18.121062],[-63.03909628,18.12113346],[-63.03879384,18.12135135],[-63.03867674,18.1218512],[-63.03860794,18.12277043],[-63.03854556,18.12280931],[-63.03853613,18.12293766],[-63.03863257,18.12303978],[-63.03837076,18.12317541],[-63.0384247,18.12343842],[-63.03821204,18.12358579],[-63.03800031,18.12363644],[-63.03791522,18.12356686],[-63.03800879,18.1234855],[-63.03808726,18.12357316],[-63.0382583,18.12332366],[-63.03774401,18.12301284],[-63.03752476,18.12329217],[-63.03748126,18.1232271],[-63.03758238,18.12310777],[-63.03743018,18.12301832],[-63.03723266,18.12323438],[-63.03689333,18.123389],[-63.03674015,18.12315222],[-63.03668344,18.12317935],[-63.03665979,18.1231197],[-63.03647831,18.12317939],[-63.03650953,18.1232779],[-63.03644336,18.1232969],[-63.03636677,18.12315772],[-63.03624483,18.12318486],[-63.03603401,18.12307372],[-63.03599716,18.12313519],[-63.03582698,18.12300687],[-63.03566913,18.12304306],[-63.03556419,18.12298885],[-63.0355387,18.12316691],[-63.03544036,18.12298073],[-63.03514073,18.12308564],[-63.0351596,18.12294825],[-63.03505091,18.12300431],[-63.03503199,18.12294104],[-63.03449982,18.12307039],[-63.03446768,18.12303695],[-63.03441002,18.12305052],[-63.03437503,18.12300262],[-63.03429377,18.12314183],[-63.03418221,18.12307406],[-63.03396861,18.12325758],[-63.03389203,18.1231663],[-63.03378335,18.1233245],[-63.03375404,18.12326304],[-63.03352813,18.12333719],[-63.03342793,18.12332094],[-63.03342604,18.1233571],[-63.03330033,18.12340683],[-63.03331453,18.12350987],[-63.03314628,18.12357407],[-63.03307443,18.1235307],[-63.03303379,18.12357228],[-63.03303375,18.12335716],[-63.03283431,18.12341053],[-63.03291464,18.12330657],[-63.03286169,18.12326139],[-63.03276624,18.12336806],[-63.03269723,18.12334909],[-63.0326868,18.12318368],[-63.03244005,18.12302465],[-63.03230481,18.12264957],[-63.03207508,18.12250138],[-63.03168751,18.12247885],[-63.03107972,18.12257837],[-63.03059105,18.12279989],[-63.0304134,18.12313977],[-63.03046831,18.1236414],[-63.03044657,18.12366671],[-63.03049195,18.12369834],[-63.03042958,18.123805],[-63.03032843,18.12373813],[-63.0302859,18.12380864],[-63.03005804,18.12356102],[-63.02959672,18.12339569],[-63.02851061,18.12348623],[-63.02811456,18.1236291],[-63.02707485,18.12425833],[-63.02630069,18.12445638],[-63.02526179,18.1242396],[-63.02386551,18.12353206],[-63.02314895,18.12327907],[-63.02252313,18.12291579],[-63.02162502,18.12211599],[-63.02112496,18.12205368],[-63.02065801,18.12217123],[-63.0203593,18.12214866],[-63.01998311,18.12238009],[-63.01966077,18.12241176],[-63.01963808,18.12237199],[-63.0195549,18.12241086],[-63.0194547,18.12236658],[-63.01941215,18.12230242],[-63.0194509,18.12225812],[-63.01937055,18.12221836],[-63.01944995,18.12217406],[-63.01923914,18.12204483],[-63.01947544,18.12186766],[-63.0196125,18.12187758],[-63.01967488,18.12174923],[-63.01963611,18.12163897],[-63.01986296,18.121488],[-63.01988656,18.12125932],[-63.01972303,18.12121143],[-63.02070411,18.12031561],[-63.02089879,18.11999382],[-63.0209101,18.11964584],[-63.02075405,18.11895169],[-63.0207171,18.11828194],[-63.02076319,18.11631696],[-63.02042941,18.1153797],[-63.02041047,18.11509951],[-63.02053889,18.11395793],[-63.02046702,18.11364701],[-63.0200359,18.11280647],[-63.01997723,18.11221084],[-63.01984864,18.11189902],[-63.01953195,18.11147424],[-63.01876155,18.11104047],[-63.01825304,18.11123937],[-63.0178069,18.11120597],[-63.01770669,18.11107221],[-63.01750631,18.11107313],[-63.01740608,18.11066369],[-63.0174722,18.1102208],[-63.01738332,18.1099153],[-63.01718385,18.10966405],[-63.01718099,18.10932962],[-63.01791439,18.10860467],[-63.0186071,18.10746574],[-63.01902296,18.10722709],[-63.01925642,18.10718368],[-63.01978196,18.1072704],[-63.02034059,18.10748274],[-63.02079524,18.10753964],[-63.02133594,18.10800054],[-63.02126414,18.10823375],[-63.02129254,18.10858805],[-63.02138139,18.10863324],[-63.02202698,18.10876874],[-63.02267253,18.10863761],[-63.02344377,18.10824434],[-63.02395128,18.10779868],[-63.02439262,18.10733946],[-63.02491707,18.10639577],[-63.02514204,18.10652951],[-63.0252375,18.10648341],[-63.02514674,18.10634151],[-63.02519492,18.10613452],[-63.02545009,18.10591666],[-63.02568261,18.10596544],[-63.02573931,18.10591753],[-63.02540376,18.10583261],[-63.02509755,18.10606946],[-63.02511535,18.10493241],[-63.02498294,18.10430515],[-63.0247844,18.10396894],[-63.0241927,18.10378192],[-63.02392144,18.1038633],[-63.02373519,18.10346201],[-63.02365391,18.10350902],[-63.02354614,18.10333007],[-63.02309241,18.10295593],[-63.02287126,18.10315481],[-63.02290055,18.10303459],[-63.02270767,18.10252936],[-63.02229837,18.102223],[-63.02215466,18.10185515],[-63.02203744,18.10175212],[-63.02216881,18.10163551],[-63.02214323,18.10118358],[-63.02237572,18.10102448],[-63.02268951,18.10096208],[-63.02319123,18.09977254],[-63.02313732,18.09952309],[-63.02325733,18.09930344],[-63.02323083,18.09906934],[-63.02300774,18.09877923],[-63.0227998,18.09872954],[-63.02280829,18.09856594],[-63.0226495,18.09852077],[-63.02284126,18.09771722],[-63.02301041,18.0975301],[-63.02292346,18.0975039],[-63.02304158,18.09734842],[-63.02296874,18.09684408],[-63.02274473,18.09675463],[-63.02296492,18.09659281],[-63.0232012,18.09654669],[-63.02326548,18.0965991],[-63.02352537,18.09647524],[-63.02363313,18.09653127],[-63.02373142,18.09649149],[-63.02382496,18.09630438],[-63.02384661,18.09563823],[-63.02449685,18.09560832],[-63.02464997,18.09565982],[-63.02515278,18.09565976],[-63.02578131,18.09576995],[-63.02590889,18.09565514],[-63.02612625,18.09555388],[-63.02625573,18.09555386],[-63.02636161,18.09571925],[-63.02641845,18.09659146],[-63.02803274,18.09658762],[-63.02851947,18.0964827],[-63.02893535,18.0965676],[-63.02921985,18.09668597],[-63.02931249,18.09678176],[-63.02934087,18.0969318],[-63.02996651,18.09666777],[-63.03082376,18.0967535],[-63.03159888,18.09736529],[-63.03183057,18.09809737],[-63.03212749,18.09884933],[-63.03252725,18.09865584],[-63.03300169,18.09856085],[-63.0348191,18.09800557],[-63.03553358,18.09775326],[-63.03618945,18.09747566],[-63.03660525,18.09716465],[-63.03731968,18.09673157],[-63.03776673,18.09669985],[-63.03818257,18.09661119],[-63.03892349,18.09632542],[-63.03910495,18.09629285],[-63.0392335,18.09636242],[-63.03976574,18.09693897],[-63.04049924,18.09723709],[-63.0404634,18.09756158],[-63.04051826,18.09774505],[-63.04306418,18.10041991],[-63.04355879,18.10161288],[-63.04420355,18.1022373],[-63.04467255,18.10301722],[-63.04488336,18.10316721],[-63.04510736,18.103131],[-63.04552698,18.10298629],[-63.04606571,18.10294187],[-63.04639558,18.10296348],[-63.04782558,18.10279954],[-63.04893429,18.10288512],[-63.05031532,18.10338822],[-63.05081634,18.10363212],[-63.05169463,18.10441824],[-63.05224767,18.10479681],[-63.05255968,18.10513205],[-63.052762,18.10527752],[-63.05297568,18.10551066],[-63.05277067,18.10583068],[-63.05260633,18.10624017],[-63.05237029,18.10711697],[-63.05234958,18.10738542],[-63.05255677,18.10805512],[-63.05253707,18.10853055],[-63.05226232,18.10954746],[-63.05303077,18.10956894]]]]},"bbox":[-63.05350128,18.09555386,-63.01718099,18.12445638]},{"type":"Feature","id":"fr-quartier-97801-0bf7342de506","properties":{"id":"fr-quartier-97801-0bf7342de506","kind":"quartier","name":"Baie Orientale - Le Galion","cityCode":"97801","cityName":"Saint-Martin","sourceType":"iris","sourceIds":["978010113"],"colorIndex":1,"center":[-63.025741519736044,18.077946515]},"geometry":{"type":"MultiPolygon","coordinates":[[[[-63.02384661,18.09563823],[-63.02366492,18.09401403],[-63.02306551,18.09245405],[-63.02219199,18.09056148],[-63.02187345,18.09024878],[-63.02150383,18.08956641],[-63.02099906,18.08884428],[-63.01929483,18.0867918],[-63.01694329,18.08492827],[-63.01601235,18.08447281],[-63.01573352,18.08412395],[-63.01525056,18.08378956],[-63.0141542,18.08276467],[-63.01281878,18.08210314],[-63.01247761,18.08204351],[-63.01177358,18.08260575],[-63.01152977,18.08294561],[-63.01132469,18.08294924],[-63.01065088,18.0832123],[-63.01046754,18.08322858],[-63.01023977,18.0831608],[-63.01021614,18.08308759],[-63.01090977,18.08227228],[-63.01200598,18.08146145],[-63.01258241,18.08065246],[-63.01260414,18.08050604],[-63.01279691,18.08027193],[-63.01332133,18.07924059],[-63.01370876,18.07874706],[-63.01382684,18.07814056],[-63.01402243,18.07762083],[-63.01407814,18.07706947],[-63.01438049,18.07633733],[-63.01456855,18.0762885],[-63.01485681,18.07666268],[-63.0149324,18.07654969],[-63.01511008,18.07665181],[-63.01500898,18.0769284],[-63.01489559,18.07703326],[-63.01467545,18.07771207],[-63.01478037,18.07795791],[-63.01516596,18.07813594],[-63.01593902,18.07829225],[-63.01631704,18.07832475],[-63.01661283,18.07825152],[-63.01711556,18.07793512],[-63.01826935,18.07700133],[-63.01890901,18.07586512],[-63.0195761,18.07497024],[-63.01985293,18.0743818],[-63.01997196,18.07399223],[-63.02010887,18.07296814],[-63.0198621,18.07187631],[-63.01945282,18.07104118],[-63.01901144,18.07048355],[-63.0176524,18.06911614],[-63.01678957,18.06850069],[-63.01656743,18.06778937],[-63.01667042,18.06762215],[-63.01657871,18.06714944],[-63.01665619,18.06703284],[-63.01675539,18.06681952],[-63.01691413,18.06668935],[-63.01724015,18.06671192],[-63.01742443,18.06677065],[-63.01781662,18.06703273],[-63.01808311,18.06708965],[-63.01862552,18.06701277],[-63.01876538,18.06703355],[-63.01887406,18.06712844],[-63.01901772,18.0673562],[-63.01942786,18.0675306],[-63.01974164,18.0679111],[-63.01969441,18.06811899],[-63.01978138,18.068382],[-63.01980501,18.0684055],[-63.01995904,18.06838741],[-63.02018302,18.06860793],[-63.02028035,18.0685808],[-63.02041361,18.06868021],[-63.02045236,18.06876607],[-63.02050247,18.06899474],[-63.02045807,18.06909598],[-63.02015853,18.06925057],[-63.01986746,18.06916021],[-63.0198221,18.06918101],[-63.0198051,18.06924338],[-63.02006316,18.06991311],[-63.02003577,18.07001525],[-63.02008208,18.07008845],[-63.02030322,18.07017701],[-63.02032308,18.07035416],[-63.02066527,18.07118568],[-63.02068703,18.07141435],[-63.02080612,18.07160324],[-63.02079385,18.07171623],[-63.02093374,18.07192591],[-63.02091108,18.07212476],[-63.02100466,18.07233083],[-63.02105573,18.07264356],[-63.02100188,18.07282704],[-63.02103783,18.07310633],[-63.02111345,18.07327263],[-63.02103125,18.0734507],[-63.02104451,18.07371372],[-63.02096515,18.07387823],[-63.02101052,18.073965],[-63.02102093,18.07404815],[-63.02097747,18.07412047],[-63.02100677,18.07420452],[-63.02091986,18.07444315],[-63.02089911,18.07476944],[-63.0207574,18.075131],[-63.02074324,18.07529099],[-63.02092572,18.07604207],[-63.02085392,18.07621472],[-63.02063848,18.07642534],[-63.02057329,18.0766486],[-63.02057047,18.07672362],[-63.0206612,18.07683207],[-63.02067256,18.07695319],[-63.02077652,18.07701554],[-63.0208011,18.07707339],[-63.0207652,18.0772406],[-63.02063669,18.07733191],[-63.0206008,18.07749551],[-63.02041559,18.0776754],[-63.0204071,18.07778928],[-63.02027008,18.07783268],[-63.02020866,18.07789867],[-63.02017748,18.07797098],[-63.02022474,18.07805052],[-63.02018506,18.07814091],[-63.02003954,18.07828735],[-63.0196502,18.07844285],[-63.0196606,18.07849527],[-63.02006036,18.07855398],[-63.0201473,18.07852234],[-63.02117078,18.07850144],[-63.02149114,18.07844446],[-63.02173496,18.07851041],[-63.02191924,18.07843085],[-63.02200805,18.0782808],[-63.02207042,18.07824193],[-63.02222446,18.07823468],[-63.02229817,18.078194],[-63.02233407,18.07813796],[-63.02231705,18.0780765],[-63.02248335,18.07785955],[-63.02247011,18.07774024],[-63.02272048,18.07726931],[-63.02267133,18.07716085],[-63.02271477,18.07697013],[-63.02319758,18.07619004],[-63.02362374,18.07580585],[-63.0235897,18.07569107],[-63.02362938,18.07563231],[-63.02360575,18.07554283],[-63.02366431,18.07532861],[-63.02384195,18.07518036],[-63.02424545,18.0749435],[-63.02447129,18.07486122],[-63.02461683,18.07488018],[-63.02490892,18.07544505],[-63.02453659,18.07550656],[-63.02434762,18.07574249],[-63.02492315,18.07584275],[-63.02531629,18.07588156],[-63.0254552,18.07585624],[-63.02671118,18.07611999],[-63.02842362,18.07641169],[-63.02986106,18.07674229],[-63.03001984,18.07684078],[-63.02746305,18.07980582],[-63.02705962,18.0804675],[-63.02664196,18.08081915],[-63.02633015,18.08121599],[-63.02623567,18.08138502],[-63.02619129,18.08164082],[-63.02616598,18.08302101],[-63.02611876,18.08328494],[-63.02604224,18.0834359],[-63.02595435,18.08350189],[-63.025565,18.08361041],[-63.02544688,18.08368183],[-63.02527775,18.08390601],[-63.0250793,18.08404523],[-63.02502545,18.08416364],[-63.02504154,18.08431548],[-63.02518521,18.08447364],[-63.02532604,18.08456762],[-63.02632977,18.08503569],[-63.02651881,18.08515587],[-63.02665682,18.08537368],[-63.02679013,18.08572978],[-63.02693855,18.08598284],[-63.02745846,18.08675557],[-63.02779592,18.08716768],[-63.02805495,18.08761324],[-63.02867786,18.08821602],[-63.02888299,18.08849438],[-63.02904938,18.08885318],[-63.02902964,18.08947956],[-63.02906463,18.08963773],[-63.0294201,18.09030924],[-63.02951382,18.09121489],[-63.02955826,18.09135498],[-63.03068979,18.09269522],[-63.03130143,18.09353028],[-63.03193291,18.09429484],[-63.03224484,18.09451623],[-63.03343487,18.09515144],[-63.03672513,18.09645149],[-63.03731968,18.09673157],[-63.03660525,18.09716465],[-63.03618945,18.09747566],[-63.03553358,18.09775326],[-63.0348191,18.09800557],[-63.03300169,18.09856085],[-63.03252725,18.09865584],[-63.03212749,18.09884933],[-63.03183057,18.09809737],[-63.03159888,18.09736529],[-63.03082376,18.0967535],[-63.02996651,18.09666777],[-63.02934087,18.0969318],[-63.02931249,18.09678176],[-63.02921985,18.09668597],[-63.02893535,18.0965676],[-63.02851947,18.0964827],[-63.02803274,18.09658762],[-63.02641845,18.09659146],[-63.02636161,18.09571925],[-63.02625573,18.09555386],[-63.02612625,18.09555388],[-63.02590889,18.09565514],[-63.02578131,18.09576995],[-63.02515278,18.09565976],[-63.02464997,18.09565982],[-63.02449685,18.09560832],[-63.02384661,18.09563823]]]]},"bbox":[-63.03731968,18.06668935,-63.01021614,18.09884933]},{"type":"Feature","id":"fr-quartier-97801-9c2eb93b31e2","properties":{"id":"fr-quartier-97801-9c2eb93b31e2","kind":"quartier","name":"Concordia Centre","cityCode":"97801","cityName":"Saint-Martin","sourceType":"iris","sourceIds":["978010115"],"colorIndex":2,"center":[-63.0761456128475,18.069082039999998]},"geometry":{"type":"MultiPolygon","coordinates":[[[[-63.07816889,18.07201064],[-63.07799416,18.07223035],[-63.07743398,18.07271776],[-63.07614674,18.07239559],[-63.07595585,18.07239115],[-63.0754282,18.07159054],[-63.07488748,18.07118943],[-63.07450459,18.07078827],[-63.07390249,18.07045317],[-63.07366319,18.06995162],[-63.07340125,18.069526],[-63.0729569,18.0690173],[-63.07296809,18.06865214],[-63.07315971,18.06815675],[-63.07369087,18.06832648],[-63.07443558,18.06625184],[-63.07550448,18.06656777],[-63.07623974,18.06670939],[-63.07771766,18.06667445],[-63.0779711,18.0670847],[-63.07823203,18.06736389],[-63.07842958,18.06746143],[-63.07885483,18.06748747],[-63.07982084,18.0680095],[-63.07954982,18.06843442],[-63.07925058,18.06914678],[-63.07886997,18.06964768],[-63.07905143,18.0696928],[-63.07903352,18.06979132],[-63.07816889,18.07201064]]]]},"bbox":[-63.07982084,18.06625184,-63.0729569,18.07271776]},{"type":"Feature","id":"fr-quartier-97801-5607c113cdc0","properties":{"id":"fr-quartier-97801-5607c113cdc0","kind":"quartier","name":"Concordia Ouest","cityCode":"97801","cityName":"Saint-Martin","sourceType":"iris","sourceIds":["978010114"],"colorIndex":3,"center":[-63.079403313140844,18.06669192]},"geometry":{"type":"MultiPolygon","coordinates":[[[[-63.08198638,18.06723489],[-63.08112429,18.06871125],[-63.07982084,18.0680095],[-63.07885483,18.06748747],[-63.07842958,18.06746143],[-63.07823203,18.06736389],[-63.0779711,18.0670847],[-63.07771766,18.06667445],[-63.07623974,18.06670939],[-63.07550448,18.06656777],[-63.07443558,18.06625184],[-63.07497543,18.06464186],[-63.07521803,18.06404341],[-63.07565842,18.06413453],[-63.07585851,18.06357135],[-63.08198638,18.06723489]]]]},"bbox":[-63.08198638,18.06357135,-63.07443558,18.06871125]},{"type":"Feature","id":"fr-quartier-97801-ce0cd12aa1bc","properties":{"id":"fr-quartier-97801-ce0cd12aa1bc","kind":"quartier","name":"Cripple Gate - Saint-Louis - Rambaud - Colombier - Pic Parad","cityCode":"97801","cityName":"Saint-Martin","sourceType":"iris","sourceIds":["978010107"],"colorIndex":4,"center":[-63.07877429164169,18.085467585]},"geometry":{"type":"MultiPolygon","coordinates":[[[[-63.05184899,18.063582],[-63.05212592,18.06378077],[-63.0523773,18.06386205],[-63.05318339,18.06398023],[-63.05365964,18.06395208],[-63.05480576,18.06357395],[-63.05495691,18.06342387],[-63.05578928,18.0629726],[-63.05852678,18.0628561],[-63.05989132,18.06295239],[-63.06035253,18.06314387],[-63.06075424,18.06344111],[-63.06130609,18.0634319],[-63.06159719,18.0635945],[-63.06340303,18.06364182],[-63.06358439,18.06345918],[-63.06381475,18.06286437],[-63.0642152,18.0622695],[-63.0642848,18.06139635],[-63.06569969,18.05964962],[-63.06733724,18.06702724],[-63.06826708,18.07188063],[-63.07330449,18.07545715],[-63.07388328,18.0765045],[-63.07488272,18.07778036],[-63.0737792,18.0784659],[-63.07526467,18.08036343],[-63.07509744,18.08046834],[-63.07407696,18.08088993],[-63.0730915,18.08142449],[-63.07356608,18.08182833],[-63.07395364,18.08203968],[-63.0744944,18.08246519],[-63.07459086,18.08261791],[-63.07467985,18.08298665],[-63.07487749,18.08327309],[-63.07565655,18.08403383],[-63.07619269,18.08469705],[-63.07713539,18.0857578],[-63.07735472,18.08593668],[-63.07744645,18.08605866],[-63.07875504,18.08529618],[-63.07885899,18.08526451],[-63.08056743,18.08678137],[-63.08162345,18.08755915],[-63.08193635,18.08772533],[-63.08211789,18.08790873],[-63.08143955,18.08840524],[-63.08090587,18.089049],[-63.08078882,18.08936269],[-63.08071463,18.09039492],[-63.08062404,18.09071402],[-63.07945798,18.0911583],[-63.07884861,18.09164753],[-63.07832793,18.0918249],[-63.0780275,18.09208262],[-63.07794726,18.09228783],[-63.07822825,18.09294572],[-63.07815272,18.09313466],[-63.077856,18.09322516],[-63.07763681,18.09341597],[-63.07754231,18.09342775],[-63.07752247,18.09345397],[-63.07748563,18.09349195],[-63.07693938,18.093569],[-63.07624259,18.09301431],[-63.07589372,18.09274058],[-63.07544845,18.09245513],[-63.07532465,18.09248049],[-63.07521878,18.09243172],[-63.0748737,18.09217697],[-63.07490863,18.09207844],[-63.07487741,18.09199077],[-63.07455871,18.09153084],[-63.07427514,18.09145502],[-63.07413138,18.09120471],[-63.07114043,18.08963945],[-63.07093526,18.08942712],[-63.06873566,18.08608727],[-63.06833752,18.08541042],[-63.06819461,18.08488172],[-63.06544597,18.08387306],[-63.06541865,18.0841135],[-63.06544329,18.08430511],[-63.0659644,18.08531363],[-63.06615551,18.08586311],[-63.06617366,18.08636565],[-63.06614258,18.08667026],[-63.06590921,18.08682038],[-63.06491777,18.08670864],[-63.06386672,18.08636552],[-63.06349624,18.08636565],[-63.06317589,18.08643625],[-63.06255774,18.08624755],[-63.06196516,18.08622424],[-63.05926023,18.08588253],[-63.05867991,18.0857652],[-63.05850027,18.08553387],[-63.05819026,18.0854481],[-63.05781885,18.08548707],[-63.05517132,18.0812795],[-63.04784166,18.08194488],[-63.04455398,18.09009393],[-63.04215328,18.09347489],[-63.04120078,18.09426054],[-63.04095796,18.09456971],[-63.03923532,18.09604697],[-63.03910495,18.09629285],[-63.03892349,18.09632542],[-63.03818257,18.09661119],[-63.03776673,18.09669985],[-63.03731968,18.09673157],[-63.03672513,18.09645149],[-63.03343487,18.09515144],[-63.03224484,18.09451623],[-63.03193291,18.09429484],[-63.03130143,18.09353028],[-63.03068979,18.09269522],[-63.02955826,18.09135498],[-63.02951382,18.09121489],[-63.0294201,18.09030924],[-63.02906463,18.08963773],[-63.02902964,18.08947956],[-63.02904938,18.08885318],[-63.02888299,18.08849438],[-63.02867786,18.08821602],[-63.02805495,18.08761324],[-63.02779592,18.08716768],[-63.02745846,18.08675557],[-63.02693855,18.08598284],[-63.02679013,18.08572978],[-63.02665682,18.08537368],[-63.02651881,18.08515587],[-63.02632977,18.08503569],[-63.02532604,18.08456762],[-63.02518521,18.08447364],[-63.02504154,18.08431548],[-63.02502545,18.08416364],[-63.0250793,18.08404523],[-63.02527775,18.08390601],[-63.02544688,18.08368183],[-63.025565,18.08361041],[-63.02595435,18.08350189],[-63.02604224,18.0834359],[-63.02611876,18.08328494],[-63.02616598,18.08302101],[-63.02619129,18.08164082],[-63.02623567,18.08138502],[-63.02633015,18.08121599],[-63.02664196,18.08081915],[-63.02705962,18.0804675],[-63.02746305,18.07980582],[-63.03001984,18.07684078],[-63.03013322,18.07669163],[-63.03236736,18.07716851],[-63.03394183,18.07743216],[-63.03483303,18.077573],[-63.03736294,18.07785363],[-63.03860721,18.07626079],[-63.04326895,18.07208489],[-63.04591162,18.07013556],[-63.04847539,18.07012228],[-63.04826513,18.06839506],[-63.05184899,18.063582]]]]},"bbox":[-63.08211789,18.05964962,-63.02502545,18.09673157]},{"type":"Feature","id":"fr-quartier-97801-5708c0dcd65f","properties":{"id":"fr-quartier-97801-5708c0dcd65f","kind":"quartier","name":"Galisbay-Agrément","cityCode":"97801","cityName":"Saint-Martin","sourceType":"iris","sourceIds":["978010106"],"colorIndex":5,"center":[-63.08592652239365,18.08327382]},"geometry":{"type":"MultiPolygon","coordinates":[[[[-63.08241822,18.07531789],[-63.08110465,18.07739822],[-63.08083764,18.07833021],[-63.08082561,18.07889874],[-63.0809154,18.07891678],[-63.08092688,18.07923674],[-63.08123615,18.07975271],[-63.08116059,18.0798368],[-63.0812137,18.08025527],[-63.08133947,18.08042152],[-63.08148406,18.08041242],[-63.08146995,18.08055433],[-63.08171951,18.08070065],[-63.08198334,18.08104401],[-63.08325088,18.08152703],[-63.083877,18.08257523],[-63.08448312,18.08327455],[-63.08464677,18.08358631],[-63.08548674,18.08318462],[-63.08558227,18.08336264],[-63.08596491,18.08312205],[-63.08614736,18.0832232],[-63.08609828,18.08336241],[-63.08471689,18.08398216],[-63.08469519,18.08404816],[-63.08469901,18.08413764],[-63.08477745,18.08413127],[-63.08472465,18.08439793],[-63.08494972,18.08469882],[-63.08485438,18.08493025],[-63.08499146,18.08500521],[-63.08501509,18.08501243],[-63.08497921,18.08508837],[-63.08501048,18.08525738],[-63.08523641,18.08538201],[-63.08532804,18.085297],[-63.0853424,18.08567571],[-63.08542275,18.08571002],[-63.08548525,18.0859694],[-63.08557601,18.08604167],[-63.08553731,18.08614111],[-63.08557609,18.08620798],[-63.08572068,18.08619346],[-63.08542599,18.08653795],[-63.08532878,18.08682723],[-63.08513417,18.08697374],[-63.08496118,18.08690061],[-63.08467211,18.08715743],[-63.08459847,18.08731835],[-63.08420818,18.08739354],[-63.08410796,18.08730952],[-63.08404938,18.08733124],[-63.08414962,18.08746406],[-63.08406741,18.08749393],[-63.08395299,18.08736111],[-63.08389821,18.08743163],[-63.084006,18.08752107],[-63.08378115,18.0876938],[-63.08374329,18.08758988],[-63.08355244,18.08770384],[-63.08348628,18.08769303],[-63.08347017,18.08759361],[-63.08326418,18.08768318],[-63.08297399,18.08759202],[-63.08278786,18.08769333],[-63.08277082,18.08764091],[-63.08262152,18.08769159],[-63.08259603,18.08773408],[-63.08255445,18.08774585],[-63.08253463,18.08781274],[-63.08235219,18.08772967],[-63.08211789,18.08790873],[-63.08193635,18.08772533],[-63.08162345,18.08755915],[-63.08056743,18.08678137],[-63.07885899,18.08526451],[-63.07875504,18.08529618],[-63.07744645,18.08605866],[-63.07735472,18.08593668],[-63.07713539,18.0857578],[-63.07619269,18.08469705],[-63.07565655,18.08403383],[-63.07487749,18.08327309],[-63.07467985,18.08298665],[-63.07459086,18.08261791],[-63.0744944,18.08246519],[-63.07395364,18.08203968],[-63.07356608,18.08182833],[-63.0730915,18.08142449],[-63.07407696,18.08088993],[-63.07509744,18.08046834],[-63.07526467,18.08036343],[-63.0737792,18.0784659],[-63.07488272,18.07778036],[-63.07388328,18.0765045],[-63.07330449,18.07545715],[-63.07478784,18.0746639],[-63.07519019,18.07412685],[-63.0754802,18.0738592],[-63.07536205,18.07381134],[-63.07567466,18.07336652],[-63.07593233,18.07263249],[-63.07592845,18.07240291],[-63.07595585,18.07239115],[-63.07614674,18.07239559],[-63.07743398,18.07271776],[-63.07799416,18.07223035],[-63.07816889,18.07201064],[-63.07975393,18.07261196],[-63.07993065,18.07261912],[-63.08022449,18.07249969],[-63.08048816,18.07251224],[-63.08079722,18.07262328],[-63.08020512,18.0735319],[-63.07910298,18.07508428],[-63.07905119,18.07549736],[-63.07926198,18.07559941],[-63.07951432,18.07563908],[-63.07973829,18.07565706],[-63.07993106,18.07562173],[-63.08107245,18.0751856],[-63.0812425,18.07505447],[-63.08152774,18.07472444],[-63.08158162,18.07475424],[-63.08171203,18.07474515],[-63.08241822,18.07531789]]]]},"bbox":[-63.08614736,18.07201064,-63.0730915,18.08790873]},{"type":"Feature","id":"fr-quartier-97801-122d6839c280","properties":{"id":"fr-quartier-97801-122d6839c280","kind":"quartier","name":"Grand Case - La Savane","cityCode":"97801","cityName":"Saint-Martin","sourceType":"iris","sourceIds":["978010111"],"colorIndex":6,"center":[-63.07452707448293,18.099524465000002]},"geometry":{"type":"MultiPolygon","coordinates":[[[[-63.07624259,18.09301431],[-63.07584473,18.09308768],[-63.07540822,18.09341414],[-63.07454101,18.09438883],[-63.07421043,18.0948906],[-63.07430141,18.09547988],[-63.07437987,18.09550786],[-63.07436486,18.09577451],[-63.07443104,18.09583414],[-63.07433945,18.09603031],[-63.07436502,18.09616226],[-63.07412977,18.09635849],[-63.07403157,18.09658359],[-63.07423201,18.09675343],[-63.07397963,18.09669297],[-63.07390881,18.09684213],[-63.07399106,18.09690989],[-63.07387014,18.09703467],[-63.07389662,18.09707624],[-63.07386733,18.09708981],[-63.07383617,18.09716122],[-63.07383342,18.09736007],[-63.0739951,18.09752813],[-63.07403292,18.097548],[-63.07401214,18.09757964],[-63.07401692,18.09770708],[-63.07404339,18.0977369],[-63.07398103,18.09777488],[-63.0739717,18.09805056],[-63.07409658,18.09834608],[-63.07439054,18.0984011],[-63.07432535,18.09844812],[-63.07436791,18.09851951],[-63.07465436,18.09869475],[-63.07470547,18.09885019],[-63.07490021,18.09895044],[-63.07503261,18.09913659],[-63.07512523,18.09912842],[-63.07514606,18.09921518],[-63.0747615,18.09948016],[-63.07467547,18.099435],[-63.07466418,18.09956877],[-63.07455551,18.09961401],[-63.07405352,18.09934847],[-63.07329267,18.09933972],[-63.07239111,18.09961122],[-63.07192716,18.09989701],[-63.0718119,18.10001817],[-63.07178551,18.10021341],[-63.07186217,18.10046917],[-63.07180094,18.10095095],[-63.07189454,18.1010422],[-63.07179437,18.10108472],[-63.07184176,18.10140286],[-63.0716615,18.10205551],[-63.07145542,18.1019661],[-63.07138172,18.10201765],[-63.07097434,18.10200244],[-63.0705378,18.10229906],[-63.0704131,18.10246993],[-63.07046321,18.10251059],[-63.07036306,18.10258926],[-63.0702715,18.10290745],[-63.07032255,18.10292641],[-63.07031596,18.10298969],[-63.06958169,18.10332709],[-63.06943141,18.10331087],[-63.06922912,18.10326666],[-63.06906839,18.10313114],[-63.06944527,18.10251367],[-63.06935535,18.10217476],[-63.06841844,18.10153336],[-63.06831157,18.10136076],[-63.06823217,18.10135446],[-63.06823404,18.10130203],[-63.06809979,18.10120537],[-63.06805821,18.10121171],[-63.06803644,18.10113399],[-63.0675826,18.10071476],[-63.06743041,18.10067052],[-63.06746441,18.10058374],[-63.06702385,18.10029557],[-63.06695289,18.10010397],[-63.06680448,18.10005341],[-63.06483464,18.09966904],[-63.06336395,18.0995701],[-63.06139713,18.0996783],[-63.05968745,18.0999988],[-63.05923763,18.10020592],[-63.05814149,18.1009438],[-63.05701045,18.10192663],[-63.05607125,18.10282805],[-63.05572827,18.10321499],[-63.05556391,18.10351783],[-63.0551935,18.10384152],[-63.05356745,18.10580334],[-63.05308197,18.1069577],[-63.05297528,18.10734638],[-63.05296691,18.107773],[-63.05317874,18.10814804],[-63.05336024,18.10820674],[-63.0534689,18.10807927],[-63.05361918,18.10807381],[-63.05389145,18.10825179],[-63.05397941,18.10841175],[-63.05327349,18.10890274],[-63.05303077,18.10956894],[-63.05226232,18.10954746],[-63.05253707,18.10853055],[-63.05255677,18.10805512],[-63.05234958,18.10738542],[-63.05237029,18.10711697],[-63.05260633,18.10624017],[-63.05277067,18.10583068],[-63.05297568,18.10551066],[-63.052762,18.10527752],[-63.05255968,18.10513205],[-63.05224767,18.10479681],[-63.05169463,18.10441824],[-63.05081634,18.10363212],[-63.05031532,18.10338822],[-63.04893429,18.10288512],[-63.04782558,18.10279954],[-63.04639558,18.10296348],[-63.04606571,18.10294187],[-63.04552698,18.10298629],[-63.04510736,18.103131],[-63.04488336,18.10316721],[-63.04467255,18.10301722],[-63.04420355,18.1022373],[-63.04355879,18.10161288],[-63.04306418,18.10041991],[-63.04051826,18.09774505],[-63.0404634,18.09756158],[-63.04049924,18.09723709],[-63.03976574,18.09693897],[-63.0392335,18.09636242],[-63.03910495,18.09629285],[-63.03923532,18.09604697],[-63.04095796,18.09456971],[-63.04120078,18.09426054],[-63.04215328,18.09347489],[-63.04455398,18.09009393],[-63.04784166,18.08194488],[-63.05517132,18.0812795],[-63.05781885,18.08548707],[-63.05819026,18.0854481],[-63.05850027,18.08553387],[-63.05867991,18.0857652],[-63.05926023,18.08588253],[-63.06196516,18.08622424],[-63.06255774,18.08624755],[-63.06317589,18.08643625],[-63.06349624,18.08636565],[-63.06386672,18.08636552],[-63.06491777,18.08670864],[-63.06590921,18.08682038],[-63.06614258,18.08667026],[-63.06617366,18.08636565],[-63.06615551,18.08586311],[-63.0659644,18.08531363],[-63.06544329,18.08430511],[-63.06541865,18.0841135],[-63.06544597,18.08387306],[-63.06819461,18.08488172],[-63.06833752,18.08541042],[-63.06873566,18.08608727],[-63.07093526,18.08942712],[-63.07114043,18.08963945],[-63.07413138,18.09120471],[-63.07427514,18.09145502],[-63.07455871,18.09153084],[-63.07487741,18.09199077],[-63.07490863,18.09207844],[-63.0748737,18.09217697],[-63.07521878,18.09243172],[-63.07532465,18.09248049],[-63.07544845,18.09245513],[-63.07589372,18.09274058],[-63.07624259,18.09301431]]]]},"bbox":[-63.07624259,18.0812795,-63.03910495,18.10956894]},{"type":"Feature","id":"fr-quartier-97801-4e4058233d60","properties":{"id":"fr-quartier-97801-4e4058233d60","kind":"quartier","name":"Grand Fond - Belle Plaine - Oyster Pond","cityCode":"97801","cityName":"Saint-Martin","sourceType":"iris","sourceIds":["978010110"],"colorIndex":7,"center":[-63.042934761814735,18.065701465]},"geometry":{"type":"MultiPolygon","coordinates":[[[[-63.01641141,18.06675537],[-63.01624699,18.06678522],[-63.01574517,18.06641739],[-63.01559303,18.06640565],[-63.01500622,18.06668318],[-63.01436179,18.06715052],[-63.01374563,18.06669502],[-63.0132618,18.06665619],[-63.01307469,18.06668061],[-63.0127553,18.06687044],[-63.01251906,18.06684786],[-63.01221381,18.0665252],[-63.01199075,18.06584823],[-63.01162406,18.06531316],[-63.01161177,18.06515138],[-63.01196699,18.0638733],[-63.01195565,18.06381545],[-63.01184887,18.06383806],[-63.01197642,18.06356327],[-63.01223533,18.06345028],[-63.01269742,18.06351623],[-63.01334656,18.06294404],[-63.01336545,18.0628401],[-63.01324733,18.06275062],[-63.01348073,18.06276145],[-63.01361017,18.06251559],[-63.01373201,18.06175544],[-63.01367717,18.061299],[-63.0132613,18.0601213],[-63.01314412,18.05993059],[-63.01294851,18.05991524],[-63.01303733,18.05973898],[-63.01268673,18.0593621],[-63.01254876,18.05930516],[-63.01247977,18.05916507],[-63.01207532,18.05890659],[-63.0118315,18.05854687],[-63.01171811,18.05857309],[-63.0114573,18.05833177],[-63.01136562,18.05799283],[-63.01104054,18.05773887],[-63.01070695,18.05724448],[-63.0109375,18.05700404],[-63.01078819,18.05680429],[-63.01044139,18.05657835],[-63.01049336,18.05646175],[-63.01036766,18.05606948],[-63.01034213,18.05576217],[-63.01039504,18.05569076],[-63.01030526,18.05550909],[-63.01012572,18.0554395],[-63.0100435,18.05511683],[-63.01016632,18.05493966],[-63.01015309,18.05479776],[-63.01005198,18.05469021],[-63.01018426,18.05465676],[-63.0103241,18.05448502],[-63.01038361,18.05411353],[-63.01035242,18.0540358],[-63.01039494,18.05401229],[-63.01061414,18.05372214],[-63.01096186,18.05362993],[-63.01108753,18.05352779],[-63.01142297,18.05349794],[-63.01165542,18.05361362],[-63.01219591,18.05365245],[-63.01284038,18.05420286],[-63.01329675,18.05393529],[-63.01326842,18.05418204],[-63.01340735,18.05454267],[-63.01374753,18.05474873],[-63.01526505,18.05457236],[-63.01591516,18.0547097],[-63.01641882,18.05495912],[-63.01747153,18.05574358],[-63.01812071,18.05599569],[-63.01903539,18.05592872],[-63.02008712,18.05626846],[-63.02145729,18.05653676],[-63.02209798,18.05676537],[-63.02267443,18.05713227],[-63.02351071,18.05735361],[-63.02387922,18.05724691],[-63.02409272,18.05686907],[-63.02455003,18.05664757],[-63.02512541,18.05607174],[-63.02591908,18.05562242],[-63.02634894,18.05509722],[-63.02665411,18.05485946],[-63.02868652,18.05429516],[-63.03025137,18.05472697],[-63.03390848,18.05631444],[-63.03713101,18.05794169],[-63.03638585,18.0598553],[-63.03655029,18.05993301],[-63.03725772,18.05838998],[-63.03777253,18.05753755],[-63.03875885,18.05671574],[-63.04011743,18.05577093],[-63.04420207,18.05857652],[-63.04788898,18.06126733],[-63.05097851,18.06298478],[-63.05184899,18.063582],[-63.04826513,18.06839506],[-63.04847539,18.07012228],[-63.04591162,18.07013556],[-63.04326895,18.07208489],[-63.04049297,18.06991262],[-63.03915937,18.06895842],[-63.03709801,18.0673364],[-63.0370517,18.06729302],[-63.03730206,18.06700013],[-63.03701096,18.06675795],[-63.03678226,18.06669924],[-63.03666223,18.06662515],[-63.03311421,18.06354363],[-63.03369327,18.06248602],[-63.03537691,18.0611453],[-63.03113176,18.05859715],[-63.02892806,18.05786085],[-63.02612531,18.06364775],[-63.02633321,18.06367483],[-63.02675188,18.06403632],[-63.02753626,18.06446735],[-63.02808059,18.06464443],[-63.02770746,18.06545886],[-63.02715109,18.06691505],[-63.02718324,18.06705605],[-63.0271077,18.06742935],[-63.02708603,18.06784242],[-63.02695668,18.06856462],[-63.02694538,18.06880866],[-63.02663263,18.06909884],[-63.02659109,18.0693465],[-63.02648431,18.06941612],[-63.02631989,18.06943874],[-63.02612237,18.0693303],[-63.02602694,18.06944329],[-63.02588236,18.06947495],[-63.02577367,18.06937012],[-63.02566216,18.06931951],[-63.02505359,18.06932231],[-63.02491563,18.06939554],[-63.02479089,18.06941182],[-63.02423145,18.0693893],[-63.02388936,18.06931974],[-63.02380714,18.06927637],[-63.02357651,18.06889497],[-63.02339128,18.06877839],[-63.02333741,18.06877478],[-63.02320418,18.06890134],[-63.02303502,18.06878747],[-63.02288285,18.06864559],[-63.0227921,18.06835727],[-63.02253977,18.06824974],[-63.02238858,18.06825699],[-63.02212396,18.06811692],[-63.02210033,18.06805817],[-63.02201528,18.0680157],[-63.0215938,18.06789101],[-63.02085381,18.06731895],[-63.02073378,18.06712464],[-63.02063074,18.06684716],[-63.02067891,18.0666221],[-63.02002312,18.06680565],[-63.01978687,18.06675777],[-63.01976514,18.0668337],[-63.01983035,18.0668599],[-63.0198398,18.0669295],[-63.01964042,18.06700002],[-63.01948168,18.06713742],[-63.01925395,18.0671745],[-63.01910464,18.06716638],[-63.01888443,18.06695219],[-63.01870677,18.06685911],[-63.01852911,18.06686726],[-63.01827493,18.06698117],[-63.01801411,18.06698391],[-63.01782795,18.06691794],[-63.01756428,18.06671098],[-63.01729401,18.06662785],[-63.01682624,18.06656191],[-63.01660795,18.06659266],[-63.01655314,18.06655651],[-63.01652667,18.06647698],[-63.01655784,18.06635405],[-63.01682241,18.06603406],[-63.01711255,18.06640914],[-63.01715697,18.06644709],[-63.01727981,18.0664516],[-63.01752266,18.06629069],[-63.01763226,18.06615239],[-63.01769366,18.06594992],[-63.01768987,18.06579356],[-63.0175708,18.06579357],[-63.01749995,18.06603852],[-63.01737712,18.06622382],[-63.01729302,18.06624462],[-63.01683941,18.06600062],[-63.01685736,18.06591204],[-63.01680442,18.06574392],[-63.01687907,18.06565534],[-63.01685733,18.06559569],[-63.01676945,18.06560473],[-63.01672031,18.06566349],[-63.01654833,18.06562554],[-63.01643872,18.06573944],[-63.01644724,18.06585332],[-63.01663718,18.06596267],[-63.01666743,18.06603407],[-63.01640382,18.06642637],[-63.01643692,18.06666951],[-63.01641141,18.06675537]]]]},"bbox":[-63.05184899,18.05349794,-63.0100435,18.07208489]},{"type":"Feature","id":"fr-quartier-97801-767e397f96d2","properties":{"id":"fr-quartier-97801-767e397f96d2","kind":"quartier","name":"Marigot Centre et Sud","cityCode":"97801","cityName":"Saint-Martin","sourceType":"iris","sourceIds":["978010103"],"colorIndex":8,"center":[-63.08630496192667,18.064230625]},"geometry":{"type":"MultiPolygon","coordinates":[[[[-63.08802156,18.06074435],[-63.08808683,18.0608817],[-63.08808614,18.06139961],[-63.08814763,18.06152884],[-63.08810325,18.06159574],[-63.08809864,18.06183708],[-63.08800515,18.06196366],[-63.08791351,18.06199443],[-63.08766326,18.06231903],[-63.0877824,18.06247625],[-63.08773051,18.06264168],[-63.08756434,18.06291924],[-63.08734807,18.06318687],[-63.08720351,18.06322038],[-63.08722057,18.06330986],[-63.0871639,18.06337767],[-63.08720363,18.06346352],[-63.08715357,18.06350331],[-63.08714982,18.0635711],[-63.08711203,18.06358016],[-63.08710734,18.0636606],[-63.08696192,18.06387037],[-63.08671729,18.06409282],[-63.08676459,18.0642085],[-63.08670698,18.06427993],[-63.08674858,18.06432239],[-63.08683454,18.06425275],[-63.08719757,18.06459244],[-63.08723251,18.06453187],[-63.08730245,18.06456889],[-63.08719575,18.06473525],[-63.08681954,18.0644959],[-63.08664111,18.06483583],[-63.08711761,18.06531375],[-63.08769092,18.06474949],[-63.0877419,18.06464191],[-63.08787815,18.06499254],[-63.08752959,18.0652747],[-63.08709702,18.06572502],[-63.08694021,18.06582542],[-63.08621384,18.06647652],[-63.0857378,18.06694312],[-63.08560372,18.06717276],[-63.08507533,18.06686568],[-63.08483333,18.06667779],[-63.08468406,18.06674926],[-63.08442626,18.06711814],[-63.08425718,18.0672791],[-63.08402176,18.0670189],[-63.08365979,18.06693409],[-63.08370501,18.06663941],[-63.08378432,18.06650019],[-63.08557044,18.06478569],[-63.08573383,18.06460213],[-63.08581595,18.0644141],[-63.08615172,18.06310968],[-63.08625441,18.06246699],[-63.08587719,18.06014877],[-63.08622592,18.060239],[-63.08727782,18.06061453],[-63.08741772,18.06069943],[-63.0875255,18.06081869],[-63.08802156,18.06074435]]]]},"bbox":[-63.08814763,18.06014877,-63.08365979,18.0672791]},{"type":"Feature","id":"fr-quartier-97801-844d6388de01","properties":{"id":"fr-quartier-97801-844d6388de01","kind":"quartier","name":"Marigot Est et Nord","cityCode":"97801","cityName":"Saint-Martin","sourceType":"iris","sourceIds":["978010102"],"colorIndex":9,"center":[-63.08879999774085,18.064710995]},"geometry":{"type":"MultiPolygon","coordinates":[[[[-63.09611091,18.06191099],[-63.09637095,18.06224077],[-63.09636253,18.062389],[-63.09621808,18.06263944],[-63.09586476,18.0627987],[-63.09584119,18.06290988],[-63.09558789,18.06279883],[-63.0955284,18.0628784],[-63.09494068,18.06296456],[-63.09410831,18.06321443],[-63.09314831,18.06336674],[-63.09292542,18.06358107],[-63.09290183,18.06364796],[-63.09285268,18.0636281],[-63.09272226,18.06359653],[-63.09228668,18.06368622],[-63.09222529,18.06375404],[-63.09220927,18.06383087],[-63.09214878,18.06380831],[-63.09178499,18.06385819],[-63.09141187,18.06412049],[-63.09085346,18.06423283],[-63.09070329,18.06438655],[-63.08987659,18.06467618],[-63.08978591,18.06474581],[-63.08985787,18.0650314],[-63.08975684,18.06519414],[-63.08917199,18.06535439],[-63.08801472,18.06599395],[-63.08768795,18.06638276],[-63.08765213,18.06654637],[-63.08742634,18.06666579],[-63.08674728,18.0674425],[-63.0865849,18.06776164],[-63.08654344,18.06800751],[-63.0866134,18.06807526],[-63.08611376,18.06859249],[-63.08594958,18.06910957],[-63.08696864,18.06983311],[-63.08707365,18.07007348],[-63.08707483,18.07054982],[-63.08697574,18.07081559],[-63.0867604,18.07106968],[-63.08732006,18.07151322],[-63.08809405,18.07158879],[-63.08877341,18.07139596],[-63.08907099,18.07120691],[-63.08942518,18.07083346],[-63.08956679,18.07055139],[-63.08952508,18.07030104],[-63.0896271,18.07021784],[-63.08979914,18.07033255],[-63.0896236,18.07077733],[-63.08913532,18.07134698],[-63.08881412,18.07154055],[-63.08833319,18.07169985],[-63.08749687,18.07170927],[-63.08745154,18.07176895],[-63.08684936,18.07133447],[-63.08677758,18.07141946],[-63.08666321,18.07136528],[-63.08604533,18.07167287],[-63.08461142,18.07293709],[-63.08411061,18.07302589],[-63.08398698,18.07337393],[-63.08327481,18.07414703],[-63.08279408,18.07475554],[-63.0825571,18.07522112],[-63.08241822,18.07531789],[-63.08171203,18.07474515],[-63.08158162,18.07475424],[-63.08152774,18.07472444],[-63.0812425,18.07505447],[-63.08107245,18.0751856],[-63.07993106,18.07562173],[-63.07973829,18.07565706],[-63.07951432,18.07563908],[-63.07926198,18.07559941],[-63.07905119,18.07549736],[-63.07910298,18.07508428],[-63.08020512,18.0735319],[-63.08079722,18.07262328],[-63.08048816,18.07251224],[-63.08022449,18.07249969],[-63.07993065,18.07261912],[-63.07975393,18.07261196],[-63.07816889,18.07201064],[-63.07903352,18.06979132],[-63.07905143,18.0696928],[-63.07886997,18.06964768],[-63.07925058,18.06914678],[-63.07954982,18.06843442],[-63.07982084,18.0680095],[-63.08112429,18.06871125],[-63.08198638,18.06723489],[-63.08330785,18.06805864],[-63.08350443,18.06812725],[-63.08365979,18.06693409],[-63.08402176,18.0670189],[-63.08425718,18.0672791],[-63.08442626,18.06711814],[-63.08468406,18.06674926],[-63.08483333,18.06667779],[-63.08507533,18.06686568],[-63.08560372,18.06717276],[-63.0857378,18.06694312],[-63.08621384,18.06647652],[-63.08694021,18.06582542],[-63.08709702,18.06572502],[-63.08752959,18.0652747],[-63.08787815,18.06499254],[-63.0877419,18.06464191],[-63.08805366,18.06448721],[-63.08805174,18.06442936],[-63.08879338,18.06410905],[-63.08875742,18.06402411],[-63.08878104,18.0640015],[-63.08870253,18.06385059],[-63.08890371,18.06366792],[-63.08903032,18.06362629],[-63.08923353,18.06371748],[-63.08929588,18.06368582],[-63.08927414,18.06366323],[-63.09001088,18.06302657],[-63.09004019,18.06306271],[-63.09010822,18.06303557],[-63.09007606,18.06298225],[-63.09031125,18.06278691],[-63.09041983,18.06260699],[-63.09019203,18.06248056],[-63.09053479,18.06197062],[-63.09065578,18.06204107],[-63.09068694,18.06199044],[-63.09056689,18.0619218],[-63.09129208,18.06089106],[-63.09144037,18.06076084],[-63.09180787,18.06059797],[-63.09195709,18.06045238],[-63.09217351,18.06050018],[-63.09221889,18.06054806],[-63.09226715,18.06067819],[-63.09260572,18.06119956],[-63.09268524,18.06147248],[-63.09286871,18.06176072],[-63.09303787,18.06179951],[-63.09335517,18.06140527],[-63.0934081,18.06143327],[-63.09340332,18.06133204],[-63.09334092,18.06126066],[-63.09331534,18.06114679],[-63.0932312,18.06106006],[-63.09298826,18.06090381],[-63.09282287,18.06084333],[-63.09249953,18.060519],[-63.09259776,18.06044393],[-63.09274519,18.0604755],[-63.0929058,18.0604239],[-63.09292561,18.06035791],[-63.09307583,18.06030722],[-63.09420246,18.0608038],[-63.09461742,18.06104493],[-63.09505596,18.06120198],[-63.09561176,18.06150631],[-63.09603906,18.06184414],[-63.09605798,18.06189655],[-63.09594843,18.06200236],[-63.09602976,18.06213066],[-63.0961791,18.06219476],[-63.09620559,18.06224898],[-63.0962774,18.06225075],[-63.0963029,18.06221459],[-63.09624047,18.06210073],[-63.09612703,18.06202125],[-63.09611091,18.06191099]]]]},"bbox":[-63.09637095,18.06030722,-63.07816889,18.07565706]},{"type":"Feature","id":"fr-quartier-97801-2e3f0bca410f","properties":{"id":"fr-quartier-97801-2e3f0bca410f","kind":"quartier","name":"Quartier d'Orléans - Gloire - Griselle","cityCode":"97801","cityName":"Saint-Martin","sourceType":"iris","sourceIds":["978010109"],"colorIndex":10,"center":[-63.0357405231764,18.07047443]},"geometry":{"type":"MultiPolygon","coordinates":[[[[-63.04326895,18.07208489],[-63.03860721,18.07626079],[-63.03736294,18.07785363],[-63.03483303,18.077573],[-63.03394183,18.07743216],[-63.03236736,18.07716851],[-63.03013322,18.07669163],[-63.03001984,18.07684078],[-63.02986106,18.07674229],[-63.02842362,18.07641169],[-63.02671118,18.07611999],[-63.0254552,18.07585624],[-63.02531629,18.07588156],[-63.02492315,18.07584275],[-63.02434762,18.07574249],[-63.02453659,18.07550656],[-63.02490892,18.07544505],[-63.02461683,18.07488018],[-63.0249126,18.07470027],[-63.02492014,18.07459091],[-63.0250099,18.07447611],[-63.02516677,18.0744553],[-63.02524897,18.07436942],[-63.02534631,18.07436941],[-63.02531512,18.07431608],[-63.02536519,18.07424467],[-63.02546725,18.07420579],[-63.02576115,18.07418677],[-63.02581785,18.0742184],[-63.02618259,18.07395894],[-63.02632434,18.07390469],[-63.02651898,18.07373293],[-63.02662293,18.07371123],[-63.02683364,18.07355393],[-63.0269168,18.07354216],[-63.02696688,18.0734581],[-63.02740629,18.07334054],[-63.02761325,18.07333689],[-63.02775593,18.07323112],[-63.02782016,18.07306661],[-63.02793544,18.07301146],[-63.02816414,18.07303763],[-63.0284533,18.07296076],[-63.02866876,18.07296796],[-63.02883129,18.07285315],[-63.02891067,18.07283777],[-63.02895131,18.07288929],[-63.02912046,18.07283141],[-63.02924804,18.07289738],[-63.0293605,18.07290369],[-63.02976112,18.07249327],[-63.0298367,18.07237305],[-63.03000568,18.07135438],[-63.03021635,18.07097111],[-63.0303089,18.07063034],[-63.03023136,18.07031852],[-63.03010563,18.07008806],[-63.02997899,18.06997871],[-63.02996858,18.06991996],[-63.02982872,18.06988563],[-63.02960855,18.06999504],[-63.02941956,18.0700267],[-63.02918994,18.07012706],[-63.0290983,18.07027712],[-63.02904161,18.07030695],[-63.02882331,18.07029343],[-63.02875716,18.07026271],[-63.02869949,18.0701651],[-63.02849914,18.07007384],[-63.02830825,18.07007296],[-63.02803797,18.07001515],[-63.02790663,18.07005404],[-63.02774313,18.06997091],[-63.02765992,18.06965457],[-63.02755785,18.06958589],[-63.027435,18.06956783],[-63.02723467,18.06961125],[-63.02703146,18.06940248],[-63.02704657,18.06929311],[-63.02701065,18.06922443],[-63.02692748,18.06918376],[-63.02683299,18.06922987],[-63.02676022,18.06921904],[-63.02663263,18.06909884],[-63.02694538,18.06880866],[-63.02695668,18.06856462],[-63.02708603,18.06784242],[-63.0271077,18.06742935],[-63.02718324,18.06705605],[-63.02715109,18.06691505],[-63.02770746,18.06545886],[-63.02808059,18.06464443],[-63.02753626,18.06446735],[-63.02675188,18.06403632],[-63.02633321,18.06367483],[-63.02612531,18.06364775],[-63.02892806,18.05786085],[-63.03113176,18.05859715],[-63.03537691,18.0611453],[-63.03369327,18.06248602],[-63.03311421,18.06354363],[-63.03666223,18.06662515],[-63.03678226,18.06669924],[-63.03701096,18.06675795],[-63.03730206,18.06700013],[-63.0370517,18.06729302],[-63.03709801,18.0673364],[-63.03915937,18.06895842],[-63.04049297,18.06991262],[-63.04326895,18.07208489]]]]},"bbox":[-63.04326895,18.05786085,-63.02434762,18.07785363]},{"type":"Feature","id":"fr-quartier-97801-53399aa2f5fb","properties":{"id":"fr-quartier-97801-53399aa2f5fb","kind":"quartier","name":"Saint-James - Diamant - Bellevue","cityCode":"97801","cityName":"Saint-Martin","sourceType":"iris","sourceIds":["978010104"],"colorIndex":11,"center":[-63.08263151385049,18.053165905]},"geometry":{"type":"MultiPolygon","coordinates":[[[[-63.07145028,18.0565609],[-63.07232903,18.0564964],[-63.07403872,18.05503873],[-63.07434065,18.05397206],[-63.07485337,18.05310326],[-63.07501095,18.05260517],[-63.07496329,18.0516236],[-63.07507283,18.05146267],[-63.07528819,18.05128362],[-63.07734385,18.05030664],[-63.07763084,18.0497154],[-63.07799069,18.04937089],[-63.08821566,18.04637201],[-63.08829427,18.04673985],[-63.08848815,18.04710401],[-63.08872264,18.04743472],[-63.08915091,18.04791718],[-63.08952906,18.04831199],[-63.0899893,18.04847628],[-63.09004598,18.04845185],[-63.09007249,18.04855126],[-63.09015474,18.04864794],[-63.0903589,18.04877077],[-63.09086446,18.04887086],[-63.09115925,18.04885264],[-63.09137849,18.04890135],[-63.09158069,18.04890035],[-63.0920134,18.04880524],[-63.09235913,18.04862159],[-63.09268887,18.04857804],[-63.09289576,18.04850473],[-63.09303563,18.04855619],[-63.09321136,18.04852175],[-63.09335598,18.04861659],[-63.09350151,18.0486599],[-63.09353651,18.04872677],[-63.09365086,18.04878185],[-63.09382474,18.0488134],[-63.09389843,18.04879077],[-63.09387951,18.04875011],[-63.09394376,18.04874013],[-63.09395889,18.04877628],[-63.09452776,18.04886458],[-63.09475269,18.04895486],[-63.0952423,18.04925289],[-63.09537847,18.04945529],[-63.09556303,18.05003638],[-63.09562373,18.05045031],[-63.09561162,18.05077932],[-63.09540128,18.05146636],[-63.09533926,18.0521009],[-63.09537433,18.05228888],[-63.09525067,18.05251581],[-63.09517039,18.05258093],[-63.09461679,18.05279903],[-63.09433524,18.05285792],[-63.09431914,18.0527811],[-63.0940148,18.0526303],[-63.09369336,18.05230326],[-63.09352693,18.05207015],[-63.0933945,18.05178911],[-63.09302864,18.05143227],[-63.09286601,18.05121994],[-63.09233197,18.05089209],[-63.09222142,18.05090028],[-63.09176023,18.05074323],[-63.09159109,18.05072704],[-63.09139072,18.05061957],[-63.09120078,18.05060068],[-63.09085118,18.05061441],[-63.09071797,18.05065424],[-63.09054417,18.0507673],[-63.09046763,18.05075559],[-63.09039489,18.0507963],[-63.0903413,18.05131242],[-63.09047179,18.05149585],[-63.09050493,18.05162508],[-63.09047951,18.05180587],[-63.09057514,18.05219629],[-63.0905535,18.05237165],[-63.0904506,18.05255518],[-63.09044622,18.05322855],[-63.09037928,18.05352505],[-63.09023106,18.05378362],[-63.09029451,18.05405565],[-63.09024448,18.05415058],[-63.09014624,18.05421932],[-63.09009811,18.05433956],[-63.08998855,18.05442005],[-63.08997158,18.05451406],[-63.08988369,18.05448699],[-63.08988944,18.05464426],[-63.08970909,18.05488115],[-63.08965058,18.05503212],[-63.0897083,18.05519027],[-63.0897075,18.05547047],[-63.08961246,18.0562659],[-63.08953331,18.05669708],[-63.08927286,18.05738685],[-63.08913026,18.05755593],[-63.08886012,18.05776756],[-63.08833319,18.05845202],[-63.08806022,18.05867901],[-63.08797148,18.05885169],[-63.08791113,18.0591048],[-63.08792734,18.05939312],[-63.08801727,18.05973293],[-63.08805999,18.06012699],[-63.08798931,18.06051297],[-63.08804319,18.06054639],[-63.08806497,18.060644],[-63.0880102,18.06070458],[-63.08802156,18.06074435],[-63.0875255,18.06081869],[-63.08741772,18.06069943],[-63.08727782,18.06061453],[-63.08622592,18.060239],[-63.08587719,18.06014877],[-63.08625441,18.06246699],[-63.08615172,18.06310968],[-63.08581595,18.0644141],[-63.08573383,18.06460213],[-63.08557044,18.06478569],[-63.08378432,18.06650019],[-63.08370501,18.06663941],[-63.08365979,18.06693409],[-63.08350443,18.06812725],[-63.08330785,18.06805864],[-63.08198638,18.06723489],[-63.07585851,18.06357135],[-63.07320351,18.06210089],[-63.07315339,18.06202047],[-63.07302466,18.0614782],[-63.07246614,18.06134374],[-63.07226857,18.06116214],[-63.07213052,18.06093713],[-63.07211724,18.06082415],[-63.07224557,18.06037127],[-63.07274819,18.06016139],[-63.07278488,18.05976096],[-63.07277147,18.05932983],[-63.07269478,18.05896289],[-63.07252653,18.05883009],[-63.07182808,18.05848779],[-63.07104077,18.05801988],[-63.07064387,18.05796037],[-63.07015727,18.05805545],[-63.07009773,18.05803649],[-63.07009109,18.05796238],[-63.07015342,18.05788553],[-63.07042642,18.05767393],[-63.07118226,18.05739888],[-63.07152424,18.05719448],[-63.07172359,18.05712119],[-63.07175285,18.05705429],[-63.07145028,18.0565609]]]]},"bbox":[-63.09562373,18.04637201,-63.07009109,18.06812725]},{"type":"Feature","id":"fr-quartier-97801-39c5bfe5d28e","properties":{"id":"fr-quartier-97801-39c5bfe5d28e","kind":"quartier","name":"Spring-Concordia Est et Sud","cityCode":"97801","cityName":"Saint-Martin","sourceType":"iris","sourceIds":["978010116"],"colorIndex":12,"center":[-63.06910499244228,18.061049635]},"geometry":{"type":"MultiPolygon","coordinates":[[[[-63.06569969,18.05964962],[-63.06588936,18.05894906],[-63.06629066,18.05815172],[-63.06633025,18.05791219],[-63.06671176,18.05725947],[-63.06699234,18.05708673],[-63.06789561,18.05690384],[-63.06882813,18.05657722],[-63.06945086,18.05666286],[-63.07145028,18.0565609],[-63.07175285,18.05705429],[-63.07172359,18.05712119],[-63.07152424,18.05719448],[-63.07118226,18.05739888],[-63.07042642,18.05767393],[-63.07015342,18.05788553],[-63.07009109,18.05796238],[-63.07009773,18.05803649],[-63.07015727,18.05805545],[-63.07064387,18.05796037],[-63.07104077,18.05801988],[-63.07182808,18.05848779],[-63.07252653,18.05883009],[-63.07269478,18.05896289],[-63.07277147,18.05932983],[-63.07278488,18.05976096],[-63.07274819,18.06016139],[-63.07224557,18.06037127],[-63.07211724,18.06082415],[-63.07213052,18.06093713],[-63.07226857,18.06116214],[-63.07246614,18.06134374],[-63.07302466,18.0614782],[-63.07315339,18.06202047],[-63.07320351,18.06210089],[-63.07585851,18.06357135],[-63.07565842,18.06413453],[-63.07521803,18.06404341],[-63.07497543,18.06464186],[-63.07443558,18.06625184],[-63.07369087,18.06832648],[-63.07315971,18.06815675],[-63.07296809,18.06865214],[-63.0729569,18.0690173],[-63.07340125,18.069526],[-63.07366319,18.06995162],[-63.07390249,18.07045317],[-63.07450459,18.07078827],[-63.07488748,18.07118943],[-63.0754282,18.07159054],[-63.07595585,18.07239115],[-63.07592845,18.07240291],[-63.07593233,18.07263249],[-63.07567466,18.07336652],[-63.07536205,18.07381134],[-63.0754802,18.0738592],[-63.07519019,18.07412685],[-63.07478784,18.0746639],[-63.07330449,18.07545715],[-63.06826708,18.07188063],[-63.06733724,18.06702724],[-63.06569969,18.05964962]]]]},"bbox":[-63.07595585,18.0565609,-63.06569969,18.07545715]},{"type":"Feature","id":"fr-quartier-97801-e18744cc2f44","properties":{"id":"fr-quartier-97801-e18744cc2f44","kind":"quartier","name":"Terres Basses - Baie Nettlé - Sandy Ground","cityCode":"97801","cityName":"Saint-Martin","sourceType":"iris","sourceIds":["978010101"],"colorIndex":13,"center":[-63.141153392933816,18.06209078]},"geometry":{"type":"MultiPolygon","coordinates":[[[[-63.13339727,18.05387615],[-63.13416755,18.05412147],[-63.13487629,18.05419419],[-63.13697053,18.05339551],[-63.13854175,18.05320006],[-63.13881369,18.05295221],[-63.13920295,18.05290403],[-63.13971706,18.05302025],[-63.13989763,18.05313582],[-63.1401313,18.05348996],[-63.14007389,18.05377472],[-63.13981917,18.05428739],[-63.13950654,18.05445392],[-63.13959727,18.05448368],[-63.13939705,18.05460675],[-63.13903426,18.05467571],[-63.13917365,18.05529294],[-63.13939704,18.05579081],[-63.14064539,18.0571258],[-63.1418367,18.05801252],[-63.1443483,18.05914319],[-63.14573302,18.0596239],[-63.14674743,18.06021336],[-63.14774461,18.06054069],[-63.14942136,18.06104285],[-63.1522906,18.06148983],[-63.15264588,18.0614778],[-63.15304404,18.06186253],[-63.15324182,18.06219589],[-63.15332048,18.06246247],[-63.15324973,18.06260262],[-63.15277298,18.06311729],[-63.15239744,18.06375571],[-63.15226522,18.06384349],[-63.15211902,18.06415905],[-63.15179619,18.06455971],[-63.15178496,18.06468174],[-63.15093301,18.06516326],[-63.14953337,18.06610165],[-63.14881008,18.06676563],[-63.14873649,18.06691302],[-63.14807263,18.06745494],[-63.14706277,18.06897148],[-63.14686861,18.06959167],[-63.14709709,18.07046733],[-63.14732689,18.07067052],[-63.14748939,18.07062069],[-63.14764445,18.07071728],[-63.14770963,18.07069825],[-63.14771911,18.07072716],[-63.1479612,18.07093306],[-63.14812563,18.07093474],[-63.14843202,18.07117945],[-63.14830925,18.07127897],[-63.14841041,18.0713286],[-63.14828103,18.07142993],[-63.14824812,18.07162609],[-63.14812339,18.07164336],[-63.14807599,18.07146263],[-63.14786253,18.07159927],[-63.14793256,18.07171672],[-63.1477872,18.07192201],[-63.147778,18.07221396],[-63.14726332,18.07263103],[-63.14694385,18.07256349],[-63.14687207,18.07260783],[-63.14672076,18.07247688],[-63.14624545,18.07250888],[-63.14600374,18.07277299],[-63.14543967,18.07289453],[-63.14519222,18.07305922],[-63.14471025,18.07304422],[-63.14464039,18.07312833],[-63.14438246,18.07319721],[-63.14430698,18.0733455],[-63.14422854,18.07333742],[-63.14416511,18.07319647],[-63.14388824,18.07322379],[-63.14380503,18.0731633],[-63.14372674,18.07334593],[-63.14339409,18.0733281],[-63.14306339,18.07340247],[-63.14248054,18.07367405],[-63.1424096,18.07359366],[-63.14226603,18.07367963],[-63.14196835,18.07368166],[-63.14183127,18.07361488],[-63.14135975,18.07367126],[-63.13970007,18.07336335],[-63.13934385,18.07341874],[-63.13884089,18.07315337],[-63.13861783,18.07309569],[-63.13849502,18.07315995],[-63.13845622,18.07308947],[-63.13844678,18.07309671],[-63.13831355,18.0731185],[-63.13819253,18.07303724],[-63.13808766,18.07307166],[-63.13776519,18.07278898],[-63.1371828,18.07244774],[-63.13689738,18.07240908],[-63.13683963,18.07227806],[-63.13652294,18.07212463],[-63.13634055,18.07211934],[-63.1360815,18.0719749],[-63.13599554,18.07201112],[-63.13570895,18.07168322],[-63.13506122,18.07116034],[-63.13486084,18.07110444],[-63.13476354,18.07115241],[-63.1346529,18.07104945],[-63.13433062,18.0710081],[-63.13392225,18.07082671],[-63.13185274,18.06960973],[-63.12959449,18.06869746],[-63.12781476,18.06824943],[-63.12670999,18.06812453],[-63.12589072,18.06817025],[-63.12523879,18.06831891],[-63.1236592,18.06893094],[-63.12296394,18.0692884],[-63.12243316,18.06971536],[-63.12222248,18.06979503],[-63.12208181,18.06999307],[-63.12207151,18.07013136],[-63.12223123,18.07015386],[-63.12220208,18.07035995],[-63.12185247,18.07041712],[-63.12173165,18.07061424],[-63.1214907,18.07064964],[-63.12122357,18.07110264],[-63.1211803,18.07138557],[-63.12140539,18.07164393],[-63.12124948,18.07167115],[-63.12090727,18.07149692],[-63.12063707,18.0715947],[-63.12039062,18.0718859],[-63.1203898,18.07207028],[-63.12026134,18.07215262],[-63.12026616,18.07229181],[-63.12036451,18.07240111],[-63.12015114,18.07268957],[-63.11999904,18.07275836],[-63.11948865,18.07263756],[-63.11903322,18.07272823],[-63.11888288,18.07259997],[-63.11877514,18.07259823],[-63.11891325,18.0727988],[-63.11884812,18.07291544],[-63.11859282,18.07268511],[-63.11832728,18.07270335],[-63.11760551,18.07302286],[-63.11605439,18.07391409],[-63.11521664,18.07464943],[-63.11507694,18.07489717],[-63.11502513,18.0751548],[-63.1151548,18.07545299],[-63.11516647,18.07596005],[-63.11491811,18.07624672],[-63.11500325,18.07637592],[-63.11488049,18.07652784],[-63.11477562,18.07655863],[-63.11470753,18.07648908],[-63.11459136,18.07659309],[-63.1147041,18.07702778],[-63.11415327,18.07722786],[-63.11404645,18.07717821],[-63.11412099,18.07699106],[-63.11389704,18.07702464],[-63.11369868,18.07716937],[-63.11339534,18.07719034],[-63.11316186,18.07711003],[-63.11299259,18.07693117],[-63.1129641,18.07671336],[-63.11309064,18.07657228],[-63.11299513,18.07648105],[-63.11304786,18.07617913],[-63.11318293,18.07606697],[-63.11335653,18.07562579],[-63.11368039,18.07518904],[-63.11417435,18.07474857],[-63.11486018,18.07434866],[-63.11493454,18.07390572],[-63.11489848,18.07367165],[-63.11455402,18.07293792],[-63.11421259,18.07249704],[-63.11408313,18.07250796],[-63.11362728,18.07195146],[-63.11363339,18.0711642],[-63.11382504,18.0708875],[-63.11405457,18.07072015],[-63.11444001,18.07054006],[-63.11486723,18.07067086],[-63.1152669,18.07056939],[-63.11570598,18.0700458],[-63.1156776,18.07000062],[-63.11612358,18.06990907],[-63.11625766,18.06974539],[-63.11646709,18.06919752],[-63.11671129,18.06836041],[-63.11655096,18.06742049],[-63.11639385,18.06704278],[-63.1149364,18.06513922],[-63.11426692,18.06445902],[-63.11296704,18.063574],[-63.11259092,18.0635462],[-63.11221463,18.06323097],[-63.11197268,18.06316423],[-63.11192055,18.06291028],[-63.11099333,18.06256825],[-63.11001399,18.06197769],[-63.10972669,18.06192],[-63.10963119,18.06182786],[-63.1095188,18.06190928],[-63.10895065,18.06153269],[-63.10881932,18.06156982],[-63.10880037,18.06147673],[-63.10853759,18.06133859],[-63.10839587,18.06137844],[-63.10838447,18.06127902],[-63.10773235,18.06109681],[-63.1076341,18.06115019],[-63.10750079,18.06102282],[-63.10608017,18.0604126],[-63.10437053,18.05999866],[-63.10047258,18.05987057],[-63.0993,18.06002845],[-63.09755117,18.06047765],[-63.09723849,18.06065677],[-63.09671713,18.06111167],[-63.09668783,18.06110717],[-63.09668785,18.06113429],[-63.09646778,18.06133053],[-63.09646125,18.0614869],[-63.0962761,18.06159004],[-63.0958715,18.0613001],[-63.09494804,18.06083416],[-63.09417767,18.06037538],[-63.09361142,18.05993909],[-63.09311801,18.05964829],[-63.09306505,18.0595742],[-63.09315283,18.05938977],[-63.09357111,18.05876952],[-63.09364288,18.05868633],[-63.09367879,18.05869264],[-63.09376085,18.05841421],[-63.0938723,18.05831383],[-63.09398664,18.0583201],[-63.09407833,18.05837158],[-63.09408302,18.05831373],[-63.09419262,18.05829018],[-63.09424366,18.05831907],[-63.09436758,18.05855673],[-63.09450835,18.05852322],[-63.09468137,18.05869306],[-63.09490152,18.05867487],[-63.09496469,18.0584064],[-63.094923,18.05819672],[-63.09502315,18.05817227],[-63.09516591,18.05830506],[-63.09521691,18.05826165],[-63.09518192,18.05821829],[-63.09522152,18.05805557],[-63.09550683,18.05793341],[-63.09554552,18.05784662],[-63.09550108,18.05778428],[-63.0955294,18.05773817],[-63.09560592,18.05770469],[-63.09569196,18.05780768],[-63.0957713,18.05773895],[-63.09576182,18.05769015],[-63.09580716,18.05764945],[-63.0958516,18.05770095],[-63.09602917,18.05756799],[-63.09597243,18.05748035],[-63.09626335,18.05727412],[-63.09633516,18.05726505],[-63.0963938,18.05736625],[-63.09648169,18.05737615],[-63.09646464,18.05730475],[-63.09660351,18.05724684],[-63.0967518,18.05712113],[-63.09673757,18.05702171],[-63.09689721,18.05692944],[-63.09707302,18.05702877],[-63.09716183,18.05700161],[-63.09726863,18.05704494],[-63.0974661,18.05701773],[-63.09767013,18.05687934],[-63.09777406,18.0568603],[-63.09788269,18.05678975],[-63.09804333,18.05680684],[-63.09810564,18.05669382],[-63.09864331,18.05672067],[-63.09863002,18.05660407],[-63.0987538,18.05659678],[-63.09876992,18.05669258],[-63.09890127,18.05670698],[-63.09890609,18.05688503],[-63.09922262,18.05685233],[-63.09940779,18.05679349],[-63.09975157,18.05647244],[-63.09984793,18.05643714],[-63.1000389,18.05661872],[-63.10009097,18.05678138],[-63.10027149,18.05685631],[-63.10029892,18.05690962],[-63.10036601,18.0569132],[-63.10043307,18.0568499],[-63.10057289,18.05681277],[-63.10064743,18.05661569],[-63.10070884,18.05659668],[-63.10151024,18.05678787],[-63.1015679,18.05681586],[-63.10159347,18.0569216],[-63.1018969,18.05710854],[-63.10188749,18.05717001],[-63.10209822,18.05719068],[-63.10242717,18.05740201],[-63.10287132,18.05745601],[-63.10301114,18.05741345],[-63.10326064,18.05747207],[-63.10346095,18.05744756],[-63.10347422,18.05752709],[-63.10373703,18.05771766],[-63.1039771,18.05781696],[-63.10406117,18.05777624],[-63.1042556,18.05739109],[-63.10432927,18.05734496],[-63.10453624,18.05739636],[-63.1045987,18.05755089],[-63.10476403,18.05750199],[-63.10489832,18.05768179],[-63.10513081,18.05775397],[-63.10548056,18.05795805],[-63.10604099,18.05810598],[-63.10621768,18.05807786],[-63.10624512,18.05814744],[-63.10631032,18.05814921],[-63.10660219,18.05795201],[-63.10676657,18.05789317],[-63.10711509,18.05763086],[-63.10723785,18.05750967],[-63.10747574,18.0571254],[-63.10769106,18.05692282],[-63.10816901,18.05663061],[-63.10839762,18.05652202],[-63.10884829,18.05644041],[-63.1092461,18.05642482],[-63.10933494,18.0564546],[-63.10950795,18.05661087],[-63.10969996,18.05690903],[-63.11000343,18.05716013],[-63.11001387,18.05722973],[-63.10997609,18.05725686],[-63.10959145,18.05715766],[-63.10949415,18.05720291],[-63.1090031,18.05770482],[-63.10835235,18.05821135],[-63.10813523,18.05855223],[-63.10815232,18.05869593],[-63.1082034,18.05877544],[-63.10874605,18.05920356],[-63.1090022,18.05931098],[-63.10911936,18.05929735],[-63.10947095,18.05942189],[-63.11004359,18.05943241],[-63.11037254,18.05961028],[-63.111053,18.0597771],[-63.11144147,18.05993325],[-63.11144719,18.06001007],[-63.11181963,18.06023582],[-63.11221094,18.06038744],[-63.11260595,18.06043512],[-63.11283942,18.06053983],[-63.1130474,18.06068613],[-63.11337172,18.06100591],[-63.11345215,18.06118121],[-63.11357222,18.06127695],[-63.11362807,18.06142424],[-63.11371505,18.06149288],[-63.11404957,18.06151528],[-63.11400711,18.06160208],[-63.11404781,18.06171413],[-63.11413954,18.0618117],[-63.11435597,18.06187845],[-63.11444014,18.06198235],[-63.11489275,18.06194592],[-63.11489561,18.06198569],[-63.11480495,18.06208246],[-63.11495626,18.06225862],[-63.11504887,18.0622658],[-63.1150868,18.06246914],[-63.11519931,18.06256217],[-63.11553769,18.06269122],[-63.11581739,18.06268473],[-63.11598016,18.06304888],[-63.11618537,18.06327834],[-63.11634892,18.06338761],[-63.11680375,18.06384649],[-63.11714975,18.06407857],[-63.11761587,18.06445881],[-63.11822128,18.06540478],[-63.11864972,18.06594503],[-63.11891535,18.06609129],[-63.11894757,18.06623136],[-63.11926241,18.0664716],[-63.11940906,18.06673724],[-63.11956791,18.06686639],[-63.11971347,18.06692053],[-63.11976077,18.06700547],[-63.11997629,18.0670921],[-63.12013705,18.06726916],[-63.12026844,18.0673206],[-63.12038751,18.06731781],[-63.12078997,18.06717294],[-63.12123489,18.06693766],[-63.12135772,18.06691318],[-63.12201508,18.06640932],[-63.12212837,18.06626644],[-63.12271496,18.0659235],[-63.1226865,18.0657536],[-63.12298589,18.06552112],[-63.12301142,18.06554822],[-63.12284047,18.06567035],[-63.12286507,18.06572275],[-63.1228273,18.06575532],[-63.12277814,18.0657219],[-63.12273848,18.06576893],[-63.12277729,18.06587014],[-63.12293033,18.06580315],[-63.12305223,18.06579765],[-63.12307293,18.06566839],[-63.12312497,18.06576959],[-63.12321194,18.06580659],[-63.12337734,18.06585981],[-63.123503,18.06583081],[-63.12359363,18.06569879],[-63.12346688,18.06552623],[-63.12354801,18.0653201],[-63.12362827,18.06523147],[-63.12366891,18.0652432],[-63.12367272,18.06528748],[-63.12353396,18.06550811],[-63.12354344,18.0655542],[-63.12363893,18.06561289],[-63.1237788,18.0656345],[-63.12389972,18.06559103],[-63.12403759,18.06545085],[-63.12415462,18.06524288],[-63.12408359,18.06502149],[-63.12415151,18.06485152],[-63.12420162,18.06489035],[-63.12411764,18.06506395],[-63.12413846,18.06510551],[-63.12432556,18.06509545],[-63.12451255,18.06493805],[-63.12461167,18.06479609],[-63.12463051,18.06471021],[-63.12459552,18.06468221],[-63.12462667,18.06463338],[-63.12504417,18.06438817],[-63.12530009,18.0641539],[-63.12564206,18.06400183],[-63.12612579,18.0638795],[-63.12620323,18.06380714],[-63.12625128,18.06361278],[-63.12626559,18.06379625],[-63.12637049,18.06381155],[-63.12649329,18.06375091],[-63.12684359,18.06336112],[-63.12724634,18.06232051],[-63.12744749,18.06215407],[-63.12757965,18.06197141],[-63.12768079,18.0620084],[-63.12781212,18.06198842],[-63.12798118,18.06185997],[-63.12808323,18.06185628],[-63.12823825,18.06192668],[-63.12829691,18.06202426],[-63.12838196,18.06203776],[-63.12841319,18.0621001],[-63.12851339,18.06214523],[-63.12857005,18.0620991],[-63.1286712,18.06214874],[-63.12877238,18.06223996],[-63.1287876,18.0623918],[-63.1288632,18.06239537],[-63.12886123,18.062286],[-63.12900688,18.06245312],[-63.12910604,18.06237532],[-63.12901052,18.06225788],[-63.12905398,18.06224791],[-63.12913417,18.06207612],[-63.12903583,18.06198038],[-63.12812843,18.06164113],[-63.12812933,18.06158238],[-63.12818506,18.06155613],[-63.12841191,18.0616301],[-63.12857914,18.06159655],[-63.12864247,18.06162995],[-63.12862446,18.061545],[-63.12866315,18.06147176],[-63.12855244,18.06127118],[-63.12831252,18.06140691],[-63.12819813,18.06132835],[-63.12820659,18.06126598],[-63.12831235,18.06116378],[-63.12838586,18.0608998],[-63.12837346,18.06074344],[-63.12819755,18.06053477],[-63.12817394,18.06054473],[-63.12814833,18.06042182],[-63.12820026,18.0603549],[-63.12818128,18.06024645],[-63.12840327,18.06014959],[-63.12838907,18.06011525],[-63.12876686,18.05985288],[-63.12880083,18.05979682],[-63.12940058,18.05940053],[-63.12959046,18.05933261],[-63.12989082,18.05915164],[-63.13012039,18.05909545],[-63.13020633,18.0590285],[-63.13020258,18.05906285],[-63.13033294,18.05901215],[-63.13040194,18.05903018],[-63.13063227,18.05872181],[-63.13076732,18.05861235],[-63.13077963,18.0586494],[-63.13048799,18.0591187],[-63.1308056,18.05927033],[-63.13152182,18.05921381],[-63.13176081,18.05910247],[-63.13190822,18.05910418],[-63.13225607,18.05925579],[-63.13244221,18.0592412],[-63.1325565,18.0591896],[-63.13290388,18.05871574],[-63.13292549,18.05854399],[-63.13285638,18.05837773],[-63.13287807,18.05831716],[-63.13302258,18.05822848],[-63.13307822,18.05808292],[-63.13312051,18.05777287],[-63.13310653,18.05678225],[-63.13306564,18.05643701],[-63.13298326,18.05620568],[-63.13291098,18.05557935],[-63.13291535,18.05511025],[-63.13296517,18.05477127],[-63.13311315,18.05426953],[-63.13320184,18.05409773],[-63.13339727,18.05387615]]]]},"bbox":[-63.15332048,18.05290403,-63.09306505,18.07722786]}]}